<?xml version="1.0" encoding="UTF-8"?>
<kml xmlns="http://www.opengis.net/kml/2.2">
  <Document>
    <name>-/ZTHOT - Optimised</name>
    <description><![CDATA[Optimised flight path with 1263 points (decimated from 6314 original points). Source format: Standard KML]]></description>
    
    <Style id="flightPath">
      <LineStyle>
        <color>ffff0000</color>
        <width>3</width>
      </LineStyle>
    </Style>
    
    <Placemark>
      <name>Flight Path</name>
      <description><![CDATA[<div style="width:220px; text-align:center;">
<div style="width:210px; text-align:center;">
<div style=" background: #000; color: #fff; font-size: 14px; text-align:left; border: 1px solid #000; padding: 2px 6px; text-shadow: 0 1px 0 #000; box-shadow: 0 1px 3px rgba(0,0,0,0.6); background: -webkit-gradient(linear, left top, left bottom, color-stop(0%,#808080), color-stop(2%,#303030), color-stop(100%,#0c0c0c));"><span style="font-size: 14px; font-weight: bold;"><a href="javascript:void(0);" style="color: #fff; cursor: pointer;text-decoration: none;">-</a></span> / ZTHOT<br/>Cape Town Helicopters</div>

<div style="border-top: 1px solid #005c90; color: #fff; padding-bottom: 5px; box-shadow: 0 0 1px #9BE3F6 inset, 0 1px 0 #9BE3F6 inset, 0 -1px 3px rgba(0,0,0,0.4); background:rgba(43,114,173,1); background: -webkit-gradient(linear, left top, left bottom, color-stop(0%,rgba(92,184,229,1)), color-stop(100%,rgba(43,114,173,1)));">
<a style="text-decoration: none; color: rgb(255, 255, 255); font-size: 12px; width:77px; display: inline-block;" title="Cape Town Airport" href="https://www.flightradar24.com/airport/cpt/departures"><h3 style="padding: 0px; margin: 10px 0px 0px; font-size: 16px; ">CPT</h3>Cape Town</a>
<span style="background: url(https://www.flightradar24.com/static/images/userUI_sprite.png?14) no-repeat scroll 0 -464px rgba(0, 0, 0, 0); border: medium none; display: inline-block; height: 16px; width: 45px;"></span>
<a style="text-decoration: none; color: rgb(255, 255, 255); font-size: 12px; width:77px; display: inline-block;" title=" Airport" href="javascript:void(0);/arrivals"><h3 style="padding: 0px; margin: 10px 0px 0px; font-size: 16px;">?</h3></a>
<div style=" margin-top:10px;">
<div style="display: inline-block; font-size: 12px; padding: 0 5px;">
<div>
<span style="color: #c1eaff;" title="Actual Time of Departure">ATD </span>
<span title="2025-11-27 07:51">07:51</span> <span title="Coordinated Universal Time">UTC</span>
</div>
</div>
<div style="display: inline-block; font-size: 12px; padding: 0 5px;">
<div>
<span style="color: #c1eaff;" title="Estimated Time of Arrival">ETA </span>
<span title="2025-11-27 08:07">08:07</span> <span title="Coordinated Universal Time">UTC</span>
</div>
</div>
</div>
<br style="clear: both;"/>
</div>

<div style="display: block;">
<table style="border-collapse: collapse; width: 100%;">
<tr style="border-right: 1px solid #dadada; ">
<td style="background: none repeat scroll 0 0 #dadada; padding: 0; width: 31px;">
<span style="background: url(https://www.flightradar24.com/static/images/userUI_sprite.png?14) no-repeat scroll -208px -464px rgba(0, 0, 0, 0); height: 26px; margin: 8px 0 0 4px; width: 23px; display: block;"></span>
</td>
<td colspan="2" style="border-bottom: 1px solid #dadada; border-left: 1px solid #dadada; color: #666; line-height: 1.1em; padding: 3px 6px; vertical-align: top; font-size: 14px;">
Aircraft<span style="float: right; font-size: 12px;">(AS50)</span><br>
<span style="color: #333; font-size: 16px; font-weight: bold; line-height: 1.3em;">Airbus Helicopters H125</span>
</td>
</tr>
<tr style="border-right: 1px solid #dadada; ">
<td style="background: none repeat scroll 0 0 #dadada; padding: 0; width: 31px;">
<td colspan="2" style="border-bottom: 1px solid #dadada; border-left: 1px solid #dadada; color: #666; line-height: 1.1em; padding: 3px 6px; vertical-align: top; font-size: 14px;">
Registration<br>
<span style="color: #333; font-size: 16px; font-weight: bold; line-height: 1.3em;"><a href="https://www.flightradar24.com/reg/zt-hot" style="text-decoration: none; color: #333;">ZT-HOT</a></span>
</td>
</tr>
</table>
</div>

</div>
</div>]]></description>
      <styleUrl>#flightPath</styleUrl>
      <LineString>
        <extrude>1</extrude>
        <tessellate>1</tessellate>
        <altitudeMode>absolute</altitudeMode>
        <coordinates>
          18.426874,-33.900787,60.96 18.427547,-33.899643,60.96 18.428276,-33.898727,60.96 18.429398,-33.897217,91.44 18.430252,-33.89608,121.92 18.431625,-33.894127,152.4 18.432537,-33.892776,152.4 18.433882,-33.890854,182.88 18.434772,-33.889423,213.36 18.435974,-33.886955,213.36 18.436375,-33.885235,243.84 18.436089,-33.882393,243.84 18.435459,-33.880814,274.32 18.433228,-33.877972,304.8 18.431225,-33.876621,304.8 18.427883,-33.875381,335.28 18.425617,-33.874947,335.28 18.422054,-33.874786,365.76 18.419151,-33.874992,396.24 18.415104,-33.875519,426.72 18.412857,-33.875832,426.72 18.408737,-33.876717,457.2 18.406792,-33.877319,487.68 18.403702,-33.878391,487.68 18.401871,-33.879181,518.16 18.398905,-33.880554,518.16 18.39695,-33.881603,548.64 18.394588,-33.882935,579.12 18.392963,-33.883987,579.12 18.390656,-33.885605,609.6 18.38904,-33.886826,609.6 18.386936,-33.888538,640.08 18.385448,-33.889843,640.08 18.382986,-33.89209,670.56 18.381557,-33.893566,701.04 18.379726,-33.895382,701.04 18.378445,-33.896713,701.04 18.376596,-33.898682,731.52 18.375149,-33.900177,731.52 18.37015,-33.90596,762 18.368805,-33.907791,792.48 18.367123,-33.910126,792.48 18.365936,-33.911816,822.96 18.364151,-33.914429,822.96 18.363031,-33.916077,822.96 18.361187,-33.918892,822.96 18.360172,-33.920746,853.44 18.358828,-33.923447,853.44 18.357754,-33.925735,853.44 18.356585,-33.928528,883.92 18.355865,-33.930202,883.92 18.354607,-33.933231,883.92 18.353109,-33.937088,883.92 18.348961,-33.946106,883.92 18.348009,-33.947937,883.92 18.345966,-33.951477,883.92 18.344765,-33.95348,883.92 18.343077,-33.956223,914.4 18.343077,-33.963501,914.4 18.349113,-33.96479,914.4 18.350924,-33.964096,914.4 18.354006,-33.961899,914.4 18.355579,-33.959904,914.4 18.357067,-33.956692,914.4 18.357819,-33.954437,883.92 18.35877,-33.951141,883.92 18.359331,-33.949219,853.44 18.360172,-33.945923,822.96 18.360786,-33.943657,822.96 18.363247,-33.934578,762 18.36422,-33.931416,762 18.365536,-33.928108,731.52 18.366449,-33.92601,731.52 18.368299,-33.922989,701.04 18.36977,-33.920845,701.04 18.371944,-33.918194,670.56 18.373569,-33.916214,670.56 18.375893,-33.91354,640.08 18.37738,-33.911865,640.08 18.379791,-33.909073,640.08 18.381271,-33.907299,609.6 18.383675,-33.904785,609.6 18.385334,-33.903111,609.6 18.387863,-33.900604,579.12 18.389626,-33.898968,579.12 18.392372,-33.896919,548.64 18.394308,-33.89566,548.64 18.397448,-33.893784,518.16 18.399689,-33.892685,518.16 18.402941,-33.891403,518.16 18.40559,-33.890587,487.68 18.409138,-33.889656,487.68 18.411516,-33.889069,487.68 18.41486,-33.88826,487.68 18.417263,-33.887749,457.2 18.420467,-33.887142,457.2 18.422783,-33.886826,457.2 18.42609,-33.88678,426.72 18.427996,-33.886963,426.72 18.431053,-33.887703,396.24 18.432648,-33.888428,396.24 18.434946,-33.889755,365.76 18.435974,-33.890495,365.76 18.437405,-33.891846,335.28 18.43803,-33.892868,304.8 18.438646,-33.894333,274.32 18.438835,-33.895428,243.84 18.438778,-33.896873,213.36 18.438253,-33.897949,182.88 18.436628,-33.898682,182.88 18.435459,-33.898827,152.4 18.433456,-33.898922,121.92 18.432032,-33.899048,121.92 18.430014,-33.899323,91.44 18.429173,-33.89946,60.96 18.427212,-33.900101,60.96 18.426819,-33.900627,0 18.427906,-33.899155,60.96 18.428822,-33.897942,91.44 18.429966,-33.896267,121.92 18.430882,-33.894962,121.92 18.431976,-33.893188,152.4 18.432941,-33.891705,182.88 18.434143,-33.889519,213.36 18.435059,-33.88784,213.36 18.436012,-33.885361,243.84 18.436123,-33.883667,243.84 18.435459,-33.880859,274.32 18.434217,-33.878952,304.8 18.43174,-33.877132,304.8 18.429966,-33.876389,335.28 18.426764,-33.875381,365.76 18.424576,-33.874878,365.76 18.421211,-33.874527,396.24 18.418915,-33.87442,426.72 18.41526,-33.874573,457.2 18.413254,-33.874832,457.2 18.410227,-33.875381,487.68 18.408434,-33.875885,487.68 18.405476,-33.876808,518.16 18.403612,-33.877487,518.16 18.401146,-33.878632,548.64 18.39924,-33.879593,548.64 18.396378,-33.881092,579.12 18.394947,-33.881927,579.12 18.392086,-33.883698,609.6 18.390272,-33.884903,609.6 18.387863,-33.886642,609.6 18.386135,-33.887886,640.08 18.383657,-33.889801,640.08 18.38192,-33.89122,670.56 18.379669,-33.893101,670.56 18.378181,-33.89436,701.04 18.376146,-33.896255,701.04 18.374805,-33.897572,701.04 18.372391,-33.900146,731.52 18.371271,-33.901611,731.52 18.369255,-33.904228,762 18.368187,-33.905777,762 18.366507,-33.908295,792.48 18.365421,-33.910141,792.48 18.363705,-33.912979,792.48 18.362617,-33.914841,822.96 18.361126,-33.917679,822.96 18.3601,-33.919777,822.96 18.359013,-33.92215,853.44 18.358042,-33.924316,853.44 18.35681,-33.927246,853.44 18.356081,-33.929169,883.92 18.354847,-33.932693,883.92 18.351917,-33.942772,914.4 18.349342,-33.948963,944.88 18.348177,-33.951141,944.88 18.346214,-33.954208,944.88 18.344982,-33.955902,944.88 18.339329,-33.96386,944.88 18.336069,-33.968536,944.88 18.32777,-33.979782,975.36 18.325083,-33.984695,975.36 18.323458,-33.987717,975.36 18.322393,-33.989685,975.36 18.320486,-33.992752,975.36 18.318958,-33.994678,975.36 18.316555,-33.997284,975.36 18.314896,-33.998962,975.36 18.312378,-34.001431,975.36 18.310833,-34.002777,975.36 18.308258,-34.004826,975.36 18.306084,-34.006454,975.36 18.303055,-34.008545,975.36 18.300934,-34.010136,975.36 18.297844,-34.0126,975.36 18.29607,-34.014183,975.36 18.293581,-34.016785,975.36 18.292068,-34.018707,975.36 18.290779,-34.021729,975.36 18.291002,-34.02388,1005.84 18.29298,-34.026333,1005.84 18.295095,-34.026947,1036.32 18.298244,-34.026798,1036.32 18.300705,-34.026474,1005.84 18.304176,-34.025528,1005.84 18.30653,-34.024521,1005.84 18.309803,-34.02261,975.36 18.311863,-34.021259,975.36 18.31461,-34.019257,975.36 18.316269,-34.01786,975.36 18.318525,-34.01564,944.88 18.320038,-34.013763,944.88 18.321877,-34.011066,944.88 18.323065,-34.009232,944.88 18.324795,-34.006596,944.88 18.325869,-34.004791,914.4 18.327717,-34.001999,914.4 18.328972,-34.00008,914.4 18.330744,-33.997467,914.4 18.331833,-33.995937,914.4 18.333721,-33.993374,914.4 18.335152,-33.991558,914.4 18.337555,-33.988861,883.92 18.339153,-33.987213,914.4 18.341503,-33.98481,883.92 18.3433,-33.983047,883.92 18.34543,-33.980759,883.92 18.347168,-33.978882,883.92 18.349342,-33.976383,883.92 18.35043,-33.975033,883.92 18.352489,-33.972008,883.92 18.354679,-33.968033,883.92 18.355865,-33.965164,883.92 18.356552,-33.962978,883.92 18.357313,-33.960022,883.92 18.357874,-33.957779,883.92 18.35844,-33.954689,883.92 18.35877,-33.952744,883.92 18.359299,-33.949429,883.92 18.359814,-33.945984,853.44 18.360453,-33.942856,853.44 18.361015,-33.940536,822.96 18.362389,-33.935139,792.48 18.363132,-33.932949,762 18.364334,-33.929878,762 18.365307,-33.927876,731.52 18.367178,-33.924774,701.04 18.368412,-33.922943,670.56 18.3708,-33.919914,640.08 18.372459,-33.918148,640.08 18.374969,-33.915756,640.08 18.376484,-33.914291,609.6 18.379326,-33.911629,609.6 18.381042,-33.909908,609.6 18.383617,-33.907299,609.6 18.385059,-33.905685,579.12 18.387302,-33.903122,579.12 18.388927,-33.901291,579.12 18.391449,-33.898819,548.64 18.393459,-33.897243,548.64 18.396664,-33.895336,548.64 18.398838,-33.894218,518.16 18.401987,-33.892868,518.16 18.404285,-33.891998,518.16 18.407478,-33.890915,487.68 18.409939,-33.890167,487.68 18.413601,-33.889099,487.68 18.415546,-33.888584,487.68 18.419195,-33.88765,457.2 18.421326,-33.887188,457.2 18.424587,-33.886723,426.72 18.426483,-33.886734,426.72 18.429062,-33.887238,396.24 18.43063,-33.887833,365.76 18.432369,-33.888912,365.76 18.433546,-33.889801,335.28 18.435116,-33.891331,304.8 18.435787,-33.892181,304.8 18.43689,-33.89394,274.32 18.437357,-33.895111,274.32 18.437244,-33.896667,243.84 18.436718,-33.897617,213.36 18.435173,-33.898922,182.88 18.433743,-33.899525,152.4 18.431396,-33.900177,91.44 18.430294,-33.900284,91.44 18.428276,-33.900467,60.96 18.427715,-33.900513,60.96 18.426991,-33.900551,60.96 18.427883,-33.899048,60.96 18.428949,-33.897491,91.44 18.429737,-33.896408,121.92 18.431078,-33.894653,121.92 18.432083,-33.893333,152.4 18.433857,-33.890961,152.4 18.434772,-33.889656,182.88 18.43626,-33.887188,182.88 18.436741,-33.885361,213.36 18.436203,-33.882488,243.84 18.435394,-33.880875,243.84 18.433228,-33.878437,274.32 18.431282,-33.877182,304.8 18.428053,-33.875885,335.28 18.425978,-33.875336,335.28 18.422527,-33.874947,365.76 18.420149,-33.874969,365.76 18.416462,-33.875366,396.24 18.41423,-33.87569,426.72 18.411427,-33.876202,457.2 18.409309,-33.876667,457.2 18.406248,-33.877441,487.68 18.404173,-33.878082,487.68 18.401426,-33.879044,518.16 18.39941,-33.879833,518.16 18.396778,-33.881184,548.64 18.395061,-33.88216,579.12 18.3922,-33.88393,579.12 18.390553,-33.884811,609.6 18.38768,-33.886398,640.08 18.385845,-33.887604,640.08 18.383503,-33.889469,640.08 18.381786,-33.890961,670.56 18.37944,-33.893333,670.56 18.37801,-33.894825,670.56 18.376036,-33.896988,701.04 18.374689,-33.898544,701.04 18.372616,-33.900925,731.52 18.371214,-33.902527,731.52 18.368467,-33.905594,731.52 18.366394,-33.907997,731.52 18.364449,-33.910465,762 18.363199,-33.912277,762 18.361416,-33.915401,762 18.36034,-33.917404,762 18.358955,-33.92038,762 18.358154,-33.922302,762 18.356977,-33.925552,792.48 18.356081,-33.928024,762 18.354567,-33.93306,762 18.353951,-33.935394,762 18.353233,-33.938629,762 18.35289,-33.940445,762 18.352432,-33.943378,762 18.352203,-33.945614,762 18.352774,-33.948074,762 18.353558,-33.94899,762 18.355923,-33.94957,762 18.357067,-33.949059,792.48 18.358383,-33.947895,792.48 18.359585,-33.947243,822.96 18.361187,-33.948078,822.96 18.361404,-33.949173,792.48 18.360285,-33.951141,792.48 18.359299,-33.952175,792.48 18.358383,-33.954319,762 18.359667,-33.955215,762 18.362503,-33.955017,731.52 18.363991,-33.953854,701.04 18.365021,-33.951012,701.04 18.364937,-33.948669,670.56 18.364506,-33.945705,670.56 18.36422,-33.943192,670.56 18.364048,-33.940353,640.08 18.364096,-33.93782,640.08 18.364489,-33.934616,640.08 18.364964,-33.932579,640.08 18.365946,-33.929535,640.08 18.366737,-33.927505,640.08 18.368299,-33.924316,640.08 18.369196,-33.922806,640.08 18.371201,-33.920055,640.08 18.372561,-33.918365,609.6 18.374748,-33.915913,640.08 18.376408,-33.914188,609.6 18.378838,-33.911545,609.6 18.380356,-33.909813,609.6 18.382538,-33.907242,609.6 18.383827,-33.905594,609.6 18.385956,-33.90303,609.6 18.38747,-33.901428,609.6 18.390049,-33.899048,579.12 18.391729,-33.897766,579.12 18.395061,-33.89571,548.64 18.397293,-33.894638,548.64 18.400497,-33.893196,548.64 18.402603,-33.892365,548.64 18.406334,-33.891148,518.16 18.408566,-33.890541,518.16 18.412342,-33.889469,518.16 18.414803,-33.888821,518.16 18.418131,-33.888016,487.68 18.420542,-33.887558,487.68 18.423328,-33.887142,487.68 18.425617,-33.887051,457.2 18.428444,-33.887329,457.2 18.430126,-33.887741,426.72 18.432312,-33.888634,396.24 18.433514,-33.889378,396.24 18.434944,-33.89045,365.76 18.4359,-33.891403,335.28 18.437077,-33.892685,304.8 18.437693,-33.893463,304.8 18.438309,-33.894699,304.8 18.438589,-33.895477,274.32 18.438814,-33.896622,243.84 18.438549,-33.89743,243.84 18.437412,-33.898361,213.36 18.436068,-33.898956,182.88 18.434315,-33.899387,152.4 18.433342,-33.89962,121.92 18.431168,-33.90004,91.44 18.429794,-33.900318,91.44 18.427435,-33.900879,60.96 18.426945,-33.90097,0 18.427492,-33.899597,60.96 18.428135,-33.898502,91.44 18.429285,-33.896851,91.44 18.430182,-33.895615,121.92 18.43174,-33.893475,152.4 18.432705,-33.892181,152.4 18.434105,-33.889984,182.88 18.435003,-33.888474,182.88 18.43618,-33.886002,213.36 18.436718,-33.884163,213.36 18.436964,-33.881516,243.84 18.436546,-33.879601,274.32 18.434658,-33.877365,304.8 18.432999,-33.876621,304.8 18.430519,-33.876755,335.28 18.429222,-33.877415,335.28 18.428249,-33.878857,365.76 18.428444,-33.87973,396.24 18.429901,-33.880463,396.24 18.43119,-33.880325,396.24 18.433321,-33.878906,426.72 18.434086,-33.877228,426.72 18.433546,-33.874146,457.2 18.432312,-33.872681,457.2 18.429173,-33.871124,487.68 18.427212,-33.870621,487.68 18.423904,-33.8703,518.16 18.421719,-33.870209,518.16 18.418407,-33.870476,548.64 18.416176,-33.87085,548.64 18.413143,-33.871593,579.12 18.410843,-33.872269,579.12 18.408165,-33.873272,609.6 18.406191,-33.874146,609.6 18.403221,-33.875702,609.6 18.401527,-33.876762,640.08 18.399298,-33.878265,640.08 18.39739,-33.879593,640.08 18.395149,-33.881241,640.08 18.393356,-33.88266,640.08 18.390833,-33.884674,670.56 18.38932,-33.885956,670.56 18.387022,-33.887787,701.04 18.380743,-33.89296,731.52 18.372391,-33.900009,762 18.368454,-33.903763,762 18.366451,-33.905949,792.48 18.365135,-33.90744,792.48 18.362904,-33.910233,822.96 18.361759,-33.91177,822.96 18.359871,-33.914516,822.96 18.358784,-33.916191,822.96 18.357182,-33.918892,853.44 18.356266,-33.920708,853.44 18.355007,-33.923409,883.92 18.354321,-33.925083,883.92 18.353222,-33.928116,883.92 18.352547,-33.930252,914.4 18.351707,-33.933105,914.4 18.350363,-33.9375,914.4 18.346775,-33.947388,914.4 18.345795,-33.949291,914.4 18.344366,-33.952011,914.4 18.343163,-33.954086,914.4 18.341394,-33.957047,914.4 18.338984,-33.960938,914.4 18.331318,-33.973965,944.88 18.325882,-33.983368,944.88 18.319473,-33.994213,944.88 18.315443,-34.001038,944.88 18.311014,-34.008957,944.88 18.308491,-34.013947,944.88 18.306828,-34.017025,944.88 18.305689,-34.019211,944.88 18.30311,-34.024384,944.88 18.302269,-34.026489,944.88 18.301163,-34.029732,944.88 18.300648,-34.031876,944.88 18.300083,-34.035324,914.4 18.300083,-34.037567,944.88 18.300476,-34.040813,914.4 18.301092,-34.043015,914.4 18.302382,-34.04631,914.4 18.303223,-34.047935,914.4 18.305054,-34.051193,883.92 18.306255,-34.053196,883.92 18.307972,-34.05566,883.92 18.309288,-34.05743,883.92 18.311234,-34.05999,883.92 18.312639,-34.061691,883.92 18.31477,-34.064072,883.92 18.316339,-34.065948,883.92 18.318413,-34.068512,883.92 18.319759,-34.070328,883.92 18.321648,-34.073025,883.92 18.322849,-34.074936,883.92 18.324635,-34.077438,883.92 18.326225,-34.079357,914.4 18.328726,-34.081329,883.92 18.330803,-34.082012,914.4 18.33366,-34.081375,944.88 18.334694,-34.080101,944.88 18.334579,-34.078007,975.36 18.33338,-34.076431,975.36 18.331604,-34.074562,975.36 18.331081,-34.073227,975.36 18.332201,-34.071304,975.36 18.333828,-34.071075,944.88 18.335733,-34.072678,944.88 18.336126,-34.074417,914.4 18.335838,-34.077263,914.4 18.335609,-34.079498,914.4 18.335621,-34.082611,914.4 18.335901,-34.084717,883.92 18.336685,-34.087509,883.92 18.337727,-34.0896,853.44 18.339602,-34.092407,853.44 18.341103,-34.094112,822.96 18.343449,-34.096302,822.96 18.345165,-34.097607,792.48 18.34774,-34.099327,792.48 18.349686,-34.100445,762 18.352716,-34.102066,731.52 18.354624,-34.102982,731.52 18.357874,-34.104355,701.04 18.359871,-34.105148,701.04 18.363075,-34.106358,670.56 18.365192,-34.107147,670.56 18.368454,-34.108311,670.56 18.370543,-34.109116,670.56 18.380299,-34.11264,640.08 18.382425,-34.113419,640.08 18.389797,-34.116039,640.08 18.391914,-34.116879,640.08 18.396271,-34.118546,640.08 18.398266,-34.119251,609.6 18.401356,-34.120323,640.08 18.403301,-34.121021,609.6 18.406191,-34.121979,640.08 18.408508,-34.122746,640.08 18.411461,-34.123672,640.08 18.413815,-34.124313,640.08 18.417067,-34.125046,609.6 18.419195,-34.125412,609.6 18.422527,-34.125957,640.08 18.425045,-34.126282,609.6 18.428612,-34.126602,609.6 18.431135,-34.12674,609.6 18.434385,-34.126785,640.08 18.436571,-34.126648,640.08 18.439865,-34.126141,640.08 18.442457,-34.125458,609.6 18.445587,-34.124557,609.6 18.44759,-34.123859,609.6 18.450565,-34.12265,609.6 18.452492,-34.12175,609.6 18.455544,-34.119858,609.6 18.457256,-34.118454,609.6 18.459663,-34.116039,640.08 18.461266,-34.114273,640.08 18.463669,-34.111477,609.6 18.464991,-34.110077,609.6 18.467617,-34.106964,609.6 18.468876,-34.105286,609.6 18.470707,-34.102352,609.6 18.471851,-34.100307,609.6 18.47323,-34.097122,609.6 18.473969,-34.095047,609.6 18.474913,-34.091812,609.6 18.475361,-34.089523,609.6 18.475685,-34.085922,609.6 18.475628,-34.083591,609.6 18.475304,-34.080139,609.6 18.474941,-34.077354,609.6 18.47452,-34.073868,579.12 18.474312,-34.071815,579.12 18.474083,-34.067814,579.12 18.474014,-34.065491,579.12 18.474026,-34.061855,579.12 18.474083,-34.059341,579.12 18.474255,-34.055569,548.64 18.474352,-34.053131,548.64 18.47452,-34.049606,548.64 18.474655,-34.047005,548.64 18.474998,-34.040581,518.16 18.475571,-34.031876,518.16 18.476772,-34.018887,487.68 18.477547,-34.010101,487.68 18.478275,-33.998749,457.2 18.478489,-33.99612,457.2 18.478889,-33.992306,457.2 18.479172,-33.989685,457.2 18.479404,-33.98616,457.2 18.479565,-33.983871,426.72 18.479919,-33.980572,457.2 18.480181,-33.978104,457.2 18.480721,-33.97438,457.2 18.481007,-33.972286,457.2 18.481636,-33.96833,457.2 18.483095,-33.959656,396.24 18.483696,-33.95348,365.76 18.483768,-33.950912,365.76 18.483696,-33.946823,335.28 18.483524,-33.944401,335.28 18.482872,-33.940475,335.28 18.482254,-33.938187,335.28 18.480721,-33.934345,335.28 18.47934,-33.932007,304.8 18.476601,-33.928669,304.8 18.474998,-33.927036,304.8 18.471268,-33.923538,304.8 18.469082,-33.92157,304.8 18.466,-33.918915,304.8 18.464037,-33.917221,304.8 18.460808,-33.914421,274.32 18.458691,-33.912514,304.8 18.45583,-33.909721,274.32 18.454172,-33.907837,274.32 18.451763,-33.904816,274.32 18.450529,-33.90303,274.32 18.448906,-33.900364,274.32 18.447704,-33.898407,274.32 18.445587,-33.896313,274.32 18.443756,-33.895569,274.32 18.440666,-33.89571,243.84 18.439407,-33.896221,213.36 18.437061,-33.897385,152.4 18.435284,-33.898087,152.4 18.433266,-33.898727,121.92 18.431854,-33.899155,121.92 18.427334,-33.900738,60.96 18.426903,-33.901005,0 18.428444,-33.898453,91.44 18.42934,-33.897308,91.44 18.430824,-33.895382,121.92 18.431854,-33.894032,152.4 18.433342,-33.89217,152.4 18.434544,-33.890633,182.88 18.436012,-33.888428,182.88 18.436684,-33.886871,213.36 18.437061,-33.884258,243.84 18.436832,-33.882626,243.84 18.435745,-33.879879,243.84 18.434385,-33.878174,274.32 18.431751,-33.876114,304.8 18.430014,-33.87529,304.8 18.426361,-33.874107,335.28 18.424576,-33.873779,335.28 18.42001,-33.873783,365.76 18.417606,-33.874107,396.24 18.41423,-33.874805,396.24 18.412245,-33.875244,426.72 18.409443,-33.876022,457.2 18.406906,-33.876762,457.2 18.404062,-33.87767,487.68 18.401819,-33.878448,487.68 18.398895,-33.879601,518.16 18.396664,-33.880581,518.16 18.394032,-33.881927,548.64 18.392658,-33.882721,548.64 18.390049,-33.884308,579.12 18.388424,-33.885372,609.6 18.386068,-33.887009,640.08 18.384556,-33.888153,640.08 18.382313,-33.889847,670.56 18.380743,-33.891129,701.04 18.378754,-33.892731,701.04 18.377325,-33.894012,731.52 18.375263,-33.896034,731.52 18.374073,-33.897308,762 18.372112,-33.899368,762 18.37071,-33.900879,792.48 18.368797,-33.902924,792.48 18.367403,-33.904495,822.96 18.365385,-33.906738,822.96 18.364105,-33.908138,822.96 18.36219,-33.910583,853.44 18.360844,-33.912468,853.44 18.358898,-33.915306,883.92 18.357925,-33.916935,883.92 18.356266,-33.920055,883.92 18.355352,-33.921936,914.4 18.354092,-33.924896,914.4 18.353291,-33.926945,914.4 18.352158,-33.929993,944.88 18.351427,-33.932098,944.88 18.3498,-33.937607,944.88 18.348793,-33.941345,944.88 18.346775,-33.947983,944.88 18.345934,-33.950043,944.88 18.344366,-33.95311,944.88 18.342964,-33.95517,944.88 18.341217,-33.957668,944.88 18.342075,-33.965908,944.88 18.347397,-33.967819,914.4 18.35083,-33.967258,914.4 18.355122,-33.964558,883.92 18.356642,-33.96254,883.92 18.357811,-33.959858,853.44 18.358547,-33.957321,853.44 18.359276,-33.953751,822.96 18.359585,-33.951477,792.48 18.359947,-33.947845,762 18.360285,-33.945236,762 18.360956,-33.942078,731.52 18.361574,-33.939789,731.52 18.362526,-33.936493,701.04 18.363144,-33.934433,701.04 18.364105,-33.931229,670.56 18.364712,-33.929169,670.56 18.366051,-33.925922,640.08 18.367081,-33.924057,640.08 18.369255,-33.921265,640.08 18.370743,-33.91959,640.08 18.373569,-33.916809,640.08 18.375206,-33.915215,640.08 18.377666,-33.912701,640.08 18.379326,-33.910976,640.08 18.381729,-33.908463,640.08 18.383446,-33.906601,640.08 18.385956,-33.903763,609.6 18.38747,-33.902069,609.6 18.389912,-33.899525,609.6 18.391787,-33.897903,609.6 18.394701,-33.895844,579.12 18.396326,-33.894836,579.12 18.399639,-33.893242,548.64 18.401985,-33.892357,548.64 18.405304,-33.891193,548.64 18.407593,-33.890495,518.16 18.410797,-33.889565,518.16 18.413029,-33.888958,518.16 18.416176,-33.888214,487.68 18.418236,-33.887749,487.68 18.421438,-33.887146,487.68 18.423456,-33.886963,457.2 18.426647,-33.887005,457.2 18.428444,-33.887238,457.2 18.430939,-33.887936,426.72 18.432255,-33.888493,426.72 18.434029,-33.889519,396.24 18.435116,-33.890263,396.24 18.436432,-33.89138,365.76 18.437347,-33.892311,335.28 18.438606,-33.893566,304.8 18.439207,-33.894241,304.8 18.439991,-33.895569,274.32 18.439991,-33.896301,274.32 18.43915,-33.897491,243.84 18.438198,-33.898041,213.36 18.436146,-33.898735,182.88 18.432198,-33.899666,121.92 18.430014,-33.900146,91.44 18.427677,-33.900738,0 18.43119,-33.901794,121.92 18.432484,-33.902039,152.4 18.434372,-33.902271,182.88 18.435732,-33.902344,213.36 18.438034,-33.901901,213.36 18.439808,-33.900875,243.84 18.441639,-33.898689,274.32 18.442497,-33.896778,274.32 18.44285,-33.8936,304.8 18.442554,-33.891613,335.28 18.441561,-33.888519,335.28 18.440552,-33.886723,365.76 18.438534,-33.883987,396.24 18.437021,-33.882294,396.24 18.434443,-33.879913,426.72 18.432199,-33.878265,426.72 18.42923,-33.87616,457.2 18.427391,-33.874992,457.2 18.42424,-33.87323,487.68 18.421999,-33.872223,518.16 18.418694,-33.871128,548.64 18.416519,-33.870708,579.12 18.413086,-33.870293,609.6 18.410625,-33.870197,609.6 18.406506,-33.87043,640.08 18.40416,-33.870758,640.08 18.400755,-33.871582,640.08 18.398176,-33.872406,640.08 18.394756,-33.873688,670.56 18.392658,-33.874573,670.56 18.38932,-33.876068,670.56 18.38719,-33.877167,701.04 18.384163,-33.878815,701.04 18.3822,-33.880005,701.04 18.379343,-33.881836,731.52 18.377438,-33.883141,731.52 18.374519,-33.885235,731.52 18.372974,-33.886444,762 18.370262,-33.888519,762 18.368467,-33.889984,762 18.366114,-33.892136,792.48 18.364656,-33.893555,792.48 18.362103,-33.896267,792.48 18.36062,-33.898041,792.48 18.35849,-33.900696,792.48 18.356752,-33.902802,792.48 18.354567,-33.905548,792.48 18.352947,-33.907532,792.48 18.346439,-33.915985,822.96 18.345095,-33.917999,822.96 18.343357,-33.920792,822.96 18.342133,-33.922802,822.96 18.340441,-33.925964,822.96 18.339432,-33.928162,822.96 18.338013,-33.931416,792.48 18.336639,-33.934952,822.96 18.335678,-33.938278,853.44 18.335896,-33.939701,853.44 18.338013,-33.941097,853.44 18.339329,-33.940956,853.44 18.340931,-33.939793,883.92 18.341843,-33.938416,883.92 18.34201,-33.936401,914.4 18.341394,-33.935074,914.4 18.338871,-33.934113,914.4 18.336124,-33.935558,914.4 18.334923,-33.938583,914.4 18.334408,-33.940536,914.4 18.33366,-33.943726,914.4 18.333149,-33.946125,914.4 18.332371,-33.949631,914.4 18.331947,-33.951572,944.88 18.329792,-33.95993,944.88 18.328278,-33.966019,944.88 18.325539,-33.977688,944.88 18.324108,-33.985554,944.88 18.323822,-33.989277,944.88 18.323765,-33.991375,944.88 18.323738,-33.994675,944.88 18.323851,-33.997101,944.88 18.324242,-34.000351,944.88 18.324747,-34.00264,944.88 18.325811,-34.006027,944.88 18.326653,-34.008224,944.88 18.328285,-34.011391,944.88 18.329716,-34.013439,914.4 18.331865,-34.016281,914.4 18.333267,-34.018158,914.4 18.335173,-34.020584,914.4 18.336582,-34.022285,914.4 18.338648,-34.02475,914.4 18.339993,-34.026443,914.4 18.341732,-34.028755,944.88 18.343048,-34.030663,944.88 18.344814,-34.033173,944.88 18.346138,-34.035088,944.88 18.348625,-34.038803,944.88 18.349859,-34.040817,914.4 18.351204,-34.043793,914.4 18.351803,-34.045979,914.4 18.352089,-34.049099,944.88 18.352032,-34.05138,944.88 18.351746,-34.054497,914.4 18.35146,-34.056828,914.4 18.350773,-34.060272,914.4 18.350086,-34.062458,914.4 18.348906,-34.065811,914.4 18.348232,-34.06778,914.4 18.347113,-34.071442,944.88 18.346495,-34.07373,944.88 18.345711,-34.076843,944.88 18.345337,-34.078659,944.88 18.34487,-34.082291,944.88 18.344702,-34.084625,944.88 18.344765,-34.087688,944.88 18.344879,-34.090157,944.88 18.345222,-34.093464,944.88 18.345509,-34.095463,975.36 18.346081,-34.098583,944.88 18.346539,-34.100819,944.88 18.347111,-34.103844,944.88 18.347569,-34.106033,944.88 18.348289,-34.10907,944.88 18.349411,-34.114151,944.88 18.350082,-34.117126,944.88 18.350475,-34.119095,944.88 18.351116,-34.12228,944.88 18.351631,-34.124557,944.88 18.352547,-34.128517,975.36 18.353951,-34.135071,975.36 18.355072,-34.13974,944.88 18.355923,-34.142994,944.88 18.356865,-34.14624,944.88 18.357594,-34.148483,944.88 18.35877,-34.151779,944.88 18.35947,-34.153793,944.88 18.36153,-34.1591,944.88 18.363422,-34.163956,944.88 18.36544,-34.169312,975.36 18.366114,-34.171371,975.36 18.367067,-34.174576,975.36 18.367683,-34.176727,975.36 18.368637,-34.180252,975.36 18.369198,-34.182377,975.36 18.370037,-34.185608,975.36 18.370485,-34.188126,944.88 18.371046,-34.19165,944.88 18.371271,-34.193985,914.4 18.371487,-34.197739,914.4 18.371439,-34.200302,883.92 18.371143,-34.204163,883.92 18.370914,-34.206539,883.92 18.370571,-34.210403,853.44 18.37043,-34.212753,853.44 18.370285,-34.216732,822.96 18.370342,-34.218967,792.48 18.370514,-34.223019,762 18.370571,-34.225716,762 18.370653,-34.229782,731.52 18.370766,-34.232117,731.52 18.371086,-34.235771,731.52 18.371372,-34.238335,701.04 18.37183,-34.241779,701.04 18.372335,-34.244476,670.56 18.373232,-34.248871,670.56 18.373737,-34.250885,640.08 18.374691,-34.254162,640.08 18.375362,-34.256424,640.08 18.376408,-34.259655,640.08 18.377213,-34.26178,640.08 18.378277,-34.264481,640.08 18.379211,-34.266731,640.08 18.380295,-34.269424,640.08 18.381042,-34.271431,640.08 18.382072,-34.274364,640.08 18.382702,-34.276039,640.08 18.387794,-34.288284,640.08 18.390713,-34.294567,640.08 18.394421,-34.302292,640.08 18.395233,-34.304111,640.08 18.396551,-34.306732,640.08 18.39739,-34.308334,640.08 18.39901,-34.310955,640.08 18.400026,-34.312546,640.08 18.401527,-34.314632,670.56 18.402548,-34.315933,670.56 18.403931,-34.317566,670.56 18.406792,-34.320591,670.56 18.408546,-34.322388,670.56 18.411123,-34.32486,670.56 18.41383,-34.327248,670.56 18.414936,-34.328201,670.56 18.417034,-34.329948,670.56 18.418465,-34.331112,670.56 18.420372,-34.332687,670.56 18.421719,-34.333832,670.56 18.42396,-34.335709,670.56 18.425529,-34.336945,670.56 18.427715,-34.338638,670.56 18.429108,-34.339676,670.56 18.431864,-34.341843,670.56 18.433266,-34.342941,670.56 18.439922,-34.348011,670.56 18.442783,-34.350105,670.56 18.444729,-34.351547,670.56 18.447615,-34.353653,670.56 18.449688,-34.355255,670.56 18.451881,-34.35704,640.08 18.453781,-34.358688,670.56 18.455086,-34.359787,670.56 18.456863,-34.361298,670.56 18.458462,-34.36272,670.56 18.460693,-34.364582,670.56 18.462189,-34.365738,670.56 18.464262,-34.367111,670.56 18.465557,-34.36784,670.56 18.467789,-34.369003,670.56 18.469448,-34.369751,670.56 18.472166,-34.370911,640.08 18.47374,-34.371567,640.08 18.47637,-34.372559,640.08 18.478107,-34.373199,640.08 18.480835,-34.374126,640.08 18.482311,-34.374664,640.08 18.48484,-34.375523,640.08 18.486328,-34.37608,640.08 18.489317,-34.37709,640.08 18.49102,-34.377571,670.56 18.493353,-34.378098,670.56 18.494755,-34.378372,670.56 18.497276,-34.378738,670.56 18.499146,-34.378967,640.08 18.501312,-34.379105,640.08 18.503151,-34.379013,670.56 18.505554,-34.378593,670.56 18.507198,-34.378052,670.56 18.509331,-34.37701,640.08 18.510475,-34.375942,640.08 18.511333,-34.373615,640.08 18.510933,-34.371891,640.08 18.508301,-34.369564,640.08 18.505726,-34.368725,640.08 18.501032,-34.368301,640.08 18.497772,-34.368168,640.08 18.49268,-34.368027,670.56 18.488731,-34.367702,670.56 18.484161,-34.366974,701.04 18.480892,-34.366257,701.04 18.476429,-34.364861,731.52 18.473904,-34.36377,762 18.470707,-34.361465,762 18.469252,-34.359695,792.48 18.46785,-34.356262,792.48 18.467625,-34.354156,792.48 18.467789,-34.35136,792.48 18.468185,-34.349213,792.48 18.468876,-34.346428,762 18.469448,-34.344101,762 18.470261,-34.34111,731.52 18.470707,-34.338886,731.52 18.471336,-34.335346,701.04 18.471661,-34.333145,701.04 18.472054,-34.329895,701.04 18.472309,-34.327854,670.56 18.473063,-34.321976,670.56 18.473343,-34.319687,670.56 18.474197,-34.314026,640.08 18.474575,-34.311951,640.08 18.475193,-34.308884,640.08 18.475809,-34.306366,640.08 18.476429,-34.303505,670.56 18.476931,-34.301331,670.56 18.479233,-34.290985,670.56 18.480068,-34.286453,670.56 18.480606,-34.282696,670.56 18.480909,-34.280457,670.56 18.481808,-34.274597,670.56 18.482552,-34.268593,670.56 18.482895,-34.264122,670.56 18.483095,-34.261734,670.56 18.483353,-34.25835,670.56 18.483433,-34.25592,670.56 18.483467,-34.252346,670.56 18.48341,-34.249924,670.56 18.483095,-34.246445,670.56 18.482666,-34.243919,670.56 18.481918,-34.240631,670.56 18.481302,-34.238297,670.56 18.480068,-34.234451,670.56 18.479229,-34.232162,670.56 18.477882,-34.228455,670.56 18.476986,-34.226212,670.56 18.475685,-34.222832,670.56 18.473511,-34.217476,670.56 18.468933,-34.205746,640.08 18.465385,-34.196671,640.08 18.460339,-34.184189,609.6 18.459385,-34.181625,609.6 18.458176,-34.177677,609.6 18.457535,-34.175308,609.6 18.456802,-34.172089,609.6 18.456402,-34.169621,640.08 18.456135,-34.166473,640.08 18.456078,-34.164185,640.08 18.456173,-34.16087,640.08 18.456345,-34.158916,640.08 18.45686,-34.155518,640.08 18.457424,-34.153381,640.08 18.458544,-34.150406,640.08 18.459435,-34.148441,640.08 18.460922,-34.145462,640.08 18.461796,-34.14386,640.08 18.463533,-34.140839,640.08 18.464642,-34.139038,640.08 18.466415,-34.136337,640.08 18.467682,-34.13443,640.08 18.469105,-34.131683,640.08 18.469734,-34.129539,640.08 18.470249,-34.126328,640.08 18.470535,-34.124001,640.08 18.470764,-34.12056,640.08 18.470877,-34.118179,640.08 18.470879,-34.114876,670.56 18.470764,-34.112362,670.56 18.470478,-34.108826,640.08 18.470135,-34.106544,640.08 18.469334,-34.102818,640.08 18.468746,-34.100143,640.08 18.468073,-34.096573,640.08 18.467731,-34.09388,640.08 18.467457,-34.090439,640.08 18.467344,-34.087875,640.08 18.467457,-34.084259,640.08 18.467617,-34.082012,640.08 18.467903,-34.077961,640.08 18.468132,-34.075493,640.08 18.468475,-34.071957,640.08 18.468761,-34.069347,640.08 18.470428,-34.05629,640.08 18.471548,-34.046814,640.08 18.472538,-34.038765,640.08 18.472767,-34.03653,640.08 18.473053,-34.033085,670.56 18.473454,-34.028336,670.56 18.474312,-34.015675,701.04 18.475136,-34.006668,640.08 18.476543,-33.992817,579.12 18.477659,-33.984421,518.16 18.479805,-33.969868,487.68 18.481579,-33.960648,487.68 18.482479,-33.955032,426.72 18.482927,-33.951187,426.72 18.483208,-33.94693,396.24 18.483208,-33.944138,396.24 18.482666,-33.940166,365.76 18.481863,-33.937546,365.76 18.480148,-33.934067,365.76 18.478443,-33.931412,365.76 18.475977,-33.928024,365.76 18.473511,-33.92514,335.28 18.471157,-33.922394,335.28 18.469027,-33.919922,335.28 18.466112,-33.916763,335.28 18.464012,-33.914562,335.28 18.457985,-33.90834,274.32 18.454056,-33.904598,274.32 18.449593,-33.900551,243.84 18.446846,-33.898224,213.36 18.443802,-33.896576,213.36 18.441525,-33.895988,182.88 18.438148,-33.895847,182.88 18.435631,-33.896267,152.4 18.433041,-33.896942,152.4 18.430855,-33.897583,121.92 18.427828,-33.899231,91.44 18.427563,-33.899666,91.44 18.427448,-33.90041,91.44 18.428444,-33.901016,121.92 18.431625,-33.901619,182.88 18.432873,-33.901657,213.36 18.434944,-33.900921,243.84 18.436146,-33.899944,243.84 18.437862,-33.897526,274.32 18.438534,-33.895615,274.32 18.43895,-33.892311,335.28 18.438869,-33.890533,335.28 18.438253,-33.887329,365.76 18.437412,-33.885132,396.24 18.435688,-33.882256,426.72 18.434372,-33.880486,426.72 18.431583,-33.877396,457.2 18.429678,-33.875473,457.2 18.426594,-33.87291,487.68 18.424244,-33.871548,518.16 18.420372,-33.870117,548.64 18.418465,-33.869732,548.64 18.414207,-33.869339,579.12 18.410452,-33.869522,609.6 18.407021,-33.870197,640.08 18.405018,-33.870663,640.08 18.401596,-33.871719,640.08 18.399353,-33.872574,640.08 18.396149,-33.874016,640.08 18.393972,-33.875153,640.08 18.390541,-33.877041,640.08 18.388596,-33.878159,640.08 18.385677,-33.88002,670.56 18.383827,-33.881241,670.56 18.380928,-33.883327,670.56 18.379326,-33.884537,670.56 18.376427,-33.886734,701.04 18.37492,-33.887936,731.52 18.372631,-33.889935,762 18.371029,-33.891331,762 18.369141,-33.893055,792.48 18.367767,-33.89436,822.96 18.365822,-33.896358,822.96 18.364544,-33.897766,822.96 18.362675,-33.899944,853.44 18.361517,-33.901291,883.92 18.359499,-33.903717,883.92 18.356977,-33.90683,914.4 18.35186,-33.913818,914.4 18.350601,-33.915771,914.4 18.349018,-33.918228,944.88 18.347855,-33.920055,944.88 18.345966,-33.923222,944.88 18.343849,-33.926899,944.88 18.340891,-33.93187,944.88 18.337864,-33.936951,975.36 18.331137,-33.947983,944.88 18.328342,-33.952084,944.88 18.326111,-33.955296,944.88 18.324018,-33.95842,944.88 18.315239,-33.971588,944.88 18.310661,-33.978943,944.88 18.309164,-33.981766,944.88 18.308144,-33.983646,975.36 18.306656,-33.98658,975.36 18.305408,-33.988907,944.88 18.30265,-33.994354,944.88 18.300819,-33.998215,975.36 18.300304,-34.001801,975.36 18.301048,-34.003757,944.88 18.303909,-34.005989,975.36 18.306427,-34.006454,975.36 18.310061,-34.005432,944.88 18.311911,-34.003738,944.88 18.314154,-34.000717,914.4 18.315611,-33.998611,914.4 18.317629,-33.995544,883.92 18.318901,-33.993515,883.92 18.320961,-33.990349,853.44 18.32811,-33.97934,792.48 18.338087,-33.962997,670.56 18.343105,-33.955204,670.56 18.348289,-33.947159,670.56 18.35025,-33.944229,670.56 18.356081,-33.935944,670.56 18.359756,-33.931042,670.56 18.363247,-33.926338,670.56 18.364656,-33.9245,640.08 18.36834,-33.919544,640.08 18.371214,-33.915848,670.56 18.374977,-33.911396,670.56 18.376522,-33.909767,670.56 18.379005,-33.90715,670.56 18.38047,-33.90567,640.08 18.383209,-33.902985,640.08 18.384991,-33.901249,640.08 18.387693,-33.898727,609.6 18.389711,-33.896896,609.6 18.392372,-33.894638,579.12 18.394756,-33.892776,579.12 18.39784,-33.890488,548.64 18.399811,-33.889145,548.64 18.402958,-33.887051,518.16 18.404846,-33.885864,518.16 18.408096,-33.883987,487.68 18.410284,-33.882935,457.2 18.413479,-33.881927,426.72 18.415775,-33.881557,396.24 18.418915,-33.88147,396.24 18.421097,-33.881695,365.76 18.423615,-33.88258,335.28 18.424816,-33.88356,304.8 18.425674,-33.885281,304.8 18.425961,-33.886723,274.32 18.426075,-33.888584,243.84 18.426132,-33.889984,243.84 18.426189,-33.891937,213.36 18.426258,-33.893234,182.88 18.426476,-33.894917,182.88 18.426594,-33.895981,152.4 18.426764,-33.897675,152.4 18.426876,-33.898361,121.92 18.427044,-33.899689,91.44 18.427219,-33.900272,91.44
        </coordinates>
      </LineString>
    </Placemark>
  </Document>
</kml>