<?xml version="1.0" encoding="UTF-8"?>
<kml xmlns="http://www.opengis.net/kml/2.2">
  <Document>
    <name>-/ZTRNW - Optimised</name>
    <description><![CDATA[Optimised flight path with 274 points (decimated from 1368 original points). Source format: Standard KML]]></description>
    
    <Style id="flightPath">
      <LineStyle>
        <color>ffff0000</color>
        <width>3</width>
      </LineStyle>
    </Style>
    
    <Placemark>
      <name>Flight Path</name>
      <description><![CDATA[<div style="width:220px; text-align:center;">
<div style="width:210px; text-align:center;">
<div style=" background: #000; color: #fff; font-size: 14px; text-align:left; border: 1px solid #000; padding: 2px 6px; text-shadow: 0 1px 0 #000; box-shadow: 0 1px 3px rgba(0,0,0,0.6); background: -webkit-gradient(linear, left top, left bottom, color-stop(0%,#808080), color-stop(2%,#303030), color-stop(100%,#0c0c0c));"><span style="font-size: 14px; font-weight: bold;"><a href="javascript:void(0);" style="color: #fff; cursor: pointer;text-decoration: none;">-</a></span> / ZTRNW<br/>Private owner</div>

<div style="border-top: 1px solid #005c90; color: #fff; padding-bottom: 5px; box-shadow: 0 0 1px #9BE3F6 inset, 0 1px 0 #9BE3F6 inset, 0 -1px 3px rgba(0,0,0,0.4); background:rgba(43,114,173,1); background: -webkit-gradient(linear, left top, left bottom, color-stop(0%,rgba(92,184,229,1)), color-stop(100%,rgba(43,114,173,1)));">
<a style="text-decoration: none; color: rgb(255, 255, 255); font-size: 12px; width:77px; display: inline-block;" title="Cape Town Airport" href="https://www.flightradar24.com/airport/cpt/departures"><h3 style="padding: 0px; margin: 10px 0px 0px; font-size: 16px; ">CPT</h3>Cape Town</a>
<span style="background: url(https://www.flightradar24.com/static/images/userUI_sprite.png?14) no-repeat scroll 0 -464px rgba(0, 0, 0, 0); border: medium none; display: inline-block; height: 16px; width: 45px;"></span>
<a style="text-decoration: none; color: rgb(255, 255, 255); font-size: 12px; width:77px; display: inline-block;" title="Cape Town Airport" href="https://www.flightradar24.com/airport/cpt/arrivals"><h3 style="padding: 0px; margin: 10px 0px 0px; font-size: 16px;">CPT</h3>Cape Town</a>
<div style=" margin-top:10px;">
<div style="display: inline-block; font-size: 12px; padding: 0 5px;">
<div>
<span style="color: #c1eaff;" title="Actual Time of Departure">ATD </span>
<span title="2025-12-21 06:52">06:52</span> <span title="Coordinated Universal Time">UTC</span>
</div>
</div>
<div style="display: inline-block; font-size: 12px; padding: 0 5px;">
<div>
<span style="color: #c1eaff;" title="Estimated Time of Arrival">ETA </span>
<span title="2025-12-21 07:31">07:31</span> <span title="Coordinated Universal Time">UTC</span>
</div>
</div>
</div>
<br style="clear: both;"/>
</div>

<div style="display: block;">
<table style="border-collapse: collapse; width: 100%;">
<tr style="border-right: 1px solid #dadada; ">
<td style="background: none repeat scroll 0 0 #dadada; padding: 0; width: 31px;">
<span style="background: url(https://www.flightradar24.com/static/images/userUI_sprite.png?14) no-repeat scroll -208px -464px rgba(0, 0, 0, 0); height: 26px; margin: 8px 0 0 4px; width: 23px; display: block;"></span>
</td>
<td colspan="2" style="border-bottom: 1px solid #dadada; border-left: 1px solid #dadada; color: #666; line-height: 1.1em; padding: 3px 6px; vertical-align: top; font-size: 14px;">
Aircraft<span style="float: right; font-size: 12px;">(EC20)</span><br>
<span style="color: #333; font-size: 16px; font-weight: bold; line-height: 1.3em;">Airbus Helicopters H120</span>
</td>
</tr>
<tr style="border-right: 1px solid #dadada; ">
<td style="background: none repeat scroll 0 0 #dadada; padding: 0; width: 31px;">
<td colspan="2" style="border-bottom: 1px solid #dadada; border-left: 1px solid #dadada; color: #666; line-height: 1.1em; padding: 3px 6px; vertical-align: top; font-size: 14px;">
Registration<br>
<span style="color: #333; font-size: 16px; font-weight: bold; line-height: 1.3em;"><a href="https://www.flightradar24.com/reg/zt-rnw" style="text-decoration: none; color: #333;">ZT-RNW</a></span>
</td>
</tr>
</table>
</div>

</div>
</div>]]></description>
      <styleUrl>#flightPath</styleUrl>
      <LineString>
        <extrude>1</extrude>
        <tessellate>1</tessellate>
        <altitudeMode>absolute</altitudeMode>
        <coordinates>
          18.427322,-33.900558,106.68 18.430407,-33.901199,121.92 18.431976,-33.901108,137.16 18.43433,-33.90033,167.64 18.43586,-33.899666,190.5 18.43786,-33.898361,220.98 18.439121,-33.89706,236.22 18.440323,-33.893986,274.32 18.440323,-33.891983,289.56 18.439487,-33.889069,327.66 18.438198,-33.886597,342.9 18.43646,-33.883804,365.76 18.434891,-33.881882,381 18.432312,-33.879601,411.48 18.430239,-33.878311,426.72 18.427044,-33.877029,449.58 18.424702,-33.876434,464.82 18.421383,-33.875969,495.3 18.418915,-33.875748,518.16 18.415546,-33.875553,541.02 18.413486,-33.875553,556.26 18.409946,-33.875931,579.12 18.40765,-33.876434,586.74 18.404398,-33.877304,601.98 18.4021,-33.878017,617.22 18.398952,-33.87923,632.46 18.397007,-33.880112,640.08 18.393574,-33.881695,647.7 18.391562,-33.882706,662.94 18.388252,-33.88435,685.8 18.386124,-33.885498,693.42 18.383102,-33.887188,716.28 18.381157,-33.888447,731.52 18.378164,-33.890442,754.38 18.376293,-33.89175,769.62 18.373375,-33.89394,792.48 18.371607,-33.895386,800.1 18.369141,-33.897583,815.34 18.36731,-33.899338,822.96 18.365049,-33.901886,845.82 18.363533,-33.903667,845.82 18.361126,-33.906738,845.82 18.359724,-33.908661,845.82 18.357706,-33.911499,853.44 18.356361,-33.913559,861.06 18.354454,-33.916672,868.68 18.353233,-33.918751,876.3 18.35154,-33.921753,883.92 18.350487,-33.923824,891.54 18.349298,-33.926971,899.16 18.348484,-33.9296,899.16 18.347511,-33.932999,899.16 18.347,-33.934845,899.16 18.346024,-33.938816,883.92 18.34543,-33.941483,868.68 18.344646,-33.94487,883.92 18.344135,-33.947056,883.92 18.342991,-33.950592,883.92 18.342247,-33.952641,883.92 18.340759,-33.956181,891.54 18.339787,-33.958462,899.16 18.338184,-33.962418,922.02 18.337097,-33.965397,937.26 18.336296,-33.970612,952.5 18.336067,-33.973171,960.12 18.335566,-33.976547,960.12 18.33478,-33.979568,960.12 18.333607,-33.98304,960.12 18.332691,-33.985462,960.12 18.331362,-33.988998,960.12 18.330576,-33.991104,960.12 18.329258,-33.994537,960.12 18.328278,-33.997101,960.12 18.326988,-34.000534,960.12 18.326036,-34.003189,960.12 18.324915,-34.006897,960.12 18.324299,-34.009506,952.5 18.323961,-34.013489,960.12 18.324394,-34.015766,960.12 18.325996,-34.019257,960.12 18.327494,-34.021042,952.5 18.330408,-34.023605,937.26 18.332539,-34.025253,937.26 18.335724,-34.027729,929.64 18.337784,-34.029594,922.02 18.340015,-34.032246,914.4 18.341282,-34.034546,914.4 18.342419,-34.037834,906.78 18.343187,-34.040359,914.4 18.344078,-34.043465,922.02 18.34465,-34.045654,929.64 18.346081,-34.048492,990.6 18.347336,-34.049286,1021.08 18.34997,-34.04837,1021.08 18.350756,-34.046768,990.6 18.350544,-34.043327,944.88 18.349522,-34.041,914.4 18.347626,-34.038158,891.54 18.345711,-34.035736,868.68 18.343187,-34.032806,861.06 18.341507,-34.031204,845.82 18.338535,-34.028778,838.2 18.335621,-34.026672,822.96 18.332539,-34.024155,807.72 18.330744,-34.022049,784.86 18.329176,-34.019073,769.62 18.328558,-34.016739,762 18.328285,-34.012974,754.38 18.328726,-34.010468,754.38 18.329679,-34.006851,754.38 18.330517,-34.004314,739.14 18.331833,-34.000824,731.52 18.332748,-33.998543,716.28 18.346943,-33.969223,716.28 18.350027,-33.961304,708.66 18.351688,-33.956181,708.66 18.352833,-33.952873,708.66 18.355633,-33.944504,693.42 18.356438,-33.942215,693.42 18.358547,-33.936493,678.18 18.359528,-33.934254,670.56 18.361181,-33.931,670.56 18.362446,-33.928761,670.56 18.364449,-33.92569,662.94 18.365993,-33.9235,662.94 18.368168,-33.920475,655.32 18.369644,-33.918549,655.32 18.372223,-33.915207,647.7 18.373793,-33.91333,640.08 18.376408,-33.910324,640.08 18.378109,-33.90834,632.46 18.381697,-33.904404,624.84 18.383547,-33.902481,617.22 18.38625,-33.899757,617.22 18.387966,-33.898129,609.6 18.390833,-33.895523,601.98 18.392906,-33.893738,601.98 18.39592,-33.891285,586.74 18.398399,-33.889389,579.12 18.401987,-33.886963,487.68 18.40423,-33.885635,541.02 18.408321,-33.883667,525.78 18.411123,-33.882614,510.54 18.414803,-33.881603,502.92 18.417721,-33.881184,487.68 18.421494,-33.881241,472.44 18.424072,-33.88179,464.82 18.427715,-33.883209,457.2 18.429733,-33.884125,441.96 18.43248,-33.88559,419.1 18.43433,-33.886734,396.24 18.436964,-33.888748,358.14 18.438263,-33.890217,335.28 18.438892,-33.892448,312.42 18.43786,-33.893784,297.18 18.434723,-33.894424,266.7 18.432713,-33.894032,243.84 18.428276,-33.893463,190.5 18.426706,-33.894379,175.26 18.426189,-33.89608,144.78 18.426426,-33.897308,129.54 18.426931,-33.898911,114.3 18.426991,-33.899479,99.06 18.426876,-33.900318,91.44 18.427267,-33.900604,83.82 18.429794,-33.900738,106.68 18.431225,-33.900829,137.16 18.432985,-33.900696,175.26 18.43433,-33.900146,198.12 18.435974,-33.898689,228.6 18.436718,-33.897385,251.46 18.437119,-33.895058,274.32 18.436947,-33.893566,289.56 18.436203,-33.890774,312.42 18.435345,-33.889191,320.04 18.433489,-33.886734,342.9 18.432312,-33.885452,358.14 18.429909,-33.883327,381 18.428192,-33.882114,403.86 18.425045,-33.880531,441.96 18.423399,-33.880005,457.2 18.420485,-33.879547,487.68 18.418692,-33.87941,495.3 18.415546,-33.879463,518.16 18.413544,-33.879646,533.4 18.410452,-33.880051,556.26 18.408546,-33.880325,571.5 18.405361,-33.880905,601.98 18.403221,-33.881332,617.22 18.400383,-33.882023,647.7 18.398399,-33.882568,670.56 18.395597,-33.883484,685.8 18.393402,-33.884258,693.42 18.39061,-33.885269,708.66 18.388422,-33.886185,716.28 18.384947,-33.88765,739.14 18.382818,-33.888657,754.38 18.379955,-33.89003,777.24 18.377895,-33.891098,792.48 18.37525,-33.892639,815.34 18.373457,-33.893875,822.96 18.37071,-33.895935,845.82 18.368916,-33.897675,853.44 18.366566,-33.900177,868.68 18.365385,-33.901611,876.3 18.362974,-33.904541,883.92 18.361588,-33.906414,883.92 18.35947,-33.909348,868.68 18.358099,-33.911316,861.06 18.355911,-33.914612,861.06 18.354567,-33.916809,861.06 18.352776,-33.919964,861.06 18.351707,-33.921982,861.06 18.349972,-33.925316,853.44 18.348793,-33.927795,853.44 18.347168,-33.931416,853.44 18.346214,-33.933838,853.44 18.344822,-33.937279,853.44 18.343277,-33.940865,845.82 18.339993,-33.949127,845.82 18.339602,-33.951508,853.44 18.340702,-33.954739,853.44 18.34259,-33.956181,845.82 18.34671,-33.956226,807.72 18.349186,-33.954758,784.86 18.35154,-33.951782,777.24 18.352547,-33.949757,777.24 18.353977,-33.946682,777.24 18.355064,-33.944355,777.24 18.356438,-33.94133,777.24 18.357481,-33.939011,762 18.359108,-33.93544,746.76 18.360386,-33.932716,731.52 18.361965,-33.929214,716.28 18.363592,-33.92569,708.66 18.365105,-33.922485,701.04 18.366222,-33.92038,693.42 18.368357,-33.916992,685.8 18.369814,-33.914978,678.18 18.372223,-33.91214,678.18 18.373833,-33.910419,670.56 18.376865,-33.907532,662.94 18.378557,-33.906052,662.94 18.381443,-33.903854,655.32 18.383675,-33.902225,586.74 18.386404,-33.90033,647.7 18.388815,-33.898682,640.08 18.392067,-33.89653,624.84 18.396551,-33.8936,594.36 18.408714,-33.88623,525.78 18.411255,-33.884583,518.16 18.414745,-33.882069,502.92 18.417149,-33.880581,495.3 18.420925,-33.879787,487.68 18.423443,-33.880112,480.06 18.426706,-33.881607,487.68 18.428782,-33.88298,487.68 18.431248,-33.884857,464.82 18.432598,-33.886024,457.2 18.43483,-33.887981,441.96 18.43626,-33.889423,419.1 18.438253,-33.891769,381 18.43915,-33.893097,365.76 18.439922,-33.895336,335.28 18.439598,-33.896805,304.8 18.438091,-33.898129,281.94 18.436123,-33.898224,251.46 18.433208,-33.896484,205.74 18.431583,-33.895615,190.5 18.43008,-33.896267,167.64 18.430195,-33.897243,144.78 18.430407,-33.898682,129.54 18.429852,-33.899387,121.92 18.428612,-33.899506,83.82
        </coordinates>
      </LineString>
    </Placemark>
  </Document>
</kml>