<?xml version="1.0" encoding="UTF-8"?>
<kml xmlns="http://www.opengis.net/kml/2.2">
  <Document>
    <name>-/ZTHOT - Optimised</name>
    <description><![CDATA[Optimised flight path with 118 points (decimated from 590 original points). Source format: Standard KML]]></description>
    
    <Style id="flightPath">
      <LineStyle>
        <color>ffff0000</color>
        <width>3</width>
      </LineStyle>
    </Style>
    
    <Placemark>
      <name>Flight Path</name>
      <description><![CDATA[<div style="width:220px; text-align:center;">
<div style="width:210px; text-align:center;">
<div style=" background: #000; color: #fff; font-size: 14px; text-align:left; border: 1px solid #000; padding: 2px 6px; text-shadow: 0 1px 0 #000; box-shadow: 0 1px 3px rgba(0,0,0,0.6); background: -webkit-gradient(linear, left top, left bottom, color-stop(0%,#808080), color-stop(2%,#303030), color-stop(100%,#0c0c0c));"><span style="font-size: 14px; font-weight: bold;"><a href="javascript:void(0);" style="color: #fff; cursor: pointer;text-decoration: none;">-</a></span> / ZTHOT<br/>Cape Town Helicopters</div>

<div style="border-top: 1px solid #005c90; color: #fff; padding-bottom: 5px; box-shadow: 0 0 1px #9BE3F6 inset, 0 1px 0 #9BE3F6 inset, 0 -1px 3px rgba(0,0,0,0.4); background:rgba(43,114,173,1); background: -webkit-gradient(linear, left top, left bottom, color-stop(0%,rgba(92,184,229,1)), color-stop(100%,rgba(43,114,173,1)));">
<a style="text-decoration: none; color: rgb(255, 255, 255); font-size: 12px; width:77px; display: inline-block;" title=" Airport" href="javascript:void(0);/departures"><h3 style="padding: 0px; margin: 10px 0px 0px; font-size: 16px; ">?</h3></a>
<span style="background: url(https://www.flightradar24.com/static/images/userUI_sprite.png?14) no-repeat scroll 0 -464px rgba(0, 0, 0, 0); border: medium none; display: inline-block; height: 16px; width: 45px;"></span>
<a style="text-decoration: none; color: rgb(255, 255, 255); font-size: 12px; width:77px; display: inline-block;" title=" Airport" href="javascript:void(0);/arrivals"><h3 style="padding: 0px; margin: 10px 0px 0px; font-size: 16px;">?</h3></a>
<div style=" margin-top:10px;">
<div style="display: inline-block; font-size: 12px; padding: 0 5px;">
<div>
<span style="color: #c1eaff;" title="Actual Time of Departure">ATD </span>
<span title="2025-07-06 11:33">11:33</span> <span title="Coordinated Universal Time">UTC</span>
</div>
</div>
<div style="display: inline-block; font-size: 12px; padding: 0 5px;">
<div>
<span style="color: #c1eaff;" title="Estimated Time of Arrival">ETA </span>
<span title="2025-07-06 11:49">11:49</span> <span title="Coordinated Universal Time">UTC</span>
</div>
</div>
</div>
<br style="clear: both;"/>
</div>

<div style="display: block;">
<table style="border-collapse: collapse; width: 100%;">
<tr style="border-right: 1px solid #dadada; ">
<td style="background: none repeat scroll 0 0 #dadada; padding: 0; width: 31px;">
<span style="background: url(https://www.flightradar24.com/static/images/userUI_sprite.png?14) no-repeat scroll -208px -464px rgba(0, 0, 0, 0); height: 26px; margin: 8px 0 0 4px; width: 23px; display: block;"></span>
</td>
<td colspan="2" style="border-bottom: 1px solid #dadada; border-left: 1px solid #dadada; color: #666; line-height: 1.1em; padding: 3px 6px; vertical-align: top; font-size: 14px;">
Aircraft<span style="float: right; font-size: 12px;">(AS50)</span><br>
<span style="color: #333; font-size: 16px; font-weight: bold; line-height: 1.3em;">Airbus Helicopters H125</span>
</td>
</tr>
<tr style="border-right: 1px solid #dadada; ">
<td style="background: none repeat scroll 0 0 #dadada; padding: 0; width: 31px;">
<td colspan="2" style="border-bottom: 1px solid #dadada; border-left: 1px solid #dadada; color: #666; line-height: 1.1em; padding: 3px 6px; vertical-align: top; font-size: 14px;">
Registration<br>
<span style="color: #333; font-size: 16px; font-weight: bold; line-height: 1.3em;"><a href="https://www.flightradar24.com/reg/zt-hot" style="text-decoration: none; color: #333;">ZT-HOT</a></span>
</td>
</tr>
</table>
</div>

</div>
</div>]]></description>
      <styleUrl>#flightPath</styleUrl>
      <LineString>
        <extrude>1</extrude>
        <tessellate>1</tessellate>
        <altitudeMode>absolute</altitudeMode>
        <coordinates>
          18.430239,-33.895798,60.96 18.437061,-33.886074,182.88 18.437973,-33.884354,213.36 18.438759,-33.881561,243.84 18.43895,-33.879414,274.32 18.438646,-33.876343,274.32 18.438148,-33.87434,274.32 18.43689,-33.871502,304.8 18.435802,-33.869827,335.28 18.433743,-33.867592,335.28 18.432032,-33.866226,335.28 18.428612,-33.864395,365.76 18.426819,-33.863754,365.76 18.423328,-33.862984,396.24 18.421211,-33.862751,396.24 18.418076,-33.862701,396.24 18.415607,-33.862839,396.24 18.412077,-33.863388,426.72 18.410059,-33.863846,426.72 18.406416,-33.864944,457.2 18.40451,-33.865631,487.68 18.401426,-33.866867,487.68 18.399124,-33.867962,518.16 18.396494,-33.869339,518.16 18.394476,-33.870575,518.16 18.391787,-33.872498,548.64 18.389992,-33.873917,548.64 18.387638,-33.875977,548.64 18.386021,-33.877415,548.64 18.383904,-33.879322,518.16 18.382313,-33.880783,518.16 18.379791,-33.883163,518.16 18.376923,-33.885979,548.64 18.374748,-33.888351,548.64 18.373569,-33.889755,579.12 18.371775,-33.891953,579.12 18.370399,-33.893845,579.12 18.368748,-33.89621,579.12 18.367596,-33.897991,579.12 18.365833,-33.90065,609.6 18.363075,-33.904831,609.6 18.358097,-33.913399,670.56 18.357182,-33.915169,670.56 18.355015,-33.919693,670.56 18.354206,-33.921593,701.04 18.353176,-33.924107,701.04 18.352381,-33.92601,701.04 18.348232,-33.935532,701.04 18.345655,-33.941483,701.04 18.340891,-33.952377,701.04 18.337154,-33.960323,731.52 18.330744,-33.972107,731.52 18.326317,-33.979202,731.52 18.319817,-33.990677,701.04 18.316326,-33.997425,701.04 18.311176,-34.008133,701.04 18.307652,-34.015823,701.04 18.304119,-34.025528,670.56 18.304138,-34.027637,670.56 18.304939,-34.032944,670.56 18.30677,-34.035225,670.56 18.310661,-34.037041,670.56 18.313408,-34.037228,670.56 18.318844,-34.035458,670.56 18.321159,-34.033356,670.56 18.322506,-34.029778,670.56 18.322897,-34.027039,670.56 18.323233,-34.023422,670.56 18.323421,-34.020657,670.56 18.323822,-34.017071,670.56 18.324223,-34.01437,670.56 18.325699,-34.008362,670.56 18.326429,-34.005753,670.56 18.327887,-34.001816,670.56 18.328915,-33.999195,670.56 18.332462,-33.992023,670.56 18.335733,-33.986298,670.56 18.343805,-33.970688,670.56 18.348402,-33.960068,670.56 18.354149,-33.947243,670.56 18.35877,-33.937683,701.04 18.364544,-33.92569,670.56 18.368637,-33.918274,670.56 18.370823,-33.914841,640.08 18.37228,-33.912643,640.08 18.374691,-33.909256,640.08 18.376408,-33.906834,640.08 18.378811,-33.903484,609.6 18.384361,-33.896034,609.6 18.389282,-33.890587,640.08 18.391506,-33.88884,640.08 18.395485,-33.886642,609.6 18.398905,-33.885361,609.6 18.403587,-33.884441,640.08 18.406849,-33.883976,609.6 18.411797,-33.88353,640.08 18.414745,-33.883278,640.08 18.419609,-33.883091,609.6 18.423063,-33.883347,609.6 18.427155,-33.884262,548.64 18.430069,-33.885361,518.16 18.433937,-33.887192,457.2 18.436146,-33.888306,426.72 18.439579,-33.890263,396.24 18.442097,-33.891659,365.76 18.445148,-33.893509,304.8 18.446661,-33.895065,304.8 18.446829,-33.897583,274.32 18.445473,-33.898594,243.84 18.442905,-33.899002,213.36 18.441124,-33.898922,213.36 18.438778,-33.898922,182.88 18.437176,-33.898968,152.4 18.435173,-33.899059,121.92 18.433399,-33.899246,91.44 18.429453,-33.899689,0 18.427963,-33.899899,0 18.427155,-33.900558,0
        </coordinates>
      </LineString>
    </Placemark>
  </Document>
</kml>