<?xml version="1.0" encoding="UTF-8"?>
<kml xmlns="http://www.opengis.net/kml/2.2">
  <Document>
    <name>-/ZTRNW - Optimised</name>
    <description><![CDATA[Optimised flight path with 1844 points (decimated from 9220 original points). Source format: Standard KML]]></description>
    
    <Style id="flightPath">
      <LineStyle>
        <color>ffff0000</color>
        <width>3</width>
      </LineStyle>
    </Style>
    
    <Placemark>
      <name>Flight Path</name>
      <description><![CDATA[<div style="width:220px; text-align:center;">
<div style="width:210px; text-align:center;">
<div style=" background: #000; color: #fff; font-size: 14px; text-align:left; border: 1px solid #000; padding: 2px 6px; text-shadow: 0 1px 0 #000; box-shadow: 0 1px 3px rgba(0,0,0,0.6); background: -webkit-gradient(linear, left top, left bottom, color-stop(0%,#808080), color-stop(2%,#303030), color-stop(100%,#0c0c0c));"><span style="font-size: 14px; font-weight: bold;"><a href="javascript:void(0);" style="color: #fff; cursor: pointer;text-decoration: none;">-</a></span> / ZTRNW<br/>Private owner</div>

<div style="border-top: 1px solid #005c90; color: #fff; padding-bottom: 5px; box-shadow: 0 0 1px #9BE3F6 inset, 0 1px 0 #9BE3F6 inset, 0 -1px 3px rgba(0,0,0,0.4); background:rgba(43,114,173,1); background: -webkit-gradient(linear, left top, left bottom, color-stop(0%,rgba(92,184,229,1)), color-stop(100%,rgba(43,114,173,1)));">
<a style="text-decoration: none; color: rgb(255, 255, 255); font-size: 12px; width:77px; display: inline-block;" title=" Airport" href="javascript:void(0);/departures"><h3 style="padding: 0px; margin: 10px 0px 0px; font-size: 16px; ">?</h3></a>
<span style="background: url(https://www.flightradar24.com/static/images/userUI_sprite.png?14) no-repeat scroll 0 -464px rgba(0, 0, 0, 0); border: medium none; display: inline-block; height: 16px; width: 45px;"></span>
<a style="text-decoration: none; color: rgb(255, 255, 255); font-size: 12px; width:77px; display: inline-block;" title=" Airport" href="javascript:void(0);/arrivals"><h3 style="padding: 0px; margin: 10px 0px 0px; font-size: 16px;">?</h3></a>
<div style=" margin-top:10px;">
<div style="display: inline-block; font-size: 12px; padding: 0 5px;">
<div>
<span style="color: #c1eaff;" title="Actual Time of Departure">ATD </span>
<span title="2025-09-25 07:44">07:44</span> <span title="Coordinated Universal Time">UTC</span>
</div>
</div>
<div style="display: inline-block; font-size: 12px; padding: 0 5px;">
<div>
<span style="color: #c1eaff;" title="Estimated Time of Arrival">ETA </span>
<span title="2025-09-25 08:24">08:24</span> <span title="Coordinated Universal Time">UTC</span>
</div>
</div>
</div>
<br style="clear: both;"/>
</div>

<div style="display: block;">
<table style="border-collapse: collapse; width: 100%;">
<tr style="border-right: 1px solid #dadada; ">
<td style="background: none repeat scroll 0 0 #dadada; padding: 0; width: 31px;">
<span style="background: url(https://www.flightradar24.com/static/images/userUI_sprite.png?14) no-repeat scroll -208px -464px rgba(0, 0, 0, 0); height: 26px; margin: 8px 0 0 4px; width: 23px; display: block;"></span>
</td>
<td colspan="2" style="border-bottom: 1px solid #dadada; border-left: 1px solid #dadada; color: #666; line-height: 1.1em; padding: 3px 6px; vertical-align: top; font-size: 14px;">
Aircraft<span style="float: right; font-size: 12px;">(EC20)</span><br>
<span style="color: #333; font-size: 16px; font-weight: bold; line-height: 1.3em;">Airbus Helicopters H120</span>
</td>
</tr>
<tr style="border-right: 1px solid #dadada; ">
<td style="background: none repeat scroll 0 0 #dadada; padding: 0; width: 31px;">
<td colspan="2" style="border-bottom: 1px solid #dadada; border-left: 1px solid #dadada; color: #666; line-height: 1.1em; padding: 3px 6px; vertical-align: top; font-size: 14px;">
Registration<br>
<span style="color: #333; font-size: 16px; font-weight: bold; line-height: 1.3em;"><a href="https://www.flightradar24.com/reg/zt-rnw" style="text-decoration: none; color: #333;">ZT-RNW</a></span>
</td>
</tr>
</table>
</div>

</div>
</div>]]></description>
      <styleUrl>#flightPath</styleUrl>
      <LineString>
        <extrude>1</extrude>
        <tessellate>1</tessellate>
        <altitudeMode>absolute</altitudeMode>
        <coordinates>
          18.429737,-33.89608,45.72 18.43317,-33.889191,160.02 18.434946,-33.885544,228.6 18.435171,-33.882889,266.7 18.434658,-33.881092,281.94 18.433041,-33.878769,320.04 18.431396,-33.877598,342.9 18.428556,-33.876526,388.62 18.426647,-33.876064,419.1 18.424072,-33.875656,457.2 18.422222,-33.875427,480.06 18.419552,-33.875134,525.78 18.417549,-33.874901,556.26 18.414974,-33.874714,594.36 18.413198,-33.874603,609.6 18.410114,-33.874512,632.46 18.408209,-33.874603,640.08 18.405247,-33.875088,655.32 18.403015,-33.875553,662.94 18.399746,-33.87648,678.18 18.397236,-33.877274,685.8 18.393345,-33.878716,678.18 18.390888,-33.879639,685.8 18.387302,-33.881058,685.8 18.385004,-33.882065,701.04 18.381865,-33.88353,708.66 18.37923,-33.884811,708.66 18.375778,-33.886677,701.04 18.373625,-33.887924,701.04 18.370285,-33.89003,708.66 18.368454,-33.891285,708.66 18.365273,-33.8936,716.28 18.363199,-33.895294,716.28 18.360733,-33.89772,716.28 18.358995,-33.899689,716.28 18.356781,-33.902554,701.04 18.355522,-33.904366,701.04 18.353519,-33.90744,693.42 18.352261,-33.909859,685.8 18.350924,-33.912964,685.8 18.350027,-33.915344,693.42 18.348906,-33.918549,685.8 18.348255,-33.920662,685.8 18.347113,-33.92395,693.42 18.344814,-33.930405,701.04 18.342909,-33.937912,678.18 18.342419,-33.940632,678.18 18.342018,-33.944218,662.94 18.3419,-33.946518,662.94 18.341618,-33.949944,662.94 18.340273,-33.956406,678.18 18.339209,-33.959656,685.8 18.337212,-33.963909,693.42 18.331642,-33.972656,693.42 18.324451,-33.982903,701.04 18.318693,-33.991653,716.28 18.314266,-33.998962,723.9 18.309345,-34.007526,693.42 18.305283,-34.014229,685.8 18.299299,-34.024704,685.8 18.298302,-34.027031,693.42 18.297443,-34.029919,693.42 18.297001,-34.032166,701.04 18.297043,-34.035645,701.04 18.297443,-34.03788,693.42 18.298513,-34.041092,685.8 18.299467,-34.043152,685.8 18.301392,-34.04612,701.04 18.30265,-34.047749,708.66 18.305073,-34.050339,708.66 18.307314,-34.052399,708.66 18.310318,-34.054871,701.04 18.312435,-34.056408,701.04 18.315468,-34.05864,693.42 18.317699,-34.060272,685.8 18.322729,-34.064438,678.18 18.324394,-34.066231,678.18 18.326283,-34.068882,685.8 18.327494,-34.071075,678.18 18.328726,-34.074097,662.94 18.329344,-34.076065,655.32 18.33046,-34.07959,647.7 18.330975,-34.081406,647.7 18.331833,-34.084805,624.84 18.332462,-34.087177,601.98 18.336014,-34.097534,586.74 18.336983,-34.102169,586.74 18.337358,-34.106415,571.5 18.337246,-34.108932,571.5 18.336639,-34.112595,571.5 18.336067,-34.115108,563.88 18.335117,-34.118591,556.26 18.334465,-34.120647,571.5 18.333378,-34.12442,586.74 18.332176,-34.128983,617.22 18.330969,-34.134613,617.22 18.330631,-34.136848,617.22 18.330173,-34.140202,609.6 18.329887,-34.142761,601.98 18.329716,-34.146114,609.6 18.329659,-34.148628,609.6 18.329887,-34.15221,601.98 18.330185,-34.154205,594.36 18.330917,-34.157612,586.74 18.331585,-34.160019,579.12 18.332819,-34.163406,563.88 18.333836,-34.165756,563.88 18.335508,-34.169037,571.5 18.336697,-34.170925,571.5 18.338648,-34.173615,571.5 18.34005,-34.175354,563.88 18.342361,-34.178047,556.26 18.343693,-34.179611,556.26 18.346327,-34.182449,556.26 18.348026,-34.184284,556.26 18.351517,-34.188942,556.26 18.352661,-34.190872,563.88 18.354263,-34.194016,571.5 18.355122,-34.196018,571.5 18.356438,-34.199135,579.12 18.357258,-34.201263,571.5 18.358267,-34.204422,571.5 18.358883,-34.206757,579.12 18.359667,-34.210052,563.88 18.3601,-34.212124,563.88 18.360844,-34.215427,563.88 18.361237,-34.21756,556.26 18.36216,-34.223251,541.02 18.363367,-34.231384,525.78 18.364431,-34.241318,541.02 18.36516,-34.24791,541.02 18.366507,-34.258575,556.26 18.367195,-34.261887,556.26 18.368053,-34.264774,548.64 18.368692,-34.266769,548.64 18.369925,-34.269928,541.02 18.371029,-34.272175,533.4 18.372803,-34.275108,525.78 18.373833,-34.276737,525.78 18.375923,-34.279861,533.4 18.377045,-34.281464,533.4 18.378725,-34.283798,533.4 18.380299,-34.286003,525.78 18.385845,-34.294144,510.54 18.386854,-34.295837,510.54 18.388309,-34.298759,510.54 18.389168,-34.30048,510.54 18.39061,-34.303528,518.16 18.393116,-34.30793,518.16 18.395233,-34.310814,518.16 18.396551,-34.3125,518.16 18.398438,-34.314774,518.16 18.40004,-34.316448,518.16 18.402328,-34.318962,510.54 18.403587,-34.320312,510.54 18.406048,-34.322781,510.54 18.407312,-34.324036,510.54 18.410511,-34.326969,502.92 18.41217,-34.328457,502.92 18.414745,-34.330551,487.68 18.416336,-34.331726,441.96 18.418751,-34.333252,457.2 18.421101,-34.334473,441.96 18.423904,-34.335938,426.72 18.425529,-34.336899,411.48 18.428478,-34.338654,403.86 18.432367,-34.34079,396.24 18.441525,-34.345821,403.86 18.445036,-34.348068,411.48 18.447727,-34.350082,411.48 18.449465,-34.351501,411.48 18.452099,-34.353836,419.1 18.453444,-34.355072,419.1 18.455519,-34.357132,419.1 18.457146,-34.358669,411.48 18.462238,-34.362209,403.86 18.464262,-34.363174,396.24 18.467234,-34.364182,403.86 18.469307,-34.364822,403.86 18.472538,-34.3657,403.86 18.474369,-34.366119,396.24 18.477602,-34.366791,381 18.479576,-34.367191,373.38 18.482437,-34.367794,381 18.486328,-34.368538,373.38 18.492344,-34.3694,388.62 18.494167,-34.369377,396.24 18.496971,-34.369144,396.24 18.498678,-34.368851,403.86 18.501312,-34.367889,403.86 18.502865,-34.367096,403.86 18.50518,-34.365555,411.48 18.506641,-34.364162,411.48 18.508244,-34.361931,419.1 18.509045,-34.360252,426.72 18.509777,-34.357864,426.72 18.510225,-34.35585,419.1 18.510225,-34.353149,434.34 18.509832,-34.351318,441.96 18.508873,-34.348614,441.96 18.507814,-34.346832,449.58 18.505125,-34.343948,449.58 18.503275,-34.342392,457.2 18.50029,-34.339863,472.44 18.498287,-34.338093,480.06 18.495539,-34.335388,487.68 18.492682,-34.332092,502.92 18.490438,-34.328568,518.16 18.489317,-34.326416,525.78 18.48793,-34.323013,525.78 18.487244,-34.320637,533.4 18.486683,-34.317352,525.78 18.486403,-34.31488,525.78 18.486156,-34.311142,518.16 18.486179,-34.308792,518.16 18.48629,-34.304901,518.16 18.486347,-34.302429,518.16 18.486614,-34.298897,518.16 18.4869,-34.296104,518.16 18.487356,-34.292587,525.78 18.488028,-34.284439,533.4 18.488701,-34.272903,571.5 18.489149,-34.269791,579.12 18.489819,-34.266216,586.74 18.490271,-34.264389,586.74 18.491077,-34.261097,586.74 18.491783,-34.25647,563.88 18.492008,-34.252533,548.64 18.491993,-34.250156,541.02 18.491764,-34.246387,525.78 18.491447,-34.244064,525.78 18.490734,-34.240101,533.4 18.490105,-34.237774,541.02 18.489132,-34.234653,541.02 18.488308,-34.232254,548.64 18.486729,-34.228558,548.64 18.485756,-34.226414,548.64 18.483994,-34.222778,556.26 18.482927,-34.220535,563.88 18.481121,-34.216827,563.88 18.480034,-34.21487,563.88 18.47794,-34.211151,548.64 18.475113,-34.206257,541.02 18.470135,-34.196762,525.78 18.469027,-34.193939,518.16 18.467903,-34.190243,518.16 18.467289,-34.188034,518.16 18.466335,-34.184189,510.54 18.46443,-34.17897,518.16 18.46138,-34.16869,525.78 18.461123,-34.16629,525.78 18.460979,-34.162453,518.16 18.461037,-34.160358,518.16 18.461348,-34.156723,518.16 18.461609,-34.154305,525.78 18.462067,-34.150814,518.16 18.462524,-34.148254,502.92 18.463383,-34.144577,487.68 18.464149,-34.142303,495.3 18.4655,-34.139175,502.92 18.46656,-34.137177,502.92 18.468418,-34.134102,518.16 18.469755,-34.132187,518.16 18.47168,-34.129585,525.78 18.473396,-34.127537,525.78 18.475571,-34.124744,518.16 18.478611,-34.119736,525.78 18.479805,-34.116692,525.78 18.480434,-34.114552,525.78 18.480949,-34.1105,525.78 18.480949,-34.108265,525.78 18.480663,-34.104729,525.78 18.480181,-34.102295,525.78 18.479233,-34.098862,533.4 18.4785,-34.09671,541.02 18.477058,-34.093231,541.02 18.475809,-34.090851,541.02 18.473511,-34.087601,541.02 18.471794,-34.085457,541.02 18.469082,-34.082428,541.02 18.466784,-34.080048,533.4 18.464012,-34.077122,525.78 18.462021,-34.074921,525.78 18.456745,-34.06823,510.54 18.455349,-34.066132,510.54 18.453255,-34.062599,518.16 18.452339,-34.060272,518.16 18.451309,-34.056641,518.16 18.450865,-34.054321,525.78 18.450394,-34.050774,525.78 18.450193,-34.048325,533.4 18.449879,-34.044582,533.4 18.449688,-34.042282,533.4 18.449688,-34.038437,533.4 18.449856,-34.036057,533.4 18.450165,-34.032711,518.16 18.450304,-34.030426,525.78 18.450697,-34.026489,525.78 18.451023,-34.024193,525.78 18.451767,-34.020237,510.54 18.452435,-34.017517,510.54 18.453276,-34.013855,495.3 18.45377,-34.011623,502.92 18.454742,-34.007805,510.54 18.456919,-34.000488,510.54 18.458862,-33.997101,525.78 18.460293,-33.995144,518.16 18.462749,-33.992157,495.3 18.464542,-33.990097,480.06 18.46693,-33.987461,457.2 18.468647,-33.985508,441.96 18.473904,-33.978745,396.24 18.475361,-33.976501,381 18.477322,-33.973343,365.76 18.478489,-33.971401,342.9 18.480238,-33.968307,350.52 18.48135,-33.966095,342.9 18.482815,-33.962814,335.28 18.483543,-33.9608,335.28 18.484665,-33.957458,327.66 18.48517,-33.955215,342.9 18.485451,-33.951508,327.66 18.485413,-33.949059,335.28 18.485069,-33.945518,327.66 18.484554,-33.942913,320.04 18.483639,-33.939327,304.8 18.482985,-33.937088,297.18 18.481695,-33.93338,297.18 18.480797,-33.931229,297.18 18.479118,-33.92741,274.32 18.477917,-33.924992,266.7 18.476028,-33.921638,251.46 18.474464,-33.919281,251.46 18.47208,-33.9161,243.84 18.46998,-33.913788,236.22 18.466873,-33.910931,228.6 18.46447,-33.908882,228.6 18.461515,-33.906372,175.26 18.459377,-33.904648,228.6 18.456173,-33.902271,220.98 18.454113,-33.900784,220.98 18.45108,-33.898922,198.12 18.448963,-33.897896,190.5 18.446331,-33.897011,167.64 18.444214,-33.896641,144.78 18.441639,-33.896591,106.68 18.43998,-33.896778,83.82 18.437412,-33.897354,53.34 18.43626,-33.897663,30.48 18.435173,-33.897942,15.24 18.434601,-33.898083,15.24 18.433434,-33.898407,0 18.43091,-33.899094,0 18.427492,-33.899918,0 18.426991,-33.900272,0 18.427099,-33.901062,0 18.426991,-33.900597,0 18.427547,-33.899734,0 18.428053,-33.899094,0 18.429005,-33.897995,0 18.429451,-33.897476,0 18.430182,-33.896667,15.24 18.43063,-33.896118,22.86 18.432884,-33.893055,68.58 18.433714,-33.891632,83.82 18.434778,-33.889709,99.06 18.435562,-33.888199,121.92 18.436235,-33.88591,152.4 18.436068,-33.884354,175.26 18.435001,-33.882442,205.74 18.433546,-33.881241,228.6 18.431078,-33.880005,266.7 18.429394,-33.879322,281.94 18.426933,-33.878532,312.42 18.425217,-33.878113,335.28 18.422413,-33.877598,373.38 18.420372,-33.877304,396.24 18.417458,-33.876984,441.96 18.41526,-33.876854,472.44 18.41247,-33.876755,502.92 18.410284,-33.876755,518.16 18.407078,-33.876949,556.26 18.404902,-33.877121,563.88 18.401585,-33.877415,579.12 18.399582,-33.877598,601.98 18.396103,-33.878036,617.22 18.394196,-33.878311,632.46 18.39061,-33.878998,655.32 18.388702,-33.879501,662.94 18.38562,-33.880531,670.56 18.383331,-33.881371,670.56 18.380295,-33.882889,670.56 18.378389,-33.884079,670.56 18.37553,-33.885956,685.8 18.373775,-33.887283,693.42 18.371143,-33.889423,693.42 18.369598,-33.890774,693.42 18.367138,-33.893101,685.8 18.365553,-33.894745,685.8 18.362961,-33.89743,685.8 18.36153,-33.899155,678.18 18.359413,-33.901901,678.18 18.357983,-33.903809,670.56 18.355923,-33.906929,670.56 18.354904,-33.908615,670.56 18.353233,-33.911629,678.18 18.352158,-33.913651,685.8 18.350643,-33.916626,701.04 18.349571,-33.918983,701.04 18.348141,-33.922245,701.04 18.34734,-33.924198,701.04 18.346081,-33.92741,693.42 18.343412,-33.934479,678.18 18.339329,-33.94566,655.32 18.338699,-33.94915,647.7 18.339672,-33.952316,632.46 18.341503,-33.954132,617.22 18.345263,-33.95549,609.6 18.347569,-33.955437,601.98 18.351002,-33.954037,586.74 18.352942,-33.952103,571.5 18.354734,-33.948944,548.64 18.355751,-33.946545,548.64 18.357124,-33.942959,533.4 18.357983,-33.940819,548.64 18.359356,-33.937187,556.26 18.361416,-33.931881,563.88 18.365479,-33.922337,563.88 18.367235,-33.918869,563.88 18.369141,-33.915867,548.64 18.370543,-33.913788,541.02 18.372616,-33.910904,533.4 18.37429,-33.908695,525.78 18.37682,-33.90564,518.16 18.37867,-33.903534,518.16 18.381443,-33.900784,510.54 18.383266,-33.899048,495.3 18.38625,-33.896591,510.54 18.388767,-33.894825,495.3 18.392347,-33.892868,472.44 18.394775,-33.891891,457.2 18.398838,-33.890633,434.34 18.401596,-33.890076,411.48 18.40591,-33.889481,373.38 18.408794,-33.889145,350.52 18.413258,-33.888634,304.8 18.416061,-33.888306,274.32 18.423443,-33.887329,243.84 18.428221,-33.886871,220.98 18.431696,-33.887329,198.12 18.434086,-33.88826,175.26 18.436571,-33.889847,144.78 18.43803,-33.891403,129.54 18.439318,-33.893829,106.68 18.439522,-33.895523,83.82 18.438606,-33.897617,53.34 18.437525,-33.898361,38.1 18.436348,-33.898727,22.86 18.435745,-33.898827,15.24 18.434372,-33.898968,0 18.433601,-33.899002,0 18.432655,-33.899105,0 18.431919,-33.899185,0 18.430182,-33.89946,0 18.429394,-33.89962,0 18.428331,-33.89978,0 18.427334,-33.90004,0 18.426933,-33.900642,0 18.426987,-33.900604,0 18.42766,-33.899506,0 18.428135,-33.898827,0 18.428782,-33.897995,0 18.429394,-33.897293,0 18.43277,-33.892914,60.96 18.435507,-33.889023,129.54 18.436571,-33.887054,167.64 18.436947,-33.885654,190.5 18.437021,-33.883484,228.6 18.436571,-33.881973,259.08 18.435284,-33.880234,297.18 18.434029,-33.879135,320.04 18.431911,-33.877834,358.14 18.430294,-33.877121,381 18.427734,-33.876251,419.1 18.425755,-33.875793,441.96 18.422895,-33.875427,480.06 18.421101,-33.87529,502.92 18.418411,-33.875107,525.78 18.416225,-33.874969,548.64 18.412918,-33.874878,579.12 18.410955,-33.874878,601.98 18.407936,-33.875088,617.22 18.405704,-33.87532,624.84 18.402386,-33.875736,647.7 18.400154,-33.876156,647.7 18.396378,-33.876995,655.32 18.393972,-33.877625,655.32 18.390083,-33.878902,662.94 18.387794,-33.879787,670.56 18.384476,-33.881279,670.56 18.381865,-33.882523,678.18 18.378696,-33.884304,670.56 18.376694,-33.885513,670.56 18.373432,-33.887886,662.94 18.371607,-33.889389,662.94 18.368973,-33.891861,662.94 18.367123,-33.893875,670.56 18.364964,-33.896545,670.56 18.363419,-33.898735,678.18 18.361473,-33.901714,678.18 18.360329,-33.903763,685.8 18.358612,-33.906929,685.8 18.357582,-33.908978,685.8 18.35598,-33.912235,678.18 18.355015,-33.914612,670.56 18.353519,-33.918148,678.18 18.350475,-33.924637,693.42 18.347912,-33.929459,701.04 18.344141,-33.937042,716.28 18.339153,-33.947021,723.9 18.337191,-33.951599,723.9 18.337269,-33.955154,716.28 18.339209,-33.957687,701.04 18.34259,-33.959064,685.8 18.345451,-33.958927,670.56 18.349522,-33.956909,647.7 18.350868,-33.955124,640.08 18.352213,-33.951324,617.22 18.352942,-33.948715,609.6 18.353951,-33.945007,594.36 18.354607,-33.942818,594.36 18.355751,-33.93919,586.74 18.357353,-33.934441,571.5 18.360676,-33.925781,548.64 18.361742,-33.923584,541.02 18.363361,-33.920521,533.4 18.364712,-33.918365,533.4 18.366787,-33.915253,525.78 18.368282,-33.913353,518.16 18.370823,-33.910263,525.78 18.372841,-33.908066,533.4 18.37553,-33.905319,541.02 18.377266,-33.903622,541.02 18.380299,-33.900784,548.64 18.38237,-33.898911,541.02 18.385334,-33.896221,533.4 18.387508,-33.894547,518.16 18.39072,-33.892502,510.54 18.393299,-33.891083,502.92 18.396999,-33.889297,495.3 18.399746,-33.888153,495.3 18.403358,-33.886909,464.82 18.406471,-33.885956,441.96 18.410564,-33.884949,411.48 18.412914,-33.884441,388.62 18.41732,-33.883652,358.14 18.419868,-33.883347,335.28 18.423729,-33.883045,304.8 18.426533,-33.883232,281.94 18.430538,-33.884258,251.46 18.432648,-33.885223,236.22 18.435345,-33.887005,152.4 18.436947,-33.888493,205.74 18.439095,-33.890808,182.88 18.440037,-33.892124,167.64 18.440895,-33.894451,137.16 18.441,-33.895981,121.92 18.440094,-33.897804,83.82 18.438892,-33.898457,60.96 18.437189,-33.898727,38.1 18.436516,-33.898819,30.48 18.435574,-33.898872,15.24 18.434601,-33.898922,0 18.433489,-33.899002,0 18.432026,-33.8992,0 18.430939,-33.899338,0 18.430294,-33.899506,0 18.428444,-33.89978,0 18.42738,-33.900009,0 18.427044,-33.900696,0 18.426987,-33.900696,0 18.427391,-33.899712,0 18.427773,-33.899185,0 18.428593,-33.898083,0 18.42905,-33.897526,0 18.432083,-33.892914,76.2 18.432873,-33.891495,106.68 18.433914,-33.889656,144.78 18.434555,-33.888336,160.02 18.435287,-33.886257,205.74 18.435402,-33.884674,228.6 18.434778,-33.882477,266.7 18.433994,-33.880966,297.18 18.432541,-33.879089,335.28 18.431396,-33.878017,358.14 18.429173,-33.876663,403.86 18.427603,-33.875977,426.72 18.425026,-33.875198,457.2 18.423288,-33.874878,480.06 18.420036,-33.874512,510.54 18.417795,-33.87442,533.4 18.414631,-33.874527,548.64 18.412514,-33.87476,556.26 18.409275,-33.875244,571.5 18.406584,-33.875793,586.74 18.403612,-33.876526,601.98 18.401371,-33.877075,609.6 18.397951,-33.878082,632.46 18.395805,-33.878765,647.7 18.39283,-33.879787,662.94 18.390833,-33.880554,670.56 18.38747,-33.881973,678.18 18.38562,-33.882797,678.18 18.382301,-33.884537,670.56 18.380184,-33.885746,662.94 18.376923,-33.887794,662.94 18.37532,-33.888958,662.94 18.372173,-33.891472,655.32 18.37043,-33.893097,655.32 18.367825,-33.89571,655.32 18.366108,-33.897663,647.7 18.363876,-33.90041,655.32 18.36256,-33.90218,655.32 18.360733,-33.904953,662.94 18.359556,-33.906876,662.94 18.357761,-33.910034,670.56 18.35681,-33.911865,670.56 18.35524,-33.91507,670.56 18.354263,-33.917168,670.56 18.352829,-33.920609,670.56 18.351877,-33.922806,670.56 18.349113,-33.92918,678.18 18.345451,-33.936954,670.56 18.340816,-33.947243,670.56 18.340498,-33.949585,662.94 18.34145,-33.952927,632.46 18.343163,-33.95483,617.22 18.348625,-33.955902,594.36 18.350756,-33.954895,579.12 18.352947,-33.951851,541.02 18.353895,-33.949585,548.64 18.355127,-33.946381,548.64 18.356209,-33.943798,556.26 18.357594,-33.940475,548.64 18.358547,-33.938187,541.02 18.362583,-33.928253,525.78 18.364992,-33.923126,518.16 18.366674,-33.920013,518.16 18.367907,-33.917953,510.54 18.369701,-33.91507,518.16 18.371159,-33.912918,518.16 18.373203,-33.910187,518.16 18.374859,-33.908249,518.16 18.377495,-33.905437,518.16 18.379498,-33.903435,518.16 18.381958,-33.901154,518.16 18.384018,-33.899292,525.78 18.386965,-33.896805,525.78 18.38887,-33.89534,518.16 18.392235,-33.893234,487.68 18.394661,-33.892033,472.44 18.398569,-33.890488,449.58 18.401258,-33.889664,426.72 18.40563,-33.888611,396.24 18.408154,-33.888062,373.38 18.412113,-33.887421,335.28 18.415318,-33.887005,312.42 18.419037,-33.886585,274.32 18.421494,-33.886322,251.46 18.425529,-33.885956,205.74 18.428108,-33.885773,190.5 18.431969,-33.886166,167.64 18.433825,-33.887054,152.4 18.436031,-33.888958,137.16 18.437525,-33.8909,114.3 18.438534,-33.893646,91.44 18.438492,-33.894825,38.1 18.43729,-33.897339,15.24 18.43626,-33.898174,22.86 18.435171,-33.898773,15.24 18.434086,-33.899059,7.62 18.433056,-33.899246,0 18.432199,-33.899323,0 18.431248,-33.899368,0 18.430294,-33.899414,0 18.429451,-33.899479,0 18.428053,-33.899689,0 18.427277,-33.89999,0 18.426931,-33.900467,0 18.426931,-33.900696,0 18.427212,-33.900009,0 18.427715,-33.899048,0 18.428164,-33.898315,0 18.428724,-33.897217,0 18.429165,-33.896358,0 18.430367,-33.893894,30.48 18.430653,-33.893242,38.1 18.431416,-33.890945,60.96 18.431911,-33.889332,68.58 18.43248,-33.886688,83.82 18.432541,-33.884907,99.06 18.431511,-33.88216,121.92 18.430138,-33.880531,129.54 18.427715,-33.878677,152.4 18.425903,-33.877739,167.64 18.422527,-33.876717,190.5 18.420204,-33.876297,205.74 18.416691,-33.876019,228.6 18.414173,-33.876019,236.22 18.410969,-33.876156,251.46 18.408434,-33.876434,259.08 18.404617,-33.877041,274.32 18.402615,-33.877506,281.94 18.399185,-33.878494,297.18 18.396774,-33.879272,304.8 18.393467,-33.880646,320.04 18.391394,-33.881744,342.9 18.388424,-33.883511,365.76 18.386909,-33.884583,373.38 18.38405,-33.886826,388.62 18.382032,-33.888519,403.86 18.379498,-33.890774,411.48 18.378124,-33.892078,419.1 18.375435,-33.89473,434.34 18.374119,-33.89608,441.96 18.371775,-33.89859,449.58 18.370342,-33.900223,449.58 18.368244,-33.902756,457.2 18.36668,-33.904785,464.82 18.364769,-33.907425,472.44 18.363419,-33.909256,480.06 18.361244,-33.912281,487.68 18.359928,-33.914188,487.68 18.356529,-33.919647,502.92 18.354206,-33.923409,518.16 18.3521,-33.927155,533.4 18.350027,-33.931137,548.64 18.347281,-33.93663,571.5 18.34425,-33.942493,586.74 18.339272,-33.951618,601.98 18.336069,-33.957458,624.84 18.32811,-33.972198,670.56 18.323135,-33.981503,678.18 18.318077,-33.991287,685.8 18.314264,-33.99939,685.8 18.311127,-34.007034,693.42 18.310453,-34.009048,685.8 18.309389,-34.01239,678.18 18.308771,-34.014404,670.56 18.307571,-34.018559,655.32 18.305111,-34.026428,655.32 18.303909,-34.032619,640.08 18.303852,-34.034668,647.7 18.304119,-34.037613,632.46 18.304567,-34.039581,632.46 18.305466,-34.042465,624.84 18.306082,-34.044113,632.46 18.3074,-34.047005,624.84 18.308372,-34.048912,617.22 18.309725,-34.051575,617.22 18.310661,-34.053242,617.22 18.312359,-34.056244,609.6 18.313351,-34.057896,609.6 18.31505,-34.060455,609.6 18.316097,-34.061993,617.22 18.317928,-34.064552,624.84 18.319254,-34.066315,624.84 18.320961,-34.068558,632.46 18.324909,-34.073677,655.32 18.331697,-34.082336,662.94 18.335724,-34.087597,662.94 18.342018,-34.094532,617.22 18.343449,-34.095745,609.6 18.34671,-34.097931,601.98 18.348656,-34.09914,594.36 18.351574,-34.100773,579.12 18.353863,-34.101887,579.12 18.356977,-34.103348,571.5 18.359051,-34.104263,563.88 18.362503,-34.105705,556.26 18.364506,-34.10659,548.64 18.372002,-34.109848,541.02 18.37904,-34.112873,533.4 18.389263,-34.11731,502.92 18.396719,-34.120422,480.06 18.409163,-34.125137,457.2 18.415665,-34.127518,449.58 18.425417,-34.130722,434.34 18.427563,-34.13131,441.96 18.431358,-34.132278,441.96 18.433285,-34.132706,441.96 18.436947,-34.133312,434.34 18.439318,-34.13356,434.34 18.443298,-34.133469,441.96 18.445652,-34.133148,441.96 18.449127,-34.132141,457.2 18.451138,-34.131218,457.2 18.454229,-34.129395,464.82 18.456303,-34.12793,464.82 18.459553,-34.125183,472.44 18.461403,-34.123489,472.44 18.464298,-34.120743,472.44 18.465944,-34.119141,457.2 18.46899,-34.116272,464.82 18.470936,-34.114319,464.82 18.473454,-34.111431,464.82 18.47517,-34.10915,472.44 18.476986,-34.106049,480.06 18.47805,-34.103622,480.06 18.479059,-34.099731,472.44 18.479397,-34.097214,480.06 18.47962,-34.093185,472.44 18.47962,-34.090668,480.06 18.47962,-34.086823,487.68 18.479691,-34.084476,487.68 18.480549,-34.072842,495.3 18.480892,-34.070232,495.3 18.481358,-34.066864,502.92 18.482552,-34.059013,487.68 18.483696,-34.045654,472.44 18.484211,-34.037041,480.06 18.484383,-34.023308,434.34 18.484272,-34.013535,472.44 18.484554,-33.998962,457.2 18.484669,-33.989697,441.96 18.485058,-33.975586,365.76 18.485184,-33.966888,365.76 18.484665,-33.95105,327.66 18.484097,-33.945148,297.18 18.483467,-33.941051,274.32 18.482815,-33.938278,251.46 18.481522,-33.934299,236.22 18.480406,-33.931595,243.84 18.478275,-33.927521,167.64 18.47683,-33.925407,236.22 18.473911,-33.92178,213.36 18.471966,-33.919823,213.36 18.46813,-33.916534,190.5 18.465944,-33.914749,144.78 18.462244,-33.911591,152.4 18.460007,-33.909626,213.36 18.448624,-33.899231,160.02 18.446388,-33.897526,220.98 18.443184,-33.895802,205.74 18.440781,-33.895012,190.5 18.437862,-33.895058,160.02 18.436031,-33.89571,129.54 18.434162,-33.896576,91.44 18.432873,-33.897217,60.96 18.431282,-33.898083,30.48 18.430424,-33.898594,7.62 18.429737,-33.899059,0 18.429165,-33.899387,0 18.42762,-33.900455,0 18.427162,-33.900784,0 18.426987,-33.900513,0 18.427448,-33.899807,0 18.428108,-33.898956,0 18.428593,-33.898457,0 18.429451,-33.897385,7.62 18.430182,-33.896301,30.48 18.431078,-33.894699,60.96 18.431639,-33.893509,76.2 18.432541,-33.891518,114.3 18.43317,-33.890076,129.54 18.434105,-33.888062,152.4 18.434715,-33.886677,182.88 18.435173,-33.884304,220.98 18.434887,-33.882721,243.84 18.433571,-33.880531,281.94 18.432199,-33.879318,312.42 18.429901,-33.878036,342.9 18.428478,-33.877598,373.38 18.42556,-33.877041,411.48 18.424015,-33.876854,441.96 18.421211,-33.876667,472.44 18.41942,-33.876572,495.3 18.416674,-33.876526,525.78 18.414824,-33.876572,533.4 18.411541,-33.876762,563.88 18.409666,-33.876938,571.5 18.406248,-33.877258,586.74 18.404102,-33.877598,586.74 18.400726,-33.87825,601.98 18.398457,-33.878815,617.22 18.394701,-33.879822,632.46 18.392235,-33.880554,640.08 18.388535,-33.881836,655.32 18.38625,-33.882767,662.94 18.383274,-33.884209,670.56 18.381136,-33.885452,670.56 18.377884,-33.887558,678.18 18.375698,-33.88916,678.18 18.372803,-33.891567,678.18 18.370972,-33.893333,678.18 18.368412,-33.896027,678.18 18.36673,-33.897995,678.18 18.364391,-33.901203,670.56 18.363247,-33.903019,670.56 18.361574,-33.905914,670.56 18.360443,-33.908279,670.56 18.35907,-33.911396,662.94 18.357986,-33.913971,662.94 18.356697,-33.917084,670.56 18.354792,-33.92157,670.56 18.349131,-33.933517,662.94 18.344757,-33.941895,678.18 18.34219,-33.947613,662.94 18.342018,-33.949711,647.7 18.343077,-33.952606,632.46 18.34487,-33.954163,632.46 18.348177,-33.955032,617.22 18.351765,-33.954163,594.36 18.354607,-33.951618,563.88 18.355865,-33.94915,548.64 18.356865,-33.946198,541.02 18.357651,-33.943726,533.4 18.358898,-33.939888,525.78 18.359779,-33.937363,525.78 18.36191,-33.931549,533.4 18.364849,-33.923687,563.88 18.368282,-33.915958,556.26 18.369534,-33.913605,556.26 18.371326,-33.910675,548.64 18.372784,-33.908478,541.02 18.375137,-33.905273,541.02 18.376808,-33.903202,541.02 18.379511,-33.900284,533.4 18.381304,-33.898499,525.78 18.384361,-33.895756,518.16 18.386421,-33.894127,525.78 18.390026,-33.892078,518.16 18.392544,-33.891006,510.54 18.396435,-33.889843,487.68 18.398952,-33.889332,472.44 18.402996,-33.888702,441.96 18.405743,-33.888428,411.48 18.409666,-33.888062,381 18.41247,-33.887787,358.14 18.416225,-33.887421,320.04 18.424301,-33.88649,236.22 18.429794,-33.886307,205.74 18.431864,-33.886871,190.5 18.434143,-33.888119,167.64 18.435507,-33.889297,152.4 18.437021,-33.891403,129.54 18.437525,-33.892639,121.92 18.43792,-33.894497,91.44 18.437748,-33.895893,76.2 18.437021,-33.897217,30.48 18.436068,-33.898041,38.1 18.435339,-33.898499,30.48 18.434429,-33.898922,22.86 18.433285,-33.8992,7.62 18.43214,-33.899433,0 18.431339,-33.89957,0 18.430799,-33.899643,0 18.429846,-33.899872,0 18.429117,-33.900055,0 18.428135,-33.900455,0 18.42762,-33.900642,0 18.426987,-33.900604,0 18.427219,-33.900131,0 18.427906,-33.899155,0 18.428478,-33.898361,0 18.429062,-33.897583,7.62 18.430424,-33.895477,53.34 18.431454,-33.893799,83.82 18.43214,-33.892544,114.3 18.433113,-33.890541,152.4 18.433714,-33.889252,175.26 18.434498,-33.887375,220.98 18.434666,-33.886047,243.84 18.434105,-33.883896,289.56 18.433228,-33.882534,304.8 18.431528,-33.88092,342.9 18.430069,-33.880051,365.76 18.42738,-33.878952,403.86 18.42581,-33.878494,426.72 18.423288,-33.877899,457.2 18.42144,-33.877552,480.06 18.418804,-33.877213,510.54 18.416519,-33.877087,525.78 18.413315,-33.877087,556.26 18.411026,-33.877182,571.5 18.407536,-33.87746,601.98 18.405304,-33.877739,617.22 18.401699,-33.878391,647.7 18.399925,-33.878811,670.56 18.396662,-33.87973,693.42 18.39426,-33.880627,701.04 18.391113,-33.881882,716.28 18.387623,-33.882534,739.14 18.385059,-33.881424,739.14 18.384018,-33.87923,731.52 18.385277,-33.876854,739.14 18.386909,-33.876205,723.9 18.389601,-33.876984,723.9 18.390497,-33.878265,723.9 18.390272,-33.880783,723.9 18.389208,-33.882248,716.28 18.386593,-33.884583,716.28 18.384666,-33.886047,708.66 18.381672,-33.88826,716.28 18.379734,-33.889572,716.28 18.376637,-33.891983,708.66 18.372671,-33.895294,701.04 18.369884,-33.897942,693.42 18.368019,-33.899918,693.42 18.365385,-33.902756,685.8 18.363928,-33.904495,685.8 18.361645,-33.907486,693.42 18.360443,-33.909256,701.04 18.358267,-33.912598,716.28 18.357201,-33.914383,723.9 18.355688,-33.917542,731.52 18.354664,-33.919777,739.14 18.353334,-33.922806,762 18.352489,-33.924805,777.24 18.351149,-33.928024,807.72 18.348457,-33.934708,830.58 18.343334,-33.945518,830.58 18.340162,-33.952194,845.82 18.335453,-33.962448,853.44 18.331081,-33.971603,838.2 18.325644,-33.983231,838.2 18.322056,-33.990372,853.44 18.318468,-33.998566,845.82 18.317642,-34.00087,845.82 18.315525,-34.006504,838.2 18.313536,-34.01239,822.96 18.310341,-34.023376,838.2 18.30995,-34.025482,838.2 18.309669,-34.028595,838.2 18.309574,-34.030895,838.2 18.309612,-34.034088,830.58 18.309917,-34.036156,838.2 18.31049,-34.039089,853.44 18.311014,-34.040909,861.06 18.311911,-34.043747,861.06 18.312607,-34.045792,868.68 18.313761,-34.048553,861.06 18.314724,-34.050774,861.06 18.316507,-34.054001,845.82 18.317699,-34.055847,838.2 18.319588,-34.058594,830.58 18.320879,-34.060455,815.34 18.322617,-34.063019,830.58 18.323879,-34.064972,830.58 18.326485,-34.06723,838.2 18.328342,-34.067719,838.2 18.331661,-34.067673,830.58 18.33395,-34.067066,822.96 18.336349,-34.065353,815.34 18.33704,-34.0639,815.34 18.337416,-34.061325,815.34 18.338528,-34.059944,822.96 18.342247,-34.059059,853.44 18.344141,-34.059677,868.68 18.346552,-34.061371,868.68 18.347952,-34.062653,861.06 18.350195,-34.06485,861.06 18.351484,-34.066223,853.44 18.354118,-34.068924,845.82 18.355751,-34.070652,861.06 18.362617,-34.077496,853.44 18.368692,-34.083755,822.96 18.375149,-34.09095,784.86 18.380871,-34.097187,746.76 18.387133,-34.103394,723.9 18.389111,-34.105194,716.28 18.39201,-34.107651,701.04 18.393917,-34.109196,685.8 18.397121,-34.111664,670.56 18.399466,-34.113419,655.32 18.402443,-34.115528,640.08 18.404566,-34.116898,632.46 18.407764,-34.118881,609.6 18.409882,-34.120136,601.98 18.413601,-34.122093,594.36 18.415945,-34.123169,579.12 18.419195,-34.124496,563.88 18.421783,-34.125443,548.64 18.425474,-34.126556,541.02 18.427906,-34.127167,541.02 18.431416,-34.127792,541.02 18.433601,-34.128159,541.02 18.437302,-34.128571,533.4 18.439768,-34.128708,533.4 18.443466,-34.128662,541.02 18.44593,-34.128422,541.02 18.449913,-34.127655,541.02 18.452602,-34.126831,541.02 18.455944,-34.125443,525.78 18.458519,-34.124142,518.16 18.462124,-34.121861,518.16 18.464127,-34.120415,525.78 18.46693,-34.117996,533.4 18.468859,-34.116074,533.4 18.471394,-34.113014,533.4 18.472996,-34.110733,533.4 18.475136,-34.106873,533.4 18.476086,-34.104588,533.4 18.477211,-34.100876,541.02 18.477802,-34.098259,541.02 18.478331,-34.094284,541.02 18.478546,-34.091415,541.02 18.478775,-34.087551,541.02 18.478891,-34.084808,541.02 18.479061,-34.080612,541.02 18.479061,-34.075447,548.64 18.478891,-34.064255,548.64 18.479116,-34.055145,541.02 18.479788,-34.040726,533.4 18.48032,-34.031593,525.78 18.480854,-34.01825,525.78 18.481522,-34.008553,525.78 18.48238,-33.995235,457.2 18.482838,-33.984764,419.1 18.483543,-33.970871,373.38 18.484154,-33.961208,335.28 18.484039,-33.950409,358.14 18.483824,-33.947983,350.52 18.483238,-33.944542,342.9 18.482424,-33.941528,327.66 18.481064,-33.937698,320.04 18.479919,-33.935184,312.42 18.47805,-33.931686,297.18 18.476593,-33.929169,281.94 18.474712,-33.925781,259.08 18.473343,-33.923126,243.84 18.471548,-33.919968,228.6 18.469906,-33.917774,228.6 18.467344,-33.914703,213.36 18.465443,-33.912605,205.74 18.462917,-33.90976,205.74 18.46129,-33.907837,213.36 18.458862,-33.905251,213.36 18.456358,-33.90271,198.12 18.453426,-33.900223,182.88 18.45171,-33.899155,160.02 18.448219,-33.897942,129.54 18.446159,-33.897663,114.3 18.442726,-33.897758,30.48 18.440723,-33.897896,76.2 18.438091,-33.898174,60.96 18.436375,-33.898407,45.72 18.434443,-33.898682,30.48 18.433685,-33.898827,22.86 18.43276,-33.898956,15.24 18.428782,-33.899643,0 18.427492,-33.899963,0 18.427048,-33.900318,0 18.426874,-33.901016,0 18.427155,-33.90033,0 18.427849,-33.899338,0 18.428444,-33.898315,0 18.429173,-33.896896,0 18.430023,-33.894917,7.62 18.430595,-33.893379,30.48 18.431168,-33.891846,53.34 18.432032,-33.888931,91.44 18.432369,-33.887005,106.68 18.432083,-33.884537,129.54 18.431248,-33.882568,144.78 18.429165,-33.880161,167.64 18.427563,-33.878948,182.88 18.423901,-33.877182,213.36 18.421783,-33.876717,243.84 18.418751,-33.87653,266.7 18.416691,-33.876717,289.56 18.413422,-33.877396,312.42 18.411909,-33.878128,335.28 18.411255,-33.880066,373.38 18.41217,-33.880951,388.62 18.414516,-33.881557,403.86 18.416561,-33.881561,419.1 18.418972,-33.881149,449.58 18.420467,-33.880299,472.44 18.420982,-33.878159,495.3 18.419643,-33.876663,487.68 18.416691,-33.875736,480.06 18.414402,-33.875645,480.06 18.410797,-33.876019,480.06 18.408209,-33.876572,487.68 18.404732,-33.877598,487.68 18.402548,-33.878357,487.68 18.398952,-33.879833,487.68 18.396719,-33.880875,487.68 18.39323,-33.88258,480.06 18.391171,-33.883652,480.06 18.387394,-33.8857,480.06 18.384892,-33.887192,487.68 18.381443,-33.889565,480.06 18.379211,-33.891148,487.68 18.376236,-33.893379,487.68 18.37413,-33.895065,495.3 18.371439,-33.8974,502.92 18.369598,-33.899155,502.92 18.367367,-33.901436,510.54 18.365833,-33.903168,510.54 18.363144,-33.906464,518.16 18.361742,-33.908386,533.4 18.359756,-33.911163,541.02 18.358555,-33.912979,548.64 18.356781,-33.915771,556.26 18.355808,-33.91745,556.26 18.354399,-33.920059,563.88 18.353165,-33.922394,563.88 18.351688,-33.925503,571.5 18.350868,-33.927383,579.12 18.349457,-33.930717,586.74 18.348625,-33.932922,594.36 18.347561,-33.936035,601.98 18.347,-33.938553,617.22 18.348289,-33.941299,685.8 18.35014,-33.941711,708.66 18.352776,-33.940491,716.28 18.353977,-33.939236,723.9 18.355865,-33.936581,754.38 18.356781,-33.935043,769.62 18.357697,-33.932114,807.72 18.357201,-33.930496,845.82 18.354664,-33.929504,868.68 18.352604,-33.930576,861.06 18.350756,-33.933517,853.44 18.3498,-33.935558,845.82 18.348312,-33.93877,838.2 18.347168,-33.941208,838.2 18.345737,-33.944401,822.96 18.344765,-33.946636,822.96 18.339489,-33.95929,792.48 18.335667,-33.968983,769.62 18.330801,-33.982956,762 18.328615,-33.991058,754.38 18.327942,-33.9944,754.38 18.327599,-33.996635,762 18.327026,-34.000172,769.62 18.326765,-34.002182,777.24 18.32654,-34.005341,784.86 18.326597,-34.007401,792.48 18.327427,-34.010551,800.1 18.328342,-34.012508,800.1 18.329847,-34.015182,815.34 18.331081,-34.017059,815.34 18.333092,-34.019722,807.72 18.334351,-34.021355,807.72 18.336411,-34.023914,792.48 18.337864,-34.025848,784.86 18.342876,-34.03299,769.62 18.344078,-34.034946,769.62 18.345711,-34.038025,777.24 18.34671,-34.040161,784.86 18.347952,-34.043106,792.48 18.34885,-34.045166,792.48 18.350307,-34.048599,800.1 18.352089,-34.052589,800.1 18.356752,-34.063248,807.72 18.358547,-34.066406,815.34 18.360453,-34.069199,807.72 18.361874,-34.071072,815.34 18.363819,-34.073677,822.96 18.36525,-34.075493,822.96 18.367123,-34.077896,815.34 18.368511,-34.079544,807.72 18.373718,-34.085873,807.72 18.378525,-34.091831,769.62 18.385733,-34.099777,708.66 18.387638,-34.101517,685.8 18.390385,-34.103943,670.56 18.392487,-34.105659,655.32 18.395597,-34.108063,640.08 18.39728,-34.109299,632.46 18.400154,-34.111385,617.22 18.401932,-34.112595,594.36 18.40456,-34.114365,571.5 18.408377,-34.116852,556.26 18.411255,-34.118649,548.64 18.417206,-34.12228,533.4 18.426764,-34.127701,510.54 18.429678,-34.129166,510.54 18.432541,-34.130566,502.92 18.43461,-34.1315,502.92 18.437805,-34.132645,502.92 18.440104,-34.133011,502.92 18.443691,-34.132782,510.54 18.446045,-34.132099,502.92 18.449633,-34.130585,495.3 18.451763,-34.12944,487.68 18.455126,-34.12738,487.68 18.457367,-34.125916,487.68 18.460732,-34.123489,487.68 18.462805,-34.121979,487.68 18.466335,-34.119324,480.06 18.468361,-34.117718,480.06 18.47138,-34.115112,480.06 18.473286,-34.113144,487.68 18.475641,-34.110168,480.06 18.476887,-34.107941,472.44 18.47822,-34.104263,480.06 18.478718,-34.101654,480.06 18.479061,-34.097839,480.06 18.479176,-34.095093,480.06 18.479284,-34.091309,480.06 18.47929,-34.088715,480.06 18.479507,-34.084671,480.06 18.479919,-34.079311,472.44 18.481293,-34.064602,472.44 18.482254,-34.056152,472.44 18.483524,-34.042767,480.06 18.483982,-34.032154,472.44 18.484497,-34.017563,480.06 18.484665,-34.008224,480.06 18.485241,-33.99477,472.44 18.485413,-33.983738,449.58 18.485355,-33.96833,396.24 18.485126,-33.960045,388.62 18.484039,-33.949009,373.38 18.483543,-33.946243,373.38 18.482704,-33.942123,373.38 18.482208,-33.939468,373.38 18.48135,-33.935791,373.38 18.480549,-33.932858,365.76 18.479116,-33.928711,365.76 18.477995,-33.926147,358.14 18.476028,-33.922661,358.14 18.474369,-33.920147,358.14 18.471508,-33.916702,342.9 18.469307,-33.914429,358.14 18.465887,-33.911133,342.9 18.464037,-33.909439,266.7 18.460842,-33.906464,266.7 18.458601,-33.904449,335.28 18.455406,-33.901703,259.08 18.45294,-33.899734,259.08 18.449535,-33.89706,251.46 18.445372,-33.893509,350.52 18.441113,-33.891037,342.9 18.439178,-33.89082,327.66 18.437004,-33.891472,281.94 18.435974,-33.892265,243.84 18.434772,-33.893566,213.36 18.434029,-33.894547,190.5 18.433096,-33.895752,160.02 18.432426,-33.8965,137.16 18.430855,-33.89827,68.58 18.430182,-33.898773,38.1 18.429394,-33.899338,0 18.428879,-33.899666,0 18.427773,-33.90033,0 18.427219,-33.900688,0 18.427099,-33.900146,0 18.427505,-33.899525,0 18.428276,-33.898544,0 18.428949,-33.897629,0 18.429565,-33.896805,0 18.430349,-33.89566,0 18.43174,-33.893429,22.86 18.432255,-33.89259,30.48 18.432816,-33.891312,38.1 18.433685,-33.889236,53.34 18.434555,-33.886414,76.2 18.434658,-33.884628,99.06 18.4338,-33.881744,121.92 18.432537,-33.879868,137.16 18.430182,-33.877716,152.4 18.428135,-33.876434,175.26 18.424644,-33.875088,205.74 18.422167,-33.874649,220.98 18.418636,-33.874668,251.46 18.416519,-33.874947,266.7 18.413589,-33.875473,297.18 18.411629,-33.875977,320.04 18.408657,-33.876572,342.9 18.406471,-33.876984,358.14 18.403645,-33.877647,381 18.401642,-33.878204,396.24 18.398438,-33.879322,411.48 18.396435,-33.880066,426.72 18.393692,-33.881241,441.96 18.391562,-33.882294,457.2 18.388367,-33.884033,472.44 18.38625,-33.885326,472.44 18.383266,-33.887283,480.06 18.381191,-33.888794,487.68 18.378525,-33.89082,495.3 18.376579,-33.892357,502.92 18.373432,-33.895012,518.16 18.37183,-33.8965,525.78 18.369427,-33.898827,533.4 18.367825,-33.900505,533.4 18.365593,-33.902969,548.64 18.364208,-33.904724,548.64 18.362217,-33.90744,548.64 18.360901,-33.909348,548.64 18.359013,-33.912468,548.64 18.357925,-33.914375,541.02 18.356304,-33.917404,541.02 18.355408,-33.919216,533.4 18.35367,-33.922668,533.4 18.352776,-33.924572,533.4 18.351372,-33.927658,533.4 18.35025,-33.930405,533.4 18.345486,-33.941254,510.54 18.342684,-33.948532,487.68 18.340105,-33.958099,457.2 18.340073,-33.96875,441.96 18.344307,-33.976059,426.72 18.349802,-33.977554,449.58 18.353405,-33.970425,419.1 18.353634,-33.964745,403.86 18.354063,-33.954071,381 18.355183,-33.947937,358.14 18.356209,-33.944729,342.9 18.35741,-33.941936,335.28 18.361069,-33.934525,327.66 18.362103,-33.932251,327.66 18.365217,-33.926056,320.04 18.36886,-33.919464,312.42 18.3708,-33.916378,304.8 18.37286,-33.913166,312.42 18.375778,-33.908791,312.42 18.377325,-33.906784,312.42 18.379791,-33.903671,312.42 18.381752,-33.901428,312.42 18.384556,-33.898636,312.42 18.386461,-33.896896,312.42 18.389431,-33.894424,304.8 18.391729,-33.892822,304.8 18.395462,-33.89082,297.18 18.398064,-33.889709,289.56 18.402548,-33.888153,289.56 18.40519,-33.887421,289.56 18.409309,-33.886444,281.94 18.412342,-33.885838,274.32 18.416281,-33.885223,259.08 18.419323,-33.884815,259.08 18.423557,-33.884491,243.84 18.426361,-33.884537,243.84 18.430182,-33.885086,228.6 18.43248,-33.885956,228.6 18.43483,-33.887936,190.5 18.435619,-33.889252,175.26 18.436235,-33.891541,129.54 18.43626,-33.893055,106.68 18.435574,-33.895382,68.58 18.434498,-33.896622,45.72 18.433434,-33.8974,30.48 18.432537,-33.897949,15.24 18.431454,-33.898502,0 18.430407,-33.899048,0 18.429062,-33.89978,0 18.428556,-33.900101,0 18.427048,-33.900875,0 18.427048,-33.90041,0 18.42762,-33.899479,0 18.428108,-33.898819,0 18.428822,-33.897758,22.86 18.429621,-33.896484,45.72 18.430407,-33.895065,76.2 18.431078,-33.893738,99.06 18.432026,-33.8918,137.16 18.432648,-33.890625,160.02 18.435173,-33.886074,228.6 18.435287,-33.884583,251.46 18.434666,-33.882568,281.94 18.433743,-33.881279,297.18 18.431808,-33.879868,320.04 18.429966,-33.879044,342.9 18.427505,-33.87825,373.38 18.425474,-33.877808,396.24 18.42247,-33.877365,426.72 18.420467,-33.877228,449.58 18.417515,-33.877121,480.06 18.415272,-33.877213,502.92 18.412357,-33.877487,533.4 18.41011,-33.877739,548.64 18.407192,-33.878159,571.5 18.404734,-33.878586,586.74 18.401127,-33.879368,601.98 18.399017,-33.879868,617.22 18.395542,-33.880737,640.08 18.393288,-33.881416,655.32 18.390026,-33.882626,670.56 18.387852,-33.883606,685.8 18.38459,-33.885281,708.66 18.382874,-33.886276,716.28 18.379612,-33.888306,739.14 18.377548,-33.889709,746.76 18.374577,-33.892033,739.14 18.372688,-33.893753,739.14 18.370056,-33.896408,723.9 18.368244,-33.898315,716.28 18.365765,-33.90134,708.66 18.364162,-33.903343,708.66 18.361855,-33.906418,716.28 18.36034,-33.908478,716.28 18.35821,-33.911545,723.9 18.356953,-33.91349,723.9 18.355179,-33.916611,723.9 18.353895,-33.918961,723.9 18.352381,-33.921844,731.52 18.351231,-33.924152,723.9 18.348457,-33.929718,723.9 18.345205,-33.936447,723.9 18.342236,-33.94368,716.28 18.341282,-33.946152,716.28 18.337669,-33.955341,716.28 18.334351,-33.963257,723.9 18.327255,-33.978058,731.52 18.32262,-33.986904,723.9 18.317348,-33.997421,723.9 18.314152,-34.004036,708.66 18.309517,-34.014977,693.42 18.307114,-34.021072,701.04 18.305128,-34.027084,716.28 18.304625,-34.029465,723.9 18.303896,-34.032623,731.52 18.303391,-34.034821,739.14 18.302662,-34.038528,739.14 18.302307,-34.040951,739.14 18.302021,-34.044582,739.14 18.302046,-34.046539,731.52 18.302307,-34.0504,731.52 18.302549,-34.052536,716.28 18.303452,-34.05566,723.9 18.304424,-34.05706,723.9 18.306923,-34.058853,716.28 18.308659,-34.059246,716.28 18.31192,-34.058407,701.04 18.313351,-34.056873,693.42 18.313929,-34.053955,678.18 18.313179,-34.051937,662.94 18.310341,-34.048737,655.32 18.30843,-34.046818,647.7 18.305914,-34.043335,640.08 18.304905,-34.041046,640.08 18.304424,-34.037319,632.46 18.304735,-34.035095,624.84 18.305798,-34.031456,632.46 18.306643,-34.029419,640.08 18.308201,-34.026196,647.7 18.30946,-34.02396,640.08 18.311405,-34.020889,632.46 18.312721,-34.018978,624.84 18.314438,-34.01651,624.84 18.316339,-34.013672,624.84 18.322735,-34.003525,624.84 18.328056,-33.995518,624.84 18.339901,-33.978619,563.88 18.346664,-33.968262,571.5 18.350531,-33.96048,571.5 18.352203,-33.956551,579.12 18.353838,-33.952286,586.74 18.355463,-33.94812,601.98 18.360214,-33.936161,571.5 18.363132,-33.929134,579.12 18.366114,-33.92276,571.5 18.367367,-33.92038,563.88 18.369253,-33.917084,563.88 18.370457,-33.915119,563.88 18.372671,-33.911819,556.26 18.374004,-33.909908,556.26 18.376427,-33.906738,563.88 18.378054,-33.904816,556.26 18.380407,-33.902206,563.88 18.3822,-33.900421,571.5 18.385059,-33.897812,563.88 18.387394,-33.896034,556.26 18.390833,-33.893738,548.64 18.393002,-33.89259,548.64 18.397121,-33.891006,525.78 18.399689,-33.890213,502.92 18.403502,-33.889206,480.06 18.405991,-33.88868,457.2 18.409666,-33.888062,419.1 18.412245,-33.88765,396.24 18.416004,-33.887188,365.76 18.418524,-33.886871,342.9 18.422054,-33.886459,320.04 18.424244,-33.886211,304.8 18.430349,-33.88623,289.56 18.431568,-33.886955,289.56 18.433376,-33.888519,266.7 18.434258,-33.889565,251.46 18.435394,-33.891266,213.36 18.436031,-33.892448,190.5 18.436741,-33.894196,160.02 18.437061,-33.895336,137.16 18.437119,-33.89706,106.68 18.436516,-33.897949,83.82 18.434891,-33.898773,53.34 18.433994,-33.899048,38.1 18.432985,-33.899277,22.86 18.432255,-33.899433,15.24 18.43119,-33.899597,0 18.430424,-33.899712,0 18.42951,-33.89978,0 18.428782,-33.899826,0 18.427391,-33.900085,0 18.426991,-33.900505,0 18.426931,-33.900696,0 18.427277,-33.89999,0 18.427906,-33.8992,0 18.428444,-33.898453,7.62 18.42905,-33.897617,30.48 18.429453,-33.897034,38.1 18.431023,-33.89447,91.44 18.431696,-33.893326,114.3 18.432705,-33.891403,152.4 18.433321,-33.890213,167.64 18.43523,-33.886307,236.22 18.435459,-33.884861,251.46 18.434715,-33.882534,304.8 18.4338,-33.881416,335.28 18.432032,-33.880142,373.38 18.430481,-33.879463,403.86 18.428078,-33.878857,449.58 18.426651,-33.878586,480.06 18.424301,-33.87825,510.54 18.422527,-33.878159,541.02 18.419952,-33.878113,571.5 18.418243,-33.878174,594.36 18.415661,-33.878437,609.6 18.413702,-33.878769,632.46 18.410564,-33.879227,647.7 18.408489,-33.879501,647.7 18.405182,-33.879868,670.56 18.398008,-33.881012,708.66 18.394432,-33.882114,708.66 18.391914,-33.883045,708.66 18.387806,-33.884674,716.28 18.38562,-33.885654,723.9 18.38213,-33.887329,731.52 18.379784,-33.888493,739.14 18.376236,-33.89045,754.38 18.374018,-33.891907,754.38 18.370857,-33.894405,746.76 18.369026,-33.896034,739.14 18.366623,-33.89864,739.14 18.364882,-33.900833,731.52 18.362694,-33.903809,731.52 18.361244,-33.905998,723.9 18.359413,-33.908882,716.28 18.358099,-33.911041,708.66 18.35638,-33.91433,701.04 18.35535,-33.916519,701.04 18.354063,-33.919647,701.04 18.353222,-33.921844,693.42 18.351988,-33.925095,701.04 18.351149,-33.9272,716.28 18.346996,-33.93742,769.62 18.344086,-33.945786,800.1 18.340302,-33.955761,838.2 18.337919,-33.960892,861.06 18.335846,-33.964966,868.68 18.334694,-33.967304,868.68 18.329487,-33.977921,861.06 18.326149,-33.985519,876.3 18.32056,-33.997658,868.68 18.317797,-34.003052,883.92 18.314152,-34.009575,906.78 18.310005,-34.017426,891.54 18.307686,-34.022984,876.3 18.306942,-34.025169,868.68 18.305969,-34.028549,861.06 18.305296,-34.031113,861.06 18.304344,-34.034454,853.44 18.303783,-34.036606,853.44 18.30162,-34.045559,853.44 18.301878,-34.047318,861.06 18.303738,-34.049469,883.92 18.305408,-34.049789,876.3 18.308144,-34.048588,868.68 18.309277,-34.046814,868.68 18.310005,-34.043198,868.68 18.310341,-34.040863,868.68 18.31089,-34.037601,883.92 18.311462,-34.035366,883.92 18.312378,-34.032154,883.92 18.313255,-34.029739,883.92 18.314657,-34.026169,876.3 18.315666,-34.02356,876.3 18.317181,-34.019485,868.68 18.319029,-34.014633,876.3 18.324186,-34.003006,883.92 18.327427,-33.995842,899.16 18.332874,-33.984558,861.06 18.33704,-33.976757,822.96 18.345222,-33.961163,731.52 18.349131,-33.953522,685.8 18.356081,-33.941299,601.98 18.359892,-33.934021,548.64 18.362103,-33.929134,548.64 18.363132,-33.926712,548.64 18.36874,-33.915169,541.02 18.370056,-33.912979,541.02 18.372231,-33.909626,541.02 18.373661,-33.907764,541.02 18.376122,-33.904831,541.02 18.377781,-33.903019,541.02 18.3808,-33.900055,541.02 18.383045,-33.89827,541.02 18.386293,-33.896072,541.02 18.388479,-33.894791,533.4 18.392403,-33.892914,510.54 18.395262,-33.891861,487.68 18.39941,-33.890587,464.82 18.402615,-33.889751,441.96 18.407312,-33.888748,403.86 18.410284,-33.888245,381 18.414459,-33.887562,358.14 18.41729,-33.887146,335.28 18.421551,-33.886551,304.8 18.424129,-33.886211,281.94 18.428221,-33.886002,251.46 18.430349,-33.886322,243.84 18.433514,-33.887653,220.98 18.435287,-33.889236,198.12 18.43646,-33.891357,175.26 18.437061,-33.893101,152.4 18.437462,-33.895382,114.3 18.437189,-33.896713,91.44 18.436012,-33.898178,76.2 18.435059,-33.898689,60.96 18.433571,-33.899105,38.1 18.432592,-33.899231,30.48 18.431396,-33.899387,15.24 18.430824,-33.899433,7.62 18.42979,-33.899551,0 18.429222,-33.89962,0 18.427277,-33.90004,0 18.427048,-33.900551,0 18.426987,-33.900787,0 18.427105,-33.900223,0 18.427828,-33.899231,0 18.428221,-33.89859,7.62 18.42865,-33.897758,30.48 18.428936,-33.897198,38.1 18.430195,-33.894684,83.82 18.430767,-33.893566,114.3 18.431583,-33.891541,144.78 18.431976,-33.890121,167.64 18.432198,-33.888214,205.74 18.431911,-33.887005,220.98 18.430742,-33.884995,259.08 18.429678,-33.883987,289.56 18.427792,-33.882908,327.66 18.426189,-33.882301,358.14 18.424185,-33.881744,388.62 18.422756,-33.881512,411.48 18.420296,-33.881279,449.58 18.418859,-33.881241,472.44 18.41629,-33.881184,502.92 18.414488,-33.881104,518.16 18.411827,-33.881092,548.64 18.410168,-33.881184,563.88 18.407145,-33.881516,586.74 18.405247,-33.88179,601.98 18.401987,-33.882385,632.46 18.399982,-33.882858,640.08 18.396664,-33.883793,662.94 18.394924,-33.884308,678.18 18.391857,-33.885326,701.04 18.389601,-33.886185,723.9 18.386629,-33.887421,723.9 18.38419,-33.888538,723.9 18.380871,-33.890217,731.52 18.378277,-33.891632,723.9 18.374748,-33.894032,723.9 18.372746,-33.89566,716.28 18.369757,-33.898361,708.66 18.367907,-33.900284,701.04 18.365385,-33.903259,701.04 18.363983,-33.905045,701.04 18.361759,-33.908325,701.04 18.3605,-33.910324,701.04 18.358612,-33.913631,708.66 18.357582,-33.915539,716.28 18.356136,-33.918594,723.9 18.355293,-33.920475,723.9 18.353838,-33.92363,731.52 18.351707,-33.928162,739.14 18.346653,-33.940445,708.66 18.343077,-33.948166,708.66 18.340778,-33.955078,708.66 18.341619,-33.957504,708.66 18.344479,-33.959904,685.8 18.348961,-33.960434,655.32 18.353291,-33.958366,632.46 18.354778,-33.956505,617.22 18.356081,-33.953201,594.36 18.356529,-33.9505,586.74 18.35709,-33.946472,571.5 18.357582,-33.944077,571.5 18.358612,-33.940399,563.88 18.359756,-33.936676,563.88 18.361187,-33.93309,563.88 18.36219,-33.930817,556.26 18.363876,-33.927177,556.26 18.364906,-33.924896,563.88 18.366337,-33.921963,563.88 18.367596,-33.91959,563.88 18.369421,-33.91658,563.88 18.370743,-33.914608,563.88 18.372896,-33.911911,563.88 18.374577,-33.91,556.26 18.376865,-33.90744,548.64 18.378811,-33.9053,548.64 18.381443,-33.902458,548.64 18.38316,-33.900738,548.64 18.386181,-33.897949,548.64 18.388254,-33.896255,541.02 18.391787,-33.893875,525.78 18.39414,-33.892731,510.54 18.398495,-33.891098,480.06 18.401241,-33.890308,457.2 18.405418,-33.889191,426.72 18.408209,-33.888519,411.48 18.411827,-33.887703,381 18.414879,-33.887054,358.14 18.418859,-33.886276,320.04 18.421555,-33.885838,297.18 18.424969,-33.885406,259.08 18.427715,-33.885315,228.6 18.431282,-33.885979,213.36 18.433041,-33.886826,198.12 18.435003,-33.888565,175.26 18.436146,-33.890076,160.02 18.43729,-33.892265,129.54 18.437637,-33.893784,106.68 18.437412,-33.896118,76.2 18.436741,-33.897354,60.96 18.435339,-33.898544,15.24 18.43461,-33.898865,30.48 18.433571,-33.899105,30.48 18.432705,-33.899185,15.24 18.431568,-33.899292,7.62 18.431023,-33.899368,0 18.430126,-33.89946,0 18.428993,-33.89962,0 18.42802,-33.899807,0 18.427563,-33.899944,0 18.426819,-33.900551,0
        </coordinates>
      </LineString>
    </Placemark>
  </Document>
</kml>