<?xml version="1.0" encoding="UTF-8"?>
<kml xmlns="http://www.opengis.net/kml/2.2">
  <Document>
    <name>-/ZTHOT - Optimised</name>
    <description><![CDATA[Optimised flight path with 217 points (decimated from 1082 original points). Source format: Standard KML]]></description>
    
    <Style id="flightPath">
      <LineStyle>
        <color>ffff0000</color>
        <width>3</width>
      </LineStyle>
    </Style>
    
    <Placemark>
      <name>Flight Path</name>
      <description><![CDATA[<div style="width:220px; text-align:center;">
<div style="width:210px; text-align:center;">
<div style=" background: #000; color: #fff; font-size: 14px; text-align:left; border: 1px solid #000; padding: 2px 6px; text-shadow: 0 1px 0 #000; box-shadow: 0 1px 3px rgba(0,0,0,0.6); background: -webkit-gradient(linear, left top, left bottom, color-stop(0%,#808080), color-stop(2%,#303030), color-stop(100%,#0c0c0c));"><span style="font-size: 14px; font-weight: bold;"><a href="javascript:void(0);" style="color: #fff; cursor: pointer;text-decoration: none;">-</a></span> / ZTHOT<br/>Cape Town Helicopters</div>

<div style="border-top: 1px solid #005c90; color: #fff; padding-bottom: 5px; box-shadow: 0 0 1px #9BE3F6 inset, 0 1px 0 #9BE3F6 inset, 0 -1px 3px rgba(0,0,0,0.4); background:rgba(43,114,173,1); background: -webkit-gradient(linear, left top, left bottom, color-stop(0%,rgba(92,184,229,1)), color-stop(100%,rgba(43,114,173,1)));">
<a style="text-decoration: none; color: rgb(255, 255, 255); font-size: 12px; width:77px; display: inline-block;" title=" Airport" href="javascript:void(0);/departures"><h3 style="padding: 0px; margin: 10px 0px 0px; font-size: 16px; ">?</h3></a>
<span style="background: url(https://www.flightradar24.com/static/images/userUI_sprite.png?14) no-repeat scroll 0 -464px rgba(0, 0, 0, 0); border: medium none; display: inline-block; height: 16px; width: 45px;"></span>
<a style="text-decoration: none; color: rgb(255, 255, 255); font-size: 12px; width:77px; display: inline-block;" title=" Airport" href="javascript:void(0);/arrivals"><h3 style="padding: 0px; margin: 10px 0px 0px; font-size: 16px;">?</h3></a>
<div style=" margin-top:10px;">
<div style="display: inline-block; font-size: 12px; padding: 0 5px;">
<div>
<span style="color: #c1eaff;" title="Actual Time of Departure">ATD </span>
<span title="2025-07-12 11:18">11:18</span> <span title="Coordinated Universal Time">UTC</span>
</div>
</div>
<div style="display: inline-block; font-size: 12px; padding: 0 5px;">
<div>
<span style="color: #c1eaff;" title="Estimated Time of Arrival">ETA </span>
<span title="2025-07-12 11:42">11:42</span> <span title="Coordinated Universal Time">UTC</span>
</div>
</div>
</div>
<br style="clear: both;"/>
</div>

<div style="display: block;">
<table style="border-collapse: collapse; width: 100%;">
<tr style="border-right: 1px solid #dadada; ">
<td style="background: none repeat scroll 0 0 #dadada; padding: 0; width: 31px;">
<span style="background: url(https://www.flightradar24.com/static/images/userUI_sprite.png?14) no-repeat scroll -208px -464px rgba(0, 0, 0, 0); height: 26px; margin: 8px 0 0 4px; width: 23px; display: block;"></span>
</td>
<td colspan="2" style="border-bottom: 1px solid #dadada; border-left: 1px solid #dadada; color: #666; line-height: 1.1em; padding: 3px 6px; vertical-align: top; font-size: 14px;">
Aircraft<span style="float: right; font-size: 12px;">(AS50)</span><br>
<span style="color: #333; font-size: 16px; font-weight: bold; line-height: 1.3em;">Airbus Helicopters H125</span>
</td>
</tr>
<tr style="border-right: 1px solid #dadada; ">
<td style="background: none repeat scroll 0 0 #dadada; padding: 0; width: 31px;">
<td colspan="2" style="border-bottom: 1px solid #dadada; border-left: 1px solid #dadada; color: #666; line-height: 1.1em; padding: 3px 6px; vertical-align: top; font-size: 14px;">
Registration<br>
<span style="color: #333; font-size: 16px; font-weight: bold; line-height: 1.3em;"><a href="https://www.flightradar24.com/reg/zt-hot" style="text-decoration: none; color: #333;">ZT-HOT</a></span>
</td>
</tr>
</table>
</div>

</div>
</div>]]></description>
      <styleUrl>#flightPath</styleUrl>
      <LineString>
        <extrude>1</extrude>
        <tessellate>1</tessellate>
        <altitudeMode>absolute</altitudeMode>
        <coordinates>
          18.431854,-33.894451,60.96 18.436403,-33.887833,152.4 18.437302,-33.886047,152.4 18.437862,-33.883373,182.88 18.437634,-33.881649,213.36 18.436546,-33.879414,243.84 18.435459,-33.878017,274.32 18.433041,-33.875931,335.28 18.431282,-33.875038,335.28 18.42865,-33.874153,365.76 18.426203,-33.873642,396.24 18.423288,-33.873413,426.72 18.421381,-33.873276,457.2 18.418354,-33.873047,487.68 18.415775,-33.872246,518.16 18.415665,-33.870483,548.64 18.416862,-33.869595,548.64 18.419495,-33.869686,579.12 18.420877,-33.870575,579.12 18.421719,-33.872269,609.6 18.421606,-33.873505,640.08 18.420429,-33.875381,609.6 18.418636,-33.876251,609.6 18.415546,-33.876949,579.12 18.413086,-33.877258,579.12 18.409309,-33.877693,579.12 18.406248,-33.877945,579.12 18.401985,-33.87825,579.12 18.399633,-33.878448,579.12 18.392487,-33.879414,579.12 18.390049,-33.879913,579.12 18.385391,-33.881184,579.12 18.382988,-33.882069,579.12 18.379269,-33.883793,609.6 18.377094,-33.884956,609.6 18.37326,-33.887329,609.6 18.371143,-33.888771,609.6 18.368076,-33.891037,640.08 18.366169,-33.892593,640.08 18.363087,-33.895248,640.08 18.361462,-33.896851,670.56 18.358841,-33.899853,670.56 18.35709,-33.902023,670.56 18.354792,-33.904999,701.04 18.353502,-33.90683,731.52 18.35154,-33.909851,731.52 18.350315,-33.91177,762 18.34857,-33.914886,762 18.347397,-33.917122,762 18.345711,-33.920471,762 18.34465,-33.922756,792.48 18.343245,-33.925964,792.48 18.342123,-33.928528,792.48 18.339937,-33.934067,792.48 18.338928,-33.937225,822.96 18.337919,-33.942307,883.92 18.338127,-33.944309,914.4 18.339209,-33.946747,975.36 18.340759,-33.948032,1005.84 18.343805,-33.948761,1036.32 18.345509,-33.948593,1066.8 18.348484,-33.947289,1066.8 18.350029,-33.945797,1066.8 18.351288,-33.943005,1097.28 18.351345,-33.941097,1097.28 18.348942,-33.938957,1097.28 18.346384,-33.939194,1066.8 18.343449,-33.941982,1036.32 18.342178,-33.943954,1036.32 18.340073,-33.947521,1005.84 18.338757,-33.949802,1005.84 18.336966,-33.953156,1005.84 18.335621,-33.955673,975.36 18.333715,-33.959335,975.36 18.329567,-33.967072,975.36 18.323078,-33.979923,944.88 18.320217,-33.98616,944.88 18.315125,-33.997517,944.88 18.311182,-34.005203,975.36 18.309174,-34.008457,975.36 18.307571,-34.010738,975.36 18.305111,-34.013905,975.36 18.303394,-34.015999,975.36 18.300644,-34.01944,975.36 18.297169,-34.025024,975.36 18.295599,-34.028366,975.36 18.294754,-34.031128,975.36 18.29431,-34.034821,944.88 18.294754,-34.037369,944.88 18.295841,-34.040997,944.88 18.296833,-34.043701,914.4 18.298302,-34.047283,914.4 18.299389,-34.049797,914.4 18.300934,-34.053196,914.4 18.302193,-34.05566,944.88 18.304176,-34.058762,944.88 18.305689,-34.06073,944.88 18.308043,-34.06366,944.88 18.309402,-34.065392,944.88 18.31152,-34.068138,944.88 18.314602,-34.072495,944.88 18.319983,-34.08046,944.88 18.32486,-34.08696,914.4 18.329945,-34.093323,914.4 18.331547,-34.09523,914.4 18.335398,-34.099365,914.4 18.337416,-34.101151,914.4 18.340611,-34.103302,883.92 18.343105,-34.104588,883.92 18.347113,-34.106323,853.44 18.349859,-34.10733,853.44 18.353895,-34.108521,853.44 18.356724,-34.109428,853.44 18.363934,-34.113388,853.44 18.36673,-34.113876,822.96 18.371315,-34.114319,792.48 18.374689,-34.114471,792.48 18.379118,-34.115433,762 18.3815,-34.116413,762 18.385277,-34.118275,731.52 18.388422,-34.119507,731.52 18.392796,-34.120651,701.04 18.399969,-34.122162,701.04 18.404734,-34.123123,670.56 18.408041,-34.12381,640.08 18.418865,-34.126282,579.12 18.421719,-34.127243,548.64 18.426247,-34.128983,518.16 18.429165,-34.130283,518.16 18.433546,-34.132416,487.68 18.4359,-34.133606,487.68 18.441786,-34.136032,457.2 18.444532,-34.136444,457.2 18.449072,-34.136078,457.2 18.451651,-34.135437,457.2 18.455257,-34.133778,457.2 18.457661,-34.132332,457.2 18.460674,-34.130127,426.72 18.462753,-34.128422,426.72 18.465887,-34.125641,426.72 18.467617,-34.124001,426.72 18.470478,-34.121021,426.72 18.471941,-34.119186,426.72 18.474083,-34.116367,426.72 18.477266,-34.113968,426.72 18.479677,-34.111267,426.72 18.479919,-34.10915,426.72 18.479733,-34.106094,457.2 18.479748,-34.104122,457.2 18.480091,-34.101097,487.68 18.480293,-34.098953,487.68 18.480549,-34.095791,518.16 18.480663,-34.093647,518.16 18.481134,-34.085999,487.68 18.480742,-34.083435,487.68 18.480629,-34.076889,487.68 18.480892,-34.070976,487.68 18.481121,-34.067764,487.68 18.481358,-34.065674,487.68 18.482199,-34.056473,518.16 18.482367,-34.048279,487.68 18.482895,-34.040348,518.16 18.483263,-34.037933,518.16 18.484049,-34.027908,487.68 18.483925,-34.02573,487.68 18.483753,-34.022377,487.68 18.483696,-34.019909,457.2 18.483696,-34.016373,457.2 18.483696,-34.014091,457.2 18.483994,-34.009506,457.2 18.484154,-34.007015,426.72 18.484329,-34.002411,426.72 18.484442,-34.000031,426.72 18.484898,-33.990768,365.76 18.485451,-33.982498,335.28 18.485928,-33.970146,304.8 18.48587,-33.968002,304.8 18.485699,-33.964558,274.32 18.485561,-33.962402,274.32 18.485281,-33.958878,274.32 18.485012,-33.954224,274.32 18.485338,-33.950592,274.32 18.484898,-33.942493,243.84 18.483768,-33.938049,243.84 18.482759,-33.935715,243.84 18.480967,-33.932648,243.84 18.479397,-33.930496,243.84 18.477173,-33.928154,243.84 18.474655,-33.926338,274.32 18.4711,-33.924408,274.32 18.469334,-33.923267,274.32 18.466129,-33.920753,274.32 18.464487,-33.919418,274.32 18.459162,-33.915298,243.84 18.457424,-33.913696,243.84 18.455086,-33.910885,243.84 18.454004,-33.909119,243.84 18.452715,-33.905869,243.84 18.452282,-33.903996,243.84 18.451706,-33.900742,243.84 18.451538,-33.898407,274.32 18.450794,-33.895893,304.8 18.449633,-33.894379,304.8 18.446789,-33.893566,304.8 18.445148,-33.894012,304.8 18.443069,-33.895245,274.32 18.441954,-33.896118,243.84 18.440607,-33.897446,182.88 18.439655,-33.898315,182.88 18.438034,-33.899155,121.92 18.436489,-33.899105,91.44 18.434601,-33.898781,30.48 18.433971,-33.898689,30.48 18.43277,-33.89864,30.48 18.432144,-33.898682,0 18.427603,-33.900192,0 18.427219,-33.900642,0
        </coordinates>
      </LineString>
    </Placemark>
  </Document>
</kml>