<?xml version="1.0" encoding="UTF-8"?>
<kml xmlns="http://www.opengis.net/kml/2.2">
  <Document>
    <name>-/ZTRNW - Optimised</name>
    <description><![CDATA[Optimised flight path with 1130 points (decimated from 5648 original points). Source format: Standard KML]]></description>
    
    <Style id="flightPath">
      <LineStyle>
        <color>ffff0000</color>
        <width>3</width>
      </LineStyle>
    </Style>
    
    <Placemark>
      <name>Flight Path</name>
      <description><![CDATA[<div style="width:220px; text-align:center;">
<div style="width:210px; text-align:center;">
<div style=" background: #000; color: #fff; font-size: 14px; text-align:left; border: 1px solid #000; padding: 2px 6px; text-shadow: 0 1px 0 #000; box-shadow: 0 1px 3px rgba(0,0,0,0.6); background: -webkit-gradient(linear, left top, left bottom, color-stop(0%,#808080), color-stop(2%,#303030), color-stop(100%,#0c0c0c));"><span style="font-size: 14px; font-weight: bold;"><a href="javascript:void(0);" style="color: #fff; cursor: pointer;text-decoration: none;">-</a></span> / ZTRNW<br/>Private owner</div>

<div style="border-top: 1px solid #005c90; color: #fff; padding-bottom: 5px; box-shadow: 0 0 1px #9BE3F6 inset, 0 1px 0 #9BE3F6 inset, 0 -1px 3px rgba(0,0,0,0.4); background:rgba(43,114,173,1); background: -webkit-gradient(linear, left top, left bottom, color-stop(0%,rgba(92,184,229,1)), color-stop(100%,rgba(43,114,173,1)));">
<a style="text-decoration: none; color: rgb(255, 255, 255); font-size: 12px; width:77px; display: inline-block;" title=" Airport" href="javascript:void(0);/departures"><h3 style="padding: 0px; margin: 10px 0px 0px; font-size: 16px; ">?</h3></a>
<span style="background: url(https://www.flightradar24.com/static/images/userUI_sprite.png?14) no-repeat scroll 0 -464px rgba(0, 0, 0, 0); border: medium none; display: inline-block; height: 16px; width: 45px;"></span>
<a style="text-decoration: none; color: rgb(255, 255, 255); font-size: 12px; width:77px; display: inline-block;" title=" Airport" href="javascript:void(0);/arrivals"><h3 style="padding: 0px; margin: 10px 0px 0px; font-size: 16px;">?</h3></a>
<div style=" margin-top:10px;">
<div style="display: inline-block; font-size: 12px; padding: 0 5px;">
<div>
<span style="color: #c1eaff;" title="Actual Time of Departure">ATD </span>
<span title="2025-12-05 11:22">11:22</span> <span title="Coordinated Universal Time">UTC</span>
</div>
</div>
<div style="display: inline-block; font-size: 12px; padding: 0 5px;">
<div>
<span style="color: #c1eaff;" title="Estimated Time of Arrival">ETA </span>
<span title="2025-12-05 11:44">11:44</span> <span title="Coordinated Universal Time">UTC</span>
</div>
</div>
</div>
<br style="clear: both;"/>
</div>

<div style="display: block;">
<table style="border-collapse: collapse; width: 100%;">
<tr style="border-right: 1px solid #dadada; ">
<td style="background: none repeat scroll 0 0 #dadada; padding: 0; width: 31px;">
<span style="background: url(https://www.flightradar24.com/static/images/userUI_sprite.png?14) no-repeat scroll -208px -464px rgba(0, 0, 0, 0); height: 26px; margin: 8px 0 0 4px; width: 23px; display: block;"></span>
</td>
<td colspan="2" style="border-bottom: 1px solid #dadada; border-left: 1px solid #dadada; color: #666; line-height: 1.1em; padding: 3px 6px; vertical-align: top; font-size: 14px;">
Aircraft<span style="float: right; font-size: 12px;">(EC20)</span><br>
<span style="color: #333; font-size: 16px; font-weight: bold; line-height: 1.3em;">Airbus Helicopters H120</span>
</td>
</tr>
<tr style="border-right: 1px solid #dadada; ">
<td style="background: none repeat scroll 0 0 #dadada; padding: 0; width: 31px;">
<td colspan="2" style="border-bottom: 1px solid #dadada; border-left: 1px solid #dadada; color: #666; line-height: 1.1em; padding: 3px 6px; vertical-align: top; font-size: 14px;">
Registration<br>
<span style="color: #333; font-size: 16px; font-weight: bold; line-height: 1.3em;"><a href="https://www.flightradar24.com/reg/zt-rnw" style="text-decoration: none; color: #333;">ZT-RNW</a></span>
</td>
</tr>
</table>
</div>

</div>
</div>]]></description>
      <styleUrl>#flightPath</styleUrl>
      <LineString>
        <extrude>1</extrude>
        <tessellate>1</tessellate>
        <altitudeMode>absolute</altitudeMode>
        <coordinates>
          18.429222,-33.900875,45.72 18.432312,-33.900467,83.82 18.4338,-33.900131,91.44 18.435955,-33.899597,121.92 18.437412,-33.899277,137.16 18.439823,-33.898865,152.4 18.44141,-33.898735,160.02 18.443747,-33.898773,182.88 18.445301,-33.898922,190.5 18.447727,-33.899185,198.12 18.449184,-33.899368,213.36 18.451366,-33.899712,236.22 18.452995,-33.900101,243.84 18.455429,-33.900829,251.46 18.457088,-33.901482,259.08 18.459034,-33.902317,251.46 18.460464,-33.902969,251.46 18.462582,-33.9039,259.08 18.464069,-33.904598,251.46 18.465887,-33.905594,236.22 18.467344,-33.906509,259.08 18.469105,-33.907532,251.46 18.470421,-33.908325,243.84 18.472309,-33.909626,243.84 18.473454,-33.910511,243.84 18.474688,-33.911911,243.84 18.475571,-33.912979,243.84 18.477058,-33.914703,259.08 18.477974,-33.915771,190.5 18.479452,-33.917496,266.7 18.480663,-33.918564,266.7 18.482367,-33.920242,259.08 18.482985,-33.921661,259.08 18.483238,-33.923641,259.08 18.483353,-33.924992,266.7 18.483376,-33.927063,266.7 18.483433,-33.928345,266.7 18.483467,-33.930344,266.7 18.483353,-33.931694,266.7 18.483639,-33.933647,259.08 18.483994,-33.934845,259.08 18.484669,-33.936768,266.7 18.485012,-33.938351,266.7 18.485184,-33.940399,266.7 18.485355,-33.94175,274.32 18.485451,-33.943909,274.32 18.485451,-33.945099,281.94 18.485527,-33.947147,274.32 18.485561,-33.948624,266.7 18.485674,-33.950684,259.08 18.485731,-33.952103,259.08 18.485954,-33.954254,251.46 18.486042,-33.955669,251.46 18.486271,-33.957951,266.7 18.486235,-33.959427,266.7 18.48629,-33.961807,266.7 18.486271,-33.963444,266.7 18.486385,-33.965488,266.7 18.48657,-33.966934,266.7 18.487019,-33.969131,266.7 18.487415,-33.970425,266.7 18.487873,-33.972614,259.08 18.488085,-33.973892,251.46 18.488533,-33.975952,266.7 18.488701,-33.977371,266.7 18.488926,-33.97966,274.32 18.489037,-33.981033,266.7 18.489487,-33.983459,266.7 18.489761,-33.98481,274.32 18.490551,-33.987167,266.7 18.491421,-33.9883,274.32 18.494307,-33.989777,274.32 18.496325,-33.990005,266.7 18.499743,-33.990326,274.32 18.501606,-33.99049,259.08 18.50481,-33.990444,251.46 18.507214,-33.990257,243.84 18.510899,-33.989777,228.6 18.513084,-33.989456,228.6 18.516884,-33.989094,236.22 18.519026,-33.988907,236.22 18.522892,-33.988487,243.84 18.525009,-33.988255,251.46 18.528614,-33.987743,251.46 18.53096,-33.987511,251.46 18.534565,-33.987091,259.08 18.53685,-33.986801,259.08 18.540287,-33.986347,266.7 18.542747,-33.985928,259.08 18.546156,-33.985382,274.32 18.548355,-33.985088,274.32 18.551731,-33.984669,281.94 18.554226,-33.984512,281.94 18.557224,-33.984249,274.32 18.559158,-33.9841,281.94 18.562243,-33.98378,281.94 18.564541,-33.983551,274.32 18.567678,-33.983276,281.94 18.569977,-33.983185,281.94 18.573172,-33.983002,274.32 18.57519,-33.982956,274.32 18.578217,-33.983276,266.7 18.579826,-33.983692,236.22 18.580627,-33.984856,243.84 18.579655,-33.9856,236.22 18.577423,-33.984531,236.22 18.577137,-33.982761,236.22 18.579506,-33.980896,198.12 18.581469,-33.980804,190.5 18.584383,-33.981491,190.5 18.586008,-33.982132,205.74 18.588419,-33.983368,213.36 18.590212,-33.984283,213.36 18.592567,-33.985519,220.98 18.594017,-33.98616,220.98 18.596935,-33.987183,236.22 18.598995,-33.987743,236.22 18.60232,-33.988541,228.6 18.604282,-33.988907,236.22 18.607521,-33.989231,243.84 18.609999,-33.989182,251.46 18.613529,-33.98872,266.7 18.61599,-33.988346,281.94 18.61948,-33.987648,304.8 18.621769,-33.987228,304.8 18.625582,-33.986526,320.04 18.628292,-33.986065,320.04 18.631897,-33.9856,320.04 18.634495,-33.985291,335.28 18.638418,-33.984695,335.28 18.641109,-33.984299,350.52 18.644829,-33.983738,358.14 18.64761,-33.983276,358.14 18.65159,-33.982681,365.76 18.654442,-33.982342,365.76 18.658218,-33.982063,365.76 18.660564,-33.982109,373.38 18.663826,-33.982155,381 18.665997,-33.982086,381 18.669582,-33.982086,365.76 18.672066,-33.982155,365.76 18.675076,-33.982269,365.76 18.677038,-33.982315,373.38 18.680649,-33.982483,365.76 18.682823,-33.982529,373.38 18.685951,-33.982544,373.38 18.687973,-33.982437,373.38 18.691387,-33.98204,381 18.693695,-33.981735,396.24 18.696938,-33.981445,403.86 18.699188,-33.981365,403.86 18.702393,-33.981133,411.48 18.704504,-33.980942,419.1 18.707754,-33.980576,411.48 18.709774,-33.980339,411.48 18.713137,-33.979889,403.86 18.71521,-33.979614,411.48 18.720478,-33.97879,426.72 18.726028,-33.977783,441.96 18.729168,-33.977325,441.96 18.731403,-33.977081,449.58 18.734884,-33.976822,449.58 18.737354,-33.976757,449.58 18.740501,-33.976662,457.2 18.743011,-33.976501,472.44 18.746151,-33.976273,480.06 18.748337,-33.976273,480.06 18.751364,-33.97641,480.06 18.753548,-33.976475,472.44 18.756695,-33.976616,472.44 18.758987,-33.976913,472.44 18.76207,-33.977371,472.44 18.764088,-33.977692,480.06 18.767109,-33.978245,449.58 18.76902,-33.978607,487.68 18.771935,-33.979294,495.3 18.773672,-33.979706,495.3 18.776722,-33.980434,480.06 18.778725,-33.980804,502.92 18.781801,-33.981445,502.92 18.783539,-33.981949,502.92 18.786789,-33.982635,510.54 18.788853,-33.983181,510.54 18.791656,-33.983971,510.54 18.793373,-33.984436,510.54 18.796486,-33.985062,510.54 18.798281,-33.985382,510.54 18.801155,-33.985882,510.54 18.803101,-33.986252,510.54 18.805733,-33.987091,510.54 18.807678,-33.987743,502.92 18.810387,-33.988312,502.92 18.812462,-33.988724,495.3 18.815321,-33.989273,495.3 18.817406,-33.989651,487.68 18.820152,-33.990162,487.68 18.822098,-33.990536,472.44 18.825129,-33.99115,464.82 18.826923,-33.991333,464.82 18.829765,-33.991512,464.82 18.832111,-33.991421,419.1 18.835331,-33.990875,441.96 18.837685,-33.990829,434.34 18.840656,-33.991196,426.72 18.84264,-33.991467,419.1 18.84573,-33.992023,419.1 18.848558,-33.992569,419.1 18.851452,-33.99305,426.72 18.853626,-33.993374,434.34 18.856945,-33.993793,434.34 18.859062,-33.993935,403.86 18.862461,-33.994034,434.34 18.864956,-33.994072,434.34 18.867954,-33.994217,419.1 18.869972,-33.994629,411.48 18.871933,-33.996185,403.86 18.871933,-33.997833,396.24 18.869705,-33.999615,388.62 18.866673,-34.000126,381 18.863583,-34.000031,365.76 18.86162,-33.999756,358.14 18.858986,-33.99852,342.9 18.858376,-33.997192,335.28 18.859863,-33.995564,297.18 18.861227,-33.995499,297.18 18.863468,-33.996029,304.8 18.86467,-33.996307,304.8 18.866386,-33.996403,297.18 18.867302,-33.996449,289.56 18.868402,-33.996597,274.32 18.868851,-33.996643,266.7 18.869915,-33.996689,236.22 18.870792,-33.996494,236.22 18.872452,-33.997005,274.32 18.872942,-33.997559,297.18 18.872166,-33.999382,335.28 18.870564,-33.999706,342.9 18.867393,-33.999847,358.14 18.864815,-33.999756,373.38 18.861675,-33.999527,388.62 18.859348,-33.999428,388.62 18.855743,-33.999195,396.24 18.853155,-33.998978,396.24 18.849176,-33.998749,403.86 18.846645,-33.998821,396.24 18.843235,-33.999207,396.24 18.84058,-33.99966,403.86 18.836956,-34.000259,396.24 18.834602,-34.000626,396.24 18.830399,-34.000763,342.9 18.827648,-34.000217,388.62 18.824009,-33.999344,388.62 18.821037,-33.998611,342.9 18.817059,-33.997284,373.38 18.814144,-33.99617,373.38 18.810711,-33.995003,373.38 18.808033,-33.994308,373.38 18.804222,-33.993256,381 18.801643,-33.992661,388.62 18.798111,-33.991837,381 18.796005,-33.99128,381 18.792515,-33.990257,373.38 18.790226,-33.989559,358.14 18.786507,-33.988579,342.9 18.784161,-33.98793,342.9 18.780499,-33.98695,335.28 18.778156,-33.986343,327.66 18.774662,-33.985416,327.66 18.772545,-33.984856,320.04 18.769054,-33.984158,320.04 18.766722,-33.98378,312.42 18.763618,-33.983368,312.42 18.761044,-33.98304,304.8 18.757643,-33.982452,304.8 18.75568,-33.982178,304.8 18.75226,-33.98172,312.42 18.75,-33.981457,312.42 18.746738,-33.98127,259.08 18.744581,-33.981125,327.66 18.741611,-33.980988,266.7 18.739185,-33.980854,327.66 18.736038,-33.980572,327.66 18.733707,-33.980438,320.04 18.730625,-33.980347,320.04 18.728313,-33.980247,320.04 18.724766,-33.980106,312.42 18.722363,-33.980061,312.42 18.718182,-33.980072,297.18 18.715725,-33.980061,297.18 18.712238,-33.980072,289.56 18.709885,-33.980118,289.56 18.706242,-33.980164,297.18 18.703594,-33.980156,297.18 18.7003,-33.980164,297.18 18.697758,-33.980156,297.18 18.694414,-33.980164,297.18 18.691948,-33.980164,297.18 18.688545,-33.980061,297.18 18.686342,-33.97998,289.56 18.682823,-33.979969,297.18 18.680706,-33.979923,297.18 18.677151,-33.979614,289.56 18.67502,-33.979431,289.56 18.671432,-33.979065,281.94 18.669147,-33.978806,281.94 18.6656,-33.97834,274.32 18.66291,-33.977966,281.94 18.659382,-33.977554,281.94 18.656916,-33.97728,281.94 18.653355,-33.976849,281.94 18.65078,-33.976524,281.94 18.647219,-33.976135,281.94 18.644753,-33.975861,289.56 18.641224,-33.975407,289.56 18.638706,-33.974941,297.18 18.634998,-33.973938,304.8 18.632469,-33.97308,312.42 18.629379,-33.97089,312.42 18.627712,-33.968719,312.42 18.62575,-33.965652,304.8 18.62446,-33.963638,304.8 18.622284,-33.960415,312.42 18.620625,-33.958508,304.8 18.61779,-33.955765,297.18 18.615646,-33.953991,289.56 18.611984,-33.951942,289.56 18.609383,-33.951141,281.94 18.605066,-33.950638,274.32 18.602715,-33.950546,274.32 18.599281,-33.950733,266.7 18.597164,-33.951057,266.7 18.594189,-33.952129,274.32 18.592243,-33.952969,281.94 18.589725,-33.954037,274.32 18.588066,-33.954784,274.32 18.584862,-33.956039,266.7 18.583038,-33.956863,259.08 18.580284,-33.958134,266.7 18.578682,-33.958927,274.32 18.576031,-33.960114,274.32 18.574238,-33.960983,281.94 18.571772,-33.962128,281.94 18.569756,-33.96307,281.94 18.567295,-33.964279,289.56 18.565235,-33.965305,289.56 18.562298,-33.96666,289.56 18.560617,-33.967438,297.18 18.557796,-33.96875,289.56 18.555853,-33.969681,297.18 18.553049,-33.970963,289.56 18.551044,-33.971916,289.56 18.548241,-33.973217,281.94 18.546295,-33.974197,281.94 18.543633,-33.97554,281.94 18.541832,-33.976475,281.94 18.539036,-33.977966,274.32 18.537243,-33.978973,266.7 18.534496,-33.98053,281.94 18.532963,-33.981457,289.56 18.530573,-33.982956,281.94 18.528442,-33.984283,289.56 18.525753,-33.985741,281.94 18.52379,-33.986572,297.18 18.520819,-33.987808,297.18 18.51923,-33.988346,304.8 18.515911,-33.989464,297.18 18.513981,-33.990189,304.8 18.51059,-33.99086,312.42 18.508129,-33.990955,320.04 18.504581,-33.990955,320.04 18.502211,-33.990738,320.04 18.498175,-33.989868,327.66 18.496267,-33.98909,335.28 18.492908,-33.986996,342.9 18.491249,-33.985321,342.9 18.489206,-33.981995,335.28 18.487988,-33.979549,327.66 18.486729,-33.975777,312.42 18.486156,-33.973125,304.8 18.485355,-33.968842,312.42 18.484833,-33.966202,327.66 18.484217,-33.962448,320.04 18.483925,-33.959763,320.04 18.483601,-33.955948,312.42 18.483353,-33.953339,312.42 18.483009,-33.949661,304.8 18.482815,-33.947388,289.56 18.482199,-33.943405,297.18 18.481638,-33.941208,297.18 18.480549,-33.937744,304.8 18.479397,-33.935165,312.42 18.477402,-33.931881,320.04 18.476028,-33.92997,304.8 18.473682,-33.927132,297.18 18.471661,-33.924957,297.18 18.468876,-33.922291,297.18 18.467064,-33.920654,297.18 18.464012,-33.917961,274.32 18.461666,-33.915913,266.7 18.458544,-33.913055,266.7 18.456459,-33.910976,266.7 18.453312,-33.907673,274.32 18.451258,-33.905365,274.32 18.427505,-33.900688,38.1 18.429165,-33.901295,76.2 18.430407,-33.901657,106.68 18.431471,-33.90184,121.92 18.433228,-33.901947,152.4 18.434601,-33.901669,167.64 18.436628,-33.900558,198.12 18.438086,-33.899277,213.36 18.439711,-33.897125,251.46 18.440552,-33.895382,266.7 18.441,-33.89241,304.8 18.440838,-33.890541,320.04 18.440037,-33.887516,342.9 18.439293,-33.885605,373.38 18.437973,-33.882935,388.62 18.436909,-33.881195,396.24 18.434834,-33.878632,411.48 18.433228,-33.877228,426.72 18.430653,-33.87569,449.58 18.428724,-33.874832,472.44 18.425217,-33.873642,480.06 18.4231,-33.873085,495.3 18.419609,-33.872478,510.54 18.41732,-33.872292,518.16 18.414173,-33.872292,541.02 18.412245,-33.87236,548.64 18.409163,-33.872772,571.5 18.407257,-33.873184,586.74 18.403931,-33.87397,541.02 18.401707,-33.874741,617.22 18.398792,-33.875931,624.84 18.396664,-33.876949,632.46 18.39386,-33.878437,632.46 18.391729,-33.879639,632.46 18.38887,-33.881424,640.08 18.387222,-33.88258,647.7 18.384386,-33.884583,655.32 18.382425,-33.886047,662.94 18.379612,-33.888401,662.94 18.378067,-33.889702,670.56 18.37553,-33.891861,662.94 18.374176,-33.893147,662.94 18.371439,-33.895706,655.32 18.369925,-33.897217,655.32 18.367653,-33.89957,647.7 18.366169,-33.901108,640.08 18.363647,-33.903622,640.08 18.361965,-33.905228,640.08 18.357754,-33.909348,640.08 18.356266,-33.910793,632.46 18.353977,-33.913445,624.84 18.352774,-33.914932,617.22 18.350945,-33.917355,624.84 18.349802,-33.919098,624.84 18.348177,-33.921707,640.08 18.347336,-33.923035,640.08 18.345766,-33.925735,647.7 18.344757,-33.927383,640.08 18.343449,-33.929737,640.08 18.342348,-33.931503,647.7 18.340834,-33.934113,640.08 18.340073,-33.935463,640.08 18.338367,-33.938553,647.7 18.337498,-33.940212,640.08 18.336237,-33.942856,640.08 18.335508,-33.944595,632.46 18.335508,-33.947159,624.84 18.336411,-33.948639,624.84 18.338873,-33.949997,617.22 18.341507,-33.949997,624.84 18.345165,-33.948498,624.84 18.346996,-33.946915,624.84 18.349689,-33.943588,640.08 18.351149,-33.940887,647.7 18.353405,-33.937187,647.7 18.35495,-33.934719,647.7 18.357067,-33.931366,647.7 18.35844,-33.929317,647.7 18.362446,-33.923641,640.08 18.364048,-33.921543,647.7 18.366787,-33.918365,647.7 18.368805,-33.916077,647.7 18.371552,-33.913147,647.7 18.373512,-33.911224,640.08 18.376579,-33.908184,624.84 18.378557,-33.906372,617.22 18.381191,-33.904083,601.98 18.38316,-33.902367,586.74 18.385733,-33.900238,563.88 18.388195,-33.89827,548.64 18.391169,-33.895935,518.16 18.39323,-33.89436,502.92 18.396378,-33.892216,472.44 18.399017,-33.890625,464.82 18.402996,-33.888474,457.2 18.405018,-33.887421,449.58 18.408657,-33.885727,434.34 18.411312,-33.884674,419.1 18.415104,-33.883392,396.24 18.417177,-33.882797,381 18.420467,-33.882023,358.14 18.423008,-33.881653,335.28 18.42609,-33.881699,320.04 18.427883,-33.882202,304.8 18.42979,-33.883392,281.94 18.430967,-33.884766,251.46 18.431854,-33.886539,228.6 18.432198,-33.887703,213.36 18.431969,-33.889378,182.88 18.430967,-33.890671,167.64 18.429453,-33.892227,144.78 18.42865,-33.893196,137.16 18.427505,-33.894825,106.68 18.427155,-33.89566,99.06 18.426931,-33.897079,76.2 18.426931,-33.897903,68.58 18.427162,-33.899014,53.34 18.427334,-33.89962,38.1 18.427547,-33.900421,22.86 18.427849,-33.900784,38.1 18.430939,-33.901154,121.92 18.432083,-33.901249,152.4 18.434143,-33.901016,182.88 18.435516,-33.900318,205.74 18.437347,-33.898361,236.22 18.438198,-33.896667,259.08 18.438869,-33.893921,297.18 18.438927,-33.891815,327.66 18.438366,-33.888245,342.9 18.437576,-33.886166,358.14 18.436012,-33.883255,373.38 18.434658,-33.881325,388.62 18.431969,-33.878578,403.86 18.430014,-33.877121,419.1 18.426874,-33.875381,434.34 18.42453,-33.874573,441.96 18.420933,-33.873825,472.44 18.41835,-33.873642,487.68 18.415159,-33.873779,510.54 18.412413,-33.874191,518.16 18.408909,-33.874992,541.02 18.406792,-33.875553,556.26 18.403301,-33.876575,579.12 18.401127,-33.877319,594.36 18.397728,-33.878494,624.84 18.395519,-33.879322,632.46 18.392315,-33.880764,647.7 18.390083,-33.881882,647.7 18.386421,-33.883976,655.32 18.384386,-33.885315,670.56 18.3815,-33.887375,662.94 18.379343,-33.88884,662.94 18.37635,-33.891052,655.32 18.374409,-33.892593,647.7 18.371662,-33.89502,640.08 18.370037,-33.896484,640.08 18.367571,-33.898956,640.08 18.366108,-33.900505,640.08 18.363815,-33.903122,640.08 18.36216,-33.905018,647.7 18.359947,-33.907608,647.7 18.357929,-33.910126,647.7 18.355694,-33.912838,655.32 18.354286,-33.914612,647.7 18.352146,-33.917217,647.7 18.350811,-33.918961,647.7 18.348942,-33.921497,647.7 18.347912,-33.923176,647.7 18.346214,-33.92601,640.08 18.345205,-33.927979,640.08 18.343748,-33.930679,640.08 18.342819,-33.932346,624.84 18.341274,-33.935043,624.84 18.340218,-33.936813,624.84 18.33876,-33.939377,632.46 18.337751,-33.941162,632.46 18.336237,-33.943817,640.08 18.335495,-33.94566,647.7 18.335678,-33.948074,647.7 18.336966,-33.949539,640.08 18.340218,-33.950272,640.08 18.342348,-33.949768,640.08 18.345966,-33.94738,647.7 18.348009,-33.945099,647.7 18.350601,-33.94175,647.7 18.352606,-33.939102,655.32 18.354893,-33.936115,647.7 18.356609,-33.933743,640.08 18.359127,-33.930252,640.08 18.363144,-33.924957,640.08 18.36561,-33.92189,632.46 18.367481,-33.919731,624.84 18.370514,-33.916286,609.6 18.372459,-33.914238,609.6 18.375362,-33.911316,609.6 18.377155,-33.909576,609.6 18.379791,-33.907013,609.6 18.381672,-33.905251,601.98 18.38459,-33.902599,579.12 18.386629,-33.900787,571.5 18.389544,-33.898224,556.26 18.391685,-33.896408,541.02 18.395119,-33.893707,525.78 18.397293,-33.892124,510.54 18.400698,-33.889893,495.3 18.403221,-33.888336,480.06 18.406677,-33.886307,449.58 18.40905,-33.885086,434.34 18.412918,-33.883347,411.48 18.415375,-33.882393,396.24 18.418747,-33.881287,373.38 18.421326,-33.880554,312.42 18.425026,-33.879822,342.9 18.426991,-33.879833,335.28 18.429565,-33.880554,259.08 18.431396,-33.881557,304.8 18.433208,-33.883163,281.94 18.43405,-33.884445,274.32 18.43483,-33.886353,243.84 18.435059,-33.887516,228.6 18.43433,-33.889435,198.12 18.433096,-33.89035,182.88 18.430824,-33.891518,160.02 18.429165,-33.892403,137.16 18.42794,-33.893692,114.3 18.427563,-33.894638,99.06 18.427391,-33.895988,76.2 18.427391,-33.896641,68.58 18.427505,-33.897804,53.34 18.427547,-33.89827,53.34 18.427435,-33.899002,45.72 18.427277,-33.899525,38.1 18.427044,-33.900238,30.48 18.426991,-33.900688,22.86 18.427492,-33.901245,45.72 18.428276,-33.901428,68.58 18.429901,-33.901611,99.06 18.431023,-33.901566,129.54 18.432999,-33.901108,160.02 18.434385,-33.900513,182.88 18.436546,-33.899014,220.98 18.437637,-33.897858,243.84 18.438927,-33.895615,274.32 18.439543,-33.893646,304.8 18.439823,-33.890625,335.28 18.439579,-33.888538,358.14 18.438778,-33.885792,381 18.437805,-33.883652,403.86 18.436089,-33.880905,426.72 18.43483,-33.879181,449.58 18.432367,-33.876709,480.06 18.430855,-33.875565,495.3 18.428053,-33.874008,525.78 18.425922,-33.873184,525.78 18.422298,-33.872387,541.02 18.42001,-33.872013,548.64 18.416519,-33.87178,571.5 18.414516,-33.871826,586.74 18.410969,-33.8722,601.98 18.408714,-33.872681,617.22 18.405071,-33.87355,647.7 18.402828,-33.874146,662.94 18.399914,-33.875198,693.42 18.398008,-33.875977,708.66 18.395004,-33.877365,739.14 18.393076,-33.878448,746.76 18.390369,-33.880112,762 18.388702,-33.881424,777.24 18.386124,-33.883347,800.1 18.384476,-33.884583,800.1 18.381529,-33.886917,807.72 18.379734,-33.888336,807.72 18.376652,-33.890945,815.34 18.374977,-33.892448,815.34 18.372402,-33.894779,822.96 18.37071,-33.896347,822.96 18.368132,-33.898727,845.82 18.366508,-33.900177,861.06 18.363873,-33.902573,891.54 18.362583,-33.903809,899.16 18.360676,-33.905869,914.4 18.359219,-33.907471,929.64 18.357033,-33.909897,937.26 18.355637,-33.911442,944.88 18.353462,-33.913864,944.88 18.351877,-33.915619,952.5 18.349457,-33.918427,952.5 18.348141,-33.92001,952.5 18.345991,-33.922852,952.5 18.34465,-33.924709,952.5 18.342819,-33.927364,944.88 18.34173,-33.929031,937.26 18.340015,-33.931786,929.64 18.338703,-33.933792,922.02 18.337078,-33.936218,929.64 18.335896,-33.937885,937.26 18.334293,-33.940304,952.5 18.333263,-33.941982,960.12 18.332033,-33.944183,975.36 18.331089,-33.945984,975.36 18.329773,-33.948452,967.74 18.328857,-33.950081,967.74 18.327606,-33.95256,967.74 18.326511,-33.954643,960.12 18.325138,-33.957249,952.5 18.324223,-33.958927,952.5 18.322678,-33.961765,952.5 18.321877,-33.963394,960.12 18.320656,-33.965881,960.12 18.319759,-33.9674,960.12 18.3181,-33.9701,952.5 18.316956,-33.971924,952.5 18.315468,-33.974243,952.5 18.314381,-33.976105,952.5 18.310776,-33.982204,960.12 18.308372,-33.986439,960.12 18.307426,-33.98909,944.88 18.307571,-33.991047,929.64 18.309109,-33.993256,922.02 18.310604,-33.994122,922.02 18.314381,-33.994354,922.02 18.316441,-33.993561,914.4 18.319086,-33.990967,906.78 18.320332,-33.988907,906.78 18.32262,-33.984764,891.54 18.324299,-33.98204,876.3 18.328783,-33.975128,845.82 18.334219,-33.966751,800.1 18.341787,-33.955582,746.76 18.347168,-33.947613,731.52 18.354664,-33.935791,693.42 18.359331,-33.92894,693.42 18.361797,-33.925415,685.8 18.363312,-33.923447,670.56 18.365765,-33.920288,655.32 18.367458,-33.918228,655.32 18.370228,-33.914982,662.94 18.371944,-33.913025,662.94 18.374859,-33.909714,655.32 18.37682,-33.9077,647.7 18.379398,-33.905045,632.46 18.381529,-33.90303,624.84 18.384499,-33.900375,609.6 18.386517,-33.898636,601.98 18.390312,-33.895523,563.88 18.392372,-33.894032,548.64 18.395748,-33.89175,472.44 18.398094,-33.890308,510.54 18.401707,-33.888336,495.3 18.403988,-33.887283,480.06 18.407993,-33.885559,457.2 18.410284,-33.88472,441.96 18.414516,-33.883186,419.1 18.417122,-33.882248,411.48 18.420353,-33.881229,388.62 18.422699,-33.880627,365.76 18.426258,-33.880463,335.28 18.42794,-33.880966,327.66 18.430014,-33.882294,304.8 18.43091,-33.883301,289.56 18.432032,-33.885178,266.7 18.432592,-33.886322,251.46 18.433376,-33.887924,228.6 18.433714,-33.889069,198.12 18.433285,-33.890774,190.5 18.432537,-33.891678,182.88 18.430653,-33.893101,152.4 18.429451,-33.893894,137.16 18.427963,-33.895195,114.3 18.427492,-33.89621,99.06 18.427277,-33.897476,68.58 18.427219,-33.898457,60.96 18.427162,-33.899479,45.72 18.427105,-33.89999,38.1 18.426931,-33.900833,22.86 18.428053,-33.901245,53.34 18.429173,-33.901474,76.2 18.430126,-33.901611,99.06 18.431416,-33.901794,137.16 18.432312,-33.901886,144.78 18.434029,-33.901619,182.88 18.435452,-33.90097,205.74 18.437412,-33.899277,251.46 18.438492,-33.897758,281.94 18.439598,-33.894882,327.66 18.439991,-33.892548,358.14 18.439693,-33.889378,358.14 18.439007,-33.887188,365.76 18.437302,-33.883942,381 18.436031,-33.881927,396.24 18.4338,-33.878998,426.72 18.432199,-33.87735,449.58 18.42923,-33.875061,480.06 18.427099,-33.873871,495.3 18.423615,-33.872478,510.54 18.421045,-33.871765,525.78 18.417683,-33.871307,533.4 18.415272,-33.871307,548.64 18.411516,-33.871765,556.26 18.409138,-33.8722,571.5 18.405762,-33.872944,579.12 18.403416,-33.873596,594.36 18.400497,-33.874619,609.6 18.398323,-33.875553,617.22 18.395094,-33.876984,624.84 18.39323,-33.87788,632.46 18.390217,-33.879593,632.46 18.388023,-33.880951,632.46 18.385506,-33.882675,640.08 18.38349,-33.884216,647.7 18.380699,-33.886444,655.32 18.379118,-33.887833,655.32 18.376408,-33.890308,662.94 18.374746,-33.891861,662.94 18.372391,-33.89415,655.32 18.37071,-33.895844,655.32 18.368244,-33.898407,647.7 18.36668,-33.90004,647.7 18.364376,-33.902481,647.7 18.362638,-33.904358,647.7 18.35821,-33.909027,655.32 18.352942,-33.914841,640.08 18.350658,-33.9174,640.08 18.349457,-33.918797,640.08 18.347225,-33.921543,647.7 18.345934,-33.923218,655.32 18.344078,-33.925873,655.32 18.342796,-33.927795,655.32 18.341227,-33.930496,647.7 18.340302,-33.932159,640.08 18.338873,-33.934799,640.08 18.338087,-33.936127,640.08 18.336468,-33.93914,647.7 18.335508,-33.94075,647.7 18.334051,-33.943268,655.32 18.333092,-33.944916,655.32 18.331642,-33.947342,655.32 18.33086,-33.94873,655.32 18.329544,-33.951244,647.7 18.329287,-33.952972,647.7 18.330116,-33.955154,647.7 18.339769,-33.954849,647.7 18.342819,-33.951572,647.7 18.344593,-33.949196,647.7 18.347223,-33.945511,647.7 18.348885,-33.943192,640.08 18.351427,-33.939789,632.46 18.353222,-33.937271,632.46 18.356037,-33.933414,624.84 18.357525,-33.931366,640.08 18.360157,-33.927738,647.7 18.361816,-33.925549,640.08 18.364449,-33.922291,632.46 18.366339,-33.919968,617.22 18.369308,-33.916626,609.6 18.370934,-33.914749,609.6 18.373718,-33.911816,609.6 18.375778,-33.909626,601.98 18.378725,-33.906738,579.12 18.3808,-33.904861,571.5 18.383732,-33.902317,556.26 18.386349,-33.900192,533.4 18.389969,-33.897476,518.16 18.39229,-33.895844,502.92 18.39599,-33.893326,487.68 18.398438,-33.891846,472.44 18.40238,-33.889618,449.58 18.405071,-33.888245,441.96 18.408657,-33.886597,419.1 18.411461,-33.885498,403.86 18.415159,-33.884262,381 18.417892,-33.883465,358.14 18.42144,-33.882675,335.28 18.423847,-33.882339,320.04 18.426987,-33.882477,304.8 18.428593,-33.883141,289.56 18.430309,-33.884907,259.08 18.430824,-33.885933,243.84 18.431625,-33.887794,220.98 18.432087,-33.888931,205.74 18.432592,-33.890762,175.26 18.432648,-33.891953,167.64 18.432144,-33.893555,137.16 18.431396,-33.894592,121.92 18.429958,-33.896118,99.06 18.429062,-33.896988,83.82 18.42802,-33.898129,60.96 18.427505,-33.898827,53.34 18.427099,-33.899872,38.1 18.426991,-33.900318,30.48 18.427212,-33.90097,30.48 18.428501,-33.901062,53.34 18.430294,-33.900833,68.58 18.432144,-33.90033,83.82 18.434385,-33.899185,99.06 18.435675,-33.897583,129.54 18.436571,-33.894791,167.64 18.436796,-33.892593,190.5 18.436832,-33.889236,213.36 18.436516,-33.886734,228.6 18.435003,-33.883209,243.84 18.433628,-33.881462,251.46 18.430519,-33.879135,266.7 18.428764,-33.878345,281.94 18.424185,-33.876755,304.8 18.422298,-33.876251,312.42 18.41835,-33.87532,327.66 18.416233,-33.875038,335.28 18.41275,-33.874603,350.52 18.410397,-33.87434,373.38 18.406849,-33.874016,396.24 18.404959,-33.873962,411.48 18.401699,-33.874016,434.34 18.399925,-33.874153,441.96 18.397064,-33.874573,472.44 18.395405,-33.874851,487.68 18.392458,-33.875656,518.16 18.390778,-33.876205,541.02 18.388252,-33.877182,579.12 18.386765,-33.877834,594.36 18.384108,-33.879181,624.84 18.382425,-33.880188,640.08 18.380184,-33.88179,662.94 18.378614,-33.88298,678.18 18.376427,-33.884811,701.04 18.375092,-33.885933,716.28 18.372841,-33.887878,739.14 18.371429,-33.889145,746.76 18.369141,-33.891239,754.38 18.367796,-33.892502,762 18.365498,-33.894653,769.62 18.360676,-33.899139,792.48 18.358326,-33.901062,800.1 18.356781,-33.902412,807.72 18.354435,-33.904507,815.34 18.353004,-33.905903,815.34 18.351002,-33.907951,830.58 18.349915,-33.909256,838.2 18.348312,-33.911629,845.82 18.347282,-33.913353,845.82 18.346046,-33.915527,845.82 18.344994,-33.917263,845.82 18.343637,-33.919327,861.06 18.342909,-33.920425,868.68 18.341507,-33.92244,891.54 18.340611,-33.923676,899.16 18.339329,-33.925457,914.4 18.338299,-33.926712,922.02 18.33691,-33.928482,914.4 18.335789,-33.929764,914.4 18.333996,-33.931824,914.4 18.332806,-33.933136,914.4 18.330914,-33.935211,906.78 18.329679,-33.936584,906.78 18.327829,-33.938736,914.4 18.326797,-33.939934,914.4 18.325195,-33.942123,922.02 18.324131,-33.943497,922.02 18.322674,-33.945419,914.4 18.321362,-33.947056,922.02 18.319534,-33.949539,922.02 18.318386,-33.951057,922.02 18.316555,-33.953526,922.02 18.315443,-33.954987,914.4 18.313465,-33.957531,906.78 18.31255,-33.958786,899.16 18.310734,-33.961441,883.92 18.309803,-33.962837,876.3 18.307875,-33.965927,868.68 18.306978,-33.967529,861.06 18.305626,-33.970051,853.44 18.30471,-33.971729,845.82 18.303448,-33.974167,830.58 18.302607,-33.975906,807.72 18.301205,-33.978882,769.62 18.300362,-33.980854,739.14 18.296986,-33.990116,624.84 18.294703,-33.99646,601.98 18.293638,-33.999069,594.36 18.292751,-34.001102,594.36 18.28977,-34.008911,586.74 18.288481,-34.013077,601.98 18.287659,-34.01749,609.6 18.287716,-34.022984,624.84 18.288631,-34.027359,640.08 18.289097,-34.028732,647.7 18.289883,-34.031067,647.7 18.290386,-34.032486,655.32 18.291452,-34.034729,655.32 18.292292,-34.03624,655.32 18.293694,-34.038757,662.94 18.294479,-34.040176,670.56 18.295784,-34.042488,685.8 18.296776,-34.044022,693.42 18.298346,-34.046265,701.04 18.299503,-34.047794,701.04 18.301449,-34.050076,685.8 18.302765,-34.051613,685.8 18.304512,-34.053726,685.8 18.305914,-34.055328,678.18 18.308144,-34.057293,678.18 18.309174,-34.059013,685.8 18.311237,-34.061325,685.8 18.312492,-34.062737,685.8 18.316097,-34.066647,678.18 18.319302,-34.070187,678.18 18.321362,-34.072281,678.18 18.325699,-34.076706,662.94 18.329372,-34.080429,662.94 18.330746,-34.082012,662.94 18.332691,-34.084526,662.94 18.333549,-34.086201,662.94 18.334332,-34.088882,640.08 18.334751,-34.090763,640.08 18.336067,-34.094162,609.6 18.337191,-34.096024,601.98 18.339615,-34.098442,586.74 18.341904,-34.099701,571.5 18.345095,-34.101151,563.88 18.347448,-34.101974,563.88 18.350811,-34.103073,571.5 18.353222,-34.103943,571.5 18.356417,-34.105087,563.88 18.358603,-34.105865,563.88 18.361931,-34.107056,563.88 18.364048,-34.107941,548.64 18.367252,-34.109104,548.64 18.369589,-34.10994,541.02 18.372574,-34.111057,533.4 18.374859,-34.111908,541.02 18.377829,-34.113052,533.4 18.379898,-34.113899,533.4 18.383041,-34.11525,525.78 18.384991,-34.11618,525.78 18.387909,-34.117577,525.78 18.390104,-34.118591,518.16 18.392796,-34.119736,518.16 18.395176,-34.120743,510.54 18.398323,-34.121952,510.54 18.400137,-34.122711,510.54 18.403244,-34.123859,510.54 18.405361,-34.124699,518.16 18.408165,-34.125816,525.78 18.410053,-34.126606,533.4 18.412693,-34.127701,541.02 18.414574,-34.128471,548.64 18.417345,-34.129623,563.88 18.418804,-34.13031,571.5 18.421494,-34.131592,579.12 18.423288,-34.13237,579.12 18.425922,-34.133286,586.74 18.427963,-34.133965,586.74 18.430855,-34.134979,594.36 18.432816,-34.135529,601.98 18.435732,-34.136261,601.98 18.437805,-34.136536,594.36 18.441525,-34.136196,586.74 18.443813,-34.135593,594.36 18.447166,-34.133926,594.36 18.449078,-34.132427,586.74 18.451931,-34.12999,579.12 18.454227,-34.128189,571.5 18.457317,-34.125629,563.88 18.459377,-34.123909,556.26 18.462412,-34.121429,548.64 18.464756,-34.119625,548.64 18.468132,-34.116924,548.64 18.47002,-34.115204,548.64 18.473063,-34.111862,548.64 18.474855,-34.109482,548.64 18.476772,-34.105846,541.02 18.477827,-34.103073,541.02 18.478718,-34.098816,533.4 18.479004,-34.095886,533.4 18.479233,-34.091461,533.4 18.479284,-34.088379,525.78 18.479284,-34.083389,518.16 18.47929,-34.080662,518.16 18.479229,-34.072998,518.16 18.479284,-34.063705,510.54 18.47934,-34.059174,510.54 18.479404,-34.056221,502.92 18.479748,-34.051704,502.92 18.480181,-34.048599,495.3 18.480835,-34.043884,495.3 18.481247,-34.040634,502.92 18.481806,-34.036102,502.92 18.482592,-34.028229,464.82 18.484097,-34.011158,381 18.485058,-34.000259,365.76 18.486385,-33.984623,350.52 18.487415,-33.973965,350.52 18.488085,-33.958832,327.66 18.487873,-33.955715,327.66 18.487129,-33.951153,312.42 18.48629,-33.947983,304.8 18.484945,-33.94368,297.18 18.483753,-33.940258,289.56 18.482086,-33.936035,289.56 18.480835,-33.933136,297.18 18.478891,-33.928802,281.94 18.477402,-33.925873,281.94 18.475342,-33.922291,274.32 18.473679,-33.919785,251.46 18.470764,-33.916031,243.84 18.468859,-33.913834,236.22 18.465328,-33.910278,228.6 18.463554,-33.908558,220.98 18.459949,-33.905346,213.36 18.457592,-33.903305,213.36 18.454172,-33.900146,205.74 18.451931,-33.898132,205.74 18.443527,-33.890961,198.12 18.439922,-33.888306,205.74 18.43523,-33.886955,198.12 18.432537,-33.886917,190.5 18.428478,-33.88784,175.26 18.426987,-33.888611,160.02 18.425137,-33.890762,144.78 18.424913,-33.892273,137.16 18.425217,-33.894405,114.3 18.425585,-33.895569,99.06 18.426361,-33.897572,76.2 18.426647,-33.89827,68.58 18.427099,-33.899551,45.72 18.427105,-33.90004,38.1 18.426991,-33.900829,22.86
        </coordinates>
      </LineString>
    </Placemark>
  </Document>
</kml>