<?xml version="1.0" encoding="UTF-8"?>
<kml xmlns="http://www.opengis.net/kml/2.2">
  <Document>
    <name>-/ZTHOT - Optimised</name>
    <description><![CDATA[Optimised flight path with 980 points (decimated from 4898 original points). Source format: Standard KML]]></description>
    
    <Style id="flightPath">
      <LineStyle>
        <color>ffff0000</color>
        <width>3</width>
      </LineStyle>
    </Style>
    
    <Placemark>
      <name>Flight Path</name>
      <description><![CDATA[<div style="width:220px; text-align:center;">
<div style="width:210px; text-align:center;">
<div style=" background: #000; color: #fff; font-size: 14px; text-align:left; border: 1px solid #000; padding: 2px 6px; text-shadow: 0 1px 0 #000; box-shadow: 0 1px 3px rgba(0,0,0,0.6); background: -webkit-gradient(linear, left top, left bottom, color-stop(0%,#808080), color-stop(2%,#303030), color-stop(100%,#0c0c0c));"><span style="font-size: 14px; font-weight: bold;"><a href="javascript:void(0);" style="color: #fff; cursor: pointer;text-decoration: none;">-</a></span> / ZTHOT<br/>Cape Town Helicopters</div>

<div style="border-top: 1px solid #005c90; color: #fff; padding-bottom: 5px; box-shadow: 0 0 1px #9BE3F6 inset, 0 1px 0 #9BE3F6 inset, 0 -1px 3px rgba(0,0,0,0.4); background:rgba(43,114,173,1); background: -webkit-gradient(linear, left top, left bottom, color-stop(0%,rgba(92,184,229,1)), color-stop(100%,rgba(43,114,173,1)));">
<a style="text-decoration: none; color: rgb(255, 255, 255); font-size: 12px; width:77px; display: inline-block;" title=" Airport" href="javascript:void(0);/departures"><h3 style="padding: 0px; margin: 10px 0px 0px; font-size: 16px; ">?</h3></a>
<span style="background: url(https://www.flightradar24.com/static/images/userUI_sprite.png?14) no-repeat scroll 0 -464px rgba(0, 0, 0, 0); border: medium none; display: inline-block; height: 16px; width: 45px;"></span>
<a style="text-decoration: none; color: rgb(255, 255, 255); font-size: 12px; width:77px; display: inline-block;" title="Cape Town Airport" href="https://www.flightradar24.com/airport/cpt/arrivals"><h3 style="padding: 0px; margin: 10px 0px 0px; font-size: 16px;">CPT</h3>Cape Town</a>
<div style=" margin-top:10px;">
<div style="display: inline-block; font-size: 12px; padding: 0 5px;">
<div>
<span style="color: #c1eaff;" title="Actual Time of Departure">ATD </span>
<span title="2025-03-03 15:06">15:06</span> <span title="Coordinated Universal Time">UTC</span>
</div>
</div>
<div style="display: inline-block; font-size: 12px; padding: 0 5px;">
<div>
<span style="color: #c1eaff;" title="Estimated Time of Arrival">ETA </span>
<span title="2025-03-03 15:23">15:23</span> <span title="Coordinated Universal Time">UTC</span>
</div>
</div>
</div>
<br style="clear: both;"/>
</div>

<div style="display: block;">
<table style="border-collapse: collapse; width: 100%;">
<tr style="border-right: 1px solid #dadada; ">
<td style="background: none repeat scroll 0 0 #dadada; padding: 0; width: 31px;">
<span style="background: url(https://www.flightradar24.com/static/images/userUI_sprite.png?14) no-repeat scroll -208px -464px rgba(0, 0, 0, 0); height: 26px; margin: 8px 0 0 4px; width: 23px; display: block;"></span>
</td>
<td colspan="2" style="border-bottom: 1px solid #dadada; border-left: 1px solid #dadada; color: #666; line-height: 1.1em; padding: 3px 6px; vertical-align: top; font-size: 14px;">
Aircraft<span style="float: right; font-size: 12px;">(AS50)</span><br>
<span style="color: #333; font-size: 16px; font-weight: bold; line-height: 1.3em;">Airbus Helicopters H125</span>
</td>
</tr>
<tr style="border-right: 1px solid #dadada; ">
<td style="background: none repeat scroll 0 0 #dadada; padding: 0; width: 31px;">
<td colspan="2" style="border-bottom: 1px solid #dadada; border-left: 1px solid #dadada; color: #666; line-height: 1.1em; padding: 3px 6px; vertical-align: top; font-size: 14px;">
Registration<br>
<span style="color: #333; font-size: 16px; font-weight: bold; line-height: 1.3em;"><a href="https://www.flightradar24.com/reg/zt-hot" style="text-decoration: none; color: #333;">ZT-HOT</a></span>
</td>
</tr>
</table>
</div>

</div>
</div>]]></description>
      <styleUrl>#flightPath</styleUrl>
      <LineString>
        <extrude>1</extrude>
        <tessellate>1</tessellate>
        <altitudeMode>absolute</altitudeMode>
        <coordinates>
          18.42762,-33.899712,91.44 18.431919,-33.893509,152.4 18.43276,-33.891998,182.88 18.433769,-33.890121,213.36 18.434555,-33.888428,213.36 18.43523,-33.885979,243.84 18.435345,-33.88435,274.32 18.434834,-33.881973,274.32 18.433882,-33.880371,304.8 18.431696,-33.878311,304.8 18.429901,-33.877304,304.8 18.427155,-33.876297,335.28 18.425249,-33.875793,335.28 18.421669,-33.875179,365.76 18.419476,-33.875061,396.24 18.416348,-33.87532,426.72 18.414263,-33.875656,457.2 18.410282,-33.877228,487.68 18.409105,-33.878998,518.16 18.409367,-33.881229,548.64 18.410912,-33.88258,579.12 18.413759,-33.883163,579.12 18.415661,-33.883045,609.6 18.418407,-33.882301,609.6 18.42001,-33.881184,640.08 18.421045,-33.878677,640.08 18.420652,-33.876709,640.08 18.418694,-33.874435,640.08 18.416748,-33.87355,640.08 18.412973,-33.87355,609.6 18.410788,-33.874237,609.6 18.407021,-33.875969,609.6 18.404903,-33.877182,640.08 18.4021,-33.878902,640.08 18.399914,-33.88028,640.08 18.396835,-33.882347,640.08 18.395119,-33.883606,640.08 18.392029,-33.885933,640.08 18.390385,-33.887283,640.08 18.387623,-33.889702,640.08 18.385963,-33.891239,670.56 18.383503,-33.893566,670.56 18.381752,-33.89534,670.56 18.379623,-33.897766,701.04 18.378334,-33.89946,701.04 18.376465,-33.901993,701.04 18.375092,-33.903667,701.04 18.368797,-33.910885,701.04 18.364677,-33.916191,701.04 18.362638,-33.919098,701.04 18.361416,-33.921078,701.04 18.359814,-33.924152,701.04 18.358938,-33.926102,731.52 18.357706,-33.92894,731.52 18.356895,-33.931042,731.52 18.355856,-33.934158,731.52 18.356136,-33.936996,731.52 18.357697,-33.93998,731.52 18.359127,-33.941982,731.52 18.361015,-33.944683,731.52 18.362446,-33.946915,731.52 18.363476,-33.949615,731.52 18.362961,-33.951942,731.52 18.359985,-33.953854,731.52 18.357124,-33.953201,731.52 18.356136,-33.950684,762 18.356895,-33.949104,762 18.358658,-33.946884,792.48 18.36006,-33.945282,792.48 18.362503,-33.943237,792.48 18.363876,-33.941841,822.96 18.363367,-33.940063,853.44 18.361965,-33.940475,853.44 18.359947,-33.943268,822.96 18.35877,-33.945557,792.48 18.357313,-33.948807,762 18.356304,-33.951096,762 18.354778,-33.954319,762 18.351484,-33.961349,731.52 18.346943,-33.972702,701.04 18.34425,-33.981365,701.04 18.34219,-33.991745,731.52 18.3419,-33.997467,762 18.342361,-34.004688,762 18.342684,-34.007172,762 18.343277,-34.01088,762 18.343792,-34.01302,762 18.344936,-34.016697,762 18.34568,-34.018841,762 18.346832,-34.022507,762 18.347561,-34.024887,731.52 18.351517,-34.038067,762 18.353725,-34.046219,762 18.356697,-34.055786,792.48 18.357525,-34.05785,792.48 18.359051,-34.061279,792.48 18.360285,-34.063705,792.48 18.362045,-34.067112,792.48 18.363255,-34.069336,792.48 18.365049,-34.072403,822.96 18.366394,-34.074608,822.96 18.368692,-34.077988,792.48 18.37015,-34.080093,792.48 18.372168,-34.082886,792.48 18.373905,-34.085129,762 18.376522,-34.088387,762 18.378334,-34.090485,762 18.381157,-34.093464,762 18.383154,-34.09552,731.52 18.38625,-34.098442,731.52 18.388424,-34.100399,731.52 18.391857,-34.103333,731.52 18.393917,-34.105053,701.04 18.397465,-34.107941,701.04 18.399868,-34.109894,701.04 18.403416,-34.112549,701.04 18.405647,-34.114086,670.56 18.409653,-34.116787,670.56 18.412056,-34.11832,670.56 18.416004,-34.120789,670.56 18.418236,-34.122139,670.56 18.422012,-34.124325,640.08 18.426476,-34.126839,640.08 18.43433,-34.130997,609.6 18.437119,-34.132195,609.6 18.441582,-34.133358,609.6 18.444901,-34.133636,579.12 18.449465,-34.133148,579.12 18.452379,-34.132324,579.12 18.455967,-34.130814,579.12 18.458321,-34.129578,579.12 18.461628,-34.12738,579.12 18.463783,-34.125584,548.64 18.466473,-34.12307,548.64 18.468246,-34.121113,579.12 18.470249,-34.118553,579.12 18.471605,-34.116577,579.12 18.473167,-34.113712,579.12 18.474197,-34.111618,579.12 18.475399,-34.10878,579.12 18.4762,-34.106403,579.12 18.476873,-34.103165,579.12 18.477211,-34.10083,548.64 18.477602,-34.097443,548.64 18.477802,-34.095184,548.64 18.47805,-34.091675,548.64 18.478203,-34.089413,548.64 18.478891,-34.080597,548.64 18.479633,-34.073074,548.64 18.481522,-34.060738,548.64 18.48238,-34.054031,548.64 18.483936,-34.040543,518.16 18.484329,-34.033813,518.16 18.48489,-34.022552,548.64 18.485069,-34.014046,548.64 18.484898,-34.00045,548.64 18.484898,-33.991608,518.16 18.485126,-33.979828,487.68 18.485226,-33.9776,487.68 18.485126,-33.965725,457.2 18.484945,-33.96373,426.72 18.48461,-33.957962,426.72 18.484039,-33.950359,396.24 18.48304,-33.943222,365.76 18.482437,-33.939747,365.76 18.481636,-33.936813,365.76 18.480742,-33.934799,365.76 18.479229,-33.93187,365.76 18.477974,-33.92997,365.76 18.476086,-33.92741,365.76 18.474855,-33.925735,365.76 18.472767,-33.922756,365.76 18.471493,-33.921158,365.76 18.469219,-33.918751,365.76 18.467064,-33.916946,365.76 18.464355,-33.914886,365.76 18.46258,-33.913559,365.76 18.45961,-33.911224,365.76 18.457815,-33.909668,365.76 18.453598,-33.90567,365.76 18.452225,-33.904133,365.76 18.450193,-33.901703,335.28 18.44862,-33.899899,335.28 18.444981,-33.896805,304.8 18.44313,-33.896347,304.8 18.440384,-33.896759,274.32 18.43895,-33.897106,274.32 18.436718,-33.897663,213.36 18.435574,-33.897896,213.36 18.433743,-33.898361,152.4 18.430309,-33.899387,91.44 18.428135,-33.900318,91.44 18.427351,-33.900604,0 18.428135,-33.899014,91.44 18.428892,-33.897858,91.44 18.430014,-33.896027,121.92 18.43071,-33.894825,152.4 18.431919,-33.892776,182.88 18.433456,-33.890167,213.36 18.434944,-33.887238,243.84 18.435507,-33.885773,243.84 18.435802,-33.883652,274.32 18.435631,-33.88221,274.32 18.434658,-33.879879,274.32 18.433714,-33.878403,304.8 18.431864,-33.87648,304.8 18.430195,-33.87532,304.8 18.427322,-33.873962,335.28 18.425217,-33.873363,335.28 18.422222,-33.873047,365.76 18.420149,-33.873047,365.76 18.417492,-33.873363,396.24 18.415329,-33.873734,426.72 18.412077,-33.874557,426.72 18.410059,-33.875244,457.2 18.40519,-33.877087,487.68 18.403015,-33.878067,487.68 18.400137,-33.879501,518.16 18.398176,-33.880508,548.64 18.395519,-33.882069,548.64 18.393579,-33.883347,579.12 18.391399,-33.884907,579.12 18.389544,-33.886276,609.6 18.386993,-33.888401,609.6 18.385395,-33.889755,640.08 18.383041,-33.891815,640.08 18.381386,-33.893288,670.56 18.379097,-33.895615,670.56 18.377661,-33.897217,670.56 18.375607,-33.899525,701.04 18.374119,-33.901386,701.04 18.372055,-33.904129,701.04 18.3708,-33.905811,701.04 18.369026,-33.908417,731.52 18.36771,-33.910465,731.52 18.365993,-33.913303,731.52 18.364769,-33.91539,731.52 18.363247,-33.918194,731.52 18.362303,-33.920013,731.52 18.360788,-33.92308,731.52 18.359756,-33.925224,731.52 18.358435,-33.928116,731.52 18.356266,-33.933136,731.52 18.355007,-33.936443,762 18.354286,-33.938416,762 18.353176,-33.94175,762 18.352489,-33.943935,762 18.351484,-33.947388,762 18.350945,-33.949383,762 18.347672,-33.964233,762 18.344994,-33.975594,731.52 18.339558,-33.992352,731.52 18.337383,-34.00045,701.04 18.33663,-34.004471,731.52 18.336353,-34.006504,731.52 18.336126,-34.010056,731.52 18.336014,-34.012344,731.52 18.336069,-34.015778,731.52 18.336237,-34.018295,731.52 18.336582,-34.02177,731.52 18.336926,-34.024052,731.52 18.337416,-34.027771,731.52 18.337955,-34.033596,701.04 18.337864,-34.036926,701.04 18.337751,-34.039261,670.56 18.337555,-34.042442,670.56 18.337303,-34.045212,670.56 18.336742,-34.049606,670.56 18.336239,-34.051983,670.56 18.334866,-34.055149,670.56 18.333721,-34.057106,670.56 18.333435,-34.061295,701.04 18.335173,-34.06279,731.52 18.338032,-34.062698,762 18.339602,-34.061371,731.52 18.340416,-34.058361,731.52 18.340416,-34.056362,701.04 18.339958,-34.053055,670.56 18.339489,-34.050888,670.56 18.338928,-34.047592,640.08 18.338642,-34.045654,640.08 18.337898,-34.039043,609.6 18.336685,-34.031113,579.12 18.335566,-34.025757,548.64 18.333549,-34.015953,548.64 18.33252,-34.009251,579.12 18.332539,-34.007309,579.12 18.332706,-34.004791,579.12 18.332987,-34.002869,579.12 18.335209,-33.99477,579.12 18.336868,-33.990444,579.12 18.343019,-33.976181,609.6 18.347111,-33.966282,640.08 18.351917,-33.954411,640.08 18.355293,-33.946499,640.08 18.359127,-33.937092,640.08 18.362846,-33.928669,609.6 18.365536,-33.9235,609.6 18.366566,-33.921543,609.6 18.368187,-33.918686,609.6 18.369308,-33.916855,609.6 18.371143,-33.913956,579.12 18.372448,-33.912003,579.12 18.374577,-33.908882,579.12 18.375978,-33.906921,579.12 18.37801,-33.90432,579.12 18.379612,-33.902412,579.12 18.3822,-33.899551,579.12 18.38377,-33.897995,579.12 18.386307,-33.895569,579.12 18.388309,-33.893894,548.64 18.391285,-33.891705,548.64 18.393244,-33.890533,548.64 18.396999,-33.888657,548.64 18.399582,-33.887562,548.64 18.403557,-33.886185,518.16 18.406048,-33.885422,518.16 18.40971,-33.884441,518.16 18.412693,-33.883713,518.16 18.416561,-33.882935,518.16 18.41942,-33.882477,518.16 18.423176,-33.882431,487.68 18.425865,-33.882797,487.68 18.429337,-33.883884,457.2 18.431625,-33.884907,426.72 18.434544,-33.886677,396.24 18.43626,-33.888073,396.24 18.438309,-33.890167,365.76 18.439465,-33.89175,335.28 18.440037,-33.893799,304.8 18.439693,-33.895245,304.8 18.438198,-33.896667,243.84 18.43689,-33.897243,213.36 18.434834,-33.897903,182.88 18.433546,-33.89827,152.4 18.431225,-33.898922,121.92 18.429451,-33.899338,91.44 18.426931,-33.900375,91.44 18.426958,-33.900925,0 18.427849,-33.899338,91.44 18.428782,-33.898178,121.92 18.429966,-33.896408,152.4 18.430824,-33.895103,152.4 18.433456,-33.890495,213.36 18.434429,-33.88868,243.84 18.435402,-33.886257,243.84 18.435631,-33.884583,274.32 18.435173,-33.882114,304.8 18.434105,-33.880417,304.8 18.431969,-33.878437,304.8 18.430069,-33.877396,335.28 18.427277,-33.876389,335.28 18.425045,-33.876019,335.28 18.42144,-33.875832,365.76 18.419308,-33.876022,365.76 18.41572,-33.876709,396.24 18.413422,-33.87735,396.24 18.409891,-33.87854,426.72 18.405407,-33.880371,426.72 18.401819,-33.882156,457.2 18.399353,-33.883575,457.2 18.396719,-33.885086,487.68 18.394432,-33.88649,487.68 18.391226,-33.888611,487.68 18.389151,-33.890121,518.16 18.386404,-33.892319,518.16 18.384779,-33.893784,548.64 18.382313,-33.896072,548.64 18.380856,-33.897491,579.12 18.378696,-33.899712,579.12 18.376987,-33.90152,579.12 18.37492,-33.9039,609.6 18.373432,-33.90567,609.6 18.371384,-33.90834,609.6 18.370113,-33.910187,640.08 18.368282,-33.913025,640.08 18.367178,-33.914841,640.08 18.365498,-33.917816,640.08 18.364563,-33.919777,670.56 18.363647,-33.922852,670.56 18.363419,-33.924805,670.56 18.363476,-33.928619,670.56 18.363476,-33.931042,670.56 18.363255,-33.934296,670.56 18.361588,-33.942959,640.08 18.360558,-33.946636,640.08 18.359985,-33.948963,640.08 18.359013,-33.952362,640.08 18.357239,-33.956272,640.08 18.350029,-33.964325,670.56 18.346252,-33.969353,640.08 18.341619,-33.977097,640.08 18.338985,-33.982437,640.08 18.335609,-33.991375,640.08 18.334108,-33.997284,670.56 18.333155,-34.001999,670.56 18.332762,-34.004745,670.56 18.332405,-34.008179,670.56 18.332348,-34.010414,670.56 18.332874,-34.014496,701.04 18.333492,-34.016743,701.04 18.334694,-34.02005,701.04 18.335552,-34.022377,701.04 18.336754,-34.025681,701.04 18.33744,-34.027824,701.04 18.339558,-34.03476,670.56 18.340073,-34.0369,670.56 18.340441,-34.040222,670.56 18.340218,-34.042511,670.56 18.338873,-34.04512,701.04 18.338242,-34.046772,731.52 18.339329,-34.047886,792.48 18.340816,-34.046909,731.52 18.34173,-34.044067,731.52 18.341446,-34.04221,731.52 18.340721,-34.038895,731.52 18.34033,-34.036972,731.52 18.339558,-34.033688,701.04 18.338985,-34.031593,670.56 18.337471,-34.026306,640.08 18.334892,-34.016602,609.6 18.334051,-34.011887,609.6 18.333715,-34.009598,609.6 18.333664,-34.006039,609.6 18.33395,-34.004082,609.6 18.334923,-34.000824,609.6 18.338703,-33.993027,609.6 18.344936,-33.983646,579.12 18.350924,-33.973572,579.12 18.359388,-33.957367,609.6 18.360285,-33.954529,579.12 18.361073,-33.951477,579.12 18.361685,-33.949219,548.64 18.363592,-33.941437,548.64 18.363934,-33.939236,518.16 18.364489,-33.934753,518.16 18.364712,-33.932693,518.16 18.365135,-33.929459,518.16 18.366226,-33.923813,548.64 18.36701,-33.920654,548.64 18.367683,-33.918686,579.12 18.368805,-33.915894,579.12 18.369701,-33.914062,579.12 18.371315,-33.911163,579.12 18.372503,-33.909256,609.6 18.374521,-33.906509,609.6 18.375923,-33.904816,609.6 18.378124,-33.902271,609.6 18.379669,-33.900688,609.6 18.382359,-33.898129,609.6 18.384075,-33.896687,609.6 18.387133,-33.89447,609.6 18.389095,-33.893188,609.6 18.392773,-33.891098,609.6 18.395149,-33.889893,609.6 18.398624,-33.888245,609.6 18.401091,-33.887146,609.6 18.404846,-33.885654,579.12 18.407818,-33.884674,609.6 18.411404,-33.883621,609.6 18.414001,-33.882908,579.12 18.417963,-33.882156,579.12 18.420765,-33.881927,579.12 18.424856,-33.882019,548.64 18.427603,-33.882385,518.16 18.431303,-33.883255,487.68 18.4338,-33.884071,457.2 18.437077,-33.885635,426.72 18.439375,-33.887054,396.24 18.442009,-33.889343,365.76 18.443298,-33.891052,335.28 18.443972,-33.893738,304.8 18.443527,-33.895012,304.8 18.441639,-33.896454,243.84 18.439936,-33.896942,213.36 18.437576,-33.89743,182.88 18.435688,-33.897896,182.88 18.433601,-33.898407,152.4 18.429621,-33.899826,91.44 18.42762,-33.900505,91.44 18.427099,-33.900833,91.44 18.427162,-33.900177,91.44 18.427734,-33.899338,91.44 18.428993,-33.897476,121.92 18.42979,-33.896255,121.92 18.431358,-33.893784,182.88 18.432199,-33.892319,213.36 18.434372,-33.888584,243.84 18.435059,-33.887192,274.32 18.435802,-33.884674,304.8 18.435745,-33.882999,304.8 18.43483,-33.880859,335.28 18.433685,-33.879368,335.28 18.431625,-33.877506,365.76 18.42979,-33.876389,365.76 18.426704,-33.875366,365.76 18.424408,-33.875107,396.24 18.421213,-33.875336,426.72 18.418972,-33.875793,426.72 18.416168,-33.876526,457.2 18.413141,-33.877625,487.68 18.410912,-33.879555,518.16 18.410843,-33.881149,548.64 18.412342,-33.883278,548.64 18.41423,-33.884396,579.12 18.416862,-33.885002,609.6 18.418972,-33.884995,609.6 18.42144,-33.884628,640.08 18.423008,-33.88353,640.08 18.422335,-33.881836,640.08 18.420485,-33.881287,640.08 18.417263,-33.881512,609.6 18.415159,-33.881927,609.6 18.411255,-33.882812,579.12 18.408602,-33.883438,579.12 18.404789,-33.884396,579.12 18.402325,-33.885178,579.12 18.398838,-33.886444,579.12 18.396214,-33.887466,609.6 18.392515,-33.88916,609.6 18.389797,-33.890633,609.6 18.386684,-33.892593,609.6 18.384819,-33.893894,609.6 18.382015,-33.89608,609.6 18.380352,-33.897491,609.6 18.377609,-33.900085,609.6 18.375978,-33.901703,609.6 18.3734,-33.904495,609.6 18.372055,-33.906097,609.6 18.369869,-33.908844,640.08 18.368525,-33.910721,609.6 18.366451,-33.913773,609.6 18.365273,-33.915527,609.6 18.363247,-33.918938,609.6 18.36216,-33.920895,609.6 18.360386,-33.924244,609.6 18.359413,-33.92606,640.08 18.357819,-33.929443,640.08 18.356838,-33.931553,640.08 18.354435,-33.939701,670.56 18.355463,-33.94162,701.04 18.357986,-33.942444,731.52 18.359642,-33.941841,731.52 18.361517,-33.93988,762 18.362303,-33.938049,762 18.363255,-33.935349,762 18.363876,-33.93351,762 18.364712,-33.930542,762 18.364769,-33.928848,762 18.363247,-33.926434,792.48 18.361645,-33.926899,792.48 18.362274,-33.929832,731.52 18.363247,-33.931831,731.52 18.364506,-33.93486,701.04 18.365273,-33.936996,701.04 18.366165,-33.940121,670.56 18.366852,-33.942352,640.08 18.368187,-33.946609,640.08 18.368748,-33.948807,640.08 18.369141,-33.952057,609.6 18.367882,-33.954456,609.6 18.358097,-33.958694,548.64 18.348598,-33.961254,518.16 18.344765,-33.96917,548.64 18.343693,-33.974808,548.64 18.341059,-33.989365,579.12 18.340359,-33.999847,609.6 18.341227,-34.004654,640.08 18.341732,-34.006641,670.56 18.34259,-34.009621,670.56 18.34322,-34.011902,670.56 18.34425,-34.015396,670.56 18.345543,-34.01976,670.56 18.348598,-34.031315,670.56 18.350868,-34.039352,701.04 18.354286,-34.051163,731.52 18.357067,-34.0592,701.04 18.358547,-34.062469,670.56 18.359756,-34.064785,701.04 18.361359,-34.067673,701.04 18.362694,-34.069839,731.52 18.36462,-34.072792,731.52 18.365993,-34.074841,731.52 18.367996,-34.077774,731.52 18.369427,-34.079731,731.52 18.371601,-34.08271,731.52 18.373232,-34.084625,731.52 18.375587,-34.08728,731.52 18.377493,-34.08934,731.52 18.381844,-34.094486,731.52 18.388252,-34.101704,701.04 18.393187,-34.106461,701.04 18.395405,-34.108452,701.04 18.398624,-34.11113,701.04 18.400642,-34.112686,701.04 18.404274,-34.11525,701.04 18.406792,-34.116924,670.56 18.410225,-34.119019,670.56 18.412973,-34.120651,670.56 18.417177,-34.123032,640.08 18.419868,-34.124542,640.08 18.431358,-34.131088,609.6 18.436403,-34.133606,579.12 18.44038,-34.134941,579.12 18.443579,-34.135391,609.6 18.447783,-34.135117,609.6 18.450474,-34.13443,609.6 18.454342,-34.132706,579.12 18.456516,-34.131355,579.12 18.459665,-34.128891,579.12 18.461628,-34.127243,579.12 18.464241,-34.124931,579.12 18.466112,-34.123169,579.12 18.46899,-34.12051,579.12 18.471718,-34.117996,548.64 18.474026,-34.115204,548.64 18.474998,-34.113338,548.64 18.475361,-34.110168,579.12 18.475304,-34.10788,548.64 18.475193,-34.104584,548.64 18.475248,-34.102524,548.64 18.475399,-34.09919,548.64 18.475857,-34.094532,518.16 18.476143,-34.091415,518.16 18.476315,-34.089085,518.16 18.477098,-34.080368,518.16 18.47794,-34.072952,518.16 18.479805,-34.060783,518.16 18.481121,-34.051613,487.68 18.482895,-34.04044,487.68 18.48381,-34.032944,487.68 18.484383,-34.024891,518.16 18.484722,-34.017426,518.16 18.485012,-34.007481,579.12 18.484945,-34.004517,579.12 18.484722,-34.000671,579.12 18.484497,-33.99559,579.12 18.484665,-33.987762,548.64 18.48484,-33.985367,548.64 18.485355,-33.976009,487.68 18.485584,-33.968052,457.2 18.485184,-33.962696,426.72 18.485001,-33.960571,426.72 18.484722,-33.957413,426.72 18.484497,-33.955437,426.72 18.483656,-33.947021,396.24 18.482666,-33.939655,365.76 18.481579,-33.935184,365.76 18.480892,-33.93309,365.76 18.479576,-33.92997,335.28 18.478661,-33.928204,335.28 18.476761,-33.925095,335.28 18.475304,-33.92308,335.28 18.472895,-33.920563,335.28 18.4711,-33.919006,304.8 18.468185,-33.916718,304.8 18.466587,-33.915401,304.8 18.463726,-33.913025,304.8 18.46035,-33.910091,304.8 18.45109,-33.901749,304.8 18.446674,-33.898174,304.8 18.443871,-33.896965,304.8 18.442039,-33.896778,304.8 18.438377,-33.897339,274.32 18.436775,-33.897709,243.84 18.434544,-33.89827,182.88 18.433096,-33.89859,152.4 18.429623,-33.89962,121.92 18.427883,-33.90033,91.44 18.427048,-33.900551,91.44 18.42766,-33.899185,91.44 18.429005,-33.897308,121.92 18.430138,-33.895615,121.92 18.431683,-33.893242,152.4 18.432941,-33.891331,182.88 18.434658,-33.888119,213.36 18.43483,-33.886398,274.32 18.43433,-33.884354,304.8 18.433685,-33.883045,304.8 18.432255,-33.881229,335.28 18.431135,-33.88028,365.76 18.429117,-33.879364,426.72 18.427505,-33.879135,426.72 18.425045,-33.879646,487.68 18.423624,-33.8806,518.16 18.422783,-33.882385,579.12 18.422985,-33.88356,609.6 18.424072,-33.885002,640.08 18.425137,-33.885818,670.56 18.426764,-33.886963,701.04 18.427391,-33.887749,731.52 18.426762,-33.889099,731.52 18.424988,-33.889378,731.52 18.421829,-33.888885,701.04 18.419609,-33.88826,701.04 18.416506,-33.887329,701.04 18.414345,-33.886723,701.04 18.410625,-33.885933,701.04 18.407021,-33.885605,701.04 18.403109,-33.885635,670.56 18.400249,-33.885956,670.56 18.396778,-33.886723,701.04 18.394308,-33.887512,701.04 18.390827,-33.889145,701.04 18.388824,-33.890217,701.04 18.385735,-33.892033,701.04 18.383657,-33.893372,701.04 18.380585,-33.895428,731.52 18.378582,-33.896919,731.52 18.376036,-33.898911,762 18.37429,-33.90041,762 18.371887,-33.903202,762 18.370766,-33.905228,792.48 18.369312,-33.908649,792.48 18.368568,-33.910606,822.96 18.367767,-33.913258,822.96 18.367067,-33.915436,822.96 18.364048,-33.92038,792.48 18.362617,-33.922382,792.48 18.36062,-33.925186,792.48 18.359585,-33.926712,792.48 18.357296,-33.930202,822.96 18.354149,-33.93523,822.96 18.352604,-33.938351,822.96 18.35182,-33.940338,822.96 18.351091,-33.943909,853.44 18.351597,-33.945786,914.4 18.353405,-33.947521,944.88 18.355179,-33.947941,975.36 18.357706,-33.947342,1005.84 18.359013,-33.946312,1036.32 18.36034,-33.944733,1066.8 18.361069,-33.943588,1097.28 18.362045,-33.941982,1127.76 18.362846,-33.941422,1188.72 18.364506,-33.941704,1188.72 18.365385,-33.942947,1158.24 18.365385,-33.945923,1127.76 18.364712,-33.94812,1097.28 18.363647,-33.95129,1097.28 18.362974,-33.953522,1097.28 18.361965,-33.957001,1097.28 18.361301,-33.95916,1097.28 18.357313,-33.972839,1066.8 18.356152,-33.977779,1097.28 18.355179,-33.983879,1097.28 18.35535,-33.986252,1097.28 18.355801,-33.989777,1066.8 18.355183,-33.993851,1066.8 18.354118,-33.997101,1036.32 18.353062,-34.000961,1036.32 18.352381,-34.004608,1036.32 18.351631,-34.009155,1036.32 18.351002,-34.013115,1005.84 18.350643,-34.015366,1005.84 18.350475,-34.019211,1005.84 18.35083,-34.021866,1005.84 18.351974,-34.025169,975.36 18.353233,-34.027496,975.36 18.354286,-34.031204,975.36 18.354549,-34.033688,975.36 18.354847,-34.038574,975.36 18.354836,-34.041092,944.88 18.354454,-34.0448,944.88 18.354149,-34.04705,944.88 18.353634,-34.050774,944.88 18.353462,-34.053101,944.88 18.353334,-34.057892,944.88 18.353748,-34.060364,944.88 18.354778,-34.064041,914.4 18.355743,-34.066452,914.4 18.357582,-34.070045,914.4 18.359051,-34.072449,914.4 18.361517,-34.075607,914.4 18.36348,-34.07785,914.4 18.366114,-34.0811,883.92 18.368225,-34.08569,883.92 18.369026,-34.08918,883.92 18.369366,-34.091949,883.92 18.369476,-34.09584,883.92 18.369484,-34.097977,883.92 18.371086,-34.10268,853.44 18.373289,-34.104721,853.44 18.377209,-34.106682,822.96 18.379955,-34.107567,822.96 18.384892,-34.108795,792.48 18.388023,-34.109661,792.48 18.39229,-34.110992,762 18.395233,-34.112083,762 18.402214,-34.11525,731.52 18.404903,-34.116646,731.52 18.408937,-34.11882,731.52 18.411516,-34.120239,731.52 18.417963,-34.12326,731.52 18.420811,-34.124374,731.52 18.424988,-34.125862,731.52 18.427547,-34.12674,731.52 18.431864,-34.128067,731.52 18.43433,-34.128799,731.52 18.438478,-34.129944,731.52 18.441616,-34.130768,701.04 18.445597,-34.131592,701.04 18.448677,-34.131821,701.04 18.453051,-34.131042,701.04 18.455854,-34.129715,701.04 18.458769,-34.127472,670.56 18.460842,-34.125595,670.56 18.463554,-34.122978,670.56 18.465328,-34.121254,670.56 18.46785,-34.118408,670.56 18.469307,-34.11644,640.08 18.471107,-34.113293,670.56 18.472166,-34.111038,670.56 18.473225,-34.108128,670.56 18.473736,-34.10614,670.56 18.474352,-34.102982,670.56 18.474655,-34.100586,640.08 18.474855,-34.097443,670.56 18.474884,-34.095371,670.56 18.474855,-34.092087,670.56 18.474745,-34.089798,670.56 18.474464,-34.086639,670.56 18.474255,-34.084385,670.56 18.473904,-34.0811,670.56 18.473511,-34.076385,670.56 18.47295,-34.063934,640.08 18.472727,-34.056107,640.08 18.473063,-34.045258,640.08 18.473396,-34.036716,640.08 18.474352,-34.026398,640.08 18.475227,-34.018841,640.08 18.476257,-34.007854,670.56 18.476658,-33.999939,640.08 18.476601,-33.992954,640.08 18.476315,-33.990723,640.08 18.475697,-33.987396,640.08 18.475304,-33.985107,640.08 18.474598,-33.981876,640.08 18.473396,-33.979641,640.08 18.470932,-33.977371,640.08 18.468691,-33.975815,640.08 18.466301,-33.973125,640.08 18.466415,-33.969635,609.6 18.468971,-33.966751,579.12 18.471336,-33.964931,579.12 18.474598,-33.96265,579.12 18.476715,-33.961021,548.64 18.479788,-33.958054,548.64 18.481077,-33.956131,548.64 18.482494,-33.95269,518.16 18.482838,-33.950546,518.16 18.482952,-33.947289,518.16 18.48278,-33.94524,518.16 18.48238,-33.942307,548.64 18.482031,-33.940247,548.64 18.481407,-33.937233,548.64 18.480909,-33.935394,548.64 18.479845,-33.93251,518.16 18.478891,-33.930634,518.16 18.476772,-33.927689,518.16 18.475304,-33.925964,518.16 18.472881,-33.923409,518.16 18.471212,-33.921844,487.68 18.468466,-33.919556,487.68 18.466702,-33.918053,487.68 18.463955,-33.91568,487.68 18.45961,-33.911499,457.2 18.456917,-33.908604,426.72 18.452995,-33.904816,426.72 18.448963,-33.901573,426.72 18.446903,-33.900505,426.72 18.444195,-33.899094,396.24 18.442554,-33.896965,365.76 18.441616,-33.894196,335.28 18.440437,-33.893242,335.28 18.437973,-33.894653,304.8 18.438086,-33.896713,274.32 18.43832,-33.899059,274.32 18.437176,-33.89962,243.84 18.435114,-33.899277,182.88 18.433514,-33.899014,182.88 18.431078,-33.898956,152.4 18.428782,-33.899689,91.44 18.427219,-33.900688,91.44 18.427105,-33.900364,91.44 18.431078,-33.895065,182.88 18.431471,-33.893646,182.88 18.43071,-33.891705,213.36 18.429565,-33.891037,243.84 18.427792,-33.89082,274.32 18.426304,-33.891052,274.32 18.424416,-33.891472,304.8 18.423008,-33.891861,335.28 18.42099,-33.892365,335.28 18.419437,-33.892731,365.76 18.415552,-33.893555,396.24 18.409779,-33.894974,457.2 18.405247,-33.896358,487.68 18.403837,-33.896896,518.16 18.401699,-33.897804,548.64 18.399925,-33.898735,548.64 18.397865,-33.90004,579.12 18.396381,-33.901062,579.12 18.394432,-33.902599,609.6 18.393076,-33.903717,609.6 18.390999,-33.905624,609.6 18.389769,-33.90683,609.6 18.387623,-33.909023,640.08 18.386536,-33.910278,640.08 18.384647,-33.912468,640.08 18.383446,-33.913773,640.08 18.381472,-33.916077,640.08 18.380299,-33.917587,640.08 18.377323,-33.92178,640.08 18.376204,-33.923355,640.08 18.374689,-33.926102,640.08 18.374062,-33.927784,640.08 18.373089,-33.930901,670.56 18.372459,-33.93351,670.56 18.371719,-33.937225,670.56 18.371326,-33.93924,701.04 18.369869,-33.945648,701.04 18.368454,-33.950455,701.04 18.366507,-33.956131,731.52 18.363928,-33.962997,731.52 18.360271,-33.969635,731.52 18.357426,-33.973892,731.52 18.349802,-33.985245,701.04 18.345566,-33.991932,701.04 18.352549,-33.994537,701.04 18.356781,-33.989464,670.56 18.364677,-33.979317,640.08 18.367851,-33.974442,640.08 18.371944,-33.966282,640.08 18.373718,-33.960648,609.6 18.374691,-33.952736,548.64 18.374689,-33.948715,518.16 18.374689,-33.945236,518.16 18.374746,-33.942947,518.16 18.376007,-33.934067,487.68 18.376637,-33.931694,487.68 18.377548,-33.928207,518.16 18.377895,-33.926201,518.16 18.379343,-33.920929,518.16 18.38047,-33.918659,518.16 18.382702,-33.915447,518.16 18.384361,-33.91349,518.16 18.386936,-33.910652,518.16 18.388592,-33.909073,518.16 18.391729,-33.906235,518.16 18.393635,-33.904541,518.16 18.396662,-33.902069,518.16 18.39896,-33.900375,518.16 18.402271,-33.898457,518.16 18.405182,-33.897171,518.16 18.409424,-33.895988,548.64 18.412022,-33.895752,548.64 18.416058,-33.895981,518.16 18.418751,-33.896641,518.16 18.42256,-33.898087,518.16 18.424473,-33.898968,487.68 18.428444,-33.900879,457.2 18.430767,-33.901993,457.2 18.434143,-33.903667,426.72 18.436375,-33.904785,426.72 18.442905,-33.90683,396.24 18.445587,-33.906696,396.24 18.448963,-33.905205,365.76 18.450193,-33.903442,365.76 18.449764,-33.900784,335.28 18.448343,-33.899643,335.28 18.445644,-33.899059,304.8 18.443802,-33.898911,304.8 18.441124,-33.898872,243.84 18.439064,-33.898872,243.84 18.436571,-33.898865,213.36 18.434601,-33.898872,182.88 18.432367,-33.899048,152.4 18.428782,-33.900055,121.92 18.427391,-33.900875,91.44
        </coordinates>
      </LineString>
    </Placemark>
  </Document>
</kml>