<?xml version="1.0" encoding="UTF-8"?>
<kml xmlns="http://www.opengis.net/kml/2.2">
  <Document>
    <name>-/ZTHOT - Optimised</name>
    <description><![CDATA[Optimised flight path with 210 points (decimated from 1046 original points). Source format: Standard KML]]></description>
    
    <Style id="flightPath">
      <LineStyle>
        <color>ffff0000</color>
        <width>3</width>
      </LineStyle>
    </Style>
    
    <Placemark>
      <name>Flight Path</name>
      <description><![CDATA[<div style="width:220px; text-align:center;">
<div style="width:210px; text-align:center;">
<div style=" background: #000; color: #fff; font-size: 14px; text-align:left; border: 1px solid #000; padding: 2px 6px; text-shadow: 0 1px 0 #000; box-shadow: 0 1px 3px rgba(0,0,0,0.6); background: -webkit-gradient(linear, left top, left bottom, color-stop(0%,#808080), color-stop(2%,#303030), color-stop(100%,#0c0c0c));"><span style="font-size: 14px; font-weight: bold;"><a href="javascript:void(0);" style="color: #fff; cursor: pointer;text-decoration: none;">-</a></span> / ZTHOT<br/>Cape Town Helicopters</div>

<div style="border-top: 1px solid #005c90; color: #fff; padding-bottom: 5px; box-shadow: 0 0 1px #9BE3F6 inset, 0 1px 0 #9BE3F6 inset, 0 -1px 3px rgba(0,0,0,0.4); background:rgba(43,114,173,1); background: -webkit-gradient(linear, left top, left bottom, color-stop(0%,rgba(92,184,229,1)), color-stop(100%,rgba(43,114,173,1)));">
<a style="text-decoration: none; color: rgb(255, 255, 255); font-size: 12px; width:77px; display: inline-block;" title="Cape Town Airport" href="https://www.flightradar24.com/airport/cpt/departures"><h3 style="padding: 0px; margin: 10px 0px 0px; font-size: 16px; ">CPT</h3>Cape Town</a>
<span style="background: url(https://www.flightradar24.com/static/images/userUI_sprite.png?14) no-repeat scroll 0 -464px rgba(0, 0, 0, 0); border: medium none; display: inline-block; height: 16px; width: 45px;"></span>
<a style="text-decoration: none; color: rgb(255, 255, 255); font-size: 12px; width:77px; display: inline-block;" title="Cape Town Airport" href="https://www.flightradar24.com/airport/cpt/arrivals"><h3 style="padding: 0px; margin: 10px 0px 0px; font-size: 16px;">CPT</h3>Cape Town</a>
<div style=" margin-top:10px;">
<div style="display: inline-block; font-size: 12px; padding: 0 5px;">
<div>
<span style="color: #c1eaff;" title="Actual Time of Departure">ATD </span>
<span title="2025-12-10 10:09">10:09</span> <span title="Coordinated Universal Time">UTC</span>
</div>
</div>
<div style="display: inline-block; font-size: 12px; padding: 0 5px;">
<div>
<span style="color: #c1eaff;" title="Estimated Time of Arrival">ETA </span>
<span title="2025-12-10 10:30">10:30</span> <span title="Coordinated Universal Time">UTC</span>
</div>
</div>
</div>
<br style="clear: both;"/>
</div>

<div style="display: block;">
<table style="border-collapse: collapse; width: 100%;">
<tr style="border-right: 1px solid #dadada; ">
<td style="background: none repeat scroll 0 0 #dadada; padding: 0; width: 31px;">
<span style="background: url(https://www.flightradar24.com/static/images/userUI_sprite.png?14) no-repeat scroll -208px -464px rgba(0, 0, 0, 0); height: 26px; margin: 8px 0 0 4px; width: 23px; display: block;"></span>
</td>
<td colspan="2" style="border-bottom: 1px solid #dadada; border-left: 1px solid #dadada; color: #666; line-height: 1.1em; padding: 3px 6px; vertical-align: top; font-size: 14px;">
Aircraft<span style="float: right; font-size: 12px;">(AS50)</span><br>
<span style="color: #333; font-size: 16px; font-weight: bold; line-height: 1.3em;">Airbus Helicopters H125</span>
</td>
</tr>
<tr style="border-right: 1px solid #dadada; ">
<td style="background: none repeat scroll 0 0 #dadada; padding: 0; width: 31px;">
<td colspan="2" style="border-bottom: 1px solid #dadada; border-left: 1px solid #dadada; color: #666; line-height: 1.1em; padding: 3px 6px; vertical-align: top; font-size: 14px;">
Registration<br>
<span style="color: #333; font-size: 16px; font-weight: bold; line-height: 1.3em;"><a href="https://www.flightradar24.com/reg/zt-hot" style="text-decoration: none; color: #333;">ZT-HOT</a></span>
</td>
</tr>
</table>
</div>

</div>
</div>]]></description>
      <styleUrl>#flightPath</styleUrl>
      <LineString>
        <extrude>1</extrude>
        <tessellate>1</tessellate>
        <altitudeMode>absolute</altitudeMode>
        <coordinates>
          18.595314,-33.977234,60.96 18.595505,-33.980526,121.92 18.594921,-33.981537,152.4 18.593967,-33.983002,182.88 18.593184,-33.984055,213.36 18.591728,-33.985786,243.84 18.590698,-33.986904,243.84 18.588923,-33.988815,274.32 18.587746,-33.99028,274.32 18.586178,-33.992397,304.8 18.585167,-33.994034,304.8 18.58371,-33.996323,304.8 18.58263,-33.998077,304.8 18.581076,-34.000671,304.8 18.579899,-34.002502,304.8 18.578281,-34.004967,304.8 18.57704,-34.00676,304.8 18.575415,-34.009232,335.28 18.574276,-34.011158,335.28 18.572788,-34.013813,335.28 18.571827,-34.015594,335.28 18.570271,-34.018513,335.28 18.569241,-34.020237,335.28 18.567581,-34.023167,335.28 18.566437,-34.025078,335.28 18.564709,-34.028,335.28 18.563633,-34.029919,335.28 18.562088,-34.032852,335.28 18.561176,-34.034637,335.28 18.559664,-34.037613,335.28 18.55854,-34.039646,335.28 18.556973,-34.042236,365.76 18.555794,-34.044163,365.76 18.554003,-34.04718,365.76 18.55232,-34.049881,365.76 18.548985,-34.054684,365.76 18.547668,-34.056454,365.76 18.545151,-34.059433,365.76 18.543549,-34.061249,365.76 18.541145,-34.063854,365.76 18.539543,-34.065533,396.24 18.537083,-34.068092,396.24 18.535393,-34.069885,365.76 18.533152,-34.072495,365.76 18.53203,-34.074783,365.76 18.530909,-34.077667,365.76 18.52993,-34.079823,365.76 18.528442,-34.082611,365.76 18.526897,-34.084709,365.76 18.52438,-34.08741,365.76 18.522614,-34.089066,365.76 18.519688,-34.091415,335.28 18.517401,-34.093094,365.76 18.514036,-34.095337,365.76 18.511848,-34.096535,365.76 18.5086,-34.098267,365.76 18.506298,-34.099422,365.76 18.502579,-34.101189,335.28 18.500061,-34.102169,396.24 18.496628,-34.103333,426.72 18.494474,-34.103989,426.72 18.491077,-34.105007,457.2 18.488903,-34.105705,457.2 18.485394,-34.106735,487.68 18.483067,-34.10743,487.68 18.477974,-34.108917,487.68 18.475399,-34.109615,518.16 18.471718,-34.110489,518.16 18.468971,-34.110809,548.64 18.464655,-34.110809,579.12 18.462925,-34.110546,670.56 18.460751,-34.110176,701.04 18.459263,-34.109943,731.52 18.456974,-34.109756,762 18.455257,-34.109615,762 18.452625,-34.109524,822.96 18.450697,-34.109482,822.96 18.447783,-34.10939,853.44 18.446045,-34.109344,883.92 18.442841,-34.10915,914.4 18.440495,-34.109013,914.4 18.437347,-34.108871,944.88 18.434946,-34.108795,944.88 18.431416,-34.108658,975.36 18.428936,-34.108639,1005.84 18.425789,-34.108547,1036.32 18.423231,-34.108521,1036.32 18.419266,-34.108498,1036.32 18.409767,-34.10836,1066.8 18.393059,-34.107708,1066.8 18.388311,-34.107468,1005.84 18.383995,-34.106873,1005.84 18.380756,-34.106403,975.36 18.376484,-34.105591,944.88 18.373344,-34.10495,883.92 18.368397,-34.104076,822.96 18.36533,-34.103577,822.96 18.36062,-34.10289,792.48 18.357819,-34.102524,792.48 18.354231,-34.102615,914.4 18.354063,-34.103714,883.92 18.356495,-34.105938,792.48 18.359184,-34.107147,762 18.363144,-34.108749,731.52 18.365765,-34.109802,701.04 18.369656,-34.11134,670.56 18.372345,-34.112457,670.56 18.378502,-34.115158,640.08 18.385391,-34.118416,640.08 18.390141,-34.120464,640.08 18.392658,-34.121346,640.08 18.396103,-34.122437,640.08 18.398552,-34.123161,640.08 18.402214,-34.124142,640.08 18.404678,-34.124771,609.6 18.408051,-34.125584,609.6 18.410683,-34.126141,609.6 18.414402,-34.126934,609.6 18.417177,-34.127518,609.6 18.420925,-34.128052,609.6 18.423512,-34.12825,609.6 18.427099,-34.128387,609.6 18.429901,-34.128387,609.6 18.434105,-34.12825,609.6 18.436718,-34.128006,609.6 18.440552,-34.127472,609.6 18.443634,-34.126923,609.6 18.447447,-34.126053,609.6 18.450279,-34.125118,609.6 18.453941,-34.123535,609.6 18.456303,-34.122345,579.12 18.459663,-34.120232,579.12 18.462076,-34.118546,579.12 18.465271,-34.116085,579.12 18.467457,-34.114288,609.6 18.470484,-34.11145,609.6 18.472502,-34.109161,609.6 18.474598,-34.106216,609.6 18.475864,-34.103897,609.6 18.47723,-34.100445,609.6 18.477917,-34.098072,609.6 18.478443,-34.09465,609.6 18.478779,-34.092178,609.6 18.479118,-34.088341,579.12 18.47929,-34.085735,579.12 18.479462,-34.081871,548.64 18.479565,-34.079361,548.64 18.479805,-34.075169,548.64 18.480068,-34.072495,548.64 18.480606,-34.068836,518.16 18.481022,-34.066177,518.16 18.481579,-34.062691,518.16 18.481918,-34.060272,518.16 18.482494,-34.056686,487.68 18.48341,-34.050262,457.2 18.484945,-34.035507,457.2 18.485069,-34.032852,457.2 18.485184,-34.029266,457.2 18.485281,-34.026855,457.2 18.485298,-34.02182,457.2 18.485281,-34.019531,457.2 18.485001,-34.007675,457.2 18.48489,-34.00351,457.2 18.485338,-33.999756,457.2 18.486235,-33.998199,457.2 18.488533,-33.99646,457.2 18.490448,-33.995518,426.72 18.493578,-33.994263,396.24 18.495884,-33.993515,396.24 18.499294,-33.992706,426.72 18.50176,-33.992203,457.2 18.504925,-33.991467,487.68 18.507099,-33.990955,487.68 18.51059,-33.989929,487.68 18.512707,-33.989231,487.68 18.516312,-33.987976,487.68 18.518578,-33.987122,487.68 18.522205,-33.985134,487.68 18.524094,-33.983692,487.68 18.52704,-33.981125,487.68 18.529058,-33.979385,487.68 18.53203,-33.976913,487.68 18.533878,-33.975407,457.2 18.537355,-33.972794,457.2 18.539541,-33.971283,457.2 18.54332,-33.968842,426.72 18.545952,-33.967304,426.72 18.549631,-33.965424,396.24 18.552475,-33.964279,396.24 18.55648,-33.96307,365.76 18.559048,-33.962585,365.76 18.563307,-33.962265,365.76 18.565493,-33.962311,365.76 18.569473,-33.962723,335.28 18.571659,-33.963135,335.28 18.574909,-33.963821,335.28 18.576984,-33.964279,335.28 18.580227,-33.965118,304.8 18.582253,-33.965744,274.32 18.584944,-33.966751,243.84 18.586521,-33.967537,243.84 18.588642,-33.968903,213.36 18.589764,-33.969818,213.36 18.591099,-33.971497,182.88 18.591782,-33.972519,152.4 18.592758,-33.973965,152.4 18.593273,-33.974709,121.92 18.594131,-33.975685,121.92 18.594641,-33.976227,91.44 18.59523,-33.976994,0
        </coordinates>
      </LineString>
    </Placemark>
  </Document>
</kml>