<?xml version="1.0" encoding="UTF-8"?>
<kml xmlns="http://www.opengis.net/kml/2.2">
  <Document>
    <name>-/ZTHOT - Optimised</name>
    <description><![CDATA[Optimised flight path with 226 points (decimated from 1128 original points). Source format: Standard KML]]></description>
    
    <Style id="flightPath">
      <LineStyle>
        <color>ffff0000</color>
        <width>3</width>
      </LineStyle>
    </Style>
    
    <Placemark>
      <name>Flight Path</name>
      <description><![CDATA[<div style="width:220px; text-align:center;">
<div style="width:210px; text-align:center;">
<div style=" background: #000; color: #fff; font-size: 14px; text-align:left; border: 1px solid #000; padding: 2px 6px; text-shadow: 0 1px 0 #000; box-shadow: 0 1px 3px rgba(0,0,0,0.6); background: -webkit-gradient(linear, left top, left bottom, color-stop(0%,#808080), color-stop(2%,#303030), color-stop(100%,#0c0c0c));"><span style="font-size: 14px; font-weight: bold;"><a href="javascript:void(0);" style="color: #fff; cursor: pointer;text-decoration: none;">-</a></span> / ZTHOT<br/>Cape Town Helicopters</div>

<div style="border-top: 1px solid #005c90; color: #fff; padding-bottom: 5px; box-shadow: 0 0 1px #9BE3F6 inset, 0 1px 0 #9BE3F6 inset, 0 -1px 3px rgba(0,0,0,0.4); background:rgba(43,114,173,1); background: -webkit-gradient(linear, left top, left bottom, color-stop(0%,rgba(92,184,229,1)), color-stop(100%,rgba(43,114,173,1)));">
<a style="text-decoration: none; color: rgb(255, 255, 255); font-size: 12px; width:77px; display: inline-block;" title=" Airport" href="javascript:void(0);/departures"><h3 style="padding: 0px; margin: 10px 0px 0px; font-size: 16px; ">?</h3></a>
<span style="background: url(https://www.flightradar24.com/static/images/userUI_sprite.png?14) no-repeat scroll 0 -464px rgba(0, 0, 0, 0); border: medium none; display: inline-block; height: 16px; width: 45px;"></span>
<a style="text-decoration: none; color: rgb(255, 255, 255); font-size: 12px; width:77px; display: inline-block;" title=" Airport" href="javascript:void(0);/arrivals"><h3 style="padding: 0px; margin: 10px 0px 0px; font-size: 16px;">?</h3></a>
<div style=" margin-top:10px;">
<div style="display: inline-block; font-size: 12px; padding: 0 5px;">
<div>
<span style="color: #c1eaff;" title="Actual Time of Departure">ATD </span>
<span title="2025-07-25 09:30">09:30</span> <span title="Coordinated Universal Time">UTC</span>
</div>
</div>
<div style="display: inline-block; font-size: 12px; padding: 0 5px;">
</div>
</div>
<br style="clear: both;"/>
</div>

<div style="display: block;">
<table style="border-collapse: collapse; width: 100%;">
<tr style="border-right: 1px solid #dadada; ">
<td style="background: none repeat scroll 0 0 #dadada; padding: 0; width: 31px;">
<span style="background: url(https://www.flightradar24.com/static/images/userUI_sprite.png?14) no-repeat scroll -208px -464px rgba(0, 0, 0, 0); height: 26px; margin: 8px 0 0 4px; width: 23px; display: block;"></span>
</td>
<td colspan="2" style="border-bottom: 1px solid #dadada; border-left: 1px solid #dadada; color: #666; line-height: 1.1em; padding: 3px 6px; vertical-align: top; font-size: 14px;">
Aircraft<span style="float: right; font-size: 12px;">(AS50)</span><br>
<span style="color: #333; font-size: 16px; font-weight: bold; line-height: 1.3em;">Airbus Helicopters H125</span>
</td>
</tr>
<tr style="border-right: 1px solid #dadada; ">
<td style="background: none repeat scroll 0 0 #dadada; padding: 0; width: 31px;">
<td colspan="2" style="border-bottom: 1px solid #dadada; border-left: 1px solid #dadada; color: #666; line-height: 1.1em; padding: 3px 6px; vertical-align: top; font-size: 14px;">
Registration<br>
<span style="color: #333; font-size: 16px; font-weight: bold; line-height: 1.3em;"><a href="https://www.flightradar24.com/reg/zt-hot" style="text-decoration: none; color: #333;">ZT-HOT</a></span>
</td>
</tr>
</table>
</div>

</div>
</div>]]></description>
      <styleUrl>#flightPath</styleUrl>
      <LineString>
        <extrude>1</extrude>
        <tessellate>1</tessellate>
        <altitudeMode>absolute</altitudeMode>
        <coordinates>
          18.43483,-33.892914,60.96 18.436546,-33.889286,91.44 18.436571,-33.887512,121.92 18.4359,-33.884811,121.92 18.435114,-33.883026,152.4 18.433857,-33.880394,182.88 18.432592,-33.878815,182.88 18.430069,-33.877167,213.36 18.427906,-33.876575,213.36 18.424473,-33.876297,243.84 18.421955,-33.876389,274.32 18.418865,-33.876484,274.32 18.416897,-33.87648,304.8 18.413715,-33.87653,335.28 18.411312,-33.876762,335.28 18.408165,-33.877087,365.76 18.406248,-33.87735,365.76 18.402773,-33.877808,396.24 18.400555,-33.878113,396.24 18.39728,-33.878769,426.72 18.395061,-33.879368,426.72 18.39229,-33.880051,457.2 18.389969,-33.880718,457.2 18.386879,-33.881557,487.68 18.385059,-33.882111,518.16 18.379398,-33.884125,548.64 18.377266,-33.885189,548.64 18.374233,-33.887051,579.12 18.372448,-33.888336,579.12 18.369814,-33.89035,579.12 18.368225,-33.89175,579.12 18.366051,-33.893986,579.12 18.364601,-33.895477,579.12 18.36256,-33.897804,609.6 18.361187,-33.899479,609.6 18.359219,-33.902023,609.6 18.357819,-33.903992,609.6 18.356081,-33.906326,609.6 18.354847,-33.90802,609.6 18.349457,-33.914749,609.6 18.34543,-33.920288,609.6 18.345337,-33.923267,640.08 18.346607,-33.925003,640.08 18.350082,-33.926285,609.6 18.352606,-33.926102,609.6 18.356953,-33.926155,609.6 18.359356,-33.927223,609.6 18.361301,-33.929924,579.12 18.361759,-33.932114,579.12 18.361759,-33.935513,579.12 18.361181,-33.938553,548.64 18.359184,-33.944683,518.16 18.358379,-33.946564,487.68 18.35709,-33.949539,548.64 18.355579,-33.952969,640.08 18.352661,-33.959885,792.48 18.351316,-33.963501,883.92 18.349915,-33.966282,944.88 18.347,-33.969635,944.88 18.344135,-33.972099,944.88 18.342075,-33.973728,914.4 18.339386,-33.975685,914.4 18.336697,-33.977455,944.88 18.333099,-33.979889,944.88 18.328514,-33.983551,944.88 18.325939,-33.985741,914.4 18.324411,-33.987076,914.4 18.321608,-33.989594,914.4 18.320045,-33.991093,883.92 18.313923,-33.997334,853.44 18.312246,-33.999207,853.44 18.30995,-34.001953,853.44 18.308601,-34.003616,822.96 18.30625,-34.006485,822.96 18.303503,-34.010056,822.96 18.299789,-34.015209,822.96 18.298473,-34.017258,822.96 18.297169,-34.019852,792.48 18.297272,-34.021912,822.96 18.299412,-34.024475,822.96 18.301149,-34.025757,792.48 18.304064,-34.027817,792.48 18.305912,-34.029221,792.48 18.308491,-34.031479,792.48 18.310146,-34.033039,792.48 18.314209,-34.036808,792.48 18.315779,-34.038345,792.48 18.321608,-34.044022,822.96 18.323593,-34.046257,822.96 18.325596,-34.048725,822.96 18.331146,-34.054638,822.96 18.334557,-34.057755,822.96 18.336296,-34.0592,822.96 18.339209,-34.061279,822.96 18.341227,-34.062469,822.96 18.344822,-34.064507,822.96 18.347168,-34.065811,822.96 18.350487,-34.067764,792.48 18.354734,-34.070572,792.48 18.360004,-34.074097,792.48 18.361759,-34.075352,792.48 18.364431,-34.077393,792.48 18.367367,-34.079731,792.48 18.369999,-34.081917,792.48 18.371716,-34.0835,792.48 18.376694,-34.087738,822.96 18.382702,-34.093369,792.48 18.393002,-34.102585,701.04 18.395348,-34.104309,701.04 18.398895,-34.106777,670.56 18.401316,-34.108383,640.08 18.404791,-34.110672,609.6 18.409595,-34.113991,609.6 18.419308,-34.119736,548.64 18.421555,-34.120975,548.64 18.425503,-34.122837,548.64 18.428192,-34.123722,518.16 18.43276,-34.124405,518.16 18.435675,-34.124542,518.16 18.440151,-34.12442,487.68 18.443073,-34.124222,487.68 18.447762,-34.123768,518.16 18.450642,-34.123123,487.68 18.455013,-34.121429,487.68 18.457928,-34.119827,487.68 18.461609,-34.117531,457.2 18.464527,-34.115574,457.2 18.468243,-34.113098,396.24 18.471157,-34.111267,365.76 18.474295,-34.108154,365.76 18.475399,-34.105331,365.76 18.475136,-34.101288,335.28 18.474369,-34.098816,335.28 18.473053,-34.095184,335.28 18.471966,-34.092857,365.76 18.470135,-34.0896,365.76 18.468859,-34.087555,365.76 18.46693,-34.08485,396.24 18.465439,-34.083023,396.24 18.463154,-34.080242,396.24 18.46174,-34.078445,396.24 18.459663,-34.075771,426.72 18.458061,-34.073818,426.72 18.452379,-34.067551,457.2 18.450508,-34.065857,457.2 18.447054,-34.062973,457.2 18.445187,-34.061436,457.2 18.439751,-34.055893,426.72 18.43803,-34.054092,457.2 18.435507,-34.051163,457.2 18.433769,-34.048965,457.2 18.431568,-34.045746,457.2 18.429966,-34.043278,457.2 18.428389,-34.040131,457.2 18.427883,-34.037933,487.68 18.427677,-34.034248,487.68 18.427883,-34.031891,487.68 18.428535,-34.028194,518.16 18.429108,-34.025867,518.16 18.430239,-34.022598,518.16 18.431396,-34.020237,548.64 18.432985,-34.017288,548.64 18.4342,-34.014927,548.64 18.435688,-34.011856,579.12 18.437077,-34.006897,579.12 18.437748,-34.003242,579.12 18.438606,-34.000683,579.12 18.441696,-33.996868,579.12 18.444042,-33.995235,579.12 18.447704,-33.992954,548.64 18.450249,-33.99147,548.64 18.454399,-33.989277,518.16 18.457375,-33.987789,487.68 18.464207,-33.983734,457.2 18.466702,-33.981922,426.72 18.470596,-33.978561,365.76 18.472652,-33.976524,365.76 18.475571,-33.973358,335.28 18.477516,-33.970798,335.28 18.479519,-33.967072,335.28 18.480492,-33.964745,335.28 18.481976,-33.9608,304.8 18.482895,-33.958321,304.8 18.484154,-33.954411,274.32 18.484722,-33.95192,274.32 18.484898,-33.948498,304.8 18.483925,-33.946262,335.28 18.480549,-33.945614,365.76 18.478661,-33.946732,365.76 18.476818,-33.948853,396.24 18.475857,-33.951942,426.72 18.47723,-33.954502,426.72 18.47962,-33.955627,396.24 18.483925,-33.955017,335.28 18.486271,-33.95306,304.8 18.487299,-33.949219,274.32 18.487015,-33.946449,274.32 18.485786,-33.942307,243.84 18.484612,-33.939468,213.36 18.482647,-33.935669,182.88 18.481121,-33.932949,213.36 18.479116,-33.929489,182.88 18.477491,-33.927155,182.88 18.474827,-33.923824,182.88 18.472939,-33.92173,182.88 18.469923,-33.918732,182.88 18.467625,-33.916534,182.88 18.464655,-33.913834,182.88 18.460787,-33.909668,152.4 18.458208,-33.906326,182.88 18.456696,-33.904083,182.88 18.454685,-33.901295,182.88 18.45314,-33.8992,152.4 18.449633,-33.89566,152.4 18.447222,-33.894974,121.92 18.443527,-33.895523,91.44 18.441448,-33.896301,60.96 18.438606,-33.897476,30.48 18.437357,-33.898041,30.48 18.436012,-33.898636,30.48 18.435171,-33.899002,0 18.433601,-33.899506,0 18.432087,-33.899734,0 18.430182,-33.89978,0 18.427563,-33.899899,0 18.426991,-33.900597,0
        </coordinates>
      </LineString>
    </Placemark>
  </Document>
</kml>