<?xml version="1.0" encoding="UTF-8"?>
<kml xmlns="http://www.opengis.net/kml/2.2">
  <Document>
    <name>-/ZTHOT - Optimised</name>
    <description><![CDATA[Optimised flight path with 890 points (decimated from 4446 original points). Source format: Standard KML]]></description>
    
    <Style id="flightPath">
      <LineStyle>
        <color>ffff0000</color>
        <width>3</width>
      </LineStyle>
    </Style>
    
    <Placemark>
      <name>Flight Path</name>
      <description><![CDATA[<div style="width:220px; text-align:center;">
<div style="width:210px; text-align:center;">
<div style=" background: #000; color: #fff; font-size: 14px; text-align:left; border: 1px solid #000; padding: 2px 6px; text-shadow: 0 1px 0 #000; box-shadow: 0 1px 3px rgba(0,0,0,0.6); background: -webkit-gradient(linear, left top, left bottom, color-stop(0%,#808080), color-stop(2%,#303030), color-stop(100%,#0c0c0c));"><span style="font-size: 14px; font-weight: bold;"><a href="javascript:void(0);" style="color: #fff; cursor: pointer;text-decoration: none;">-</a></span> / ZTHOT<br/>Cape Town Helicopters</div>

<div style="border-top: 1px solid #005c90; color: #fff; padding-bottom: 5px; box-shadow: 0 0 1px #9BE3F6 inset, 0 1px 0 #9BE3F6 inset, 0 -1px 3px rgba(0,0,0,0.4); background:rgba(43,114,173,1); background: -webkit-gradient(linear, left top, left bottom, color-stop(0%,rgba(92,184,229,1)), color-stop(100%,rgba(43,114,173,1)));">
<a style="text-decoration: none; color: rgb(255, 255, 255); font-size: 12px; width:77px; display: inline-block;" title=" Airport" href="javascript:void(0);/departures"><h3 style="padding: 0px; margin: 10px 0px 0px; font-size: 16px; ">?</h3></a>
<span style="background: url(https://www.flightradar24.com/static/images/userUI_sprite.png?14) no-repeat scroll 0 -464px rgba(0, 0, 0, 0); border: medium none; display: inline-block; height: 16px; width: 45px;"></span>
<a style="text-decoration: none; color: rgb(255, 255, 255); font-size: 12px; width:77px; display: inline-block;" title=" Airport" href="javascript:void(0);/arrivals"><h3 style="padding: 0px; margin: 10px 0px 0px; font-size: 16px;">?</h3></a>
<div style=" margin-top:10px;">
<div style="display: inline-block; font-size: 12px; padding: 0 5px;">
<div>
<span style="color: #c1eaff;" title="Actual Time of Departure">ATD </span>
<span title="2025-03-05 13:28">13:28</span> <span title="Coordinated Universal Time">UTC</span>
</div>
</div>
<div style="display: inline-block; font-size: 12px; padding: 0 5px;">
<div>
<span style="color: #c1eaff;" title="Estimated Time of Arrival">ETA </span>
<span title="2025-03-05 13:52">13:52</span> <span title="Coordinated Universal Time">UTC</span>
</div>
</div>
</div>
<br style="clear: both;"/>
</div>

<div style="display: block;">
<table style="border-collapse: collapse; width: 100%;">
<tr style="border-right: 1px solid #dadada; ">
<td style="background: none repeat scroll 0 0 #dadada; padding: 0; width: 31px;">
<span style="background: url(https://www.flightradar24.com/static/images/userUI_sprite.png?14) no-repeat scroll -208px -464px rgba(0, 0, 0, 0); height: 26px; margin: 8px 0 0 4px; width: 23px; display: block;"></span>
</td>
<td colspan="2" style="border-bottom: 1px solid #dadada; border-left: 1px solid #dadada; color: #666; line-height: 1.1em; padding: 3px 6px; vertical-align: top; font-size: 14px;">
Aircraft<span style="float: right; font-size: 12px;">(AS50)</span><br>
<span style="color: #333; font-size: 16px; font-weight: bold; line-height: 1.3em;">Airbus Helicopters H125</span>
</td>
</tr>
<tr style="border-right: 1px solid #dadada; ">
<td style="background: none repeat scroll 0 0 #dadada; padding: 0; width: 31px;">
<td colspan="2" style="border-bottom: 1px solid #dadada; border-left: 1px solid #dadada; color: #666; line-height: 1.1em; padding: 3px 6px; vertical-align: top; font-size: 14px;">
Registration<br>
<span style="color: #333; font-size: 16px; font-weight: bold; line-height: 1.3em;"><a href="https://www.flightradar24.com/reg/zt-hot" style="text-decoration: none; color: #333;">ZT-HOT</a></span>
</td>
</tr>
</table>
</div>

</div>
</div>]]></description>
      <styleUrl>#flightPath</styleUrl>
      <LineString>
        <extrude>1</extrude>
        <tessellate>1</tessellate>
        <altitudeMode>absolute</altitudeMode>
        <coordinates>
          18.427505,-33.900738,60.96 18.42762,-33.898968,60.96 18.428307,-33.897617,60.96 18.429279,-33.895802,121.92 18.430023,-33.894264,121.92 18.431248,-33.892044,152.4 18.431976,-33.890762,182.88 18.43461,-33.884949,243.84 18.434778,-33.883072,243.84 18.434443,-33.880234,274.32 18.433434,-33.878128,274.32 18.431023,-33.875931,304.8 18.429108,-33.874992,304.8 18.425529,-33.874191,335.28 18.422356,-33.874016,365.76 18.418634,-33.873962,396.24 18.416348,-33.874062,426.72 18.412685,-33.874435,426.72 18.409443,-33.875656,457.2 18.408096,-33.878036,487.68 18.408827,-33.879822,518.16 18.411013,-33.881287,548.64 18.4128,-33.881649,548.64 18.416004,-33.881462,579.12 18.417892,-33.880997,579.12 18.420067,-33.879555,609.6 18.41938,-33.878204,609.6 18.415888,-33.878128,579.12 18.41383,-33.87867,579.12 18.410454,-33.879601,609.6 18.408051,-33.880253,609.6 18.404503,-33.881279,609.6 18.402493,-33.881836,609.6 18.395094,-33.884171,640.08 18.392515,-33.885132,640.08 18.389151,-33.886688,670.56 18.386854,-33.887878,670.56 18.38377,-33.889572,670.56 18.381786,-33.89082,701.04 18.378838,-33.892822,701.04 18.377155,-33.894058,701.04 18.374298,-33.896484,701.04 18.372168,-33.89859,701.04 18.369476,-33.901474,701.04 18.367996,-33.903252,701.04 18.365833,-33.906097,670.56 18.364321,-33.908203,670.56 18.362135,-33.911499,670.56 18.360846,-33.913559,670.56 18.358898,-33.916752,670.56 18.357819,-33.918777,670.56 18.356192,-33.921936,670.56 18.355127,-33.924271,670.56 18.353806,-33.927319,670.56 18.352718,-33.92997,640.08 18.351574,-33.932858,640.08 18.349411,-33.939011,670.56 18.348541,-33.942539,670.56 18.348961,-33.944366,701.04 18.351231,-33.94603,731.52 18.353165,-33.945969,731.52 18.355801,-33.944,731.52 18.356977,-33.942078,731.52 18.358267,-33.93924,762 18.359013,-33.937279,762 18.359947,-33.934067,792.48 18.360004,-33.932098,792.48 18.358841,-33.9296,822.96 18.35692,-33.928482,822.96 18.353895,-33.928894,822.96 18.351803,-33.930622,822.96 18.34997,-33.933105,792.48 18.34868,-33.935532,792.48 18.347168,-33.938828,762 18.345509,-33.943424,762 18.343412,-33.949631,762 18.342516,-33.95256,762 18.340778,-33.959152,762 18.337864,-33.969955,762 18.333607,-33.986904,762 18.333042,-33.992615,731.52 18.333939,-34.001312,731.52 18.335037,-34.004082,731.52 18.336742,-34.007126,731.52 18.338127,-34.009251,731.52 18.340162,-34.01239,731.52 18.341394,-34.014542,701.04 18.344364,-34.020794,731.52 18.34515,-34.022736,731.52 18.346439,-34.026352,701.04 18.347225,-34.02866,701.04 18.348198,-34.032013,701.04 18.348827,-34.034203,701.04 18.349747,-34.03775,701.04 18.35014,-34.039902,701.04 18.350756,-34.043152,701.04 18.352549,-34.050018,670.56 18.354435,-34.056175,701.04 18.355183,-34.058533,701.04 18.357594,-34.064941,701.04 18.359013,-34.067162,701.04 18.361073,-34.069954,670.56 18.362638,-34.071854,670.56 18.364882,-34.074646,670.56 18.366507,-34.076614,640.08 18.368525,-34.079132,640.08 18.369869,-34.081741,640.08 18.370653,-34.085129,609.6 18.371271,-34.08728,609.6 18.372448,-34.090073,640.08 18.373512,-34.091858,640.08 18.377094,-34.096535,640.08 18.378782,-34.098175,609.6 18.381615,-34.100491,609.6 18.383617,-34.101982,609.6 18.386421,-34.104218,609.6 18.388311,-34.105682,609.6 18.391001,-34.107651,609.6 18.395149,-34.110443,609.6 18.398438,-34.112457,609.6 18.400497,-34.113621,609.6 18.40353,-34.11525,579.12 18.405762,-34.116459,579.12 18.413927,-34.121292,579.12 18.421154,-34.125538,579.12 18.430595,-34.130657,579.12 18.432884,-34.131729,579.12 18.436432,-34.133217,579.12 18.439095,-34.134064,579.12 18.442963,-34.13475,579.12 18.445816,-34.134895,548.64 18.450108,-34.134613,548.64 18.453197,-34.134289,548.64 18.457546,-34.133591,548.64 18.460339,-34.132874,518.16 18.464184,-34.131123,518.16 18.466505,-34.12944,518.16 18.469563,-34.126469,518.16 18.471325,-34.124359,518.16 18.473682,-34.12088,518.16 18.474941,-34.118599,518.16 18.476482,-34.115204,518.16 18.477379,-34.112503,548.64 18.47822,-34.108566,518.16 18.478556,-34.105911,548.64 18.478947,-34.102169,548.64 18.479118,-34.099606,548.64 18.47929,-34.095745,548.64 18.479404,-34.092999,548.64 18.47962,-34.086273,548.64 18.480377,-34.07745,548.64 18.481121,-34.073307,548.64 18.48175,-34.070755,548.64 18.48278,-34.066696,548.64 18.48341,-34.064182,548.64 18.485126,-34.056732,548.64 18.485985,-34.051567,579.12 18.48646,-34.047913,579.12 18.48674,-34.045395,579.12 18.487015,-34.041603,579.12 18.487129,-34.03923,579.12 18.487076,-34.03569,579.12 18.486958,-34.033318,579.12 18.486795,-34.029785,579.12 18.486795,-34.02713,579.12 18.486385,-34.013115,548.64 18.486271,-34.004734,579.12 18.486557,-33.990349,518.16 18.486729,-33.987698,518.16 18.487019,-33.98378,518.16 18.487301,-33.977177,518.16 18.487129,-33.970749,487.68 18.487019,-33.968536,487.68 18.4865,-33.964279,487.68 18.486099,-33.961952,457.2 18.485241,-33.958134,457.2 18.48461,-33.955673,457.2 18.483601,-33.952011,457.2 18.482895,-33.94957,457.2 18.480068,-33.935577,426.72 18.478718,-33.931553,426.72 18.476931,-33.927658,426.72 18.475285,-33.925083,426.72 18.472782,-33.922028,426.72 18.470764,-33.919868,426.72 18.467962,-33.917084,396.24 18.465843,-33.914982,396.24 18.462982,-33.912094,396.24 18.459263,-33.908279,396.24 18.450474,-33.899185,335.28 18.448792,-33.897758,335.28 18.445644,-33.89608,304.8 18.443579,-33.895523,304.8 18.440607,-33.89566,274.32 18.438148,-33.896221,243.84 18.435339,-33.896851,213.36 18.433601,-33.897217,182.88 18.431248,-33.897949,121.92 18.42923,-33.898682,121.92 18.428669,-33.899597,91.44 18.428936,-33.900272,91.44 18.427563,-33.900726,0 18.428556,-33.89859,91.44 18.432537,-33.890533,182.88 18.433714,-33.887512,213.36 18.434029,-33.884815,243.84 18.433571,-33.883091,274.32 18.431808,-33.880234,274.32 18.430138,-33.878624,304.8 18.427435,-33.876343,335.28 18.424465,-33.874603,335.28 18.421158,-33.87355,365.76 18.418808,-33.873222,396.24 18.415159,-33.873184,396.24 18.412743,-33.873409,426.72 18.407307,-33.874714,457.2 18.405294,-33.875427,487.68 18.402155,-33.876801,518.16 18.400269,-33.877693,518.16 18.397236,-33.879368,548.64 18.395233,-33.880531,548.64 18.392601,-33.88221,579.12 18.390942,-33.883373,579.12 18.388199,-33.885452,609.6 18.386478,-33.886864,609.6 18.383617,-33.889378,640.08 18.38209,-33.890671,640.08 18.379612,-33.892868,670.56 18.377953,-33.894405,670.56 18.373318,-33.899059,701.04 18.372002,-33.900597,701.04 18.369925,-33.903076,731.52 18.368626,-33.904739,731.52 18.366966,-33.907021,731.52 18.365536,-33.909115,731.52 18.363703,-33.912048,731.52 18.362446,-33.914238,731.52 18.360676,-33.917358,731.52 18.359528,-33.919403,731.52 18.356724,-33.924664,731.52 18.353109,-33.931961,731.52 18.349634,-33.939651,731.52 18.346214,-33.947708,731.52 18.343412,-33.963318,731.52 18.349634,-33.958832,670.56 18.351974,-33.954643,670.56 18.353062,-33.952225,670.56 18.354624,-33.948532,640.08 18.355579,-33.946171,640.08 18.357033,-33.942169,640.08 18.357925,-33.939701,609.6 18.360117,-33.933517,609.6 18.36319,-33.925362,579.12 18.366337,-33.91824,579.12 18.367458,-33.916031,579.12 18.369644,-33.912323,548.64 18.370934,-33.910309,548.64 18.373064,-33.907104,548.64 18.374634,-33.904953,548.64 18.376923,-33.901993,548.64 18.37867,-33.899918,548.64 18.381557,-33.896778,548.64 18.383389,-33.895012,548.64 18.386517,-33.892319,548.64 18.388815,-33.890533,548.64 18.3922,-33.888306,518.16 18.394833,-33.886864,518.16 18.398624,-33.885178,518.16 18.401127,-33.884209,518.16 18.405075,-33.882858,518.16 18.407818,-33.882065,518.16 18.412285,-33.881046,518.16 18.414936,-33.8806,518.16 18.419151,-33.88044,518.16 18.421942,-33.880692,487.68 18.426132,-33.881512,487.68 18.42905,-33.882347,457.2 18.432713,-33.883698,457.2 18.435284,-33.884857,426.72 18.438534,-33.88678,426.72 18.440271,-33.888153,396.24 18.442402,-33.890533,365.76 18.443186,-33.892365,335.28 18.442497,-33.894871,335.28 18.441225,-33.895935,304.8 18.438478,-33.896805,274.32 18.436516,-33.897125,243.84 18.434385,-33.897675,243.84 18.433657,-33.899597,182.88 18.432705,-33.900467,182.88 18.431511,-33.899807,121.92 18.429565,-33.899414,91.44 18.427996,-33.900513,60.96 18.427448,-33.900505,91.44 18.427963,-33.898689,91.44 18.428993,-33.896641,91.44 18.429737,-33.895245,121.92 18.430882,-33.893009,152.4 18.431696,-33.891449,182.88 18.433769,-33.887192,213.36 18.4342,-33.885189,243.84 18.433546,-33.882339,274.32 18.43214,-33.88044,274.32 18.429623,-33.878765,304.8 18.427099,-33.877899,304.8 18.423557,-33.877415,335.28 18.421158,-33.877441,365.76 18.41785,-33.877853,396.24 18.415159,-33.878311,396.24 18.411255,-33.87923,426.72 18.408337,-33.88002,457.2 18.404045,-33.881462,487.68 18.402044,-33.882202,487.68 18.398569,-33.883759,518.16 18.396494,-33.88472,548.64 18.393692,-33.886139,548.64 18.3918,-33.887188,579.12 18.389282,-33.888634,579.12 18.387413,-33.889755,609.6 18.38459,-33.891518,609.6 18.382874,-33.892685,640.08 18.380295,-33.894424,670.56 18.378639,-33.89571,670.56 18.376064,-33.897758,670.56 18.374578,-33.899094,670.56 18.37228,-33.901337,701.04 18.370653,-33.903122,701.04 18.368454,-33.905716,701.04 18.367067,-33.907516,701.04 18.365105,-33.910034,701.04 18.363705,-33.911957,731.52 18.361797,-33.914658,731.52 18.360508,-33.916534,731.52 18.358883,-33.919189,762 18.357697,-33.921173,762 18.356136,-33.923996,762 18.355064,-33.92606,762 18.353445,-33.929169,762 18.3494,-33.936211,762 18.345543,-33.944733,762 18.344707,-33.946915,762 18.34362,-33.949848,762 18.342739,-33.952377,762 18.344254,-33.966568,792.48 18.349354,-33.9608,731.52 18.350487,-33.95697,731.52 18.351149,-33.954529,731.52 18.352045,-33.951096,731.52 18.353462,-33.945984,731.52 18.356552,-33.936535,701.04 18.357594,-33.934021,701.04 18.359013,-33.930531,701.04 18.360157,-33.927971,670.56 18.361588,-33.92485,670.56 18.362694,-33.922714,670.56 18.364677,-33.919216,670.56 18.365993,-33.917076,640.08 18.368357,-33.913513,640.08 18.36977,-33.911537,640.08 18.372231,-33.908417,640.08 18.373793,-33.906601,640.08 18.376465,-33.903622,640.08 18.378239,-33.901901,609.6 18.381271,-33.898922,609.6 18.383331,-33.897106,609.6 18.386461,-33.894516,609.6 18.388702,-33.892822,579.12 18.392122,-33.890533,579.12 18.394432,-33.889099,579.12 18.398064,-33.887146,579.12 18.400755,-33.88591,579.12 18.405071,-33.884308,548.64 18.407593,-33.883465,548.64 18.412132,-33.882294,518.16 18.415031,-33.881744,518.16 18.419266,-33.881325,487.68 18.421999,-33.881378,457.2 18.425529,-33.882385,426.72 18.427277,-33.883511,396.24 18.429337,-33.885838,365.76 18.430294,-33.887604,335.28 18.431696,-33.89003,304.8 18.432655,-33.89138,274.32 18.434443,-33.893738,213.36 18.435452,-33.895157,213.36 18.435917,-33.897572,182.88 18.434778,-33.898361,182.88 18.432426,-33.898922,121.92 18.428364,-33.900131,91.44 18.427391,-33.900608,0 18.428669,-33.901062,60.96 18.431303,-33.901428,91.44 18.432985,-33.901382,121.92 18.435171,-33.901108,152.4 18.437077,-33.900513,152.4 18.439064,-33.898781,182.88 18.439693,-33.896591,182.88 18.439178,-33.893242,213.36 18.438435,-33.891193,213.36 18.437176,-33.88826,243.84 18.436089,-33.886166,243.84 18.434486,-33.883652,274.32 18.432884,-33.881512,274.32 18.430407,-33.87886,304.8 18.428669,-33.877441,304.8 18.425417,-33.875702,335.28 18.423063,-33.875107,335.28 18.41942,-33.875015,335.28 18.416954,-33.875336,365.76 18.412582,-33.876343,365.76 18.410053,-33.877041,396.24 18.406696,-33.87822,396.24 18.404621,-33.879135,426.72 18.401258,-33.880692,426.72 18.399124,-33.881836,457.2 18.396158,-33.88353,457.2 18.394203,-33.884769,457.2 18.391506,-33.886551,487.68 18.389511,-33.887886,487.68 18.386684,-33.889984,518.16 18.384724,-33.891541,518.16 18.382425,-33.893463,518.16 18.380699,-33.894962,548.64 18.377996,-33.8974,548.64 18.374689,-33.900421,579.12 18.371719,-33.903397,609.6 18.370262,-33.904907,609.6 18.368132,-33.907379,609.6 18.366842,-33.908936,640.08 18.364906,-33.911583,640.08 18.363819,-33.913212,640.08 18.36219,-33.915802,670.56 18.36113,-33.917542,670.56 18.359612,-33.920197,670.56 18.358658,-33.922028,670.56 18.357313,-33.924591,670.56 18.35638,-33.926434,701.04 18.355072,-33.929352,701.04 18.354263,-33.931133,701.04 18.352549,-33.934982,701.04 18.35186,-33.936909,701.04 18.349915,-33.941936,701.04 18.346495,-33.949402,701.04 18.342018,-33.961765,701.04 18.345623,-33.965488,731.52 18.353863,-33.96172,670.56 18.354893,-33.958973,670.56 18.355923,-33.955482,670.56 18.356667,-33.952782,640.08 18.357582,-33.949429,640.08 18.358267,-33.946976,640.08 18.359299,-33.943192,609.6 18.361988,-33.934811,609.6 18.36404,-33.929169,609.6 18.364849,-33.927223,609.6 18.366282,-33.923859,609.6 18.367367,-33.921543,579.12 18.369141,-33.917999,579.12 18.370399,-33.915817,579.12 18.372803,-33.912094,579.12 18.374348,-33.909859,579.12 18.376539,-33.906967,548.64 18.378277,-33.904816,548.64 18.380756,-33.901901,548.64 18.382425,-33.900101,548.64 18.385334,-33.897243,548.64 18.387394,-33.895477,548.64 18.390312,-33.893055,548.64 18.392487,-33.891426,548.64 18.396103,-33.889069,518.16 18.398457,-33.887741,518.16 18.402214,-33.886024,518.16 18.405014,-33.884949,518.16 18.408937,-33.883667,487.68 18.411852,-33.882889,457.2 18.416233,-33.88216,426.72 18.41898,-33.882114,426.72 18.423042,-33.882908,396.24 18.425045,-33.883793,365.76 18.427677,-33.885746,365.76 18.428892,-33.887238,335.28 18.430309,-33.889702,274.32 18.430996,-33.891472,274.32 18.431454,-33.893566,243.84 18.431471,-33.894974,213.36 18.430687,-33.896439,213.36 18.429794,-33.897243,182.88 18.428307,-33.898315,121.92 18.427505,-33.899155,91.44 18.426987,-33.900238,60.96 18.426987,-33.90097,60.96 18.430252,-33.901806,91.44 18.431797,-33.902134,121.92 18.433714,-33.902252,152.4 18.435562,-33.90184,182.88 18.437691,-33.900551,182.88 18.439007,-33.898968,182.88 18.439823,-33.896439,213.36 18.439823,-33.894424,213.36 18.439293,-33.891659,243.84 18.438549,-33.889378,243.84 18.437061,-33.88612,274.32 18.435562,-33.883667,304.8 18.433628,-33.880905,304.8 18.432083,-33.879181,304.8 18.429453,-33.877029,335.28 18.427267,-33.875793,335.28 18.423847,-33.874924,365.76 18.421783,-33.874805,365.76 18.418018,-33.875153,396.24 18.413143,-33.876389,396.24 18.409946,-33.877533,426.72 18.407707,-33.878391,426.72 18.404285,-33.879959,426.72 18.40238,-33.880966,457.2 18.39941,-33.882626,457.2 18.397408,-33.883884,457.2 18.394661,-33.885746,487.68 18.392796,-33.887054,487.68 18.39016,-33.888977,487.68 18.388592,-33.890213,518.16 18.38562,-33.892502,518.16 18.38405,-33.893784,518.16 18.381443,-33.895943,548.64 18.379791,-33.897354,548.64 18.377436,-33.899597,548.64 18.375698,-33.901291,579.12 18.373661,-33.90353,579.12 18.372402,-33.904972,579.12 18.370399,-33.907345,579.12 18.369253,-33.908798,609.6 18.367458,-33.911224,609.6 18.366222,-33.913025,609.6 18.36462,-33.915493,609.6 18.363422,-33.917542,640.08 18.362045,-33.92001,640.08 18.361015,-33.921871,640.08 18.359585,-33.924572,640.08 18.358612,-33.926434,640.08 18.355352,-33.933105,670.56 18.352203,-33.939888,670.56 18.348122,-33.94986,701.04 18.343964,-33.959484,701.04 18.347897,-33.964783,731.52 18.351988,-33.960983,701.04 18.353233,-33.956318,670.56 18.35392,-33.953991,670.56 18.354959,-33.950363,640.08 18.356865,-33.944412,640.08 18.360565,-33.932968,640.08 18.363304,-33.925083,640.08 18.364849,-33.921593,640.08 18.365778,-33.919647,640.08 18.367796,-33.915894,640.08 18.369196,-33.913651,640.08 18.371315,-33.910419,609.6 18.372784,-33.908478,609.6 18.375195,-33.905411,609.6 18.377045,-33.903351,609.6 18.379623,-33.900604,609.6 18.3815,-33.898594,609.6 18.38459,-33.895756,579.12 18.386629,-33.89415,579.12 18.390329,-33.891678,579.12 18.392683,-33.89035,548.64 18.39632,-33.888538,548.64 18.398792,-33.887466,548.64 18.402548,-33.885864,518.16 18.405294,-33.884811,518.16 18.409498,-33.883347,518.16 18.412077,-33.882523,487.68 18.415945,-33.88147,457.2 18.419151,-33.880951,457.2 18.42267,-33.881287,426.72 18.424856,-33.882156,426.72 18.427048,-33.883884,365.76 18.428276,-33.885406,335.28 18.429565,-33.887741,304.8 18.430182,-33.889114,304.8 18.431023,-33.891449,243.84 18.43119,-33.892731,243.84 18.430855,-33.894882,213.36 18.430182,-33.896027,182.88 18.428936,-33.89743,152.4 18.428135,-33.898315,121.92 18.427435,-33.899323,91.44 18.427155,-33.900009,91.44 18.427219,-33.900875,60.96 18.428724,-33.90097,60.96 18.430687,-33.901566,121.92 18.432312,-33.901947,152.4 18.434555,-33.902206,182.88 18.437021,-33.901566,213.36 18.439095,-33.899734,213.36 18.440037,-33.897942,213.36 18.440664,-33.894928,243.84 18.440777,-33.893005,243.84 18.440495,-33.889378,243.84 18.439936,-33.887192,274.32 18.438835,-33.883884,274.32 18.43803,-33.881836,274.32 18.436089,-33.878391,274.32 18.434723,-33.87648,274.32 18.432026,-33.873783,304.8 18.429453,-33.872177,304.8 18.426132,-33.871174,335.28 18.423176,-33.871078,335.28 18.419437,-33.871593,365.76 18.417492,-33.872013,365.76 18.413534,-33.873276,365.76 18.411013,-33.874283,396.24 18.407879,-33.875645,396.24 18.405647,-33.876667,426.72 18.402557,-33.87825,426.72 18.400211,-33.879555,426.72 18.396893,-33.881512,457.2 18.394604,-33.882999,457.2 18.391972,-33.884815,487.68 18.390329,-33.886002,487.68 18.387508,-33.888119,487.68 18.385788,-33.889572,487.68 18.383217,-33.89175,518.16 18.381672,-33.893147,518.16 18.37923,-33.89534,518.16 18.377552,-33.896873,518.16 18.374521,-33.899734,548.64 18.372671,-33.901611,548.64 18.370485,-33.903992,548.64 18.368916,-33.905731,548.64 18.366737,-33.908279,548.64 18.365421,-33.909908,548.64 18.363419,-33.91256,548.64 18.362217,-33.914284,548.64 18.3605,-33.916985,548.64 18.359276,-33.919098,548.64 18.357754,-33.921825,548.64 18.356752,-33.92363,548.64 18.355064,-33.926899,548.64 18.354118,-33.928848,548.64 18.351765,-33.933975,548.64 18.350887,-33.935978,548.64 18.346767,-33.946217,579.12 18.342419,-33.957249,579.12 18.337694,-33.971741,640.08 18.340666,-33.97522,670.56 18.349457,-33.96917,640.08 18.351372,-33.963135,640.08 18.353951,-33.955994,609.6 18.35709,-33.947617,579.12 18.362135,-33.934525,518.16 18.365665,-33.924545,518.16 18.369999,-33.91433,518.16 18.371103,-33.912323,518.16 18.373064,-33.908981,518.16 18.374466,-33.906738,518.16 18.376596,-33.903671,487.68 18.378181,-33.901714,487.68 18.380871,-33.898781,487.68 18.382874,-33.896824,487.68 18.385845,-33.894196,487.68 18.387852,-33.892635,487.68 18.391226,-33.890213,457.2 18.393805,-33.888611,457.2 18.397465,-33.886677,457.2 18.400137,-33.885361,426.72 18.404118,-33.883621,426.72 18.407021,-33.882721,426.72 18.410955,-33.88179,426.72 18.413486,-33.881371,396.24 18.418524,-33.881058,365.76 18.421213,-33.881241,365.76 18.424644,-33.882069,335.28 18.42659,-33.883278,335.28 18.428053,-33.885315,304.8 18.428724,-33.886917,274.32 18.429451,-33.889423,243.84 18.429733,-33.890945,213.36 18.42979,-33.89328,182.88 18.429621,-33.894562,152.4 18.428724,-33.897079,121.92 18.428135,-33.898174,121.92 18.427277,-33.899525,91.44 18.426991,-33.900223,91.44 18.426991,-33.901062,60.96 18.429165,-33.901573,91.44 18.431528,-33.901978,121.92 18.433056,-33.902039,152.4 18.435402,-33.901852,182.88 18.437347,-33.901386,213.36 18.439823,-33.899963,213.36 18.441181,-33.898594,213.36 18.442064,-33.895569,243.84 18.441753,-33.893379,243.84 18.440609,-33.890308,274.32 18.439655,-33.888519,274.32 18.437519,-33.885189,304.8 18.435955,-33.883255,304.8 18.433628,-33.880672,335.28 18.431911,-33.878902,335.28 18.429337,-33.876575,335.28 18.427322,-33.875153,365.76 18.423672,-33.87392,365.76 18.42127,-33.873825,396.24 18.418747,-33.874146,426.72 18.414173,-33.875366,457.2 18.41114,-33.877041,457.2 18.410454,-33.879089,487.68 18.411964,-33.881287,518.16 18.413982,-33.882111,518.16 18.416897,-33.882156,548.64 18.419037,-33.881695,579.12 18.422241,-33.88044,579.12 18.423843,-33.879368,579.12 18.424801,-33.876938,609.6 18.423847,-33.875473,609.6 18.421213,-33.874741,609.6 18.418694,-33.875038,640.08 18.415552,-33.876068,640.08 18.413422,-33.876892,640.08 18.410284,-33.87822,670.56 18.408154,-33.879181,670.56 18.404902,-33.880692,701.04 18.402941,-33.881653,701.04 18.399801,-33.883255,701.04 18.397728,-33.884445,701.04 18.394644,-33.886276,701.04 18.392626,-33.887604,701.04 18.389544,-33.889801,701.04 18.387638,-33.891266,701.04 18.384892,-33.893509,701.04 18.382988,-33.895195,701.04 18.380241,-33.897617,701.04 18.378468,-33.899246,701.04 18.375721,-33.901806,701.04 18.374062,-33.903484,701.04 18.370598,-33.907059,701.04 18.369141,-33.908695,670.56 18.366842,-33.911453,670.56 18.36533,-33.913422,670.56 18.363144,-33.916306,640.08 18.361645,-33.918381,640.08 18.359779,-33.921204,640.08 18.358555,-33.923126,640.08 18.356585,-33.926559,609.6 18.355293,-33.928852,609.6 18.353519,-33.932392,609.6 18.352146,-33.936115,579.12 18.35339,-33.939148,640.08 18.355236,-33.939793,670.56 18.358267,-33.938599,701.04 18.359585,-33.937,701.04 18.360901,-33.934345,701.04 18.361685,-33.932465,701.04 18.362617,-33.929459,731.52 18.363075,-33.927086,731.52 18.363031,-33.923996,731.52 18.362471,-33.921936,762 18.360958,-33.919498,762 18.35907,-33.918381,792.48 18.356192,-33.919235,792.48 18.355463,-33.920837,792.48 18.354893,-33.923824,792.48 18.354435,-33.92606,792.48 18.353783,-33.92981,762 18.353405,-33.932114,762 18.352774,-33.93544,762 18.351288,-33.944218,762 18.348713,-33.959114,731.52 18.346104,-33.970596,701.04 18.342247,-33.982109,670.56 18.338928,-33.99482,640.08 18.339376,-34.003464,640.08 18.340015,-34.006271,640.08 18.340946,-34.009415,640.08 18.341787,-34.011887,640.08 18.342876,-34.015255,640.08 18.344925,-34.022781,670.56 18.348255,-34.034435,670.56 18.350372,-34.04216,670.56 18.353725,-34.052307,640.08 18.354607,-34.054405,640.08 18.356152,-34.057663,670.56 18.357201,-34.059723,670.56 18.359127,-34.063343,640.08 18.360271,-34.065392,640.08 18.362246,-34.068604,640.08 18.363592,-34.070709,640.08 18.36565,-34.073956,609.6 18.369484,-34.079731,579.12 18.375643,-34.089203,579.12 18.378239,-34.092812,579.12 18.380463,-34.09552,579.12 18.3822,-34.097443,579.12 18.384666,-34.100052,579.12 18.386629,-34.101974,579.12 18.38932,-34.104446,548.64 18.391001,-34.105911,548.64 18.394089,-34.10836,548.64 18.396149,-34.109802,548.64 18.399239,-34.111805,518.16 18.401484,-34.11319,518.16 18.405075,-34.115295,487.68 18.407312,-34.116577,487.68 18.410564,-34.118362,487.68 18.412571,-34.119392,487.68 18.415833,-34.121067,487.68 18.419252,-34.122757,487.68 18.422335,-34.124222,487.68 18.429165,-34.127632,457.2 18.435688,-34.13052,457.2 18.438091,-34.131355,457.2 18.441786,-34.13237,457.2 18.444307,-34.132553,457.2 18.448505,-34.131962,457.2 18.451023,-34.131168,457.2 18.454845,-34.12944,426.72 18.457312,-34.128021,426.72 18.460732,-34.125687,426.72 18.463211,-34.123909,396.24 18.466358,-34.121441,396.24 18.46859,-34.119438,426.72 18.471493,-34.116531,426.72 18.47323,-34.114563,426.72 18.4758,-34.111012,426.72 18.477058,-34.108547,457.2 18.478317,-34.105053,457.2 18.478891,-34.10257,457.2 18.479397,-34.098541,457.2 18.479452,-34.095703,457.2 18.479452,-34.091446,457.2 18.479397,-34.08902,457.2 18.479462,-34.084431,426.72 18.479862,-34.079079,426.72 18.480778,-34.075169,426.72 18.481976,-34.072403,426.72 18.483982,-34.069023,426.72 18.485731,-34.066406,426.72 18.487701,-34.063019,426.72 18.488731,-34.058872,426.72 18.48842,-34.055099,426.72 18.488085,-34.052078,426.72 18.487747,-34.047958,426.72 18.487524,-34.045166,426.72 18.487244,-34.041092,426.72 18.486851,-34.035828,426.72 18.485619,-34.022552,457.2 18.484833,-34.013351,457.2 18.484945,-34.007126,457.2 18.485113,-34.004013,457.2 18.485394,-33.999847,457.2 18.485756,-33.995796,457.2 18.486179,-33.99202,457.2 18.486671,-33.989231,457.2 18.487524,-33.985107,457.2 18.487972,-33.982544,426.72 18.488588,-33.971878,426.72 18.488701,-33.968948,426.72 18.488789,-33.964653,426.72 18.488756,-33.961945,426.72 18.488365,-33.958374,426.72 18.487747,-33.95549,426.72 18.486614,-33.951477,426.72 18.485786,-33.948807,426.72 18.48444,-33.944775,396.24 18.483488,-33.942352,396.24 18.481863,-33.938187,396.24 18.480206,-33.932858,396.24 18.477602,-33.926193,365.76 18.476372,-33.924198,365.76 18.473566,-33.920792,365.76 18.471336,-33.918518,365.76 18.46813,-33.915527,365.76 18.465944,-33.913467,365.76 18.462917,-33.910675,335.28 18.460506,-33.908386,335.28 18.454113,-33.901573,335.28 18.452225,-33.899387,304.8 18.447502,-33.895111,274.32 18.445765,-33.894104,274.32 18.442122,-33.893372,243.84 18.440327,-33.893646,243.84 18.437405,-33.894592,213.36 18.435802,-33.895195,213.36 18.433882,-33.896072,182.88 18.432257,-33.896851,152.4 18.43008,-33.89785,152.4 18.428535,-33.898689,121.92 18.427448,-33.899712,91.44 18.426991,-33.900364,60.96 18.427006,-33.901108,0
        </coordinates>
      </LineString>
    </Placemark>
  </Document>
</kml>