<?xml version="1.0" encoding="UTF-8"?>
<kml xmlns="http://www.opengis.net/kml/2.2">
  <Document>
    <name>-/ZTHOT - Optimised</name>
    <description><![CDATA[Optimised flight path with 1302 points (decimated from 6506 original points). Source format: Standard KML]]></description>
    
    <Style id="flightPath">
      <LineStyle>
        <color>ffff0000</color>
        <width>3</width>
      </LineStyle>
    </Style>
    
    <Placemark>
      <name>Flight Path</name>
      <description><![CDATA[<div style="width:220px; text-align:center;">
<div style="width:210px; text-align:center;">
<div style=" background: #000; color: #fff; font-size: 14px; text-align:left; border: 1px solid #000; padding: 2px 6px; text-shadow: 0 1px 0 #000; box-shadow: 0 1px 3px rgba(0,0,0,0.6); background: -webkit-gradient(linear, left top, left bottom, color-stop(0%,#808080), color-stop(2%,#303030), color-stop(100%,#0c0c0c));"><span style="font-size: 14px; font-weight: bold;"><a href="javascript:void(0);" style="color: #fff; cursor: pointer;text-decoration: none;">-</a></span> / ZTHOT<br/>Cape Town Helicopters</div>

<div style="border-top: 1px solid #005c90; color: #fff; padding-bottom: 5px; box-shadow: 0 0 1px #9BE3F6 inset, 0 1px 0 #9BE3F6 inset, 0 -1px 3px rgba(0,0,0,0.4); background:rgba(43,114,173,1); background: -webkit-gradient(linear, left top, left bottom, color-stop(0%,rgba(92,184,229,1)), color-stop(100%,rgba(43,114,173,1)));">
<a style="text-decoration: none; color: rgb(255, 255, 255); font-size: 12px; width:77px; display: inline-block;" title=" Airport" href="javascript:void(0);/departures"><h3 style="padding: 0px; margin: 10px 0px 0px; font-size: 16px; ">?</h3></a>
<span style="background: url(https://www.flightradar24.com/static/images/userUI_sprite.png?14) no-repeat scroll 0 -464px rgba(0, 0, 0, 0); border: medium none; display: inline-block; height: 16px; width: 45px;"></span>
<a style="text-decoration: none; color: rgb(255, 255, 255); font-size: 12px; width:77px; display: inline-block;" title=" Airport" href="javascript:void(0);/arrivals"><h3 style="padding: 0px; margin: 10px 0px 0px; font-size: 16px;">?</h3></a>
<div style=" margin-top:10px;">
<div style="display: inline-block; font-size: 12px; padding: 0 5px;">
<div>
<span style="color: #c1eaff;" title="Scheduled Time of Departure">STD </span>
<span title="2025-10-30 06:57">06:57</span> <span title="Coordinated Universal Time">UTC</span>
</div>
<div>
<span style="color: #c1eaff;" title="Actual Time of Departure">ATD </span>
<span title="2025-10-30 06:56">06:56</span> <span title="Coordinated Universal Time">UTC</span>
</div>
</div>
<div style="display: inline-block; font-size: 12px; padding: 0 5px;">
<div>
<span style="color: #c1eaff;" title="Estimated Time of Arrival">ETA </span>
<span title="2025-10-30 07:08">07:08</span> <span title="Coordinated Universal Time">UTC</span>
</div>
</div>
</div>
<br style="clear: both;"/>
</div>

<div style="display: block;">
<table style="border-collapse: collapse; width: 100%;">
<tr style="border-right: 1px solid #dadada; ">
<td style="background: none repeat scroll 0 0 #dadada; padding: 0; width: 31px;">
<span style="background: url(https://www.flightradar24.com/static/images/userUI_sprite.png?14) no-repeat scroll -208px -464px rgba(0, 0, 0, 0); height: 26px; margin: 8px 0 0 4px; width: 23px; display: block;"></span>
</td>
<td colspan="2" style="border-bottom: 1px solid #dadada; border-left: 1px solid #dadada; color: #666; line-height: 1.1em; padding: 3px 6px; vertical-align: top; font-size: 14px;">
Aircraft<span style="float: right; font-size: 12px;">(AS50)</span><br>
<span style="color: #333; font-size: 16px; font-weight: bold; line-height: 1.3em;">Airbus Helicopters H125</span>
</td>
</tr>
<tr style="border-right: 1px solid #dadada; ">
<td style="background: none repeat scroll 0 0 #dadada; padding: 0; width: 31px;">
<td colspan="2" style="border-bottom: 1px solid #dadada; border-left: 1px solid #dadada; color: #666; line-height: 1.1em; padding: 3px 6px; vertical-align: top; font-size: 14px;">
Registration<br>
<span style="color: #333; font-size: 16px; font-weight: bold; line-height: 1.3em;"><a href="https://www.flightradar24.com/reg/zt-hot" style="text-decoration: none; color: #333;">ZT-HOT</a></span>
</td>
</tr>
</table>
</div>

</div>
</div>]]></description>
      <styleUrl>#flightPath</styleUrl>
      <LineString>
        <extrude>1</extrude>
        <tessellate>1</tessellate>
        <altitudeMode>absolute</altitudeMode>
        <coordinates>
          18.427773,-33.897995,60.96 18.433685,-33.891285,121.92 18.434715,-33.89003,152.4 18.436348,-33.887466,152.4 18.436947,-33.885746,152.4 18.436796,-33.883163,182.88 18.435955,-33.881744,213.36 18.433714,-33.880234,274.32 18.432592,-33.879822,304.8 18.430126,-33.879272,335.28 18.428556,-33.879089,365.76 18.425865,-33.878815,396.24 18.424015,-33.878716,396.24 18.42071,-33.878586,396.24 18.418692,-33.878586,426.72 18.415552,-33.878494,426.72 18.413372,-33.878483,457.2 18.410172,-33.878448,457.2 18.407822,-33.878483,487.68 18.404734,-33.878632,487.68 18.4021,-33.878811,518.16 18.39838,-33.87923,518.16 18.39592,-33.879601,548.64 18.392458,-33.880371,548.64 18.389656,-33.881104,548.64 18.385565,-33.88266,579.12 18.383389,-33.883606,579.12 18.379623,-33.885406,579.12 18.377716,-33.886368,609.6 18.374241,-33.88829,609.6 18.372223,-33.889526,640.08 18.369141,-33.891613,640.08 18.367067,-33.893234,640.08 18.364264,-33.895615,670.56 18.362389,-33.897339,640.08 18.359837,-33.900055,640.08 18.358498,-33.901669,640.08 18.355968,-33.904816,670.56 18.354435,-33.906879,701.04 18.352436,-33.90976,701.04 18.351259,-33.911636,731.52 18.349579,-33.914291,731.52 18.34837,-33.916237,731.52 18.34672,-33.919006,762 18.345543,-33.921021,762 18.344086,-33.924042,792.48 18.343077,-33.926147,822.96 18.341789,-33.928715,853.44 18.340946,-33.930405,883.92 18.339272,-33.932903,914.4 18.337919,-33.934708,944.88 18.336582,-33.93821,1005.84 18.337471,-33.940063,1005.84 18.339443,-33.942169,1005.84 18.341171,-33.94368,1005.84 18.343849,-33.945614,1036.32 18.345655,-33.946747,1036.32 18.349131,-33.948578,1036.32 18.350887,-33.949944,1036.32 18.353348,-33.952408,1036.32 18.35535,-33.952549,1036.32 18.35701,-33.950592,975.36 18.357313,-33.948853,944.88 18.357754,-33.946171,914.4 18.358042,-33.944458,883.92 18.358727,-33.941704,853.44 18.359299,-33.939747,822.96 18.360271,-33.936722,792.48 18.360901,-33.934952,762 18.362103,-33.93174,701.04 18.362864,-33.929855,670.56 18.364391,-33.926434,640.08 18.36544,-33.9245,640.08 18.367516,-33.920792,609.6 18.368797,-33.918846,579.12 18.37071,-33.916077,579.12 18.37228,-33.914017,579.12 18.374519,-33.91135,579.12 18.375978,-33.909668,548.64 18.378334,-33.907104,548.64 18.380014,-33.905411,548.64 18.382416,-33.903202,548.64 18.384132,-33.90176,548.64 18.38665,-33.899807,548.64 18.388767,-33.898315,548.64 18.391506,-33.89653,548.64 18.393747,-33.895203,548.64 18.396721,-33.893566,548.64 18.398792,-33.892456,548.64 18.401875,-33.890991,548.64 18.404102,-33.890308,548.64 18.407593,-33.889565,548.64 18.410227,-33.889114,518.16 18.414207,-33.888565,487.68 18.416805,-33.888168,487.68 18.421045,-33.887558,457.2 18.42766,-33.886734,426.72 18.433041,-33.886322,396.24 18.43586,-33.886307,396.24 18.440037,-33.886539,396.24 18.442497,-33.886818,396.24 18.446213,-33.88797,396.24 18.448008,-33.889206,396.24 18.449856,-33.891495,365.76 18.450451,-33.893288,365.76 18.450508,-33.895756,335.28 18.449856,-33.897354,335.28 18.448008,-33.899139,304.8 18.446503,-33.899479,304.8 18.443813,-33.898827,243.84 18.442177,-33.898178,213.36 18.439598,-33.8974,182.88 18.436348,-33.898132,152.4 18.43433,-33.899002,121.92 18.432537,-33.899597,91.44 18.42979,-33.900146,60.96 18.427849,-33.900455,30.48 18.427391,-33.899853,30.48 18.427715,-33.899139,60.96 18.428936,-33.897526,60.96 18.429678,-33.896484,91.44 18.431168,-33.894592,91.44 18.432257,-33.89328,121.92 18.434143,-33.891239,152.4 18.435059,-33.889847,152.4 18.436235,-33.887421,182.88 18.436661,-33.8857,182.88 18.436604,-33.883511,213.36 18.43586,-33.88216,243.84 18.433914,-33.880581,274.32 18.432537,-33.880005,304.8 18.429794,-33.879276,304.8 18.42802,-33.879089,335.28 18.425446,-33.878948,365.76 18.423615,-33.878902,396.24 18.420696,-33.878857,396.24 18.418922,-33.878902,426.72 18.415775,-33.878948,457.2 18.413658,-33.879089,457.2 18.410675,-33.879272,487.68 18.408451,-33.879509,518.16 18.405476,-33.879696,518.16 18.40313,-33.879929,548.64 18.399925,-33.880344,548.64 18.397293,-33.880814,548.64 18.393631,-33.881695,579.12 18.391342,-33.882393,579.12 18.387852,-33.88356,609.6 18.385448,-33.884441,609.6 18.382072,-33.885746,609.6 18.379343,-33.887146,609.6 18.375923,-33.889252,640.08 18.374004,-33.890495,640.08 18.370857,-33.892635,640.08 18.368748,-33.89415,640.08 18.366114,-33.896347,640.08 18.364105,-33.898129,670.56 18.361629,-33.900513,670.56 18.359947,-33.902252,670.56 18.357296,-33.9053,701.04 18.35598,-33.907021,701.04 18.353863,-33.909767,701.04 18.352661,-33.911316,701.04 18.350811,-33.913925,731.52 18.3494,-33.915958,731.52 18.347448,-33.919006,731.52 18.346424,-33.920753,762 18.344702,-33.923767,762 18.343637,-33.925735,762 18.342361,-33.928154,822.96 18.34145,-33.929672,822.96 18.339844,-33.932064,853.44 18.33876,-33.933655,853.44 18.33744,-33.936302,883.92 18.337191,-33.938461,883.92 18.337555,-33.941471,883.92 18.338585,-33.943611,853.44 18.341059,-33.946426,853.44 18.343019,-33.947845,822.96 18.346552,-33.949173,792.48 18.349131,-33.949356,792.48 18.353462,-33.947613,762 18.355064,-33.945797,731.52 18.356895,-33.94305,701.04 18.357983,-33.941284,701.04 18.359779,-33.938232,670.56 18.360846,-33.936401,670.56 18.362583,-33.93338,640.08 18.36376,-33.931137,640.08 18.365421,-33.928108,640.08 18.366623,-33.926105,609.6 18.368467,-33.923035,609.6 18.369484,-33.921452,579.12 18.371494,-33.918732,579.12 18.373064,-33.916763,579.12 18.375378,-33.914005,548.64 18.377155,-33.912048,548.64 18.379623,-33.909393,548.64 18.3815,-33.907486,518.16 18.383995,-33.905228,518.16 18.385963,-33.903667,518.16 18.388538,-33.901714,548.64 18.390484,-33.900318,548.64 18.393187,-33.898544,548.64 18.395149,-33.897263,548.64 18.397865,-33.895523,548.64 18.40004,-33.894264,548.64 18.402958,-33.892731,548.64 18.405182,-33.891678,548.64 18.408266,-33.890259,548.64 18.410454,-33.889378,548.64 18.414059,-33.888027,548.64 18.416119,-33.887329,548.64 18.419666,-33.886257,518.16 18.422241,-33.885654,518.16 18.425922,-33.885178,487.68 18.428331,-33.885178,487.68 18.432369,-33.885559,457.2 18.43483,-33.885887,457.2 18.438835,-33.886631,426.72 18.441,-33.887146,426.72 18.4447,-33.888382,396.24 18.446674,-33.889286,396.24 18.449352,-33.89122,396.24 18.450165,-33.893101,365.76 18.449078,-33.895336,365.76 18.44767,-33.89653,335.28 18.445473,-33.897991,304.8 18.443928,-33.898872,274.32 18.441729,-33.899918,243.84 18.439751,-33.90004,182.88 18.437576,-33.899059,152.4 18.436293,-33.898361,121.92 18.434029,-33.898315,121.92 18.43276,-33.898773,91.44 18.427563,-33.900505,30.48 18.427334,-33.90004,60.96 18.427906,-33.898594,60.96 18.428724,-33.897446,60.96 18.430138,-33.895615,91.44 18.430996,-33.894547,121.92 18.432541,-33.892544,121.92 18.433456,-33.891285,152.4 18.435059,-33.888977,182.88 18.436012,-33.887375,182.88 18.436661,-33.884907,213.36 18.436489,-33.883419,243.84 18.435173,-33.881184,274.32 18.433743,-33.880066,274.32 18.430653,-33.878902,335.28 18.428936,-33.878532,365.76 18.426035,-33.877762,365.76 18.424185,-33.877304,396.24 18.420868,-33.876854,396.24 18.418694,-33.876762,426.72 18.415089,-33.876854,457.2 18.412857,-33.877041,487.68 18.409882,-33.877552,518.16 18.407986,-33.877991,518.16 18.405071,-33.878769,548.64 18.402603,-33.879501,548.64 18.399239,-33.880581,579.12 18.39711,-33.881287,579.12 18.393524,-33.882248,609.6 18.391338,-33.882843,640.08 18.388031,-33.883896,670.56 18.385963,-33.884815,670.56 18.382988,-33.886444,670.56 18.380968,-33.887787,701.04 18.377438,-33.890308,701.04 18.37553,-33.891861,701.04 18.372688,-33.894127,701.04 18.370823,-33.89566,731.52 18.368019,-33.898087,731.52 18.366051,-33.899853,731.52 18.361965,-33.903763,762 18.36034,-33.905457,762 18.357983,-33.907997,762 18.356529,-33.90976,792.48 18.354435,-33.912281,792.48 18.35289,-33.914284,792.48 18.350716,-33.917076,822.96 18.349411,-33.918961,822.96 18.347855,-33.921684,822.96 18.346832,-33.92363,822.96 18.34515,-33.926834,853.44 18.344196,-33.928665,853.44 18.342403,-33.931549,853.44 18.341045,-33.933464,853.44 18.339264,-33.93663,883.92 18.338757,-33.938957,914.4 18.337526,-33.941574,944.88 18.336468,-33.942818,975.36 18.335005,-33.943863,1005.84 18.333664,-33.946499,1036.32 18.335094,-33.949104,1005.84 18.336582,-33.9505,1005.84 18.339901,-33.952503,1005.84 18.34219,-33.953526,1005.84 18.345823,-33.954437,1005.84 18.349689,-33.954163,1005.84 18.352776,-33.952736,1005.84 18.354664,-33.951012,975.36 18.356304,-33.948303,944.88 18.35709,-33.946106,944.88 18.357929,-33.943085,914.4 18.358547,-33.940979,883.92 18.359528,-33.937466,853.44 18.360271,-33.935139,822.96 18.361685,-33.931641,792.48 18.362675,-33.92955,762 18.364264,-33.926559,731.52 18.365498,-33.924362,731.52 18.36731,-33.921497,701.04 18.36886,-33.919281,670.56 18.370823,-33.916718,640.08 18.372448,-33.914749,609.6 18.374802,-33.912094,579.12 18.376522,-33.910324,579.12 18.379343,-33.907608,548.64 18.380814,-33.906136,518.16 18.383446,-33.903576,518.16 18.385048,-33.901993,487.68 18.389151,-33.898132,487.68 18.390827,-33.896732,487.68 18.393574,-33.89473,487.68 18.395405,-33.893661,487.68 18.398457,-33.89209,518.16 18.40053,-33.89122,518.16 18.403389,-33.890076,518.16 18.405704,-33.889378,518.16 18.409105,-33.888565,518.16 18.411427,-33.888119,518.16 18.415031,-33.887421,518.16 18.417458,-33.887009,518.16 18.421158,-33.886276,518.16 18.423157,-33.885792,518.16 18.426762,-33.885468,518.16 18.429394,-33.885513,487.68 18.433399,-33.885746,487.68 18.435745,-33.885979,487.68 18.43943,-33.886459,457.2 18.441616,-33.88678,457.2 18.445072,-33.887562,426.72 18.44739,-33.888382,426.72 18.450565,-33.889935,396.24 18.452547,-33.891266,365.76 18.455126,-33.893784,335.28 18.456001,-33.895569,335.28 18.454845,-33.898041,365.76 18.453108,-33.898499,365.76 18.450529,-33.89772,335.28 18.448849,-33.896778,335.28 18.446381,-33.895477,274.32 18.443756,-33.894497,243.84 18.440781,-33.895058,213.36 18.439039,-33.895935,182.88 18.43626,-33.897526,121.92 18.434946,-33.89827,121.92 18.431053,-33.899666,91.44 18.42802,-33.90041,60.96 18.427044,-33.900925,30.48 18.427099,-33.900101,60.96 18.427828,-33.898682,60.96 18.428764,-33.897758,91.44 18.43063,-33.896255,91.44 18.431911,-33.895012,121.92 18.433228,-33.892963,152.4 18.434086,-33.891518,152.4 18.435394,-33.889023,182.88 18.436068,-33.887604,213.36 18.436661,-33.885094,243.84 18.436203,-33.883419,243.84 18.434372,-33.881603,274.32 18.432541,-33.880764,304.8 18.429453,-33.880234,335.28 18.427492,-33.880142,365.76 18.424015,-33.880112,396.24 18.422222,-33.880051,396.24 18.419083,-33.880005,426.72 18.416954,-33.880051,457.2 18.41415,-33.880188,487.68 18.412189,-33.880325,518.16 18.408852,-33.880718,548.64 18.406696,-33.881012,548.64 18.403645,-33.881462,579.12 18.401371,-33.881882,579.12 18.398037,-33.882626,609.6 18.395863,-33.883141,609.6 18.392515,-33.884125,640.08 18.390312,-33.884861,640.08 18.386822,-33.886353,670.56 18.384304,-33.887562,670.56 18.381271,-33.889378,670.56 18.379326,-33.890865,670.56 18.376652,-33.89296,701.04 18.374691,-33.894497,701.04 18.371552,-33.896942,701.04 18.369869,-33.898361,731.52 18.367023,-33.900829,731.52 18.365192,-33.902458,731.52 18.362583,-33.905182,762 18.361069,-33.906967,762 18.358828,-33.909714,762 18.357239,-33.91177,762 18.355064,-33.914562,792.48 18.353519,-33.916752,822.96 18.351402,-33.919777,822.96 18.350258,-33.921684,853.44 18.348738,-33.924454,853.44 18.347784,-33.926468,853.44 18.346424,-33.930298,883.92 18.344994,-33.935696,914.4 18.344421,-33.939056,914.4 18.344021,-33.941189,914.4 18.342852,-33.944595,944.88 18.341904,-33.946545,944.88 18.340385,-33.94931,975.36 18.339386,-33.951199,1005.84 18.338127,-33.953712,1005.84 18.337246,-33.955444,1036.32 18.336126,-33.957962,1066.8 18.335209,-33.960136,1066.8 18.332233,-33.96563,1066.8 18.329201,-33.970238,1097.28 18.324074,-33.978561,1066.8 18.322897,-33.980804,1066.8 18.321133,-33.984066,1066.8 18.319983,-33.986252,1066.8 18.318245,-33.989319,1097.28 18.316843,-33.99147,1097.28 18.314657,-33.994629,1097.28 18.313313,-33.996552,1097.28 18.311119,-33.999474,1097.28 18.309612,-34.001404,1097.28 18.307314,-34.004333,1097.28 18.303783,-34.008911,1127.76 18.300705,-34.012741,1127.76 18.298964,-34.014633,1127.76 18.29607,-34.017162,1127.76 18.294086,-34.018707,1097.28 18.290863,-34.021072,1127.76 18.288986,-34.022461,1127.76 18.286057,-34.024471,1127.76 18.284454,-34.025681,1127.76 18.282652,-34.028137,1127.76 18.28228,-34.030151,1127.76 18.282932,-34.03299,1127.76 18.284277,-34.035049,1097.28 18.286972,-34.037319,1097.28 18.289265,-34.038437,1066.8 18.292685,-34.039215,1066.8 18.29487,-34.039032,1066.8 18.297615,-34.037785,1036.32 18.299187,-34.036148,1005.84 18.301092,-34.033585,975.36 18.302593,-34.031593,944.88 18.304735,-34.028549,914.4 18.306198,-34.026566,883.92 18.308268,-34.023651,853.44 18.311743,-34.019394,792.48 18.314266,-34.016464,762 18.316002,-34.014496,762 18.318413,-34.011612,731.52 18.319931,-34.009575,701.04 18.322113,-34.006302,670.56 18.323364,-34.004269,670.56 18.325251,-34.001083,640.08 18.326372,-33.999115,640.08 18.332577,-33.987881,609.6 18.338816,-33.978699,609.6 18.344707,-33.96954,609.6 18.347225,-33.965118,609.6 18.352268,-33.955582,609.6 18.353054,-33.953659,609.6 18.354435,-33.950222,609.6 18.35535,-33.947895,609.6 18.357201,-33.942902,609.6 18.359871,-33.935513,579.12 18.361473,-33.931648,579.12 18.362389,-33.9296,579.12 18.363876,-33.926712,609.6 18.364824,-33.925003,579.12 18.366562,-33.922302,579.12 18.367796,-33.920425,579.12 18.369827,-33.917587,579.12 18.371029,-33.91605,579.12 18.373232,-33.913376,579.12 18.374746,-33.911682,579.12 18.37698,-33.909302,579.12 18.378525,-33.907719,579.12 18.380856,-33.905502,579.12 18.382587,-33.90395,579.12 18.38534,-33.901657,579.12 18.386936,-33.900505,548.64 18.389912,-33.898457,548.64 18.391857,-33.897198,548.64 18.395004,-33.895428,548.64 18.397167,-33.894241,548.64 18.400475,-33.892685,548.64 18.402271,-33.891937,548.64 18.405762,-33.890495,518.16 18.407993,-33.88961,518.16 18.411684,-33.888382,518.16 18.414095,-33.887833,518.16 18.417549,-33.887188,518.16 18.420124,-33.886772,518.16 18.42396,-33.886185,518.16 18.426315,-33.885864,518.16 18.430252,-33.8857,487.68 18.433096,-33.885818,487.68 18.436832,-33.88612,487.68 18.439318,-33.886414,487.68 18.44313,-33.887009,457.2 18.445873,-33.887608,457.2 18.449135,-33.888538,426.72 18.451258,-33.889572,426.72 18.453026,-33.891518,396.24 18.453444,-33.893188,396.24 18.452547,-33.895203,365.76 18.450794,-33.896175,335.28 18.447819,-33.896221,274.32 18.446274,-33.89608,274.32 18.442963,-33.895935,213.36 18.440664,-33.896072,182.88 18.437021,-33.896988,152.4 18.435287,-33.897663,152.4 18.433153,-33.898819,121.92 18.432198,-33.899338,91.44 18.42794,-33.900421,60.96 18.427334,-33.900085,60.96 18.428444,-33.898087,91.44 18.429279,-33.89706,91.44 18.43071,-33.895195,121.92 18.43174,-33.893753,152.4 18.433041,-33.891953,152.4 18.434029,-33.890495,182.88 18.435402,-33.888119,213.36 18.436031,-33.886585,213.36 18.436403,-33.88385,243.84 18.436031,-33.88216,274.32 18.434443,-33.879913,304.8 18.432816,-33.878815,304.8 18.429909,-33.877739,335.28 18.427906,-33.877274,365.76 18.424873,-33.8769,396.24 18.422615,-33.876755,396.24 18.419195,-33.876755,426.72 18.416977,-33.876762,457.2 18.413647,-33.876938,487.68 18.411541,-33.877132,487.68 18.408337,-33.877598,518.16 18.406334,-33.878017,548.64 18.403301,-33.878857,548.64 18.400784,-33.879646,579.12 18.397615,-33.880875,579.12 18.39571,-33.881699,579.12 18.39229,-33.883438,609.6 18.390255,-33.884583,609.6 18.387108,-33.88649,609.6 18.385227,-33.887695,640.08 18.382244,-33.88961,640.08 18.380184,-33.890961,670.56 18.377268,-33.89296,670.56 18.37532,-33.89436,701.04 18.372402,-33.896687,701.04 18.370628,-33.898174,701.04 18.368132,-33.900421,731.52 18.366451,-33.902039,731.52 18.363991,-33.904507,731.52 18.36219,-33.906418,731.52 18.359642,-33.909348,731.52 18.358154,-33.911259,731.52 18.356152,-33.914051,731.52 18.354549,-33.91647,731.52 18.352549,-33.919556,762 18.351345,-33.921452,762 18.349571,-33.924526,762 18.348427,-33.926758,762 18.346882,-33.929924,762 18.345823,-33.93219,762 18.344366,-33.935577,762 18.343563,-33.937653,762 18.3419,-33.942581,762 18.341045,-33.944866,762 18.339615,-33.948406,792.48 18.33876,-33.950272,792.48 18.337269,-33.954876,762 18.341227,-33.961853,762 18.353176,-33.959949,701.04 18.355911,-33.954758,670.56 18.356953,-33.951618,670.56 18.357538,-33.949493,670.56 18.35849,-33.946152,640.08 18.358995,-33.944321,640.08 18.360214,-33.940536,640.08 18.360901,-33.938629,640.08 18.36191,-33.93544,640.08 18.362471,-33.93338,640.08 18.363144,-33.930084,640.08 18.363705,-33.927921,640.08 18.364677,-33.925083,640.08 18.365479,-33.923267,640.08 18.367178,-33.920471,640.08 18.36834,-33.918797,640.08 18.370485,-33.916122,640.08 18.371887,-33.914562,609.6 18.374186,-33.912094,609.6 18.375755,-33.910263,609.6 18.377941,-33.907837,609.6 18.379454,-33.906189,609.6 18.381786,-33.903717,609.6 18.383266,-33.902161,609.6 18.385849,-33.89962,609.6 18.387566,-33.898129,579.12 18.390541,-33.896034,579.12 18.392487,-33.894825,579.12 18.395748,-33.893147,548.64 18.39798,-33.892216,548.64 18.401707,-33.890945,518.16 18.404285,-33.890121,518.16 18.407928,-33.889114,487.68 18.410454,-33.888493,487.68 18.414431,-33.887512,457.2 18.41692,-33.886955,457.2 18.420811,-33.886211,426.72 18.4231,-33.885933,426.72 18.427044,-33.885864,396.24 18.42951,-33.886139,396.24 18.432537,-33.887009,365.76 18.434486,-33.887936,365.76 18.436718,-33.889469,335.28 18.43803,-33.890671,335.28 18.439487,-33.892502,304.8 18.440151,-33.893566,274.32 18.440609,-33.895382,243.84 18.440439,-33.896576,213.36 18.439039,-33.89827,182.88 18.437805,-33.898689,182.88 18.435507,-33.898865,152.4 18.433971,-33.898968,121.92 18.430195,-33.899757,91.44 18.427547,-33.900558,60.96 18.427435,-33.899597,60.96 18.427996,-33.898499,60.96 18.42923,-33.896851,91.44 18.430126,-33.895569,121.92 18.431416,-33.893738,152.4 18.432367,-33.89241,182.88 18.433514,-33.8904,213.36 18.434275,-33.888931,213.36 18.435059,-33.886414,243.84 18.435116,-33.884491,243.84 18.434143,-33.881882,274.32 18.433208,-33.880692,304.8 18.430767,-33.878624,304.8 18.429062,-33.877716,335.28 18.426018,-33.876667,335.28 18.423901,-33.876202,365.76 18.419952,-33.87569,365.76 18.41757,-33.87561,396.24 18.41387,-33.875656,396.24 18.411827,-33.875877,426.72 18.408165,-33.876575,426.72 18.40608,-33.877121,457.2 18.403015,-33.878204,457.2 18.401035,-33.878998,487.68 18.397951,-33.880463,487.68 18.396158,-33.881424,518.16 18.393467,-33.88298,518.16 18.391281,-33.884354,518.16 18.388367,-33.886257,548.64 18.386536,-33.887516,548.64 18.383732,-33.889469,579.12 18.38209,-33.890762,579.12 18.379679,-33.892639,609.6 18.377605,-33.894241,609.6 18.37492,-33.896221,640.08 18.373064,-33.897675,640.08 18.370037,-33.900146,670.56 18.368244,-33.90184,670.56 18.365833,-33.904358,670.56 18.364277,-33.906136,670.56 18.362045,-33.908882,670.56 18.360615,-33.910793,670.56 18.358555,-33.913864,701.04 18.357258,-33.915894,701.04 18.355688,-33.918686,701.04 18.354511,-33.920929,701.04 18.353165,-33.923904,731.52 18.352213,-33.926147,731.52 18.350773,-33.929924,731.52 18.349241,-33.934296,731.52 18.347912,-33.937511,731.52 18.346596,-33.941376,762 18.345737,-33.944496,762 18.34515,-33.947205,762 18.343563,-33.953247,762 18.342018,-33.957901,762 18.33848,-33.967163,762 18.335953,-33.97266,792.48 18.32983,-33.983414,792.48 18.326569,-33.988533,792.48 18.320711,-33.997604,792.48 18.319473,-33.999985,792.48 18.317528,-34.003571,792.48 18.316282,-34.005844,792.48 18.314657,-34.008911,792.48 18.311863,-34.013813,792.48 18.304768,-34.026474,762 18.302593,-34.030849,762 18.30143,-34.034317,792.48 18.300701,-34.036972,762 18.300476,-34.040531,853.44 18.301163,-34.041512,883.92 18.302879,-34.042488,914.4 18.304253,-34.042953,914.4 18.307539,-34.043701,883.92 18.309689,-34.043697,853.44 18.313122,-34.042488,822.96 18.314552,-34.040997,792.48 18.31673,-34.038254,762 18.318329,-34.0369,731.52 18.321775,-34.035324,670.56 18.32497,-34.034866,640.08 18.328686,-34.034248,640.08 18.330116,-34.033176,670.56 18.330521,-34.030518,609.6 18.330576,-34.028549,609.6 18.330631,-34.025635,609.6 18.330463,-34.023743,579.12 18.330185,-34.02063,579.12 18.330002,-34.018745,579.12 18.329945,-34.015999,609.6 18.330059,-34.014183,579.12 18.330688,-34.011158,609.6 18.331375,-34.009109,609.6 18.332594,-34.00621,609.6 18.333435,-34.004379,609.6 18.334837,-34.001678,609.6 18.335957,-33.999619,609.6 18.341675,-33.990829,609.6 18.347168,-33.984512,609.6 18.352268,-33.977875,609.6 18.354893,-33.973312,609.6 18.357651,-33.965698,640.08 18.358669,-33.961578,640.08 18.359667,-33.955765,640.08 18.359892,-33.953979,640.08 18.360271,-33.950687,640.08 18.360565,-33.948532,609.6 18.361931,-33.939606,609.6 18.362694,-33.936127,609.6 18.36359,-33.933136,609.6 18.364376,-33.930908,609.6 18.36565,-33.927738,579.12 18.366394,-33.92601,579.12 18.367964,-33.922668,579.12 18.368916,-33.920975,579.12 18.370914,-33.918098,579.12 18.372345,-33.91647,579.12 18.374691,-33.914143,579.12 18.376091,-33.912735,579.12 18.378468,-33.910278,579.12 18.379955,-33.908791,579.12 18.3822,-33.906464,579.12 18.38377,-33.90477,579.12 18.386021,-33.902225,609.6 18.387583,-33.900467,609.6 18.390026,-33.898037,579.12 18.3918,-33.896732,579.12 18.395205,-33.894745,548.64 18.397671,-33.893555,548.64 18.401871,-33.891983,518.16 18.40451,-33.891083,518.16 18.408714,-33.889893,487.68 18.411083,-33.889286,487.68 18.414879,-33.888336,457.2 18.417234,-33.887833,457.2 18.421211,-33.886955,426.72 18.42396,-33.886414,426.72 18.427906,-33.886166,396.24 18.430407,-33.886322,396.24 18.433971,-33.887142,365.76 18.436012,-33.887924,335.28 18.438377,-33.889519,304.8 18.439636,-33.891006,304.8 18.440384,-33.893005,274.32 18.440437,-33.894451,243.84 18.439407,-33.896358,213.36 18.438091,-33.897339,182.88 18.435116,-33.898224,152.4 18.433153,-33.898682,121.92 18.429285,-33.899918,60.96 18.427715,-33.900467,60.96 18.427391,-33.899292,91.44 18.427849,-33.898129,91.44 18.428892,-33.896622,121.92 18.429966,-33.895477,121.92 18.431568,-33.893661,152.4 18.432598,-33.892448,182.88 18.434315,-33.890495,182.88 18.435339,-33.889114,213.36 18.436661,-33.887005,213.36 18.437061,-33.885422,243.84 18.436604,-33.882954,274.32 18.435745,-33.881744,304.8 18.433456,-33.880344,335.28 18.431808,-33.879822,365.76 18.429222,-33.879135,396.24 18.427448,-33.878811,426.72 18.424873,-33.878391,457.2 18.422951,-33.878128,457.2 18.420372,-33.878677,518.16 18.419643,-33.879639,548.64 18.419756,-33.881287,579.12 18.420582,-33.882114,579.12 18.422527,-33.882999,609.6 18.423843,-33.882999,609.6 18.424913,-33.881607,609.6 18.424244,-33.880253,609.6 18.421551,-33.879272,609.6 18.419495,-33.879089,609.6 18.415888,-33.878769,609.6 18.413479,-33.878632,640.08 18.409939,-33.878483,640.08 18.407312,-33.878494,640.08 18.403759,-33.878624,640.08 18.401316,-33.87886,670.56 18.397522,-33.879276,670.56 18.39529,-33.879696,670.56 18.391394,-33.880829,670.56 18.388927,-33.881836,670.56 18.385677,-33.883511,670.56 18.383389,-33.884815,670.56 18.380413,-33.886677,670.56 18.378239,-33.888027,670.56 18.375206,-33.89003,701.04 18.373289,-33.891403,701.04 18.370171,-33.893753,701.04 18.36834,-33.895245,701.04 18.365778,-33.897583,731.52 18.363873,-33.899368,731.52 18.361187,-33.902084,731.52 18.359528,-33.903996,731.52 18.357201,-33.90683,731.52 18.355688,-33.908798,731.52 18.353615,-33.911728,731.52 18.352318,-33.913773,762 18.350544,-33.916656,762 18.349457,-33.918705,792.48 18.348232,-33.921387,792.48 18.347397,-33.923409,792.48 18.346272,-33.926376,822.96 18.345375,-33.928894,822.96 18.34425,-33.931881,853.44 18.343449,-33.933743,853.44 18.34201,-33.93782,883.92 18.341732,-33.939701,914.4 18.34173,-33.94313,944.88 18.341961,-33.944916,975.36 18.342876,-33.947521,1005.84 18.343861,-33.948853,1036.32 18.346159,-33.9505,1066.8 18.347952,-33.951141,1066.8 18.35083,-33.951012,1097.28 18.352547,-33.950176,1097.28 18.354378,-33.947941,1097.28 18.355122,-33.946312,1097.28 18.355579,-33.943935,1097.28 18.355179,-33.942402,1127.76 18.352774,-33.941162,1097.28 18.35083,-33.941654,1097.28 18.34837,-33.944309,1066.8 18.346996,-33.946499,1036.32 18.34528,-33.949478,1066.8 18.344086,-33.951599,1036.32 18.342068,-33.955124,1036.32 18.340588,-33.957668,1005.84 18.336237,-33.965057,1005.84 18.327438,-33.978699,944.88 18.319702,-33.99007,914.4 18.316788,-33.994492,914.4 18.313007,-34.000217,883.92 18.310566,-34.003738,883.92 18.306541,-34.009388,853.44 18.304792,-34.011932,853.44 18.300648,-34.018559,822.96 18.297897,-34.024521,792.48 18.296986,-34.028194,762 18.296608,-34.031616,762 18.2967,-34.035736,731.52 18.2971,-34.038437,731.52 18.298016,-34.042301,731.52 18.298988,-34.045189,731.52 18.300362,-34.048771,701.04 18.30126,-34.050888,701.04 18.302994,-34.054497,701.04 18.30431,-34.056778,731.52 18.306427,-34.059666,731.52 18.308268,-34.061417,731.52 18.311176,-34.063622,731.52 18.313351,-34.065113,731.52 18.316507,-34.067047,762 18.318581,-34.068237,762 18.321945,-34.070435,762 18.323307,-34.072048,762 18.32486,-34.075607,762 18.325653,-34.078239,762 18.326429,-34.08165,731.52 18.326765,-34.083984,731.52 18.327026,-34.087688,731.52 18.327198,-34.090202,731.52 18.327484,-34.094112,762 18.327599,-34.096302,762 18.328056,-34.099373,762 18.328629,-34.101421,792.48 18.330231,-34.104729,792.48 18.331362,-34.106552,792.48 18.33181,-34.10994,792.48 18.330744,-34.112137,792.48 18.328056,-34.115108,792.48 18.325939,-34.116924,762 18.322849,-34.119297,762 18.320711,-34.120834,731.52 18.317184,-34.123302,731.52 18.314896,-34.124977,731.52 18.311855,-34.127563,701.04 18.308659,-34.130936,701.04 18.305626,-34.135777,701.04 18.304539,-34.13876,701.04 18.303738,-34.14397,701.04 18.304024,-34.14653,701.04 18.304792,-34.150177,701.04 18.305397,-34.152443,701.04 18.306599,-34.156353,701.04 18.307514,-34.158588,701.04 18.309116,-34.162128,701.04 18.310509,-34.164825,701.04 18.312584,-34.168213,670.56 18.314041,-34.170227,670.56 18.316727,-34.17358,670.56 18.318672,-34.175766,670.56 18.321705,-34.178654,670.56 18.323793,-34.180573,670.56 18.326708,-34.183182,670.56 18.3288,-34.184982,670.56 18.332348,-34.187824,670.56 18.334408,-34.18964,670.56 18.337097,-34.192291,670.56 18.338535,-34.194031,670.56 18.3433,-34.201172,701.04 18.344421,-34.203278,701.04 18.346195,-34.206257,731.52 18.347569,-34.208355,731.52 18.349298,-34.211288,731.52 18.350307,-34.213486,762 18.351688,-34.216778,731.52 18.352432,-34.218643,731.52 18.353806,-34.222412,731.52 18.354549,-34.224785,731.52 18.355576,-34.228546,701.04 18.356438,-34.231628,701.04 18.357258,-34.235138,701.04 18.357868,-34.237961,701.04 18.358547,-34.241684,701.04 18.358841,-34.244106,701.04 18.359299,-34.248016,701.04 18.359642,-34.250622,670.56 18.360397,-34.25473,670.56 18.360844,-34.257,670.56 18.361855,-34.260864,640.08 18.362732,-34.263611,640.08 18.364151,-34.267273,640.08 18.365307,-34.269756,640.08 18.367081,-34.273247,640.08 18.368467,-34.275787,640.08 18.370205,-34.278946,640.08 18.371544,-34.281254,640.08 18.373489,-34.284512,609.6 18.389111,-34.308811,609.6 18.397951,-34.318497,640.08 18.399925,-34.320404,640.08 18.403837,-34.324127,640.08 18.406752,-34.326874,640.08 18.411964,-34.331863,640.08 18.414207,-34.333786,640.08 18.418293,-34.336929,640.08 18.420582,-34.338558,640.08 18.424244,-34.340981,640.08 18.426647,-34.342564,640.08 18.430239,-34.344955,609.6 18.432032,-34.346237,609.6 18.436348,-34.349258,609.6 18.438663,-34.351177,640.08 18.441467,-34.353642,640.08 18.443584,-34.355503,640.08 18.446606,-34.358093,640.08 18.448334,-34.3596,670.56 18.450865,-34.362213,670.56 18.452492,-34.364227,701.04 18.454571,-34.367096,731.52 18.455944,-34.369144,731.52 18.457203,-34.372032,731.52 18.459435,-34.375477,792.48 18.46241,-34.377197,792.48 18.464699,-34.378036,792.48 18.468418,-34.379059,792.48 18.471279,-34.379524,792.48 18.474968,-34.379929,792.48 18.477573,-34.380039,822.96 18.481806,-34.380112,822.96 18.484722,-34.380112,822.96 18.488869,-34.379929,792.48 18.491503,-34.379791,792.48 18.495941,-34.379246,792.48 18.498516,-34.378826,792.48 18.501873,-34.377731,853.44 18.502546,-34.376175,853.44 18.501492,-34.374081,883.92 18.500416,-34.372879,853.44 18.49851,-34.37114,853.44 18.496996,-34.370178,822.96 18.494339,-34.369053,822.96 18.492289,-34.36853,792.48 18.488846,-34.368073,762 18.486403,-34.367844,731.52 18.482479,-34.367661,670.56 18.479788,-34.367752,640.08 18.476543,-34.369003,640.08 18.476818,-34.372055,640.08 18.480663,-34.372402,609.6 18.483095,-34.372147,609.6 18.48674,-34.37178,609.6 18.489317,-34.371552,579.12 18.492962,-34.371094,579.12 18.495369,-34.370586,579.12 18.498688,-34.369473,579.12 18.500751,-34.368393,579.12 18.503443,-34.36615,579.12 18.504524,-34.364349,579.12 18.505383,-34.361511,579.12 18.505461,-34.359329,579.12 18.504524,-34.356064,548.64 18.503443,-34.353973,548.64 18.501549,-34.350758,518.16 18.500416,-34.348801,518.16 18.498974,-34.345867,518.16 18.498173,-34.343636,518.16 18.4972,-34.340561,548.64 18.496548,-34.338364,548.64 18.495827,-34.335163,548.64 18.495426,-34.332695,548.64 18.494923,-34.329758,548.64 18.494587,-34.327744,548.64 18.494026,-34.324493,548.64 18.49371,-34.322407,548.64 18.492222,-34.311142,579.12 18.491993,-34.308907,579.12 18.491503,-34.302658,579.12 18.491392,-34.300323,579.12 18.49128,-34.294785,579.12 18.491364,-34.285492,579.12 18.491707,-34.274597,579.12 18.491879,-34.271339,579.12 18.492064,-34.26796,579.12 18.492121,-34.265717,579.12 18.492121,-34.259995,579.12 18.49205,-34.252811,579.12 18.491707,-34.248108,548.64 18.491478,-34.246109,548.64 18.490963,-34.24229,548.64 18.49062,-34.239964,548.64 18.48999,-34.236465,548.64 18.489206,-34.232254,548.64 18.488216,-34.228882,548.64 18.487587,-34.226601,548.64 18.486729,-34.22353,548.64 18.485985,-34.221203,548.64 18.484272,-34.216003,579.12 18.482552,-34.211147,579.12 18.481178,-34.207794,579.12 18.479919,-34.204956,579.12 18.478489,-34.201694,579.12 18.476143,-34.196438,579.12 18.473063,-34.188309,579.12 18.472366,-34.185867,579.12 18.471661,-34.182587,579.12 18.471222,-34.180424,579.12 18.470707,-34.177162,579.12 18.470535,-34.174976,579.12 18.470428,-34.171555,579.12 18.470306,-34.168785,548.64 18.470261,-34.165649,548.64 18.470203,-34.163132,548.64 18.470135,-34.15398,548.64 18.470316,-34.151505,518.16 18.470879,-34.148254,518.16 18.471437,-34.145874,548.64 18.472334,-34.142532,548.64 18.472895,-34.140518,548.64 18.474083,-34.137127,548.64 18.474968,-34.134842,548.64 18.476429,-34.131451,548.64 18.477434,-34.129257,518.16 18.479116,-34.125641,518.16 18.480091,-34.123394,518.16 18.481522,-34.119766,518.16 18.482143,-34.117538,518.16 18.482759,-34.114105,548.64 18.483295,-34.112038,548.64 18.483067,-34.109013,548.64 18.482208,-34.107101,548.64 18.481302,-34.104309,548.64 18.481236,-34.102119,548.64 18.481302,-34.099319,518.16 18.481407,-34.097141,518.16 18.481407,-34.094112,518.16 18.481247,-34.092087,487.68 18.480434,-34.088947,487.68 18.480406,-34.08696,487.68 18.480778,-34.083454,487.68 18.480909,-34.081284,457.2 18.481022,-34.077988,457.2 18.481247,-34.075745,457.2 18.481979,-34.07214,457.2 18.482609,-34.069721,457.2 18.48341,-34.066509,457.2 18.48381,-34.064087,457.2 18.484154,-34.060688,457.2 18.484329,-34.058395,457.2 18.484612,-34.054962,457.2 18.484783,-34.052822,457.2 18.485113,-34.049561,487.68 18.485298,-34.047421,487.68 18.485527,-34.044258,487.68 18.485699,-34.042068,487.68 18.485842,-34.038437,487.68 18.485928,-34.036434,487.68 18.485985,-34.030525,457.2 18.485699,-34.028336,457.2 18.485241,-34.024937,457.2 18.485012,-34.022701,457.2 18.48489,-34.01944,487.68 18.48489,-34.017288,487.68 18.484955,-34.013859,487.68 18.485069,-34.011532,487.68 18.485184,-34.007992,457.2 18.485731,-33.998703,457.2 18.486122,-33.987076,426.72 18.486628,-33.979065,426.72 18.486671,-33.970566,396.24 18.48657,-33.968216,365.76 18.486156,-33.964653,365.76 18.485842,-33.962173,335.28 18.485394,-33.958557,335.28 18.485012,-33.955902,335.28 18.484383,-33.951992,335.28 18.483639,-33.949524,335.28 18.481918,-33.946106,335.28 18.480721,-33.944218,335.28 18.478546,-33.94091,335.28 18.477173,-33.938816,335.28 18.474998,-33.935513,335.28 18.473797,-33.933231,335.28 18.472137,-33.930157,335.28 18.470877,-33.928024,335.28 18.468634,-33.924774,335.28 18.467289,-33.923172,335.28 18.464542,-33.920197,335.28 18.462639,-33.91824,304.8 18.459606,-33.915215,304.8 18.457775,-33.913212,304.8 18.455601,-33.910557,335.28 18.454342,-33.908604,335.28 18.452682,-33.905533,365.76 18.451763,-33.903625,365.76 18.450417,-33.900787,335.28 18.44952,-33.898956,335.28 18.447838,-33.896255,335.28 18.446674,-33.895012,335.28 18.444252,-33.894562,335.28 18.443073,-33.89534,304.8 18.441639,-33.896641,274.32 18.44072,-33.897491,274.32 18.439318,-33.898636,243.84 18.438478,-33.899368,243.84 18.437077,-33.90033,213.36 18.435745,-33.900829,182.88 18.4342,-33.900875,152.4 18.433056,-33.900875,152.4 18.431168,-33.90041,121.92 18.430195,-33.900177,91.44 18.428822,-33.900272,91.44 18.42762,-33.900551,60.96 18.428421,-33.898083,91.44 18.431168,-33.893196,182.88 18.433937,-33.888107,243.84 18.43461,-33.886322,243.84 18.434555,-33.883804,274.32 18.433825,-33.882339,304.8 18.431919,-33.880463,304.8 18.43008,-33.879555,335.28 18.426987,-33.878677,365.76 18.42556,-33.878345,396.24 18.422585,-33.87788,426.72 18.420811,-33.877739,426.72 18.417778,-33.877647,457.2 18.41629,-33.877647,487.68 18.413647,-33.877762,518.16 18.411797,-33.877945,518.16 18.409386,-33.878265,548.64 18.407307,-33.87867,579.12 18.404566,-33.879364,579.12 18.402672,-33.879974,609.6 18.400211,-33.880951,640.08 18.398457,-33.881744,640.08 18.395977,-33.883045,640.08 18.394146,-33.884071,670.56 18.391628,-33.885513,670.56 18.389992,-33.886551,701.04 18.387566,-33.888073,701.04 18.386021,-33.889099,731.52 18.383602,-33.890671,731.52 18.382015,-33.891705,762 18.37944,-33.893333,762 18.377552,-33.894547,762 18.371029,-33.899014,792.48 18.368244,-33.901154,822.96 18.365822,-33.903156,822.96 18.364431,-33.904495,822.96 18.361965,-33.907242,822.96 18.360733,-33.908661,822.96 18.358727,-33.911259,822.96 18.357582,-33.912888,822.96 18.356037,-33.915493,822.96 18.355015,-33.917358,822.96 18.353806,-33.919914,822.96 18.352833,-33.922195,822.96 18.351765,-33.924957,822.96 18.350887,-33.926899,822.96 18.349579,-33.92981,822.96 18.34885,-33.931503,822.96 18.347561,-33.934753,822.96 18.346882,-33.936676,822.96 18.346024,-33.93956,822.96 18.34543,-33.941895,822.96 18.344757,-33.94487,822.96 18.344702,-33.948257,792.48 18.347054,-33.951012,792.48 18.349571,-33.951805,762 18.354206,-33.950874,731.52 18.356361,-33.94899,731.52 18.358097,-33.945984,731.52 18.359163,-33.943954,731.52 18.360846,-33.940567,731.52 18.361874,-33.938396,701.04 18.363247,-33.935184,701.04 18.364151,-33.933014,701.04 18.36544,-33.929718,670.56 18.366449,-33.927475,670.56 18.368132,-33.924225,670.56 18.369427,-33.921917,670.56 18.371552,-33.918549,670.56 18.372974,-33.91647,670.56 18.375137,-33.913513,670.56 18.376694,-33.911491,670.56 18.379173,-33.908432,670.56 18.380756,-33.906368,670.56 18.382874,-33.903625,640.08 18.38459,-33.901619,640.08 18.38728,-33.898827,640.08 18.38974,-33.897198,640.08 18.393635,-33.895844,670.56 18.395348,-33.894127,670.56 18.398624,-33.891541,640.08 18.401299,-33.890263,640.08 18.405361,-33.888821,609.6 18.407873,-33.888062,609.6 18.411909,-33.887054,579.12 18.415272,-33.886322,548.64 18.419308,-33.88559,518.16 18.422127,-33.885139,518.16 18.425732,-33.884815,487.68 18.428593,-33.884907,487.68 18.432255,-33.885326,457.2 18.434555,-33.885864,457.2 18.437918,-33.8871,426.72 18.439636,-33.888073,426.72 18.441896,-33.89003,396.24 18.442955,-33.891613,396.24 18.443579,-33.8936,365.76 18.443356,-33.895058,335.28 18.441753,-33.896591,304.8 18.440323,-33.897106,274.32 18.43775,-33.897537,213.36 18.4359,-33.897812,182.88 18.433685,-33.898224,152.4 18.430481,-33.899059,121.92 18.427547,-33.899963,91.44 18.426819,-33.900455,91.44 18.427219,-33.900738,0
        </coordinates>
      </LineString>
    </Placemark>
  </Document>
</kml>