<?xml version="1.0" encoding="UTF-8"?>
<kml xmlns="http://www.opengis.net/kml/2.2">
  <Document>
    <name>-/ZTRNW - Optimised</name>
    <description><![CDATA[Optimised flight path with 1098 points (decimated from 5488 original points). Source format: Standard KML]]></description>
    
    <Style id="flightPath">
      <LineStyle>
        <color>ffff0000</color>
        <width>3</width>
      </LineStyle>
    </Style>
    
    <Placemark>
      <name>Flight Path</name>
      <description><![CDATA[<div style="width:220px; text-align:center;">
<div style="width:210px; text-align:center;">
<div style=" background: #000; color: #fff; font-size: 14px; text-align:left; border: 1px solid #000; padding: 2px 6px; text-shadow: 0 1px 0 #000; box-shadow: 0 1px 3px rgba(0,0,0,0.6); background: -webkit-gradient(linear, left top, left bottom, color-stop(0%,#808080), color-stop(2%,#303030), color-stop(100%,#0c0c0c));"><span style="font-size: 14px; font-weight: bold;"><a href="javascript:void(0);" style="color: #fff; cursor: pointer;text-decoration: none;">-</a></span> / ZTRNW<br/>Private owner</div>

<div style="border-top: 1px solid #005c90; color: #fff; padding-bottom: 5px; box-shadow: 0 0 1px #9BE3F6 inset, 0 1px 0 #9BE3F6 inset, 0 -1px 3px rgba(0,0,0,0.4); background:rgba(43,114,173,1); background: -webkit-gradient(linear, left top, left bottom, color-stop(0%,rgba(92,184,229,1)), color-stop(100%,rgba(43,114,173,1)));">
<a style="text-decoration: none; color: rgb(255, 255, 255); font-size: 12px; width:77px; display: inline-block;" title=" Airport" href="javascript:void(0);/departures"><h3 style="padding: 0px; margin: 10px 0px 0px; font-size: 16px; ">?</h3></a>
<span style="background: url(https://www.flightradar24.com/static/images/userUI_sprite.png?14) no-repeat scroll 0 -464px rgba(0, 0, 0, 0); border: medium none; display: inline-block; height: 16px; width: 45px;"></span>
<a style="text-decoration: none; color: rgb(255, 255, 255); font-size: 12px; width:77px; display: inline-block;" title=" Airport" href="javascript:void(0);/arrivals"><h3 style="padding: 0px; margin: 10px 0px 0px; font-size: 16px;">?</h3></a>
<div style=" margin-top:10px;">
<div style="display: inline-block; font-size: 12px; padding: 0 5px;">
<div>
<span style="color: #c1eaff;" title="Actual Time of Departure">ATD </span>
<span title="2025-09-20 06:48">06:48</span> <span title="Coordinated Universal Time">UTC</span>
</div>
</div>
<div style="display: inline-block; font-size: 12px; padding: 0 5px;">
<div>
<span style="color: #c1eaff;" title="Estimated Time of Arrival">ETA </span>
<span title="2025-09-20 07:32">07:32</span> <span title="Coordinated Universal Time">UTC</span>
</div>
</div>
</div>
<br style="clear: both;"/>
</div>

<div style="display: block;">
<table style="border-collapse: collapse; width: 100%;">
<tr style="border-right: 1px solid #dadada; ">
<td style="background: none repeat scroll 0 0 #dadada; padding: 0; width: 31px;">
<span style="background: url(https://www.flightradar24.com/static/images/userUI_sprite.png?14) no-repeat scroll -208px -464px rgba(0, 0, 0, 0); height: 26px; margin: 8px 0 0 4px; width: 23px; display: block;"></span>
</td>
<td colspan="2" style="border-bottom: 1px solid #dadada; border-left: 1px solid #dadada; color: #666; line-height: 1.1em; padding: 3px 6px; vertical-align: top; font-size: 14px;">
Aircraft<span style="float: right; font-size: 12px;">(EC20)</span><br>
<span style="color: #333; font-size: 16px; font-weight: bold; line-height: 1.3em;">Airbus Helicopters H120</span>
</td>
</tr>
<tr style="border-right: 1px solid #dadada; ">
<td style="background: none repeat scroll 0 0 #dadada; padding: 0; width: 31px;">
<td colspan="2" style="border-bottom: 1px solid #dadada; border-left: 1px solid #dadada; color: #666; line-height: 1.1em; padding: 3px 6px; vertical-align: top; font-size: 14px;">
Registration<br>
<span style="color: #333; font-size: 16px; font-weight: bold; line-height: 1.3em;"><a href="https://www.flightradar24.com/reg/zt-rnw" style="text-decoration: none; color: #333;">ZT-RNW</a></span>
</td>
</tr>
</table>
</div>

</div>
</div>]]></description>
      <styleUrl>#flightPath</styleUrl>
      <LineString>
        <extrude>1</extrude>
        <tessellate>1</tessellate>
        <altitudeMode>absolute</altitudeMode>
        <coordinates>
          18.429451,-33.896454,45.72 18.432592,-33.890533,114.3 18.433825,-33.887787,144.78 18.43405,-33.88559,160.02 18.433628,-33.884441,167.64 18.431583,-33.882477,175.26 18.430014,-33.881607,175.26 18.427267,-33.880783,182.88 18.425102,-33.880486,190.5 18.422335,-33.880463,190.5 18.420296,-33.880581,198.12 18.416954,-33.881012,198.12 18.414745,-33.881416,198.12 18.411598,-33.88216,198.12 18.40933,-33.882797,198.12 18.406048,-33.883884,190.5 18.403276,-33.884811,175.26 18.399754,-33.886211,182.88 18.397671,-33.887054,182.88 18.394718,-33.888401,182.88 18.392796,-33.889435,182.88 18.389711,-33.891312,182.88 18.38747,-33.892868,175.26 18.384666,-33.894836,190.5 18.382761,-33.896255,198.12 18.380356,-33.898361,205.74 18.378782,-33.899826,213.36 18.376707,-33.901978,220.98 18.375362,-33.903442,220.98 18.373318,-33.905811,220.98 18.372002,-33.907394,220.98 18.369757,-33.910309,220.98 18.368692,-33.911728,228.6 18.366737,-33.914654,220.98 18.365665,-33.916306,220.98 18.360956,-33.925278,205.74 18.357538,-33.932327,205.74 18.355179,-33.941841,213.36 18.360329,-33.939281,213.36 18.362846,-33.932812,236.22 18.362617,-33.92918,251.46 18.360733,-33.927933,259.08 18.357929,-33.929214,243.84 18.353838,-33.937729,236.22 18.351002,-33.943565,236.22 18.342684,-33.959839,236.22 18.339041,-33.967484,228.6 18.338299,-33.976059,213.36 18.337727,-33.981644,228.6 18.334351,-33.992584,236.22 18.331776,-33.997936,243.84 18.327255,-34.005386,259.08 18.323793,-34.010376,259.08 18.31662,-34.01976,243.84 18.306473,-34.031982,228.6 18.319073,-34.062271,243.84 18.322113,-34.065125,251.46 18.329544,-34.07,251.46 18.334332,-34.072632,266.7 18.350601,-34.088436,289.56 18.35367,-34.09552,289.56 18.355633,-34.101379,289.56 18.355856,-34.103714,281.94 18.35552,-34.107788,281.94 18.355127,-34.110443,289.56 18.354567,-34.114105,289.56 18.353838,-34.11644,281.94 18.352381,-34.119736,266.7 18.350945,-34.121861,259.08 18.348064,-34.124908,251.46 18.332033,-34.135849,243.84 18.319817,-34.1436,259.08 18.318787,-34.145786,259.08 18.360565,-34.193115,297.18 18.368637,-34.204514,289.56 18.372112,-34.210602,274.32 18.374969,-34.216827,259.08 18.376091,-34.22081,259.08 18.377548,-34.235458,251.46 18.396103,-34.291763,358.14 18.400755,-34.299133,365.76 18.4072,-34.30957,373.38 18.411026,-34.314121,373.38 18.413982,-34.317032,373.38 18.416119,-34.319008,373.38 18.419495,-34.321896,365.76 18.421726,-34.323757,373.38 18.425503,-34.326782,373.38 18.428078,-34.328831,373.38 18.436293,-34.335159,365.76 18.444042,-34.340607,365.76 18.45776,-34.350906,365.76 18.461094,-34.353737,365.76 18.464241,-34.356949,373.38 18.46628,-34.359009,381 18.472895,-34.363403,381 18.475685,-34.364395,381 18.480629,-34.365509,365.76 18.484442,-34.366013,358.14 18.489132,-34.366444,358.14 18.492512,-34.366745,358.14 18.497715,-34.367096,358.14 18.500809,-34.367203,358.14 18.505629,-34.366928,365.76 18.508152,-34.366287,373.38 18.511234,-34.364685,381 18.512592,-34.363373,388.62 18.513308,-34.361252,403.86 18.512306,-34.360348,403.86 18.509445,-34.36058,373.38 18.507479,-34.361343,350.52 18.504009,-34.362488,335.28 18.501986,-34.363083,327.66 18.498802,-34.363792,304.8 18.495369,-34.364349,297.18 18.49184,-34.364685,297.18 18.489487,-34.364731,297.18 18.486067,-34.364639,289.56 18.484039,-34.364491,281.94 18.480293,-34.363998,274.32 18.478163,-34.363632,274.32 18.474855,-34.362946,266.7 18.472824,-34.362396,266.7 18.46962,-34.361183,274.32 18.467962,-34.360291,281.94 18.464642,-34.360394,335.28 18.464094,-34.362122,350.52 18.466244,-34.364582,342.9 18.469252,-34.365372,335.28 18.474026,-34.365467,320.04 18.47683,-34.365234,312.42 18.481638,-34.364731,312.42 18.484783,-34.364395,312.42 18.489597,-34.36377,312.42 18.492792,-34.363358,320.04 18.497601,-34.362068,320.04 18.500023,-34.360565,327.66 18.501986,-34.357956,342.9 18.502769,-34.355667,350.52 18.50305,-34.352692,350.52 18.502882,-34.350586,358.14 18.50235,-34.347778,358.14 18.502041,-34.345505,365.76 18.501818,-34.342163,365.76 18.501778,-34.340004,373.38 18.501492,-34.33395,373.38 18.500862,-34.326874,373.38 18.50008,-34.316574,365.76 18.49966,-34.309559,365.76 18.499407,-34.299133,365.76 18.499407,-34.297302,365.76 18.499146,-34.287445,365.76 18.498903,-34.284622,365.76 18.498566,-34.281464,365.76 18.497772,-34.274876,358.14 18.496437,-34.265076,358.14 18.495541,-34.258675,350.52 18.493652,-34.248436,342.9 18.493137,-34.246479,335.28 18.492393,-34.243221,350.52 18.491821,-34.24136,350.52 18.48959,-34.234238,350.52 18.48842,-34.231339,342.9 18.487129,-34.228416,335.28 18.486122,-34.226257,335.28 18.484783,-34.223434,335.28 18.483868,-34.221573,342.9 18.480091,-34.214031,342.9 18.476873,-34.207169,327.66 18.475056,-34.202301,320.04 18.474575,-34.200211,312.42 18.474483,-34.197041,320.04 18.474575,-34.195221,320.04 18.474688,-34.192017,320.04 18.474632,-34.189728,312.42 18.474575,-34.18634,312.42 18.474575,-34.179657,304.8 18.474884,-34.168972,274.32 18.475513,-34.162312,274.32 18.476761,-34.151733,297.18 18.477827,-34.144089,312.42 18.479118,-34.134289,342.9 18.480125,-34.127106,365.76 18.480835,-34.119347,365.76 18.480967,-34.117355,365.76 18.480949,-34.113106,381 18.480909,-34.111267,388.62 18.480778,-34.108032,403.86 18.480629,-34.10614,403.86 18.480377,-34.102913,411.48 18.479845,-34.094696,411.48 18.479565,-34.083389,403.86 18.479677,-34.078949,396.24 18.479977,-34.07568,381 18.480349,-34.073181,381 18.480949,-34.070095,381 18.481464,-34.067814,381 18.482323,-34.064461,388.62 18.482759,-34.062515,381 18.484154,-34.053894,381 18.484385,-34.051712,381 18.484612,-34.048725,381 18.484783,-34.046539,373.38 18.485126,-34.041092,381 18.485584,-34.034992,388.62 18.485928,-34.023075,373.38 18.486067,-34.016098,373.38 18.486614,-34.005199,381 18.486328,-34.002731,373.38 18.486042,-33.999008,373.38 18.486214,-33.994213,381 18.486851,-33.988541,373.38 18.487129,-33.986347,365.76 18.487473,-33.98304,358.14 18.488102,-33.974056,342.9 18.488045,-33.96875,327.66 18.48786,-33.966476,327.66 18.487473,-33.963676,312.42 18.487186,-33.96172,304.8 18.48657,-33.958923,289.56 18.486067,-33.957047,281.94 18.485226,-33.954025,266.7 18.484722,-33.952057,259.08 18.483467,-33.947197,243.84 18.481638,-33.940201,220.98 18.48119,-33.937042,220.98 18.480492,-33.933136,220.98 18.478889,-33.92918,213.36 18.47777,-33.927429,205.74 18.475473,-33.92482,198.12 18.47374,-33.923313,190.5 18.471279,-33.92136,190.5 18.469419,-33.919922,198.12 18.467121,-33.918182,152.4 18.465496,-33.916901,198.12 18.459162,-33.911911,182.88 18.452715,-33.906372,175.26 18.450108,-33.90395,182.88 18.4461,-33.90033,182.88 18.442514,-33.898087,167.64 18.440552,-33.897663,160.02 18.437693,-33.897995,129.54 18.436123,-33.898315,114.3 18.433714,-33.898819,76.2 18.432367,-33.899139,53.34 18.430967,-33.89946,30.48 18.42979,-33.89978,15.24 18.428535,-33.900131,0 18.428078,-33.900318,0 18.427322,-33.900604,0 18.426991,-33.901016,0 18.427212,-33.900146,0 18.427547,-33.899506,0 18.428421,-33.897942,7.62 18.428764,-33.897339,15.24 18.429565,-33.895756,30.48 18.430309,-33.893986,53.34 18.430996,-33.891983,76.2 18.431396,-33.890495,91.44 18.432598,-33.887238,129.54 18.432705,-33.885864,144.78 18.431808,-33.883392,182.88 18.430595,-33.881927,198.12 18.428593,-33.880253,213.36 18.426764,-33.879135,220.98 18.423958,-33.877972,243.84 18.421612,-33.87746,251.46 18.418354,-33.877258,259.08 18.416061,-33.877415,259.08 18.412525,-33.877716,266.7 18.409723,-33.878082,266.7 18.406219,-33.878716,281.94 18.403587,-33.879414,281.94 18.400475,-33.880508,289.56 18.398064,-33.881516,289.56 18.395119,-33.882908,297.18 18.392626,-33.884262,297.18 18.389168,-33.886444,297.18 18.38728,-33.887703,297.18 18.384247,-33.889984,304.8 18.38213,-33.891613,304.8 18.379566,-33.893829,312.42 18.377661,-33.895569,320.04 18.375034,-33.897942,327.66 18.37326,-33.89962,327.66 18.370878,-33.902023,335.28 18.366909,-33.905857,342.9 18.363928,-33.90921,335.28 18.362471,-33.91127,335.28 18.360508,-33.91452,335.28 18.35947,-33.916656,335.28 18.358267,-33.919739,327.66 18.357426,-33.921982,320.04 18.356037,-33.925735,312.42 18.355127,-33.928162,312.42 18.352549,-33.935074,304.8 18.348457,-33.945557,274.32 18.340645,-33.962837,228.6 18.335552,-33.974197,213.36 18.327269,-33.99147,205.74 18.321419,-34.002918,220.98 18.313293,-34.019817,236.22 18.30986,-34.025078,228.6 18.313313,-34.055054,228.6 18.321133,-34.06218,251.46 18.348312,-34.075867,541.02 18.349857,-34.075119,601.98 18.348484,-34.073956,617.22 18.346653,-34.073444,617.22 18.34156,-34.071907,579.12 18.339901,-34.071117,548.64 18.335438,-34.068325,449.58 18.333321,-34.066975,388.62 18.313122,-34.023682,220.98 18.318729,-34.017258,243.84 18.327656,-34.005619,243.84 18.332371,-33.998337,236.22 18.341331,-33.983601,228.6 18.347282,-33.973682,236.22 18.354378,-33.961208,236.22 18.356438,-33.955902,228.6 18.361244,-33.942215,220.98 18.36525,-33.931599,243.84 18.369255,-33.922989,259.08 18.371887,-33.91832,274.32 18.373718,-33.915073,281.94 18.37492,-33.913166,289.56 18.376987,-33.909943,297.18 18.378389,-33.907974,297.18 18.380585,-33.905205,304.8 18.38253,-33.902969,297.18 18.385117,-33.900238,304.8 18.387165,-33.898224,304.8 18.390427,-33.895428,312.42 18.392403,-33.893921,312.42 18.39599,-33.891678,312.42 18.398457,-33.89035,312.42 18.4021,-33.888702,320.04 18.404789,-33.887608,251.46 18.408794,-33.886211,312.42 18.41177,-33.885326,312.42 18.416058,-33.884216,243.84 18.419037,-33.88356,304.8 18.423271,-33.882999,304.8 18.426651,-33.882935,312.42 18.431471,-33.883392,312.42 18.433994,-33.883987,304.8 18.438148,-33.885605,281.94 18.440496,-33.886871,266.7 18.443356,-33.889004,251.46 18.444923,-33.891312,236.22 18.444868,-33.893921,220.98 18.443756,-33.895245,205.74 18.441639,-33.896267,182.88 18.439751,-33.896919,167.64 18.43729,-33.897709,137.16 18.435574,-33.898174,114.3 18.433456,-33.898735,83.82 18.432026,-33.899155,60.96 18.428389,-33.900238,0 18.427715,-33.900421,0 18.427734,-33.899666,0 18.428078,-33.899105,0 18.428669,-33.898132,0 18.428949,-33.897583,7.62 18.429451,-33.896778,15.24 18.429733,-33.896255,30.48 18.431568,-33.892681,68.58 18.432199,-33.891312,83.82 18.432928,-33.889252,106.68 18.433096,-33.887878,121.92 18.432592,-33.885132,137.16 18.431808,-33.883804,144.78 18.430014,-33.881836,160.02 18.428593,-33.880486,167.64 18.426533,-33.878902,182.88 18.425026,-33.877899,190.5 18.422527,-33.876667,205.74 18.42041,-33.876019,213.36 18.417177,-33.875702,228.6 18.414688,-33.875923,236.22 18.411484,-33.87653,251.46 18.409275,-33.876984,274.32 18.406809,-33.87767,297.18 18.404846,-33.878403,320.04 18.4025,-33.879181,350.52 18.398512,-33.880325,388.62 18.393974,-33.881927,411.48 18.391685,-33.882999,434.34 18.388927,-33.884445,464.82 18.387358,-33.885361,480.06 18.385227,-33.886734,533.4 18.383961,-33.887703,548.64 18.382072,-33.889332,563.88 18.380756,-33.890495,571.5 18.378782,-33.892273,579.12 18.377436,-33.893509,571.5 18.375092,-33.89571,563.88 18.372503,-33.898178,556.26 18.367683,-33.903076,541.02 18.366058,-33.904953,518.16 18.364277,-33.907345,495.3 18.363018,-33.909302,472.44 18.361416,-33.912281,434.34 18.360453,-33.914246,411.48 18.358955,-33.917496,381 18.358042,-33.919739,350.52 18.35681,-33.922897,312.42 18.356209,-33.924664,297.18 18.355064,-33.928154,259.08 18.352489,-33.936256,220.98 18.34671,-33.953434,167.64 18.342739,-33.964508,167.64 18.348083,-33.969261,198.12 18.35146,-33.965443,190.5 18.354231,-33.957779,198.12 18.357124,-33.950127,205.74 18.362974,-33.934296,228.6 18.366339,-33.926102,312.42 18.369644,-33.918869,411.48 18.372503,-33.913101,464.82 18.37553,-33.908112,510.54 18.376707,-33.906418,518.16 18.378525,-33.903996,533.4 18.379791,-33.902527,548.64 18.381809,-33.900146,556.26 18.383274,-33.898548,556.26 18.385788,-33.89621,579.12 18.387583,-33.894699,594.36 18.390497,-33.892639,609.6 18.392429,-33.89175,624.84 18.395805,-33.890915,655.32 18.398119,-33.89035,655.32 18.401371,-33.889252,647.7 18.403669,-33.886826,624.84 18.404566,-33.884216,594.36 18.40519,-33.882256,563.88 18.406506,-33.879696,525.78 18.407593,-33.87822,502.92 18.409595,-33.876202,457.2 18.411516,-33.874832,426.72 18.415089,-33.873505,381 18.417683,-33.873322,350.52 18.423063,-33.874649,289.56 18.425474,-33.876205,274.32 18.428535,-33.878948,243.84 18.430182,-33.880646,228.6 18.432985,-33.883667,205.74 18.434658,-33.885559,190.5 18.437077,-33.888245,121.92 18.438892,-33.890308,160.02 18.441055,-33.893417,152.4 18.441639,-33.895245,144.78 18.440895,-33.897617,129.54 18.439487,-33.89827,114.3 18.437021,-33.898636,83.82 18.435402,-33.898872,68.58 18.432873,-33.899231,45.72 18.432144,-33.899368,7.62 18.430742,-33.899643,22.86 18.429909,-33.899807,7.62 18.428993,-33.90004,0 18.428389,-33.900238,0 18.427448,-33.900551,0 18.42766,-33.899734,0 18.428249,-33.898735,7.62 18.428593,-33.898224,15.24 18.429678,-33.896851,22.86 18.430069,-33.896393,30.48 18.431528,-33.894699,45.72 18.432713,-33.893333,68.58 18.436964,-33.88765,129.54 18.437805,-33.88612,144.78 18.43758,-33.883896,167.64 18.436628,-33.882568,190.5 18.434429,-33.880905,213.36 18.433113,-33.880253,228.6 18.43071,-33.879322,251.46 18.428949,-33.878815,274.32 18.426418,-33.878345,297.18 18.424587,-33.878113,320.04 18.421886,-33.878082,335.28 18.419924,-33.878174,358.14 18.41692,-33.878532,381 18.415159,-33.878815,396.24 18.41247,-33.879364,419.1 18.410675,-33.879776,434.34 18.407879,-33.880531,464.82 18.406248,-33.881012,480.06 18.403502,-33.882065,502.92 18.401756,-33.882767,510.54 18.398792,-33.883987,518.16 18.397007,-33.884769,525.78 18.394489,-33.885933,533.4 18.392738,-33.88678,533.4 18.389769,-33.888382,548.64 18.387852,-33.889565,548.64 18.385117,-33.891312,556.26 18.383322,-33.892502,563.88 18.380688,-33.894424,571.5 18.379005,-33.895798,579.12 18.376579,-33.897942,609.6 18.375195,-33.899323,632.46 18.373289,-33.901382,647.7 18.371944,-33.902969,662.94 18.369999,-33.905437,678.18 18.36874,-33.907162,693.42 18.36701,-33.909622,701.04 18.365833,-33.91127,708.66 18.362864,-33.915482,701.04 18.35849,-33.922211,693.42 18.356781,-33.92527,685.8 18.355923,-33.927036,685.8 18.354399,-33.93045,678.18 18.353502,-33.932465,678.18 18.352089,-33.935696,678.18 18.351149,-33.938049,670.56 18.34885,-33.944,655.32 18.344936,-33.953201,640.08 18.338703,-33.965744,632.46 18.333996,-33.973434,632.46 18.323936,-33.988953,601.98 18.318386,-33.998821,556.26 18.308372,-34.017025,502.92 18.302494,-34.028091,480.06 18.300705,-34.032852,449.58 18.300196,-34.035873,434.34 18.302879,-34.045376,403.86 18.304939,-34.048306,396.24 18.310432,-34.054497,388.62 18.313032,-34.057068,388.62 18.318386,-34.061947,388.62 18.32172,-34.064392,381 18.32737,-34.067627,388.62 18.330072,-34.068878,388.62 18.338984,-34.072037,396.24 18.349411,-34.091537,350.52 18.34877,-34.096069,350.52 18.348513,-34.09877,358.14 18.348255,-34.1031,358.14 18.348083,-34.105331,358.14 18.346367,-34.113388,350.52 18.345486,-34.115891,342.9 18.343506,-34.119347,335.28 18.341339,-34.12175,320.04 18.338087,-34.124542,320.04 18.324394,-34.13303,289.56 18.316675,-34.139465,289.56 18.315525,-34.141319,289.56 18.371143,-34.223019,243.84 18.413601,-34.32613,220.98 18.420925,-34.331345,228.6 18.424015,-34.333252,236.22 18.42802,-34.335533,236.22 18.430538,-34.336884,236.22 18.435574,-34.339443,243.84 18.441225,-34.342667,251.46 18.446388,-34.346287,259.08 18.448563,-34.348148,259.08 18.451824,-34.351315,266.7 18.453884,-34.353363,266.7 18.456863,-34.3564,274.32 18.458994,-34.358459,281.94 18.464823,-34.363678,304.8 18.467064,-34.36528,320.04 18.470821,-34.367237,335.28 18.473396,-34.368259,342.9 18.47723,-34.369423,358.14 18.479633,-34.370029,358.14 18.483181,-34.370636,358.14 18.485756,-34.37096,350.52 18.489206,-34.371323,342.9 18.491879,-34.371658,335.28 18.495539,-34.371735,327.66 18.498343,-34.371323,327.66 18.501663,-34.370216,327.66 18.504004,-34.369034,335.28 18.506527,-34.367424,350.52 18.508207,-34.366058,358.14 18.510017,-34.364025,373.38 18.510933,-34.362209,388.62 18.511162,-34.359882,411.48 18.510841,-34.358688,419.1 18.509552,-34.356903,419.1 18.508039,-34.356125,419.1 18.505516,-34.355896,419.1 18.504004,-34.356216,419.1 18.501377,-34.357273,411.48 18.499687,-34.358139,419.1 18.496996,-34.359467,403.86 18.49509,-34.360703,388.62 18.49324,-34.363174,381 18.493017,-34.365005,381 18.494867,-34.367981,381 18.496996,-34.368988,381 18.500862,-34.368958,373.38 18.503094,-34.367794,373.38 18.504957,-34.36528,365.76 18.505325,-34.363419,358.14 18.505013,-34.360657,358.14 18.504396,-34.358826,365.76 18.50305,-34.35585,365.76 18.502121,-34.354156,373.38 18.500404,-34.351456,373.38 18.49926,-34.349777,373.38 18.497334,-34.347382,381 18.495764,-34.345779,381 18.49341,-34.343536,381 18.491615,-34.341751,381 18.489418,-34.339443,381 18.486683,-34.336258,388.62 18.485012,-34.333858,396.24 18.484161,-34.332092,403.86 18.483543,-34.328979,411.48 18.483639,-34.326923,411.48 18.484329,-34.324036,403.86 18.485184,-34.321613,411.48 18.48629,-34.318497,411.48 18.487186,-34.316353,411.48 18.488588,-34.313095,403.86 18.489475,-34.311001,403.86 18.492401,-34.302612,396.24 18.493073,-34.300415,388.62 18.493914,-34.297028,388.62 18.495197,-34.291355,381 18.497108,-34.283936,373.38 18.498566,-34.277573,381 18.499374,-34.272316,381 18.499603,-34.270222,381 18.499775,-34.266312,381 18.499687,-34.26416,381 18.499603,-34.261051,388.62 18.499519,-34.258942,388.62 18.499294,-34.256058,381 18.498974,-34.253834,365.76 18.498344,-34.25053,358.14 18.498005,-34.248505,365.76 18.497372,-34.24527,365.76 18.496971,-34.243221,365.76 18.495428,-34.23587,350.52 18.49453,-34.232391,342.9 18.493481,-34.229301,335.28 18.492737,-34.227348,335.28 18.491447,-34.224243,320.04 18.490677,-34.222599,320.04 18.489132,-34.219666,312.42 18.488085,-34.217834,312.42 18.4865,-34.21529,304.8 18.485126,-34.213333,297.18 18.48332,-34.210968,297.18 18.481922,-34.209377,297.18 18.479519,-34.206955,297.18 18.477882,-34.205475,259.08 18.475248,-34.203278,251.46 18.473623,-34.20195,274.32 18.470879,-34.19965,266.7 18.467216,-34.196621,251.46 18.464184,-34.194527,243.84 18.462132,-34.193344,236.22 18.458488,-34.191879,236.22 18.456001,-34.191502,236.22 18.452492,-34.191925,228.6 18.450081,-34.193161,236.22 18.448792,-34.196018,274.32 18.449821,-34.197971,289.56 18.453999,-34.198902,304.8 18.455854,-34.197693,304.8 18.456415,-34.194992,289.56 18.455519,-34.192932,281.94 18.453369,-34.190571,274.32 18.451881,-34.189034,274.32 18.44965,-34.186707,266.7 18.448048,-34.185032,266.7 18.445541,-34.182816,259.08 18.443691,-34.181488,259.08 18.439823,-34.177597,243.84 18.439064,-34.175533,236.22 18.439375,-34.171783,220.98 18.440094,-34.169716,213.36 18.441505,-34.166565,220.98 18.442612,-34.16441,220.98 18.444557,-34.161148,213.36 18.445702,-34.159286,220.98 18.447615,-34.156082,236.22 18.450417,-34.15123,243.84 18.452797,-34.146252,243.84 18.45377,-34.144203,236.22 18.455126,-34.140884,228.6 18.455944,-34.13871,228.6 18.459892,-34.131123,220.98 18.461323,-34.128983,220.98 18.463308,-34.126236,213.36 18.464813,-34.123955,205.74 18.467045,-34.120647,190.5 18.468578,-34.11882,182.88 18.471828,-34.116074,167.64 18.473904,-34.114563,167.64 18.47683,-34.111897,175.26 18.479004,-34.107708,198.12 18.479176,-34.104774,205.74 18.479233,-34.102493,213.36 18.479507,-34.099731,213.36 18.479805,-34.097607,220.98 18.480034,-34.094532,220.98 18.480181,-34.08847,228.6 18.480091,-34.084152,228.6 18.480068,-34.08165,236.22 18.480181,-34.073822,251.46 18.479958,-34.066086,236.22 18.479576,-34.062038,243.84 18.47929,-34.059944,243.84 18.479059,-34.057022,243.84 18.478779,-34.050156,259.08 18.478947,-34.046909,259.08 18.47934,-34.044479,259.08 18.479958,-34.041321,259.08 18.480406,-34.039078,259.08 18.480967,-34.035965,266.7 18.48147,-34.031891,266.7 18.48175,-34.028275,289.56 18.481865,-34.026382,289.56 18.482151,-34.022797,297.18 18.482592,-34.016647,297.18 18.483881,-34.004196,304.8 18.485058,-33.996277,304.8 18.485954,-33.988998,312.42 18.48657,-33.987808,320.04 18.488445,-33.986671,320.04 18.490215,-33.986664,304.8 18.492508,-33.988022,281.94 18.493633,-33.989594,266.7 18.494625,-33.992023,251.46 18.495539,-33.993759,236.22 18.498173,-33.994865,228.6 18.500004,-33.99477,213.36 18.50333,-33.994217,213.36 18.505516,-33.993805,228.6 18.509274,-33.993141,228.6 18.51162,-33.992771,220.98 18.515326,-33.992249,213.36 18.521633,-33.991421,213.36 18.532276,-33.990116,220.98 18.54184,-33.98909,220.98 18.556252,-33.987461,228.6 18.565941,-33.98616,228.6 18.574741,-33.985382,220.98 18.577377,-33.985565,220.98 18.581749,-33.986298,213.36 18.584776,-33.98703,213.36 18.589092,-33.98822,205.74 18.59223,-33.989182,205.74 18.597107,-33.990627,198.12 18.602655,-33.991791,190.5 18.607178,-33.991932,190.5 18.610615,-33.991608,190.5 18.614674,-33.990955,198.12 18.61751,-33.990463,198.12 18.622107,-33.989548,198.12 18.624741,-33.989044,198.12 18.629282,-33.988129,198.12 18.634987,-33.986858,205.74 18.640137,-33.985508,205.74 18.645229,-33.984112,213.36 18.659306,-33.98048,213.36 18.670578,-33.977592,213.36 18.682251,-33.975266,243.84 18.684998,-33.974754,251.46 18.698956,-33.972015,289.56 18.708858,-33.969681,320.04 18.722591,-33.966423,335.28 18.733978,-33.963348,350.52 18.747597,-33.959995,335.28 18.758583,-33.957111,312.42 18.773174,-33.953156,304.8 18.784378,-33.950272,312.42 18.80069,-33.945877,342.9 18.808481,-33.943634,350.52 18.822214,-33.940338,358.14 18.825302,-33.939838,365.76 18.829193,-33.939423,373.38 18.832455,-33.939423,373.38 18.837236,-33.939423,388.62 18.839951,-33.939281,403.86 18.843956,-33.939095,403.86 18.850307,-33.938583,419.1 18.854256,-33.938118,426.72 18.857304,-33.937683,426.72 18.861732,-33.936951,426.72 18.864498,-33.936302,419.1 18.868345,-33.935257,419.1 18.871307,-33.934345,426.72 18.874905,-33.933151,426.72 18.877888,-33.932297,441.96 18.890991,-33.928345,457.2 18.897942,-33.926147,495.3 18.906441,-33.924152,525.78 18.90876,-33.923721,541.02 18.916327,-33.921249,571.5 18.918737,-33.92038,579.12 18.922213,-33.919189,579.12 18.926977,-33.917725,571.5 18.936001,-33.91507,541.02 18.941832,-33.91301,533.4 18.945351,-33.911304,525.78 18.947493,-33.909943,518.16 18.950462,-33.907425,518.16 18.951988,-33.905903,518.16 18.954391,-33.903019,502.92 18.956068,-33.900604,495.3 18.966579,-33.902039,640.08 18.966293,-33.901108,579.12 18.962803,-33.902084,533.4 18.961,-33.903397,525.78 18.958111,-33.905949,510.54 18.956125,-33.907654,510.54 18.953547,-33.909851,518.16 18.951588,-33.911491,533.4 18.949511,-33.914108,556.26 18.948895,-33.915894,571.5 18.950329,-33.917309,655.32 18.950787,-33.916378,594.36 18.947941,-33.914841,510.54 18.945082,-33.915207,510.54 18.941551,-33.916397,510.54 18.939457,-33.91703,510.54 18.935852,-33.917633,510.54 18.933334,-33.918007,502.92 18.927212,-33.918983,502.92 18.924809,-33.919403,510.54 18.918686,-33.920612,502.92 18.915262,-33.921478,487.68 18.911507,-33.922623,480.06 18.909245,-33.923359,487.68 18.905525,-33.924572,495.3 18.903522,-33.925316,502.92 18.893108,-33.928436,480.06 18.885723,-33.930771,472.44 18.873825,-33.934208,464.82 18.869019,-33.935371,464.82 18.865185,-33.936115,464.82 18.859602,-33.937363,472.44 18.847046,-33.940292,518.16 18.843727,-33.941376,510.54 18.840208,-33.942581,502.92 18.838022,-33.943314,502.92 18.828564,-33.945751,502.92 18.826332,-33.946262,495.3 18.822212,-33.947147,495.3 18.813229,-33.94915,403.86 18.801785,-33.95134,396.24 18.799667,-33.951618,388.62 18.795925,-33.952057,388.62 18.793888,-33.952271,388.62 18.782043,-33.954086,381 18.774261,-33.954922,381 18.768684,-33.955582,373.38 18.766779,-33.954849,373.38 18.76482,-33.952503,388.62 18.765377,-33.950867,396.24 18.768997,-33.950546,365.76 18.770983,-33.952286,350.52 18.770645,-33.955765,320.04 18.768883,-33.957157,304.8 18.765377,-33.95842,312.42 18.763584,-33.959015,320.04 18.760414,-33.959949,327.66 18.758427,-33.960571,327.66 18.755379,-33.961628,335.28 18.750019,-33.963409,335.28 18.74691,-33.963444,342.9 18.745079,-33.962837,350.52 18.74206,-33.961487,335.28 18.740433,-33.960388,327.66 18.737967,-33.958054,304.8 18.736382,-33.956505,289.56 18.734379,-33.954365,274.32 18.732979,-33.952698,274.32 18.731016,-33.949997,274.32 18.729973,-33.948406,266.7 18.728142,-33.945751,266.7 18.727037,-33.944229,266.7 18.724251,-33.941143,274.32 18.722328,-33.939606,274.32 18.719444,-33.938583,274.32 18.717003,-33.938736,274.32 18.713528,-33.93924,266.7 18.711399,-33.939514,266.7 18.707542,-33.93998,266.7 18.705368,-33.940212,266.7 18.696039,-33.941071,266.7 18.689034,-33.941528,266.7 18.678532,-33.942635,266.7 18.672924,-33.943283,289.56 18.661119,-33.944916,266.7 18.652431,-33.946289,281.94 18.640997,-33.948486,259.08 18.63905,-33.948963,259.08 18.635445,-33.949944,259.08 18.633148,-33.950546,259.08 18.62973,-33.951508,259.08 18.627834,-33.952175,251.46 18.624802,-33.954037,251.46 18.623676,-33.955856,259.08 18.624058,-33.958927,274.32 18.624685,-33.961304,281.94 18.625076,-33.964508,281.94 18.625189,-33.966522,289.56 18.625145,-33.970051,281.94 18.624966,-33.97229,281.94 18.624344,-33.975826,274.32 18.623486,-33.978107,266.7 18.621883,-33.981087,266.7 18.620592,-33.982956,259.08 18.618015,-33.985428,243.84 18.61599,-33.986763,236.22 18.612745,-33.988266,220.98 18.610325,-33.989044,220.98 18.606834,-33.989792,213.36 18.604506,-33.989685,213.36 18.601366,-33.988678,205.74 18.599224,-33.987881,205.74 18.59602,-33.986626,213.36 18.593967,-33.985748,213.36 18.591166,-33.984467,220.98 18.589153,-33.983459,220.98 18.586288,-33.981903,228.6 18.582001,-33.979969,228.6 18.571434,-33.975174,220.98 18.563862,-33.971729,220.98 18.553791,-33.967258,220.98 18.547052,-33.964188,220.98 18.536453,-33.959297,213.36 18.529701,-33.956413,205.74 18.520651,-33.952469,213.36 18.514261,-33.949356,213.36 18.511505,-33.947895,205.74 18.509665,-33.946838,213.36 18.50687,-33.945099,205.74 18.505236,-33.944,198.12 18.502602,-33.942215,198.12 18.500862,-33.940865,198.12 18.49823,-33.938873,190.5 18.496571,-33.937607,182.88 18.493996,-33.935604,175.26 18.488731,-33.931461,190.5 18.479733,-33.924179,167.64 18.474464,-33.920151,167.64 18.466759,-33.914471,160.02 18.461067,-33.910675,160.02 18.456631,-33.907997,160.02 18.45462,-33.906876,106.68 18.452099,-33.905502,160.02 18.449993,-33.904552,152.4 18.446846,-33.90353,144.78 18.444811,-33.90303,137.16 18.441448,-33.90239,114.3 18.439178,-33.902084,99.06 18.436489,-33.90176,83.82 18.435059,-33.901611,68.58 18.431078,-33.901016,30.48 18.428331,-33.900513,0 18.427448,-33.900272,0 18.42762,-33.899479,0 18.428164,-33.898407,0 18.428501,-33.897858,15.24 18.429451,-33.896641,45.72 18.430367,-33.895569,68.58 18.431864,-33.893921,91.44 18.432873,-33.892685,106.68 18.434385,-33.890762,144.78 18.436068,-33.88829,182.88 18.437077,-33.886276,205.74 18.437176,-33.884537,220.98 18.436489,-33.882488,243.84 18.435732,-33.881195,251.46 18.434029,-33.879044,274.32 18.432941,-33.878113,289.56 18.430538,-33.876343,312.42 18.428936,-33.875412,327.66 18.426476,-33.874435,350.52 18.424688,-33.873825,365.76 18.422012,-33.873177,388.62 18.419701,-33.872818,411.48 18.416862,-33.87262,434.34 18.415031,-33.87262,449.58 18.41217,-33.872711,472.44 18.410172,-33.872818,480.06 18.407312,-33.873138,502.92 18.405533,-33.873409,518.16 18.402557,-33.87397,541.02 18.400612,-33.874481,556.26 18.397783,-33.875427,563.88 18.396034,-33.876156,571.5 18.393002,-33.877647,579.12 18.391001,-33.878723,586.74 18.388422,-33.880188,609.6 18.386684,-33.881287,632.46 18.384386,-33.882797,647.7 18.382706,-33.884079,655.32 18.380356,-33.885887,678.18 18.378754,-33.887238,685.8 18.376694,-33.889099,693.42 18.37492,-33.890682,708.66 18.372784,-33.892822,708.66 18.371103,-33.894562,716.28 18.368916,-33.896942,716.28 18.36729,-33.898773,723.9 18.365192,-33.901386,731.52 18.363815,-33.903122,731.52 18.361874,-33.90567,731.52 18.360453,-33.907608,746.76 18.358658,-33.910172,792.48 18.357706,-33.911636,807.72 18.356037,-33.914238,845.82 18.355295,-33.915573,861.06 18.353838,-33.918137,883.92 18.352942,-33.919876,906.78 18.351765,-33.92244,960.12 18.351231,-33.923965,982.98 18.350372,-33.926292,998.22 18.349743,-33.927876,1005.84 18.34877,-33.930576,1013.46 18.347282,-33.934441,1013.46 18.343163,-33.944683,1021.08 18.339993,-33.95224,1013.46 18.334948,-33.963409,1005.84 18.332481,-33.967987,982.98 18.330072,-33.971832,960.12 18.328503,-33.974258,944.88 18.326054,-33.978153,929.64 18.322964,-33.983135,906.78 18.316227,-33.994034,868.68 18.310661,-34.002872,838.2 18.307285,-34.007389,815.34 18.302422,-34.014462,807.72 18.298931,-34.020096,807.72 18.297617,-34.022415,815.34 18.296585,-34.025963,815.34 18.297157,-34.028244,807.72 18.299732,-34.030991,792.48 18.30283,-34.032074,792.48 18.307259,-34.031525,777.24 18.309689,-34.029964,762 18.312435,-34.026894,754.38 18.313873,-34.024704,746.76 18.31604,-34.020981,739.14 18.317127,-34.018887,731.52 18.319254,-34.014633,723.9 18.320486,-34.01207,708.66 18.322113,-34.008682,693.42 18.324451,-34.003616,678.18 18.33153,-33.988312,640.08 18.337416,-33.976547,601.98 18.346767,-33.958881,571.5 18.350773,-33.951057,579.12 18.356697,-33.93988,579.12 18.3605,-33.932999,579.12 18.36673,-33.921524,571.5 18.371601,-33.912979,556.26 18.375137,-33.907471,548.64 18.376751,-33.905113,548.64 18.379118,-33.901749,548.64 18.383045,-33.896267,541.02 18.387508,-33.890865,541.02 18.38932,-33.889114,541.02 18.393059,-33.886353,541.02 18.395805,-33.884674,472.44 18.399525,-33.882767,541.02 18.402267,-33.881607,548.64 18.406696,-33.880096,548.64 18.409538,-33.879322,548.64 18.41387,-33.878494,487.68 18.417122,-33.878174,480.06 18.421606,-33.878174,556.26 18.424702,-33.878716,480.06 18.428837,-33.880646,556.26 18.431023,-33.882019,556.26 18.434772,-33.88435,556.26 18.436947,-33.885654,556.26 18.440552,-33.887604,556.26 18.446102,-33.889702,548.64 18.450108,-33.891006,533.4 18.453083,-33.893147,525.78 18.453999,-33.896408,480.06 18.452995,-33.898132,449.58 18.450584,-33.899506,434.34 18.448847,-33.899826,411.48 18.444923,-33.899826,381 18.443584,-33.899757,365.76 18.441868,-33.899666,335.28 18.440781,-33.89962,320.04 18.4359,-33.899506,228.6 18.433456,-33.899338,137.16 18.431023,-33.899323,38.1 18.430407,-33.899368,22.86 18.428764,-33.89957,0 18.428078,-33.899712,0 18.427448,-33.900364,0
        </coordinates>
      </LineString>
    </Placemark>
  </Document>
</kml>