<?xml version="1.0" encoding="UTF-8"?>
<kml xmlns="http://www.opengis.net/kml/2.2">
  <Document>
    <name>-/ZTHOT - Optimised</name>
    <description><![CDATA[Optimised flight path with 394 points (decimated from 1968 original points). Source format: Standard KML]]></description>
    
    <Style id="flightPath">
      <LineStyle>
        <color>ffff0000</color>
        <width>3</width>
      </LineStyle>
    </Style>
    
    <Placemark>
      <name>Flight Path</name>
      <description><![CDATA[<div style="width:220px; text-align:center;">
<div style="width:210px; text-align:center;">
<div style=" background: #000; color: #fff; font-size: 14px; text-align:left; border: 1px solid #000; padding: 2px 6px; text-shadow: 0 1px 0 #000; box-shadow: 0 1px 3px rgba(0,0,0,0.6); background: -webkit-gradient(linear, left top, left bottom, color-stop(0%,#808080), color-stop(2%,#303030), color-stop(100%,#0c0c0c));"><span style="font-size: 14px; font-weight: bold;"><a href="javascript:void(0);" style="color: #fff; cursor: pointer;text-decoration: none;">-</a></span> / ZTHOT<br/>Cape Town Helicopters</div>

<div style="border-top: 1px solid #005c90; color: #fff; padding-bottom: 5px; box-shadow: 0 0 1px #9BE3F6 inset, 0 1px 0 #9BE3F6 inset, 0 -1px 3px rgba(0,0,0,0.4); background:rgba(43,114,173,1); background: -webkit-gradient(linear, left top, left bottom, color-stop(0%,rgba(92,184,229,1)), color-stop(100%,rgba(43,114,173,1)));">
<a style="text-decoration: none; color: rgb(255, 255, 255); font-size: 12px; width:77px; display: inline-block;" title=" Airport" href="javascript:void(0);/departures"><h3 style="padding: 0px; margin: 10px 0px 0px; font-size: 16px; ">?</h3></a>
<span style="background: url(https://www.flightradar24.com/static/images/userUI_sprite.png?14) no-repeat scroll 0 -464px rgba(0, 0, 0, 0); border: medium none; display: inline-block; height: 16px; width: 45px;"></span>
<a style="text-decoration: none; color: rgb(255, 255, 255); font-size: 12px; width:77px; display: inline-block;" title=" Airport" href="javascript:void(0);/arrivals"><h3 style="padding: 0px; margin: 10px 0px 0px; font-size: 16px;">?</h3></a>
<div style=" margin-top:10px;">
<div style="display: inline-block; font-size: 12px; padding: 0 5px;">
<div>
<span style="color: #c1eaff;" title="Actual Time of Departure">ATD </span>
<span title="2025-09-22 08:10">08:10</span> <span title="Coordinated Universal Time">UTC</span>
</div>
</div>
<div style="display: inline-block; font-size: 12px; padding: 0 5px;">
<div>
<span style="color: #c1eaff;" title="Estimated Time of Arrival">ETA </span>
<span title="2025-09-22 08:30">08:30</span> <span title="Coordinated Universal Time">UTC</span>
</div>
</div>
</div>
<br style="clear: both;"/>
</div>

<div style="display: block;">
<table style="border-collapse: collapse; width: 100%;">
<tr style="border-right: 1px solid #dadada; ">
<td style="background: none repeat scroll 0 0 #dadada; padding: 0; width: 31px;">
<span style="background: url(https://www.flightradar24.com/static/images/userUI_sprite.png?14) no-repeat scroll -208px -464px rgba(0, 0, 0, 0); height: 26px; margin: 8px 0 0 4px; width: 23px; display: block;"></span>
</td>
<td colspan="2" style="border-bottom: 1px solid #dadada; border-left: 1px solid #dadada; color: #666; line-height: 1.1em; padding: 3px 6px; vertical-align: top; font-size: 14px;">
Aircraft<span style="float: right; font-size: 12px;">(AS50)</span><br>
<span style="color: #333; font-size: 16px; font-weight: bold; line-height: 1.3em;">Airbus Helicopters H125</span>
</td>
</tr>
<tr style="border-right: 1px solid #dadada; ">
<td style="background: none repeat scroll 0 0 #dadada; padding: 0; width: 31px;">
<td colspan="2" style="border-bottom: 1px solid #dadada; border-left: 1px solid #dadada; color: #666; line-height: 1.1em; padding: 3px 6px; vertical-align: top; font-size: 14px;">
Registration<br>
<span style="color: #333; font-size: 16px; font-weight: bold; line-height: 1.3em;"><a href="https://www.flightradar24.com/reg/zt-hot" style="text-decoration: none; color: #333;">ZT-HOT</a></span>
</td>
</tr>
</table>
</div>

</div>
</div>]]></description>
      <styleUrl>#flightPath</styleUrl>
      <LineString>
        <extrude>1</extrude>
        <tessellate>1</tessellate>
        <altitudeMode>absolute</altitudeMode>
        <coordinates>
          18.430855,-33.893967,60.96 18.4338,-33.88826,121.92 18.434315,-33.886631,121.92 18.434258,-33.884026,152.4 18.433514,-33.882256,152.4 18.431751,-33.880096,182.88 18.430182,-33.878632,182.88 18.42762,-33.876717,182.88 18.425137,-33.875381,182.88 18.421551,-33.874191,213.36 18.41898,-33.873829,213.36 18.414936,-33.873962,213.36 18.412228,-33.874481,243.84 18.409105,-33.875198,274.32 18.40608,-33.876114,304.8 18.40353,-33.877041,335.28 18.401756,-33.877926,335.28 18.400194,-33.879639,365.76 18.400269,-33.881325,396.24 18.40238,-33.882889,426.72 18.404734,-33.883347,426.72 18.408096,-33.883301,457.2 18.410227,-33.883072,457.2 18.413647,-33.882339,487.68 18.41572,-33.881332,487.68 18.417906,-33.879135,518.16 18.418579,-33.87735,518.16 18.417892,-33.874851,518.16 18.416405,-33.873642,518.16 18.413141,-33.873001,487.68 18.41074,-33.873272,487.68 18.4072,-33.874283,457.2 18.405014,-33.875198,487.68 18.401707,-33.876801,487.68 18.399639,-33.877972,487.68 18.396606,-33.879822,487.68 18.394547,-33.881092,487.68 18.391394,-33.883209,487.68 18.389544,-33.884583,487.68 18.386629,-33.88678,487.68 18.384779,-33.88829,487.68 18.382301,-33.8904,487.68 18.38047,-33.892033,518.16 18.378054,-33.894424,518.16 18.376427,-33.896164,518.16 18.37429,-33.898548,487.68 18.372728,-33.900421,518.16 18.370571,-33.903019,518.16 18.369253,-33.904724,518.16 18.36729,-33.907425,518.16 18.365993,-33.909302,518.16 18.364162,-33.912189,518.16 18.362904,-33.914188,518.16 18.361181,-33.917358,518.16 18.360004,-33.919601,518.16 18.358555,-33.922569,518.16 18.357582,-33.924618,518.16 18.356209,-33.927876,518.16 18.355352,-33.929993,518.16 18.354206,-33.933044,518.16 18.352325,-33.938873,548.64 18.353462,-33.941284,579.12 18.355408,-33.942032,609.6 18.35849,-33.941071,640.08 18.359724,-33.939468,640.08 18.360901,-33.936356,640.08 18.361462,-33.93425,670.56 18.362274,-33.931133,670.56 18.362806,-33.928986,701.04 18.36359,-33.926105,701.04 18.365078,-33.924664,762 18.367996,-33.924805,792.48 18.36886,-33.925964,792.48 18.368467,-33.928391,792.48 18.367683,-33.930084,792.48 18.365891,-33.933105,762 18.364601,-33.935028,762 18.362503,-33.938023,731.52 18.361187,-33.939934,731.52 18.359051,-33.943085,731.52 18.354721,-33.949757,701.04 18.344822,-33.964512,670.56 18.3382,-33.974396,640.08 18.332762,-33.984375,640.08 18.329454,-33.99202,640.08 18.327326,-33.998932,640.08 18.326855,-34.000683,670.56 18.32531,-34.007107,670.56 18.325083,-34.009232,701.04 18.325539,-34.0126,701.04 18.326511,-34.014744,701.04 18.328514,-34.017208,701.04 18.330353,-34.018936,701.04 18.333149,-34.021446,701.04 18.335285,-34.023376,701.04 18.337864,-34.02594,701.04 18.340441,-34.029007,670.56 18.34259,-34.031967,670.56 18.343964,-34.034107,701.04 18.345909,-34.037041,701.04 18.347168,-34.039078,701.04 18.348793,-34.042282,701.04 18.349686,-34.044491,701.04 18.350643,-34.047592,701.04 18.351173,-34.049702,701.04 18.35182,-34.053131,701.04 18.352032,-34.055428,701.04 18.35182,-34.058899,670.56 18.35146,-34.061527,670.56 18.35083,-34.064785,670.56 18.350372,-34.06702,670.56 18.349628,-34.07056,670.56 18.349113,-34.072933,670.56 18.346882,-34.083359,640.08 18.345852,-34.090485,640.08 18.345711,-34.093826,609.6 18.345852,-34.096489,609.6 18.346996,-34.100025,640.08 18.348713,-34.102028,640.08 18.351877,-34.103897,640.08 18.354435,-34.104866,640.08 18.358099,-34.106323,640.08 18.360788,-34.107559,640.08 18.364677,-34.109478,609.6 18.368511,-34.111526,609.6 18.372345,-34.113667,609.6 18.374691,-34.114922,609.6 18.384819,-34.119671,609.6 18.38768,-34.120556,609.6 18.3922,-34.121578,609.6 18.395037,-34.122253,609.6 18.399128,-34.123306,609.6 18.404343,-34.124908,609.6 18.40868,-34.126514,579.12 18.411293,-34.127609,579.12 18.415089,-34.129215,579.12 18.417625,-34.130402,579.12 18.421669,-34.132332,548.64 18.423847,-34.133423,548.64 18.42762,-34.135406,548.64 18.430069,-34.136673,518.16 18.433342,-34.138523,518.16 18.435675,-34.140106,518.16 18.438721,-34.142948,487.68 18.440552,-34.145134,487.68 18.442268,-34.1483,487.68 18.443073,-34.150589,487.68 18.443985,-34.154026,457.2 18.444475,-34.156174,457.2 18.445261,-34.160065,457.2 18.445652,-34.162079,457.2 18.447132,-34.167854,457.2 18.448277,-34.171204,457.2 18.449575,-34.174301,426.72 18.450508,-34.176418,426.72 18.452168,-34.179489,426.72 18.453655,-34.18182,426.72 18.455486,-34.184566,396.24 18.457031,-34.186798,396.24 18.45933,-34.189957,365.76 18.460579,-34.191734,365.76 18.465887,-34.199158,335.28 18.470192,-34.205421,335.28 18.475641,-34.213715,304.8 18.477882,-34.217514,304.8 18.47934,-34.220261,304.8 18.480406,-34.222321,304.8 18.483353,-34.227764,243.84 18.48484,-34.231026,243.84 18.485226,-34.233948,213.36 18.484554,-34.235355,213.36 18.482815,-34.235916,182.88 18.481638,-34.235641,152.4 18.479633,-34.234795,91.44 18.478661,-34.234188,91.44 18.477322,-34.23349,30.48 18.476315,-34.233307,0 18.475571,-34.23391,0 18.475361,-34.234543,0 18.476887,-34.236656,0 18.489189,-34.222088,182.88 18.488617,-34.218128,182.88 18.488331,-34.216175,213.36 18.48786,-34.212982,243.84 18.487473,-34.21096,243.84 18.486786,-34.20784,274.32 18.485298,-34.1996,274.32 18.484833,-34.195404,304.8 18.484612,-34.193317,304.8 18.484442,-34.190094,304.8 18.484161,-34.184464,335.28 18.484211,-34.179165,365.76 18.484383,-34.176884,365.76 18.484554,-34.17358,365.76 18.484722,-34.171509,396.24 18.484783,-34.163105,396.24 18.484669,-34.16087,426.72 18.484497,-34.157822,426.72 18.484325,-34.155609,426.72 18.484049,-34.152008,426.72 18.483696,-34.147648,426.72 18.482927,-34.136673,426.72 18.482199,-34.127197,426.72 18.481236,-34.11525,426.72 18.480797,-34.107559,487.68 18.480125,-34.0952,487.68 18.4799,-34.086227,457.2 18.480148,-34.080894,487.68 18.480377,-34.078426,457.2 18.480949,-34.075027,487.68 18.48135,-34.073025,487.68 18.482199,-34.066223,487.68 18.482494,-34.06176,457.2 18.482647,-34.058304,487.68 18.48278,-34.055988,457.2 18.483124,-34.046909,457.2 18.483181,-34.039928,457.2 18.483601,-34.028641,426.72 18.483768,-34.021042,426.72 18.484097,-34.007481,426.72 18.484497,-33.999332,396.24 18.484777,-33.986847,396.24 18.484945,-33.979202,396.24 18.484722,-33.968399,365.76 18.48461,-33.966385,365.76 18.484329,-33.963089,335.28 18.484049,-33.954895,304.8 18.483639,-33.945518,274.32 18.483353,-33.943565,274.32 18.482647,-33.94043,274.32 18.482094,-33.938583,274.32 18.480949,-33.935326,274.32 18.480125,-33.933426,274.32 18.478668,-33.930588,274.32 18.477459,-33.928619,274.32 18.475399,-33.925827,243.84 18.474127,-33.924316,274.32 18.472109,-33.922211,274.32 18.470078,-33.920334,274.32 18.467445,-33.918007,274.32 18.465672,-33.91647,274.32 18.463268,-33.91433,274.32 18.461571,-33.912872,243.84 18.453276,-33.905823,213.36 18.448448,-33.901993,182.88 18.444868,-33.899551,152.4 18.442783,-33.898457,152.4 18.439636,-33.89785,121.92 18.437977,-33.898037,121.92 18.435745,-33.898502,91.44 18.434429,-33.898872,60.96 18.431976,-33.899506,30.48 18.43091,-33.899734,30.48 18.428192,-33.900272,0 18.427435,-33.900558,0 18.429958,-33.89502,30.48 18.432367,-33.89003,91.44 18.433096,-33.887512,121.92 18.433096,-33.886047,152.4 18.431976,-33.883301,152.4 18.430799,-33.881927,152.4 18.428192,-33.88002,182.88 18.426247,-33.879044,182.88 18.42247,-33.877926,213.36 18.420181,-33.87746,213.36 18.416729,-33.876892,243.84 18.414488,-33.876755,274.32 18.411198,-33.8769,274.32 18.408737,-33.877228,274.32 18.405687,-33.877945,304.8 18.403473,-33.878624,335.28 18.400269,-33.879879,335.28 18.398344,-33.880737,335.28 18.395542,-33.882248,365.76 18.393635,-33.883392,365.76 18.390945,-33.885086,396.24 18.389225,-33.886257,396.24 18.386349,-33.88829,396.24 18.384647,-33.889565,426.72 18.382015,-33.89175,426.72 18.380356,-33.893147,426.72 18.377609,-33.895615,426.72 18.375778,-33.897339,457.2 18.373457,-33.899643,457.2 18.371943,-33.901199,457.2 18.369942,-33.90353,487.68 18.368626,-33.905251,487.68 18.366795,-33.907997,487.68 18.365421,-33.910141,487.68 18.363876,-33.912792,487.68 18.362751,-33.914703,487.68 18.361359,-33.91745,518.16 18.360508,-33.919189,518.16 18.359127,-33.922245,548.64 18.358269,-33.924198,548.64 18.357033,-33.927063,548.64 18.354174,-33.933838,548.64 18.350258,-33.943752,579.12 18.347683,-33.949802,609.6 18.343163,-33.959579,609.6 18.34116,-33.966656,640.08 18.347912,-33.971031,640.08 18.351988,-33.966339,609.6 18.353233,-33.960369,579.12 18.353838,-33.957138,548.64 18.354664,-33.953014,548.64 18.355236,-33.950642,548.64 18.357067,-33.944263,518.16 18.357819,-33.942123,518.16 18.359331,-33.938141,518.16 18.360117,-33.935898,518.16 18.361759,-33.931416,518.16 18.364964,-33.923779,518.16 18.367123,-33.919464,518.16 18.368244,-33.917313,518.16 18.370285,-33.913723,518.16 18.371658,-33.911537,518.16 18.37396,-33.908157,518.16 18.375475,-33.906097,518.16 18.377941,-33.902802,518.16 18.379555,-33.900829,487.68 18.382416,-33.897709,487.68 18.38419,-33.895988,487.68 18.387022,-33.893555,487.68 18.389601,-33.891724,487.68 18.393116,-33.88961,487.68 18.395542,-33.888336,487.68 18.399408,-33.88678,487.68 18.402155,-33.885773,487.68 18.406359,-33.884399,487.68 18.409081,-33.883698,487.68 18.414059,-33.882721,487.68 18.416842,-33.882431,457.2 18.42144,-33.882256,457.2 18.424576,-33.882339,426.72 18.428879,-33.882908,396.24 18.431911,-33.88356,396.24 18.435675,-33.884766,365.76 18.438141,-33.886002,365.76 18.440952,-33.887981,335.28 18.442383,-33.889378,304.8 18.443972,-33.891907,304.8 18.444328,-33.893612,274.32 18.443413,-33.895336,243.84 18.442289,-33.895981,213.36 18.440208,-33.896732,182.88 18.438377,-33.897339,152.4 18.436068,-33.898041,121.92 18.434658,-33.898502,91.44 18.431683,-33.899338,30.48 18.430967,-33.899506,30.48 18.427563,-33.900505,0 18.427849,-33.899105,0 18.42905,-33.898083,0 18.429958,-33.897629,30.48 18.431168,-33.897198,30.48 18.432985,-33.896759,60.96 18.436012,-33.896896,91.44 18.437805,-33.897526,121.92 18.440552,-33.899139,152.4 18.442345,-33.900421,182.88 18.444923,-33.902161,182.88 18.446903,-33.903576,213.36 18.449478,-33.905533,243.84 18.451195,-33.906929,243.84 18.463726,-33.915352,274.32 18.467846,-33.918098,274.32 18.480686,-33.926514,274.32 18.487356,-33.931137,274.32 18.496885,-33.93782,274.32 18.502489,-33.941528,274.32 18.507086,-33.944275,274.32 18.510338,-33.946289,243.84 18.513756,-33.947891,243.84 18.515774,-33.948578,243.84 18.519138,-33.949585,243.84 18.521437,-33.950226,213.36 18.524742,-33.951141,243.84 18.527355,-33.951897,243.84 18.536854,-33.954365,274.32 18.545322,-33.956551,243.84 18.556637,-33.959885,274.32 18.564932,-33.962219,243.84 18.580347,-33.966751,152.4 18.582344,-33.967121,152.4 18.585548,-33.967724,152.4 18.588181,-33.968704,121.92 18.590069,-33.970005,91.44 18.591042,-33.971077,91.44 18.592186,-33.972797,60.96 18.59293,-33.973824,60.96 18.593845,-33.975174,0 18.594246,-33.975731,0 18.594864,-33.976547,0
        </coordinates>
      </LineString>
    </Placemark>
  </Document>
</kml>