<?xml version="1.0" encoding="UTF-8"?>
<kml xmlns="http://www.opengis.net/kml/2.2">
  <Document>
    <name>-/ZTHOT - Optimised</name>
    <description><![CDATA[Optimised flight path with 1310 points (decimated from 6546 original points). Source format: Standard KML]]></description>
    
    <Style id="flightPath">
      <LineStyle>
        <color>ffff0000</color>
        <width>3</width>
      </LineStyle>
    </Style>
    
    <Placemark>
      <name>Flight Path</name>
      <description><![CDATA[<div style="width:220px; text-align:center;">
<div style="width:210px; text-align:center;">
<div style=" background: #000; color: #fff; font-size: 14px; text-align:left; border: 1px solid #000; padding: 2px 6px; text-shadow: 0 1px 0 #000; box-shadow: 0 1px 3px rgba(0,0,0,0.6); background: -webkit-gradient(linear, left top, left bottom, color-stop(0%,#808080), color-stop(2%,#303030), color-stop(100%,#0c0c0c));"><span style="font-size: 14px; font-weight: bold;"><a href="javascript:void(0);" style="color: #fff; cursor: pointer;text-decoration: none;">-</a></span> / ZTHOT<br/>Cape Town Helicopters</div>

<div style="border-top: 1px solid #005c90; color: #fff; padding-bottom: 5px; box-shadow: 0 0 1px #9BE3F6 inset, 0 1px 0 #9BE3F6 inset, 0 -1px 3px rgba(0,0,0,0.4); background:rgba(43,114,173,1); background: -webkit-gradient(linear, left top, left bottom, color-stop(0%,rgba(92,184,229,1)), color-stop(100%,rgba(43,114,173,1)));">
<a style="text-decoration: none; color: rgb(255, 255, 255); font-size: 12px; width:77px; display: inline-block;" title=" Airport" href="javascript:void(0);/departures"><h3 style="padding: 0px; margin: 10px 0px 0px; font-size: 16px; ">?</h3></a>
<span style="background: url(https://www.flightradar24.com/static/images/userUI_sprite.png?14) no-repeat scroll 0 -464px rgba(0, 0, 0, 0); border: medium none; display: inline-block; height: 16px; width: 45px;"></span>
<a style="text-decoration: none; color: rgb(255, 255, 255); font-size: 12px; width:77px; display: inline-block;" title=" Airport" href="javascript:void(0);/arrivals"><h3 style="padding: 0px; margin: 10px 0px 0px; font-size: 16px;">?</h3></a>
<div style=" margin-top:10px;">
<div style="display: inline-block; font-size: 12px; padding: 0 5px;">
<div>
<span style="color: #c1eaff;" title="Actual Time of Departure">ATD </span>
<span title="2025-08-01 07:01">07:01</span> <span title="Coordinated Universal Time">UTC</span>
</div>
</div>
<div style="display: inline-block; font-size: 12px; padding: 0 5px;">
<div>
<span style="color: #c1eaff;" title="Estimated Time of Arrival">ETA </span>
<span title="2025-08-01 07:34">07:34</span> <span title="Coordinated Universal Time">UTC</span>
</div>
</div>
</div>
<br style="clear: both;"/>
</div>

<div style="display: block;">
<table style="border-collapse: collapse; width: 100%;">
<tr style="border-right: 1px solid #dadada; ">
<td style="background: none repeat scroll 0 0 #dadada; padding: 0; width: 31px;">
<span style="background: url(https://www.flightradar24.com/static/images/userUI_sprite.png?14) no-repeat scroll -208px -464px rgba(0, 0, 0, 0); height: 26px; margin: 8px 0 0 4px; width: 23px; display: block;"></span>
</td>
<td colspan="2" style="border-bottom: 1px solid #dadada; border-left: 1px solid #dadada; color: #666; line-height: 1.1em; padding: 3px 6px; vertical-align: top; font-size: 14px;">
Aircraft<span style="float: right; font-size: 12px;">(AS50)</span><br>
<span style="color: #333; font-size: 16px; font-weight: bold; line-height: 1.3em;">Airbus Helicopters H125</span>
</td>
</tr>
<tr style="border-right: 1px solid #dadada; ">
<td style="background: none repeat scroll 0 0 #dadada; padding: 0; width: 31px;">
<td colspan="2" style="border-bottom: 1px solid #dadada; border-left: 1px solid #dadada; color: #666; line-height: 1.1em; padding: 3px 6px; vertical-align: top; font-size: 14px;">
Registration<br>
<span style="color: #333; font-size: 16px; font-weight: bold; line-height: 1.3em;"><a href="https://www.flightradar24.com/reg/zt-hot" style="text-decoration: none; color: #333;">ZT-HOT</a></span>
</td>
</tr>
</table>
</div>

</div>
</div>]]></description>
      <styleUrl>#flightPath</styleUrl>
      <LineString>
        <extrude>1</extrude>
        <tessellate>1</tessellate>
        <altitudeMode>absolute</altitudeMode>
        <coordinates>
          18.442963,-33.894287,60.96 18.443243,-33.889343,60.96 18.442783,-33.887329,91.44 18.441582,-33.884258,91.44 18.440439,-33.882294,121.92 18.438366,-33.87941,121.92 18.437077,-33.877853,121.92 18.434658,-33.875134,152.4 18.433041,-33.873276,152.4 18.430687,-33.870575,152.4 18.427734,-33.866707,152.4 18.425642,-33.863617,182.88 18.424072,-33.861328,182.88 18.421898,-33.858139,182.88 18.420525,-33.856094,182.88 18.413773,-33.845432,152.4 18.411909,-33.84201,152.4 18.410227,-33.838806,152.4 18.40905,-33.836563,152.4 18.405014,-33.829147,152.4 18.400269,-33.820339,152.4 18.394775,-33.811916,152.4 18.393299,-33.809692,152.4 18.387583,-33.800354,121.92 18.383602,-33.793442,121.92 18.3808,-33.787766,121.92 18.380072,-33.785706,121.92 18.379097,-33.782635,121.92 18.378754,-33.781609,121.92 18.369196,-33.779388,182.88 18.370857,-33.78212,152.4 18.372841,-33.784424,152.4 18.374062,-33.785892,152.4 18.376007,-33.788033,152.4 18.377045,-33.78923,152.4 18.380814,-33.793854,152.4 18.381901,-33.79567,121.92 18.383099,-33.798019,121.92 18.383904,-33.800045,121.92 18.384892,-33.802734,121.92 18.385563,-33.80479,91.44 18.386593,-33.807587,91.44 18.387165,-33.809727,91.44 18.387508,-33.81266,91.44 18.387394,-33.815594,91.44 18.386879,-33.819271,121.92 18.386478,-33.82132,121.92 18.3859,-33.824158,152.4 18.385452,-33.826309,152.4 18.384779,-33.829147,182.88 18.384218,-33.831161,182.88 18.382032,-33.840958,243.84 18.381529,-33.843842,274.32 18.381191,-33.846497,274.32 18.380968,-33.848511,304.8 18.379791,-33.857986,365.76 18.379679,-33.861237,396.24 18.379566,-33.8638,396.24 18.379269,-33.868755,396.24 18.379063,-33.879593,426.72 18.37923,-33.881836,426.72 18.378614,-33.886002,426.72 18.377661,-33.88797,426.72 18.375835,-33.890865,426.72 18.374186,-33.892822,457.2 18.371944,-33.895058,457.2 18.370037,-33.896805,457.2 18.367403,-33.899139,487.68 18.36561,-33.900833,487.68 18.361473,-33.904881,487.68 18.35804,-33.908558,518.16 18.355856,-33.911407,518.16 18.354399,-33.913376,487.68 18.352045,-33.916534,487.68 18.350773,-33.91824,487.68 18.348827,-33.92136,518.16 18.347683,-33.923546,518.16 18.34631,-33.92662,518.16 18.345318,-33.928574,518.16 18.343506,-33.932018,518.16 18.340611,-33.938187,548.64 18.340187,-33.941006,579.12 18.340498,-33.942764,609.6 18.342236,-33.945053,640.08 18.343792,-33.945751,670.56 18.347054,-33.946079,670.56 18.349073,-33.945648,670.56 18.35186,-33.944122,640.08 18.353519,-33.942539,640.08 18.35535,-33.939655,640.08 18.356136,-33.937363,640.08 18.355122,-33.934208,670.56 18.353222,-33.933289,670.56 18.350201,-33.934113,670.56 18.348513,-33.936813,640.08 18.347225,-33.940025,670.56 18.346384,-33.942535,670.56 18.344141,-33.948578,670.56 18.342628,-33.951736,670.56 18.341114,-33.954529,670.56 18.339615,-33.957066,670.56 18.333836,-33.966049,731.52 18.327829,-33.975082,731.52 18.319073,-33.988441,731.52 18.315331,-33.994354,762 18.308029,-34.006504,762 18.302382,-34.01445,731.52 18.299131,-34.019485,731.52 18.296721,-34.023422,731.52 18.295208,-34.026489,731.52 18.294468,-34.028194,731.52 18.29347,-34.03093,731.52 18.29291,-34.033264,731.52 18.292465,-34.036343,731.52 18.292408,-34.038578,731.52 18.292923,-34.041882,731.52 18.293552,-34.044258,731.52 18.294647,-34.047272,731.52 18.295599,-34.049332,731.52 18.297157,-34.052216,731.52 18.298346,-34.054184,701.04 18.300304,-34.057152,731.52 18.301735,-34.058922,731.52 18.303909,-34.061249,701.04 18.305801,-34.062973,701.04 18.308487,-34.065346,701.04 18.310341,-34.066864,701.04 18.313179,-34.068977,731.52 18.31604,-34.072281,731.52 18.317642,-34.074841,731.52 18.320431,-34.077347,731.52 18.323177,-34.078033,731.52 18.325424,-34.077682,731.52 18.327827,-34.076004,731.52 18.328671,-34.074509,731.52 18.328743,-34.07177,731.52 18.327999,-34.069954,731.52 18.325308,-34.068146,731.52 18.322964,-34.067719,701.04 18.319588,-34.06823,701.04 18.317516,-34.069061,670.56 18.315353,-34.07093,670.56 18.314838,-34.072327,640.08 18.315525,-34.074936,640.08 18.316282,-34.07634,640.08 18.317585,-34.078613,670.56 18.318558,-34.080288,670.56 18.320045,-34.082661,670.56 18.321075,-34.084198,670.56 18.322792,-34.08662,701.04 18.324165,-34.088341,701.04 18.326036,-34.090714,701.04 18.32737,-34.092251,701.04 18.329399,-34.094467,701.04 18.332146,-34.097626,701.04 18.339157,-34.105892,701.04 18.34259,-34.109894,701.04 18.345205,-34.111954,670.56 18.346996,-34.11306,640.08 18.350143,-34.114552,640.08 18.352375,-34.115482,609.6 18.355408,-34.116692,609.6 18.357582,-34.117298,609.6 18.360846,-34.117767,609.6 18.363647,-34.117859,609.6 18.367481,-34.11795,579.12 18.370056,-34.117996,579.12 18.374018,-34.118179,609.6 18.380463,-34.118637,579.12 18.384705,-34.11916,548.64 18.387133,-34.119598,548.64 18.391281,-34.120377,518.16 18.393972,-34.120834,518.16 18.398323,-34.121674,487.68 18.40053,-34.122162,487.68 18.404789,-34.123302,487.68 18.4072,-34.12413,487.68 18.41074,-34.125538,457.2 18.413315,-34.126606,457.2 18.41692,-34.128098,457.2 18.419363,-34.12912,457.2 18.427773,-34.132553,457.2 18.433628,-34.134663,426.72 18.437637,-34.135666,426.72 18.440104,-34.135986,457.2 18.444214,-34.135918,457.2 18.44696,-34.135406,457.2 18.450966,-34.133823,426.72 18.453197,-34.132519,426.72 18.456688,-34.129913,426.72 18.458714,-34.128159,396.24 18.461908,-34.125275,396.24 18.463758,-34.123581,396.24 18.467064,-34.120651,365.76 18.47208,-34.116226,365.76 18.477827,-34.109848,335.28 18.478832,-34.107334,335.28 18.479452,-34.103622,365.76 18.479576,-34.100956,365.76 18.479805,-34.096954,396.24 18.479862,-34.094627,396.24 18.479958,-34.090714,396.24 18.4799,-34.08815,396.24 18.479576,-34.075771,426.72 18.479116,-34.06691,426.72 18.479176,-34.054081,457.2 18.479004,-34.044117,457.2 18.478203,-34.032291,487.68 18.477745,-34.024426,487.68 18.47805,-34.01889,487.68 18.478724,-34.016327,457.2 18.480148,-34.012928,426.72 18.481178,-34.010738,396.24 18.48278,-34.006874,365.76 18.483713,-34.004196,335.28 18.485226,-33.997513,304.8 18.485584,-33.99477,274.32 18.485813,-33.990582,243.84 18.48587,-33.988022,243.84 18.48587,-33.983971,243.84 18.485842,-33.981125,213.36 18.485813,-33.977314,213.36 18.485842,-33.974442,213.36 18.485527,-33.961861,182.88 18.484497,-33.952408,152.4 18.483936,-33.948898,152.4 18.483467,-33.946449,152.4 18.482494,-33.942261,152.4 18.481863,-33.939468,152.4 18.480742,-33.935257,152.4 18.480068,-33.932968,152.4 18.478374,-33.929317,152.4 18.476706,-33.926926,152.4 18.47414,-33.923965,152.4 18.471773,-33.921799,152.4 18.468533,-33.919125,152.4 18.46653,-33.917587,152.4 18.462805,-33.915024,121.92 18.459949,-33.913071,121.92 18.454113,-33.908558,121.92 18.452282,-33.906601,121.92 18.450136,-33.903351,121.92 18.449127,-33.901245,121.92 18.448063,-33.897675,121.92 18.447762,-33.895802,121.92 18.446903,-33.892822,121.92 18.445473,-33.891567,121.92 18.442234,-33.891724,91.44 18.440323,-33.892822,60.96 18.438702,-33.894012,30.48 18.437977,-33.894547,30.48 18.4359,-33.895935,0 18.435339,-33.896301,0 18.433228,-33.897709,0 18.431416,-33.898819,0 18.427677,-33.900688,0 18.437693,-33.90065,0 18.438869,-33.900009,0 18.439598,-33.899506,30.48 18.441181,-33.898083,30.48 18.441729,-33.897354,30.48 18.442898,-33.895245,60.96 18.443241,-33.893333,91.44 18.443018,-33.890625,121.92 18.442383,-33.888634,121.92 18.440777,-33.885773,152.4 18.439375,-33.884125,152.4 18.436718,-33.882023,182.88 18.43461,-33.880829,213.36 18.431416,-33.87941,243.84 18.429222,-33.878624,274.32 18.42581,-33.877716,304.8 18.423271,-33.877319,304.8 18.419813,-33.876938,304.8 18.417091,-33.876717,335.28 18.412914,-33.876575,335.28 18.41062,-33.876617,335.28 18.406448,-33.876717,365.76 18.403816,-33.8769,396.24 18.399925,-33.877228,426.72 18.397408,-33.877552,426.72 18.393524,-33.878265,457.2 18.391338,-33.878677,487.68 18.387863,-33.879547,487.68 18.38562,-33.880344,518.16 18.382416,-33.881603,518.16 18.379791,-33.882751,518.16 18.376204,-33.884354,518.16 18.374176,-33.885372,518.16 18.370743,-33.887421,518.16 18.368973,-33.888565,518.16 18.365833,-33.891037,518.16 18.363762,-33.892963,518.16 18.360956,-33.895844,518.16 18.359413,-33.897709,518.16 18.357296,-33.900455,518.16 18.356037,-33.90218,548.64 18.354174,-33.904907,548.64 18.352829,-33.906967,548.64 18.351116,-33.909859,548.64 18.350143,-33.911583,548.64 18.34857,-33.914658,579.12 18.347616,-33.91658,579.12 18.346272,-33.919693,609.6 18.345394,-33.921593,640.08 18.341507,-33.930542,670.56 18.33876,-33.93718,701.04 18.334164,-33.948212,731.52 18.330072,-33.958282,762 18.324909,-33.967678,762 18.321215,-33.97261,762 18.315296,-33.979691,762 18.313873,-33.981079,762 18.311182,-33.98378,762 18.309389,-33.985611,762 18.30468,-33.990967,762 18.303167,-33.992889,762 18.300308,-33.996689,792.48 18.298233,-33.999619,792.48 18.296928,-34.001568,822.96 18.295038,-34.004425,822.96 18.290291,-34.011066,853.44 18.288517,-34.012833,853.44 18.285999,-34.015022,853.44 18.284054,-34.01651,853.44 18.280964,-34.018841,853.44 18.278675,-34.0214,853.44 18.278,-34.023651,883.92 18.278391,-34.025253,914.4 18.280048,-34.026985,914.4 18.281708,-34.027824,914.4 18.284277,-34.028503,914.4 18.286285,-34.028709,883.92 18.289604,-34.028755,883.92 18.29162,-34.028549,853.44 18.295155,-34.027592,853.44 18.297394,-34.026581,822.96 18.299915,-34.02475,822.96 18.301653,-34.022964,853.44 18.303509,-34.02042,853.44 18.304792,-34.018478,883.92 18.306473,-34.015915,883.92 18.307819,-34.013855,883.92 18.30978,-34.010971,883.92 18.31255,-34.006924,853.44 18.318748,-33.998611,853.44 18.320431,-33.996597,853.44 18.326149,-33.989548,822.96 18.331865,-33.982178,792.48 18.339214,-33.972984,762 18.34358,-33.966705,731.52 18.346607,-33.96167,731.52 18.348009,-33.959152,731.52 18.350086,-33.95525,701.04 18.351091,-33.953247,670.56 18.356752,-33.941986,548.64 18.361069,-33.933975,487.68 18.364792,-33.927738,487.68 18.367851,-33.922577,487.68 18.370823,-33.918503,487.68 18.372168,-33.916672,487.68 18.374348,-33.914097,487.68 18.376146,-33.912003,487.68 18.378502,-33.909348,457.2 18.380241,-33.90744,457.2 18.382874,-33.904648,457.2 18.387222,-33.900272,457.2 18.390217,-33.897629,457.2 18.391914,-33.896313,457.2 18.395317,-33.894058,457.2 18.397751,-33.892776,457.2 18.401203,-33.891266,457.2 18.403988,-33.890263,426.72 18.407421,-33.889145,426.72 18.409891,-33.888382,396.24 18.41383,-33.887283,396.24 18.416405,-33.886631,365.76 18.420238,-33.885933,335.28 18.422728,-33.88559,335.28 18.426426,-33.885223,304.8 18.428669,-33.88504,304.8 18.432713,-33.885048,274.32 18.434887,-33.885189,243.84 18.438549,-33.885838,243.84 18.440552,-33.886444,213.36 18.44347,-33.887653,182.88 18.445358,-33.888821,182.88 18.447189,-33.890728,152.4 18.44759,-33.892357,121.92 18.446274,-33.894032,121.92 18.444672,-33.894547,91.44 18.441696,-33.895012,30.48 18.440664,-33.895157,30.48 18.439522,-33.895382,0 18.438892,-33.895523,0 18.437244,-33.895935,0 18.435287,-33.896454,0 18.43405,-33.896851,0 18.43277,-33.897243,0 18.429794,-33.898129,0 18.428556,-33.898727,0 18.433228,-33.901806,0 18.435116,-33.901806,0 18.436489,-33.901619,30.48 18.43729,-33.901436,30.48 18.438421,-33.901062,30.48 18.439318,-33.90065,30.48 18.441181,-33.899525,60.96 18.442795,-33.898178,60.96 18.444557,-33.895988,91.44 18.445473,-33.894314,91.44 18.446445,-33.891613,121.92 18.446617,-33.889469,121.92 18.44593,-33.886398,121.92 18.445204,-33.88472,121.92 18.443184,-33.881836,152.4 18.441505,-33.880096,152.4 18.438927,-33.878082,182.88 18.436375,-33.876575,213.36 18.433228,-33.87532,243.84 18.431053,-33.874851,274.32 18.427505,-33.87434,274.32 18.425159,-33.874153,304.8 18.421719,-33.874054,304.8 18.419266,-33.874153,335.28 18.415203,-33.874573,335.28 18.412582,-33.874924,365.76 18.408602,-33.875702,365.76 18.406023,-33.876251,396.24 18.402271,-33.877132,396.24 18.400137,-33.87767,396.24 18.396492,-33.878578,426.72 18.394028,-33.879272,426.72 18.390141,-33.88044,457.2 18.387852,-33.881325,457.2 18.384476,-33.882721,487.68 18.382145,-33.883759,487.68 18.379097,-33.885139,487.68 18.376932,-33.886185,518.16 18.373718,-33.887981,518.16 18.37183,-33.889145,518.16 18.36858,-33.891266,518.16 18.366394,-33.892731,518.16 18.363367,-33.89502,548.64 18.361874,-33.896591,548.64 18.359814,-33.8992,548.64 18.358547,-33.90097,548.64 18.356781,-33.90353,579.12 18.355633,-33.905411,579.12 18.353783,-33.908524,579.12 18.352718,-33.910374,579.12 18.347969,-33.918007,579.12 18.344254,-33.92514,609.6 18.342762,-33.928204,640.08 18.341787,-33.930176,640.08 18.338312,-33.937729,670.56 18.336639,-33.941608,670.56 18.333035,-33.951199,792.48 18.330574,-33.957111,883.92 18.326912,-33.964233,883.92 18.324509,-33.968472,883.92 18.318413,-33.97966,822.96 18.314209,-33.98695,762 18.311977,-33.99007,762 18.31049,-33.991886,762 18.308086,-33.99477,762 18.306599,-33.99654,731.52 18.302422,-34.001987,731.52 18.297562,-34.00827,731.52 18.293077,-34.013397,731.52 18.290443,-34.015137,701.04 18.287258,-34.016975,731.52 18.28495,-34.018204,731.52 18.281765,-34.020187,731.52 18.280849,-34.020935,731.52 18.279064,-34.024246,731.52 18.2794,-34.025711,731.52 18.281078,-34.027405,762 18.282484,-34.028091,762 18.285173,-34.02887,762 18.287315,-34.029079,762 18.290274,-34.02919,792.48 18.292572,-34.029144,792.48 18.296217,-34.028595,792.48 18.298346,-34.028,792.48 18.302078,-34.02652,762 18.30431,-34.025265,762 18.307482,-34.022873,762 18.309231,-34.021305,731.52 18.311798,-34.018661,731.52 18.31348,-34.016602,701.04 18.315834,-34.013214,670.56 18.317242,-34.011158,670.56 18.319359,-34.0079,640.08 18.320936,-34.005524,640.08 18.326225,-33.997749,609.6 18.334444,-33.984055,548.64 18.344707,-33.967724,487.68 18.349411,-33.959335,487.68 18.353291,-33.951153,457.2 18.35535,-33.946404,457.2 18.360565,-33.935486,396.24 18.362732,-33.931553,426.72 18.365364,-33.926945,396.24 18.366966,-33.924477,396.24 18.369085,-33.92157,396.24 18.370457,-33.919682,396.24 18.373009,-33.916443,396.24 18.374689,-33.914383,396.24 18.3771,-33.911499,396.24 18.378754,-33.909676,396.24 18.381191,-33.906967,396.24 18.382988,-33.905018,396.24 18.387794,-33.900085,426.72 18.389711,-33.898178,396.24 18.392458,-33.895889,396.24 18.394604,-33.894405,396.24 18.397808,-33.892448,396.24 18.399811,-33.891285,396.24 18.403444,-33.889481,396.24 18.40563,-33.888611,396.24 18.409767,-33.887051,365.76 18.412514,-33.886211,365.76 18.416233,-33.885235,365.76 18.418694,-33.884724,365.76 18.422447,-33.884216,365.76 18.425102,-33.884026,335.28 18.428879,-33.884117,335.28 18.431248,-33.884354,335.28 18.43483,-33.885094,304.8 18.437021,-33.885818,274.32 18.440208,-33.887096,213.36 18.442234,-33.888062,182.88 18.444901,-33.889843,152.4 18.446102,-33.891148,121.92 18.446606,-33.893509,91.44 18.445261,-33.894562,91.44 18.44285,-33.894379,91.44 18.441113,-33.89415,60.96 18.439064,-33.894127,30.48 18.43803,-33.894241,0 18.436718,-33.894547,0 18.435619,-33.894836,0 18.434029,-33.89529,0 18.433321,-33.895477,0 18.431976,-33.895844,0 18.431303,-33.896072,0 18.430023,-33.896687,0 18.427996,-33.89827,0 18.435171,-33.901199,0 18.435843,-33.90097,30.48 18.437132,-33.900467,30.48 18.438148,-33.899899,60.96 18.440323,-33.898037,91.44 18.441336,-33.896484,121.92 18.442177,-33.893875,152.4 18.442289,-33.891907,182.88 18.441954,-33.888657,213.36 18.441353,-33.88649,213.36 18.439598,-33.883163,243.84 18.438253,-33.881241,243.84 18.436089,-33.87867,274.32 18.43433,-33.877029,274.32 18.430824,-33.874992,304.8 18.428501,-33.874054,304.8 18.424644,-33.872807,335.28 18.422298,-33.8722,335.28 18.418354,-33.871536,365.76 18.41572,-33.871307,396.24 18.412228,-33.871128,396.24 18.409666,-33.871033,396.24 18.404789,-33.871037,426.72 18.401814,-33.871174,426.72 18.397951,-33.871582,457.2 18.395405,-33.871967,457.2 18.391954,-33.872635,487.68 18.388939,-33.873409,487.68 18.38562,-33.874481,518.16 18.383209,-33.875381,518.16 18.379669,-33.876854,548.64 18.377094,-33.878067,548.64 18.373775,-33.879929,579.12 18.371719,-33.881195,579.12 18.368076,-33.883621,579.12 18.365936,-33.885189,579.12 18.362846,-33.887653,579.12 18.360846,-33.889389,579.12 18.357929,-33.892273,579.12 18.356361,-33.894058,579.12 18.354034,-33.897152,579.12 18.352718,-33.899387,579.12 18.350924,-33.902802,579.12 18.3498,-33.9053,579.12 18.348484,-33.908558,579.12 18.347729,-33.910583,609.6 18.34631,-33.913864,609.6 18.34528,-33.916286,609.6 18.344479,-33.918659,609.6 18.34362,-33.921684,640.08 18.340244,-33.930622,670.56 18.338757,-33.933788,701.04 18.337555,-33.936489,701.04 18.336798,-33.939697,731.52 18.336798,-33.942123,762 18.336926,-33.943611,792.48 18.337694,-33.945877,792.48 18.338642,-33.947102,822.96 18.340244,-33.948498,853.44 18.34156,-33.949245,853.44 18.344028,-33.949814,853.44 18.345823,-33.949768,883.92 18.348402,-33.948853,883.92 18.349857,-33.947613,883.92 18.350868,-33.945236,914.4 18.350698,-33.943085,883.92 18.34868,-33.940704,883.92 18.346252,-33.939934,883.92 18.342648,-33.941097,853.44 18.341331,-33.942402,853.44 18.339544,-33.945328,822.96 18.338535,-33.947205,822.96 18.337023,-33.950272,822.96 18.334236,-33.955902,822.96 18.330517,-33.961628,853.44 18.325825,-33.967957,822.96 18.319366,-33.97641,762 18.314154,-33.98378,731.52 18.3078,-33.993935,731.52 18.303509,-34.000729,731.52 18.295784,-34.013672,762 18.29298,-34.018887,762 18.290977,-34.023495,762 18.290348,-34.025497,762 18.289719,-34.028896,762 18.289545,-34.031158,762 18.289602,-34.034271,762 18.289776,-34.036388,762 18.290331,-34.039398,762 18.290863,-34.041416,792.48 18.291676,-34.044525,792.48 18.292351,-34.04649,792.48 18.293381,-34.049332,792.48 18.294125,-34.051006,822.96 18.295319,-34.053818,822.96 18.296104,-34.055374,822.96 18.297842,-34.058212,822.96 18.298988,-34.059807,822.96 18.300924,-34.062515,792.48 18.302193,-34.064087,792.48 18.304367,-34.066788,792.48 18.305744,-34.06842,792.48 18.311005,-34.074936,762 18.316172,-34.081009,731.52 18.323345,-34.089523,670.56 18.326653,-34.093002,640.08 18.329006,-34.095108,609.6 18.331032,-34.096813,609.6 18.333549,-34.098675,609.6 18.335609,-34.100025,579.12 18.338703,-34.101791,548.64 18.340874,-34.102772,548.64 18.344135,-34.104168,548.64 18.346481,-34.105053,548.64 18.349802,-34.10614,548.64 18.352261,-34.106869,548.64 18.355865,-34.107845,518.16 18.358154,-34.108475,518.16 18.366898,-34.110901,579.12 18.369253,-34.111359,579.12 18.372402,-34.111992,579.12 18.374863,-34.112457,548.64 18.382301,-34.114273,548.64 18.384779,-34.114975,548.64 18.388254,-34.115936,518.16 18.397448,-34.118454,548.64 18.40519,-34.120834,518.16 18.411741,-34.12294,487.68 18.41729,-34.12468,548.64 18.419209,-34.124931,579.12 18.421942,-34.124771,579.12 18.423847,-34.124222,609.6 18.426315,-34.122574,609.6 18.42762,-34.12093,640.08 18.429173,-34.118134,670.56 18.43008,-34.116413,670.56 18.431339,-34.113945,701.04 18.432312,-34.112,701.04 18.435003,-34.106827,701.04 18.439121,-34.099514,701.04 18.442612,-34.091881,609.6 18.443466,-34.089844,609.6 18.444923,-34.086136,548.64 18.446661,-34.081421,518.16 18.447819,-34.077866,487.68 18.448448,-34.07568,457.2 18.452099,-34.066132,396.24 18.452995,-34.064072,396.24 18.455429,-34.058174,426.72 18.459049,-34.04892,426.72 18.46384,-34.036388,396.24 18.466616,-34.030518,396.24 18.468418,-34.027172,396.24 18.469587,-34.025116,396.24 18.473118,-34.018341,396.24 18.477547,-34.010513,365.76 18.482311,-34.000854,335.28 18.483124,-33.998264,365.76 18.483768,-33.994812,335.28 18.484104,-33.992111,335.28 18.484442,-33.988037,304.8 18.48461,-33.985336,304.8 18.484777,-33.981537,304.8 18.484898,-33.97913,304.8 18.485001,-33.972702,274.32 18.485184,-33.961765,182.88 18.484726,-33.954876,182.88 18.484272,-33.952057,182.88 18.483263,-33.948029,152.4 18.482534,-33.945602,182.88 18.481134,-33.941483,182.88 18.480238,-33.939056,182.88 18.478724,-33.934982,182.88 18.47777,-33.93251,152.4 18.475754,-33.928345,182.88 18.47414,-33.925827,182.88 18.471493,-33.922348,182.88 18.469563,-33.920475,182.88 18.465664,-33.917496,182.88 18.462982,-33.915771,182.88 18.459105,-33.913239,152.4 18.456806,-33.91127,152.4 18.453108,-33.906876,152.4 18.451426,-33.904221,182.88 18.449593,-33.900921,182.88 18.448219,-33.898407,182.88 18.446732,-33.895428,152.4 18.444588,-33.892548,152.4 18.442097,-33.892311,121.92 18.441181,-33.893196,121.92 18.439543,-33.894882,91.44 18.438492,-33.895336,60.96 18.436628,-33.895386,30.48 18.435787,-33.895294,30.48 18.434498,-33.895157,0 18.433714,-33.895111,0 18.432257,-33.895203,0 18.431248,-33.895523,0 18.429508,-33.896454,0 18.429005,-33.896759,0 18.427505,-33.89827,0 18.427391,-33.898922,0 18.427534,-33.900661,0 18.434887,-33.901203,30.48 18.437189,-33.900558,60.96 18.438814,-33.899734,91.44 18.440887,-33.897903,121.92 18.442039,-33.896267,121.92 18.443184,-33.893288,152.4 18.443411,-33.891403,152.4 18.442669,-33.887562,182.88 18.441753,-33.885559,213.36 18.439318,-33.882706,213.36 18.437233,-33.881092,243.84 18.434029,-33.879368,274.32 18.431683,-33.878483,274.32 18.427906,-33.877365,304.8 18.425306,-33.876755,304.8 18.421154,-33.87611,335.28 18.418522,-33.875923,335.28 18.414402,-33.875786,365.76 18.411684,-33.875839,365.76 18.407879,-33.87611,396.24 18.404846,-33.87648,396.24 18.40081,-33.877213,426.72 18.398457,-33.877716,426.72 18.394196,-33.879044,426.72 18.391914,-33.879929,457.2 18.388199,-33.881561,457.2 18.385845,-33.882751,457.2 18.3822,-33.884857,457.2 18.380127,-33.88612,487.68 18.376484,-33.888474,487.68 18.374233,-33.890076,487.68 18.370571,-33.892868,487.68 18.368467,-33.894791,487.68 18.365936,-33.897198,487.68 18.363928,-33.899231,487.68 18.361294,-33.902023,487.68 18.359612,-33.9039,487.68 18.357313,-33.906784,487.68 18.355808,-33.908836,487.68 18.353634,-33.911907,487.68 18.352375,-33.913818,518.16 18.350531,-33.916626,518.16 18.3494,-33.918518,548.64 18.343748,-33.927292,609.6 18.342018,-33.929459,609.6 18.339657,-33.93219,609.6 18.338242,-33.934113,609.6 18.336239,-33.939373,609.6 18.33704,-33.941517,609.6 18.339558,-33.944218,609.6 18.341389,-33.945473,609.6 18.34487,-33.947296,579.12 18.347454,-33.947987,579.12 18.351402,-33.947708,548.64 18.353348,-33.946636,548.64 18.356024,-33.943726,518.16 18.35741,-33.941517,487.68 18.359667,-33.937454,457.2 18.360844,-33.935184,457.2 18.362446,-33.931881,457.2 18.363535,-33.929489,457.2 18.368525,-33.920929,457.2 18.370285,-33.918194,426.72 18.372335,-33.915298,426.72 18.374802,-33.91214,426.72 18.37738,-33.908928,426.72 18.37923,-33.906738,426.72 18.382015,-33.903763,396.24 18.383938,-33.901932,396.24 18.387165,-33.899387,396.24 18.389168,-33.898037,396.24 18.393688,-33.895428,396.24 18.396721,-33.893986,396.24 18.401426,-33.892136,396.24 18.403816,-33.89138,396.24 18.408154,-33.890076,365.76 18.410912,-33.889469,335.28 18.414974,-33.888725,335.28 18.418407,-33.888119,335.28 18.422413,-33.887375,335.28 18.430687,-33.885498,304.8 18.435732,-33.885269,274.32 18.43758,-33.885681,274.32 18.440607,-33.887009,243.84 18.441925,-33.888401,243.84 18.441582,-33.89082,213.36 18.439878,-33.891907,182.88 18.436964,-33.892639,121.92 18.43483,-33.892963,91.44 18.431625,-33.893612,30.48 18.430595,-33.89394,30.48 18.428669,-33.895706,0 18.428444,-33.89653,0 18.428249,-33.897663,0 18.427996,-33.898865,0 18.427105,-33.900597,0 18.427147,-33.901016,0 18.434834,-33.90065,30.48 18.436489,-33.899807,91.44 18.438263,-33.898315,91.44 18.439579,-33.8965,121.92 18.440552,-33.892868,152.4 18.440384,-33.890213,152.4 18.439407,-33.885838,182.88 18.438309,-33.883438,182.88 18.436348,-33.8806,213.36 18.434498,-33.87886,213.36 18.430824,-33.876575,243.84 18.428053,-33.875381,274.32 18.42396,-33.874237,304.8 18.420753,-33.873783,304.8 18.416176,-33.873737,335.28 18.413366,-33.873871,335.28 18.407879,-33.874527,335.28 18.405418,-33.874992,335.28 18.40053,-33.876022,335.28 18.398151,-33.876667,365.76 18.394421,-33.877899,365.76 18.391399,-33.879089,365.76 18.387623,-33.880905,365.76 18.385117,-33.882294,396.24 18.381901,-33.884071,396.24 18.379734,-33.885361,396.24 18.376408,-33.887421,426.72 18.373833,-33.889004,426.72 18.369884,-33.891891,426.72 18.368076,-33.893326,457.2 18.364656,-33.896118,457.2 18.362904,-33.897663,457.2 18.360271,-33.900318,487.68 18.358267,-33.902435,487.68 18.356037,-33.904831,518.16 18.354511,-33.906555,579.12 18.352716,-33.908752,640.08 18.351574,-33.910374,640.08 18.349747,-33.912964,670.56 18.348312,-33.915447,670.56 18.34671,-33.918472,701.04 18.345655,-33.920654,701.04 18.344135,-33.924431,731.52 18.343245,-33.926651,731.52 18.34173,-33.930954,762 18.341059,-33.932968,762 18.340218,-33.935852,792.48 18.338413,-33.942867,792.48 18.338816,-33.948074,853.44 18.34005,-33.949402,883.92 18.343105,-33.950035,914.4 18.344994,-33.949245,914.4 18.346882,-33.946732,944.88 18.347336,-33.944458,944.88 18.346943,-33.940887,944.88 18.345051,-33.93877,975.36 18.341274,-33.93784,975.36 18.338873,-33.93837,944.88 18.334669,-33.941986,944.88 18.33292,-33.945473,914.4 18.331776,-33.948963,914.4 18.330969,-33.95192,914.4 18.32983,-33.956135,944.88 18.329201,-33.958649,944.88 18.32682,-33.966202,944.88 18.325644,-33.968994,944.88 18.323961,-33.972565,975.36 18.322729,-33.975174,944.88 18.319416,-33.981785,944.88 18.315163,-33.989685,944.88 18.30843,-34.001194,914.4 18.304138,-34.007526,914.4 18.297958,-34.017395,914.4 18.296814,-34.019585,914.4 18.295208,-34.02301,914.4 18.293974,-34.026077,883.92 18.292809,-34.029827,853.44 18.292292,-34.032349,853.44 18.292181,-34.037292,822.96 18.292408,-34.039322,822.96 18.293245,-34.043427,792.48 18.293896,-34.045654,792.48 18.294983,-34.049191,792.48 18.295898,-34.051472,762 18.297842,-34.055328,762 18.299103,-34.057339,731.52 18.301907,-34.061203,731.52 18.303165,-34.062923,731.52 18.305225,-34.06567,731.52 18.306923,-34.067963,701.04 18.312092,-34.074562,701.04 18.317404,-34.081238,701.04 18.323364,-34.088017,731.52 18.328457,-34.09351,731.52 18.333435,-34.098312,731.52 18.335094,-34.099747,731.52 18.337555,-34.101704,731.52 18.339602,-34.103073,731.52 18.342459,-34.104767,731.52 18.344421,-34.105846,731.52 18.347561,-34.10733,731.52 18.349514,-34.108128,731.52 18.353748,-34.109478,701.04 18.356417,-34.11026,701.04 18.360157,-34.111244,670.56 18.362919,-34.111816,670.56 18.366955,-34.112595,640.08 18.369366,-34.113052,640.08 18.377548,-34.115067,640.08 18.379959,-34.115707,640.08 18.383789,-34.116833,640.08 18.387394,-34.117901,609.6 18.401258,-34.122391,518.16 18.407873,-34.124084,487.68 18.411629,-34.125,487.68 18.417206,-34.126514,457.2 18.421669,-34.128052,457.2 18.423901,-34.128937,426.72 18.42762,-34.130566,426.72 18.43008,-34.131729,426.72 18.433685,-34.133312,426.72 18.43786,-34.13475,426.72 18.441336,-34.1353,426.72 18.444643,-34.135025,396.24 18.448792,-34.133377,396.24 18.450794,-34.132053,365.76 18.454685,-34.128796,335.28 18.456696,-34.126923,335.28 18.459835,-34.123768,335.28 18.46241,-34.1213,335.28 18.469448,-34.115204,304.8 18.471828,-34.11351,304.8 18.476429,-34.109711,335.28 18.477882,-34.106873,335.28 18.479059,-34.10289,335.28 18.479958,-34.099686,335.28 18.481236,-34.095371,335.28 18.481976,-34.092865,335.28 18.482872,-34.088974,335.28 18.482952,-34.086388,335.28 18.482759,-34.081009,335.28 18.482723,-34.078426,335.28 18.482723,-34.074142,335.28 18.483238,-34.069302,335.28 18.483881,-34.064941,335.28 18.484385,-34.0616,365.76 18.485012,-34.053379,365.76 18.485012,-34.050915,365.76 18.484833,-34.046173,365.76 18.484777,-34.042831,365.76 18.485058,-34.029282,365.76 18.484898,-34.018513,335.28 18.485012,-34.005524,365.76 18.484726,-33.995796,335.28 18.484552,-33.981171,304.8 18.484777,-33.975632,304.8 18.485058,-33.960342,213.36 18.484783,-33.95269,213.36 18.484325,-33.948639,182.88 18.483753,-33.945518,182.88 18.482086,-33.939972,182.88 18.480854,-33.936539,182.88 18.479118,-33.932114,152.4 18.477659,-33.929352,152.4 18.474968,-33.925873,152.4 18.471565,-33.922661,152.4 18.467503,-33.919403,152.4 18.464598,-33.91713,152.4 18.461067,-33.914474,152.4 18.455854,-33.91008,152.4 18.452282,-33.905624,182.88 18.450249,-33.902435,182.88 18.448118,-33.898727,182.88 18.446388,-33.89566,152.4 18.441525,-33.892265,121.92 18.439207,-33.892685,91.44 18.436068,-33.893829,60.96 18.433743,-33.894592,30.48 18.431625,-33.895195,0 18.42979,-33.895798,0 18.428108,-33.897491,0 18.427734,-33.898502,0 18.427267,-33.89978,0 18.426991,-33.900505,0 18.432537,-33.901611,0 18.434217,-33.901291,30.48 18.436375,-33.900688,30.48 18.438606,-33.89999,60.96 18.441225,-33.89859,60.96 18.442905,-33.897217,91.44 18.444868,-33.894791,121.92 18.446159,-33.892357,121.92 18.446829,-33.888885,152.4 18.44656,-33.886398,182.88 18.444532,-33.881607,182.88 18.442514,-33.878906,213.36 18.439207,-33.876617,243.84 18.437244,-33.875656,274.32 18.433096,-33.874146,304.8 18.43008,-33.873363,304.8 18.425217,-33.872433,335.28 18.421494,-33.87204,365.76 18.416225,-33.87204,365.76 18.413479,-33.872177,396.24 18.408209,-33.872864,396.24 18.405407,-33.873367,426.72 18.401146,-33.874237,426.72 18.398781,-33.874851,426.72 18.394547,-33.876064,457.2 18.391674,-33.877075,457.2 18.387566,-33.878716,487.68 18.385277,-33.879787,487.68 18.382359,-33.881416,518.16 18.379784,-33.883141,518.16 18.376371,-33.885727,518.16 18.374241,-33.887512,518.16 18.371326,-33.890121,548.64 18.369701,-33.891769,548.64 18.366852,-33.894917,548.64 18.364882,-33.897217,548.64 18.362022,-33.900421,548.64 18.360386,-33.902367,548.64 18.353445,-33.910675,609.6 18.351765,-33.913055,609.6 18.349354,-33.916672,640.08 18.347855,-33.919079,640.08 18.345934,-33.922394,640.08 18.344536,-33.924759,670.56 18.340946,-33.930954,670.56 18.338535,-33.93425,670.56 18.335495,-33.937187,701.04 18.333893,-33.940025,701.04 18.333939,-33.943222,701.04 18.335037,-33.945705,670.56 18.337246,-33.948349,670.56 18.339264,-33.949951,640.08 18.343163,-33.952084,640.08 18.346596,-33.953247,609.6 18.350372,-33.953899,609.6 18.353863,-33.953339,609.6 18.356529,-33.951004,579.12 18.357594,-33.948898,548.64 18.35877,-33.945282,518.16 18.35947,-33.942867,518.16 18.360901,-33.938461,518.16 18.361759,-33.936489,518.16 18.364277,-33.930576,518.16 18.365765,-33.92741,487.68 18.367939,-33.923313,487.68 18.369196,-33.921204,487.68 18.371201,-33.91824,457.2 18.372616,-33.916122,457.2 18.375137,-33.912735,426.72 18.377436,-33.909851,426.72 18.381042,-33.905766,426.72 18.383446,-33.903435,426.72 18.386765,-33.90041,426.72 18.388702,-33.898727,426.72 18.391954,-33.896118,426.72 18.394981,-33.894333,426.72 18.39896,-33.892593,426.72 18.402557,-33.891472,426.72 18.407928,-33.890167,396.24 18.410564,-33.889618,396.24 18.41544,-33.888519,365.76 18.419868,-33.886963,304.8 18.423557,-33.885422,304.8 18.427105,-33.884537,274.32 18.42979,-33.885315,243.84 18.430882,-33.886864,213.36 18.431696,-33.889069,182.88 18.432198,-33.890308,152.4 18.433376,-33.891815,121.92 18.434105,-33.892822,91.44 18.434217,-33.894699,60.96 18.432198,-33.89529,30.48 18.428764,-33.895428,0 18.427391,-33.89608,0 18.426874,-33.897263,0 18.427099,-33.89859,0 18.427219,-33.899853,0 18.427048,-33.900364,0 18.432426,-33.90176,0 18.433601,-33.901749,30.48 18.436718,-33.901016,60.96 18.438492,-33.900177,91.44 18.441582,-33.897709,152.4 18.443018,-33.895523,182.88 18.443813,-33.891659,213.36 18.443523,-33.888931,213.36 18.441841,-33.884903,213.36 18.440384,-33.882706,243.84 18.437061,-33.878998,243.84 18.43461,-33.876984,274.32 18.43071,-33.874947,335.28 18.428501,-33.874191,335.28 18.423958,-33.873131,365.76 18.420597,-33.872635,396.24 18.416506,-33.872269,426.72 18.41387,-33.872223,457.2 18.409779,-33.872269,487.68 18.406752,-33.872498,487.68 18.402042,-33.873085,518.16 18.399239,-33.873596,518.16 18.394718,-33.87476,518.16 18.391954,-33.875793,518.16 18.387693,-33.877762,548.64 18.384647,-33.879322,548.64 18.381416,-33.881058,548.64 18.37895,-33.882477,548.64 18.375206,-33.884815,579.12 18.373177,-33.88623,579.12 18.369196,-33.889435,579.12 18.366909,-33.891426,609.6 18.363419,-33.89473,609.6 18.361816,-33.896358,609.6 18.358995,-33.899506,640.08 18.356865,-33.902161,640.08 18.354511,-33.905319,670.56 18.353165,-33.907288,670.56 18.351091,-33.910446,670.56 18.349457,-33.913212,701.04 18.347672,-33.916534,701.04 18.346439,-33.918823,701.04 18.344646,-33.92244,731.52 18.343357,-33.92514,731.52 18.341394,-33.929626,731.52 18.340302,-33.932251,762 18.337898,-33.938583,792.48 18.337246,-33.941574,792.48 18.33704,-33.944962,853.44 18.336983,-33.94743,914.4 18.337303,-33.950409,914.4 18.337898,-33.952129,944.88 18.339901,-33.954456,975.36 18.342236,-33.955307,1005.84 18.345934,-33.95517,1005.84 18.347729,-33.954437,1005.84 18.35043,-33.951664,1005.84 18.351231,-33.949245,1005.84 18.350143,-33.945892,1036.32 18.347797,-33.944729,1036.32 18.342628,-33.945969,975.36 18.340244,-33.9478,975.36 18.336575,-33.951874,975.36 18.334276,-33.954895,975.36 18.331318,-33.959019,975.36 18.330002,-33.960976,975.36 18.32654,-33.966156,975.36 18.32514,-33.968399,975.36 18.318748,-33.979156,944.88 18.317572,-33.981537,944.88 18.315754,-33.985321,944.88 18.314434,-33.988083,944.88 18.311069,-33.995865,944.88 18.307343,-34.003475,914.4 18.303503,-34.010468,883.92 18.302101,-34.012848,883.92 18.298346,-34.018661,853.44 18.294296,-34.025776,883.92 18.292751,-34.029732,883.92 18.292007,-34.033222,853.44 18.291901,-34.038345,853.44 18.292294,-34.041603,853.44 18.293266,-34.045887,822.96 18.294367,-34.04892,822.96 18.296104,-34.052628,822.96 18.297501,-34.055058,792.48 18.30014,-34.059402,762 18.301563,-34.06134,762 18.304344,-34.064896,762 18.306194,-34.067139,762 18.308659,-34.07,762 18.310228,-34.071716,762 18.313179,-34.074841,762 18.317013,-34.0788,762 18.320274,-34.081825,762 18.324354,-34.085541,762 18.332233,-34.093647,731.52 18.334236,-34.095928,731.52 18.342068,-34.103256,701.04 18.344646,-34.10495,701.04 18.348083,-34.106682,701.04 18.350487,-34.1078,701.04 18.353977,-34.109058,701.04 18.356209,-34.109711,701.04 18.360172,-34.110718,670.56 18.363018,-34.111385,670.56 18.367939,-34.11269,640.08 18.376408,-34.114784,640.08 18.386078,-34.117622,640.08 18.388422,-34.118362,609.6 18.392544,-34.119766,609.6 18.40004,-34.122372,548.64 18.412806,-34.126328,487.68 18.42211,-34.129257,426.72 18.429852,-34.132149,396.24 18.432655,-34.133217,396.24 18.439039,-34.135437,396.24 18.441639,-34.135731,396.24 18.446159,-34.135639,396.24 18.4498,-34.134842,396.24 18.453541,-34.133171,396.24 18.456631,-34.131123,396.24 18.460636,-34.127911,365.76 18.46286,-34.126053,365.76 18.466988,-34.122417,365.76 18.469362,-34.120285,365.76 18.476873,-34.113602,365.76 18.478661,-34.111057,365.76 18.480574,-34.106552,365.76 18.481121,-34.104122,365.76 18.481522,-34.100445,396.24 18.48175,-34.097214,396.24 18.481922,-34.092068,396.24 18.481865,-34.08876,426.72 18.48175,-34.083591,426.72 18.481638,-34.078354,426.72 18.481007,-34.069393,426.72 18.481178,-34.063343,426.72 18.48147,-34.059036,426.72 18.48175,-34.052536,396.24 18.482437,-34.038578,365.76 18.482723,-34.028988,335.28 18.483181,-34.016045,335.28 18.483433,-34.006485,335.28 18.484497,-33.992352,335.28 18.485281,-33.98204,335.28 18.485928,-33.967354,274.32 18.485842,-33.96286,274.32 18.485355,-33.957623,243.84 18.484955,-33.953247,243.84 18.484097,-33.948128,213.36 18.483181,-33.943985,213.36 18.481806,-33.939056,213.36 18.480406,-33.935577,213.36 18.478088,-33.931087,182.88 18.475628,-33.927036,182.88 18.47208,-33.922523,182.88 18.469194,-33.91983,182.88 18.463726,-33.915913,152.4 18.460522,-33.913864,152.4 18.455519,-33.908798,182.88 18.45417,-33.906414,182.88 18.451651,-33.900742,213.36 18.450165,-33.896873,213.36 18.448231,-33.892822,213.36 18.446102,-33.890308,243.84 18.441525,-33.888306,243.84 18.437748,-33.888912,182.88 18.434658,-33.89045,152.4 18.432648,-33.891266,121.92 18.42865,-33.891472,91.44 18.42659,-33.892868,60.96 18.426647,-33.894592,30.48 18.426704,-33.895382,0 18.426876,-33.896873,0 18.426991,-33.89785,0 18.427155,-33.899002,0 18.427162,-33.899666,0 18.427408,-33.900616,0
        </coordinates>
      </LineString>
    </Placemark>
  </Document>
</kml>