<?xml version="1.0" encoding="UTF-8"?>
<kml xmlns="http://www.opengis.net/kml/2.2">
  <Document>
    <name>-/ZTHOT - Optimised</name>
    <description><![CDATA[Optimised flight path with 1703 points (decimated from 8514 original points). Source format: Standard KML]]></description>
    
    <Style id="flightPath">
      <LineStyle>
        <color>ffff0000</color>
        <width>3</width>
      </LineStyle>
    </Style>
    
    <Placemark>
      <name>Flight Path</name>
      <description><![CDATA[<div style="width:220px; text-align:center;">
<div style="width:210px; text-align:center;">
<div style=" background: #000; color: #fff; font-size: 14px; text-align:left; border: 1px solid #000; padding: 2px 6px; text-shadow: 0 1px 0 #000; box-shadow: 0 1px 3px rgba(0,0,0,0.6); background: -webkit-gradient(linear, left top, left bottom, color-stop(0%,#808080), color-stop(2%,#303030), color-stop(100%,#0c0c0c));"><span style="font-size: 14px; font-weight: bold;"><a href="javascript:void(0);" style="color: #fff; cursor: pointer;text-decoration: none;">-</a></span> / ZTHOT<br/>Cape Town Helicopters</div>

<div style="border-top: 1px solid #005c90; color: #fff; padding-bottom: 5px; box-shadow: 0 0 1px #9BE3F6 inset, 0 1px 0 #9BE3F6 inset, 0 -1px 3px rgba(0,0,0,0.4); background:rgba(43,114,173,1); background: -webkit-gradient(linear, left top, left bottom, color-stop(0%,rgba(92,184,229,1)), color-stop(100%,rgba(43,114,173,1)));">
<a style="text-decoration: none; color: rgb(255, 255, 255); font-size: 12px; width:77px; display: inline-block;" title=" Airport" href="javascript:void(0);/departures"><h3 style="padding: 0px; margin: 10px 0px 0px; font-size: 16px; ">?</h3></a>
<span style="background: url(https://www.flightradar24.com/static/images/userUI_sprite.png?14) no-repeat scroll 0 -464px rgba(0, 0, 0, 0); border: medium none; display: inline-block; height: 16px; width: 45px;"></span>
<a style="text-decoration: none; color: rgb(255, 255, 255); font-size: 12px; width:77px; display: inline-block;" title="Cape Town Airport" href="https://www.flightradar24.com/airport/cpt/arrivals"><h3 style="padding: 0px; margin: 10px 0px 0px; font-size: 16px;">CPT</h3>Cape Town</a>
<div style=" margin-top:10px;">
<div style="display: inline-block; font-size: 12px; padding: 0 5px;">
<div>
<span style="color: #c1eaff;" title="Actual Time of Departure">ATD </span>
<span title="2025-03-28 15:01">15:01</span> <span title="Coordinated Universal Time">UTC</span>
</div>
</div>
<div style="display: inline-block; font-size: 12px; padding: 0 5px;">
<div>
<span style="color: #c1eaff;" title="Estimated Time of Arrival">ETA </span>
<span title="2025-03-28 15:36">15:36</span> <span title="Coordinated Universal Time">UTC</span>
</div>
</div>
</div>
<br style="clear: both;"/>
</div>

<div style="display: block;">
<table style="border-collapse: collapse; width: 100%;">
<tr style="border-right: 1px solid #dadada; ">
<td style="background: none repeat scroll 0 0 #dadada; padding: 0; width: 31px;">
<span style="background: url(https://www.flightradar24.com/static/images/userUI_sprite.png?14) no-repeat scroll -208px -464px rgba(0, 0, 0, 0); height: 26px; margin: 8px 0 0 4px; width: 23px; display: block;"></span>
</td>
<td colspan="2" style="border-bottom: 1px solid #dadada; border-left: 1px solid #dadada; color: #666; line-height: 1.1em; padding: 3px 6px; vertical-align: top; font-size: 14px;">
Aircraft<span style="float: right; font-size: 12px;">(AS50)</span><br>
<span style="color: #333; font-size: 16px; font-weight: bold; line-height: 1.3em;">Airbus Helicopters H125</span>
</td>
</tr>
<tr style="border-right: 1px solid #dadada; ">
<td style="background: none repeat scroll 0 0 #dadada; padding: 0; width: 31px;">
<td colspan="2" style="border-bottom: 1px solid #dadada; border-left: 1px solid #dadada; color: #666; line-height: 1.1em; padding: 3px 6px; vertical-align: top; font-size: 14px;">
Registration<br>
<span style="color: #333; font-size: 16px; font-weight: bold; line-height: 1.3em;"><a href="https://www.flightradar24.com/reg/zt-hot" style="text-decoration: none; color: #333;">ZT-HOT</a></span>
</td>
</tr>
</table>
</div>

</div>
</div>]]></description>
      <styleUrl>#flightPath</styleUrl>
      <LineString>
        <extrude>1</extrude>
        <tessellate>1</tessellate>
        <altitudeMode>absolute</altitudeMode>
        <coordinates>
          18.427044,-33.900879,60.96 18.427219,-33.899899,60.96 18.427828,-33.899002,91.44 18.429394,-33.896778,91.44 18.430538,-33.894871,121.92 18.431808,-33.892685,152.4 18.433434,-33.889618,182.88 18.43433,-33.887329,243.84 18.434429,-33.885422,274.32 18.432985,-33.88266,335.28 18.431696,-33.881332,335.28 18.429623,-33.880066,396.24 18.427448,-33.879276,396.24 18.424297,-33.878815,457.2 18.422241,-33.878716,487.68 18.41898,-33.87867,487.68 18.41692,-33.878765,518.16 18.413647,-33.878952,548.64 18.411541,-33.879181,548.64 18.407936,-33.879696,579.12 18.40559,-33.880112,579.12 18.402157,-33.880905,609.6 18.399754,-33.881695,609.6 18.396271,-33.883072,640.08 18.393972,-33.884079,640.08 18.390369,-33.885746,640.08 18.388254,-33.886871,640.08 18.384892,-33.888885,670.56 18.382481,-33.890396,670.56 18.378983,-33.892914,670.56 18.377037,-33.894592,670.56 18.374176,-33.89743,670.56 18.372459,-33.899338,670.56 18.369982,-33.90239,670.56 18.368397,-33.904366,701.04 18.366169,-33.907242,701.04 18.364601,-33.909302,731.52 18.36034,-33.915024,731.52 18.356438,-33.920799,762 18.354492,-33.924198,762 18.353519,-33.92606,762 18.351803,-33.929367,762 18.350716,-33.931461,792.48 18.349241,-33.934799,792.48 18.348289,-33.937088,792.48 18.346882,-33.940769,792.48 18.345991,-33.943405,792.48 18.344757,-33.946793,792.48 18.342178,-33.954163,792.48 18.345852,-33.96521,792.48 18.352718,-33.964977,762 18.356838,-33.961998,762 18.358154,-33.958008,731.52 18.358379,-33.954208,731.52 18.35849,-33.95192,731.52 18.358955,-33.948078,701.04 18.359241,-33.945286,701.04 18.359642,-33.941704,670.56 18.360285,-33.936722,670.56 18.361855,-33.928436,670.56 18.362446,-33.926201,670.56 18.363762,-33.92271,670.56 18.364964,-33.920429,670.56 18.366909,-33.917263,670.56 18.36834,-33.915306,670.56 18.370543,-33.912369,670.56 18.372168,-33.910355,640.08 18.374519,-33.907532,640.08 18.37635,-33.905392,640.08 18.379154,-33.902317,640.08 18.381042,-33.900455,640.08 18.383715,-33.897812,640.08 18.385735,-33.895943,640.08 18.388882,-33.893147,609.6 18.39077,-33.891567,609.6 18.394146,-33.888958,609.6 18.396549,-33.887188,609.6 18.399857,-33.884857,579.12 18.402214,-33.883278,579.12 18.406162,-33.881138,579.12 18.409218,-33.880188,579.12 18.413429,-33.879833,548.64 18.416616,-33.880234,518.16 18.42104,-33.881462,487.68 18.423679,-33.882339,487.68 18.427883,-33.883942,457.2 18.430367,-33.885048,457.2 18.434443,-33.886963,396.24 18.436571,-33.888062,396.24 18.440208,-33.890354,365.76 18.442122,-33.891769,365.76 18.444843,-33.894405,335.28 18.445358,-33.89608,335.28 18.444307,-33.89859,304.8 18.442402,-33.89946,274.32 18.439121,-33.899666,213.36 18.437189,-33.899643,182.88 18.4338,-33.899433,121.92 18.431471,-33.899414,91.44 18.427906,-33.899853,60.96 18.427277,-33.900318,60.96 18.427212,-33.899918,60.96 18.427963,-33.898781,91.44 18.42923,-33.896805,91.44 18.430069,-33.895477,121.92 18.431454,-33.893147,152.4 18.432369,-33.891567,182.88 18.435516,-33.885933,243.84 18.43586,-33.88393,274.32 18.434887,-33.88044,304.8 18.433743,-33.878902,304.8 18.43091,-33.876572,335.28 18.428669,-33.875427,335.28 18.424969,-33.873871,365.76 18.422642,-33.872944,365.76 18.418293,-33.871967,396.24 18.41589,-33.871967,396.24 18.411293,-33.87355,426.72 18.408882,-33.874969,426.72 18.405575,-33.876984,457.2 18.40313,-33.878437,457.2 18.399925,-33.880394,487.68 18.395765,-33.882797,487.68 18.386536,-33.888447,548.64 18.383322,-33.890762,548.64 18.380743,-33.892822,548.64 18.378838,-33.89447,548.64 18.376204,-33.896896,579.12 18.374409,-33.898499,579.12 18.371943,-33.900925,579.12 18.370457,-33.902412,579.12 18.368187,-33.90477,609.6 18.366562,-33.906647,640.08 18.364712,-33.908936,640.08 18.363304,-33.910885,670.56 18.361517,-33.913467,701.04 18.360329,-33.915215,701.04 18.358669,-33.917866,701.04 18.357594,-33.919601,731.52 18.355923,-33.92271,731.52 18.35495,-33.924385,731.52 18.350418,-33.932877,731.52 18.348427,-33.937374,731.52 18.346996,-33.940819,731.52 18.346138,-33.943192,731.52 18.344925,-33.946381,731.52 18.34362,-33.949989,731.52 18.343077,-33.957458,731.52 18.349522,-33.960114,731.52 18.353838,-33.957779,731.52 18.355015,-33.955582,731.52 18.355968,-33.952194,701.04 18.356495,-33.949802,701.04 18.357353,-33.946171,670.56 18.357874,-33.943771,670.56 18.358612,-33.939934,670.56 18.359388,-33.935303,640.08 18.361244,-33.928108,640.08 18.362078,-33.925873,640.08 18.363705,-33.922337,609.6 18.364906,-33.920197,609.6 18.366508,-33.917355,609.6 18.367767,-33.915119,609.6 18.369656,-33.912094,640.08 18.371086,-33.909954,640.08 18.373375,-33.906742,640.08 18.374748,-33.904926,609.6 18.377155,-33.901794,609.6 18.378811,-33.899807,609.6 18.381042,-33.897106,609.6 18.384304,-33.893242,609.6 18.386909,-33.890579,609.6 18.388815,-33.888748,609.6 18.391914,-33.886257,609.6 18.394375,-33.884628,609.6 18.398008,-33.882477,609.6 18.40044,-33.881325,609.6 18.404388,-33.879787,579.12 18.407257,-33.878952,579.12 18.411573,-33.878174,579.12 18.414631,-33.878113,579.12 18.418859,-33.878723,579.12 18.421669,-33.879509,579.12 18.425388,-33.880997,579.12 18.427849,-33.882114,548.64 18.431568,-33.884117,518.16 18.433769,-33.885544,487.68 18.436796,-33.887695,457.2 18.438778,-33.889191,426.72 18.44141,-33.891659,396.24 18.442612,-33.893196,365.76 18.444157,-33.896034,304.8 18.444157,-33.897942,274.32 18.442326,-33.90004,243.84 18.440271,-33.900513,213.36 18.436628,-33.900192,152.4 18.434658,-33.899899,152.4 18.431797,-33.89957,121.92 18.430069,-33.899597,91.44 18.42762,-33.90041,60.96 18.426931,-33.90097,60.96 18.428053,-33.898682,60.96 18.428949,-33.897354,91.44 18.432941,-33.89082,182.88 18.434162,-33.888519,213.36 18.434723,-33.886002,274.32 18.434544,-33.884304,304.8 18.433434,-33.881927,304.8 18.431976,-33.880417,335.28 18.42905,-33.87867,365.76 18.426933,-33.877972,396.24 18.4235,-33.87746,426.72 18.421669,-33.877365,457.2 18.41835,-33.877647,487.68 18.416348,-33.878017,518.16 18.413534,-33.878632,548.64 18.411942,-33.878998,548.64 18.40868,-33.879879,579.12 18.407145,-33.880371,579.12 18.403612,-33.881607,609.6 18.401413,-33.882488,609.6 18.398064,-33.883987,609.6 18.396091,-33.884861,609.6 18.392658,-33.88649,640.08 18.390141,-33.887794,640.08 18.386965,-33.889526,640.08 18.384892,-33.890762,640.08 18.381844,-33.892822,640.08 18.379902,-33.894379,640.08 18.377436,-33.89653,640.08 18.375307,-33.898636,640.08 18.372746,-33.901436,670.56 18.371326,-33.903076,670.56 18.369141,-33.905437,701.04 18.365946,-33.908707,701.04 18.359299,-33.916332,731.52 18.358042,-33.918137,762 18.356209,-33.921265,762 18.355183,-33.923172,762 18.353558,-33.92688,731.52 18.352716,-33.92894,762 18.351345,-33.932346,762 18.350531,-33.93425,762 18.349298,-33.937546,731.52 18.347897,-33.941757,731.52 18.346439,-33.946701,731.52 18.345934,-33.948532,731.52 18.344879,-33.952362,731.52 18.34425,-33.954922,731.52 18.339657,-33.969543,731.52 18.337023,-33.974442,731.52 18.332462,-33.982018,762 18.326168,-33.991978,792.48 18.320274,-34.001522,792.48 18.318638,-34.003326,792.48 18.316002,-34.006989,822.96 18.316002,-34.008774,883.92 18.317642,-34.010834,914.4 18.319534,-34.011566,914.4 18.322735,-34.011204,944.88 18.324522,-34.009735,914.4 18.32626,-34.006989,914.4 18.327484,-34.004921,883.92 18.329399,-34.001633,883.92 18.330744,-33.999298,853.44 18.33252,-33.995983,853.44 18.337078,-33.987579,792.48 18.348961,-33.967575,640.08 18.35182,-33.96167,609.6 18.354321,-33.955528,609.6 18.354959,-33.952835,609.6 18.355236,-33.949429,609.6 18.355465,-33.946823,609.6 18.356037,-33.94347,609.6 18.357426,-33.938644,609.6 18.358898,-33.934998,609.6 18.359779,-33.933014,640.08 18.361349,-33.929489,640.08 18.36219,-33.927567,640.08 18.364391,-33.921871,609.6 18.367907,-33.914291,640.08 18.369884,-33.911304,640.08 18.371607,-33.909073,640.08 18.37385,-33.906326,609.6 18.375835,-33.904087,609.6 18.37867,-33.901108,609.6 18.380743,-33.899277,609.6 18.38405,-33.896667,579.12 18.386478,-33.895012,579.12 18.389912,-33.892681,579.12 18.392658,-33.890961,579.12 18.396158,-33.888977,548.64 18.39868,-33.88765,548.64 18.4025,-33.8857,548.64 18.405182,-33.884399,518.16 18.408995,-33.882843,518.16 18.411427,-33.882069,518.16 18.415947,-33.881325,487.68 18.418634,-33.881332,457.2 18.423063,-33.881882,457.2 18.425865,-33.88266,426.72 18.429623,-33.884258,426.72 18.431751,-33.885406,396.24 18.435114,-33.887604,365.76 18.436796,-33.88884,335.28 18.439465,-33.891098,335.28 18.441113,-33.892731,304.8 18.442955,-33.895245,274.32 18.44347,-33.897476,243.84 18.442211,-33.90004,243.84 18.44072,-33.901337,213.36 18.437918,-33.902023,182.88 18.436203,-33.901203,152.4 18.434143,-33.899757,121.92 18.432713,-33.898922,121.92 18.429005,-33.899643,60.96 18.428053,-33.900238,60.96 18.427505,-33.900131,60.96 18.427849,-33.898968,91.44 18.429173,-33.897079,91.44 18.430126,-33.895844,121.92 18.431683,-33.893986,152.4 18.432705,-33.892593,182.88 18.433769,-33.890488,213.36 18.434443,-33.88884,243.84 18.435116,-33.886772,243.84 18.435059,-33.885048,274.32 18.433546,-33.882889,304.8 18.432257,-33.881836,335.28 18.429901,-33.880417,335.28 18.428108,-33.879776,335.28 18.425137,-33.878952,365.76 18.423176,-33.878723,365.76 18.419756,-33.878494,396.24 18.41795,-33.878483,426.72 18.414345,-33.878624,457.2 18.412302,-33.87886,487.68 18.40933,-33.879684,487.68 18.407364,-33.880486,518.16 18.404675,-33.881649,548.64 18.403072,-33.882393,548.64 18.400097,-33.883884,579.12 18.398323,-33.884861,579.12 18.395878,-33.88623,609.6 18.393688,-33.887421,640.08 18.390884,-33.889004,640.08 18.388983,-33.890167,670.56 18.384218,-33.893234,701.04 18.38237,-33.894562,701.04 18.380072,-33.896347,701.04 18.377884,-33.897903,701.04 18.375195,-33.900101,731.52 18.373569,-33.901657,731.52 18.370991,-33.903992,731.52 18.36937,-33.905533,762 18.367123,-33.907791,762 18.36544,-33.909531,762 18.363018,-33.912094,762 18.361244,-33.914143,762 18.358995,-33.917175,762 18.357819,-33.918961,762 18.356094,-33.921917,762 18.354893,-33.924385,762 18.353348,-33.927456,762 18.352268,-33.929855,762 18.350979,-33.933243,762 18.350143,-33.935745,762 18.349186,-33.939148,762 18.348141,-33.942959,762 18.347282,-33.946499,762 18.34672,-33.948807,762 18.343735,-33.962929,762 18.343277,-33.968609,762 18.343391,-33.985832,762 18.345095,-33.991379,731.52 18.350945,-33.9991,731.52 18.352146,-34.005432,701.04 18.352261,-34.009109,701.04 18.352489,-34.01181,701.04 18.352606,-34.015594,701.04 18.352547,-34.01791,701.04 18.352661,-34.031174,731.52 18.35289,-34.035923,731.52 18.35339,-34.039215,731.52 18.353783,-34.041733,731.52 18.354321,-34.044907,731.52 18.355293,-34.052265,762 18.355236,-34.057758,762 18.354149,-34.059944,762 18.351149,-34.062195,792.48 18.348713,-34.062458,762 18.345108,-34.060875,762 18.34362,-34.058922,762 18.344309,-34.055466,701.04 18.346024,-34.053474,701.04 18.348198,-34.050774,701.04 18.349411,-34.048782,701.04 18.351002,-34.045094,701.04 18.351746,-34.041927,701.04 18.352213,-34.038162,701.04 18.352381,-34.035919,701.04 18.352493,-34.032578,701.04 18.352549,-34.030243,701.04 18.352606,-34.026993,701.04 18.352549,-34.024704,701.04 18.352381,-34.021317,701.04 18.3521,-34.019302,701.04 18.35146,-34.016094,701.04 18.35083,-34.013718,701.04 18.350027,-34.010376,701.04 18.349514,-34.008503,701.04 18.347672,-34.005249,701.04 18.346424,-34.003429,701.04 18.345375,-33.99321,670.56 18.346481,-33.987511,640.08 18.349686,-33.975594,640.08 18.352489,-33.970238,640.08 18.35737,-33.963181,670.56 18.358097,-33.960182,670.56 18.358154,-33.9566,670.56 18.35821,-33.954071,640.08 18.358322,-33.949951,640.08 18.358379,-33.947662,640.08 18.358603,-33.94162,609.6 18.359051,-33.939011,609.6 18.359756,-33.935326,609.6 18.360329,-33.93309,609.6 18.361473,-33.929317,609.6 18.362303,-33.927155,609.6 18.363873,-33.923859,609.6 18.364937,-33.921844,609.6 18.366674,-33.918732,609.6 18.368019,-33.916534,609.6 18.369999,-33.913631,609.6 18.371439,-33.911774,609.6 18.374062,-33.908745,609.6 18.375643,-33.907059,609.6 18.378296,-33.904133,579.12 18.380182,-33.902252,579.12 18.382874,-33.899506,579.12 18.384418,-33.897991,579.12 18.388535,-33.894333,579.12 18.390665,-33.892593,579.12 18.39386,-33.890121,579.12 18.395933,-33.888748,579.12 18.399633,-33.886551,579.12 18.402386,-33.885139,548.64 18.405968,-33.883667,548.64 18.408852,-33.882812,548.64 18.413258,-33.882114,548.64 18.415945,-33.881882,518.16 18.420753,-33.882023,518.16 18.4235,-33.882534,487.68 18.42794,-33.884033,487.68 18.430349,-33.885223,487.68 18.434086,-33.887329,457.2 18.436089,-33.888538,457.2 18.439636,-33.891006,426.72 18.441982,-33.892681,426.72 18.444868,-33.895065,426.72 18.446503,-33.896687,396.24 18.44799,-33.899712,396.24 18.447447,-33.901657,365.76 18.444901,-33.902878,304.8 18.442738,-33.902527,274.32 18.439751,-33.901295,213.36 18.437693,-33.900375,213.36 18.434715,-33.899433,182.88 18.432541,-33.899105,152.4 18.430519,-33.899277,121.92 18.428707,-33.899807,91.44 18.427505,-33.900505,60.96 18.427963,-33.899014,91.44 18.42934,-33.896942,91.44 18.430138,-33.895756,121.92 18.431416,-33.893784,152.4 18.432144,-33.892456,182.88 18.434658,-33.887936,274.32 18.435402,-33.886398,274.32 18.435917,-33.884026,335.28 18.435675,-33.882477,365.76 18.4342,-33.880672,396.24 18.432367,-33.879822,396.24 18.429508,-33.87923,426.72 18.427162,-33.879089,457.2 18.423904,-33.879272,487.68 18.421612,-33.879463,518.16 18.418467,-33.879776,548.64 18.416449,-33.880142,579.12 18.413311,-33.88092,609.6 18.409138,-33.881416,670.56 18.39728,-33.883575,701.04 18.394718,-33.884491,701.04 18.391281,-33.886002,701.04 18.388647,-33.887421,701.04 18.385284,-33.889481,701.04 18.383217,-33.890961,701.04 18.380127,-33.893379,731.52 18.377941,-33.895248,731.52 18.375362,-33.897629,731.52 18.373569,-33.899414,731.52 18.371258,-33.901806,762 18.369701,-33.903488,762 18.36729,-33.906235,792.48 18.365822,-33.908138,792.48 18.363991,-33.910885,822.96 18.362864,-33.912781,822.96 18.360901,-33.915817,822.96 18.359556,-33.917816,822.96 18.357594,-33.920883,822.96 18.354664,-33.926247,822.96 18.352886,-33.929626,792.48 18.35182,-33.931915,792.48 18.35043,-33.935371,792.48 18.349411,-33.937958,792.48 18.347952,-33.942581,762 18.347282,-33.945099,762 18.34631,-33.948917,762 18.345509,-33.952038,731.52 18.343964,-33.958599,731.52 18.341282,-33.970413,731.52 18.336639,-33.985088,731.52 18.334276,-33.990738,731.52 18.329344,-34.003693,731.52 18.328896,-34.005798,731.52 18.328686,-34.009296,762 18.328915,-34.011765,762 18.329847,-34.015228,762 18.330631,-34.017349,731.52 18.332033,-34.020355,731.52 18.33321,-34.022644,731.52 18.334948,-34.025894,731.52 18.336069,-34.027954,731.52 18.33876,-34.033493,731.52 18.341217,-34.039043,731.52 18.344757,-34.047546,762 18.345375,-34.049789,762 18.347168,-34.053707,792.48 18.34877,-34.054962,822.96 18.352432,-34.05529,822.96 18.354454,-34.054138,822.96 18.356152,-34.051052,792.48 18.356192,-34.048782,792.48 18.355576,-34.045303,762 18.355127,-34.043106,762 18.353577,-34.039833,762 18.351517,-34.038483,792.48 18.347454,-34.038067,792.48 18.344982,-34.038391,792.48 18.341045,-34.0396,822.96 18.338585,-34.040531,822.96 18.334351,-34.040997,792.48 18.331661,-34.040161,762 18.328726,-34.037796,701.04 18.327606,-34.035599,670.56 18.327141,-34.032013,670.56 18.327427,-34.029827,670.56 18.32811,-34.026169,670.56 18.328445,-34.024109,670.56 18.328972,-34.020794,670.56 18.329454,-34.018341,670.56 18.330917,-34.012367,640.08 18.333321,-34.002872,640.08 18.337784,-33.990349,640.08 18.341274,-33.982574,670.56 18.348942,-33.96698,640.08 18.353165,-33.956818,640.08 18.354792,-33.952194,640.08 18.355465,-33.949848,640.08 18.356438,-33.946499,640.08 18.357033,-33.944138,640.08 18.359779,-33.934021,640.08 18.361855,-33.9272,609.6 18.363199,-33.924088,609.6 18.364162,-33.922058,609.6 18.365833,-33.918686,609.6 18.366909,-33.916656,609.6 18.368748,-33.913559,609.6 18.37015,-33.911591,609.6 18.372231,-33.908695,609.6 18.373737,-33.90683,609.6 18.376036,-33.904037,579.12 18.377773,-33.902069,579.12 18.380407,-33.899368,579.12 18.38237,-33.89772,579.12 18.38522,-33.895615,579.12 18.387358,-33.894241,579.12 18.390999,-33.892033,579.12 18.393345,-33.890682,579.12 18.396662,-33.888794,579.12 18.398724,-33.887653,579.12 18.402271,-33.885746,548.64 18.404846,-33.884491,548.64 18.408657,-33.882751,518.16 18.4109,-33.881744,518.16 18.41486,-33.880344,487.68 18.417664,-33.879696,487.68 18.421661,-33.879684,457.2 18.424473,-33.880486,457.2 18.427963,-33.882069,457.2 18.43008,-33.883511,426.72 18.433321,-33.886093,426.72 18.435226,-33.88765,426.72 18.438366,-33.890213,396.24 18.440384,-33.891907,396.24 18.443354,-33.894699,396.24 18.44799,-33.898968,365.76 18.45108,-33.902134,365.76 18.451939,-33.904228,396.24 18.45005,-33.906742,365.76 18.447819,-33.906879,335.28 18.444901,-33.904926,304.8 18.443972,-33.902847,274.32 18.442795,-33.899826,243.84 18.441467,-33.898361,243.84 18.438534,-33.897217,182.88 18.436293,-33.8974,152.4 18.4338,-33.898129,121.92 18.428724,-33.899506,60.96 18.42802,-33.897572,60.96 18.42934,-33.895935,91.44 18.430882,-33.893845,121.92 18.431808,-33.892456,152.4 18.433285,-33.890167,213.36 18.43433,-33.887833,243.84 18.434772,-33.885559,274.32 18.434544,-33.884304,304.8 18.433041,-33.881973,365.76 18.432087,-33.880692,365.76 18.430538,-33.878948,396.24 18.428822,-33.877834,426.72 18.426075,-33.877228,457.2 18.423843,-33.877182,457.2 18.420933,-33.877396,487.68 18.418524,-33.877625,518.16 18.415489,-33.878017,548.64 18.413198,-33.878494,548.64 18.409767,-33.879509,579.12 18.407593,-33.880207,609.6 18.404503,-33.881371,609.6 18.4021,-33.882393,609.6 18.398849,-33.88385,640.08 18.396606,-33.884956,640.08 18.393076,-33.88678,640.08 18.39072,-33.888062,640.08 18.386478,-33.89045,670.56 18.384443,-33.891678,670.56 18.381023,-33.893875,670.56 18.378782,-33.895432,701.04 18.375778,-33.89785,701.04 18.37385,-33.899506,701.04 18.370914,-33.902367,701.04 18.369484,-33.9039,701.04 18.366852,-33.906929,731.52 18.365421,-33.908649,731.52 18.362864,-33.911865,762 18.361473,-33.913818,762 18.359667,-33.916351,792.48 18.358154,-33.918549,792.48 18.356361,-33.921295,792.48 18.354378,-33.924385,792.48 18.352432,-33.927784,792.48 18.351316,-33.930038,792.48 18.350143,-33.933464,792.48 18.349686,-33.935696,792.48 18.348961,-33.939651,792.48 18.348656,-33.941936,792.48 18.348484,-33.945614,792.48 18.348312,-33.948032,762 18.34672,-33.954529,762 18.3433,-33.962677,853.44 18.348177,-33.961807,792.48 18.354549,-33.959206,762 18.357874,-33.95636,762 18.359127,-33.954178,731.52 18.359724,-33.950729,731.52 18.359642,-33.947941,701.04 18.359276,-33.944046,670.56 18.359013,-33.941563,670.56 18.358658,-33.9375,670.56 18.358883,-33.934067,670.56 18.359814,-33.930485,640.08 18.360788,-33.928162,640.08 18.362526,-33.924957,640.08 18.363873,-33.922806,640.08 18.365665,-33.919739,609.6 18.366898,-33.917587,609.6 18.36886,-33.914383,579.12 18.370262,-33.912323,579.12 18.372448,-33.909439,579.12 18.374062,-33.907627,579.12 18.376707,-33.904816,579.12 18.378353,-33.903156,579.12 18.381081,-33.900604,579.12 18.382874,-33.898956,579.12 18.385508,-33.89653,579.12 18.38728,-33.895058,579.12 18.390497,-33.892593,579.12 18.39257,-33.891357,548.64 18.396034,-33.889565,548.64 18.398905,-33.888336,548.64 18.402603,-33.886826,548.64 18.405132,-33.885838,518.16 18.408882,-33.884399,518.16 18.411236,-33.883575,518.16 18.415203,-33.882393,518.16 18.417892,-33.881927,518.16 18.421942,-33.881836,518.16 18.424416,-33.882256,518.16 18.428389,-33.883621,518.16 18.430799,-33.884766,487.68 18.4342,-33.886723,487.68 18.436375,-33.888119,457.2 18.43935,-33.890308,457.2 18.440945,-33.891769,457.2 18.442955,-33.894173,426.72 18.443871,-33.896034,396.24 18.443813,-33.898594,365.76 18.44244,-33.899853,335.28 18.43998,-33.900318,274.32 18.438366,-33.900146,243.84 18.435745,-33.899666,213.36 18.433937,-33.89946,182.88 18.431696,-33.899506,121.92 18.428135,-33.900177,91.44 18.427099,-33.901062,60.96 18.427162,-33.899525,91.44 18.428501,-33.897446,91.44 18.429846,-33.896164,121.92 18.432083,-33.894547,152.4 18.434086,-33.893612,182.88 18.437004,-33.893242,213.36 18.439236,-33.893799,243.84 18.441616,-33.895294,243.84 18.443298,-33.896732,274.32 18.445988,-33.898735,304.8 18.447783,-33.899963,304.8 18.450108,-33.901669,335.28 18.453884,-33.904507,365.76 18.462917,-33.911499,365.76 18.470203,-33.917175,365.76 18.481134,-33.924957,365.76 18.487917,-33.929535,365.76 18.501205,-33.93919,335.28 18.507671,-33.943657,365.76 18.511347,-33.945557,365.76 18.513737,-33.946545,365.76 18.517456,-33.947895,365.76 18.52026,-33.948872,335.28 18.524094,-33.950127,335.28 18.526783,-33.951012,335.28 18.530796,-33.95224,335.28 18.538532,-33.954666,335.28 18.552546,-33.959061,335.28 18.561287,-33.962372,335.28 18.564663,-33.963909,335.28 18.56712,-33.96524,335.28 18.570385,-33.967167,335.28 18.572723,-33.968582,335.28 18.576107,-33.970612,335.28 18.578329,-33.971878,335.28 18.586569,-33.976318,304.8 18.589203,-33.9776,304.8 18.592903,-33.979248,304.8 18.595905,-33.980202,304.8 18.599741,-33.98085,304.8 18.602713,-33.98085,274.32 18.60742,-33.980209,274.32 18.610224,-33.979614,274.32 18.614044,-33.97871,274.32 18.616734,-33.978058,274.32 18.620739,-33.977127,304.8 18.623171,-33.976593,304.8 18.632984,-33.974243,304.8 18.642174,-33.97197,335.28 18.656858,-33.968948,335.28 18.66493,-33.967346,335.28 18.67979,-33.964375,335.28 18.689426,-33.96254,335.28 18.702822,-33.959702,335.28 18.713865,-33.957504,335.28 18.726645,-33.954941,365.76 18.730455,-33.953934,365.76 18.7341,-33.952835,396.24 18.736725,-33.951942,396.24 18.740545,-33.9505,396.24 18.742956,-33.949493,396.24 18.747272,-33.947571,396.24 18.749681,-33.946381,396.24 18.753376,-33.944496,396.24 18.756016,-33.943176,396.24 18.768368,-33.937233,365.76 18.776756,-33.933151,365.76 18.789648,-33.927109,396.24 18.792171,-33.926247,396.24 18.797775,-33.923859,396.24 18.799906,-33.922211,396.24 18.803043,-33.919777,396.24 18.805286,-33.918091,396.24 18.807907,-33.916145,396.24 18.810654,-33.914143,396.24 18.818739,-33.908615,365.76 18.825298,-33.9039,365.76 18.836746,-33.894962,365.76 18.843327,-33.88961,396.24 18.847275,-33.885887,396.24 18.849064,-33.884079,396.24 18.854542,-33.879974,396.24 18.856911,-33.879913,396.24 18.858816,-33.882111,396.24 18.858425,-33.883896,396.24 18.856487,-33.885838,365.76 18.854782,-33.88678,335.28 18.851585,-33.887421,335.28 18.849289,-33.886642,304.8 18.848728,-33.884583,304.8 18.849449,-33.883465,304.8 18.851051,-33.882347,304.8 18.851978,-33.882614,274.32 18.852259,-33.883484,274.32 18.852081,-33.884163,274.32 18.851475,-33.885132,274.32 18.850536,-33.887936,274.32 18.849905,-33.889984,304.8 18.848167,-33.891266,335.28 18.845196,-33.893005,335.28 18.843235,-33.89415,335.28 18.840208,-33.896072,365.76 18.838291,-33.897243,335.28 18.830063,-33.902481,365.76 18.825474,-33.905766,365.76 18.820141,-33.909714,365.76 18.813639,-33.9142,365.76 18.80476,-33.920055,365.76 18.797607,-33.925224,365.76 18.794632,-33.927456,365.76 18.787966,-33.932373,396.24 18.781801,-33.937546,396.24 18.780231,-33.939331,396.24 18.778101,-33.942261,396.24 18.776756,-33.944458,396.24 18.774681,-33.947525,396.24 18.773336,-33.949539,396.24 18.768768,-33.955296,396.24 18.766666,-33.959473,396.24 18.767227,-33.962952,396.24 18.768684,-33.96492,396.24 18.772087,-33.966423,426.72 18.775299,-33.965836,426.72 18.777485,-33.963684,426.72 18.777866,-33.960743,396.24 18.77615,-33.957344,396.24 18.773804,-33.955482,396.24 18.769638,-33.954391,396.24 18.767109,-33.954643,396.24 18.762911,-33.95549,396.24 18.759604,-33.956223,396.24 18.755379,-33.957111,365.76 18.752766,-33.957596,365.76 18.744413,-33.959152,335.28 18.734665,-33.96093,335.28 18.720474,-33.963116,304.8 18.711229,-33.964371,304.8 18.694897,-33.966515,304.8 18.685165,-33.967575,335.28 18.671713,-33.968857,304.8 18.661823,-33.969681,304.8 18.646603,-33.970703,304.8 18.64357,-33.970703,304.8 18.63954,-33.970688,335.28 18.636703,-33.970657,304.8 18.632477,-33.970688,304.8 18.625076,-33.970551,304.8 18.615417,-33.97047,304.8 18.612745,-33.970734,304.8 18.608877,-33.971191,304.8 18.605907,-33.971603,304.8 18.601742,-33.972149,304.8 18.594921,-33.972656,274.32 18.590927,-33.972008,304.8 18.588251,-33.971237,304.8 18.584551,-33.970001,304.8 18.582058,-33.969215,304.8 18.578339,-33.967911,304.8 18.575878,-33.96698,304.8 18.572388,-33.965561,304.8 18.562466,-33.961853,304.8 18.55574,-33.959656,304.8 18.553049,-33.958832,304.8 18.545609,-33.956551,304.8 18.53657,-33.953705,304.8 18.523178,-33.949894,274.32 18.519573,-33.948406,274.32 18.515944,-33.946609,274.32 18.513588,-33.945419,274.32 18.510057,-33.943542,274.32 18.507872,-33.942398,274.32 18.50172,-33.939003,274.32 18.492456,-33.933746,304.8 18.485786,-33.929443,304.8 18.483753,-33.928062,304.8 18.477173,-33.9235,304.8 18.470932,-33.918777,304.8 18.458881,-33.910263,274.32 18.451035,-33.904678,243.84 18.442154,-33.898315,213.36 18.439768,-33.897491,213.36 18.43618,-33.899185,182.88 18.435173,-33.90097,152.4 18.432655,-33.90041,121.92 18.431168,-33.899525,121.92 18.429678,-33.89946,91.44 18.428556,-33.899597,60.96 18.427267,-33.898407,121.92 18.427547,-33.897217,121.92 18.428879,-33.895428,152.4 18.430182,-33.894012,182.88 18.432026,-33.892124,213.36 18.433208,-33.891037,243.84 18.435171,-33.889069,274.32 18.436628,-33.886871,304.8 18.437244,-33.884674,335.28 18.437233,-33.883141,365.76 18.436375,-33.880951,396.24 18.435284,-33.879822,426.72 18.43317,-33.878532,457.2 18.431416,-33.877945,457.2 18.428879,-33.877506,487.68 18.427099,-33.87735,518.16 18.424416,-33.877228,548.64 18.422503,-33.877258,548.64 18.419781,-33.87746,579.12 18.41795,-33.877647,609.6 18.415031,-33.877972,640.08 18.412914,-33.87825,640.08 18.409836,-33.878769,670.56 18.407761,-33.879227,670.56 18.40451,-33.880051,701.04 18.402557,-33.880581,731.52 18.399353,-33.881607,762 18.397448,-33.882248,762 18.394196,-33.883484,792.48 18.391954,-33.884399,792.48 18.388767,-33.885792,792.48 18.386404,-33.886871,792.48 18.382874,-33.888611,792.48 18.380299,-33.889984,792.48 18.376865,-33.891983,792.48 18.374519,-33.893475,792.48 18.370972,-33.895893,792.48 18.368969,-33.897339,792.48 18.365765,-33.89999,792.48 18.363422,-33.902298,792.48 18.361013,-33.905136,792.48 18.359276,-33.907379,762 18.357239,-33.910374,762 18.355808,-33.912655,762 18.354034,-33.915726,792.48 18.352833,-33.917961,792.48 18.351204,-33.921387,792.48 18.350363,-33.923401,792.48 18.348906,-33.926788,792.48 18.348064,-33.929031,822.96 18.346832,-33.932419,822.96 18.345966,-33.93486,822.96 18.342876,-33.943703,792.48 18.340666,-33.951004,792.48 18.339209,-33.956955,792.48 18.336182,-33.969959,822.96 18.331432,-33.988255,792.48 18.329487,-33.996075,792.48 18.329006,-34.000076,792.48 18.328726,-34.005295,792.48 18.328743,-34.008644,792.48 18.3288,-34.011112,792.48 18.328972,-34.014927,792.48 18.329144,-34.019722,792.48 18.330345,-34.033363,792.48 18.330803,-34.041744,792.48 18.330856,-34.045258,792.48 18.330917,-34.054962,762 18.331661,-34.063717,762 18.332987,-34.065628,731.52 18.336239,-34.067673,731.52 18.339209,-34.068146,731.52 18.343077,-34.067276,731.52 18.345165,-34.065811,731.52 18.347225,-34.062832,731.52 18.347969,-34.06041,701.04 18.348141,-34.056873,701.04 18.347912,-34.054314,701.04 18.347281,-34.050934,670.56 18.346775,-34.048645,670.56 18.345852,-34.045139,670.56 18.345205,-34.04306,670.56 18.344021,-34.039883,670.56 18.34322,-34.037926,670.56 18.341618,-34.034481,640.08 18.34053,-34.032433,640.08 18.338757,-34.029079,640.08 18.337612,-34.026985,640.08 18.334122,-34.019817,640.08 18.333206,-34.017441,640.08 18.332291,-34.014278,640.08 18.33189,-34.012367,670.56 18.33181,-34.008957,670.56 18.331923,-34.007034,670.56 18.332119,-34.003941,670.56 18.332258,-34.001587,670.56 18.33292,-33.99398,670.56 18.334236,-33.988674,670.56 18.339712,-33.974899,640.08 18.343973,-33.966293,640.08 18.350201,-33.954456,640.08 18.354511,-33.94519,640.08 18.360172,-33.933426,670.56 18.364321,-33.926147,670.56 18.367481,-33.921078,670.56 18.369427,-33.918148,670.56 18.371429,-33.915493,640.08 18.373089,-33.913353,640.08 18.375607,-33.910511,640.08 18.377155,-33.908752,640.08 18.379791,-33.906052,640.08 18.381584,-33.904358,640.08 18.384443,-33.901886,640.08 18.386293,-33.900375,640.08 18.389544,-33.898041,609.6 18.3918,-33.896641,609.6 18.395805,-33.894547,579.12 18.398008,-33.893509,548.64 18.401871,-33.891937,548.64 18.404343,-33.890991,518.16 18.408657,-33.889709,487.68 18.411516,-33.888977,457.2 18.415604,-33.887794,426.72 18.418407,-33.886909,426.72 18.422184,-33.885792,396.24 18.426361,-33.884769,396.24 18.43091,-33.884491,365.76 18.433743,-33.885002,365.76 18.437525,-33.88623,365.76 18.439823,-33.887512,365.76 18.44244,-33.889797,335.28 18.443411,-33.891357,304.8 18.443985,-33.894547,274.32 18.44347,-33.896126,274.32 18.441868,-33.898129,213.36 18.440216,-33.898956,213.36 18.438034,-33.899246,152.4 18.436089,-33.899246,152.4 18.433937,-33.899277,121.92 18.432598,-33.899387,121.92 18.43063,-33.899643,91.44 18.42905,-33.899757,91.44 18.428135,-33.899433,60.96 18.429005,-33.897263,91.44 18.43063,-33.895065,91.44 18.431528,-33.893738,121.92 18.433096,-33.891495,152.4 18.434105,-33.89003,182.88 18.435402,-33.887749,213.36 18.435917,-33.885979,243.84 18.435631,-33.883839,274.32 18.434772,-33.882534,304.8 18.432827,-33.881229,335.28 18.431583,-33.880692,365.76 18.429621,-33.880096,396.24 18.427849,-33.879742,396.24 18.425446,-33.879509,426.72 18.423512,-33.879456,457.2 18.420652,-33.879684,487.68 18.418915,-33.879913,487.68 18.415947,-33.88044,518.16 18.414288,-33.880718,548.64 18.411573,-33.881195,579.12 18.409481,-33.881649,609.6 18.406919,-33.882294,609.6 18.405014,-33.882797,640.08 18.401764,-33.883987,640.08 18.399811,-33.884861,640.08 18.396606,-33.886398,640.08 18.394588,-33.887421,640.08 18.391169,-33.88916,640.08 18.389111,-33.890308,640.08 18.385845,-33.892227,640.08 18.383961,-33.893475,640.08 18.38063,-33.895798,640.08 18.378639,-33.897243,670.56 18.375475,-33.899872,670.56 18.37396,-33.901382,670.56 18.371201,-33.904415,670.56 18.369589,-33.906235,670.56 18.36731,-33.908928,670.56 18.365833,-33.910812,701.04 18.363876,-33.913399,731.52 18.362583,-33.915298,731.52 18.360901,-33.917915,762 18.359871,-33.919777,762 18.358379,-33.922531,762 18.35741,-33.924572,762 18.355911,-33.927795,792.48 18.355183,-33.929718,792.48 18.354206,-33.932903,792.48 18.353519,-33.934952,792.48 18.349514,-33.944218,792.48 18.348513,-33.946289,792.48 18.345852,-33.952175,792.48 18.344078,-33.963348,792.48 18.352375,-33.96777,762 18.357706,-33.966019,762 18.360329,-33.96093,731.52 18.360733,-33.958374,731.52 18.361416,-33.954922,701.04 18.361931,-33.952782,701.04 18.362789,-33.945705,701.04 18.36219,-33.943314,701.04 18.361187,-33.940025,670.56 18.36062,-33.937363,670.56 18.36034,-33.934158,670.56 18.360788,-33.930542,640.08 18.362045,-33.926945,640.08 18.363031,-33.924957,640.08 18.365021,-33.921543,640.08 18.366449,-33.919373,640.08 18.368525,-33.916443,640.08 18.369942,-33.914421,640.08 18.372288,-33.911304,640.08 18.37368,-33.909531,640.08 18.376064,-33.906834,640.08 18.378222,-33.905045,609.6 18.381271,-33.902691,609.6 18.383331,-33.901062,609.6 18.386421,-33.89864,579.12 18.388538,-33.896873,579.12 18.396778,-33.890633,579.12 18.400211,-33.888493,579.12 18.403837,-33.886551,548.64 18.406191,-33.885315,548.64 18.410225,-33.883465,548.64 18.413141,-33.882523,548.64 18.417625,-33.881836,548.64 18.420925,-33.881977,518.16 18.425617,-33.882812,518.16 18.428707,-33.883743,518.16 18.43317,-33.885605,487.68 18.435507,-33.886688,487.68 18.439655,-33.88884,457.2 18.442402,-33.890442,457.2 18.445873,-33.893055,426.72 18.447247,-33.89529,426.72 18.446941,-33.898178,396.24 18.445148,-33.899643,335.28 18.441925,-33.901062,304.8 18.439808,-33.901806,274.32 18.437357,-33.901703,243.84 18.43618,-33.900467,213.36 18.435345,-33.89864,182.88 18.434086,-33.89827,152.4 18.429279,-33.89962,91.44 18.428375,-33.899632,0 18.428993,-33.897385,91.44 18.429901,-33.89621,91.44 18.431797,-33.893986,121.92 18.43317,-33.892357,121.92 18.43523,-33.889935,152.4 18.436571,-33.88829,152.4 18.438702,-33.885086,182.88 18.439236,-33.883091,213.36 18.439262,-33.879501,213.36 18.438778,-33.877132,213.36 18.437132,-33.874008,213.36 18.435339,-33.872269,213.36 18.432312,-33.870758,213.36 18.429852,-33.870106,243.84 18.426247,-33.869873,243.84 18.423737,-33.870071,274.32 18.420149,-33.870804,274.32 18.417625,-33.871582,274.32 18.41423,-33.872807,304.8 18.411427,-33.873875,304.8 18.407818,-33.875336,335.28 18.405014,-33.876572,365.76 18.402328,-33.877739,396.24 18.396378,-33.88044,426.72 18.391628,-33.882954,457.2 18.389912,-33.883976,487.68 18.387566,-33.885468,487.68 18.38562,-33.886818,518.16 18.382929,-33.888885,518.16 18.381386,-33.890167,548.64 18.37895,-33.89241,548.64 18.377155,-33.89415,579.12 18.375082,-33.896439,579.12 18.373833,-33.897896,609.6 18.371887,-33.90033,670.56 18.370743,-33.901947,670.56 18.368973,-33.904404,701.04 18.367767,-33.90609,701.04 18.364151,-33.911224,731.52 18.359556,-33.917816,762 18.356037,-33.923546,762 18.354893,-33.92564,762 18.35339,-33.928665,762 18.352375,-33.931042,762 18.350887,-33.934719,762 18.350082,-33.936859,792.48 18.34877,-33.940258,792.48 18.347897,-33.942581,792.48 18.343245,-33.954849,792.48 18.344646,-33.963684,762 18.353062,-33.96698,731.52 18.358995,-33.962311,609.6 18.359724,-33.958099,579.12 18.359871,-33.955017,579.12 18.359779,-33.951324,579.12 18.359699,-33.948826,579.12 18.359444,-33.944778,548.64 18.359356,-33.942352,548.64 18.359837,-33.934937,548.64 18.360271,-33.932484,579.12 18.361015,-33.928993,579.12 18.361588,-33.926899,579.12 18.362732,-33.923454,579.12 18.36348,-33.921387,579.12 18.364792,-33.918472,579.12 18.366051,-33.916378,579.12 18.368168,-33.913258,579.12 18.369757,-33.911087,579.12 18.372059,-33.90823,609.6 18.373457,-33.906601,609.6 18.376204,-33.903534,609.6 18.377953,-33.90176,609.6 18.380413,-33.899246,609.6 18.382313,-33.8974,609.6 18.385162,-33.89473,579.12 18.386822,-33.893242,579.12 18.389912,-33.890728,609.6 18.392258,-33.889099,609.6 18.39571,-33.887329,609.6 18.398232,-33.886414,609.6 18.402548,-33.885178,609.6 18.405647,-33.884491,579.12 18.409882,-33.883793,579.12 18.412971,-33.883373,579.12 18.41732,-33.882999,579.12 18.420353,-33.882908,548.64 18.424759,-33.883278,518.16 18.427155,-33.883896,518.16 18.430939,-33.885605,457.2 18.433208,-33.887009,426.72 18.436546,-33.889145,426.72 18.438421,-33.890442,426.72 18.441,-33.892639,396.24 18.442009,-33.894333,365.76 18.441753,-33.896454,335.28 18.440552,-33.89785,335.28 18.438549,-33.898781,274.32 18.437021,-33.899094,243.84 18.434891,-33.899368,182.88 18.433714,-33.899506,152.4 18.432087,-33.899826,152.4 18.431135,-33.900009,121.92 18.427996,-33.900604,60.96 18.427547,-33.900513,60.96 18.428444,-33.898315,91.44 18.429337,-33.896919,91.44 18.430687,-33.894882,121.92 18.431625,-33.893566,152.4 18.433208,-33.89122,182.88 18.435974,-33.886444,213.36 18.437233,-33.883839,243.84 18.438034,-33.88221,243.84 18.439178,-33.879646,274.32 18.439936,-33.878036,274.32 18.443699,-33.870197,365.76 18.446941,-33.864029,396.24 18.45266,-33.853409,396.24 18.455315,-33.849155,396.24 18.457432,-33.845852,396.24 18.460808,-33.840683,396.24 18.465775,-33.832443,396.24 18.46693,-33.830303,396.24 18.468533,-33.826813,396.24 18.469334,-33.824577,396.24 18.470371,-33.820999,396.24 18.470993,-33.818386,396.24 18.471605,-33.814819,396.24 18.471886,-33.812531,396.24 18.472109,-33.80896,396.24 18.472252,-33.806515,396.24 18.472446,-33.802505,396.24 18.472538,-33.800091,396.24 18.472481,-33.792038,396.24 18.472334,-33.788452,396.24 18.471909,-33.778351,396.24 18.471548,-33.771057,426.72 18.47138,-33.758835,426.72 18.47168,-33.752048,426.72 18.472137,-33.748558,426.72 18.472595,-33.746368,426.72 18.47323,-33.743179,426.72 18.473736,-33.740662,426.72 18.474913,-33.734253,426.72 18.475742,-33.728401,396.24 18.475914,-33.725048,426.72 18.475914,-33.722858,426.72 18.475864,-33.719193,426.72 18.475809,-33.716904,426.72 18.475513,-33.713642,396.24 18.475113,-33.710804,396.24 18.474712,-33.707405,396.24 18.474407,-33.704819,396.24 18.473854,-33.70126,396.24 18.473396,-33.698978,396.24 18.472557,-33.695572,396.24 18.471998,-33.6931,396.24 18.471222,-33.689995,396.24 18.46953,-33.682251,426.72 18.466873,-33.670815,426.72 18.464991,-33.663712,426.72 18.462296,-33.652798,426.72 18.460339,-33.644806,426.72 18.458376,-33.639587,426.72 18.457375,-33.637669,426.72 18.455797,-33.634644,426.72 18.454742,-33.632687,426.72 18.452969,-33.629757,426.72 18.451538,-33.627457,426.72 18.447876,-33.621376,426.72 18.445261,-33.616379,426.72 18.443298,-33.612488,426.72 18.442268,-33.610344,426.72 18.436068,-33.596924,396.24 18.432026,-33.587021,426.72 18.428249,-33.57962,426.72 18.427219,-33.577709,457.2 18.423288,-33.569733,457.2 18.420149,-33.563278,487.68 18.415661,-33.553455,487.68 18.412971,-33.547638,518.16 18.408802,-33.538284,518.16 18.406824,-33.532928,518.16 18.404078,-33.52565,487.68 18.402716,-33.52129,487.68 18.400587,-33.514538,487.68 18.398199,-33.507568,487.68 18.394739,-33.497452,487.68 18.391993,-33.490723,457.2 18.387981,-33.48024,457.2 18.385456,-33.473923,457.2 18.381006,-33.463531,426.72 18.377544,-33.45607,457.2 18.37392,-33.449249,457.2 18.369925,-33.441639,457.2 18.365273,-33.431629,487.68 18.362274,-33.425446,487.68 18.357056,-33.415878,457.2 18.353445,-33.408913,457.2 18.347281,-33.397785,457.2 18.346014,-33.395828,487.68 18.340302,-33.385803,487.68 18.337116,-33.379944,487.68 18.333155,-33.373394,487.68 18.331787,-33.371429,487.68 18.329119,-33.36776,487.68 18.327717,-33.36599,457.2 18.325363,-33.363243,457.2 18.323877,-33.361633,487.68 18.321159,-33.358822,457.2 18.319592,-33.357193,457.2 18.317066,-33.354584,457.2 18.3132,-33.350441,457.2 18.304815,-33.341721,457.2 18.298738,-33.335873,457.2 18.290369,-33.327896,426.72 18.284931,-33.322723,426.72 18.275482,-33.314301,426.72 18.269714,-33.309357,426.72 18.259991,-33.301071,396.24 18.253674,-33.295578,396.24 18.24431,-33.287689,396.24 18.237978,-33.282475,396.24 18.228336,-33.273819,396.24 18.223068,-33.268559,396.24 18.220551,-33.265869,396.24 18.214397,-33.259781,396.24 18.209784,-33.254543,396.24 18.20841,-33.252548,396.24 18.206589,-33.249611,396.24 18.205114,-33.247467,396.24 18.20138,-33.242844,396.24 18.1966,-33.23616,396.24 18.193415,-33.231407,365.76 18.188635,-33.225082,365.76 18.186438,-33.222382,365.76 18.184784,-33.220467,365.76 18.182484,-33.217941,365.76 18.18058,-33.216,365.76 18.178169,-33.213577,365.76 18.176432,-33.211903,365.76 18.172211,-33.207779,365.76 18.167295,-33.202408,365.76 18.163427,-33.198078,365.76 18.157709,-33.191895,365.76 18.154907,-33.18924,365.76 18.152216,-33.186722,335.28 18.149469,-33.184204,335.28 18.14308,-33.1782,335.28 18.135077,-33.170609,335.28 18.129066,-33.164467,335.28 18.123211,-33.157974,335.28 18.117939,-33.15184,335.28 18.109478,-33.141495,335.28 18.107374,-33.138535,335.28 18.105358,-33.135635,335.28 18.104067,-33.133789,335.28 18.096107,-33.122242,335.28 18.093866,-33.118519,335.28 18.091351,-33.113754,335.28 18.089998,-33.111164,335.28 18.085474,-33.102814,335.28 18.082151,-33.097198,365.76 18.077124,-33.089127,426.72 18.07229,-33.081528,426.72 18.068193,-33.075832,396.24 18.065559,-33.072338,396.24 18.060795,-33.06517,396.24 18.059601,-33.063034,396.24 18.058064,-33.060059,396.24 18.057129,-33.057999,396.24 18.054348,-33.052692,396.24 18.052891,-33.050552,365.76 18.050762,-33.047665,365.76 18.048944,-33.045319,335.28 18.046446,-33.042404,335.28 18.044605,-33.040466,335.28 18.041859,-33.037766,335.28 18.040155,-33.036118,335.28 18.037243,-33.033554,304.8 18.035156,-33.031677,304.8 18.0275,-33.024715,274.32 18.020763,-33.018906,243.84 18.013733,-33.013321,243.84 18.011805,-33.011913,243.84 18.008945,-33.009819,213.36 18.005808,-33.007633,243.84 18.001978,-33.005035,243.84 17.994892,-33.000412,213.36 17.99176,-32.998947,182.88 17.989508,-32.998123,182.88 17.986597,-32.997162,152.4 17.984058,-32.996319,121.92 17.981598,-32.995834,121.92 17.979565,-32.995743,121.92 17.977423,-32.995789,91.44 17.968525,-32.997757,152.4 17.971111,-32.99683,60.96 17.973969,-32.996086,60.96 17.977053,-32.996227,121.92 17.978901,-32.996365,152.4 17.985058,-32.997162,182.88 17.988039,-32.997715,182.88 17.99165,-32.998489,213.36 17.994596,-32.999207,213.36 17.99824,-33.000416,243.84 18.000874,-33.001347,243.84 18.004669,-33.002792,243.84 18.007153,-33.00386,243.84 18.011206,-33.005814,243.84 18.013655,-33.007027,243.84 18.017075,-33.008934,243.84 18.019501,-33.010437,243.84 18.022791,-33.012661,243.84 18.024939,-33.014099,274.32 18.027668,-33.016056,274.32 18.029854,-33.017826,274.32 18.0326,-33.020107,274.32 18.034607,-33.021744,304.8 18.037628,-33.024261,304.8 18.039606,-33.026066,304.8 18.04426,-33.030441,304.8 18.047022,-33.033234,335.28 18.049696,-33.036213,335.28 18.051546,-33.038261,335.28 18.05418,-33.041473,335.28 18.055805,-33.04343,335.28 18.061359,-33.050125,335.28 18.065054,-33.055256,335.28 18.067127,-33.058456,365.76 18.06839,-33.060608,365.76 18.070312,-33.063812,365.76 18.07163,-33.066055,365.76 18.076849,-33.074066,365.76 18.080145,-33.078735,365.76 18.085569,-33.086117,365.76 18.091461,-33.093475,365.76 18.098911,-33.102737,365.76 18.10437,-33.109543,365.76 18.112061,-33.119751,365.76 18.113708,-33.122337,365.76 18.115726,-33.125687,365.76 18.117224,-33.12822,365.76 18.121332,-33.133091,396.24 18.123293,-33.135139,396.24 18.125849,-33.137924,396.24 18.127834,-33.140167,396.24 18.13187,-33.144821,396.24 18.134224,-33.147709,396.24 18.142767,-33.157928,426.72 18.147491,-33.163925,426.72 18.15715,-33.175964,396.24 18.162979,-33.183414,396.24 18.171223,-33.194595,426.72 18.176386,-33.202011,426.72 18.184055,-33.212227,426.72 18.185848,-33.214184,426.72 18.188471,-33.217117,426.72 18.191957,-33.221165,426.72 18.200142,-33.230244,426.72 18.206083,-33.237461,426.72 18.215113,-33.248611,426.72 18.220276,-33.25502,396.24 18.22772,-33.265064,487.68 18.231262,-33.269302,518.16 18.234119,-33.271912,518.16 18.236128,-33.273724,518.16 18.239227,-33.276398,518.16 18.24106,-33.277962,518.16 18.249334,-33.285324,518.16 18.255102,-33.290955,518.16 18.257904,-33.294388,518.16 18.25967,-33.296581,518.16 18.262135,-33.299423,518.16 18.264826,-33.30249,518.16 18.26944,-33.307892,518.16 18.275097,-33.314941,518.16 18.284161,-33.326523,487.68 18.289042,-33.332798,487.68 18.297125,-33.343826,518.16 18.302288,-33.351196,518.16 18.310694,-33.362274,518.16 18.316563,-33.369297,518.16 18.324467,-33.378094,518.16 18.33025,-33.384979,518.16 18.335247,-33.390015,548.64 18.337391,-33.391434,548.64 18.340946,-33.39341,548.64 18.343761,-33.39473,548.64 18.348047,-33.396652,579.12 18.350409,-33.397797,579.12 18.35442,-33.399811,579.12 18.359892,-33.402626,579.12 18.363428,-33.404755,579.12 18.365778,-33.406353,579.12 18.369644,-33.409004,579.12 18.372,-33.41082,579.12 18.375195,-33.413612,579.12 18.377161,-33.415512,579.12 18.379902,-33.418453,579.12 18.381556,-33.420181,579.12 18.384443,-33.423481,609.6 18.386181,-33.425529,609.6 18.389095,-33.429024,609.6 18.391718,-33.432266,609.6 18.400866,-33.444244,579.12 18.405407,-33.450855,579.12 18.408142,-33.455292,579.12 18.409443,-33.457699,579.12 18.411123,-33.460865,579.12 18.412302,-33.463379,548.64 18.413815,-33.466778,548.64 18.415009,-33.469711,548.64 18.416492,-33.473328,548.64 18.417515,-33.475807,548.64 18.42267,-33.490192,518.16 18.425446,-33.498825,518.16 18.428522,-33.510315,487.68 18.431248,-33.520916,457.2 18.434946,-33.53223,457.2 18.4359,-33.534649,457.2 18.439375,-33.543503,457.2 18.442738,-33.551743,457.2 18.448566,-33.565521,457.2 18.451824,-33.573288,457.2 18.457375,-33.585995,457.2 18.460979,-33.594421,457.2 18.466112,-33.6064,487.68 18.470135,-33.614719,487.68 18.472277,-33.618576,487.68 18.473679,-33.620911,487.68 18.475697,-33.624298,487.68 18.478331,-33.628784,487.68 18.48517,-33.641098,487.68 18.488085,-33.64563,487.68 18.490276,-33.648518,487.68 18.492451,-33.651264,457.2 18.495428,-33.654831,457.2 18.497543,-33.657455,457.2 18.504339,-33.666641,457.2 18.506069,-33.669373,457.2 18.508015,-33.672955,457.2 18.509441,-33.67543,457.2 18.511347,-33.678864,457.2 18.512691,-33.68129,457.2 18.516655,-33.689621,457.2 18.517685,-33.692135,457.2 18.519026,-33.695663,457.2 18.519922,-33.698044,457.2 18.521233,-33.701771,457.2 18.52194,-33.704041,457.2 18.523235,-33.708847,457.2 18.523693,-33.711315,457.2 18.524351,-33.715118,457.2 18.524799,-33.717865,457.2 18.525248,-33.721756,426.72 18.52541,-33.724304,426.72 18.52536,-33.727936,426.72 18.525181,-33.730263,426.72 18.524799,-33.733932,426.72 18.52438,-33.736408,426.72 18.523521,-33.73999,426.72 18.522892,-33.742271,426.72 18.521772,-33.745834,426.72 18.520775,-33.748604,396.24 18.519419,-33.751785,396.24 18.518372,-33.754238,365.76 18.51684,-33.757507,365.76 18.515663,-33.759933,365.76 18.512993,-33.765175,335.28 18.510017,-33.770763,335.28 18.502714,-33.783463,335.28 18.498734,-33.7901,335.28 18.495258,-33.797241,304.8 18.494167,-33.79995,304.8 18.492908,-33.803394,304.8 18.492064,-33.805573,304.8 18.490494,-33.810379,274.32 18.488388,-33.818432,274.32 18.487415,-33.822762,274.32 18.487019,-33.824982,274.32 18.486843,-33.828907,274.32 18.487076,-33.831482,304.8 18.487816,-33.835098,304.8 18.488503,-33.837566,304.8 18.490505,-33.843338,304.8 18.49156,-33.846222,274.32 18.492966,-33.850086,274.32 18.495255,-33.857582,274.32 18.49617,-33.861355,304.8 18.49666,-33.864075,304.8 18.497257,-33.867496,304.8 18.497501,-33.869843,304.8 18.497772,-33.87355,304.8 18.497829,-33.876202,304.8 18.498001,-33.879879,304.8 18.498001,-33.88221,304.8 18.497887,-33.886024,304.8 18.497726,-33.892227,335.28 18.497257,-33.902969,335.28 18.49666,-33.905502,335.28 18.495197,-33.908882,335.28 18.493938,-33.910793,335.28 18.491447,-33.913742,335.28 18.489418,-33.915771,365.76 18.486614,-33.918427,365.76 18.484955,-33.920055,365.76 18.481865,-33.922848,365.76 18.479748,-33.924664,365.76 18.476143,-33.927223,365.76 18.473511,-33.928574,396.24 18.4697,-33.929489,396.24 18.466728,-33.929443,396.24 18.461348,-33.928162,396.24 18.458433,-33.927109,396.24 18.45451,-33.925644,396.24 18.451595,-33.924526,396.24 18.447557,-33.922852,396.24 18.444756,-33.921432,396.24 18.44128,-33.918503,396.24 18.43998,-33.916519,396.24 18.438198,-33.911957,396.24 18.437634,-33.909534,426.72 18.436775,-33.906509,457.2 18.436146,-33.904366,487.68 18.435116,-33.901154,487.68 18.434715,-33.897385,548.64 18.437412,-33.895798,518.16 18.439543,-33.896667,487.68 18.440151,-33.899666,396.24 18.438814,-33.901611,365.76 18.435402,-33.902458,365.76 18.433882,-33.901062,304.8 18.435459,-33.8992,243.84 18.437119,-33.89999,243.84 18.436832,-33.902039,213.36 18.436012,-33.902618,182.88 18.433971,-33.902832,152.4 18.432537,-33.902618,152.4 18.43119,-33.902573,121.92 18.430126,-33.90239,121.92 18.42865,-33.901947,60.96 18.42802,-33.901482,60.96
        </coordinates>
      </LineString>
    </Placemark>
  </Document>
</kml>