<?xml version="1.0" encoding="UTF-8"?>
<kml xmlns="http://www.opengis.net/kml/2.2">
  <Document>
    <name>-/ZTHOT - Optimised</name>
    <description><![CDATA[Optimised flight path with 1322 points (decimated from 6606 original points). Source format: Standard KML]]></description>
    
    <Style id="flightPath">
      <LineStyle>
        <color>ffff0000</color>
        <width>3</width>
      </LineStyle>
    </Style>
    
    <Placemark>
      <name>Flight Path</name>
      <description><![CDATA[<div style="width:220px; text-align:center;">
<div style="width:210px; text-align:center;">
<div style=" background: #000; color: #fff; font-size: 14px; text-align:left; border: 1px solid #000; padding: 2px 6px; text-shadow: 0 1px 0 #000; box-shadow: 0 1px 3px rgba(0,0,0,0.6); background: -webkit-gradient(linear, left top, left bottom, color-stop(0%,#808080), color-stop(2%,#303030), color-stop(100%,#0c0c0c));"><span style="font-size: 14px; font-weight: bold;"><a href="javascript:void(0);" style="color: #fff; cursor: pointer;text-decoration: none;">-</a></span> / ZTHOT<br/>Cape Town Helicopters</div>

<div style="border-top: 1px solid #005c90; color: #fff; padding-bottom: 5px; box-shadow: 0 0 1px #9BE3F6 inset, 0 1px 0 #9BE3F6 inset, 0 -1px 3px rgba(0,0,0,0.4); background:rgba(43,114,173,1); background: -webkit-gradient(linear, left top, left bottom, color-stop(0%,rgba(92,184,229,1)), color-stop(100%,rgba(43,114,173,1)));">
<a style="text-decoration: none; color: rgb(255, 255, 255); font-size: 12px; width:77px; display: inline-block;" title=" Airport" href="javascript:void(0);/departures"><h3 style="padding: 0px; margin: 10px 0px 0px; font-size: 16px; ">?</h3></a>
<span style="background: url(https://www.flightradar24.com/static/images/userUI_sprite.png?14) no-repeat scroll 0 -464px rgba(0, 0, 0, 0); border: medium none; display: inline-block; height: 16px; width: 45px;"></span>
<a style="text-decoration: none; color: rgb(255, 255, 255); font-size: 12px; width:77px; display: inline-block;" title="Cape Town Airport" href="https://www.flightradar24.com/airport/cpt/arrivals"><h3 style="padding: 0px; margin: 10px 0px 0px; font-size: 16px;">CPT</h3>Cape Town</a>
<div style=" margin-top:10px;">
<div style="display: inline-block; font-size: 12px; padding: 0 5px;">
<div>
<span style="color: #c1eaff;" title="Actual Time of Departure">ATD </span>
<span title="2025-04-15 13:47">13:47</span> <span title="Coordinated Universal Time">UTC</span>
</div>
</div>
<div style="display: inline-block; font-size: 12px; padding: 0 5px;">
<div>
<span style="color: #c1eaff;" title="Estimated Time of Arrival">ETA </span>
<span title="2025-04-15 14:02">14:02</span> <span title="Coordinated Universal Time">UTC</span>
</div>
</div>
</div>
<br style="clear: both;"/>
</div>

<div style="display: block;">
<table style="border-collapse: collapse; width: 100%;">
<tr style="border-right: 1px solid #dadada; ">
<td style="background: none repeat scroll 0 0 #dadada; padding: 0; width: 31px;">
<span style="background: url(https://www.flightradar24.com/static/images/userUI_sprite.png?14) no-repeat scroll -208px -464px rgba(0, 0, 0, 0); height: 26px; margin: 8px 0 0 4px; width: 23px; display: block;"></span>
</td>
<td colspan="2" style="border-bottom: 1px solid #dadada; border-left: 1px solid #dadada; color: #666; line-height: 1.1em; padding: 3px 6px; vertical-align: top; font-size: 14px;">
Aircraft<span style="float: right; font-size: 12px;">(AS50)</span><br>
<span style="color: #333; font-size: 16px; font-weight: bold; line-height: 1.3em;">Airbus Helicopters H125</span>
</td>
</tr>
<tr style="border-right: 1px solid #dadada; ">
<td style="background: none repeat scroll 0 0 #dadada; padding: 0; width: 31px;">
<td colspan="2" style="border-bottom: 1px solid #dadada; border-left: 1px solid #dadada; color: #666; line-height: 1.1em; padding: 3px 6px; vertical-align: top; font-size: 14px;">
Registration<br>
<span style="color: #333; font-size: 16px; font-weight: bold; line-height: 1.3em;"><a href="https://www.flightradar24.com/reg/zt-hot" style="text-decoration: none; color: #333;">ZT-HOT</a></span>
</td>
</tr>
</table>
</div>

</div>
</div>]]></description>
      <styleUrl>#flightPath</styleUrl>
      <LineString>
        <extrude>1</extrude>
        <tessellate>1</tessellate>
        <altitudeMode>absolute</altitudeMode>
        <coordinates>
          18.431135,-33.902023,60.96 18.435974,-33.902554,152.4 18.437576,-33.902134,182.88 18.440037,-33.900875,182.88 18.44141,-33.899712,182.88 18.443243,-33.897171,213.36 18.444139,-33.895111,243.84 18.444027,-33.891586,243.84 18.443073,-33.889252,243.84 18.440437,-33.885139,243.84 18.438421,-33.882523,274.32 18.435339,-33.879318,274.32 18.432598,-33.877132,274.32 18.428936,-33.874992,304.8 18.42581,-33.873734,304.8 18.421726,-33.872711,304.8 18.418354,-33.872223,304.8 18.414001,-33.872105,304.8 18.411013,-33.872223,304.8 18.406334,-33.872852,335.28 18.403502,-33.873367,335.28 18.399298,-33.874374,335.28 18.396214,-33.875244,335.28 18.392403,-33.876434,365.76 18.39044,-33.877121,365.76 18.386013,-33.87886,396.24 18.383434,-33.880051,396.24 18.379726,-33.881927,426.72 18.377829,-33.883072,426.72 18.374802,-33.885178,426.72 18.372974,-33.886585,457.2 18.370094,-33.889023,457.2 18.368282,-33.890682,487.68 18.365879,-33.893101,487.68 18.36422,-33.894917,487.68 18.362022,-33.897629,518.16 18.360956,-33.899094,518.16 18.35877,-33.902344,518.16 18.357754,-33.90395,518.16 18.355751,-33.907162,518.16 18.354549,-33.909161,518.16 18.353004,-33.912003,548.64 18.351988,-33.914017,548.64 18.350475,-33.917084,548.64 18.349514,-33.919125,579.12 18.348906,-33.921936,640.08 18.349354,-33.92308,701.04 18.350601,-33.924477,731.52 18.351746,-33.924896,762 18.353519,-33.924759,792.48 18.354511,-33.924042,792.48 18.355015,-33.922577,822.96 18.354624,-33.92157,822.96 18.353062,-33.921078,822.96 18.351688,-33.921963,822.96 18.350643,-33.924454,792.48 18.35025,-33.926559,792.48 18.349743,-33.929878,792.48 18.349342,-33.932438,762 18.348827,-33.936211,762 18.348484,-33.938492,762 18.346327,-33.950409,731.52 18.345165,-33.955204,701.04 18.34145,-33.971191,731.52 18.340073,-33.980293,731.52 18.339544,-33.988403,792.48 18.339844,-33.992676,792.48 18.340416,-33.996216,792.48 18.340778,-33.998383,792.48 18.341394,-34.00145,792.48 18.341846,-34.003242,792.48 18.342628,-34.006119,762 18.343019,-34.007538,762 18.343748,-34.010193,762 18.344994,-34.014511,731.52 18.346996,-34.022934,731.52 18.347336,-34.024887,701.04 18.347672,-34.027542,701.04 18.347841,-34.029877,731.52 18.347897,-34.033127,731.52 18.347855,-34.035458,731.52 18.347729,-34.038757,701.04 18.347504,-34.041092,701.04 18.347113,-34.044525,701.04 18.346767,-34.046722,701.04 18.345966,-34.0504,701.04 18.34528,-34.052776,701.04 18.343918,-34.056061,701.04 18.342762,-34.058037,701.04 18.340702,-34.061153,701.04 18.339264,-34.062927,701.04 18.33663,-34.065811,701.04 18.334751,-34.067673,701.04 18.332651,-34.070938,762 18.332706,-34.072037,792.48 18.333883,-34.072403,822.96 18.334637,-34.071815,822.96 18.335381,-34.069954,822.96 18.335398,-34.06842,822.96 18.334276,-34.066132,853.44 18.332539,-34.065216,853.44 18.329847,-34.065536,853.44 18.328457,-34.066833,853.44 18.327381,-34.069427,853.44 18.327141,-34.071396,853.44 18.327045,-34.0746,853.44 18.327158,-34.076614,883.92 18.327494,-34.079865,853.44 18.327829,-34.082199,853.44 18.328278,-34.085129,853.44 18.328615,-34.087143,822.96 18.329231,-34.090118,822.96 18.329847,-34.092361,792.48 18.330688,-34.095062,762 18.331375,-34.097092,762 18.332426,-34.100006,731.52 18.333149,-34.101795,731.52 18.334444,-34.104858,701.04 18.335285,-34.106827,701.04 18.337135,-34.110764,670.56 18.338087,-34.112778,670.56 18.342533,-34.122417,640.08 18.343918,-34.126282,609.6 18.34487,-34.129303,609.6 18.34543,-34.131134,609.6 18.346367,-34.13443,609.6 18.346888,-34.136353,609.6 18.348232,-34.141571,579.12 18.349859,-34.146652,579.12 18.351002,-34.149231,579.12 18.35182,-34.151047,579.12 18.353291,-34.15398,548.64 18.354174,-34.155807,548.64 18.355801,-34.158783,548.64 18.356781,-34.160358,518.16 18.358322,-34.162811,518.16 18.359612,-34.164688,518.16 18.361013,-34.166885,518.16 18.362217,-34.168552,518.16 18.364208,-34.171097,518.16 18.367683,-34.175858,518.16 18.373344,-34.18309,518.16 18.374577,-34.184471,518.16 18.376987,-34.187027,487.68 18.378502,-34.188583,518.16 18.380928,-34.19178,518.16 18.381958,-34.193737,518.16 18.383217,-34.196438,518.16 18.383938,-34.198151,518.16 18.385048,-34.200996,548.64 18.3859,-34.203049,548.64 18.387693,-34.207443,548.64 18.390369,-34.214127,518.16 18.393173,-34.222271,548.64 18.395653,-34.228226,548.64 18.396893,-34.230698,548.64 18.397694,-34.232327,548.64 18.399811,-34.236469,548.64 18.402716,-34.242279,579.12 18.407307,-34.25053,579.12 18.410172,-34.255463,579.12 18.415497,-34.263748,579.12 18.423843,-34.275761,579.12 18.429565,-34.283627,579.12 18.433571,-34.288982,579.12 18.440723,-34.297874,548.64 18.445702,-34.303318,548.64 18.448734,-34.306484,548.64 18.452969,-34.310814,548.64 18.460171,-34.317673,579.12 18.463497,-34.320683,579.12 18.469082,-34.325043,579.12 18.470707,-34.326176,579.12 18.473454,-34.328133,548.64 18.47517,-34.329342,548.64 18.485413,-34.336231,548.64 18.492737,-34.340744,548.64 18.502293,-34.346565,548.64 18.504009,-34.34787,579.12 18.505909,-34.34967,579.12 18.506813,-34.351456,579.12 18.506813,-34.354202,579.12 18.506298,-34.356251,579.12 18.50481,-34.3596,579.12 18.50338,-34.361698,579.12 18.500404,-34.364491,579.12 18.497894,-34.366058,579.12 18.493938,-34.367702,579.12 18.490271,-34.368622,548.64 18.485756,-34.369236,548.64 18.482031,-34.369217,548.64 18.47637,-34.368393,548.64 18.472837,-34.36734,548.64 18.468185,-34.364822,548.64 18.466225,-34.362762,548.64 18.462244,-34.359787,579.12 18.457705,-34.35997,548.64 18.454845,-34.362442,518.16 18.454453,-34.365692,548.64 18.457256,-34.367844,548.64 18.45933,-34.367981,548.64 18.46286,-34.368073,548.64 18.465158,-34.368027,548.64 18.469105,-34.367935,518.16 18.471165,-34.367935,518.16 18.477173,-34.368027,548.64 18.485413,-34.368259,518.16 18.492792,-34.368439,548.64 18.494854,-34.368168,548.64 18.498459,-34.367096,548.64 18.500473,-34.366058,548.64 18.503275,-34.363541,518.16 18.504507,-34.36116,518.16 18.504925,-34.35704,518.16 18.504524,-34.354855,518.16 18.502979,-34.350849,518.16 18.501492,-34.348148,518.16 18.498688,-34.344193,518.16 18.496548,-34.341614,518.16 18.49341,-34.337906,518.16 18.491392,-34.335388,518.16 18.488085,-34.328979,518.16 18.487299,-34.325867,518.16 18.48674,-34.32193,548.64 18.486614,-34.319382,548.64 18.48674,-34.315704,548.64 18.486963,-34.313049,548.64 18.487301,-34.309185,579.12 18.487579,-34.30632,579.12 18.488028,-34.302475,579.12 18.48856,-34.297268,548.64 18.490103,-34.284256,548.64 18.490999,-34.274734,548.64 18.491167,-34.264847,548.64 18.491112,-34.262192,548.64 18.490887,-34.257797,548.64 18.490664,-34.255188,548.64 18.490334,-34.250809,548.64 18.489876,-34.245502,579.12 18.488646,-34.237335,579.12 18.488028,-34.23436,579.12 18.486958,-34.230095,579.12 18.486271,-34.227673,579.12 18.484945,-34.223648,579.12 18.483994,-34.220764,579.12 18.482437,-34.216595,579.12 18.481302,-34.213715,579.12 18.479519,-34.209751,579.12 18.478107,-34.207031,579.12 18.475971,-34.20314,548.64 18.47452,-34.200394,548.64 18.472277,-34.19632,548.64 18.467617,-34.187592,579.12 18.464487,-34.184326,640.08 18.462753,-34.183914,670.56 18.460579,-34.184425,640.08 18.460003,-34.185379,640.08 18.46035,-34.186428,640.08 18.460979,-34.186752,640.08 18.461609,-34.185867,640.08 18.461123,-34.184235,609.6 18.459442,-34.181122,548.64 18.458376,-34.178879,548.64 18.457424,-34.175217,518.16 18.457199,-34.172379,518.16 18.457424,-34.16716,518.16 18.457705,-34.164597,518.16 18.458347,-34.16045,518.16 18.458881,-34.158142,518.16 18.45989,-34.15416,518.16 18.460751,-34.151325,518.16 18.462009,-34.147648,518.16 18.462749,-34.145554,518.16 18.464184,-34.141785,518.16 18.464935,-34.139877,518.16 18.467617,-34.133404,518.16 18.469194,-34.129944,518.16 18.473063,-34.121887,518.16 18.476601,-34.113991,518.16 18.47826,-34.109291,518.16 18.478832,-34.106869,518.16 18.479452,-34.102524,518.16 18.479576,-34.100025,518.16 18.479691,-34.096256,518.16 18.479788,-34.093323,487.68 18.4799,-34.089523,487.68 18.480377,-34.082569,487.68 18.480909,-34.079086,487.68 18.481358,-34.076431,487.68 18.482208,-34.072327,487.68 18.482723,-34.069813,457.2 18.484325,-34.060318,457.2 18.48547,-34.050449,457.2 18.48646,-34.035416,487.68 18.486729,-34.026985,518.16 18.486557,-34.01265,487.68 18.486843,-34.003292,457.2 18.487244,-33.999054,426.72 18.487644,-33.995937,426.72 18.488274,-33.991745,396.24 18.488646,-33.989182,396.24 18.490505,-33.975079,396.24 18.491112,-33.965012,396.24 18.490944,-33.960388,396.24 18.490664,-33.957779,396.24 18.48971,-33.953522,365.76 18.488813,-33.950638,365.76 18.487186,-33.946125,335.28 18.486214,-33.943657,335.28 18.484383,-33.939468,335.28 18.483181,-33.936909,304.8 18.480909,-33.932602,304.8 18.479347,-33.930202,304.8 18.476482,-33.926376,304.8 18.47452,-33.924179,304.8 18.470764,-33.920475,304.8 18.468647,-33.918472,274.32 18.465157,-33.915352,274.32 18.462749,-33.913101,274.32 18.456583,-33.906189,274.32 18.454742,-33.903809,274.32 18.451881,-33.899944,274.32 18.449993,-33.897385,274.32 18.443579,-33.890717,213.36 18.441181,-33.889656,213.36 18.436684,-33.88884,182.88 18.434143,-33.889145,152.4 18.431751,-33.890625,121.92 18.431471,-33.891815,121.92 18.431639,-33.893326,91.44 18.43174,-33.894451,91.44 18.431225,-33.89608,60.96 18.430767,-33.896641,30.48 18.429966,-33.897339,30.48 18.428879,-33.898174,0 18.427906,-33.899059,0 18.427334,-33.899853,0 18.427044,-33.90065,0 18.428949,-33.901978,0 18.43317,-33.902554,91.44 18.434498,-33.902618,121.92 18.436516,-33.902481,152.4 18.438086,-33.901932,152.4 18.439922,-33.900642,182.88 18.441336,-33.898911,182.88 18.442289,-33.896118,213.36 18.442268,-33.89394,213.36 18.441296,-33.890354,243.84 18.440439,-33.888474,274.32 18.438091,-33.885048,274.32 18.436375,-33.883141,274.32 18.432884,-33.880299,304.8 18.430767,-33.878998,304.8 18.426931,-33.87735,304.8 18.424015,-33.876621,335.28 18.420238,-33.876156,335.28 18.41729,-33.876068,335.28 18.412743,-33.876297,335.28 18.408909,-33.876808,365.76 18.404961,-33.877506,365.76 18.40238,-33.878082,365.76 18.398266,-33.879181,365.76 18.395933,-33.879913,365.76 18.391842,-33.881287,396.24 18.389544,-33.882156,396.24 18.386135,-33.883606,396.24 18.383715,-33.884811,396.24 18.380241,-33.886772,426.72 18.378054,-33.888245,426.72 18.375475,-33.890121,457.2 18.373547,-33.891613,487.68 18.370934,-33.893784,487.68 18.369141,-33.895386,518.16 18.367252,-33.897243,518.16 18.365833,-33.898819,548.64 18.363535,-33.901337,579.12 18.362022,-33.903168,579.12 18.36006,-33.905731,609.6 18.358715,-33.907516,640.08 18.356752,-33.910446,640.08 18.355637,-33.912281,670.56 18.353748,-33.915493,670.56 18.352833,-33.917263,701.04 18.351372,-33.920059,731.52 18.350363,-33.922119,731.52 18.349915,-33.924774,792.48 18.350544,-33.926014,853.44 18.352268,-33.926834,883.92 18.353519,-33.926712,883.92 18.355122,-33.925781,914.4 18.355911,-33.92482,914.4 18.356323,-33.922989,944.88 18.355801,-33.921753,944.88 18.353233,-33.920567,914.4 18.350887,-33.921127,883.92 18.347969,-33.923359,883.92 18.346384,-33.925598,883.92 18.344994,-33.928852,853.44 18.344135,-33.931786,822.96 18.343048,-33.935558,822.96 18.341961,-33.939281,792.48 18.340385,-33.944595,792.48 18.338299,-33.951897,792.48 18.333778,-33.968472,792.48 18.333035,-33.974335,792.48 18.332233,-33.982948,792.48 18.331978,-33.990509,762 18.33209,-33.993759,762 18.332291,-33.995983,731.52 18.332634,-33.998962,731.52 18.333092,-34.001335,731.52 18.333603,-34.004242,701.04 18.333996,-34.006256,701.04 18.334579,-34.009155,701.04 18.33506,-34.011108,670.56 18.336353,-34.016094,670.56 18.337023,-34.018158,670.56 18.33807,-34.021446,640.08 18.339901,-34.02787,670.56 18.340441,-34.030838,670.56 18.340834,-34.033218,670.56 18.341331,-34.036621,701.04 18.341503,-34.038811,701.04 18.341339,-34.042145,701.04 18.340946,-34.044434,701.04 18.340273,-34.047638,701.04 18.339729,-34.049564,701.04 18.33876,-34.052856,701.04 18.338144,-34.055145,731.52 18.337326,-34.058174,762 18.336575,-34.06041,762 18.335266,-34.063576,792.48 18.334179,-34.066322,822.96 18.334751,-34.068047,883.92 18.335846,-34.068329,914.4 18.337097,-34.067348,914.4 18.337639,-34.066452,914.4 18.339041,-34.065079,914.4 18.340759,-34.064602,914.4 18.343678,-34.064785,914.4 18.345852,-34.065392,914.4 18.349018,-34.066635,914.4 18.351036,-34.067642,883.92 18.354206,-34.069675,883.92 18.356081,-34.071075,883.92 18.358828,-34.073318,883.92 18.360386,-34.074703,853.44 18.362789,-34.076797,853.44 18.364321,-34.078171,822.96 18.366623,-34.080429,792.48 18.368053,-34.081871,792.48 18.37043,-34.084305,762 18.373793,-34.08783,762 18.382587,-34.09742,701.04 18.388309,-34.103752,670.56 18.390833,-34.106049,670.56 18.392626,-34.107559,640.08 18.395348,-34.109711,640.08 18.39695,-34.11092,640.08 18.399857,-34.113007,609.6 18.401871,-34.114273,609.6 18.405132,-34.115948,609.6 18.407192,-34.116879,609.6 18.410454,-34.118088,609.6 18.412514,-34.118786,579.12 18.416176,-34.119904,579.12 18.418411,-34.12056,579.12 18.422054,-34.121475,548.64 18.424416,-34.121952,548.64 18.427849,-34.122463,548.64 18.430407,-34.122757,548.64 18.433914,-34.122978,518.16 18.436375,-34.12307,518.16 18.439922,-34.12307,518.16 18.442289,-34.12294,487.68 18.4461,-34.122574,487.68 18.449135,-34.122044,487.68 18.452827,-34.121292,487.68 18.455462,-34.120605,487.68 18.459206,-34.119392,487.68 18.46146,-34.1185,487.68 18.465157,-34.116833,487.68 18.467674,-34.115437,487.68 18.470535,-34.112873,487.68 18.472277,-34.110947,487.68 18.4748,-34.107742,487.68 18.476372,-34.105473,518.16 18.477974,-34.102352,518.16 18.478775,-34.100166,518.16 18.479576,-34.096115,518.16 18.479805,-34.093464,487.68 18.480034,-34.090065,518.16 18.480148,-34.087597,518.16 18.480293,-34.083801,518.16 18.481022,-34.077713,518.16 18.481863,-34.072906,518.16 18.482208,-34.070793,518.16 18.483376,-34.063889,518.16 18.48444,-34.055428,548.64 18.485126,-34.046307,518.16 18.485674,-34.036148,518.16 18.486235,-34.021545,487.68 18.486614,-34.013905,518.16 18.486963,-34.000031,487.68 18.486214,-33.994865,487.68 18.483982,-33.991558,518.16 18.483181,-33.988953,518.16 18.484497,-33.981537,457.2 18.485561,-33.979111,457.2 18.486958,-33.975594,426.72 18.487644,-33.97308,426.72 18.488503,-33.969028,396.24 18.488981,-33.965149,365.76 18.489075,-33.96093,365.76 18.488813,-33.958237,365.76 18.487701,-33.954365,335.28 18.48674,-33.951553,335.28 18.485338,-33.9478,335.28 18.484552,-33.945511,335.28 18.483238,-33.941654,335.28 18.480606,-33.932812,335.28 18.47822,-33.927979,335.28 18.476772,-33.925922,335.28 18.473854,-33.922337,335.28 18.471998,-33.92038,304.8 18.469082,-33.917496,304.8 18.466587,-33.915352,304.8 18.463097,-33.912189,304.8 18.460842,-33.910034,304.8 18.453541,-33.902969,304.8 18.450623,-33.899853,304.8 18.447557,-33.896255,304.8 18.445765,-33.893967,304.8 18.441786,-33.890213,243.84 18.43935,-33.889004,243.84 18.435562,-33.888474,213.36 18.433657,-33.889206,182.88 18.432087,-33.891174,121.92 18.431683,-33.892544,121.92 18.430882,-33.894451,91.44 18.430195,-33.89566,60.96 18.429279,-33.897152,30.48 18.428822,-33.897804,30.48 18.427996,-33.898865,0 18.427435,-33.899689,0 18.426931,-33.900696,0 18.42717,-33.900902,0 18.431864,-33.901566,91.44 18.433571,-33.901714,121.92 18.435516,-33.901527,152.4 18.437077,-33.900925,182.88 18.439207,-33.899277,182.88 18.440266,-33.897709,213.36 18.44101,-33.894547,243.84 18.440952,-33.892078,243.84 18.440048,-33.888474,243.84 18.439064,-33.886074,243.84 18.436964,-33.882477,274.32 18.435516,-33.880531,274.32 18.432369,-33.877319,304.8 18.430294,-33.875839,304.8 18.425922,-33.873688,304.8 18.423214,-33.872757,335.28 18.418579,-33.871765,335.28 18.415775,-33.871548,365.76 18.411484,-33.871456,365.76 18.409252,-33.871548,396.24 18.404274,-33.8722,396.24 18.40147,-33.872807,396.24 18.397522,-33.87397,426.72 18.395061,-33.874851,426.72 18.391562,-33.87616,457.2 18.389282,-33.877132,487.68 18.385906,-33.878811,518.16 18.383883,-33.879913,518.16 18.380756,-33.881744,518.16 18.378525,-33.883186,548.64 18.375435,-33.885326,548.64 18.373718,-33.886631,579.12 18.370857,-33.889004,579.12 18.369083,-33.890587,579.12 18.366566,-33.893101,609.6 18.365078,-33.894638,609.6 18.362919,-33.897125,609.6 18.361759,-33.898689,640.08 18.359413,-33.902084,640.08 18.358267,-33.903854,640.08 18.356472,-33.90683,640.08 18.355463,-33.908569,640.08 18.353748,-33.911629,670.56 18.352718,-33.913723,670.56 18.351231,-33.916752,670.56 18.350086,-33.919266,670.56 18.348827,-33.922245,670.56 18.346825,-33.92662,670.56 18.338985,-33.943237,731.52 18.337326,-33.947289,731.52 18.337751,-33.95105,762 18.339321,-33.952835,762 18.342852,-33.954117,762 18.345095,-33.953888,762 18.348427,-33.952271,762 18.350029,-33.950687,731.52 18.351316,-33.947433,762 18.351631,-33.945286,762 18.352032,-33.941887,731.52 18.352381,-33.939606,731.52 18.353054,-33.935989,731.52 18.353577,-33.933834,731.52 18.355064,-33.929226,701.04 18.356024,-33.926926,701.04 18.357639,-33.923733,701.04 18.359013,-33.921265,670.56 18.360846,-33.918228,670.56 18.362389,-33.916004,670.56 18.36462,-33.913212,640.08 18.366282,-33.911133,670.56 18.368511,-33.908325,640.08 18.369925,-33.906464,640.08 18.377323,-33.896545,609.6 18.38213,-33.890587,609.6 18.384705,-33.888168,609.6 18.386629,-33.886642,579.12 18.389656,-33.884537,579.12 18.392122,-33.88298,579.12 18.39592,-33.881046,548.64 18.398438,-33.88002,548.64 18.402443,-33.878811,548.64 18.404675,-33.878437,548.64 18.40868,-33.878113,518.16 18.411255,-33.878067,518.16 18.415146,-33.8783,518.16 18.41795,-33.87867,518.16 18.421211,-33.879368,487.68 18.4235,-33.880066,487.68 18.426371,-33.881332,457.2 18.427963,-33.882442,426.72 18.42951,-33.884308,365.76 18.430195,-33.885559,335.28 18.430996,-33.887886,304.8 18.431358,-33.889206,274.32 18.431864,-33.891083,243.84 18.432367,-33.89241,182.88 18.433041,-33.894196,152.4 18.433208,-33.895294,121.92 18.432312,-33.896732,91.44 18.428782,-33.89859,30.48 18.427677,-33.899433,0 18.427219,-33.900085,0 18.426975,-33.900959,0 18.428053,-33.901154,0 18.428837,-33.901337,0 18.431396,-33.901714,60.96 18.435917,-33.902084,152.4 18.437357,-33.901978,152.4 18.439878,-33.901062,182.88 18.441467,-33.900085,213.36 18.443747,-33.898087,213.36 18.444901,-33.896591,243.84 18.445988,-33.893894,274.32 18.4461,-33.891861,274.32 18.44599,-33.888657,304.8 18.445597,-33.886551,335.28 18.443699,-33.883465,335.28 18.442064,-33.881882,365.76 18.438663,-33.879787,365.76 18.436146,-33.878624,396.24 18.432598,-33.877365,426.72 18.430023,-33.876667,457.2 18.426189,-33.875877,457.2 18.423557,-33.875458,487.68 18.419666,-33.875038,487.68 18.417091,-33.874851,518.16 18.412971,-33.874714,548.64 18.409939,-33.87476,548.64 18.406048,-33.874947,548.64 18.403221,-33.875153,579.12 18.399521,-33.87561,579.12 18.396662,-33.876068,579.12 18.392906,-33.876892,579.12 18.390217,-33.87767,609.6 18.386742,-33.878906,609.6 18.384108,-33.879959,609.6 18.380463,-33.881653,609.6 18.378181,-33.882812,609.6 18.374577,-33.884769,609.6 18.372345,-33.886211,609.6 18.369308,-33.888428,609.6 18.367195,-33.890217,609.6 18.363983,-33.893188,609.6 18.362246,-33.894974,609.6 18.359528,-33.898083,609.6 18.358097,-33.899853,609.6 18.355576,-33.903168,609.6 18.354063,-33.905319,609.6 18.351988,-33.908295,640.08 18.35043,-33.910511,640.08 18.348457,-33.913559,640.08 18.347168,-33.915771,670.56 18.345375,-33.918961,670.56 18.344307,-33.921078,670.56 18.342819,-33.924198,701.04 18.341846,-33.926338,701.04 18.340015,-33.93095,731.52 18.338013,-33.936348,731.52 18.336237,-33.941574,792.48 18.333206,-33.948917,883.92 18.329344,-33.957962,944.88 18.325653,-33.96619,975.36 18.323233,-33.970551,1036.32 18.322105,-33.972565,1036.32 18.320332,-33.975639,1036.32 18.319141,-33.977737,1066.8 18.314096,-33.985931,1097.28 18.312696,-33.9879,1097.28 18.310146,-33.99007,1097.28 18.308315,-33.991375,1097.28 18.306141,-33.994354,1127.76 18.306643,-33.996185,1127.76 18.309052,-33.997925,1097.28 18.311119,-33.998402,1097.28 18.31461,-33.998169,1066.8 18.316956,-33.997421,1036.32 18.320103,-33.995564,1036.32 18.321608,-33.99408,1036.32 18.323738,-33.991333,1036.32 18.325081,-33.989464,1036.32 18.327269,-33.986389,1036.32 18.328503,-33.984741,1036.32 18.330517,-33.981968,1036.32 18.334837,-33.975311,1036.32 18.33663,-33.972061,1066.8 18.337694,-33.970047,1066.8 18.339329,-33.966747,1036.32 18.340244,-33.964699,1036.32 18.341675,-33.961441,1005.84 18.342516,-33.959244,975.36 18.34362,-33.955807,975.36 18.344141,-33.953613,975.36 18.344822,-33.950687,975.36 18.345337,-33.948452,944.88 18.346272,-33.94519,914.4 18.347504,-33.940933,914.4 18.348738,-33.937637,883.92 18.349686,-33.935463,853.44 18.351173,-33.932392,853.44 18.352381,-33.930176,822.96 18.354263,-33.927364,822.96 18.355751,-33.92527,792.48 18.358379,-33.922073,762 18.360386,-33.919777,731.52 18.362864,-33.916992,701.04 18.364769,-33.914886,701.04 18.367195,-33.912373,670.56 18.368912,-33.910606,670.56 18.374466,-33.90509,609.6 18.376579,-33.903252,579.12 18.379269,-33.901016,579.12 18.381271,-33.899292,579.12 18.384018,-33.89706,579.12 18.386124,-33.895432,579.12 18.392851,-33.890442,548.64 18.395037,-33.888931,548.64 18.398344,-33.886826,548.64 18.40004,-33.885746,548.64 18.403389,-33.883942,548.64 18.405647,-33.882999,548.64 18.409386,-33.881927,518.16 18.411541,-33.881512,487.68 18.414803,-33.881138,457.2 18.416748,-33.881046,457.2 18.420124,-33.881184,426.72 18.422054,-33.88147,396.24 18.424931,-33.882069,365.76 18.426876,-33.882908,335.28 18.428892,-33.884399,304.8 18.429846,-33.885452,274.32 18.43111,-33.887329,243.84 18.431625,-33.888351,243.84 18.432369,-33.889797,213.36 18.43276,-33.890808,182.88 18.433228,-33.892311,152.4 18.433546,-33.89328,121.92 18.433882,-33.894562,91.44 18.433342,-33.895245,91.44 18.43174,-33.895336,60.96 18.430014,-33.89534,30.48 18.428444,-33.895706,30.48 18.427849,-33.896545,30.48 18.427563,-33.897526,0 18.427435,-33.898087,0 18.427322,-33.899048,0 18.427099,-33.900055,0 18.427715,-33.901108,0 18.431339,-33.90176,60.96 18.433376,-33.901978,91.44 18.434555,-33.902023,121.92 18.436775,-33.901852,152.4 18.43832,-33.901436,182.88 18.440666,-33.900223,213.36 18.442211,-33.899105,213.36 18.444328,-33.896919,243.84 18.445316,-33.895294,243.84 18.446274,-33.892216,274.32 18.446331,-33.889935,274.32 18.445244,-33.886677,304.8 18.444027,-33.884811,335.28 18.441296,-33.882301,335.28 18.439178,-33.880859,335.28 18.435745,-33.878437,365.76 18.433685,-33.876995,365.76 18.430126,-33.874512,396.24 18.42762,-33.873131,396.24 18.423901,-33.872059,426.72 18.421213,-33.871719,457.2 18.416977,-33.871593,487.68 18.414745,-33.871593,487.68 18.410843,-33.871811,518.16 18.408321,-33.87204,518.16 18.404903,-33.872478,548.64 18.4021,-33.873039,548.64 18.398495,-33.873829,548.64 18.395597,-33.874603,548.64 18.391628,-33.875877,548.64 18.389544,-33.876663,548.64 18.385677,-33.878532,548.64 18.383657,-33.879593,579.12 18.380127,-33.881516,579.12 18.378054,-33.882797,579.12 18.374977,-33.884956,579.12 18.372952,-33.886597,579.12 18.370285,-33.888958,579.12 18.367851,-33.891357,579.12 18.365498,-33.893921,609.6 18.364048,-33.89566,609.6 18.36191,-33.898453,579.12 18.360443,-33.900455,579.12 18.358154,-33.903576,579.12 18.356724,-33.905437,579.12 18.352716,-33.911362,579.12 18.351574,-33.913212,609.6 18.349747,-33.916489,579.12 18.348625,-33.918686,579.12 18.347111,-33.921871,579.12 18.346046,-33.923996,579.12 18.343277,-33.929691,609.6 18.343019,-33.93251,609.6 18.344028,-33.934845,640.08 18.345623,-33.935978,640.08 18.348345,-33.936539,640.08 18.350363,-33.93631,640.08 18.353062,-33.935371,640.08 18.354567,-33.93457,640.08 18.356895,-33.932812,609.6 18.358212,-33.931648,609.6 18.359667,-33.929764,609.6 18.360043,-33.928528,609.6 18.358547,-33.926834,609.6 18.356642,-33.926926,579.12 18.354034,-33.928852,548.64 18.352718,-33.930622,548.64 18.350887,-33.933601,548.64 18.349171,-33.936676,548.64 18.347683,-33.939327,548.64 18.34672,-33.941116,548.64 18.341446,-33.949711,579.12 18.334499,-33.962082,609.6 18.327158,-33.975403,640.08 18.324018,-33.980209,701.04 18.318974,-33.98822,822.96 18.3183,-33.990005,822.96 18.317642,-33.992676,853.44 18.317291,-33.994583,853.44 18.316898,-33.997471,883.92 18.316788,-33.999207,883.92 18.31673,-34.001953,914.4 18.3169,-34.003464,944.88 18.317413,-34.005619,1005.84 18.317928,-34.007015,1036.32 18.318693,-34.009186,1036.32 18.319244,-34.010551,1066.8 18.320375,-34.012985,1036.32 18.321247,-34.014744,1036.32 18.322393,-34.017197,1036.32 18.323193,-34.018841,1036.32 18.32654,-34.025757,1036.32 18.328558,-34.030746,1005.84 18.329399,-34.03331,1005.84 18.329887,-34.035271,975.36 18.330576,-34.038071,975.36 18.331024,-34.039856,975.36 18.331776,-34.042862,1005.84 18.333492,-34.049145,1036.32 18.334866,-34.053101,1066.8 18.335552,-34.054916,1066.8 18.336798,-34.057663,1066.8 18.338013,-34.059525,1066.8 18.339769,-34.061874,1097.28 18.341114,-34.063385,1097.28 18.343506,-34.06567,1097.28 18.344814,-34.066864,1097.28 18.347225,-34.068928,1127.76 18.349113,-34.07056,1127.76 18.351688,-34.072792,1127.76 18.357313,-34.077576,1097.28 18.364882,-34.084396,1066.8 18.366451,-34.08606,1066.8 18.368692,-34.088562,1036.32 18.370205,-34.090302,1005.84 18.37429,-34.094765,975.36 18.37904,-34.099655,914.4 18.381584,-34.102066,883.92 18.385788,-34.105957,822.96 18.388481,-34.108173,822.96 18.390198,-34.109478,792.48 18.392963,-34.11145,762 18.394775,-34.11264,762 18.397503,-34.114334,731.52 18.399467,-34.115482,731.52 18.40238,-34.117035,701.04 18.404446,-34.118088,670.56 18.407593,-34.119717,640.08 18.409767,-34.120789,640.08 18.41486,-34.123211,609.6 18.421612,-34.126656,548.64 18.432083,-34.132332,518.16 18.436909,-34.134613,487.68 18.440323,-34.135639,487.68 18.44257,-34.135941,487.68 18.446102,-34.135777,487.68 18.448679,-34.135162,487.68 18.452379,-34.133514,487.68 18.454514,-34.13224,487.68 18.457661,-34.130146,487.68 18.459721,-34.128654,487.68 18.462582,-34.126282,487.68 18.464542,-34.124496,487.68 18.467445,-34.121906,487.68 18.469505,-34.120277,487.68 18.474369,-34.115948,487.68 18.476143,-34.113712,487.68 18.477995,-34.11026,487.68 18.479059,-34.107468,487.68 18.480181,-34.103531,487.68 18.480742,-34.101013,487.68 18.48135,-34.096954,487.68 18.481636,-34.094532,457.2 18.481863,-34.090164,457.2 18.481806,-34.087097,457.2 18.481579,-34.082291,457.2 18.481522,-34.079498,426.72 18.482094,-34.068417,426.72 18.482311,-34.06279,426.72 18.483152,-34.047913,426.72 18.483601,-34.038391,426.72 18.484161,-34.0242,396.24 18.484497,-34.014771,396.24 18.485012,-33.999287,365.76 18.485561,-33.988907,335.28 18.486347,-33.97261,274.32 18.486235,-33.962036,274.32 18.485954,-33.957687,243.84 18.485451,-33.954391,243.84 18.484497,-33.950226,243.84 18.48381,-33.947613,243.84 18.482534,-33.943176,243.84 18.481638,-33.940338,243.84 18.480206,-33.936115,243.84 18.479397,-33.933746,213.36 18.477602,-33.929718,213.36 18.475685,-33.927036,213.36 18.472334,-33.923492,213.36 18.47002,-33.921406,213.36 18.46693,-33.918797,213.36 18.46447,-33.916798,213.36 18.461123,-33.914337,213.36 18.458769,-33.912689,213.36 18.452568,-33.90744,213.36 18.450394,-33.905064,213.36 18.447418,-33.901573,182.88 18.445129,-33.898827,152.4 18.441729,-33.894791,121.92 18.438492,-33.891659,121.92 18.433628,-33.889843,152.4 18.431751,-33.890076,121.92 18.429117,-33.892273,91.44 18.428724,-33.893555,91.44 18.428444,-33.895248,60.96 18.428276,-33.895935,30.48 18.427883,-33.897034,30.48 18.427715,-33.897537,30.48 18.427155,-33.899597,0 18.427048,-33.900177,0 18.426931,-33.900959,0 18.429398,-33.901703,30.48 18.431976,-33.902206,91.44 18.433266,-33.90239,121.92 18.435675,-33.902298,152.4 18.437347,-33.901806,182.88 18.439823,-33.900467,213.36 18.441336,-33.899139,213.36 18.443184,-33.896687,243.84 18.443914,-33.894608,274.32 18.444042,-33.891239,274.32 18.44347,-33.889053,304.8 18.441616,-33.885544,335.28 18.43998,-33.883511,335.28 18.43689,-33.880859,365.76 18.434891,-33.879547,365.76 18.431339,-33.877739,396.24 18.428593,-33.876621,426.72 18.425081,-33.875427,457.2 18.422279,-33.874741,487.68 18.418354,-33.874146,487.68 18.415833,-33.873962,518.16 18.411964,-33.873779,518.16 18.409105,-33.873779,548.64 18.405014,-33.873962,579.12 18.402325,-33.874191,579.12 18.398266,-33.874805,609.6 18.395519,-33.875366,609.6 18.391914,-33.876297,640.08 18.389626,-33.876995,640.08 18.385956,-33.878311,670.56 18.38356,-33.879276,670.56 18.379959,-33.88092,670.56 18.377724,-33.882069,701.04 18.374186,-33.884033,701.04 18.371494,-33.885681,701.04 18.368225,-33.887794,701.04 18.365936,-33.889378,670.56 18.36256,-33.891846,670.56 18.360397,-33.893555,670.56 18.35737,-33.896072,701.04 18.355122,-33.897991,701.04 18.352375,-33.900688,701.04 18.350643,-33.902573,731.52 18.348345,-33.905365,731.52 18.346825,-33.907394,731.52 18.344936,-33.910233,762 18.343748,-33.91214,762 18.342178,-33.914841,762 18.340778,-33.917633,792.48 18.339558,-33.921127,792.48 18.339096,-33.923355,792.48 18.338367,-33.926514,792.48 18.336353,-33.929317,792.48 18.333435,-33.931133,822.96 18.330116,-33.933044,853.44 18.328171,-33.936626,853.44 18.328558,-33.939011,853.44 18.330345,-33.941841,853.44 18.332748,-33.943844,853.44 18.336349,-33.945648,853.44 18.339214,-33.94659,822.96 18.343048,-33.947102,822.96 18.345909,-33.946777,822.96 18.349686,-33.945007,792.48 18.351484,-33.943405,822.96 18.353806,-33.940258,822.96 18.354893,-33.938442,822.96 18.356724,-33.93523,792.48 18.357925,-33.933136,792.48 18.359699,-33.92997,762 18.362103,-33.925922,762 18.366339,-33.919739,731.52 18.367907,-33.917725,701.04 18.370342,-33.914886,670.56 18.37228,-33.912735,670.56 18.375027,-33.909943,640.08 18.376923,-33.907997,609.6 18.38007,-33.904881,579.12 18.381901,-33.903156,548.64 18.385172,-33.900238,548.64 18.387165,-33.898548,548.64 18.390484,-33.896221,518.16 18.393059,-33.894592,518.16 18.396721,-33.892498,518.16 18.399185,-33.891174,487.68 18.403072,-33.889378,487.68 18.40559,-33.888351,457.2 18.409023,-33.887096,426.72 18.411461,-33.886322,426.72 18.415216,-33.885361,396.24 18.417778,-33.884815,365.76 18.421494,-33.884216,335.28 18.423729,-33.884117,335.28 18.426987,-33.884766,304.8 18.428936,-33.885746,274.32 18.430742,-33.887512,213.36 18.431751,-33.88884,213.36 18.433056,-33.890865,152.4 18.433685,-33.892124,121.92 18.433657,-33.893875,91.44 18.432598,-33.894917,91.44 18.43091,-33.895889,60.96 18.428078,-33.897991,30.48 18.427334,-33.899479,0 18.427219,-33.899899,0 18.426931,-33.90065,0 18.427155,-33.901062,0 18.432598,-33.902039,91.44 18.434143,-33.902134,91.44 18.436852,-33.902115,152.4 18.438549,-33.90176,152.4 18.441393,-33.900513,182.88 18.442841,-33.899666,213.36 18.445148,-33.897675,243.84 18.44656,-33.895893,243.84 18.44795,-33.892502,274.32 18.448162,-33.890121,304.8 18.447475,-33.886772,304.8 18.446606,-33.884583,335.28 18.444443,-33.881046,365.76 18.442726,-33.879322,365.76 18.439318,-33.877121,396.24 18.43646,-33.875656,396.24 18.432425,-33.874191,426.72 18.429398,-33.873459,426.72 18.424988,-33.872757,426.72 18.421886,-33.872406,457.2 18.416634,-33.872105,487.68 18.414402,-33.872105,487.68 18.410227,-33.872269,487.68 18.407478,-33.872478,518.16 18.40353,-33.87299,518.16 18.400642,-33.873505,548.64 18.396835,-33.87434,548.64 18.394661,-33.874992,548.64 18.390945,-33.876114,579.12 18.388535,-33.876938,579.12 18.385105,-33.878204,609.6 18.382816,-33.87923,609.6 18.378811,-33.881138,640.08 18.376484,-33.882385,640.08 18.373089,-33.884441,670.56 18.370934,-33.885818,670.56 18.367458,-33.888336,670.56 18.36533,-33.89003,670.56 18.362446,-33.892635,670.56 18.360672,-33.89436,670.56 18.358212,-33.897106,701.04 18.356417,-33.899277,701.04 18.354149,-33.90218,701.04 18.352716,-33.904083,701.04 18.350868,-33.906738,701.04 18.349354,-33.909119,701.04 18.347569,-33.912189,731.52 18.346367,-33.914375,701.04 18.344822,-33.917309,731.52 18.343735,-33.919544,701.04 18.342123,-33.923035,701.04 18.339153,-33.927979,701.04 18.336685,-33.931046,701.04 18.335209,-33.932716,701.04 18.332634,-33.935093,701.04 18.330856,-33.93631,731.52 18.330345,-33.940678,762 18.332291,-33.94212,762 18.335566,-33.943451,762 18.337612,-33.944031,762 18.342068,-33.944504,762 18.34465,-33.944122,762 18.348345,-33.942535,762 18.350258,-33.941097,762 18.352318,-33.938492,731.52 18.353615,-33.936447,731.52 18.355465,-33.93351,701.04 18.35681,-33.931503,701.04 18.358828,-33.928619,701.04 18.361855,-33.924591,670.56 18.364449,-33.921543,640.08 18.366394,-33.919403,640.08 18.369028,-33.916626,609.6 18.370878,-33.914795,609.6 18.375492,-33.909908,579.12 18.381977,-33.90303,518.16 18.387806,-33.897949,518.16 18.389912,-33.896408,518.16 18.393299,-33.894287,518.16 18.395372,-33.893234,518.16 18.398838,-33.891705,487.68 18.401299,-33.890774,487.68 18.404791,-33.889709,487.68 18.406864,-33.889114,518.16 18.410168,-33.888214,487.68 18.412413,-33.887604,487.68 18.415546,-33.886864,487.68 18.41795,-33.886353,457.2 18.421154,-33.885792,457.2 18.423157,-33.8857,426.72 18.425585,-33.886093,396.24 18.426819,-33.886631,396.24 18.428444,-33.887787,335.28 18.429279,-33.88868,304.8 18.430252,-33.89003,274.32 18.430882,-33.891052,243.84 18.431511,-33.892311,213.36 18.431911,-33.893101,182.88 18.432541,-33.894314,152.4 18.432713,-33.895245,121.92 18.43119,-33.895935,91.44 18.429852,-33.896175,60.96 18.427849,-33.897243,60.96 18.427435,-33.897995,30.48 18.427219,-33.898922,30.48 18.427155,-33.899597,0 18.427048,-33.900318,0 18.426991,-33.900959,0 18.430939,-33.902134,60.96 18.433096,-33.902481,91.44 18.435226,-33.902573,121.92 18.436964,-33.902344,152.4 18.43943,-33.901566,182.88 18.441296,-33.900364,213.36 18.443411,-33.897903,243.84 18.444386,-33.896034,243.84 18.445129,-33.892914,274.32 18.445036,-33.890762,304.8 18.443928,-33.887283,335.28 18.442738,-33.885315,335.28 18.440327,-33.882477,365.76 18.438663,-33.881092,396.24 18.435003,-33.878952,396.24 18.432537,-33.877808,426.72 18.428249,-33.87611,426.72 18.425674,-33.875271,457.2 18.421606,-33.874237,457.2 18.41914,-33.873688,487.68 18.41432,-33.872864,518.16 18.411348,-33.872498,518.16 18.407421,-33.8722,548.64 18.404453,-33.872086,548.64 18.400555,-33.872059,579.12 18.397728,-33.872269,579.12 18.393688,-33.872944,579.12 18.391285,-33.87355,579.12 18.387358,-33.874832,609.6 18.385105,-33.875736,609.6 18.381672,-33.877319,609.6 18.379383,-33.878483,609.6 18.376236,-33.880344,640.08 18.373793,-33.881882,640.08 18.370399,-33.884304,670.56 18.368748,-33.88559,670.56 18.365593,-33.88826,701.04 18.363815,-33.889847,701.04 18.361181,-33.892365,701.04 18.359388,-33.894058,731.52 18.35692,-33.896667,731.52 18.355122,-33.898548,731.52 18.348961,-33.905045,731.52 18.345909,-33.908695,731.52 18.343805,-33.911682,731.52 18.342705,-33.91354,731.52 18.340473,-33.917496,731.52 18.339432,-33.919601,731.52 18.338255,-33.922714,731.52 18.337416,-33.925049,731.52 18.334007,-33.931648,701.04 18.331585,-33.936996,701.04 18.329258,-33.939655,731.52 18.327438,-33.940842,731.52 18.322334,-33.944218,762 18.320766,-33.947525,762 18.322277,-33.950314,731.52 18.323765,-33.95134,731.52 18.327484,-33.952827,701.04 18.330059,-33.95348,670.56 18.333492,-33.954037,670.56 18.336517,-33.954117,640.08 18.340553,-33.953796,640.08 18.343563,-33.953106,609.6 18.346996,-33.951477,609.6 18.349411,-33.949677,609.6 18.351877,-33.947067,609.6 18.353165,-33.945053,609.6 18.354679,-33.942032,609.6 18.355688,-33.939926,609.6 18.35709,-33.936951,609.6 18.358154,-33.934765,609.6 18.361187,-33.928806,609.6 18.364321,-33.923401,579.12 18.366507,-33.920471,548.64 18.367996,-33.918564,548.64 18.37015,-33.915894,548.64 18.371775,-33.914017,548.64 18.374353,-33.911041,548.64 18.376036,-33.909302,548.64 18.378754,-33.906647,518.16 18.380699,-33.904972,518.16 18.38377,-33.902481,518.16 18.386021,-33.900829,487.68 18.389208,-33.898499,487.68 18.391394,-33.897034,487.68 18.394718,-33.894917,487.68 18.397064,-33.89352,487.68 18.400362,-33.891678,487.68 18.402615,-33.8904,487.68 18.40563,-33.888794,487.68 18.407764,-33.887703,457.2 18.411123,-33.886139,457.2 18.413311,-33.885269,457.2 18.41692,-33.884117,457.2 18.419083,-33.88353,457.2 18.422167,-33.883026,426.72 18.424128,-33.882935,426.72 18.426706,-33.883347,396.24 18.428192,-33.884163,365.76 18.429565,-33.8857,304.8 18.430252,-33.886955,274.32 18.43111,-33.888771,243.84 18.431639,-33.890076,213.36 18.432257,-33.891632,152.4 18.432484,-33.892731,121.92 18.431751,-33.894104,121.92 18.429108,-33.896267,60.96 18.427996,-33.897491,30.48 18.427677,-33.898129,30.48 18.427492,-33.899231,0 18.427448,-33.899807,0 18.427433,-33.900562,0
        </coordinates>
      </LineString>
    </Placemark>
  </Document>
</kml>