<?xml version="1.0" encoding="UTF-8"?>
<kml xmlns="http://www.opengis.net/kml/2.2">
  <Document>
    <name>-/ZTRNW - Optimised</name>
    <description><![CDATA[Optimised flight path with 666 points (decimated from 3326 original points). Source format: Standard KML]]></description>
    
    <Style id="flightPath">
      <LineStyle>
        <color>ffff0000</color>
        <width>3</width>
      </LineStyle>
    </Style>
    
    <Placemark>
      <name>Flight Path</name>
      <description><![CDATA[<div style="width:220px; text-align:center;">
<div style="width:210px; text-align:center;">
<div style=" background: #000; color: #fff; font-size: 14px; text-align:left; border: 1px solid #000; padding: 2px 6px; text-shadow: 0 1px 0 #000; box-shadow: 0 1px 3px rgba(0,0,0,0.6); background: -webkit-gradient(linear, left top, left bottom, color-stop(0%,#808080), color-stop(2%,#303030), color-stop(100%,#0c0c0c));"><span style="font-size: 14px; font-weight: bold;"><a href="javascript:void(0);" style="color: #fff; cursor: pointer;text-decoration: none;">-</a></span> / ZTRNW<br/>Private owner</div>

<div style="border-top: 1px solid #005c90; color: #fff; padding-bottom: 5px; box-shadow: 0 0 1px #9BE3F6 inset, 0 1px 0 #9BE3F6 inset, 0 -1px 3px rgba(0,0,0,0.4); background:rgba(43,114,173,1); background: -webkit-gradient(linear, left top, left bottom, color-stop(0%,rgba(92,184,229,1)), color-stop(100%,rgba(43,114,173,1)));">
<a style="text-decoration: none; color: rgb(255, 255, 255); font-size: 12px; width:77px; display: inline-block;" title="Cape Town Airport" href="https://www.flightradar24.com/airport/cpt/departures"><h3 style="padding: 0px; margin: 10px 0px 0px; font-size: 16px; ">CPT</h3>Cape Town</a>
<span style="background: url(https://www.flightradar24.com/static/images/userUI_sprite.png?14) no-repeat scroll 0 -464px rgba(0, 0, 0, 0); border: medium none; display: inline-block; height: 16px; width: 45px;"></span>
<a style="text-decoration: none; color: rgb(255, 255, 255); font-size: 12px; width:77px; display: inline-block;" title="Cape Town Airport" href="https://www.flightradar24.com/airport/cpt/arrivals"><h3 style="padding: 0px; margin: 10px 0px 0px; font-size: 16px;">CPT</h3>Cape Town</a>
<div style=" margin-top:10px;">
<div style="display: inline-block; font-size: 12px; padding: 0 5px;">
<div>
<span style="color: #c1eaff;" title="Actual Time of Departure">ATD </span>
<span title="2025-11-08 06:32">06:32</span> <span title="Coordinated Universal Time">UTC</span>
</div>
</div>
<div style="display: inline-block; font-size: 12px; padding: 0 5px;">
<div>
<span style="color: #c1eaff;" title="Estimated Time of Arrival">ETA </span>
<span title="2025-11-08 08:21">08:21</span> <span title="Coordinated Universal Time">UTC</span>
</div>
</div>
</div>
<br style="clear: both;"/>
</div>

<div style="display: block;">
<table style="border-collapse: collapse; width: 100%;">
<tr style="border-right: 1px solid #dadada; ">
<td style="background: none repeat scroll 0 0 #dadada; padding: 0; width: 31px;">
<span style="background: url(https://www.flightradar24.com/static/images/userUI_sprite.png?14) no-repeat scroll -208px -464px rgba(0, 0, 0, 0); height: 26px; margin: 8px 0 0 4px; width: 23px; display: block;"></span>
</td>
<td colspan="2" style="border-bottom: 1px solid #dadada; border-left: 1px solid #dadada; color: #666; line-height: 1.1em; padding: 3px 6px; vertical-align: top; font-size: 14px;">
Aircraft<span style="float: right; font-size: 12px;">(EC20)</span><br>
<span style="color: #333; font-size: 16px; font-weight: bold; line-height: 1.3em;">Airbus Helicopters H120</span>
</td>
</tr>
<tr style="border-right: 1px solid #dadada; ">
<td style="background: none repeat scroll 0 0 #dadada; padding: 0; width: 31px;">
<td colspan="2" style="border-bottom: 1px solid #dadada; border-left: 1px solid #dadada; color: #666; line-height: 1.1em; padding: 3px 6px; vertical-align: top; font-size: 14px;">
Registration<br>
<span style="color: #333; font-size: 16px; font-weight: bold; line-height: 1.3em;"><a href="https://www.flightradar24.com/reg/zt-rnw" style="text-decoration: none; color: #333;">ZT-RNW</a></span>
</td>
</tr>
</table>
</div>

</div>
</div>]]></description>
      <styleUrl>#flightPath</styleUrl>
      <LineString>
        <extrude>1</extrude>
        <tessellate>1</tessellate>
        <altitudeMode>absolute</altitudeMode>
        <coordinates>
          18.595219,-33.977177,76.2 18.595873,-33.979065,91.44 18.595562,-33.980247,121.92 18.594303,-33.981552,152.4 18.592472,-33.98225,175.26 18.589596,-33.982132,205.74 18.587837,-33.981552,220.98 18.584919,-33.980339,251.46 18.582981,-33.979477,259.08 18.580011,-33.978149,289.56 18.578053,-33.977177,304.8 18.575134,-33.975769,320.04 18.573172,-33.974854,335.28 18.569809,-33.973389,342.9 18.567343,-33.97229,342.9 18.563862,-33.970844,335.28 18.561344,-33.969727,342.9 18.547333,-33.963501,335.28 18.5396,-33.959949,335.28 18.529284,-33.955307,350.52 18.52693,-33.954071,342.9 18.523005,-33.95192,335.28 18.520603,-33.950546,327.66 18.516953,-33.948395,327.66 18.513252,-33.946198,320.04 18.50972,-33.944046,320.04 18.507442,-33.942635,320.04 18.504009,-33.940586,320.04 18.501312,-33.938965,320.04 18.497782,-33.936813,320.04 18.492336,-33.933414,320.04 18.478949,-33.9245,304.8 18.474655,-33.92136,297.18 18.468185,-33.916306,274.32 18.466187,-33.914608,190.5 18.462868,-33.911724,251.46 18.461037,-33.910046,243.84 18.458096,-33.907471,228.6 18.456135,-33.905731,228.6 18.453026,-33.902969,152.4 18.45137,-33.901428,213.36 18.446846,-33.897476,205.74 18.444923,-33.89621,198.12 18.442402,-33.895798,182.88 18.440496,-33.896118,167.64 18.438148,-33.896778,152.4 18.436432,-33.897293,137.16 18.434385,-33.897903,114.3 18.433041,-33.89827,99.06 18.431282,-33.898827,83.82 18.430182,-33.899185,68.58 18.428949,-33.899734,45.72 18.428135,-33.900177,38.1 18.42738,-33.900513,22.86 18.42794,-33.900742,53.34 18.429279,-33.901154,76.2 18.430252,-33.901527,91.44 18.431976,-33.902161,129.54 18.432999,-33.902504,152.4 18.434666,-33.902893,190.5 18.436012,-33.902847,190.5 18.438421,-33.901886,213.36 18.439711,-33.900833,228.6 18.441168,-33.898773,259.08 18.441753,-33.897476,274.32 18.442326,-33.895012,297.18 18.442497,-33.893196,320.04 18.44244,-33.890915,350.52 18.442154,-33.889286,358.14 18.441525,-33.887005,396.24 18.440832,-33.885361,411.48 18.439865,-33.883278,441.96 18.439064,-33.88179,464.82 18.437525,-33.879822,487.68 18.436203,-33.878532,510.54 18.434105,-33.876846,533.4 18.432426,-33.875786,548.64 18.42979,-33.874512,563.88 18.427773,-33.873688,579.12 18.424473,-33.872757,594.36 18.422222,-33.87236,601.98 18.418751,-33.872105,617.22 18.416506,-33.872086,624.84 18.41247,-33.872406,640.08 18.410053,-33.872757,640.08 18.406448,-33.87355,655.32 18.403645,-33.874435,662.94 18.400362,-33.875931,670.56 18.398119,-33.877167,678.18 18.395119,-33.878998,701.04 18.393019,-33.880417,708.66 18.389936,-33.882706,723.9 18.388254,-33.884033,731.52 18.385395,-33.886368,746.76 18.383732,-33.887794,746.76 18.380814,-33.890354,754.38 18.379063,-33.891998,754.38 18.376596,-33.894333,762 18.374802,-33.896027,769.62 18.372059,-33.898689,777.24 18.37015,-33.900604,784.86 18.367683,-33.903168,807.72 18.365822,-33.905159,822.96 18.363255,-33.90802,838.2 18.360172,-33.911636,868.68 18.358154,-33.914238,883.92 18.356953,-33.91605,891.54 18.355015,-33.919235,899.16 18.354034,-33.921173,906.78 18.352776,-33.92429,914.4 18.351877,-33.926697,914.4 18.350756,-33.929901,922.02 18.350029,-33.932251,922.02 18.348906,-33.936081,929.64 18.347397,-33.941284,922.02 18.343973,-33.953064,929.64 18.341394,-33.960892,929.64 18.337955,-33.969913,937.26 18.336349,-33.973663,952.5 18.334751,-33.977501,960.12 18.333828,-33.979889,960.12 18.33252,-33.983368,960.12 18.331718,-33.985649,967.74 18.330688,-33.989277,967.74 18.330002,-33.991608,967.74 18.329119,-33.995224,960.12 18.328558,-33.997467,952.5 18.327774,-34.001221,952.5 18.327255,-34.00399,944.88 18.326797,-34.007389,937.26 18.326933,-34.010147,937.26 18.328285,-34.014046,937.26 18.329659,-34.016327,929.64 18.331718,-34.018978,929.64 18.333771,-34.021179,922.02 18.336237,-34.023514,922.02 18.33847,-34.025543,922.02 18.341217,-34.028057,914.4 18.343019,-34.029922,914.4 18.345337,-34.032757,906.78 18.34671,-34.034992,906.78 18.348289,-34.038208,906.78 18.349285,-34.040627,891.54 18.350418,-34.04393,891.54 18.351002,-34.046307,876.3 18.351484,-34.050064,853.44 18.351517,-34.052357,845.82 18.351116,-34.05608,822.96 18.350658,-34.058548,807.72 18.349857,-34.062366,792.48 18.349241,-34.064987,784.86 18.348402,-34.069153,754.38 18.348026,-34.071583,762 18.347282,-34.075588,754.38 18.345766,-34.08403,723.9 18.344994,-34.091927,693.42 18.344936,-34.094997,678.18 18.345451,-34.098675,662.94 18.346367,-34.101189,655.32 18.348906,-34.104904,647.7 18.351149,-34.106735,647.7 18.35495,-34.10878,647.7 18.357761,-34.109894,647.7 18.362303,-34.11145,647.7 18.364735,-34.11227,640.08 18.368748,-34.113602,640.08 18.371429,-34.114506,632.46 18.380871,-34.117577,617.22 18.391562,-34.121063,594.36 18.404217,-34.125443,594.36 18.41247,-34.128525,617.22 18.417683,-34.130447,624.84 18.42001,-34.131218,632.46 18.423737,-34.132462,640.08 18.425846,-34.133266,647.7 18.429453,-34.134613,647.7 18.431969,-34.135593,640.08 18.435507,-34.137268,632.46 18.437576,-34.13834,624.84 18.44101,-34.14048,624.84 18.443298,-34.142166,617.22 18.446157,-34.144775,609.6 18.448008,-34.146927,601.98 18.450279,-34.150394,594.36 18.451538,-34.152878,586.74 18.452911,-34.156353,579.12 18.453781,-34.158691,571.5 18.455181,-34.162903,556.26 18.455944,-34.165291,548.64 18.457031,-34.169064,518.16 18.457985,-34.172653,495.3 18.461571,-34.185562,464.82 18.462925,-34.189964,457.2 18.464207,-34.193436,457.2 18.465099,-34.195736,449.58 18.466225,-34.198929,426.72 18.466873,-34.200813,419.1 18.467903,-34.20356,388.62 18.468746,-34.205704,381 18.469923,-34.208633,350.52 18.470535,-34.210121,335.28 18.473007,-34.21637,274.32 18.474712,-34.221062,220.98 18.476372,-34.226135,167.64 18.476538,-34.227219,152.4 18.476658,-34.22879,137.16 18.47665,-34.229782,121.92 18.476593,-34.231155,106.68 18.476482,-34.231934,91.44 18.476313,-34.232895,76.2 18.476145,-34.233444,60.96 18.475754,-34.234314,45.72 18.475456,-34.234749,38.1 18.47508,-34.235458,45.72 18.475809,-34.237106,53.34 18.477116,-34.237728,114.3 18.47822,-34.237106,129.54 18.479004,-34.235001,152.4 18.478949,-34.233215,182.88 18.478779,-34.231018,220.98 18.4785,-34.229141,259.08 18.478163,-34.227127,297.18 18.477859,-34.225811,327.66 18.477345,-34.223808,373.38 18.476986,-34.222641,396.24 18.476425,-34.220627,441.96 18.476032,-34.219482,464.82 18.475361,-34.217514,495.3 18.474884,-34.21608,510.54 18.474184,-34.214172,533.4 18.473679,-34.212708,556.26 18.472996,-34.210636,586.74 18.472538,-34.209286,601.98 18.471966,-34.207188,617.22 18.471493,-34.205658,632.46 18.470371,-34.201492,655.32 18.469334,-34.196762,670.56 18.468533,-34.192852,670.56 18.468073,-34.190689,678.18 18.466167,-34.180344,693.42 18.465384,-34.174622,678.18 18.465046,-34.17041,678.18 18.464991,-34.167938,670.56 18.465216,-34.164963,670.56 18.4655,-34.162827,670.56 18.466225,-34.159653,662.94 18.466759,-34.157612,662.94 18.467674,-34.154587,655.32 18.468418,-34.152306,655.32 18.469587,-34.148941,647.7 18.470249,-34.146999,640.08 18.473511,-34.137772,624.84 18.475914,-34.131355,624.84 18.478203,-34.124374,624.84 18.478546,-34.122559,624.84 18.478889,-34.119297,624.84 18.479004,-34.11702,624.84 18.479172,-34.114243,624.84 18.47929,-34.112083,624.84 18.47934,-34.108932,624.84 18.479397,-34.102432,632.46 18.479519,-34.09174,640.08 18.479519,-34.084759,632.46 18.479519,-34.072701,632.46 18.479452,-34.068604,624.84 18.479452,-34.065033,617.22 18.479397,-34.063019,617.22 18.479397,-34.059631,617.22 18.47934,-34.057571,617.22 18.47929,-34.051334,617.22 18.479059,-34.044342,609.6 18.478556,-34.033905,617.22 18.478611,-34.027588,624.84 18.478832,-34.017303,624.84 18.478891,-34.009552,617.22 18.479404,-33.998447,563.88 18.480013,-33.989227,525.78 18.481178,-33.977036,480.06 18.482037,-33.970284,464.82 18.483543,-33.95993,419.1 18.483656,-33.957596,403.86 18.483601,-33.954163,396.24 18.48341,-33.951805,388.62 18.482985,-33.948349,381 18.482494,-33.946217,373.38 18.481407,-33.942867,358.14 18.480663,-33.940865,350.52 18.479233,-33.937325,342.9 18.478443,-33.935486,335.28 18.476715,-33.931831,320.04 18.475399,-33.929646,312.42 18.472837,-33.926056,304.8 18.471565,-33.92429,304.8 18.469027,-33.921021,304.8 18.467674,-33.919357,304.8 18.465385,-33.916611,228.6 18.463758,-33.914703,281.94 18.458714,-33.909027,251.46 18.456078,-33.906326,236.22 18.450737,-33.900921,205.74 18.447819,-33.898361,190.5 18.445316,-33.897171,175.26 18.443691,-33.896896,167.64 18.440832,-33.896896,144.78 18.439236,-33.897106,137.16 18.436832,-33.897526,121.92 18.435287,-33.897804,106.68 18.433153,-33.89827,91.44 18.431797,-33.898548,76.2 18.429901,-33.899139,60.96 18.428949,-33.899689,45.72 18.428108,-33.900238,38.1 18.42762,-33.900455,30.48 18.428593,-33.900551,53.34 18.430252,-33.900505,60.96 18.432026,-33.90041,83.82 18.434143,-33.900272,129.54 18.435974,-33.90004,167.64 18.437119,-33.89962,182.88 18.439007,-33.898315,205.74 18.439936,-33.897125,220.98 18.440887,-33.895294,243.84 18.44141,-33.893707,259.08 18.441696,-33.891518,281.94 18.441696,-33.889984,289.56 18.441336,-33.887558,320.04 18.440832,-33.885956,335.28 18.440208,-33.884117,358.14 18.43943,-33.882477,373.38 18.438091,-33.880486,396.24 18.436796,-33.879089,411.48 18.43483,-33.877365,441.96 18.433266,-33.876343,464.82 18.431023,-33.875061,487.68 18.429565,-33.874294,495.3 18.426762,-33.873131,518.16 18.424816,-33.872524,533.4 18.421726,-33.872059,548.64 18.419588,-33.87204,556.26 18.416168,-33.872406,563.88 18.413658,-33.872944,563.88 18.410339,-33.873825,579.12 18.407818,-33.874557,579.12 18.40395,-33.875748,594.36 18.40147,-33.87653,609.6 18.398037,-33.877693,624.84 18.396046,-33.878494,632.46 18.392796,-33.880096,640.08 18.390553,-33.881424,647.7 18.387638,-33.883347,662.94 18.385565,-33.884857,685.8 18.382986,-33.886734,708.66 18.381361,-33.88797,723.9 18.378838,-33.889984,746.76 18.377552,-33.891052,754.38 18.375206,-33.893101,762 18.373661,-33.894497,769.62 18.371143,-33.896919,777.24 18.369713,-33.898315,777.24 18.367123,-33.90097,777.24 18.365479,-33.902691,777.24 18.363132,-33.905159,784.86 18.358498,-33.910465,792.48 18.356323,-33.913166,792.48 18.354792,-33.915253,792.48 18.352776,-33.918285,792.48 18.351517,-33.92038,784.86 18.349747,-33.923538,784.86 18.348738,-33.925507,784.86 18.347281,-33.928894,784.86 18.346481,-33.930809,784.86 18.345222,-33.934486,784.86 18.344421,-33.936768,784.86 18.343245,-33.940292,784.86 18.34173,-33.944916,784.86 18.338356,-33.95525,784.86 18.334164,-33.96698,792.48 18.329119,-33.980759,792.48 18.327045,-33.985199,784.86 18.323536,-33.992489,777.24 18.320038,-33.999344,769.62 18.315983,-34.006454,762 18.314602,-34.008682,762 18.312721,-34.011715,815.34 18.312492,-34.012974,853.44 18.314489,-34.013809,845.82 18.316395,-34.013031,822.96 18.318638,-34.011292,807.72 18.320446,-34.009434,807.72 18.322674,-34.007217,792.48 18.324411,-34.005478,784.86 18.326855,-34.00301,777.24 18.328629,-34.001148,769.62 18.339489,-33.989868,701.04 18.345766,-33.983185,662.94 18.350372,-33.975544,640.08 18.352604,-33.970379,624.84 18.355465,-33.962605,624.84 18.356781,-33.957344,624.84 18.357651,-33.95311,624.84 18.358097,-33.950687,624.84 18.358727,-33.947334,624.84 18.359667,-33.943039,617.22 18.361462,-33.936172,624.84 18.362217,-33.933743,624.84 18.363367,-33.930359,632.46 18.364208,-33.928253,640.08 18.365536,-33.925457,647.7 18.366619,-33.923309,647.7 18.368168,-33.920612,647.7 18.369421,-33.918549,640.08 18.371372,-33.91568,632.46 18.372784,-33.913788,624.84 18.375307,-33.910721,609.6 18.376707,-33.909164,609.6 18.379343,-33.906372,601.98 18.381042,-33.904648,594.36 18.383675,-33.90218,586.74 18.385452,-33.900604,586.74 18.388138,-33.898502,579.12 18.390329,-33.896851,563.88 18.393244,-33.894974,487.68 18.39529,-33.893753,541.02 18.399124,-33.891659,518.16 18.401539,-33.890533,502.92 18.405182,-33.888977,480.06 18.40748,-33.888062,464.82 18.410854,-33.886818,457.2 18.412918,-33.886093,449.58 18.416176,-33.885094,441.96 18.418354,-33.884491,426.72 18.421726,-33.883698,411.48 18.423901,-33.883327,396.24 18.427044,-33.883209,381 18.42923,-33.883438,365.76 18.432199,-33.884125,335.28 18.433994,-33.884857,320.04 18.436375,-33.886166,289.56 18.438086,-33.887512,266.7 18.439465,-33.889565,243.84 18.439579,-33.891052,228.6 18.438589,-33.893005,205.74 18.437637,-33.893921,190.5 18.434834,-33.89566,152.4 18.433657,-33.896347,137.16 18.431969,-33.897243,106.68 18.43071,-33.89785,91.44 18.42951,-33.898636,68.58 18.428822,-33.899292,53.34 18.428135,-33.900177,38.1 18.427603,-33.900467,30.48 18.439636,-33.880253,449.58 18.43786,-33.877808,495.3 18.436068,-33.875977,518.16 18.434944,-33.875088,525.78 18.432816,-33.873642,556.26 18.43111,-33.87262,571.5 18.428421,-33.871456,594.36 18.42659,-33.870941,609.6 18.423399,-33.870529,617.22 18.421381,-33.870438,624.84 18.418076,-33.870575,632.46 18.415777,-33.87085,640.08 18.412399,-33.871456,647.7 18.410172,-33.871902,647.7 18.406219,-33.872757,655.32 18.40395,-33.873276,655.32 18.40044,-33.874153,647.7 18.398037,-33.874851,655.32 18.394476,-33.876205,670.56 18.3922,-33.877228,685.8 18.389339,-33.878811,701.04 18.387394,-33.879929,708.66 18.38459,-33.881882,708.66 18.382759,-33.883278,716.28 18.380299,-33.885326,723.9 18.378445,-33.886917,731.52 18.375978,-33.88916,746.76 18.374409,-33.890579,754.38 18.372055,-33.892776,754.38 18.367964,-33.896805,754.38 18.360901,-33.904266,777.24 18.358435,-33.907104,777.24 18.356529,-33.909485,777.24 18.355183,-33.911362,777.24 18.353062,-33.914749,769.62 18.351988,-33.916534,762 18.350195,-33.919876,754.38 18.349113,-33.922058,754.38 18.347561,-33.925415,754.38 18.346596,-33.927597,754.38 18.34528,-33.930855,762 18.344479,-33.932858,769.62 18.343334,-33.935978,777.24 18.342516,-33.938278,784.86 18.339209,-33.948166,815.34 18.33744,-33.953758,792.48 18.33704,-33.957111,807.72 18.340891,-33.96254,792.48 18.353109,-33.961807,754.38 18.355236,-33.959114,739.14 18.356865,-33.954758,723.9 18.357582,-33.952316,708.66 18.358269,-33.949104,693.42 18.358841,-33.946545,685.8 18.359556,-33.943176,670.56 18.36006,-33.941025,662.94 18.360958,-33.937607,655.32 18.361702,-33.93523,640.08 18.362919,-33.931961,632.46 18.363819,-33.930019,624.84 18.365936,-33.926247,609.6 18.367123,-33.924225,601.98 18.369083,-33.921127,594.36 18.370375,-33.919098,594.36 18.372561,-33.916031,586.74 18.374004,-33.914143,586.74 18.376371,-33.911316,579.12 18.378109,-33.909348,571.5 18.380985,-33.906414,563.88 18.382874,-33.904724,563.88 18.386181,-33.902115,533.4 18.388031,-33.900742,533.4 18.390827,-33.898827,495.3 18.393059,-33.897243,533.4 18.396206,-33.895103,472.44 18.398457,-33.893646,502.92 18.402996,-33.890854,472.44 18.405075,-33.889656,464.82 18.40868,-33.887794,441.96 18.410683,-33.886864,434.34 18.414288,-33.885372,411.48 18.416506,-33.884583,396.24 18.419981,-33.883621,365.76 18.422335,-33.883209,350.52 18.425732,-33.883232,335.28 18.427448,-33.883698,320.04 18.43008,-33.885002,297.18 18.431528,-33.88591,281.94 18.433434,-33.887466,266.7 18.434385,-33.888519,243.84 18.435345,-33.890541,220.98 18.435171,-33.891724,198.12 18.433514,-33.893196,175.26 18.432312,-33.893986,160.02 18.429909,-33.895382,121.92 18.428993,-33.896591,106.68 18.428612,-33.897903,83.82 18.428556,-33.898682,68.58 18.428421,-33.89962,45.72 18.428108,-33.900238,38.1 18.427603,-33.900192,45.72 18.428192,-33.89999,45.72 18.429108,-33.899807,45.72 18.430882,-33.900642,76.2 18.432985,-33.901337,106.68 18.434429,-33.901527,121.92 18.436796,-33.901474,144.78 18.438263,-33.901108,160.02 18.440151,-33.90004,182.88 18.441,-33.899048,198.12 18.441639,-33.896965,213.36 18.441525,-33.895336,220.98 18.441,-33.892319,236.22 18.440495,-33.890354,236.22 18.439522,-33.887421,243.84 18.438589,-33.885406,251.46 18.436964,-33.883118,274.32 18.435675,-33.881973,289.56 18.432999,-33.880344,312.42 18.43111,-33.879696,320.04 18.428307,-33.878948,342.9 18.426304,-33.878578,358.14 18.423456,-33.878036,388.62 18.421606,-33.877808,396.24 18.418186,-33.877487,411.48 18.415945,-33.877396,411.48 18.412971,-33.877552,419.1 18.410969,-33.877785,434.34 18.407764,-33.8783,441.96 18.405991,-33.878765,449.58 18.403301,-33.879463,472.44 18.401651,-33.880005,518.16 18.399982,-33.880627,556.26 18.399073,-33.881195,579.12 18.397783,-33.882111,601.98 18.396721,-33.882908,617.22 18.394924,-33.884033,624.84 18.393524,-33.884857,632.46 18.391342,-33.886074,640.08 18.389544,-33.8871,632.46 18.386707,-33.888866,632.46 18.384892,-33.890076,632.46 18.382257,-33.891861,632.46 18.380407,-33.893051,640.08 18.376923,-33.895382,655.32 18.372173,-33.898502,655.32 18.36937,-33.900455,640.08 18.367538,-33.901852,640.08 18.364824,-33.904083,632.46 18.362864,-33.906006,624.84 18.360397,-33.908478,617.22 18.35877,-33.910217,609.6 18.356667,-33.912746,609.6 18.355236,-33.914562,609.6 18.353277,-33.917358,624.84 18.352203,-33.919079,632.46 18.350773,-33.921638,655.32 18.349686,-33.9235,670.56 18.348141,-33.926247,685.8 18.347168,-33.928017,701.04 18.344822,-33.932346,731.52 18.342361,-33.937046,754.38 18.341843,-33.939743,769.62 18.34219,-33.941795,800.1 18.343412,-33.944046,845.82 18.344702,-33.945007,868.68 18.346888,-33.945557,899.16 18.34868,-33.945236,914.4 18.350658,-33.943798,937.26 18.351402,-33.942493,944.88 18.351372,-33.940292,967.74 18.350307,-33.939285,975.36 18.347784,-33.939697,990.6 18.346888,-33.941025,990.6 18.345879,-33.943726,982.98 18.345095,-33.945602,998.22 18.343964,-33.948311,1005.84 18.343187,-33.95018,1013.46 18.342018,-33.953014,1021.08 18.341002,-33.954987,1021.08 18.3391,-33.957951,1028.7 18.337784,-33.959858,1028.7 18.336126,-33.962631,1036.32 18.335228,-33.964462,1036.32 18.333771,-33.967575,1028.7 18.332932,-33.969406,1028.7 18.331375,-33.972706,1021.08 18.330408,-33.974808,1021.08 18.328167,-33.979568,1005.84 18.325027,-33.986023,982.98 18.321665,-33.99353,982.98 18.320656,-33.99559,990.6 18.319817,-33.998917,1005.84 18.458462,-33.913212,289.56 18.454857,-33.90921,281.94 18.453611,-33.907013,289.56 18.452511,-33.903667,304.8 18.452099,-33.901749,312.42 18.451252,-33.898781,320.04 18.450394,-33.897011,320.04 18.448448,-33.894825,312.42 18.446789,-33.893894,289.56 18.443579,-33.893234,243.84 18.44128,-33.893143,228.6 18.438377,-33.893242,198.12 18.435917,-33.893566,175.26 18.433113,-33.89394,152.4 18.431471,-33.894241,137.16 18.429108,-33.895195,114.3 18.42794,-33.896164,99.06 18.427219,-33.897476,45.72 18.427162,-33.898224,68.58 18.427155,-33.899231,53.34 18.427212,-33.899826,45.72 18.427391,-33.900505,38.1
        </coordinates>
      </LineString>
    </Placemark>
  </Document>
</kml>