<?xml version="1.0" encoding="UTF-8"?>
<kml xmlns="http://www.opengis.net/kml/2.2">
  <Document>
    <name>-/ZTHOT - Optimised</name>
    <description><![CDATA[Optimised flight path with 428 points (decimated from 2136 original points). Source format: Standard KML]]></description>
    
    <Style id="flightPath">
      <LineStyle>
        <color>ffff0000</color>
        <width>3</width>
      </LineStyle>
    </Style>
    
    <Placemark>
      <name>Flight Path</name>
      <description><![CDATA[<div style="width:220px; text-align:center;">
<div style="width:210px; text-align:center;">
<div style=" background: #000; color: #fff; font-size: 14px; text-align:left; border: 1px solid #000; padding: 2px 6px; text-shadow: 0 1px 0 #000; box-shadow: 0 1px 3px rgba(0,0,0,0.6); background: -webkit-gradient(linear, left top, left bottom, color-stop(0%,#808080), color-stop(2%,#303030), color-stop(100%,#0c0c0c));"><span style="font-size: 14px; font-weight: bold;"><a href="javascript:void(0);" style="color: #fff; cursor: pointer;text-decoration: none;">-</a></span> / ZTHOT<br/>Cape Town Helicopters</div>

<div style="border-top: 1px solid #005c90; color: #fff; padding-bottom: 5px; box-shadow: 0 0 1px #9BE3F6 inset, 0 1px 0 #9BE3F6 inset, 0 -1px 3px rgba(0,0,0,0.4); background:rgba(43,114,173,1); background: -webkit-gradient(linear, left top, left bottom, color-stop(0%,rgba(92,184,229,1)), color-stop(100%,rgba(43,114,173,1)));">
<a style="text-decoration: none; color: rgb(255, 255, 255); font-size: 12px; width:77px; display: inline-block;" title=" Airport" href="javascript:void(0);/departures"><h3 style="padding: 0px; margin: 10px 0px 0px; font-size: 16px; ">?</h3></a>
<span style="background: url(https://www.flightradar24.com/static/images/userUI_sprite.png?14) no-repeat scroll 0 -464px rgba(0, 0, 0, 0); border: medium none; display: inline-block; height: 16px; width: 45px;"></span>
<a style="text-decoration: none; color: rgb(255, 255, 255); font-size: 12px; width:77px; display: inline-block;" title=" Airport" href="javascript:void(0);/arrivals"><h3 style="padding: 0px; margin: 10px 0px 0px; font-size: 16px;">?</h3></a>
<div style=" margin-top:10px;">
<div style="display: inline-block; font-size: 12px; padding: 0 5px;">
<div>
<span style="color: #c1eaff;" title="Actual Time of Departure">ATD </span>
<span title="2025-04-05 14:00">14:00</span> <span title="Coordinated Universal Time">UTC</span>
</div>
</div>
<div style="display: inline-block; font-size: 12px; padding: 0 5px;">
<div>
<span style="color: #c1eaff;" title="Estimated Time of Arrival">ETA </span>
<span title="2025-04-05 14:19">14:19</span> <span title="Coordinated Universal Time">UTC</span>
</div>
</div>
</div>
<br style="clear: both;"/>
</div>

<div style="display: block;">
<table style="border-collapse: collapse; width: 100%;">
<tr style="border-right: 1px solid #dadada; ">
<td style="background: none repeat scroll 0 0 #dadada; padding: 0; width: 31px;">
<span style="background: url(https://www.flightradar24.com/static/images/userUI_sprite.png?14) no-repeat scroll -208px -464px rgba(0, 0, 0, 0); height: 26px; margin: 8px 0 0 4px; width: 23px; display: block;"></span>
</td>
<td colspan="2" style="border-bottom: 1px solid #dadada; border-left: 1px solid #dadada; color: #666; line-height: 1.1em; padding: 3px 6px; vertical-align: top; font-size: 14px;">
Aircraft<span style="float: right; font-size: 12px;">(AS50)</span><br>
<span style="color: #333; font-size: 16px; font-weight: bold; line-height: 1.3em;">Airbus Helicopters H125</span>
</td>
</tr>
<tr style="border-right: 1px solid #dadada; ">
<td style="background: none repeat scroll 0 0 #dadada; padding: 0; width: 31px;">
<td colspan="2" style="border-bottom: 1px solid #dadada; border-left: 1px solid #dadada; color: #666; line-height: 1.1em; padding: 3px 6px; vertical-align: top; font-size: 14px;">
Registration<br>
<span style="color: #333; font-size: 16px; font-weight: bold; line-height: 1.3em;"><a href="https://www.flightradar24.com/reg/zt-hot" style="text-decoration: none; color: #333;">ZT-HOT</a></span>
</td>
</tr>
</table>
</div>

</div>
</div>]]></description>
      <styleUrl>#flightPath</styleUrl>
      <LineString>
        <extrude>1</extrude>
        <tessellate>1</tessellate>
        <altitudeMode>absolute</altitudeMode>
        <coordinates>
          18.42738,-33.900604,60.96 18.429337,-33.90097,91.44 18.430538,-33.901295,91.44 18.434601,-33.901852,182.88 18.435974,-33.901714,213.36 18.438435,-33.900875,213.36 18.439693,-33.89999,243.84 18.441353,-33.897617,274.32 18.441896,-33.895844,274.32 18.441982,-33.892681,274.32 18.441616,-33.890442,274.32 18.440327,-33.887192,304.8 18.439039,-33.884995,304.8 18.436235,-33.881973,304.8 18.434086,-33.88044,335.28 18.429394,-33.878345,335.28 18.426933,-33.877647,335.28 18.423042,-33.8769,365.76 18.420353,-33.876575,365.76 18.416119,-33.876389,396.24 18.413702,-33.876389,396.24 18.40905,-33.87561,426.72 18.408321,-33.874191,457.2 18.408937,-33.873093,487.68 18.409723,-33.872772,457.2 18.410955,-33.873184,487.68 18.411123,-33.874054,487.68 18.409836,-33.875656,487.68 18.408154,-33.876663,487.68 18.405519,-33.877945,518.16 18.403816,-33.878716,518.16 18.400841,-33.880066,518.16 18.398724,-33.880951,548.64 18.39592,-33.882114,548.64 18.390942,-33.884258,579.12 18.385845,-33.886963,579.12 18.383938,-33.888107,579.12 18.3808,-33.890305,609.6 18.378983,-33.891659,609.6 18.375893,-33.894077,609.6 18.374073,-33.895569,609.6 18.371271,-33.897995,640.08 18.369421,-33.899597,640.08 18.366787,-33.902115,640.08 18.365273,-33.903717,640.08 18.363087,-33.906235,640.08 18.361349,-33.90834,640.08 18.35907,-33.911209,670.56 18.357754,-33.912979,701.04 18.355923,-33.915585,731.52 18.354836,-33.917168,762 18.352045,-33.92189,792.48 18.352493,-33.923035,822.96 18.354206,-33.923409,883.92 18.355072,-33.922943,883.92 18.355694,-33.921684,883.92 18.355352,-33.9207,914.4 18.353502,-33.920197,914.4 18.351933,-33.921112,914.4 18.350716,-33.923687,914.4 18.350363,-33.925369,914.4 18.349972,-33.928669,944.88 18.349802,-33.93045,944.88 18.349522,-33.933701,944.88 18.349342,-33.935928,944.88 18.348793,-33.944,944.88 18.34857,-33.950821,944.88 18.349056,-33.968376,914.4 18.349634,-33.977463,914.4 18.350588,-33.98909,883.92 18.351259,-33.998657,883.92 18.352268,-34.011337,853.44 18.352833,-34.019073,853.44 18.352774,-34.024887,853.44 18.352661,-34.027405,853.44 18.352381,-34.031021,853.44 18.352146,-34.033363,853.44 18.351574,-34.036716,853.44 18.351059,-34.039043,853.44 18.349972,-34.042862,853.44 18.349298,-34.044891,853.44 18.347841,-34.048599,853.44 18.346775,-34.050888,853.44 18.34515,-34.054413,822.96 18.344193,-34.056454,822.96 18.342236,-34.060272,822.96 18.341114,-34.062378,822.96 18.339993,-34.067047,822.96 18.341732,-34.068138,822.96 18.344994,-34.068092,853.44 18.346552,-34.067642,853.44 18.349073,-34.066132,853.44 18.351116,-34.065483,853.44 18.354034,-34.066463,822.96 18.356136,-34.068008,792.48 18.358828,-34.070572,792.48 18.360788,-34.072632,792.48 18.363255,-34.075241,792.48 18.365021,-34.077263,792.48 18.367424,-34.079914,762 18.371719,-34.084534,762 18.376652,-34.089478,731.52 18.378557,-34.091217,731.52 18.385956,-34.098679,701.04 18.391842,-34.104218,701.04 18.396606,-34.108337,670.56 18.39868,-34.109848,670.56 18.401642,-34.111942,670.56 18.403931,-34.113525,670.56 18.406734,-34.115669,670.56 18.410955,-34.118362,670.56 18.415159,-34.120834,670.56 18.417515,-34.12207,640.08 18.420765,-34.123672,640.08 18.423214,-34.124699,640.08 18.426647,-34.126003,609.6 18.428993,-34.126747,609.6 18.433041,-34.127792,609.6 18.435562,-34.12825,579.12 18.43915,-34.128708,579.12 18.441868,-34.12875,579.12 18.445644,-34.128284,579.12 18.448175,-34.127609,579.12 18.451706,-34.126419,579.12 18.453836,-34.125504,548.64 18.457312,-34.123672,548.64 18.459442,-34.122253,548.64 18.46258,-34.119965,518.16 18.464487,-34.118454,518.16 18.467216,-34.115993,518.16 18.468761,-34.114273,548.64 18.470877,-34.111404,548.64 18.472137,-34.109428,548.64 18.473682,-34.10659,548.64 18.474598,-34.104588,548.64 18.475754,-34.101379,548.64 18.476429,-34.099094,548.64 18.477098,-34.096115,548.64 18.477491,-34.093781,548.64 18.477995,-34.090485,579.12 18.478163,-34.088516,579.12 18.478546,-34.084896,579.12 18.478775,-34.082893,579.12 18.480742,-34.071533,579.12 18.481808,-34.06353,579.12 18.481922,-34.060131,579.12 18.481976,-34.057892,579.12 18.482086,-34.054504,609.6 18.482208,-34.048771,609.6 18.482208,-34.037693,609.6 18.482534,-34.029556,609.6 18.482872,-34.026169,609.6 18.483543,-34.01857,579.12 18.484777,-34.005524,548.64 18.485813,-33.997147,548.64 18.487072,-33.984482,518.16 18.487411,-33.975449,487.68 18.487015,-33.971588,487.68 18.486628,-33.968948,487.68 18.485985,-33.965256,487.68 18.485584,-33.962929,487.68 18.484783,-33.959064,487.68 18.484217,-33.956451,457.2 18.48341,-33.952923,457.2 18.482311,-33.944962,457.2 18.479919,-33.933743,426.72 18.478891,-33.93132,426.72 18.476944,-33.927738,426.72 18.475416,-33.925461,396.24 18.472424,-33.921917,396.24 18.470535,-33.919964,396.24 18.467176,-33.916992,396.24 18.465158,-33.915161,396.24 18.462244,-33.912186,396.24 18.459835,-33.909813,487.68 18.45829,-33.908745,487.68 18.457088,-33.907906,487.68 18.453556,-33.903763,396.24 18.452435,-33.90239,365.76 18.450279,-33.900318,304.8 18.447304,-33.898315,274.32 18.444139,-33.897171,274.32 18.442234,-33.897034,243.84 18.438869,-33.897263,182.88 18.436947,-33.897572,182.88 18.4342,-33.898037,152.4 18.430939,-33.898457,91.44 18.428364,-33.899155,91.44 18.427715,-33.899597,91.44 18.42738,-33.900284,91.44 18.427715,-33.900696,91.44 18.433601,-33.902023,182.88 18.438492,-33.903065,243.84 18.446388,-33.905205,274.32 18.44799,-33.906181,304.8 18.450222,-33.90781,304.8 18.451481,-33.908791,304.8 18.453484,-33.910419,304.8 18.455086,-33.911724,304.8 18.457087,-33.913376,304.8 18.458405,-33.914703,304.8 18.460171,-33.91658,335.28 18.463097,-33.919216,335.28 18.46693,-33.921871,335.28 18.46859,-33.922943,335.28 18.4711,-33.924591,335.28 18.472881,-33.925735,335.28 18.482199,-33.931503,365.76 18.48587,-33.93351,365.76 18.488846,-33.935093,365.76 18.490791,-33.936024,365.76 18.49341,-33.937271,365.76 18.49823,-33.939606,365.76 18.507872,-33.944321,335.28 18.512524,-33.946335,335.28 18.516054,-33.948074,365.76 18.518772,-33.94915,335.28 18.521404,-33.949661,335.28 18.523342,-33.950089,335.28 18.526039,-33.950733,335.28 18.527769,-33.951187,335.28 18.532448,-33.952457,335.28 18.534107,-33.952923,365.76 18.54324,-33.95517,365.76 18.54537,-33.955444,365.76 18.548584,-33.955715,365.76 18.550644,-33.955948,365.76 18.554134,-33.956226,365.76 18.556244,-33.95636,335.28 18.565922,-33.957066,335.28 18.572731,-33.957344,335.28 18.575975,-33.957184,335.28 18.578568,-33.95697,335.28 18.582001,-33.956505,335.28 18.584118,-33.956181,335.28 18.587971,-33.955673,335.28 18.590183,-33.955387,335.28 18.603687,-33.954086,335.28 18.608036,-33.953854,335.28 18.611469,-33.953854,335.28 18.613815,-33.953899,335.28 18.61702,-33.953945,335.28 18.61948,-33.954037,365.76 18.622856,-33.954178,365.76 18.628464,-33.954411,365.76 18.640938,-33.954784,365.76 18.649006,-33.955109,365.76 18.658733,-33.955017,335.28 18.667374,-33.955017,335.28 18.681129,-33.955215,335.28 18.690042,-33.955261,335.28 18.702934,-33.955078,365.76 18.708315,-33.954758,365.76 18.714466,-33.954365,365.76 18.723675,-33.953751,396.24 18.737125,-33.952736,396.24 18.744581,-33.952469,396.24 18.751945,-33.952316,396.24 18.757305,-33.951828,396.24 18.760929,-33.95129,365.76 18.763504,-33.950825,365.76 18.767563,-33.950043,365.76 18.770367,-33.949539,365.76 18.779297,-33.947941,365.76 18.788584,-33.946655,335.28 18.802757,-33.945053,335.28 18.811398,-33.94389,365.76 18.824787,-33.941471,365.76 18.82782,-33.940704,365.76 18.837605,-33.938538,365.76 18.840408,-33.938164,365.76 18.84407,-33.937653,396.24 18.849119,-33.936996,396.24 18.861122,-33.935371,426.72 18.869305,-33.93388,457.2 18.873503,-33.932877,457.2 18.876698,-33.932098,487.68 18.886171,-33.930679,518.16 18.888245,-33.930435,518.16 18.891735,-33.930111,518.16 18.894138,-33.929924,548.64 18.90237,-33.928711,579.12 18.904953,-33.928108,579.12 18.90873,-33.927036,579.12 18.911476,-33.926434,609.6 18.916494,-33.925095,609.6 18.918793,-33.924133,609.6 18.922325,-33.922165,609.6 18.92458,-33.920895,609.6 18.928928,-33.918705,579.12 18.931046,-33.917683,579.12 18.938019,-33.914658,579.12 18.940258,-33.913773,579.12 18.943792,-33.912689,579.12 18.946381,-33.912189,579.12 18.950329,-33.911583,579.12 18.952904,-33.911259,609.6 18.956684,-33.910629,609.6 18.95937,-33.910233,609.6 18.969383,-33.908745,640.08 18.977089,-33.907242,670.56 18.982132,-33.906143,670.56 18.98695,-33.905018,670.56 18.993679,-33.904083,670.56 18.99581,-33.904083,670.56 18.99868,-33.903996,670.56 19.000574,-33.903809,640.08 19.036903,-33.888866,487.68 19.027031,-33.889114,548.64 19.022434,-33.889938,548.64 19.019352,-33.890442,548.64 19.014532,-33.891266,548.64 19.008636,-33.89217,579.12 19.006119,-33.892265,670.56 19.000799,-33.89296,609.6 18.996849,-33.894871,609.6 18.994904,-33.896545,609.6 18.992329,-33.898922,609.6 18.990383,-33.900177,579.12 18.983982,-33.90239,579.12 18.981068,-33.903122,579.12 18.976822,-33.904228,579.12 18.974304,-33.904831,548.64 18.970194,-33.905777,548.64 18.96756,-33.906326,548.64 18.954849,-33.90958,518.16 18.945082,-33.91214,487.68 18.930845,-33.915482,457.2 18.922806,-33.918007,457.2 18.91428,-33.920288,457.2 18.91173,-33.920883,457.2 18.900856,-33.923401,426.72 18.890879,-33.925644,426.72 18.875521,-33.929031,396.24 18.865263,-33.931091,396.24 18.84882,-33.934719,365.76 18.838751,-33.936722,365.76 18.824615,-33.939423,335.28 18.815937,-33.941391,335.28 18.801155,-33.94482,335.28 18.791779,-33.947067,396.24 18.781757,-33.949245,457.2 18.780344,-33.949448,487.68 18.778324,-33.949802,487.68 18.77457,-33.950684,487.68 18.772774,-33.951107,487.68 18.770029,-33.951736,487.68 18.766611,-33.952423,487.68 18.764481,-33.952835,487.68 18.757782,-33.953854,457.2 18.755322,-33.954086,426.72 18.751083,-33.954391,426.72 18.748337,-33.95462,396.24 18.744246,-33.954849,365.76 18.738441,-33.955109,365.76 18.734379,-33.955154,335.28 18.731464,-33.955124,365.76 18.719959,-33.955761,304.8 18.716927,-33.956039,304.8 18.712807,-33.956505,304.8 18.710117,-33.956879,274.32 18.699074,-33.958275,274.32 18.689369,-33.959427,304.8 18.678818,-33.961163,304.8 18.6763,-33.961628,304.8 18.668461,-33.963116,304.8 18.659134,-33.964512,335.28 18.648508,-33.965744,335.28 18.645817,-33.96579,335.28 18.641781,-33.96524,365.76 18.63905,-33.964607,365.76 18.635559,-33.963814,396.24 18.633541,-33.963409,396.24 18.630581,-33.962883,396.24 18.628407,-33.962231,396.24 18.625357,-33.960754,365.76 18.623339,-33.959564,365.76 18.619753,-33.957458,335.28 18.61742,-33.956318,335.28 18.610336,-33.953751,304.8 18.607029,-33.953018,304.8 18.6026,-33.952362,274.32 18.599396,-33.952129,274.32 18.59499,-33.951992,274.32 18.592186,-33.951942,274.32 18.587858,-33.951965,274.32 18.584831,-33.952011,274.32 18.580853,-33.952103,304.8 18.577824,-33.952225,304.8 18.563061,-33.952549,335.28 18.553049,-33.952332,335.28 18.549156,-33.951992,365.76 18.546124,-33.951572,365.76 18.542004,-33.950874,365.76 18.538971,-33.950546,365.76 18.534609,-33.949997,365.76 18.531918,-33.949539,365.76 18.527412,-33.948639,365.76 18.520596,-33.947067,335.28 18.516426,-33.945427,335.28 18.513565,-33.943985,335.28 18.509903,-33.941936,335.28 18.507671,-33.940678,335.28 18.503551,-33.938305,335.28 18.501148,-33.936954,335.28 18.494194,-33.933014,335.28 18.485281,-33.928024,304.8 18.472557,-33.921021,304.8 18.466112,-33.91713,304.8 18.462753,-33.914749,304.8 18.460121,-33.912701,304.8 18.456917,-33.909767,304.8 18.454845,-33.907608,304.8 18.452154,-33.904541,304.8 18.450304,-33.902344,304.8 18.447447,-33.899094,304.8 18.443802,-33.895615,274.32 18.440666,-33.894173,243.84 18.43792,-33.893894,243.84 18.434544,-33.894451,182.88 18.432083,-33.895382,152.4 18.429733,-33.896713,121.92 18.428764,-33.89785,91.44 18.428307,-33.898872,91.44 18.428221,-33.899323,91.44 18.427773,-33.899918,91.44 18.427147,-33.900284,0 18.426945,-33.900993,0
        </coordinates>
      </LineString>
    </Placemark>
  </Document>
</kml>