<?xml version="1.0" encoding="UTF-8"?>
<kml xmlns="http://www.opengis.net/kml/2.2">
  <Document>
    <name>-/ZTRNW - Optimised</name>
    <description><![CDATA[Optimised flight path with 714 points (decimated from 3570 original points). Source format: Standard KML]]></description>
    
    <Style id="flightPath">
      <LineStyle>
        <color>ffff0000</color>
        <width>3</width>
      </LineStyle>
    </Style>
    
    <Placemark>
      <name>Flight Path</name>
      <description><![CDATA[<div style="width:220px; text-align:center;">
<div style="width:210px; text-align:center;">
<div style=" background: #000; color: #fff; font-size: 14px; text-align:left; border: 1px solid #000; padding: 2px 6px; text-shadow: 0 1px 0 #000; box-shadow: 0 1px 3px rgba(0,0,0,0.6); background: -webkit-gradient(linear, left top, left bottom, color-stop(0%,#808080), color-stop(2%,#303030), color-stop(100%,#0c0c0c));"><span style="font-size: 14px; font-weight: bold;"><a href="javascript:void(0);" style="color: #fff; cursor: pointer;text-decoration: none;">-</a></span> / ZTRNW<br/>Private owner</div>

<div style="border-top: 1px solid #005c90; color: #fff; padding-bottom: 5px; box-shadow: 0 0 1px #9BE3F6 inset, 0 1px 0 #9BE3F6 inset, 0 -1px 3px rgba(0,0,0,0.4); background:rgba(43,114,173,1); background: -webkit-gradient(linear, left top, left bottom, color-stop(0%,rgba(92,184,229,1)), color-stop(100%,rgba(43,114,173,1)));">
<a style="text-decoration: none; color: rgb(255, 255, 255); font-size: 12px; width:77px; display: inline-block;" title=" Airport" href="javascript:void(0);/departures"><h3 style="padding: 0px; margin: 10px 0px 0px; font-size: 16px; ">?</h3></a>
<span style="background: url(https://www.flightradar24.com/static/images/userUI_sprite.png?14) no-repeat scroll 0 -464px rgba(0, 0, 0, 0); border: medium none; display: inline-block; height: 16px; width: 45px;"></span>
<a style="text-decoration: none; color: rgb(255, 255, 255); font-size: 12px; width:77px; display: inline-block;" title=" Airport" href="javascript:void(0);/arrivals"><h3 style="padding: 0px; margin: 10px 0px 0px; font-size: 16px;">?</h3></a>
<div style=" margin-top:10px;">
<div style="display: inline-block; font-size: 12px; padding: 0 5px;">
<div>
<span style="color: #c1eaff;" title="Actual Time of Departure">ATD </span>
<span title="2025-10-20 07:15">07:15</span> <span title="Coordinated Universal Time">UTC</span>
</div>
</div>
<div style="display: inline-block; font-size: 12px; padding: 0 5px;">
<div>
<span style="color: #c1eaff;" title="Estimated Time of Arrival">ETA </span>
<span title="2025-10-20 09:13">09:13</span> <span title="Coordinated Universal Time">UTC</span>
</div>
</div>
</div>
<br style="clear: both;"/>
</div>

<div style="display: block;">
<table style="border-collapse: collapse; width: 100%;">
<tr style="border-right: 1px solid #dadada; ">
<td style="background: none repeat scroll 0 0 #dadada; padding: 0; width: 31px;">
<span style="background: url(https://www.flightradar24.com/static/images/userUI_sprite.png?14) no-repeat scroll -208px -464px rgba(0, 0, 0, 0); height: 26px; margin: 8px 0 0 4px; width: 23px; display: block;"></span>
</td>
<td colspan="2" style="border-bottom: 1px solid #dadada; border-left: 1px solid #dadada; color: #666; line-height: 1.1em; padding: 3px 6px; vertical-align: top; font-size: 14px;">
Aircraft<span style="float: right; font-size: 12px;">(EC20)</span><br>
<span style="color: #333; font-size: 16px; font-weight: bold; line-height: 1.3em;">Airbus Helicopters H120</span>
</td>
</tr>
<tr style="border-right: 1px solid #dadada; ">
<td style="background: none repeat scroll 0 0 #dadada; padding: 0; width: 31px;">
<td colspan="2" style="border-bottom: 1px solid #dadada; border-left: 1px solid #dadada; color: #666; line-height: 1.1em; padding: 3px 6px; vertical-align: top; font-size: 14px;">
Registration<br>
<span style="color: #333; font-size: 16px; font-weight: bold; line-height: 1.3em;"><a href="https://www.flightradar24.com/reg/zt-rnw" style="text-decoration: none; color: #333;">ZT-RNW</a></span>
</td>
</tr>
</table>
</div>

</div>
</div>]]></description>
      <styleUrl>#flightPath</styleUrl>
      <LineString>
        <extrude>1</extrude>
        <tessellate>1</tessellate>
        <altitudeMode>absolute</altitudeMode>
        <coordinates>
          18.431135,-33.894836,45.72 18.434029,-33.890354,91.44 18.434715,-33.888725,106.68 18.435619,-33.88623,121.92 18.436012,-33.884445,144.78 18.435226,-33.881653,175.26 18.433399,-33.880207,190.5 18.430519,-33.879227,205.74 18.428053,-33.878815,228.6 18.425026,-33.878036,243.84 18.423119,-33.876251,274.32 18.423557,-33.873642,281.94 18.425529,-33.872726,281.94 18.428892,-33.873413,304.8 18.430595,-33.874062,335.28 18.433228,-33.875366,381 18.43433,-33.876526,396.24 18.433266,-33.879272,342.9 18.431248,-33.879776,335.28 18.427391,-33.880394,350.52 18.424856,-33.880783,373.38 18.421383,-33.881184,403.86 18.418859,-33.881424,419.1 18.415375,-33.881744,441.96 18.412973,-33.881973,457.2 18.409424,-33.882488,457.2 18.427563,-33.900738,0 18.431225,-33.894127,0 18.435345,-33.887188,0 18.432592,-33.882156,0 18.427162,-33.881325,0 18.418747,-33.87973,0 18.410225,-33.878437,0 18.401356,-33.878716,0 18.395765,-33.879547,0 18.388647,-33.881653,0 18.384361,-33.884026,0 18.378222,-33.888702,0 18.374802,-33.891769,0 18.370094,-33.896622,0 18.366737,-33.900455,0 18.361931,-33.907066,0 18.358715,-33.911545,0 18.353748,-33.918659,0 18.350756,-33.923401,0 18.344078,-33.934765,0 18.340702,-33.941517,0 18.337555,-33.94836,0 18.332634,-33.958275,0 18.324509,-33.973545,0 18.321247,-33.97871,0 18.317299,-33.986858,0 18.317528,-33.992443,0 18.313808,-34.000496,0 18.310719,-34.005619,0 18.30677,-34.013252,0 18.305225,-34.017628,0 18.30265,-34.024845,0 18.302326,-34.03006,0 18.304768,-34.038017,0 18.3078,-34.042534,0 18.428221,-33.900742,0 18.427334,-33.900688,0 18.427048,-33.899899,0 18.427267,-33.899368,0 18.428053,-33.898453,7.62 18.428501,-33.897858,15.24 18.429285,-33.896851,22.86 18.429852,-33.896175,38.1 18.430939,-33.894547,60.96 18.431854,-33.892963,76.2 18.432985,-33.890717,114.3 18.433546,-33.889343,129.54 18.434555,-33.886963,160.02 18.435116,-33.885372,182.88 18.435284,-33.883026,213.36 18.434778,-33.881561,228.6 18.432928,-33.879547,251.46 18.43111,-33.87867,274.32 18.428444,-33.877762,304.8 18.426533,-33.877319,335.28 18.424128,-33.876984,365.76 18.422413,-33.876808,381 18.419838,-33.876575,403.86 18.417795,-33.876526,419.1 18.414768,-33.876663,441.96 18.412806,-33.876801,457.2 18.409481,-33.877132,480.06 18.407257,-33.877441,495.3 18.404617,-33.877972,510.54 18.402157,-33.878578,518.16 18.399067,-33.879601,541.02 18.397179,-33.880299,541.02 18.39386,-33.881744,571.5 18.391743,-33.882767,579.12 18.388824,-33.884304,594.36 18.386765,-33.885422,609.6 18.383789,-33.887142,632.46 18.38209,-33.888153,647.7 18.379383,-33.889889,655.32 18.37738,-33.891174,670.56 18.374634,-33.893051,678.18 18.372746,-33.89436,685.8 18.369701,-33.89653,701.04 18.367851,-33.897949,716.28 18.365192,-33.900364,723.9 18.36376,-33.901932,731.52 18.361742,-33.904495,739.14 18.360329,-33.906464,731.52 18.358435,-33.909393,723.9 18.35701,-33.911674,716.28 18.35524,-33.914749,716.28 18.353895,-33.91713,716.28 18.352261,-33.920147,716.28 18.351259,-33.922119,716.28 18.348598,-33.927551,723.9 18.345337,-33.934532,739.14 18.340946,-33.945145,723.9 18.339844,-33.948452,723.9 18.338757,-33.952175,723.9 18.338087,-33.954575,723.9 18.337269,-33.958275,723.9 18.336855,-33.960571,723.9 18.334122,-33.969635,739.14 18.331024,-33.975037,739.14 18.327438,-33.983597,739.14 18.326168,-33.98737,746.76 18.325024,-33.991142,739.14 18.324411,-33.993393,739.14 18.322784,-33.998108,746.76 18.321934,-34.000172,739.14 18.320503,-34.003662,739.14 18.319702,-34.005711,739.14 18.318214,-34.009251,746.76 18.317184,-34.011482,754.38 18.315411,-34.015068,754.38 18.314322,-34.017242,754.38 18.312836,-34.02042,754.38 18.310661,-34.025169,762 18.308144,-34.031456,800.1 18.307426,-34.033722,807.72 18.306643,-34.036697,861.06 18.306656,-34.038391,914.4 18.307707,-34.039444,982.98 18.308716,-34.039089,990.6 18.310005,-34.037384,990.6 18.310947,-34.035831,990.6 18.312263,-34.033642,998.22 18.3132,-34.032211,998.22 18.314713,-34.029877,975.36 18.316114,-34.027725,952.5 18.317909,-34.025024,929.64 18.319366,-34.022781,914.4 18.326317,-34.011887,868.68 18.329006,-34.007126,853.44 18.330803,-34.003803,838.2 18.333435,-33.998703,822.96 18.337975,-33.990967,800.1 18.339882,-33.988586,784.86 18.344536,-33.983368,777.24 18.351091,-33.974899,754.38 18.35709,-33.965195,716.28 18.358326,-33.957623,693.42 18.358267,-33.953796,685.8 18.358099,-33.951096,678.18 18.357929,-33.947433,670.56 18.357874,-33.945007,662.94 18.357868,-33.941471,647.7 18.35821,-33.938599,640.08 18.358898,-33.934998,632.46 18.359724,-33.932419,624.84 18.361073,-33.928993,609.6 18.36219,-33.926697,594.36 18.363934,-33.923824,541.02 18.365822,-33.921219,586.74 18.368244,-33.918182,579.12 18.370056,-33.916004,571.5 18.372561,-33.91301,563.88 18.374298,-33.910995,556.26 18.378445,-33.906281,541.02 18.381416,-33.903305,548.64 18.384163,-33.900879,472.44 18.386293,-33.899185,541.02 18.389431,-33.896988,533.4 18.391674,-33.895432,480.06 18.394869,-33.893463,472.44 18.39735,-33.892033,518.16 18.401146,-33.889984,464.82 18.403416,-33.888866,457.2 18.4072,-33.8871,495.3 18.409891,-33.885956,434.34 18.41423,-33.884209,457.2 18.416954,-33.883347,449.58 18.42207,-33.882767,426.72 18.425081,-33.883163,403.86 18.429398,-33.88472,381 18.432367,-33.886322,365.76 18.435745,-33.888493,358.14 18.438141,-33.890167,350.52 18.440945,-33.892227,327.66 18.442841,-33.893753,312.42 18.445036,-33.89621,274.32 18.445709,-33.897812,259.08 18.444958,-33.900364,228.6 18.442905,-33.90152,205.74 18.439768,-33.901108,198.12 18.437918,-33.899689,182.88 18.435745,-33.897991,160.02 18.433937,-33.897629,137.16 18.432083,-33.898174,91.44 18.431396,-33.899155,60.96 18.431023,-33.90033,30.48 18.430294,-33.900879,15.24 18.429279,-33.900738,0 18.428307,-33.900455,0 18.427563,-33.900738,0 18.427391,-33.899899,0 18.427828,-33.898636,0 18.428307,-33.89785,7.62 18.429005,-33.896942,22.86 18.429453,-33.896301,30.48 18.430481,-33.89473,53.34 18.431339,-33.893242,76.2 18.432312,-33.891357,106.68 18.433153,-33.889709,129.54 18.434217,-33.887375,160.02 18.43483,-33.885979,182.88 18.435574,-33.883839,213.36 18.4359,-33.882202,243.84 18.435917,-33.879742,281.94 18.435284,-33.878082,297.18 18.433266,-33.876343,320.04 18.43119,-33.875565,342.9 18.428249,-33.875225,381 18.426483,-33.875198,396.24 18.423679,-33.875381,426.72 18.421551,-33.87561,457.2 18.419083,-33.876068,495.3 18.417177,-33.87648,518.16 18.414207,-33.877213,548.64 18.41275,-33.877625,563.88 18.409498,-33.87854,571.5 18.407707,-33.879044,586.74 18.404503,-33.880066,609.6 18.402603,-33.880692,617.22 18.399467,-33.881836,632.46 18.397335,-33.882706,640.08 18.393974,-33.884117,647.7 18.391743,-33.885048,662.94 18.388422,-33.886368,678.18 18.386021,-33.887329,685.8 18.382761,-33.888702,701.04 18.380356,-33.889843,708.66 18.377155,-33.891449,723.9 18.374977,-33.892681,731.52 18.371943,-33.894562,739.14 18.369814,-33.896027,746.76 18.366795,-33.898457,762 18.365385,-33.899734,769.62 18.362446,-33.902645,762 18.360397,-33.904724,746.76 18.357761,-33.907516,746.76 18.356152,-33.909348,739.14 18.353502,-33.912415,739.14 18.351803,-33.914097,739.14 18.348255,-33.91703,746.76 18.346767,-33.918892,762 18.346024,-33.922012,807.72 18.346481,-33.923779,845.82 18.348484,-33.925549,906.78 18.349859,-33.925873,944.88 18.351765,-33.925095,1013.46 18.352997,-33.924454,1036.32 18.354959,-33.923447,1059.18 18.356552,-33.922943,1082.04 18.359013,-33.923965,1066.8 18.359556,-33.925781,1059.18 18.359163,-33.929169,1043.94 18.358841,-33.931599,1028.7 18.358267,-33.935349,1021.08 18.357874,-33.937958,1021.08 18.357353,-33.941238,1021.08 18.357426,-33.943634,1021.08 18.358669,-33.947197,1013.46 18.360004,-33.949219,1021.08 18.361473,-33.952503,1021.08 18.361645,-33.954876,1028.7 18.360958,-33.958786,1028.7 18.360443,-33.96088,1028.7 18.359388,-33.964783,1036.32 18.359051,-33.967072,1043.94 18.359331,-33.970596,1059.18 18.359756,-33.972984,1074.42 18.359642,-33.976475,1082.04 18.358828,-33.978882,1082.04 18.356417,-33.981766,1074.42 18.354263,-33.983368,1059.18 18.350588,-33.985748,1043.94 18.347912,-33.987461,1043.94 18.344254,-33.989914,1036.32 18.341955,-33.99147,1036.32 18.339043,-33.993748,1036.32 18.336742,-33.995865,1028.7 18.33366,-33.998978,1028.7 18.331753,-34.001083,1021.08 18.329006,-34.004425,1013.46 18.327427,-34.006454,1013.46 18.325882,-34.009903,1005.84 18.325596,-34.012554,998.22 18.32654,-34.016144,990.6 18.327942,-34.018093,975.36 18.330975,-34.02042,967.74 18.333263,-34.02182,967.74 18.336407,-34.02388,967.74 18.338585,-34.025589,967.74 18.341446,-34.028244,967.74 18.343449,-34.030293,967.74 18.345711,-34.033173,967.74 18.346996,-34.035133,967.74 18.348906,-34.038712,967.74 18.349802,-34.041092,967.74 18.350756,-34.044617,967.74 18.351259,-34.04718,960.12 18.351803,-34.050774,960.12 18.352045,-34.053268,952.5 18.352549,-34.057159,952.5 18.352774,-34.059677,960.12 18.353348,-34.063484,975.36 18.354149,-34.065765,982.98 18.356136,-34.068695,982.98 18.357868,-34.070465,982.98 18.360565,-34.073044,982.98 18.36219,-34.074646,982.98 18.364769,-34.07753,990.6 18.366222,-34.079449,990.6 18.368412,-34.082886,990.6 18.369421,-34.085083,990.6 18.371029,-34.087971,990.6 18.372952,-34.089935,998.22 18.375378,-34.092857,998.22 18.375835,-34.09528,990.6 18.375082,-34.098724,982.98 18.374466,-34.101196,982.98 18.37429,-34.10482,975.36 18.375195,-34.107239,967.74 18.377495,-34.109848,960.12 18.379955,-34.111526,952.5 18.384218,-34.113602,914.4 18.38665,-34.114552,899.16 18.391001,-34.116119,868.68 18.394089,-34.117157,853.44 18.398232,-34.118683,822.96 18.40147,-34.119812,807.72 18.40591,-34.121429,777.24 18.411236,-34.123398,746.76 18.415159,-34.124725,739.14 18.417906,-34.125595,723.9 18.421955,-34.12698,708.66 18.424187,-34.127819,701.04 18.428108,-34.129257,685.8 18.430538,-34.130146,678.18 18.434946,-34.131546,647.7 18.437519,-34.132332,640.08 18.441561,-34.133011,632.46 18.444157,-34.13303,624.84 18.448175,-34.132233,617.22 18.450417,-34.131271,609.6 18.453941,-34.129074,601.98 18.45623,-34.127399,594.36 18.459274,-34.125046,594.36 18.461437,-34.123302,586.74 18.464262,-34.120743,579.12 18.466335,-34.118729,556.26 18.468859,-34.115982,563.88 18.47065,-34.113945,563.88 18.472996,-34.110874,556.26 18.474426,-34.108452,556.26 18.475809,-34.104721,556.26 18.47637,-34.102341,548.64 18.476986,-34.098495,541.02 18.477266,-34.095795,541.02 18.477434,-34.092178,548.64 18.477602,-34.089523,548.64 18.477402,-34.085594,548.64 18.476658,-34.083221,548.64 18.474998,-34.079914,548.64 18.473854,-34.077496,548.64 18.472221,-34.073959,556.26 18.471045,-34.071533,563.88 18.469082,-34.068008,563.88 18.467617,-34.065578,571.5 18.465271,-34.062321,579.12 18.463421,-34.060043,594.36 18.460562,-34.057114,624.84 18.459723,-34.054413,609.6 18.460506,-34.050751,594.36 18.461037,-34.048401,586.74 18.461683,-34.044617,586.74 18.462067,-34.042114,594.36 18.462524,-34.038437,601.98 18.46241,-34.03611,601.98 18.461403,-34.032623,601.98 18.460394,-34.030197,609.6 18.459034,-34.026848,609.6 18.45804,-34.024612,617.22 18.456415,-34.021454,632.46 18.455294,-34.019531,640.08 18.453388,-34.016327,655.32 18.452099,-34.013855,662.94 18.450966,-34.010693,662.94 18.450623,-34.00832,662.94 18.450922,-34.004745,655.32 18.451481,-34.00222,655.32 18.452454,-33.998356,655.32 18.452827,-33.996048,655.32 18.453836,-33.99202,647.7 18.455238,-33.989822,655.32 18.458321,-33.986984,624.84 18.460674,-33.985336,617.22 18.464127,-33.982807,586.74 18.466448,-33.981079,563.88 18.469791,-33.978107,541.02 18.471941,-33.975677,510.54 18.474312,-33.972149,480.06 18.475809,-33.969818,449.58 18.478203,-33.965862,419.1 18.479677,-33.963135,403.86 18.48175,-33.958969,396.24 18.48278,-33.956551,381 18.484154,-33.952316,358.14 18.484955,-33.949615,342.9 18.48587,-33.94524,327.66 18.485899,-33.94249,312.42 18.484955,-33.938442,289.56 18.483753,-33.936161,274.32 18.481415,-33.932739,266.7 18.479229,-33.930313,259.08 18.475864,-33.927658,251.46 18.473568,-33.926014,251.46 18.470371,-33.923538,251.46 18.468418,-33.92094,243.84 18.466953,-33.917679,251.46 18.465958,-33.91526,259.08 18.463554,-33.911861,251.46 18.461494,-33.91,259.08 18.458265,-33.90715,266.7 18.456173,-33.905205,266.7 18.453331,-33.902069,259.08 18.451939,-33.900318,251.46 18.448906,-33.896732,243.84 18.446903,-33.894497,243.84 18.443241,-33.89259,251.46 18.441168,-33.893005,243.84 18.439768,-33.895294,205.74 18.439878,-33.896805,190.5 18.439522,-33.898872,175.26 18.43832,-33.899853,160.02 18.43618,-33.900055,144.78 18.434715,-33.899666,121.92 18.432985,-33.899094,83.82 18.431454,-33.899105,53.34 18.429966,-33.89962,22.86 18.429279,-33.899853,15.24 18.42794,-33.900192,0 18.427715,-33.90065,0 18.427963,-33.900829,15.24 18.428837,-33.90097,15.24 18.429621,-33.90097,30.48 18.430182,-33.90097,38.1 18.431808,-33.900787,68.58 18.433056,-33.900597,91.44 18.434778,-33.900238,114.3 18.436203,-33.899853,137.16 18.43792,-33.899292,167.64 18.439007,-33.899059,182.88 18.44038,-33.897896,205.74 18.441055,-33.89621,220.98 18.441168,-33.893326,236.22 18.440666,-33.891052,251.46 18.439121,-33.887703,259.08 18.437357,-33.885498,281.94 18.434443,-33.883072,304.8 18.432369,-33.881927,320.04 18.428993,-33.880531,350.52 18.426706,-33.879822,358.14 18.422871,-33.878998,388.62 18.420467,-33.878624,403.86 18.417067,-33.878311,426.72 18.414656,-33.87822,441.96 18.411369,-33.878345,457.2 18.408995,-33.878586,472.44 18.405876,-33.879135,480.06 18.403645,-33.879601,480.06 18.400082,-33.880508,495.3 18.397923,-33.881046,510.54 18.394814,-33.881882,533.4 18.392487,-33.88258,548.64 18.389376,-33.883713,556.26 18.387337,-33.884583,563.88 18.384361,-33.885933,579.12 18.382313,-33.886871,586.74 18.379566,-33.888336,594.36 18.377605,-33.889435,617.22 18.375195,-33.890991,624.84 18.373457,-33.892181,632.46 18.370823,-33.894058,647.7 18.369427,-33.895195,655.32 18.367235,-33.897125,662.94 18.365721,-33.898636,678.18 18.36359,-33.900875,693.42 18.362246,-33.902298,708.66 18.360329,-33.904552,716.28 18.359051,-33.906006,731.52 18.35701,-33.908745,754.38 18.355856,-33.910538,762 18.354378,-33.91312,784.86 18.353558,-33.914658,792.48 18.3521,-33.917358,792.48 18.351091,-33.919098,800.1 18.349628,-33.921543,807.72 18.348541,-33.923267,815.34 18.347111,-33.925781,845.82 18.346607,-33.927521,861.06 18.347054,-33.929878,883.92 18.348289,-33.931046,899.16 18.350601,-33.931461,922.02 18.352213,-33.930817,944.88 18.353502,-33.929398,967.74 18.354286,-33.928482,990.6 18.35552,-33.9272,1028.7 18.356438,-33.926434,1051.56 18.357925,-33.925594,1051.56 18.359331,-33.925278,1059.18 18.361588,-33.92564,1066.8 18.363018,-33.926804,1059.18 18.363647,-33.929443,1036.32 18.36319,-33.931461,1028.7 18.362331,-33.934441,1028.7 18.361517,-33.936768,1043.94 18.36034,-33.939743,1051.56 18.35947,-33.941841,1051.56 18.358042,-33.94519,1066.8 18.357239,-33.947243,1074.42 18.356192,-33.950272,1074.42 18.355522,-33.952316,1074.42 18.354399,-33.955582,1074.42 18.35339,-33.958969,1066.8 18.351974,-33.96349,1059.18 18.351116,-33.965443,1059.18 18.349466,-33.968857,990.6 18.348402,-33.970871,990.6 18.346607,-33.974258,1043.94 18.345486,-33.976456,975.36 18.343805,-33.979797,944.88 18.342796,-33.98172,1028.7 18.341045,-33.984997,1028.7 18.339958,-33.986858,1028.7 18.337807,-33.99028,1021.08 18.336525,-33.992352,1021.08 18.334389,-33.995499,1013.46 18.332806,-33.997658,1013.46 18.330463,-34.0009,1013.46 18.329119,-34.002914,1013.46 18.327269,-34.005981,1028.7 18.326225,-34.008087,1036.32 18.325195,-34.011482,1028.7 18.324966,-34.013348,1028.7 18.325531,-34.016602,1028.7 18.326626,-34.018608,1021.08 18.329063,-34.021133,1013.46 18.33086,-34.022518,1013.46 18.333715,-34.024704,1005.84 18.33534,-34.026031,1005.84 18.337919,-34.028229,1005.84 18.339544,-34.029739,998.22 18.34145,-34.031891,1005.84 18.342533,-34.03355,1013.46 18.344021,-34.036064,1021.08 18.345222,-34.037926,1021.08 18.346888,-34.040634,1021.08 18.347672,-34.042282,1028.7 18.348656,-34.045002,1021.08 18.349073,-34.047043,1013.46 18.349628,-34.049984,1005.84 18.349915,-34.052078,1013.46 18.350418,-34.054962,1036.32 18.350716,-34.056873,1059.18 18.351173,-34.059341,1082.04 18.351652,-34.061371,1097.28 18.352606,-34.064255,1120.14 18.353519,-34.06609,1135.38 18.355295,-34.068924,1143 18.356495,-34.070652,1143 18.358267,-34.073044,1135.38 18.359612,-34.074875,1127.76 18.361574,-34.077576,1112.52 18.362919,-34.079361,1097.28 18.364712,-34.081741,1066.8 18.369644,-34.088196,990.6 18.374746,-34.094467,967.74 18.376484,-34.096573,960.12 18.378811,-34.099422,952.5 18.38007,-34.101143,952.5 18.382187,-34.104076,944.88 18.383446,-34.105705,944.88 18.385792,-34.108032,922.02 18.387566,-34.109478,914.4 18.390255,-34.11134,891.54 18.39229,-34.112549,883.92 18.396492,-34.114971,861.06 18.398781,-34.116318,853.44 18.401932,-34.118179,845.82 18.404118,-34.119415,838.2 18.407312,-34.12088,815.34 18.409481,-34.121861,800.1 18.412914,-34.123394,762 18.415329,-34.124588,739.14 18.419037,-34.126423,708.66 18.423157,-34.128422,670.56 18.427828,-34.130356,647.7 18.430481,-34.131264,632.46 18.433914,-34.132195,624.84 18.43646,-34.132782,609.6 18.440496,-34.133423,601.98 18.44347,-34.133499,586.74 18.447132,-34.132893,586.74 18.44952,-34.132095,586.74 18.452267,-34.13063,586.74 18.454456,-34.129074,579.12 18.457144,-34.126923,579.12 18.459263,-34.125118,571.5 18.461851,-34.122711,556.26 18.463814,-34.120926,548.64 18.466448,-34.118362,548.64 18.468073,-34.116577,548.64 18.470148,-34.113739,556.26 18.47138,-34.111633,563.88 18.473063,-34.108337,579.12 18.473911,-34.106358,571.5 18.474855,-34.103165,579.12 18.475113,-34.101006,586.74 18.475113,-34.097233,579.12 18.474913,-34.094604,594.36 18.474426,-34.091087,586.74 18.474072,-34.088791,579.12 18.473454,-34.085224,571.5 18.47295,-34.082474,571.5 18.472538,-34.078751,571.5 18.472446,-34.076523,579.12 18.472366,-34.072979,571.5 18.472389,-34.070801,571.5 18.472424,-34.067066,571.5 18.472446,-34.064529,571.5 18.472366,-34.061016,563.88 18.472366,-34.058594,563.88 18.472277,-34.054871,571.5 18.472195,-34.052402,571.5 18.471828,-34.040955,563.88 18.471886,-34.0383,571.5 18.471851,-34.03355,579.12 18.471828,-34.031021,586.74 18.471966,-34.027405,594.36 18.47208,-34.024799,601.98 18.472277,-34.0215,609.6 18.472557,-34.01857,617.22 18.472939,-34.014927,624.84 18.473175,-34.012573,624.84 18.473791,-34.005936,617.22 18.474655,-33.996727,594.36 18.475697,-33.983917,502.92 18.476372,-33.976429,457.2 18.477001,-33.97266,434.34 18.477659,-33.96991,426.72 18.479004,-33.965469,426.72 18.4799,-33.96286,426.72 18.481293,-33.959297,411.48 18.482424,-33.956589,411.48 18.484104,-33.95256,403.86 18.484945,-33.950226,396.24 18.485756,-33.945847,373.38 18.48587,-33.943283,365.76 18.485241,-33.938957,365.76 18.484442,-33.936127,358.14 18.483009,-33.932346,350.52 18.481636,-33.9296,350.52 18.479462,-33.926105,342.9 18.477287,-33.923592,327.66 18.473286,-33.919968,304.8 18.470484,-33.917862,297.18 18.466505,-33.915161,289.56 18.463701,-33.913239,289.56 18.460114,-33.9104,274.32 18.457872,-33.90834,274.32 18.45451,-33.904907,266.7 18.452099,-33.90239,274.32 18.448849,-33.898968,205.74 18.446606,-33.896393,266.7 18.443527,-33.892776,259.08 18.441561,-33.890442,259.08 18.438091,-33.886955,259.08 18.435345,-33.885422,251.46 18.430882,-33.885326,228.6 18.428764,-33.886677,205.74 18.42738,-33.889297,182.88 18.427547,-33.890945,167.64 18.428221,-33.89296,144.78 18.428593,-33.894218,129.54 18.428993,-33.89566,114.3 18.429173,-33.896576,106.68 18.429108,-33.897617,83.82 18.428724,-33.898361,68.58 18.427773,-33.899231,30.48 18.427267,-33.89978,22.86 18.426931,-33.900558,7.62
        </coordinates>
      </LineString>
    </Placemark>
  </Document>
</kml>