<?xml version="1.0" encoding="UTF-8"?>
<kml xmlns="http://www.opengis.net/kml/2.2">
  <Document>
    <name>-/ZTHOT - Optimised</name>
    <description><![CDATA[Optimised flight path with 1142 points (decimated from 5706 original points). Source format: Standard KML]]></description>
    
    <Style id="flightPath">
      <LineStyle>
        <color>ffff0000</color>
        <width>3</width>
      </LineStyle>
    </Style>
    
    <Placemark>
      <name>Flight Path</name>
      <description><![CDATA[<div style="width:220px; text-align:center;">
<div style="width:210px; text-align:center;">
<div style=" background: #000; color: #fff; font-size: 14px; text-align:left; border: 1px solid #000; padding: 2px 6px; text-shadow: 0 1px 0 #000; box-shadow: 0 1px 3px rgba(0,0,0,0.6); background: -webkit-gradient(linear, left top, left bottom, color-stop(0%,#808080), color-stop(2%,#303030), color-stop(100%,#0c0c0c));"><span style="font-size: 14px; font-weight: bold;"><a href="javascript:void(0);" style="color: #fff; cursor: pointer;text-decoration: none;">-</a></span> / ZTHOT<br/>Cape Town Helicopters</div>

<div style="border-top: 1px solid #005c90; color: #fff; padding-bottom: 5px; box-shadow: 0 0 1px #9BE3F6 inset, 0 1px 0 #9BE3F6 inset, 0 -1px 3px rgba(0,0,0,0.4); background:rgba(43,114,173,1); background: -webkit-gradient(linear, left top, left bottom, color-stop(0%,rgba(92,184,229,1)), color-stop(100%,rgba(43,114,173,1)));">
<a style="text-decoration: none; color: rgb(255, 255, 255); font-size: 12px; width:77px; display: inline-block;" title=" Airport" href="javascript:void(0);/departures"><h3 style="padding: 0px; margin: 10px 0px 0px; font-size: 16px; ">?</h3></a>
<span style="background: url(https://www.flightradar24.com/static/images/userUI_sprite.png?14) no-repeat scroll 0 -464px rgba(0, 0, 0, 0); border: medium none; display: inline-block; height: 16px; width: 45px;"></span>
<a style="text-decoration: none; color: rgb(255, 255, 255); font-size: 12px; width:77px; display: inline-block;" title=" Airport" href="javascript:void(0);/arrivals"><h3 style="padding: 0px; margin: 10px 0px 0px; font-size: 16px;">?</h3></a>
<div style=" margin-top:10px;">
<div style="display: inline-block; font-size: 12px; padding: 0 5px;">
<div>
<span style="color: #c1eaff;" title="Actual Time of Departure">ATD </span>
<span title="2025-03-29 14:53">14:53</span> <span title="Coordinated Universal Time">UTC</span>
</div>
</div>
<div style="display: inline-block; font-size: 12px; padding: 0 5px;">
<div>
<span style="color: #c1eaff;" title="Estimated Time of Arrival">ETA </span>
<span title="2025-03-29 15:10">15:10</span> <span title="Coordinated Universal Time">UTC</span>
</div>
</div>
</div>
<br style="clear: both;"/>
</div>

<div style="display: block;">
<table style="border-collapse: collapse; width: 100%;">
<tr style="border-right: 1px solid #dadada; ">
<td style="background: none repeat scroll 0 0 #dadada; padding: 0; width: 31px;">
<span style="background: url(https://www.flightradar24.com/static/images/userUI_sprite.png?14) no-repeat scroll -208px -464px rgba(0, 0, 0, 0); height: 26px; margin: 8px 0 0 4px; width: 23px; display: block;"></span>
</td>
<td colspan="2" style="border-bottom: 1px solid #dadada; border-left: 1px solid #dadada; color: #666; line-height: 1.1em; padding: 3px 6px; vertical-align: top; font-size: 14px;">
Aircraft<span style="float: right; font-size: 12px;">(AS50)</span><br>
<span style="color: #333; font-size: 16px; font-weight: bold; line-height: 1.3em;">Airbus Helicopters H125</span>
</td>
</tr>
<tr style="border-right: 1px solid #dadada; ">
<td style="background: none repeat scroll 0 0 #dadada; padding: 0; width: 31px;">
<td colspan="2" style="border-bottom: 1px solid #dadada; border-left: 1px solid #dadada; color: #666; line-height: 1.1em; padding: 3px 6px; vertical-align: top; font-size: 14px;">
Registration<br>
<span style="color: #333; font-size: 16px; font-weight: bold; line-height: 1.3em;"><a href="https://www.flightradar24.com/reg/zt-hot" style="text-decoration: none; color: #333;">ZT-HOT</a></span>
</td>
</tr>
</table>
</div>

</div>
</div>]]></description>
      <styleUrl>#flightPath</styleUrl>
      <LineString>
        <extrude>1</extrude>
        <tessellate>1</tessellate>
        <altitudeMode>absolute</altitudeMode>
        <coordinates>
          18.429165,-33.897896,60.96 18.433857,-33.889423,121.92 18.436832,-33.883327,152.4 18.438927,-33.878586,182.88 18.441393,-33.872818,182.88 18.4445,-33.864983,213.36 18.445204,-33.86293,213.36 18.446774,-33.857895,243.84 18.44862,-33.851997,243.84 18.451939,-33.841011,213.36 18.453781,-33.834549,243.84 18.455797,-33.824387,243.84 18.456059,-33.822109,243.84 18.456583,-33.816833,274.32 18.456917,-33.812847,274.32 18.457087,-33.804245,274.32 18.456976,-33.80127,274.32 18.456802,-33.790081,274.32 18.456802,-33.781982,274.32 18.456974,-33.771599,274.32 18.456806,-33.765152,274.32 18.456696,-33.752426,304.8 18.456745,-33.743809,304.8 18.457203,-33.733521,304.8 18.457432,-33.72607,304.8 18.458096,-33.711502,304.8 18.458462,-33.70433,304.8 18.458881,-33.692871,304.8 18.459206,-33.685387,304.8 18.459263,-33.676865,304.8 18.459091,-33.674633,304.8 18.458769,-33.671585,304.8 18.458488,-33.669708,304.8 18.457947,-33.666763,304.8 18.457199,-33.664169,304.8 18.456135,-33.661194,304.8 18.455294,-33.659134,304.8 18.45417,-33.656525,304.8 18.453331,-33.654648,304.8 18.451939,-33.651588,304.8 18.450851,-33.649353,304.8 18.447166,-33.641647,304.8 18.443813,-33.635296,335.28 18.440952,-33.630173,335.28 18.43803,-33.62558,335.28 18.435843,-33.622833,335.28 18.434372,-33.621235,335.28 18.431969,-33.618629,335.28 18.430574,-33.617157,335.28 18.428135,-33.614532,335.28 18.425217,-33.611507,365.76 18.41732,-33.60294,335.28 18.412113,-33.597168,335.28 18.404617,-33.588276,335.28 18.399578,-33.582184,335.28 18.392963,-33.574081,335.28 18.388254,-33.568451,335.28 18.380911,-33.559708,304.8 18.376122,-33.554203,304.8 18.368692,-33.54538,304.8 18.364141,-33.53952,304.8 18.357481,-33.531063,335.28 18.351727,-33.523865,335.28 18.344421,-33.515423,365.76 18.342909,-33.513885,365.76 18.339367,-33.510635,365.76 18.337639,-33.508999,365.76 18.333546,-33.505508,365.76 18.330072,-33.502575,365.76 18.320526,-33.493927,335.28 18.314938,-33.488468,335.28 18.307398,-33.481201,335.28 18.302235,-33.475845,335.28 18.295151,-33.468079,335.28 18.290094,-33.462433,365.76 18.282238,-33.453918,365.76 18.275537,-33.447052,335.28 18.1891,-33.381306,274.32 18.182093,-33.377537,274.32 18.170433,-33.370831,274.32 18.168476,-33.369507,274.32 18.166061,-33.36734,274.32 18.164684,-33.365662,274.32 18.163258,-33.362366,274.32 18.162979,-33.360172,274.32 18.162928,-33.356873,274.32 18.162979,-33.354912,274.32 18.163147,-33.3517,304.8 18.163258,-33.349731,304.8 18.163366,-33.346436,304.8 18.163202,-33.340073,304.8 18.16419,-33.290131,365.76 18.164684,-33.28299,365.76 18.16507,-33.271454,396.24 18.165014,-33.264542,396.24 18.164772,-33.254032,365.76 18.164576,-33.247467,365.76 18.164135,-33.239502,396.24 18.163477,-33.233093,396.24 18.162025,-33.221027,396.24 18.161242,-33.214603,396.24 18.159952,-33.209435,365.76 18.159191,-33.207458,365.76 18.157879,-33.204453,365.76 18.156885,-33.202469,365.76 18.155182,-33.199127,365.76 18.154083,-33.197205,365.76 18.152546,-33.194366,365.76 18.149908,-33.18956,365.76 18.144537,-33.180527,365.76 18.141064,-33.174774,396.24 18.135178,-33.165352,365.76 18.130917,-33.158833,365.76 18.125368,-33.14994,365.76 18.121288,-33.143051,335.28 18.114605,-33.133274,365.76 18.111401,-33.129135,365.76 18.103956,-33.12001,396.24 18.099756,-33.114944,396.24 18.092615,-33.106796,396.24 18.088093,-33.101574,396.24 18.078676,-33.091377,396.24 18.073938,-33.086746,365.76 18.066568,-33.080067,365.76 18.061579,-33.075504,365.76 18.053448,-33.067886,335.28 18.04812,-33.062485,304.8 18.04076,-33.05484,304.8 18.036091,-33.049805,274.32 18.029278,-33.042526,274.32 18.023127,-33.036118,213.36 18.015448,-33.028301,213.36 18.009674,-33.022945,213.36 18.003956,-33.017944,182.88 17.998352,-33.013172,182.88 17.989782,-33.006226,121.92 17.967411,-33.026997,182.88 17.965118,-33.031128,182.88 17.962097,-33.036026,213.36 17.960064,-33.039322,213.36 17.957264,-33.044083,213.36 17.950876,-33.055534,243.84 17.948353,-33.060516,213.36 17.946991,-33.063766,213.36 17.946003,-33.066238,243.84 17.944464,-33.070084,243.84 17.943588,-33.072479,213.36 17.942211,-33.076447,213.36 17.940235,-33.082855,213.36 17.94314,-33.122383,243.84 17.95188,-33.132706,274.32 17.977781,-33.152084,274.32 17.988079,-33.156967,274.32 18.313694,-33.57082,30.48 18.318413,-33.573715,30.48 18.326149,-33.574356,30.48 18.3288,-33.573288,60.96 18.332762,-33.572388,60.96 18.335667,-33.572311,60.96 18.340218,-33.572937,60.96 18.343019,-33.573303,60.96 18.347168,-33.573898,91.44 18.350029,-33.57436,91.44 18.354624,-33.57518,91.44 18.357754,-33.575943,121.92 18.362806,-33.577377,121.92 18.36565,-33.57822,121.92 18.369713,-33.579433,121.92 18.372803,-33.580456,121.92 18.37682,-33.581818,152.4 18.381361,-33.583511,152.4 18.390541,-33.586975,182.88 18.394701,-33.588776,182.88 18.401426,-33.592026,182.88 18.404005,-33.593582,182.88 18.40748,-33.596329,182.88 18.409424,-33.598427,182.88 18.412113,-33.601917,182.88 18.413887,-33.604012,182.88 18.416674,-33.607086,182.88 18.421154,-33.611134,182.88 18.425217,-33.614346,152.4 18.427334,-33.616116,152.4 18.430996,-33.619236,152.4 18.436089,-33.623936,152.4 18.438606,-33.627193,152.4 18.439865,-33.629475,152.4 18.441811,-33.633293,182.88 18.443127,-33.635853,182.88 18.444811,-33.639267,182.88 18.446045,-33.64172,182.88 18.451258,-33.651718,182.88 18.455294,-33.660187,182.88 18.457199,-33.665726,182.88 18.457603,-33.668346,182.88 18.45789,-33.672585,152.4 18.457985,-33.67511,182.88 18.458176,-33.679008,182.88 18.458321,-33.681976,182.88 18.459034,-33.691715,182.88 18.460058,-33.700562,182.88 18.461437,-33.71262,182.88 18.462467,-33.726536,213.36 18.46344,-33.746181,213.36 18.463253,-33.749176,213.36 18.462412,-33.758148,213.36 18.46241,-33.769226,213.36 18.462299,-33.773987,213.36 18.462076,-33.78035,213.36 18.461437,-33.794922,243.84 18.460636,-33.804092,213.36 18.459034,-33.815544,213.36 18.458265,-33.819855,182.88 18.453369,-33.84045,152.4 18.450623,-33.849808,152.4 18.446829,-33.863983,152.4 18.444756,-33.873413,152.4 18.441811,-33.886539,152.4 18.440151,-33.895382,152.4 18.438148,-33.897896,152.4 18.43626,-33.898735,121.92 18.433456,-33.899292,91.44 18.431969,-33.89957,91.44 18.428478,-33.900455,30.48 18.42766,-33.900696,30.48 18.428108,-33.899185,30.48 18.428444,-33.898407,30.48 18.430653,-33.891472,121.92 18.430967,-33.889709,121.92 18.43119,-33.887054,152.4 18.430824,-33.885468,182.88 18.42923,-33.883118,182.88 18.427563,-33.882023,213.36 18.42396,-33.880875,213.36 18.421774,-33.880646,213.36 18.417402,-33.881012,243.84 18.414917,-33.881416,274.32 18.41118,-33.882294,274.32 18.408623,-33.882999,304.8 18.404732,-33.884304,304.8 18.402493,-33.885132,335.28 18.398569,-33.88678,335.28 18.396492,-33.88784,365.76 18.392851,-33.889938,396.24 18.390497,-33.891449,396.24 18.38728,-33.893612,426.72 18.385277,-33.895058,426.72 18.38209,-33.897491,426.72 18.380014,-33.899139,457.2 18.37698,-33.901852,457.2 18.37525,-33.903442,457.2 18.372345,-33.906368,487.68 18.370628,-33.90823,487.68 18.367882,-33.911629,518.16 18.366337,-33.913818,518.16 18.364489,-33.916809,548.64 18.363075,-33.919216,548.64 18.361126,-33.922714,548.64 18.360043,-33.924664,579.12 18.358383,-33.927971,579.12 18.357182,-33.930485,579.12 18.355688,-33.933746,579.12 18.353977,-33.937607,579.12 18.351402,-33.944031,579.12 18.348484,-33.951942,548.64 18.351316,-33.963867,548.64 18.355751,-33.960232,518.16 18.357706,-33.953888,518.16 18.358154,-33.951645,518.16 18.358727,-33.94836,518.16 18.359127,-33.946171,518.16 18.359756,-33.942772,518.16 18.361244,-33.936954,518.16 18.36219,-33.934204,518.16 18.362904,-33.932438,518.16 18.364391,-33.929226,518.16 18.365421,-33.927177,518.16 18.367081,-33.924057,518.16 18.368168,-33.92215,518.16 18.369982,-33.919006,518.16 18.371143,-33.917168,518.16 18.373089,-33.91433,487.68 18.374519,-33.912327,487.68 18.376764,-33.909485,487.68 18.378334,-33.907654,487.68 18.3808,-33.90509,487.68 18.382425,-33.903442,487.68 18.385004,-33.901016,487.68 18.386909,-33.899323,487.68 18.389797,-33.897011,487.68 18.391787,-33.895569,487.68 18.395037,-33.893509,487.68 18.397694,-33.892033,487.68 18.401585,-33.890217,457.2 18.404102,-33.889191,457.2 18.407936,-33.88784,457.2 18.411068,-33.886917,457.2 18.41544,-33.88591,426.72 18.418299,-33.885406,426.72 18.422585,-33.884907,426.72 18.42581,-33.884674,426.72 18.429901,-33.884628,396.24 18.432999,-33.884861,365.76 18.437132,-33.885681,335.28 18.439598,-33.886642,335.28 18.44257,-33.888702,304.8 18.444157,-33.890633,274.32 18.444643,-33.893692,274.32 18.444027,-33.89502,243.84 18.441582,-33.896732,213.36 18.439808,-33.897339,182.88 18.437347,-33.898083,152.4 18.435507,-33.89859,121.92 18.432598,-33.8992,91.44 18.431303,-33.899506,60.96 18.427773,-33.90065,30.48 18.427267,-33.90097,30.48 18.427048,-33.90041,30.48 18.42738,-33.899689,30.48 18.427773,-33.898956,30.48 18.428364,-33.897758,60.96 18.429451,-33.89571,91.44 18.430294,-33.894196,121.92 18.431303,-33.892136,152.4 18.432199,-33.889801,152.4 18.432705,-33.886963,182.88 18.432426,-33.885139,182.88 18.431168,-33.882534,213.36 18.429958,-33.881012,213.36 18.42762,-33.878948,243.84 18.425642,-33.877625,243.84 18.422527,-33.876251,274.32 18.420238,-33.875736,274.32 18.416616,-33.875839,304.8 18.413759,-33.876434,304.8 18.409996,-33.877552,335.28 18.407593,-33.878532,335.28 18.403782,-33.880371,365.76 18.401356,-33.881649,365.76 18.398151,-33.883606,396.24 18.395977,-33.885048,396.24 18.392715,-33.887375,426.72 18.390656,-33.889004,426.72 18.387918,-33.891357,457.2 18.3859,-33.893234,457.2 18.383154,-33.895844,457.2 18.380985,-33.897991,487.68 18.378239,-33.900784,487.68 18.37635,-33.902691,518.16 18.373625,-33.905685,518.16 18.371944,-33.907673,518.16 18.369757,-33.910492,548.64 18.368187,-33.912689,548.64 18.366051,-33.916004,548.64 18.364824,-33.918182,548.64 18.363132,-33.921497,579.12 18.36191,-33.924088,579.12 18.360397,-33.927246,579.12 18.359356,-33.929504,609.6 18.357925,-33.932766,609.6 18.354904,-33.940201,609.6 18.350487,-33.950642,609.6 18.349411,-33.952606,609.6 18.347454,-33.966373,640.08 18.352089,-33.963722,609.6 18.353863,-33.957298,579.12 18.354454,-33.955215,579.12 18.356609,-33.948963,609.6 18.35737,-33.94693,579.12 18.358612,-33.943985,579.12 18.360157,-33.940025,579.12 18.363312,-33.932739,579.12 18.36673,-33.925461,579.12 18.371658,-33.916286,579.12 18.372746,-33.914516,579.12 18.374805,-33.911491,579.12 18.376064,-33.909767,579.12 18.378277,-33.906967,579.12 18.379902,-33.905045,579.12 18.382257,-33.902527,548.64 18.383904,-33.900921,548.64 18.386517,-33.898544,548.64 18.388647,-33.896805,548.64 18.391394,-33.894745,548.64 18.393574,-33.893288,548.64 18.396774,-33.891357,548.64 18.399185,-33.890076,548.64 18.402325,-33.888474,548.64 18.404791,-33.887329,548.64 18.408623,-33.885746,548.64 18.411236,-33.884857,548.64 18.414803,-33.884026,518.16 18.41757,-33.883667,518.16 18.421497,-33.88356,487.68 18.424072,-33.883652,457.2 18.42802,-33.884117,457.2 18.430367,-33.884583,426.72 18.433971,-33.885559,396.24 18.436348,-33.886368,365.76 18.43998,-33.888027,335.28 18.441729,-33.88916,335.28 18.444139,-33.891403,274.32 18.4447,-33.893051,274.32 18.443634,-33.895294,243.84 18.442154,-33.896313,213.36 18.439936,-33.897125,182.88 18.437634,-33.897758,152.4 18.434944,-33.898594,121.92 18.433285,-33.899059,91.44 18.430349,-33.899826,60.96 18.428164,-33.900467,30.48 18.427162,-33.901062,30.48 18.427044,-33.900558,30.48 18.42766,-33.899506,30.48 18.428501,-33.898361,60.96 18.429733,-33.896439,91.44 18.430538,-33.895012,121.92 18.431683,-33.892731,121.92 18.432426,-33.8904,152.4 18.432705,-33.88797,182.88 18.432541,-33.886211,213.36 18.431639,-33.883667,243.84 18.430855,-33.882156,243.84 18.428764,-33.879696,274.32 18.427322,-33.878586,304.8 18.42453,-33.877228,335.28 18.422813,-33.876808,365.76 18.419363,-33.876663,396.24 18.417091,-33.876949,426.72 18.413141,-33.877762,457.2 18.411068,-33.87822,457.2 18.407421,-33.879135,487.68 18.404902,-33.879868,487.68 18.401241,-33.881184,487.68 18.399124,-33.882069,518.16 18.395519,-33.883793,518.16 18.393076,-33.885132,518.16 18.389879,-33.887283,518.16 18.387806,-33.888931,548.64 18.384933,-33.891331,548.64 18.383099,-33.893051,548.64 18.380014,-33.895981,548.64 18.378164,-33.897903,548.64 18.375263,-33.900784,579.12 18.373547,-33.902599,579.12 18.36977,-33.906788,579.12 18.367964,-33.909027,579.12 18.365479,-33.912235,579.12 18.363876,-33.91433,579.12 18.361574,-33.917587,609.6 18.359928,-33.919964,609.6 18.357868,-33.923222,609.6 18.356472,-33.925415,609.6 18.354492,-33.928528,609.6 18.353109,-33.931,609.6 18.351116,-33.934719,609.6 18.350082,-33.936905,609.6 18.348513,-33.940384,640.08 18.34734,-33.943005,640.08 18.345795,-33.946732,640.08 18.344879,-33.948917,640.08 18.34173,-33.957275,640.08 18.341331,-33.968472,640.08 18.350027,-33.967026,579.12 18.351988,-33.961624,548.64 18.354118,-33.95517,518.16 18.354893,-33.952969,518.16 18.35681,-33.948303,548.64 18.357582,-33.946499,548.64 18.358841,-33.943611,548.64 18.362022,-33.936081,548.64 18.366339,-33.927063,548.64 18.367403,-33.925095,548.64 18.369028,-33.922256,548.64 18.370317,-33.920059,548.64 18.372002,-33.917355,548.64 18.373432,-33.915169,518.16 18.375475,-33.912231,518.16 18.376865,-33.910374,518.16 18.37904,-33.907719,518.16 18.380688,-33.905869,518.16 18.383045,-33.903202,518.16 18.385277,-33.900505,487.68 18.387863,-33.897812,487.68 18.389626,-33.896221,487.68 18.392487,-33.894314,487.68 18.394775,-33.893009,487.68 18.397865,-33.891518,487.68 18.400326,-33.890495,487.68 18.404446,-33.889004,487.68 18.407135,-33.88826,487.68 18.410912,-33.887329,487.68 18.413429,-33.886864,457.2 18.417683,-33.886185,457.2 18.420467,-33.885838,457.2 18.424913,-33.885406,426.72 18.427547,-33.885361,426.72 18.431854,-33.885513,396.24 18.43461,-33.88591,365.76 18.438814,-33.887146,335.28 18.441113,-33.888336,335.28 18.444157,-33.891148,304.8 18.445072,-33.893055,304.8 18.444786,-33.89571,274.32 18.443747,-33.896759,243.84 18.441525,-33.897617,213.36 18.440159,-33.897903,182.88 18.437004,-33.898502,152.4 18.435339,-33.898819,121.92 18.43276,-33.899231,91.44 18.431303,-33.899506,60.96 18.427376,-33.900585,0 18.427505,-33.899944,30.48 18.427963,-33.8992,30.48 18.42923,-33.898087,60.96 18.431625,-33.896919,91.44 18.433657,-33.896667,121.92 18.436571,-33.897354,152.4 18.438366,-33.898361,182.88 18.44101,-33.900177,182.88 18.44285,-33.901566,182.88 18.445429,-33.903488,213.36 18.447502,-33.904999,243.84 18.452827,-33.908661,243.84 18.45686,-33.911304,274.32 18.459721,-33.912979,304.8 18.461838,-33.914097,304.8 18.465099,-33.91568,335.28 18.467159,-33.916611,335.28 18.470539,-33.91777,335.28 18.473225,-33.918285,335.28 18.477001,-33.918427,335.28 18.479691,-33.91824,304.8 18.48341,-33.91782,304.8 18.485928,-33.917263,304.8 18.489532,-33.916191,304.8 18.491707,-33.915585,304.8 18.49577,-33.914608,304.8 18.498001,-33.914143,304.8 18.504353,-33.912792,335.28 18.506641,-33.912327,335.28 18.515999,-33.910309,335.28 18.523922,-33.908512,335.28 18.536289,-33.906281,304.8 18.544474,-33.904816,304.8 18.554134,-33.90353,335.28 18.556021,-33.903351,335.28 18.558823,-33.903168,335.28 18.560715,-33.903297,335.28 18.563251,-33.903809,365.76 18.564663,-33.904415,365.76 18.566551,-33.906044,335.28 18.567524,-33.907345,335.28 18.568954,-33.909534,335.28 18.569696,-33.910995,335.28 18.571072,-33.913399,335.28 18.571772,-33.914749,335.28 18.573132,-33.917263,304.8 18.574125,-33.919098,304.8 18.578329,-33.924271,304.8 18.58102,-33.925095,304.8 18.584747,-33.925037,304.8 18.587465,-33.924637,335.28 18.591671,-33.923687,335.28 18.59436,-33.922989,335.28 18.597908,-33.921593,304.8 18.599854,-33.920567,304.8 18.603273,-33.918503,304.8 18.605461,-33.917168,304.8 18.608894,-33.914982,304.8 18.611069,-33.913631,304.8 18.617622,-33.909485,304.8 18.625357,-33.904587,304.8 18.636568,-33.897171,304.8 18.644199,-33.891937,304.8 18.654385,-33.885372,304.8 18.661791,-33.880692,304.8 18.672161,-33.873871,304.8 18.679104,-33.869453,304.8 18.69021,-33.862473,304.8 18.697472,-33.857906,304.8 18.707714,-33.851624,365.76 18.71521,-33.84697,335.28 18.725355,-33.840866,335.28 18.72883,-33.839127,335.28 18.732719,-33.837471,335.28 18.734951,-33.836636,335.28 18.738728,-33.835377,335.28 18.741219,-33.834549,365.76 18.745087,-33.833313,365.76 18.747553,-33.832535,365.76 18.753834,-33.830627,365.76 18.763136,-33.827957,365.76 18.777765,-33.823654,365.76 18.788109,-33.820621,396.24 18.800409,-33.817383,396.24 18.80949,-33.814957,396.24 18.822046,-33.811386,396.24 18.83091,-33.808887,396.24 18.843384,-33.805489,396.24 18.853569,-33.802792,426.72 18.86672,-33.799484,457.2 18.877316,-33.79697,457.2 18.881517,-33.796234,487.68 18.884153,-33.795822,457.2 18.888357,-33.795135,457.2 18.897381,-33.793579,487.68 18.910721,-33.790787,487.68 18.920059,-33.788685,487.68 18.932819,-33.78566,518.16 18.937235,-33.784378,518.16 18.941158,-33.783051,518.16 18.943748,-33.782169,518.16 18.947468,-33.780865,518.16 18.951136,-33.779572,548.64 18.958569,-33.776535,548.64 18.960857,-33.775558,548.64 18.973557,-33.770416,579.12 18.980598,-33.767551,609.6 18.993816,-33.762524,670.56 19.001656,-33.759262,670.56 19.0135,-33.754471,731.52 19.02294,-33.751099,762 19.026358,-33.750092,792.48 19.028549,-33.749489,822.96 19.031982,-33.748463,853.44 19.034328,-33.74781,853.44 19.043369,-33.745625,883.92 19.045773,-33.745159,914.4 19.049377,-33.744507,914.4 19.052086,-33.744049,944.88 19.065371,-33.741577,1005.84 19.073009,-33.74041,1036.32 19.079132,-33.73962,1066.8 19.085312,-33.738873,1097.28 19.097826,-33.736954,1127.76 19.108486,-33.735291,1127.76 19.12302,-33.733009,1127.76 19.18454,-33.717087,1127.76 19.197807,-33.710709,1097.28 19.208794,-33.705868,1097.28 19.217386,-33.702393,1066.8 19.220245,-33.701385,1066.8 19.224617,-33.699921,1066.8 19.227531,-33.698914,1066.8 19.240322,-33.694649,1036.32 19.249281,-33.691315,1036.32 19.263966,-33.685501,1036.32 19.273102,-33.681839,1036.32 19.286499,-33.676167,1005.84 19.29586,-33.671906,1005.84 19.308987,-33.666393,1005.84 19.319916,-33.66169,975.36 19.332462,-33.656204,1005.84 19.343,-33.651535,1005.84 19.358135,-33.645081,1005.84 19.366486,-33.64183,1036.32 19.380627,-33.636738,1036.32 19.391727,-33.632271,1066.8 19.397091,-33.629837,1066.8 19.399445,-33.628693,1097.28 19.403481,-33.626678,1097.28 19.405779,-33.625534,1097.28 19.419422,-33.618397,1097.28 19.429264,-33.612995,1066.8 19.440533,-33.606445,1097.28 19.449949,-33.60054,1097.28 19.461765,-33.593445,1066.8 19.470005,-33.58865,1066.8 19.48218,-33.581039,1066.8 19.490833,-33.576221,1066.8 19.499245,-33.570961,1066.8 19.501629,-33.569321,1066.8 19.505104,-33.566895,1066.8 19.507402,-33.565247,1066.8 19.514465,-33.560066,1066.8 19.522305,-33.554203,1066.8 19.534252,-33.545334,1066.8 19.503759,-33.571381,670.56 19.479046,-33.584087,701.04 19.471264,-33.587486,701.04 19.46703,-33.589581,701.04 19.464859,-33.59079,701.04 19.461823,-33.592422,701.04 19.457684,-33.594589,701.04 19.446602,-33.600243,701.04 19.439163,-33.604057,701.04 19.42848,-33.609787,701.04 19.422512,-33.613277,701.04 19.412674,-33.619171,731.52 19.406956,-33.622375,731.52 19.396811,-33.627777,701.04 19.389076,-33.631851,701.04 19.380283,-33.636551,701.04 19.373156,-33.640228,701.04 19.362202,-33.645908,701.04 19.35421,-33.649979,701.04 19.345074,-33.654648,701.04 19.336967,-33.659176,701.04 19.327417,-33.664856,701.04 19.321346,-33.668392,701.04 19.313622,-33.67263,701.04 19.307518,-33.675751,731.52 19.304237,-33.677238,731.52 19.302235,-33.678123,731.52 19.296869,-33.680374,762 19.294796,-33.681244,762 19.285097,-33.684952,792.48 19.27763,-33.687618,822.96 19.266701,-33.691437,853.44 19.261093,-33.693111,853.44 19.257832,-33.693996,853.44 19.255558,-33.694519,853.44 19.252531,-33.69516,853.44 19.250336,-33.695625,853.44 19.238434,-33.698093,853.44 19.231167,-33.699539,853.44 19.220638,-33.701351,822.96 19.213715,-33.70261,792.48 19.07703,-33.722168,975.36 19.07305,-33.722214,975.36 19.069407,-33.723083,944.88 19.066717,-33.723953,944.88 19.062513,-33.725372,914.4 19.059654,-33.726379,914.4 19.055729,-33.727795,883.92 19.053383,-33.728634,883.92 19.038792,-33.733707,822.96 19.028881,-33.737228,762 19.014923,-33.74231,701.04 19.005564,-33.745697,670.56 18.992958,-33.750511,670.56 18.983288,-33.754002,640.08 18.969269,-33.758751,609.6 18.959484,-33.761684,579.12 18.95422,-33.763081,579.12 18.951302,-33.763733,579.12 18.946707,-33.764511,579.12 18.94396,-33.764832,579.12 18.932877,-33.767178,579.12 18.924122,-33.768341,579.12 18.91983,-33.768852,579.12 18.911226,-33.769867,579.12 18.897493,-33.771103,548.64 18.889503,-33.771694,548.64 18.874912,-33.772717,579.12 18.865431,-33.773346,579.12 18.852203,-33.774261,609.6 18.842926,-33.774998,609.6 18.832111,-33.775417,579.12 18.828156,-33.775452,579.12 18.817921,-33.775604,579.12 18.806856,-33.775772,579.12 18.792002,-33.775909,548.64 18.782137,-33.775726,579.12 18.768236,-33.775314,548.64 18.758762,-33.775085,548.64 18.745708,-33.774578,548.64 18.734722,-33.774345,518.16 18.719919,-33.774353,548.64 18.711147,-33.774628,548.64 18.698101,-33.774906,518.16 18.687408,-33.775085,518.16 18.673899,-33.775635,487.68 18.667341,-33.776184,487.68 18.663361,-33.776688,487.68 18.660952,-33.776962,487.68 18.648491,-33.778397,518.16 18.641224,-33.779327,487.68 18.628807,-33.780865,518.16 18.619976,-33.782135,487.68 18.607645,-33.784103,487.68 18.599518,-33.785156,518.16 18.586681,-33.786621,518.16 18.578053,-33.787289,518.16 18.564373,-33.787949,518.16 18.555565,-33.788311,518.16 18.5495,-33.788872,518.16 18.546638,-33.789196,518.16 18.542959,-33.789597,487.68 18.537579,-33.790192,487.68 18.523006,-33.791943,457.2 18.513475,-33.79335,396.24 18.501257,-33.795502,365.76 18.498802,-33.796368,365.76 18.494911,-33.798088,365.76 18.492512,-33.799347,365.76 18.489189,-33.801208,335.28 18.487188,-33.802414,335.28 18.483601,-33.804657,335.28 18.481121,-33.806328,335.28 18.470148,-33.816696,274.32 18.468018,-33.820038,274.32 18.466167,-33.823608,243.84 18.465157,-33.825695,243.84 18.463612,-33.829277,243.84 18.460293,-33.838402,243.84 18.457317,-33.848133,213.36 18.454914,-33.856232,182.88 18.451481,-33.868382,182.88 18.448847,-33.875244,213.36 18.446846,-33.880253,213.36 18.444443,-33.886074,213.36 18.440832,-33.894882,152.4 18.439522,-33.896641,152.4 18.437077,-33.898041,121.92 18.435287,-33.898502,121.92 18.43248,-33.899231,91.44 18.430239,-33.89978,60.96 18.428053,-33.90033,30.48 18.427547,-33.900513,30.48 18.428276,-33.899139,60.96 18.429508,-33.898129,91.44 18.431339,-33.896732,121.92 18.432541,-33.89566,152.4 18.434275,-33.894012,182.88 18.435173,-33.892681,182.88 18.436146,-33.890682,213.36 18.436661,-33.889099,243.84 18.436832,-33.886864,274.32 18.436571,-33.88504,274.32 18.435745,-33.882812,304.8 18.434946,-33.881378,335.28 18.433489,-33.879364,365.76 18.432367,-33.877991,365.76 18.430519,-33.876205,426.72 18.428993,-33.875179,426.72 18.426426,-33.874054,457.2 18.424416,-33.87355,457.2 18.421669,-33.87355,487.68 18.419151,-33.874435,518.16 18.417263,-33.876389,548.64 18.416805,-33.8783,548.64 18.417664,-33.880718,579.12 18.419151,-33.88216,609.6 18.422167,-33.883484,609.6 18.424633,-33.88353,640.08 18.427792,-33.882626,640.08 18.42934,-33.881378,640.08 18.429794,-33.87867,640.08 18.428782,-33.877029,640.08 18.425529,-33.875381,609.6 18.423008,-33.875244,609.6 18.419209,-33.875553,609.6 18.416576,-33.875969,609.6 18.412628,-33.876854,609.6 18.410114,-33.877487,609.6 18.406191,-33.878586,609.6 18.403702,-33.879368,640.08 18.400194,-33.880646,640.08 18.397951,-33.881516,640.08 18.394588,-33.883072,670.56 18.392429,-33.884258,670.56 18.389339,-33.886211,670.56 18.387508,-33.88747,670.56 18.384647,-33.889565,701.04 18.382874,-33.890915,701.04 18.380241,-33.893196,731.52 18.378468,-33.894779,731.52 18.375923,-33.897263,731.52 18.374409,-33.898727,762 18.37183,-33.90134,762 18.370317,-33.902985,762 18.367683,-33.905914,792.48 18.366058,-33.907745,792.48 18.363983,-33.910309,822.96 18.362526,-33.912186,853.44 18.359928,-33.915634,883.92 18.358603,-33.917496,883.92 18.356697,-33.920792,914.4 18.355633,-33.923126,914.4 18.354286,-33.926239,914.4 18.353291,-33.928669,914.4 18.351988,-33.93219,914.4 18.351204,-33.934387,914.4 18.350143,-33.937698,914.4 18.3494,-33.940353,914.4 18.348402,-33.944046,914.4 18.347841,-33.946518,914.4 18.347,-33.95105,914.4 18.346495,-33.9543,914.4 18.345711,-33.961029,914.4 18.345655,-33.971695,914.4 18.345823,-33.978333,914.4 18.346367,-33.985928,914.4 18.346888,-33.990005,914.4 18.347336,-33.992798,914.4 18.348009,-33.996735,914.4 18.34868,-34.00058,914.4 18.350082,-34.007263,914.4 18.350716,-34.00967,914.4 18.35182,-34.01326,914.4 18.352489,-34.015812,914.4 18.354664,-34.025032,883.92 18.35495,-34.027546,883.92 18.35535,-34.031456,883.92 18.355522,-34.03397,853.44 18.355865,-34.037785,853.44 18.356094,-34.04002,853.44 18.35741,-34.047562,822.96 18.358042,-34.049698,822.96 18.359585,-34.053288,853.44 18.360786,-34.05571,853.44 18.362526,-34.058945,822.96 18.36376,-34.061188,822.96 18.365707,-34.064552,822.96 18.36701,-34.066818,822.96 18.373432,-34.078426,792.48 18.378525,-34.088062,762 18.383732,-34.096581,731.52 18.385452,-34.099045,701.04 18.387852,-34.102306,701.04 18.389683,-34.104729,701.04 18.392515,-34.108246,670.56 18.394253,-34.110306,670.56 18.397167,-34.113373,640.08 18.399633,-34.115845,640.08 18.402884,-34.118546,640.08 18.405071,-34.120285,640.08 18.40877,-34.122986,640.08 18.411255,-34.124744,640.08 18.415203,-34.127445,609.6 18.41757,-34.128983,609.6 18.421841,-34.131683,609.6 18.424473,-34.133266,609.6 18.42865,-34.135639,609.6 18.431168,-34.136944,609.6 18.435507,-34.138824,640.08 18.438478,-34.139786,640.08 18.44285,-34.140518,640.08 18.445702,-34.140526,640.08 18.450304,-34.139786,609.6 18.453276,-34.13887,640.08 18.456917,-34.137222,609.6 18.45892,-34.136059,609.6 18.462076,-34.133789,609.6 18.464262,-34.131729,609.6 18.466644,-34.12912,609.6 18.468243,-34.127197,609.6 18.470371,-34.124268,579.12 18.471886,-34.122025,579.12 18.473623,-34.119095,609.6 18.474598,-34.11702,609.6 18.475742,-34.113758,609.6 18.476257,-34.111664,609.6 18.476706,-34.108246,609.6 18.47683,-34.106125,609.6 18.476944,-34.103146,609.6 18.477001,-34.10091,609.6 18.477098,-34.097534,609.6 18.477154,-34.095291,609.6 18.477434,-34.083069,609.6 18.477573,-34.076332,609.6 18.477379,-34.066086,609.6 18.477058,-34.06041,609.6 18.476538,-34.049744,640.08 18.476313,-34.040543,609.6 18.476429,-34.029732,609.6 18.476658,-34.021679,609.6 18.477345,-34.010506,609.6 18.47805,-34.001083,640.08 18.478779,-33.98909,579.12 18.47929,-33.980526,518.16 18.480721,-33.968143,457.2 18.481693,-33.960602,457.2 18.482552,-33.952129,426.72 18.482534,-33.950043,396.24 18.482437,-33.946915,396.24 18.482199,-33.944916,396.24 18.481693,-33.941841,396.24 18.48119,-33.939972,365.76 18.480148,-33.937092,365.76 18.47929,-33.935139,365.76 18.47794,-33.932556,335.28 18.476761,-33.930588,335.28 18.475227,-33.928249,335.28 18.473846,-33.926376,335.28 18.472137,-33.924107,335.28 18.470819,-33.922485,335.28 18.468914,-33.920197,304.8 18.467617,-33.918613,304.8 18.464985,-33.915634,304.8 18.463383,-33.91391,274.32 18.459723,-33.910217,274.32 18.457928,-33.908752,243.84 18.455315,-33.906788,243.84 18.453669,-33.905594,213.36 18.451035,-33.903763,213.36 18.449575,-33.902756,213.36 18.447222,-33.901154,182.88 18.446045,-33.900455,182.88 18.443243,-33.899414,152.4 18.441729,-33.899094,152.4 18.439039,-33.898865,152.4 18.437357,-33.898865,121.92 18.434658,-33.899014,121.92 18.433285,-33.899155,91.44 18.431416,-33.89946,91.44 18.430424,-33.899666,60.96 18.428707,-33.90004,60.96 18.427828,-33.900375,30.48 18.427505,-33.900177,60.96 18.428556,-33.898911,60.96 18.430014,-33.897583,91.44 18.43111,-33.896454,121.92 18.432713,-33.894547,152.4 18.433628,-33.893288,182.88 18.435394,-33.890213,213.36 18.436146,-33.888493,213.36 18.436661,-33.885979,243.84 18.436628,-33.884399,274.32 18.43586,-33.882023,304.8 18.434944,-33.880672,304.8 18.432928,-33.878769,335.28 18.431511,-33.877785,365.76 18.429108,-33.876575,396.24 18.427435,-33.875931,426.72 18.425026,-33.875519,426.72 18.423063,-33.875565,457.2 18.42001,-33.875877,487.68 18.418243,-33.87616,518.16 18.415146,-33.8769,518.16 18.413429,-33.877365,548.64 18.410339,-33.87825,579.12 18.408434,-33.87886,579.12 18.405533,-33.879879,609.6 18.403358,-33.880718,609.6 18.400307,-33.882019,609.6 18.398176,-33.883118,609.6 18.395094,-33.884857,640.08 18.393076,-33.886093,640.08 18.390217,-33.887924,640.08 18.388138,-33.889286,670.56 18.385448,-33.891193,670.56 18.383434,-33.892776,670.56 18.380756,-33.894917,701.04 18.378811,-33.8965,701.04 18.376036,-33.898911,701.04 18.374233,-33.900551,701.04 18.372,-33.902756,701.04 18.370205,-33.904678,731.52 18.367825,-33.907345,731.52 18.366339,-33.90921,762 18.364321,-33.911911,762 18.363132,-33.913631,762 18.361359,-33.916378,762 18.360157,-33.918518,762 18.35877,-33.921753,762 18.35804,-33.924057,762 18.35709,-33.927795,762 18.356667,-33.929832,762 18.356037,-33.933231,762 18.355522,-33.935883,762 18.354904,-33.939651,762 18.354231,-33.944183,762 18.352661,-33.955948,762 18.351517,-33.964607,731.52 18.34885,-33.982956,762 18.348656,-33.988766,762 18.348827,-33.995655,762 18.349018,-33.998245,762 18.349457,-34.002129,792.48 18.349857,-34.004734,792.48 18.350487,-34.008179,792.48 18.351002,-34.011066,792.48 18.351631,-34.014694,792.48 18.353222,-34.023331,762 18.354721,-34.034107,731.52 18.354847,-34.036423,731.52 18.354904,-34.040176,731.52 18.354904,-34.042877,731.52 18.354664,-34.046864,731.52 18.354231,-34.049515,731.52 18.353348,-34.053146,731.52 18.352829,-34.055603,701.04 18.352032,-34.059155,731.52 18.352261,-34.061436,822.96 18.353806,-34.060688,792.48 18.354118,-34.059082,731.52 18.353806,-34.056362,701.04 18.353334,-34.054276,701.04 18.352604,-34.05138,670.56 18.352146,-34.049286,670.56 18.351427,-34.045807,640.08 18.350945,-34.043743,640.08 18.349073,-34.035187,609.6 18.347504,-34.027359,609.6 18.346653,-34.020748,609.6 18.346424,-34.018421,609.6 18.345263,-34.009094,609.6 18.344982,-34.00415,609.6 18.346138,-33.997517,609.6 18.347626,-33.991421,579.12 18.350531,-33.976959,609.6 18.353291,-33.965675,609.6 18.356977,-33.953156,609.6 18.359276,-33.943634,609.6 18.362045,-33.934395,609.6 18.362961,-33.932392,609.6 18.364677,-33.929272,609.6 18.365946,-33.927246,609.6 18.367796,-33.924225,640.08 18.368973,-33.922256,640.08 18.370857,-33.91917,640.08 18.373512,-33.91507,609.6 18.378181,-33.908695,579.12 18.38007,-33.906509,579.12 18.382648,-33.903809,579.12 18.384724,-33.90184,548.64 18.387806,-33.899094,548.64 18.390104,-33.897263,548.64 18.39386,-33.894424,548.64 18.396091,-33.892914,518.16 18.399925,-33.890587,518.16 18.402672,-33.889236,518.16 18.406584,-33.887512,487.68 18.409163,-33.886551,487.68 18.413534,-33.885223,457.2 18.416729,-33.884445,457.2 18.42099,-33.883575,457.2 18.423792,-33.883301,426.72 18.428501,-33.883438,426.72 18.431282,-33.884071,396.24 18.435394,-33.885544,365.76 18.437862,-33.886539,365.76 18.441505,-33.888199,335.28 18.443699,-33.889286,335.28 18.446941,-33.891266,304.8 18.448456,-33.892593,304.8 18.449535,-33.89571,243.84 18.448792,-33.897125,243.84 18.446331,-33.898594,213.36 18.444475,-33.898911,213.36 18.441925,-33.899059,182.88 18.440266,-33.899155,182.88 18.437405,-33.899292,152.4 18.435787,-33.899368,121.92 18.432928,-33.899551,91.44 18.431528,-33.899734,91.44 18.429451,-33.900085,60.96 18.427883,-33.900513,60.96 18.426918,-33.901016,0
        </coordinates>
      </LineString>
    </Placemark>
  </Document>
</kml>