<?xml version="1.0" encoding="UTF-8"?>
<kml xmlns="http://www.opengis.net/kml/2.2">
  <Document>
    <name>-/ZTRNW - Optimised</name>
    <description><![CDATA[Optimised flight path with 1432 points (decimated from 7160 original points). Source format: Standard KML]]></description>
    
    <Style id="flightPath">
      <LineStyle>
        <color>ffff0000</color>
        <width>3</width>
      </LineStyle>
    </Style>
    
    <Placemark>
      <name>Flight Path</name>
      <description><![CDATA[<div style="width:220px; text-align:center;">
<div style="width:210px; text-align:center;">
<div style=" background: #000; color: #fff; font-size: 14px; text-align:left; border: 1px solid #000; padding: 2px 6px; text-shadow: 0 1px 0 #000; box-shadow: 0 1px 3px rgba(0,0,0,0.6); background: -webkit-gradient(linear, left top, left bottom, color-stop(0%,#808080), color-stop(2%,#303030), color-stop(100%,#0c0c0c));"><span style="font-size: 14px; font-weight: bold;"><a href="javascript:void(0);" style="color: #fff; cursor: pointer;text-decoration: none;">-</a></span> / ZTRNW<br/>Private owner</div>

<div style="border-top: 1px solid #005c90; color: #fff; padding-bottom: 5px; box-shadow: 0 0 1px #9BE3F6 inset, 0 1px 0 #9BE3F6 inset, 0 -1px 3px rgba(0,0,0,0.4); background:rgba(43,114,173,1); background: -webkit-gradient(linear, left top, left bottom, color-stop(0%,rgba(92,184,229,1)), color-stop(100%,rgba(43,114,173,1)));">
<a style="text-decoration: none; color: rgb(255, 255, 255); font-size: 12px; width:77px; display: inline-block;" title=" Airport" href="javascript:void(0);/departures"><h3 style="padding: 0px; margin: 10px 0px 0px; font-size: 16px; ">?</h3></a>
<span style="background: url(https://www.flightradar24.com/static/images/userUI_sprite.png?14) no-repeat scroll 0 -464px rgba(0, 0, 0, 0); border: medium none; display: inline-block; height: 16px; width: 45px;"></span>
<a style="text-decoration: none; color: rgb(255, 255, 255); font-size: 12px; width:77px; display: inline-block;" title=" Airport" href="javascript:void(0);/arrivals"><h3 style="padding: 0px; margin: 10px 0px 0px; font-size: 16px;">?</h3></a>
<div style=" margin-top:10px;">
<div style="display: inline-block; font-size: 12px; padding: 0 5px;">
<div>
<span style="color: #c1eaff;" title="Actual Time of Departure">ATD </span>
<span title="2025-10-15 08:11">08:11</span> <span title="Coordinated Universal Time">UTC</span>
</div>
</div>
<div style="display: inline-block; font-size: 12px; padding: 0 5px;">
<div>
<span style="color: #c1eaff;" title="Estimated Time of Arrival">ETA </span>
<span title="2025-10-15 08:53">08:53</span> <span title="Coordinated Universal Time">UTC</span>
</div>
</div>
</div>
<br style="clear: both;"/>
</div>

<div style="display: block;">
<table style="border-collapse: collapse; width: 100%;">
<tr style="border-right: 1px solid #dadada; ">
<td style="background: none repeat scroll 0 0 #dadada; padding: 0; width: 31px;">
<span style="background: url(https://www.flightradar24.com/static/images/userUI_sprite.png?14) no-repeat scroll -208px -464px rgba(0, 0, 0, 0); height: 26px; margin: 8px 0 0 4px; width: 23px; display: block;"></span>
</td>
<td colspan="2" style="border-bottom: 1px solid #dadada; border-left: 1px solid #dadada; color: #666; line-height: 1.1em; padding: 3px 6px; vertical-align: top; font-size: 14px;">
Aircraft<span style="float: right; font-size: 12px;">(EC20)</span><br>
<span style="color: #333; font-size: 16px; font-weight: bold; line-height: 1.3em;">Airbus Helicopters H120</span>
</td>
</tr>
<tr style="border-right: 1px solid #dadada; ">
<td style="background: none repeat scroll 0 0 #dadada; padding: 0; width: 31px;">
<td colspan="2" style="border-bottom: 1px solid #dadada; border-left: 1px solid #dadada; color: #666; line-height: 1.1em; padding: 3px 6px; vertical-align: top; font-size: 14px;">
Registration<br>
<span style="color: #333; font-size: 16px; font-weight: bold; line-height: 1.3em;"><a href="https://www.flightradar24.com/reg/zt-rnw" style="text-decoration: none; color: #333;">ZT-RNW</a></span>
</td>
</tr>
</table>
</div>

</div>
</div>]]></description>
      <styleUrl>#flightPath</styleUrl>
      <LineString>
        <extrude>1</extrude>
        <tessellate>1</tessellate>
        <altitudeMode>absolute</altitudeMode>
        <coordinates>
          18.433456,-33.891705,45.72 18.435974,-33.887608,99.06 18.436348,-33.885956,114.3 18.435843,-33.883575,137.16 18.434946,-33.882111,144.78 18.432985,-33.880325,160.02 18.431282,-33.879368,167.64 18.428764,-33.878483,190.5 18.426538,-33.87822,213.36 18.424128,-33.878586,243.84 18.422783,-33.87941,266.7 18.42247,-33.881371,312.42 18.42424,-33.882111,350.52 18.425903,-33.880299,358.14 18.425529,-33.878906,358.14 18.423569,-33.877304,365.76 18.421719,-33.876801,373.38 18.418859,-33.876709,396.24 18.416977,-33.876762,411.48 18.414059,-33.876995,426.72 18.411884,-33.877274,434.34 18.408602,-33.877899,449.58 18.406696,-33.878357,464.82 18.403587,-33.879276,480.06 18.401764,-33.879868,495.3 18.398849,-33.880875,510.54 18.39695,-33.881512,518.16 18.393974,-33.882767,533.4 18.392258,-33.88356,541.02 18.389511,-33.885002,548.64 18.387638,-33.886093,556.26 18.384947,-33.88797,563.88 18.383331,-33.889191,579.12 18.381023,-33.890945,594.36 18.379211,-33.892357,601.98 18.376987,-33.894058,609.6 18.372728,-33.8974,624.84 18.368683,-33.900738,640.08 18.36701,-33.902252,647.7 18.364712,-33.904495,655.32 18.363361,-33.905903,655.32 18.361473,-33.908047,655.32 18.360172,-33.909851,662.94 18.358498,-33.91256,670.56 18.357582,-33.914375,670.56 18.356192,-33.917038,670.56 18.355293,-33.918797,678.18 18.353783,-33.921753,670.56 18.352833,-33.923733,670.56 18.351574,-33.926571,670.56 18.350658,-33.928574,678.18 18.349466,-33.931274,685.8 18.348402,-33.933334,685.8 18.346996,-33.936161,685.8 18.346104,-33.938004,685.8 18.344593,-33.941097,678.18 18.343637,-33.942993,678.18 18.342291,-33.945969,678.18 18.341217,-33.948174,678.18 18.339672,-33.95129,678.18 18.338648,-33.953201,670.56 18.337097,-33.956039,670.56 18.336182,-33.957809,670.56 18.334389,-33.961212,670.56 18.331318,-33.967121,678.18 18.325882,-33.979271,678.18 18.322906,-33.987743,662.94 18.320486,-33.994537,655.32 18.319534,-33.996597,647.7 18.317871,-33.999798,647.7 18.3169,-34.001587,655.32 18.315411,-34.004456,655.32 18.314495,-34.006176,655.32 18.31295,-34.008968,655.32 18.311575,-34.011063,655.32 18.309574,-34.013813,655.32 18.308258,-34.015533,655.32 18.305857,-34.01857,647.7 18.304539,-34.020283,647.7 18.302662,-34.02301,647.7 18.301735,-34.024704,647.7 18.300644,-34.027908,632.46 18.300476,-34.030243,624.84 18.300819,-34.033688,617.22 18.301373,-34.036057,601.98 18.302937,-34.038948,586.74 18.304424,-34.040951,563.88 18.308086,-34.045513,548.64 18.309631,-34.047329,548.64 18.311749,-34.049934,548.64 18.313425,-34.052078,548.64 18.315754,-34.055103,541.02 18.320431,-34.061188,541.02 18.323177,-34.06517,541.02 18.324411,-34.066864,541.02 18.326511,-34.069347,533.4 18.328335,-34.071121,533.4 18.33153,-34.072906,541.02 18.333435,-34.073166,548.64 18.335953,-34.072094,579.12 18.336697,-34.071072,601.98 18.336582,-34.069534,624.84 18.335438,-34.06921,594.36 18.334236,-34.071209,548.64 18.334837,-34.072678,548.64 18.336575,-34.07515,541.02 18.337639,-34.076843,541.02 18.339043,-34.079868,541.02 18.339769,-34.081833,541.02 18.340666,-34.084671,541.02 18.341339,-34.086823,548.64 18.342304,-34.090298,556.26 18.342739,-34.092453,548.64 18.343187,-34.096069,548.64 18.343334,-34.09877,548.64 18.343391,-34.102074,541.02 18.343391,-34.104496,541.02 18.34322,-34.107941,533.4 18.343077,-34.110168,541.02 18.342762,-34.113991,533.4 18.342459,-34.116257,533.4 18.34219,-34.119812,525.78 18.342133,-34.122093,525.78 18.342178,-34.125504,525.78 18.342291,-34.127701,525.78 18.342533,-34.130844,533.4 18.342684,-34.132965,533.4 18.343048,-34.136105,541.02 18.343525,-34.140518,533.4 18.345318,-34.152557,495.3 18.346159,-34.156952,487.68 18.347504,-34.163406,495.3 18.347969,-34.165245,502.92 18.349018,-34.168625,502.92 18.3498,-34.170647,502.92 18.351116,-34.173439,510.54 18.352489,-34.175579,518.16 18.354492,-34.178093,510.54 18.356304,-34.180298,510.54 18.358498,-34.182983,518.16 18.360004,-34.184875,518.16 18.362413,-34.187988,518.16 18.364506,-34.19099,525.78 18.366169,-34.193756,525.78 18.36729,-34.195862,533.4 18.368916,-34.199203,525.78 18.369884,-34.201229,525.78 18.371201,-34.204304,525.78 18.372168,-34.206528,525.78 18.3734,-34.209595,525.78 18.374405,-34.211891,525.78 18.375721,-34.215103,525.78 18.376652,-34.217514,525.78 18.377829,-34.22081,518.16 18.378582,-34.223202,518.16 18.379623,-34.226532,510.54 18.380127,-34.228558,502.92 18.380699,-34.231815,502.92 18.381081,-34.234085,502.92 18.381557,-34.237541,502.92 18.38192,-34.240036,502.92 18.38253,-34.243687,502.92 18.382874,-34.24585,502.92 18.383266,-34.249557,510.54 18.383434,-34.251755,510.54 18.383715,-34.255417,518.16 18.38377,-34.257523,518.16 18.383846,-34.260864,518.16 18.383883,-34.26329,510.54 18.383938,-34.266769,510.54 18.38405,-34.268829,510.54 18.384418,-34.271896,510.54 18.385048,-34.274456,518.16 18.396835,-34.296661,525.78 18.400866,-34.302933,541.02 18.403416,-34.306065,541.02 18.405018,-34.307789,548.64 18.407537,-34.310257,548.64 18.410454,-34.313049,548.64 18.413086,-34.315609,548.64 18.41486,-34.317287,541.02 18.418236,-34.320313,525.78 18.420296,-34.322033,518.16 18.423615,-34.324734,518.16 18.425755,-34.326279,510.54 18.429565,-34.328705,502.92 18.431911,-34.329994,502.92 18.435917,-34.331902,502.92 18.438377,-34.332882,495.3 18.442726,-34.334232,495.3 18.444958,-34.334789,502.92 18.449575,-34.335709,510.54 18.452511,-34.33614,518.16 18.456688,-34.336605,518.16 18.459492,-34.336838,518.16 18.463669,-34.337162,510.54 18.466644,-34.337536,502.92 18.470707,-34.338234,502.92 18.473398,-34.338913,502.92 18.477516,-34.339863,495.3 18.480377,-34.340424,495.3 18.48461,-34.341248,495.3 18.487076,-34.341797,495.3 18.491728,-34.34317,502.92 18.493914,-34.34404,502.92 18.497782,-34.345779,502.92 18.50029,-34.346985,510.54 18.503323,-34.348846,510.54 18.504868,-34.350151,510.54 18.506985,-34.352806,518.16 18.507729,-34.3549,525.78 18.507759,-34.357773,533.4 18.507099,-34.359741,533.4 18.50518,-34.361984,533.4 18.503094,-34.363094,533.4 18.499239,-34.363907,533.4 18.497108,-34.363998,533.4 18.49324,-34.363907,533.4 18.490438,-34.363907,533.4 18.48674,-34.364136,533.4 18.483982,-34.364304,533.4 18.479862,-34.364395,525.78 18.476818,-34.364182,525.78 18.472502,-34.363586,525.78 18.470364,-34.363605,533.4 18.468018,-34.365097,556.26 18.468475,-34.366631,563.88 18.470993,-34.367889,556.26 18.473568,-34.368305,541.02 18.477715,-34.368439,525.78 18.480721,-34.368492,525.78 18.484777,-34.368805,525.78 18.487917,-34.369217,518.16 18.492336,-34.369656,518.16 18.495541,-34.36961,525.78 18.50008,-34.368713,533.4 18.502636,-34.367702,533.4 18.506134,-34.365051,541.02 18.5075,-34.362579,541.02 18.508015,-34.358902,541.02 18.507423,-34.356354,541.02 18.506021,-34.352692,541.02 18.504982,-34.350105,541.02 18.503666,-34.346615,533.4 18.502827,-34.344131,525.78 18.50165,-34.340424,525.78 18.500977,-34.337997,525.78 18.500023,-34.334061,525.78 18.499489,-34.33181,525.78 18.498516,-34.32748,533.4 18.497887,-34.325012,533.4 18.497028,-34.321381,541.02 18.496571,-34.318916,541.02 18.495941,-34.315422,541.02 18.495541,-34.312862,533.4 18.494923,-34.308609,533.4 18.494642,-34.306229,533.4 18.494194,-34.302704,525.78 18.493971,-34.300049,525.78 18.493017,-34.289063,525.78 18.492737,-34.286682,525.78 18.49156,-34.275513,533.4 18.490438,-34.266907,541.02 18.488274,-34.2523,533.4 18.487072,-34.245174,525.78 18.485731,-34.239304,510.54 18.485069,-34.23661,510.54 18.484154,-34.23312,510.54 18.483543,-34.231064,510.54 18.482323,-34.227299,510.54 18.481415,-34.224976,502.92 18.480148,-34.221668,495.3 18.479229,-34.219482,502.92 18.477688,-34.216175,502.92 18.476772,-34.214127,502.92 18.475584,-34.211151,502.92 18.474745,-34.208954,502.92 18.473398,-34.205292,502.92 18.47271,-34.203186,510.54 18.471622,-34.200115,510.54 18.470819,-34.197784,510.54 18.469791,-34.194527,510.54 18.469252,-34.192429,510.54 18.468304,-34.188755,510.54 18.467731,-34.18652,510.54 18.466473,-34.181026,502.92 18.465326,-34.176132,510.54 18.464699,-34.172462,533.4 18.464375,-34.169952,533.4 18.464149,-34.166382,548.64 18.464184,-34.163944,548.64 18.464298,-34.16045,556.26 18.464375,-34.158188,556.26 18.464487,-34.154984,556.26 18.464642,-34.152676,556.26 18.465157,-34.146393,548.64 18.465443,-34.144157,548.64 18.466015,-34.140293,541.02 18.466335,-34.138046,541.02 18.46693,-34.134148,533.4 18.467331,-34.131729,525.78 18.468073,-34.127975,525.78 18.46859,-34.125538,525.78 18.469448,-34.122044,525.78 18.47002,-34.119625,525.78 18.470764,-34.115936,525.78 18.471165,-34.113388,525.78 18.471605,-34.109894,525.78 18.471828,-34.107376,518.16 18.471828,-34.103851,525.78 18.471718,-34.101379,510.54 18.471212,-34.098038,502.92 18.470764,-34.095886,487.68 18.469755,-34.092133,472.44 18.469105,-34.089737,457.2 18.468075,-34.086155,441.96 18.467569,-34.083389,441.96 18.467064,-34.079956,434.34 18.466896,-34.077576,434.34 18.466673,-34.073959,419.1 18.46656,-34.071487,419.1 18.466335,-34.068008,419.1 18.466187,-34.065578,411.48 18.465958,-34.062038,403.86 18.4659,-34.059666,396.24 18.465775,-34.055878,396.24 18.465775,-34.053314,396.24 18.465832,-34.044662,381 18.465944,-34.035965,373.38 18.466301,-34.030106,365.76 18.466473,-34.027729,365.76 18.46693,-34.023869,365.76 18.467234,-34.0215,365.76 18.467457,-34.017929,358.14 18.467617,-34.015347,358.14 18.467903,-34.011715,358.14 18.468132,-34.009109,350.52 18.468466,-34.005753,365.76 18.468634,-34.003143,365.76 18.468746,-33.999939,358.14 18.468859,-33.997696,358.14 18.469419,-33.994125,358.14 18.47002,-33.991791,358.14 18.470989,-33.988266,358.14 18.471605,-33.986069,350.52 18.472538,-33.982761,342.9 18.473286,-33.980164,335.28 18.474369,-33.976803,327.66 18.475113,-33.974663,342.9 18.476202,-33.971283,342.9 18.476944,-33.968887,342.9 18.477995,-33.965424,327.66 18.478661,-33.963116,312.42 18.479565,-33.95961,297.18 18.480068,-33.957413,289.56 18.480492,-33.953571,266.7 18.480516,-33.95105,259.08 18.480125,-33.947525,243.84 18.479677,-33.945374,243.84 18.4785,-33.94194,228.6 18.477345,-33.939655,220.98 18.475285,-33.936676,220.98 18.47414,-33.93486,220.98 18.472557,-33.931641,220.98 18.471548,-33.929489,220.98 18.4697,-33.925964,213.36 18.468578,-33.923996,205.74 18.466335,-33.920746,190.5 18.464928,-33.918983,190.5 18.462357,-33.915985,175.26 18.460865,-33.914471,190.5 18.458601,-33.911911,182.88 18.457312,-33.910217,182.88 18.455406,-33.907837,175.26 18.454229,-33.906326,160.02 18.452435,-33.903809,99.06 18.451309,-33.902317,99.06 18.44924,-33.900238,144.78 18.447819,-33.899155,129.54 18.44553,-33.897991,129.54 18.443756,-33.897526,121.92 18.441238,-33.897476,99.06 18.439922,-33.897572,83.82 18.43792,-33.897804,60.96 18.436403,-33.898087,38.1 18.435574,-33.898315,30.48 18.434944,-33.898457,22.86 18.434258,-33.89864,15.24 18.433571,-33.898827,7.62 18.432367,-33.899139,0 18.431696,-33.899323,0 18.430574,-33.899597,0 18.429733,-33.899826,0 18.42865,-33.900272,0 18.428164,-33.900467,0 18.427677,-33.900455,0 18.427334,-33.899853,0 18.427322,-33.898087,0 18.427603,-33.897583,0 18.428444,-33.896622,0 18.429005,-33.896027,0 18.429737,-33.895195,0 18.430424,-33.894497,0 18.431639,-33.893097,22.86 18.43248,-33.892181,38.1 18.433769,-33.890671,53.34 18.435226,-33.888748,76.2 18.436031,-33.88649,99.06 18.436031,-33.884674,114.3 18.435059,-33.882675,137.16 18.433714,-33.881516,152.4 18.431625,-33.880394,182.88 18.430014,-33.879868,198.12 18.427563,-33.879509,220.98 18.42581,-33.879364,236.22 18.423512,-33.879272,266.7 18.421726,-33.879276,289.56 18.419363,-33.879364,312.42 18.417721,-33.879463,335.28 18.415375,-33.879742,365.76 18.413658,-33.879974,381 18.410854,-33.880486,411.48 18.409081,-33.880859,426.72 18.406734,-33.881371,457.2 18.404961,-33.88179,472.44 18.402435,-33.882477,495.3 18.400669,-33.882999,502.92 18.398119,-33.883804,518.16 18.396214,-33.884583,525.78 18.393402,-33.885746,541.02 18.391514,-33.886585,556.26 18.38871,-33.887936,579.12 18.386574,-33.889023,586.74 18.383846,-33.890495,609.6 18.382244,-33.891426,624.84 18.379669,-33.892914,647.7 18.377781,-33.894127,662.94 18.375378,-33.89571,670.56 18.3734,-33.897034,678.18 18.371029,-33.898781,678.18 18.369196,-33.900238,685.8 18.366566,-33.902504,685.8 18.364992,-33.904083,685.8 18.362846,-33.906414,685.8 18.361359,-33.90823,685.8 18.359388,-33.910858,685.8 18.358383,-33.912422,685.8 18.356552,-33.915539,685.8 18.355637,-33.917263,685.8 18.354092,-33.920288,685.8 18.353109,-33.922348,678.18 18.351707,-33.925186,678.18 18.350811,-33.9272,678.18 18.349522,-33.93045,678.18 18.34885,-33.932327,670.56 18.347841,-33.935623,662.94 18.347113,-33.938141,655.32 18.346138,-33.94133,647.7 18.345263,-33.943497,647.7 18.344994,-33.946915,632.46 18.346439,-33.94899,617.22 18.35014,-33.95018,594.36 18.352604,-33.949711,586.74 18.356192,-33.947205,563.88 18.35737,-33.945602,556.26 18.359499,-33.941757,548.64 18.360901,-33.93914,541.02 18.362751,-33.935349,533.4 18.364048,-33.932438,533.4 18.366226,-33.927658,525.78 18.367348,-33.925415,525.78 18.369421,-33.921799,533.4 18.37071,-33.919785,541.02 18.37326,-33.916378,541.02 18.374805,-33.914471,533.4 18.377436,-33.911316,533.4 18.379383,-33.909115,525.78 18.382032,-33.905914,525.78 18.383883,-33.903809,518.16 18.386574,-33.901016,502.92 18.388767,-33.899105,495.3 18.391857,-33.896873,472.44 18.39426,-33.895428,464.82 18.397896,-33.893555,449.58 18.400866,-33.892227,434.34 18.404846,-33.890625,411.48 18.407818,-33.889618,358.14 18.411629,-33.888474,365.76 18.41423,-33.887794,304.8 18.418064,-33.886864,320.04 18.420525,-33.886398,297.18 18.424816,-33.885792,266.7 18.427448,-33.885746,266.7 18.431023,-33.886047,243.84 18.433096,-33.886505,228.6 18.436293,-33.887741,167.64 18.437918,-33.888702,175.26 18.439711,-33.89035,152.4 18.440496,-33.891724,106.68 18.44072,-33.893692,91.44 18.440266,-33.895058,83.82 18.438814,-33.89653,60.96 18.437525,-33.897263,45.72 18.436432,-33.897709,30.48 18.435171,-33.898132,15.24 18.434275,-33.898407,7.62 18.433657,-33.89859,0 18.432425,-33.899002,0 18.431751,-33.899231,0 18.43071,-33.89957,0 18.42979,-33.899963,0 18.428936,-33.900223,0 18.428307,-33.900455,0 18.427563,-33.900688,0 18.427391,-33.899757,0 18.427492,-33.898499,0 18.427828,-33.897812,0 18.428501,-33.896942,0 18.428949,-33.896393,0 18.429901,-33.89534,0 18.43063,-33.894562,15.24 18.431625,-33.893566,30.48 18.432199,-33.89296,38.1 18.43405,-33.890991,60.96 18.435171,-33.889572,83.82 18.436546,-33.887329,114.3 18.437021,-33.885544,129.54 18.436489,-33.883141,160.02 18.435459,-33.881927,182.88 18.432873,-33.880371,213.36 18.431416,-33.879913,228.6 18.428707,-33.879322,259.08 18.427162,-33.879135,274.32 18.424187,-33.879044,304.8 18.422335,-33.879044,327.66 18.419195,-33.879044,358.14 18.41732,-33.879089,373.38 18.41415,-33.879135,396.24 18.412302,-33.879227,411.48 18.408966,-33.879463,441.96 18.407078,-33.879742,457.2 18.404398,-33.880325,480.06 18.402328,-33.880997,495.3 18.399754,-33.882114,510.54 18.398008,-33.883026,510.54 18.395176,-33.884628,518.16 18.393635,-33.885498,518.16 18.390104,-33.887741,525.78 18.388538,-33.888771,541.02 18.385788,-33.890671,563.88 18.38419,-33.8918,579.12 18.381271,-33.89394,594.36 18.377438,-33.896873,617.22 18.372402,-33.901062,640.08 18.370823,-33.90239,647.7 18.368568,-33.904507,662.94 18.367123,-33.905914,662.94 18.364677,-33.908279,662.94 18.362961,-33.91,670.56 18.360788,-33.912506,678.18 18.35947,-33.914188,685.8 18.357697,-33.916798,685.8 18.356642,-33.918549,685.8 18.355064,-33.921593,685.8 18.354063,-33.92363,685.8 18.352716,-33.926788,685.8 18.351765,-33.929169,685.8 18.350544,-33.932297,685.8 18.349628,-33.934765,685.8 18.345711,-33.945374,670.56 18.345375,-33.947479,670.56 18.346552,-33.950592,655.32 18.348598,-33.951992,640.08 18.353119,-33.952175,617.22 18.355522,-33.951012,601.98 18.358154,-33.947941,579.12 18.359241,-33.94566,563.88 18.360901,-33.941483,533.4 18.361759,-33.939049,533.4 18.363247,-33.934952,533.4 18.364105,-33.932297,533.4 18.365364,-33.928436,533.4 18.366226,-33.926193,533.4 18.367882,-33.922802,525.78 18.369484,-33.920334,533.4 18.371943,-33.917175,533.4 18.37396,-33.915024,533.4 18.376764,-33.912186,533.4 18.378445,-33.910355,525.78 18.380856,-33.907562,525.78 18.382761,-33.905319,525.78 18.38534,-33.902252,518.16 18.387245,-33.90033,510.54 18.390484,-33.897572,495.3 18.39283,-33.896034,480.06 18.396439,-33.894241,464.82 18.39896,-33.893234,457.2 18.402493,-33.892136,434.34 18.405014,-33.891357,350.52 18.409275,-33.890167,381 18.411684,-33.889435,365.76 18.41942,-33.887329,281.94 18.422054,-33.88678,289.56 18.425922,-33.886414,266.7 18.428221,-33.886597,251.46 18.431471,-33.887421,236.22 18.43317,-33.888214,228.6 18.435675,-33.889938,205.74 18.43689,-33.891193,190.5 18.438034,-33.893101,167.64 18.43832,-33.894264,160.02 18.438309,-33.896072,121.92 18.43792,-33.896965,91.44 18.436684,-33.897949,68.58 18.435459,-33.898407,45.72 18.434429,-33.898689,30.48 18.433714,-33.898865,15.24 18.43277,-33.899059,7.62 18.43214,-33.899246,0 18.43119,-33.899506,0 18.430349,-33.89978,0 18.42923,-33.900146,0 18.428669,-33.900375,0 18.427883,-33.900604,0 18.427677,-33.900455,0 18.427267,-33.89978,0 18.426931,-33.899139,0 18.426931,-33.898315,0 18.427099,-33.89772,0 18.427883,-33.896439,0 18.428364,-33.895893,0 18.429398,-33.894791,0 18.430069,-33.894196,0 18.430967,-33.893417,7.62 18.431583,-33.892822,15.24 18.43248,-33.891953,22.86 18.433228,-33.891239,30.48 18.434029,-33.890263,38.1 18.435003,-33.889023,53.34 18.436123,-33.886826,76.2 18.436375,-33.885189,91.44 18.435974,-33.882908,114.3 18.435114,-33.881378,121.92 18.433376,-33.879776,144.78 18.432026,-33.879044,160.02 18.429901,-33.878265,182.88 18.428249,-33.87788,190.5 18.425755,-33.877396,213.36 18.424128,-33.877213,220.98 18.421719,-33.877121,243.84 18.420124,-33.877182,251.46 18.417664,-33.877365,266.7 18.415945,-33.877579,281.94 18.413422,-33.878082,304.8 18.411884,-33.878391,312.42 18.409195,-33.878998,335.28 18.40748,-33.879456,350.52 18.404846,-33.880299,373.38 18.403187,-33.880859,381 18.400698,-33.881836,396.24 18.399073,-33.882568,403.86 18.396606,-33.88385,426.72 18.39489,-33.884861,441.96 18.392601,-33.886307,449.58 18.390999,-33.887329,464.82 18.388481,-33.889004,480.06 18.387022,-33.89003,480.06 18.383961,-33.892033,518.16 18.382473,-33.893055,525.78 18.380356,-33.894592,541.02 18.378782,-33.895889,548.64 18.376694,-33.897758,563.88 18.375307,-33.899002,579.12 18.373121,-33.900787,586.74 18.371719,-33.901886,601.98 18.369534,-33.903671,609.6 18.368168,-33.904881,617.22 18.365891,-33.906967,632.46 18.364376,-33.908478,640.08 18.362303,-33.910583,647.7 18.361069,-33.911957,647.7 18.359219,-33.914246,655.32 18.357986,-33.915894,655.32 18.356417,-33.918091,662.94 18.35535,-33.919682,662.94 18.353691,-33.922337,670.56 18.352547,-33.924339,670.56 18.351149,-33.92688,678.18 18.350195,-33.928711,685.8 18.348906,-33.931732,678.18 18.348177,-33.933609,678.18 18.347111,-33.936626,678.18 18.34631,-33.938816,662.94 18.345222,-33.941887,670.56 18.344477,-33.944183,655.32 18.344757,-33.947479,624.84 18.346195,-33.949711,601.98 18.349571,-33.951756,579.12 18.352774,-33.952057,563.88 18.356495,-33.950592,563.88 18.358097,-33.948917,563.88 18.360043,-33.945332,548.64 18.361244,-33.942585,541.02 18.362526,-33.939148,533.4 18.36348,-33.936447,533.4 18.364792,-33.932625,533.4 18.365765,-33.930157,533.4 18.367195,-33.926804,533.4 18.368282,-33.924618,533.4 18.370317,-33.920883,533.4 18.371944,-33.918472,533.4 18.374405,-33.915119,533.4 18.376036,-33.91301,541.02 18.378468,-33.91,541.02 18.38007,-33.908092,541.02 18.382818,-33.904861,533.4 18.384331,-33.903122,541.02 18.387108,-33.900272,533.4 18.38932,-33.898315,518.16 18.392658,-33.895943,487.68 18.395119,-33.894497,472.44 18.399467,-33.892357,449.58 18.402044,-33.891312,434.34 18.406048,-33.889935,411.48 18.408966,-33.889004,403.86 18.412914,-33.887936,327.66 18.415604,-33.887238,358.14 18.419701,-33.886414,335.28 18.42211,-33.886047,312.42 18.426146,-33.885773,266.7 18.428612,-33.88591,259.08 18.432026,-33.886772,228.6 18.433937,-33.887604,213.36 18.436661,-33.889332,182.88 18.43786,-33.890442,167.64 18.439178,-33.892544,121.92 18.439318,-33.893921,106.68 18.438478,-33.895889,91.44 18.437405,-33.896824,60.96 18.43586,-33.897617,38.1 18.435287,-33.897804,30.48 18.433657,-33.898224,15.24 18.432999,-33.898407,0 18.432144,-33.898636,0 18.431053,-33.898968,0 18.429958,-33.899368,0 18.429117,-33.899734,0 18.42794,-33.90033,0 18.427448,-33.900551,0 18.427334,-33.899479,0 18.427322,-33.899002,0 18.427603,-33.897949,0 18.427906,-33.897385,0 18.428764,-33.896126,0 18.42934,-33.895432,0 18.430367,-33.894264,0 18.430939,-33.893612,7.62 18.431911,-33.892498,22.86 18.432425,-33.891907,30.48 18.433714,-33.890533,45.72 18.434772,-33.889236,68.58 18.436089,-33.886864,99.06 18.436375,-33.885326,114.3 18.435955,-33.883072,137.16 18.434891,-33.88147,152.4 18.432827,-33.879974,175.26 18.431358,-33.879364,190.5 18.428879,-33.878765,213.36 18.427219,-33.878483,220.98 18.42453,-33.878345,236.22 18.422783,-33.878311,243.84 18.420124,-33.878345,259.08 18.418411,-33.878403,274.32 18.41589,-33.878578,297.18 18.413982,-33.878815,304.8 18.411293,-33.879318,320.04 18.409653,-33.879696,335.28 18.407368,-33.88028,358.14 18.405519,-33.880829,373.38 18.403221,-33.881607,396.24 18.401651,-33.882248,411.48 18.399353,-33.883278,434.34 18.397671,-33.884033,449.58 18.395519,-33.885048,464.82 18.393915,-33.885864,480.06 18.391399,-33.887238,487.68 18.389769,-33.888199,502.92 18.38728,-33.889656,518.16 18.385735,-33.890587,518.16 18.382874,-33.892357,525.78 18.381136,-33.893509,533.4 18.37895,-33.89502,533.4 18.377037,-33.896408,556.26 18.374802,-33.898132,571.5 18.373457,-33.899231,586.74 18.371046,-33.901154,594.36 18.369541,-33.902412,609.6 18.367516,-33.904221,617.22 18.366114,-33.90564,632.46 18.364096,-33.907928,640.08 18.362961,-33.909302,647.7 18.361069,-33.911865,647.7 18.359985,-33.913353,655.32 18.358379,-33.915802,655.32 18.357468,-33.917355,662.94 18.35598,-33.919914,670.56 18.355007,-33.921871,670.56 18.353748,-33.924664,678.18 18.352829,-33.926834,670.56 18.351517,-33.929878,662.94 18.350658,-33.931831,662.94 18.349354,-33.935028,662.94 18.348427,-33.937092,655.32 18.347561,-33.939926,624.84 18.347626,-33.942261,624.84 18.349514,-33.945053,601.98 18.35182,-33.945969,594.36 18.356136,-33.945145,571.5 18.358379,-33.943085,563.88 18.360615,-33.939468,541.02 18.361931,-33.936859,541.02 18.363312,-33.933426,541.02 18.364277,-33.930763,541.02 18.365778,-33.926971,541.02 18.366842,-33.924728,541.02 18.36874,-33.921406,541.02 18.370285,-33.919125,541.02 18.372896,-33.915848,541.02 18.374689,-33.913742,533.4 18.377552,-33.910652,518.16 18.37944,-33.908649,518.16 18.382244,-33.905766,518.16 18.38419,-33.903717,502.92 18.387245,-33.900558,487.68 18.389431,-33.89859,480.06 18.392963,-33.896027,464.82 18.395519,-33.894547,449.58 18.399754,-33.892544,426.72 18.40238,-33.891495,419.1 18.406696,-33.889938,396.24 18.409252,-33.889191,388.62 18.412918,-33.888153,365.76 18.416004,-33.887421,350.52 18.419838,-33.886818,335.28 18.422756,-33.886539,320.04 18.426476,-33.886585,281.94 18.429173,-33.886963,266.7 18.432426,-33.887936,236.22 18.434105,-33.888702,236.22 18.436489,-33.890541,205.74 18.437634,-33.891659,182.88 18.43915,-33.8936,160.02 18.439711,-33.894928,152.4 18.43943,-33.896484,121.92 18.438549,-33.897339,91.44 18.43646,-33.898132,60.96 18.435287,-33.898457,45.72 18.434143,-33.898689,30.48 18.433546,-33.898773,22.86 18.43277,-33.898827,7.62 18.432087,-33.898819,0 18.431225,-33.898781,0 18.430595,-33.898922,0 18.429852,-33.899338,0 18.429337,-33.89962,0 18.42802,-33.900318,0 18.427547,-33.900513,0 18.427828,-33.90065,0 18.428364,-33.900738,0 18.429173,-33.900742,0 18.430239,-33.900558,0 18.431339,-33.900318,0 18.432032,-33.900055,0 18.433113,-33.899666,0 18.434105,-33.899185,0 18.435173,-33.898457,15.24 18.4359,-33.89772,22.86 18.437405,-33.895382,60.96 18.438086,-33.893738,76.2 18.438759,-33.891083,99.06 18.43895,-33.889145,106.68 18.438253,-33.886368,129.54 18.437405,-33.884956,144.78 18.435675,-33.883072,160.02 18.434143,-33.882069,167.64 18.431854,-33.880997,182.88 18.430239,-33.880417,198.12 18.427448,-33.879509,220.98 18.425642,-33.879044,236.22 18.423231,-33.878632,259.08 18.421213,-33.878448,266.7 18.418579,-33.878345,297.18 18.416576,-33.878483,312.42 18.414059,-33.878811,335.28 18.412245,-33.879135,350.52 18.409666,-33.879776,373.38 18.407879,-33.880299,388.62 18.40535,-33.881104,403.86 18.403837,-33.881653,411.48 18.400978,-33.882843,434.34 18.399467,-33.883465,449.58 18.397055,-33.884583,457.2 18.395205,-33.885498,472.44 18.392963,-33.886597,510.54 18.391228,-33.887516,525.78 18.388996,-33.888821,541.02 18.387566,-33.889751,548.64 18.38534,-33.891174,556.26 18.383657,-33.892319,563.88 18.3811,-33.894032,571.5 18.379511,-33.895111,579.12 18.376877,-33.896759,594.36 18.375092,-33.897942,601.98 18.371439,-33.900375,609.6 18.369701,-33.901794,609.6 18.367195,-33.904228,617.22 18.365946,-33.905685,624.84 18.363934,-33.908279,640.08 18.362846,-33.909767,647.7 18.36113,-33.912189,662.94 18.359985,-33.913864,670.56 18.358154,-33.916489,678.18 18.357124,-33.918148,678.18 18.354778,-33.921917,670.56 18.353783,-33.923767,662.94 18.352268,-33.926743,655.32 18.351316,-33.928802,647.7 18.350195,-33.931961,632.46 18.349522,-33.934387,624.84 18.348513,-33.937866,609.6 18.347683,-33.939793,586.74 18.34671,-33.9431,571.5 18.347281,-33.944458,609.6 18.349628,-33.944866,662.94 18.350979,-33.944504,685.8 18.352942,-33.943451,670.56 18.355408,-33.941143,601.98 18.357986,-33.938004,579.12 18.359756,-33.93565,571.5 18.361685,-33.932556,571.5 18.363031,-33.930267,571.5 18.364964,-33.926758,556.26 18.366058,-33.924728,548.64 18.368168,-33.921219,533.4 18.369476,-33.919373,533.4 18.372059,-33.916237,525.78 18.37385,-33.9142,525.78 18.376764,-33.91095,533.4 18.378445,-33.909027,533.4 18.382988,-33.9039,518.16 18.387918,-33.898773,487.68 18.390888,-33.896393,464.82 18.393412,-33.894836,449.58 18.396999,-33.893005,419.1 18.399467,-33.891983,411.48 18.403837,-33.890442,350.52 18.40608,-33.889755,381 18.410004,-33.888657,365.76 18.412342,-33.888073,350.52 18.415945,-33.887238,335.28 18.418692,-33.886688,327.66 18.422813,-33.886074,236.22 18.425249,-33.88591,289.56 18.428949,-33.886002,251.46 18.431225,-33.886353,259.08 18.434315,-33.887421,228.6 18.435787,-33.888428,213.36 18.437412,-33.890625,182.88 18.437748,-33.891846,160.02 18.437302,-33.893784,121.92 18.436489,-33.894684,91.44 18.434946,-33.895935,60.96 18.434143,-33.8965,45.72 18.432941,-33.897293,22.86 18.432367,-33.897583,15.24 18.431358,-33.898178,0 18.430742,-33.89859,0 18.429733,-33.899185,0 18.429117,-33.899597,0 18.428421,-33.90004,0 18.427906,-33.900364,0 18.427435,-33.90033,0 18.427219,-33.89962,0 18.42802,-33.898083,0 18.42865,-33.897385,0 18.429623,-33.896126,7.62 18.430239,-33.895248,15.24 18.431053,-33.894077,30.48 18.431639,-33.893143,38.1 18.432985,-33.890991,53.34 18.433971,-33.889236,76.2 18.435394,-33.886688,106.68 18.436031,-33.884907,137.16 18.435955,-33.882202,182.88 18.435114,-33.880463,213.36 18.433208,-33.878815,236.22 18.431696,-33.877991,243.84 18.42923,-33.877121,259.08 18.42738,-33.876572,281.94 18.424816,-33.87611,312.42 18.423063,-33.875885,327.66 18.420542,-33.875656,358.14 18.418694,-33.875553,373.38 18.416061,-33.875553,403.86 18.414095,-33.875656,419.1 18.411123,-33.876114,441.96 18.409386,-33.876434,449.58 18.406416,-33.877075,472.44 18.404678,-33.877533,487.68 18.401819,-33.878357,518.16 18.400026,-33.878952,533.4 18.397179,-33.88002,548.64 18.395149,-33.880829,556.26 18.392122,-33.882156,556.26 18.389969,-33.883232,563.88 18.387051,-33.884628,563.88 18.385172,-33.88559,571.5 18.38209,-33.887283,571.5 18.380407,-33.88829,579.12 18.377884,-33.889984,586.74 18.376293,-33.891193,586.74 18.373718,-33.893242,594.36 18.372112,-33.894562,601.98 18.370037,-33.896439,624.84 18.368568,-33.897804,640.08 18.366339,-33.900055,655.32 18.365105,-33.901428,662.94 18.363075,-33.90395,678.18 18.361797,-33.905731,685.8 18.360397,-33.908112,685.8 18.35947,-33.909908,693.42 18.358212,-33.912514,708.66 18.35741,-33.914284,708.66 18.356209,-33.917076,716.28 18.355522,-33.918797,723.9 18.354511,-33.921341,731.52 18.352432,-33.927086,746.76 18.35146,-33.929878,739.14 18.350658,-33.931786,739.14 18.349514,-33.934765,731.52 18.347797,-33.939049,716.28 18.344307,-33.948544,701.04 18.343693,-33.950409,701.04 18.340988,-33.958973,693.42 18.338585,-33.96698,693.42 18.335508,-33.973938,701.04 18.331137,-33.982681,693.42 18.326204,-33.99147,685.8 18.323458,-33.995636,685.8 18.321648,-33.99831,701.04 18.320446,-34.00008,708.66 18.319244,-34.00301,723.9 18.319702,-34.004967,731.52 18.322729,-34.007401,739.14 18.325367,-34.008224,731.52 18.32983,-34.008457,739.14 18.332462,-34.007202,731.52 18.335005,-34.003784,723.9 18.336296,-34.001381,731.52 18.338184,-33.997845,731.52 18.339825,-33.995041,731.52 18.342068,-33.991333,731.52 18.347672,-33.983917,731.52 18.354092,-33.976105,716.28 18.35701,-33.970005,708.66 18.358828,-33.957138,670.56 18.358955,-33.953526,662.94 18.358995,-33.94931,655.32 18.358938,-33.946381,647.7 18.359184,-33.939423,601.98 18.359499,-33.936218,594.36 18.360508,-33.93187,579.12 18.361702,-33.928806,563.88 18.363873,-33.9245,548.64 18.365307,-33.922245,541.02 18.367851,-33.918777,541.02 18.369925,-33.916214,541.02 18.373009,-33.912689,541.02 18.374802,-33.910629,548.64 18.377781,-33.90744,556.26 18.379841,-33.9053,556.26 18.382818,-33.902252,563.88 18.385227,-33.899918,556.26 18.388647,-33.897034,563.88 18.391001,-33.895157,563.88 18.394701,-33.892502,541.02 18.396999,-33.8909,525.78 18.401258,-33.888336,510.54 18.403782,-33.886963,495.3 18.408337,-33.884907,472.44 18.411255,-33.883793,449.58 18.416168,-33.882568,411.48 18.419643,-33.882248,396.24 18.425081,-33.882477,358.14 18.428421,-33.883186,358.14 18.432592,-33.884766,342.9 18.435059,-33.886093,342.9 18.438435,-33.888168,320.04 18.440552,-33.88961,304.8 18.443411,-33.891998,274.32 18.445129,-33.893845,251.46 18.446159,-33.896824,220.98 18.445316,-33.898361,205.74 18.442383,-33.899014,167.64 18.440271,-33.89827,137.16 18.437576,-33.897106,114.3 18.435917,-33.896778,99.06 18.433601,-33.896988,76.2 18.432257,-33.897217,53.34 18.430519,-33.897583,45.72 18.429733,-33.897812,38.1 18.428478,-33.898457,0 18.427883,-33.898865,0 18.427322,-33.899551,0 18.427603,-33.900055,0 18.427435,-33.900238,0 18.427212,-33.899643,0 18.427334,-33.89827,0 18.42766,-33.897629,0 18.428389,-33.896667,0 18.428892,-33.896027,0 18.429678,-33.895111,7.62 18.430349,-33.894241,15.24 18.431303,-33.893097,22.86 18.431854,-33.892448,30.48 18.432928,-33.891174,38.1 18.434162,-33.889755,68.58 18.4359,-33.887329,83.82 18.436775,-33.8857,99.06 18.437176,-33.883327,114.3 18.436718,-33.881462,129.54 18.434778,-33.879684,167.64 18.433228,-33.879044,182.88 18.430023,-33.878113,228.6 18.428837,-33.877762,236.22 18.426247,-33.877319,266.7 18.424931,-33.877274,281.94 18.422699,-33.877365,304.8 18.421268,-33.87746,312.42 18.418915,-33.877808,327.66 18.417402,-33.878036,342.9 18.415104,-33.878494,365.76 18.413429,-33.878811,373.38 18.411255,-33.879181,396.24 18.409595,-33.879509,403.86 18.407032,-33.880188,419.1 18.40559,-33.880627,434.34 18.402884,-33.881607,457.2 18.401426,-33.882202,472.44 18.399124,-33.883186,480.06 18.397465,-33.883976,487.68 18.394924,-33.885223,510.54 18.393459,-33.886024,518.16 18.391001,-33.887375,541.02 18.389431,-33.88829,556.26 18.38719,-33.889801,579.12 18.385792,-33.890728,586.74 18.383657,-33.892319,609.6 18.382145,-33.893463,617.22 18.379669,-33.895195,640.08 18.378181,-33.896358,655.32 18.372952,-33.90033,670.56 18.371258,-33.901714,678.18 18.369085,-33.903717,685.8 18.36771,-33.905064,693.42 18.365665,-33.907242,701.04 18.36422,-33.908928,701.04 18.362135,-33.91127,708.66 18.360788,-33.912827,708.66 18.35877,-33.915253,701.04 18.357538,-33.916763,693.42 18.355801,-33.919006,693.42 18.354721,-33.920475,693.42 18.353054,-33.923035,693.42 18.352213,-33.924545,693.42 18.350601,-33.927223,693.42 18.349689,-33.928848,693.42 18.348198,-33.931507,693.42 18.347393,-33.932968,693.42 18.346024,-33.935604,693.42 18.34515,-33.937363,693.42 18.344021,-33.939934,693.42 18.343334,-33.941704,685.8 18.342123,-33.944687,678.18 18.341331,-33.946823,670.56 18.340162,-33.949768,662.94 18.339209,-33.951828,670.56 18.337807,-33.954483,670.56 18.336754,-33.956135,678.18 18.331305,-33.96373,685.8 18.325768,-33.971867,678.18 18.322336,-33.978149,678.18 18.31959,-33.983276,693.42 18.314209,-33.992443,685.8 18.311127,-33.998062,685.8 18.308323,-34.002914,678.18 18.307228,-34.004734,685.8 18.30471,-34.009342,685.8 18.303738,-34.011112,685.8 18.302479,-34.013996,678.18 18.302549,-34.016006,670.56 18.304653,-34.018559,647.7 18.307228,-34.019772,624.84 18.312078,-34.019897,594.36 18.314896,-34.019073,579.12 18.319029,-34.01651,563.88 18.321362,-34.014229,556.26 18.324074,-34.010925,548.64 18.325869,-34.008499,548.64 18.328558,-34.0047,556.26 18.330185,-34.002319,556.26 18.335438,-33.994865,548.64 18.339729,-33.989605,548.64 18.345909,-33.981644,533.4 18.350487,-33.974846,533.4 18.355122,-33.966236,541.02 18.35737,-33.960251,533.4 18.359276,-33.953476,525.78 18.359892,-33.950363,518.16 18.360615,-33.946079,525.78 18.361069,-33.943405,533.4 18.361759,-33.939747,525.78 18.362331,-33.937466,525.78 18.363535,-33.933609,533.4 18.364431,-33.931229,533.4 18.366058,-33.927292,541.02 18.367235,-33.924866,548.64 18.368969,-33.921871,548.64 18.370514,-33.919544,548.64 18.372896,-33.916397,541.02 18.374977,-33.913956,525.78 18.377605,-33.911041,518.16 18.379791,-33.908752,510.54 18.382538,-33.905777,518.16 18.384386,-33.903717,510.54 18.387165,-33.900738,495.3 18.389225,-33.898827,487.68 18.392487,-33.896267,480.06 18.394547,-33.894917,464.82 18.398266,-33.892776,396.24 18.400755,-33.891541,449.58 18.40423,-33.889984,441.96 18.406919,-33.888977,434.34 18.410675,-33.887695,419.1 18.413311,-33.886917,411.48 18.417549,-33.885979,396.24 18.420124,-33.885605,388.62 18.423443,-33.885513,381 18.425585,-33.885635,373.38 18.42865,-33.886211,350.52 18.430574,-33.886826,335.28 18.433657,-33.888245,297.18 18.435059,-33.889099,281.94 18.437347,-33.89082,251.46 18.438377,-33.892078,228.6 18.43915,-33.894012,198.12 18.439207,-33.895111,182.88 18.438759,-33.896713,137.16 18.43792,-33.897476,114.3 18.436089,-33.898315,76.2 18.434891,-33.89859,53.34 18.433628,-33.898872,38.1 18.433041,-33.899048,22.86 18.432144,-33.899277,7.62 18.431358,-33.89946,0 18.430574,-33.899643,0 18.429966,-33.899807,0 18.428879,-33.900131,0 18.428307,-33.900318,0 18.427505,-33.900505,0 18.42738,-33.89978,0 18.428221,-33.898682,0 18.428724,-33.898315,0 18.429678,-33.897537,0 18.430138,-33.89706,0 18.430855,-33.896072,0 18.431396,-33.895428,0 18.432032,-33.89447,22.86 18.432598,-33.893566,38.1 18.433628,-33.891983,60.96 18.434555,-33.890533,68.58 18.435732,-33.888245,83.82 18.436293,-33.886551,99.06 18.436317,-33.88435,121.92 18.435619,-33.882706,137.16 18.433769,-33.88092,160.02 18.432257,-33.880005,182.88 18.429909,-33.878857,205.74 18.428249,-33.8783,213.36 18.425617,-33.877785,228.6 18.423901,-33.877647,243.84 18.421497,-33.877739,251.46 18.419756,-33.877945,266.7 18.416954,-33.878357,281.94 18.415318,-33.878578,297.18 18.412971,-33.878998,320.04 18.411404,-33.879318,335.28 18.408794,-33.879833,350.52 18.407364,-33.880207,365.76 18.405182,-33.881012,381 18.403645,-33.881649,403.86 18.401596,-33.882477,419.1 18.400097,-33.883141,434.34 18.397783,-33.884216,449.58 18.39632,-33.885002,464.82 18.394253,-33.886139,495.3 18.39283,-33.887005,510.54 18.390778,-33.888199,533.4 18.389568,-33.888912,541.02 18.387108,-33.890354,548.64 18.385677,-33.891331,548.64 18.38349,-33.892868,556.26 18.382015,-33.893986,563.88 18.379955,-33.895615,586.74 18.378557,-33.896667,594.36 18.376539,-33.89827,609.6 18.374521,-33.899826,624.84 18.372574,-33.901386,632.46 18.371086,-33.902786,640.08 18.369308,-33.904495,647.7 18.368111,-33.905716,662.94 18.366226,-33.907837,678.18 18.365217,-33.909256,678.18 18.363876,-33.91135,685.8 18.362904,-33.912933,685.8 18.361645,-33.915352,678.18 18.360786,-33.917217,678.18 18.359779,-33.91951,678.18 18.35907,-33.921032,678.18 18.357761,-33.923721,678.18 18.356953,-33.92527,670.56 18.355743,-33.927795,670.56 18.354959,-33.929581,670.56 18.353951,-33.932327,670.56 18.353348,-33.933929,678.18 18.352325,-33.936447,678.18 18.35146,-33.938305,678.18 18.350307,-33.940796,678.18 18.349522,-33.942581,678.18 18.348427,-33.945194,678.18 18.347729,-33.947021,678.18 18.346481,-33.949615,678.18 18.345566,-33.951153,678.18 18.344078,-33.953434,685.8 18.342852,-33.955215,685.8 18.340441,-33.958786,678.18 18.336966,-33.964325,678.18 18.33349,-33.970505,701.04 18.331192,-33.974991,716.28 18.327541,-33.980572,708.66 18.324018,-33.984375,716.28 18.32172,-33.987167,723.9 18.32056,-33.988861,723.9 18.318844,-33.991512,723.9 18.317739,-33.993347,731.52 18.316326,-33.995655,739.14 18.315411,-33.997284,739.14 18.314096,-33.999527,731.52 18.312778,-34.001289,731.52 18.310846,-34.003601,723.9 18.309288,-34.005291,716.28 18.306942,-34.007339,716.28 18.305466,-34.008499,708.66 18.303394,-34.010601,708.66 18.302364,-34.012043,708.66 18.302822,-34.016884,655.32 18.304457,-34.018066,640.08 18.307686,-34.018887,693.42 18.309164,-34.018982,723.9 18.311911,-34.018341,693.42 18.314323,-34.016838,640.08 18.317642,-34.014557,617.22 18.319988,-34.012741,609.6 18.323402,-34.009964,594.36 18.325195,-34.007435,579.12 18.327549,-34.003876,556.26 18.329119,-34.001633,541.02 18.336462,-33.992935,541.02 18.340988,-33.987976,533.4 18.352213,-33.975815,510.54 18.35524,-33.970596,525.78 18.358669,-33.962185,533.4 18.360172,-33.956406,548.64 18.36113,-33.951897,548.64 18.361629,-33.949539,541.02 18.362331,-33.94603,541.02 18.364321,-33.936905,533.4 18.366108,-33.930485,525.78 18.366898,-33.928116,525.78 18.368568,-33.924572,525.78 18.369253,-33.922028,525.78 18.371201,-33.918381,525.78 18.372841,-33.916214,525.78 18.375607,-33.913303,518.16 18.377605,-33.911453,518.16 18.381157,-33.90823,518.16 18.383099,-33.906326,518.16 18.385956,-33.903442,502.92 18.388138,-33.901016,495.3 18.391001,-33.898178,487.68 18.393288,-33.896358,480.06 18.396549,-33.894405,464.82 18.399239,-33.893101,441.96 18.402773,-33.891632,419.1 18.405519,-33.890671,396.24 18.409555,-33.889481,365.76 18.412228,-33.888771,350.52 18.416336,-33.88765,259.08 18.419037,-33.887005,304.8 18.422783,-33.88623,289.56 18.425585,-33.885864,281.94 18.429678,-33.886185,274.32 18.431511,-33.886585,266.7 18.434217,-33.887787,251.46 18.435631,-33.88868,236.22 18.437412,-33.890213,228.6 18.438366,-33.89122,213.36 18.43935,-33.893009,182.88 18.439636,-33.893986,167.64 18.439543,-33.895889,129.54 18.43895,-33.896873,106.68 18.43729,-33.898037,76.2 18.4359,-33.898407,53.34 18.434143,-33.89864,30.48 18.433571,-33.898735,30.48 18.432312,-33.898872,7.62 18.431454,-33.899059,0 18.43071,-33.899246,0 18.43008,-33.899479,0 18.428936,-33.899899,0 18.428192,-33.900223,0 18.427334,-33.900642,0
        </coordinates>
      </LineString>
    </Placemark>
  </Document>
</kml>