<?xml version="1.0" encoding="UTF-8"?>
<kml xmlns="http://www.opengis.net/kml/2.2">
  <Document>
    <name>-/ZTHOT - Optimised</name>
    <description><![CDATA[Optimised flight path with 1124 points (decimated from 5618 original points). Source format: Standard KML]]></description>
    
    <Style id="flightPath">
      <LineStyle>
        <color>ffff0000</color>
        <width>3</width>
      </LineStyle>
    </Style>
    
    <Placemark>
      <name>Flight Path</name>
      <description><![CDATA[<div style="width:220px; text-align:center;">
<div style="width:210px; text-align:center;">
<div style=" background: #000; color: #fff; font-size: 14px; text-align:left; border: 1px solid #000; padding: 2px 6px; text-shadow: 0 1px 0 #000; box-shadow: 0 1px 3px rgba(0,0,0,0.6); background: -webkit-gradient(linear, left top, left bottom, color-stop(0%,#808080), color-stop(2%,#303030), color-stop(100%,#0c0c0c));"><span style="font-size: 14px; font-weight: bold;"><a href="javascript:void(0);" style="color: #fff; cursor: pointer;text-decoration: none;">-</a></span> / ZTHOT<br/>Cape Town Helicopters</div>

<div style="border-top: 1px solid #005c90; color: #fff; padding-bottom: 5px; box-shadow: 0 0 1px #9BE3F6 inset, 0 1px 0 #9BE3F6 inset, 0 -1px 3px rgba(0,0,0,0.4); background:rgba(43,114,173,1); background: -webkit-gradient(linear, left top, left bottom, color-stop(0%,rgba(92,184,229,1)), color-stop(100%,rgba(43,114,173,1)));">
<a style="text-decoration: none; color: rgb(255, 255, 255); font-size: 12px; width:77px; display: inline-block;" title=" Airport" href="javascript:void(0);/departures"><h3 style="padding: 0px; margin: 10px 0px 0px; font-size: 16px; ">?</h3></a>
<span style="background: url(https://www.flightradar24.com/static/images/userUI_sprite.png?14) no-repeat scroll 0 -464px rgba(0, 0, 0, 0); border: medium none; display: inline-block; height: 16px; width: 45px;"></span>
<a style="text-decoration: none; color: rgb(255, 255, 255); font-size: 12px; width:77px; display: inline-block;" title=" Airport" href="javascript:void(0);/arrivals"><h3 style="padding: 0px; margin: 10px 0px 0px; font-size: 16px;">?</h3></a>
<div style=" margin-top:10px;">
<div style="display: inline-block; font-size: 12px; padding: 0 5px;">
<div>
<span style="color: #c1eaff;" title="Actual Time of Departure">ATD </span>
<span title="2025-11-29 06:52">06:52</span> <span title="Coordinated Universal Time">UTC</span>
</div>
</div>
<div style="display: inline-block; font-size: 12px; padding: 0 5px;">
<div>
<span style="color: #c1eaff;" title="Estimated Time of Arrival">ETA </span>
<span title="2025-11-29 07:16">07:16</span> <span title="Coordinated Universal Time">UTC</span>
</div>
</div>
</div>
<br style="clear: both;"/>
</div>

<div style="display: block;">
<table style="border-collapse: collapse; width: 100%;">
<tr style="border-right: 1px solid #dadada; ">
<td style="background: none repeat scroll 0 0 #dadada; padding: 0; width: 31px;">
<span style="background: url(https://www.flightradar24.com/static/images/userUI_sprite.png?14) no-repeat scroll -208px -464px rgba(0, 0, 0, 0); height: 26px; margin: 8px 0 0 4px; width: 23px; display: block;"></span>
</td>
<td colspan="2" style="border-bottom: 1px solid #dadada; border-left: 1px solid #dadada; color: #666; line-height: 1.1em; padding: 3px 6px; vertical-align: top; font-size: 14px;">
Aircraft<span style="float: right; font-size: 12px;">(AS50)</span><br>
<span style="color: #333; font-size: 16px; font-weight: bold; line-height: 1.3em;">Airbus Helicopters H125</span>
</td>
</tr>
<tr style="border-right: 1px solid #dadada; ">
<td style="background: none repeat scroll 0 0 #dadada; padding: 0; width: 31px;">
<td colspan="2" style="border-bottom: 1px solid #dadada; border-left: 1px solid #dadada; color: #666; line-height: 1.1em; padding: 3px 6px; vertical-align: top; font-size: 14px;">
Registration<br>
<span style="color: #333; font-size: 16px; font-weight: bold; line-height: 1.3em;"><a href="https://www.flightradar24.com/reg/zt-hot" style="text-decoration: none; color: #333;">ZT-HOT</a></span>
</td>
</tr>
</table>
</div>

</div>
</div>]]></description>
      <styleUrl>#flightPath</styleUrl>
      <LineString>
        <extrude>1</extrude>
        <tessellate>1</tessellate>
        <altitudeMode>absolute</altitudeMode>
        <coordinates>
          18.428108,-33.898499,60.96 18.430367,-33.894917,121.92 18.43111,-33.893333,152.4 18.431911,-33.891331,152.4 18.432367,-33.889481,182.88 18.432425,-33.887009,213.36 18.431969,-33.885326,243.84 18.430182,-33.882935,274.32 18.428535,-33.881557,274.32 18.425474,-33.879684,304.8 18.423176,-33.878677,304.8 18.419838,-33.877647,335.28 18.417263,-33.877132,365.76 18.413647,-33.876892,396.24 18.411484,-33.876949,396.24 18.408321,-33.877304,426.72 18.405819,-33.877785,426.72 18.402044,-33.878769,426.72 18.399982,-33.879463,457.2 18.396494,-33.880875,457.2 18.394146,-33.881977,457.2 18.391113,-33.883606,487.68 18.388882,-33.884956,487.68 18.386135,-33.886772,518.16 18.384108,-33.888153,518.16 18.3811,-33.8904,518.16 18.379097,-33.891983,548.64 18.376751,-33.894032,548.64 18.375027,-33.895706,579.12 18.372917,-33.89785,579.12 18.371487,-33.899338,579.12 18.369484,-33.901573,609.6 18.367996,-33.903389,609.6 18.366114,-33.905823,609.6 18.364824,-33.907516,609.6 18.362974,-33.910126,640.08 18.361797,-33.911865,640.08 18.359985,-33.914562,640.08 18.358828,-33.916443,640.08 18.357201,-33.919189,640.08 18.355463,-33.922256,640.08 18.354006,-33.924957,640.08 18.352997,-33.926926,640.08 18.35146,-33.930202,609.6 18.350487,-33.932251,609.6 18.346272,-33.941116,609.6 18.344366,-33.945374,609.6 18.340721,-33.952744,640.08 18.341282,-33.958374,701.04 18.344078,-33.956783,670.56 18.346195,-33.954456,640.08 18.348942,-33.950733,640.08 18.350195,-33.948807,640.08 18.352432,-33.94524,640.08 18.353895,-33.942856,640.08 18.356037,-33.939423,609.6 18.357353,-33.937,609.6 18.359356,-33.933369,609.6 18.360729,-33.930901,609.6 18.362526,-33.927612,609.6 18.365135,-33.922848,579.12 18.371662,-33.911911,548.64 18.37326,-33.909626,548.64 18.375643,-33.906235,548.64 18.3771,-33.904312,548.64 18.379847,-33.901062,518.16 18.381752,-33.899048,518.16 18.38459,-33.896358,518.16 18.386536,-33.894684,548.64 18.389626,-33.892403,548.64 18.392029,-33.890915,548.64 18.395634,-33.889004,518.16 18.398344,-33.887878,518.16 18.402157,-33.886444,518.16 18.40456,-33.8857,518.16 18.408623,-33.884674,518.16 18.411684,-33.884079,518.16 18.415718,-33.88356,487.68 18.418524,-33.883347,487.68 18.422985,-33.883278,487.68 18.425903,-33.883419,487.68 18.430195,-33.883839,457.2 18.432713,-33.884258,426.72 18.43618,-33.885086,426.72 18.438263,-33.885933,396.24 18.441296,-33.887749,365.76 18.442795,-33.88916,365.76 18.444271,-33.891472,304.8 18.444475,-33.893097,304.8 18.443579,-33.895157,274.32 18.442064,-33.896118,274.32 18.439878,-33.896851,213.36 18.438034,-33.897385,182.88 18.435631,-33.898037,152.4 18.433971,-33.898502,121.92 18.431396,-33.899155,91.44 18.430239,-33.899368,60.96 18.427277,-33.900131,30.48 18.426819,-33.900505,30.48 18.427105,-33.901119,0 18.428364,-33.897991,60.96 18.430138,-33.894127,152.4 18.430653,-33.892776,182.88 18.431358,-33.890671,213.36 18.431797,-33.888912,243.84 18.432032,-33.886459,274.32 18.431696,-33.884491,274.32 18.43063,-33.881836,304.8 18.429678,-33.880188,335.28 18.427677,-33.877647,365.76 18.426132,-33.876156,396.24 18.423512,-33.8741,396.24 18.421669,-33.87299,426.72 18.418636,-33.871689,426.72 18.416176,-33.871128,457.2 18.412285,-33.87085,487.68 18.409481,-33.871037,487.68 18.405933,-33.871735,518.16 18.403334,-33.872452,518.16 18.40004,-33.873829,518.16 18.397408,-33.875179,548.64 18.394253,-33.876984,579.12 18.392403,-33.878174,579.12 18.389568,-33.880207,579.12 18.387583,-33.88179,579.12 18.38459,-33.884304,579.12 18.382593,-33.886093,579.12 18.379955,-33.888634,579.12 18.378334,-33.890213,579.12 18.375868,-33.892731,579.12 18.374298,-33.894379,609.6 18.371943,-33.897125,609.6 18.370399,-33.899014,609.6 18.36834,-33.901527,640.08 18.366955,-33.903305,640.08 18.364964,-33.905949,640.08 18.363647,-33.90781,640.08 18.361874,-33.910557,640.08 18.36062,-33.912506,640.08 18.358938,-33.915207,640.08 18.356609,-33.918892,670.56 18.350588,-33.929306,670.56 18.346195,-33.937885,670.56 18.342796,-33.944824,670.56 18.341675,-33.94701,670.56 18.336126,-33.959106,701.04 18.339937,-33.96048,701.04 18.342684,-33.957962,670.56 18.344135,-33.955715,670.56 18.346481,-33.951897,640.08 18.347729,-33.949814,640.08 18.35014,-33.94606,609.6 18.351597,-33.943909,609.6 18.355072,-33.938324,609.6 18.360443,-33.928993,579.12 18.366619,-33.917862,609.6 18.369701,-33.912552,609.6 18.371887,-33.90921,579.12 18.373547,-33.906929,579.12 18.376091,-33.903946,579.12 18.377996,-33.901886,579.12 18.381023,-33.898819,579.12 18.382818,-33.897171,579.12 18.385963,-33.89436,548.64 18.388311,-33.892593,548.64 18.391506,-33.890396,548.64 18.393972,-33.88884,548.64 18.397808,-33.886818,548.64 18.400417,-33.885727,548.64 18.404118,-33.884445,518.16 18.406864,-33.883667,518.16 18.410675,-33.882797,518.16 18.413544,-33.882393,518.16 18.417835,-33.882114,518.16 18.420811,-33.88221,487.68 18.425081,-33.882706,518.16 18.427773,-33.883255,487.68 18.431568,-33.884396,487.68 18.433714,-33.885315,457.2 18.437061,-33.887142,426.72 18.439064,-33.888493,426.72 18.441786,-33.890717,365.76 18.442955,-33.892216,365.76 18.443747,-33.894745,335.28 18.443069,-33.895893,335.28 18.441238,-33.896687,304.8 18.439579,-33.89706,274.32 18.437347,-33.897572,213.36 18.435917,-33.897942,182.88 18.433489,-33.898544,152.4 18.430855,-33.899139,91.44 18.427105,-33.900177,30.48 18.426819,-33.900642,30.48 18.427477,-33.900772,0 18.427773,-33.899689,30.48 18.428135,-33.899014,30.48 18.428782,-33.897858,60.96 18.429846,-33.896027,91.44 18.430462,-33.894699,121.92 18.431396,-33.892498,152.4 18.431919,-33.891083,152.4 18.432705,-33.888611,182.88 18.432928,-33.8871,213.36 18.432873,-33.884537,243.84 18.432484,-33.882858,243.84 18.431568,-33.880161,274.32 18.430538,-33.878391,274.32 18.428535,-33.87611,335.28 18.427099,-33.874969,335.28 18.423843,-33.873363,365.76 18.421497,-33.872757,365.76 18.417963,-33.872543,396.24 18.415489,-33.87262,396.24 18.411369,-33.873177,426.72 18.408434,-33.873779,426.72 18.404903,-33.874805,457.2 18.402729,-33.875553,457.2 18.399466,-33.876846,487.68 18.397179,-33.877926,487.68 18.394375,-33.879414,518.16 18.391972,-33.880764,518.16 18.38876,-33.882751,548.64 18.386854,-33.883942,548.64 18.383732,-33.886024,579.12 18.381809,-33.887375,579.12 18.37923,-33.889297,579.12 18.377438,-33.890728,609.6 18.374462,-33.893196,609.6 18.372574,-33.894962,640.08 18.370262,-33.897171,640.08 18.368568,-33.898872,640.08 18.365993,-33.901573,670.56 18.36462,-33.903111,670.56 18.362389,-33.90567,670.56 18.360786,-33.907673,701.04 18.35877,-33.910309,701.04 18.357296,-33.912327,701.04 18.355408,-33.91507,731.52 18.354092,-33.917076,731.52 18.352146,-33.920147,731.52 18.350887,-33.92215,731.52 18.346596,-33.929085,731.52 18.342852,-33.935806,762 18.336353,-33.949524,762 18.333321,-33.957157,762 18.328838,-33.969131,762 18.427492,-33.900742,30.48 18.426706,-33.899323,60.96 18.427563,-33.89827,60.96 18.429005,-33.896942,91.44 18.430424,-33.895756,91.44 18.432312,-33.894077,121.92 18.433546,-33.892685,121.92 18.435173,-33.89045,152.4 18.43626,-33.888771,152.4 18.437405,-33.886211,182.88 18.437469,-33.884583,213.36 18.436203,-33.881744,243.84 18.434834,-33.880508,243.84 18.431225,-33.878902,304.8 18.42934,-33.878403,304.8 18.426189,-33.877834,335.28 18.424185,-33.877579,335.28 18.420933,-33.87735,365.76 18.418579,-33.877228,365.76 18.415146,-33.877228,396.24 18.413141,-33.877258,396.24 18.409653,-33.877415,426.72 18.40765,-33.877598,426.72 18.404621,-33.877991,457.2 18.4021,-33.878345,457.2 18.398724,-33.878902,487.68 18.396719,-33.879364,487.68 18.393574,-33.880253,518.16 18.391514,-33.880905,518.16 18.388424,-33.881977,518.16 18.38625,-33.882813,548.64 18.383377,-33.884125,548.64 18.3811,-33.885235,548.64 18.37801,-33.886864,579.12 18.375978,-33.888016,579.12 18.373375,-33.889702,609.6 18.371271,-33.89122,609.6 18.368454,-33.893475,609.6 18.36673,-33.894974,609.6 18.364096,-33.897537,609.6 18.362638,-33.899002,609.6 18.360271,-33.901669,609.6 18.358955,-33.903252,609.6 18.356865,-33.905823,640.08 18.355856,-33.907196,640.08 18.353783,-33.909943,670.56 18.352549,-33.911591,670.56 18.350887,-33.914005,670.56 18.349972,-33.915585,670.56 18.348457,-33.918137,701.04 18.347397,-33.919914,701.04 18.345934,-33.92244,701.04 18.344994,-33.923965,731.52 18.343449,-33.926712,731.52 18.342348,-33.928482,731.52 18.340244,-33.930717,762 18.33876,-33.93187,762 18.33663,-33.934799,762 18.336798,-33.936401,762 18.339096,-33.938828,762 18.341446,-33.939514,762 18.345711,-33.938965,762 18.34857,-33.937637,731.52 18.352032,-33.935276,701.04 18.354174,-33.93338,701.04 18.356895,-33.930576,670.56 18.358715,-33.928482,670.56 18.361473,-33.92527,670.56 18.363422,-33.922943,670.56 18.365822,-33.920055,640.08 18.370628,-33.914654,640.08 18.378983,-33.905998,579.12 18.380856,-33.904312,579.12 18.38419,-33.901527,548.64 18.386307,-33.899807,548.64 18.389511,-33.897385,548.64 18.391857,-33.895847,548.64 18.395765,-33.893692,548.64 18.398457,-33.892502,548.64 18.4025,-33.891148,548.64 18.40535,-33.890396,518.16 18.409666,-33.889389,518.16 18.412514,-33.888912,518.16 18.416634,-33.88826,487.68 18.41938,-33.887886,487.68 18.423328,-33.887238,487.68 18.426538,-33.886734,487.68 18.430653,-33.88649,457.2 18.43317,-33.886585,426.72 18.437189,-33.887192,396.24 18.439936,-33.88797,365.76 18.443127,-33.889236,335.28 18.445148,-33.890442,335.28 18.447132,-33.892731,335.28 18.44795,-33.894196,335.28 18.448162,-33.896126,335.28 18.447279,-33.896942,335.28 18.445597,-33.897217,304.8 18.444443,-33.897106,274.32 18.442612,-33.896778,243.84 18.441238,-33.896641,213.36 18.437862,-33.896919,152.4 18.43626,-33.897385,152.4 18.434162,-33.898178,121.92 18.432985,-33.898682,91.44 18.431339,-33.8992,91.44 18.429909,-33.89962,60.96 18.428307,-33.900272,30.48 18.427677,-33.900642,30.48 18.433994,-33.900742,91.44 18.435974,-33.900085,121.92 18.43895,-33.89864,152.4 18.440327,-33.897491,152.4 18.441616,-33.894745,182.88 18.441696,-33.892963,182.88 18.441181,-33.890121,213.36 18.44038,-33.888027,213.36 18.439007,-33.8857,243.84 18.437347,-33.88356,243.84 18.435171,-33.881516,274.32 18.433456,-33.880161,304.8 18.431023,-33.87886,335.28 18.429108,-33.878204,365.76 18.426132,-33.877506,396.24 18.424017,-33.877258,426.72 18.420765,-33.877029,426.72 18.418524,-33.876892,426.72 18.415089,-33.876717,457.2 18.412685,-33.876621,457.2 18.40905,-33.876709,487.68 18.406696,-33.876892,487.68 18.40313,-33.877274,518.16 18.400698,-33.877716,518.16 18.39711,-33.878632,518.16 18.395094,-33.879227,548.64 18.391729,-33.880371,548.64 18.389544,-33.881195,579.12 18.386909,-33.882156,579.12 18.384418,-33.883186,579.12 18.381157,-33.884583,609.6 18.379326,-33.885422,609.6 18.375811,-33.886963,609.6 18.373905,-33.888016,609.6 18.370857,-33.889843,640.08 18.368916,-33.891129,640.08 18.365946,-33.89328,670.56 18.364489,-33.89447,670.56 18.362103,-33.896545,701.04 18.360558,-33.898037,701.04 18.358322,-33.90033,701.04 18.356781,-33.901947,701.04 18.354836,-33.904133,731.52 18.353462,-33.905716,731.52 18.351091,-33.908752,731.52 18.349802,-33.910629,731.52 18.348232,-33.913055,731.52 18.346996,-33.915215,731.52 18.345451,-33.918194,731.52 18.344479,-33.920055,731.52 18.343077,-33.923035,701.04 18.34219,-33.925037,731.52 18.341103,-33.928387,701.04 18.340359,-33.930202,701.04 18.338312,-33.93306,731.52 18.336754,-33.934719,731.52 18.335228,-33.937408,762 18.335037,-33.939514,762 18.336468,-33.942307,762 18.338242,-33.94389,762 18.341394,-33.945557,762 18.343861,-33.946243,762 18.34774,-33.946262,731.52 18.350307,-33.945419,731.52 18.353233,-33.943192,701.04 18.355122,-33.941006,701.04 18.357468,-33.937653,670.56 18.358727,-33.93565,670.56 18.360846,-33.93219,670.56 18.362078,-33.930084,640.08 18.364321,-33.926422,640.08 18.365665,-33.9245,640.08 18.368299,-33.921021,609.6 18.369982,-33.918915,609.6 18.372391,-33.915894,609.6 18.374119,-33.913773,579.12 18.376371,-33.91095,609.6 18.378124,-33.908836,579.12 18.380814,-33.906044,579.12 18.382818,-33.904129,579.12 18.385845,-33.901474,579.12 18.387909,-33.899807,548.64 18.391338,-33.897491,548.64 18.393915,-33.896072,548.64 18.398176,-33.894241,548.64 18.400497,-33.893379,548.64 18.404285,-33.89209,548.64 18.407145,-33.89122,518.16 18.410969,-33.890121,518.16 18.41387,-33.889297,487.68 18.417892,-33.88826,487.68 18.42071,-33.88765,457.2 18.424702,-33.886864,457.2 18.427547,-33.886459,426.72 18.432026,-33.886257,426.72 18.434544,-33.886353,396.24 18.438778,-33.886955,396.24 18.441296,-33.887562,396.24 18.444868,-33.888885,365.76 18.446732,-33.889984,365.76 18.448959,-33.892136,365.76 18.449856,-33.893692,335.28 18.450026,-33.895981,335.28 18.448906,-33.89706,304.8 18.446503,-33.897152,274.32 18.444811,-33.896896,243.84 18.442268,-33.896641,213.36 18.440384,-33.896713,182.88 18.437748,-33.897106,152.4 18.435732,-33.897629,121.92 18.432999,-33.89864,91.44 18.429958,-33.899918,60.96 18.427734,-33.900642,30.48 18.42766,-33.90033,30.48 18.428164,-33.898956,30.48 18.428444,-33.898453,30.48 18.429565,-33.896805,60.96 18.43071,-33.895245,91.44 18.432198,-33.893242,121.92 18.433208,-33.891815,152.4 18.434715,-33.889519,182.88 18.435619,-33.88797,213.36 18.436741,-33.885773,243.84 18.437302,-33.883942,243.84 18.437061,-33.881371,274.32 18.436203,-33.879601,304.8 18.434601,-33.877365,304.8 18.433153,-33.875885,335.28 18.430349,-33.873779,335.28 18.428612,-33.872864,335.28 18.425274,-33.871689,365.76 18.423008,-33.871307,396.24 18.419323,-33.870991,426.72 18.417149,-33.870991,426.72 18.413715,-33.871315,457.2 18.411427,-33.871689,457.2 18.407307,-33.872665,487.68 18.404903,-33.873455,487.68 18.401987,-33.874603,518.16 18.400137,-33.875427,518.16 18.39728,-33.876801,548.64 18.395462,-33.877785,548.64 18.392429,-33.879509,548.64 18.39061,-33.880646,548.64 18.387918,-33.882385,548.64 18.385956,-33.883759,579.12 18.383322,-33.885635,579.12 18.3815,-33.887051,579.12 18.379154,-33.888912,579.12 18.377436,-33.890396,609.6 18.37525,-33.892365,609.6 18.3734,-33.894058,609.6 18.371214,-33.896164,609.6 18.369541,-33.89785,640.08 18.367516,-33.899963,640.08 18.366051,-33.901669,640.08 18.363991,-33.903996,670.56 18.362638,-33.905594,670.56 18.360733,-33.907928,670.56 18.359331,-33.909668,670.56 18.355072,-33.91539,701.04 18.354034,-33.916843,701.04 18.352268,-33.91951,701.04 18.351036,-33.921387,701.04 18.349342,-33.924107,731.52 18.34837,-33.925735,731.52 18.346882,-33.928204,731.52 18.345966,-33.929924,731.52 18.34465,-33.932484,731.52 18.343678,-33.934441,731.52 18.342403,-33.937088,762 18.34156,-33.938862,762 18.340244,-33.941471,762 18.339329,-33.943333,762 18.3391,-33.946449,762 18.340162,-33.948212,762 18.343449,-33.950081,731.52 18.346195,-33.950222,731.52 18.3498,-33.948498,731.52 18.35146,-33.946682,731.52 18.353895,-33.94313,701.04 18.35524,-33.940933,670.56 18.357239,-33.937466,670.56 18.358603,-33.934845,670.56 18.360397,-33.93132,640.08 18.361855,-33.928391,640.08 18.363703,-33.924728,640.08 18.367964,-33.916077,609.6 18.373432,-33.906696,579.12 18.374805,-33.904598,579.12 18.37698,-33.90134,579.12 18.378639,-33.899059,579.12 18.381023,-33.896027,579.12 18.382706,-33.894058,579.12 18.385565,-33.891129,579.12 18.387806,-33.889206,579.12 18.391617,-33.886826,579.12 18.394146,-33.885605,579.12 18.397751,-33.884163,579.12 18.400417,-33.883255,579.12 18.404789,-33.882114,579.12 18.407368,-33.881607,579.12 18.411884,-33.881046,579.12 18.414574,-33.880814,579.12 18.419027,-33.880875,548.64 18.421612,-33.881184,548.64 18.425789,-33.882301,518.16 18.428249,-33.883327,518.16 18.431683,-33.884956,487.68 18.4338,-33.88612,457.2 18.437004,-33.887981,426.72 18.439007,-33.889236,426.72 18.441925,-33.891098,396.24 18.443584,-33.892216,396.24 18.445473,-33.894314,365.76 18.44593,-33.895893,365.76 18.445148,-33.89827,335.28 18.443914,-33.899231,304.8 18.441616,-33.899689,274.32 18.440266,-33.899666,274.32 18.438148,-33.899525,213.36 18.436661,-33.899433,182.88 18.434498,-33.899277,152.4 18.433113,-33.8992,121.92 18.430182,-33.899185,60.96 18.428593,-33.89957,30.48 18.427715,-33.90033,30.48 18.427715,-33.899872,30.48 18.429394,-33.897617,60.96 18.430349,-33.896393,91.44 18.431911,-33.894127,121.92 18.432816,-33.892731,152.4 18.434443,-33.89003,182.88 18.435402,-33.888401,182.88 18.436403,-33.885956,213.36 18.436604,-33.88393,243.84 18.436089,-33.881371,274.32 18.435345,-33.879696,274.32 18.433285,-33.877087,304.8 18.431911,-33.875832,335.28 18.429398,-33.873962,335.28 18.427563,-33.872898,365.76 18.424465,-33.871536,365.76 18.421942,-33.870712,396.24 18.418694,-33.870106,426.72 18.416176,-33.869827,426.72 18.413029,-33.869732,457.2 18.411123,-33.869888,487.68 18.407707,-33.87043,518.16 18.404959,-33.871124,548.64 18.401527,-33.8722,579.12 18.399639,-33.872944,579.12 18.396721,-33.874249,609.6 18.394814,-33.875153,609.6 18.391914,-33.876717,640.08 18.390049,-33.877808,640.08 18.38719,-33.879593,670.56 18.385391,-33.880814,670.56 18.382648,-33.882797,701.04 18.380985,-33.884026,701.04 18.378725,-33.88591,731.52 18.377094,-33.887283,731.52 18.374634,-33.889526,731.52 18.373121,-33.890991,731.52 18.370823,-33.893326,762 18.369255,-33.894962,762 18.367081,-33.897476,731.52 18.365479,-33.899338,731.52 18.363361,-33.901901,762 18.362274,-33.903252,762 18.360004,-33.906235,731.52 18.358727,-33.907951,731.52 18.356977,-33.910538,731.52 18.355801,-33.912323,731.52 18.354092,-33.914982,762 18.352947,-33.916702,762 18.351345,-33.919216,762 18.348427,-33.923824,762 18.346439,-33.927292,762 18.345509,-33.92918,762 18.343964,-33.932251,792.48 18.342909,-33.93457,762 18.341507,-33.938232,762 18.340721,-33.940201,762 18.339558,-33.943146,762 18.338585,-33.945705,762 18.339214,-33.949524,762 18.341339,-33.950317,731.52 18.34543,-33.94899,731.52 18.347569,-33.94701,731.52 18.350544,-33.94389,731.52 18.352213,-33.941895,731.52 18.354778,-33.938675,731.52 18.35638,-33.936722,762 18.358727,-33.933556,731.52 18.3601,-33.931416,731.52 18.362246,-33.927795,701.04 18.363533,-33.925457,701.04 18.365385,-33.921936,670.56 18.366623,-33.919636,670.56 18.368692,-33.916031,640.08 18.370342,-33.913399,640.08 18.372803,-33.91,609.6 18.374634,-33.907562,609.6 18.377151,-33.904366,609.6 18.378925,-33.901947,609.6 18.381361,-33.898727,609.6 18.383266,-33.896164,609.6 18.385733,-33.892914,609.6 18.387358,-33.890991,609.6 18.39044,-33.888062,640.08 18.392487,-33.886539,640.08 18.395878,-33.884583,640.08 18.398624,-33.883392,640.08 18.402435,-33.882065,640.08 18.404903,-33.881416,640.08 18.408882,-33.8806,640.08 18.411884,-33.880207,640.08 18.416576,-33.879929,609.6 18.41942,-33.880051,609.6 18.423672,-33.880672,579.12 18.426247,-33.881371,548.64 18.430252,-33.882999,518.16 18.432705,-33.884216,457.2 18.435955,-33.886139,426.72 18.438198,-33.887558,426.72 18.440723,-33.889519,396.24 18.442554,-33.891006,365.76 18.444901,-33.893288,335.28 18.44593,-33.894917,304.8 18.445932,-33.897263,304.8 18.445036,-33.898636,304.8 18.442898,-33.899899,274.32 18.44128,-33.900192,243.84 18.438646,-33.900009,213.36 18.436832,-33.899712,182.88 18.434778,-33.899414,152.4 18.433285,-33.899155,121.92 18.429621,-33.899277,60.96 18.428556,-33.89978,30.48 18.427603,-33.900604,30.48 18.43091,-33.901474,91.44 18.432928,-33.901657,121.92 18.434315,-33.901573,152.4 18.436571,-33.900925,182.88 18.437977,-33.899899,182.88 18.439711,-33.8974,213.36 18.440271,-33.895615,243.84 18.440048,-33.892548,243.84 18.439236,-33.8904,274.32 18.437805,-33.887375,274.32 18.436489,-33.885048,304.8 18.434372,-33.881927,304.8 18.432873,-33.880234,335.28 18.430195,-33.877552,335.28 18.428478,-33.876202,365.76 18.424931,-33.874016,396.24 18.422699,-33.873131,396.24 18.418972,-33.872498,396.24 18.41629,-33.872574,396.24 18.41217,-33.873039,426.72 18.410053,-33.873455,426.72 18.406023,-33.874603,426.72 18.403612,-33.875473,426.72 18.400194,-33.876938,457.2 18.398008,-33.877945,457.2 18.394981,-33.879547,457.2 18.392906,-33.880737,487.68 18.390083,-33.882488,487.68 18.388596,-33.883465,487.68 18.385733,-33.885544,487.68 18.383675,-33.887142,487.68 18.381157,-33.889191,487.68 18.379511,-33.890625,487.68 18.377209,-33.892776,487.68 18.375721,-33.894218,487.68 18.373625,-33.89621,518.16 18.372116,-33.897663,518.16 18.369827,-33.899944,518.16 18.368412,-33.901474,548.64 18.366507,-33.903671,548.64 18.365498,-33.904953,548.64 18.36348,-33.907516,548.64 18.362217,-33.909256,548.64 18.360565,-33.911636,548.64 18.359444,-33.913422,548.64 18.357986,-33.915894,548.64 18.35701,-33.917728,548.64 18.355295,-33.920837,548.64 18.354343,-33.922668,548.64 18.351345,-33.928619,548.64 18.348541,-33.933929,609.6 18.343391,-33.943985,609.6 18.340645,-33.9505,609.6 18.341394,-33.953201,609.6 18.347055,-33.952835,579.12 18.349689,-33.949402,548.64 18.351259,-33.946701,548.64 18.353291,-33.942818,518.16 18.354624,-33.940338,518.16 18.357033,-33.935486,518.16 18.358435,-33.932327,548.64 18.359892,-33.928757,548.64 18.360901,-33.926331,548.64 18.362503,-33.922848,548.64 18.363533,-33.920662,548.64 18.365421,-33.917122,548.64 18.366507,-33.914978,548.64 18.368568,-33.911259,548.64 18.36977,-33.909023,548.64 18.372,-33.905457,548.64 18.373375,-33.903389,548.64 18.375643,-33.900192,548.64 18.377661,-33.89772,548.64 18.380184,-33.894825,548.64 18.38209,-33.892822,518.16 18.385277,-33.89003,518.16 18.387751,-33.888245,518.16 18.391685,-33.886211,518.16 18.394375,-33.885094,518.16 18.398552,-33.883465,487.68 18.40147,-33.882393,487.68 18.405127,-33.881195,487.68 18.407993,-33.880299,487.68 18.411909,-33.879272,487.68 18.414574,-33.878716,457.2 18.41898,-33.878159,457.2 18.421783,-33.878204,457.2 18.424969,-33.879135,426.72 18.426483,-33.880188,426.72 18.427849,-33.881927,396.24 18.428501,-33.883209,365.76 18.42934,-33.885178,335.28 18.429852,-33.886539,304.8 18.430367,-33.888447,274.32 18.430595,-33.889889,243.84 18.430767,-33.89175,213.36 18.430742,-33.892822,182.88 18.430407,-33.894562,152.4 18.429958,-33.895798,121.92 18.428822,-33.897526,91.44 18.42794,-33.898773,60.96 18.427277,-33.899944,30.48 18.426876,-33.900551,30.48 18.427477,-33.900764,0 18.428879,-33.90097,30.48 18.431168,-33.900829,60.96 18.432598,-33.900551,91.44 18.435171,-33.899551,121.92 18.436775,-33.898315,152.4 18.438263,-33.895615,182.88 18.438549,-33.893333,182.88 18.438377,-33.890495,213.36 18.437973,-33.88829,243.84 18.436775,-33.884956,274.32 18.435171,-33.882523,304.8 18.432087,-33.880417,304.8 18.429678,-33.879501,304.8 18.426132,-33.878624,365.76 18.42396,-33.878311,365.76 18.420149,-33.878036,396.24 18.417458,-33.877899,426.72 18.414095,-33.877762,457.2 18.411573,-33.877762,457.2 18.407928,-33.877991,457.2 18.405519,-33.878311,487.68 18.402271,-33.878857,518.16 18.399582,-33.879555,518.16 18.396381,-33.880692,548.64 18.394089,-33.881603,548.64 18.390827,-33.883141,548.64 18.38887,-33.884171,548.64 18.385733,-33.886093,579.12 18.383846,-33.887421,579.12 18.381157,-33.889423,609.6 18.379343,-33.890945,609.6 18.37682,-33.893188,640.08 18.375195,-33.894745,640.08 18.373009,-33.896942,670.56 18.371372,-33.89864,670.56 18.369253,-33.90097,701.04 18.367767,-33.902599,701.04 18.365421,-33.905251,701.04 18.363928,-33.906967,701.04 18.36191,-33.909393,701.04 18.360729,-33.910885,701.04 18.358658,-33.913605,701.04 18.35737,-33.915436,701.04 18.355579,-33.91824,701.04 18.354492,-33.920197,701.04 18.352833,-33.923267,701.04 18.35186,-33.925224,701.04 18.350487,-33.928108,701.04 18.349689,-33.929993,701.04 18.348083,-33.934067,701.04 18.346214,-33.938965,701.04 18.343964,-33.945751,731.52 18.34219,-33.950359,731.52 18.340834,-33.953613,731.52 18.340105,-33.955261,731.52 18.336182,-33.965305,701.04 18.332348,-33.975079,701.04 18.330128,-33.982773,701.04 18.329344,-33.987305,701.04 18.328686,-33.99482,731.52 18.328838,-33.998016,731.52 18.328896,-34.001129,731.52 18.329006,-34.003052,731.52 18.329258,-34.006271,731.52 18.329487,-34.00827,731.52 18.330116,-34.01125,731.52 18.330688,-34.01302,701.04 18.33181,-34.015732,701.04 18.33292,-34.01786,701.04 18.334579,-34.020561,731.52 18.335621,-34.022141,731.52 18.337498,-34.025078,731.52 18.338535,-34.026855,731.52 18.340015,-34.02964,731.52 18.340946,-34.031387,731.52 18.342304,-34.034153,731.52 18.343132,-34.035873,762 18.344307,-34.038624,762 18.344982,-34.040451,731.52 18.345737,-34.043419,762 18.346159,-34.045349,731.52 18.346653,-34.048401,731.52 18.346939,-34.050354,731.52 18.347055,-34.053543,731.52 18.347054,-34.055614,731.52 18.347054,-34.058594,731.52 18.347,-34.060822,731.52 18.346888,-34.064026,731.52 18.346832,-34.066177,731.52 18.346552,-34.072128,701.04 18.346495,-34.074417,701.04 18.346327,-34.079681,701.04 18.34631,-34.08173,701.04 18.346552,-34.084991,701.04 18.346943,-34.087097,670.56 18.347841,-34.090256,670.56 18.348738,-34.092224,670.56 18.350698,-34.0952,640.08 18.352146,-34.096909,640.08 18.355236,-34.099422,640.08 18.357819,-34.10083,640.08 18.361685,-34.102524,640.08 18.364208,-34.103531,640.08 18.368019,-34.104996,640.08 18.370628,-34.105984,640.08 18.374186,-34.107376,640.08 18.376751,-34.108406,609.6 18.38209,-34.110672,609.6 18.384611,-34.111771,609.6 18.388254,-34.113327,609.6 18.390656,-34.114273,609.6 18.394533,-34.115799,609.6 18.403587,-34.119392,579.12 18.412342,-34.122978,548.64 18.414459,-34.123814,548.64 18.418747,-34.125549,548.64 18.42127,-34.126556,548.64 18.425137,-34.128021,548.64 18.427773,-34.128983,548.64 18.431358,-34.130356,548.64 18.433914,-34.13131,548.64 18.43775,-34.132736,518.16 18.440552,-34.133591,518.16 18.444923,-34.134201,518.16 18.447533,-34.134056,518.16 18.452099,-34.132645,518.16 18.454678,-34.131317,518.16 18.458691,-34.12875,518.16 18.460751,-34.127213,518.16 18.464207,-34.124268,487.68 18.466244,-34.122231,487.68 18.469362,-34.118774,518.16 18.471451,-34.116459,487.68 18.474127,-34.113373,487.68 18.475864,-34.11113,518.16 18.47794,-34.107651,518.16 18.478891,-34.105362,518.16 18.479958,-34.101379,518.16 18.480125,-34.099045,518.16 18.480068,-34.095062,518.16 18.479919,-34.092346,518.16 18.479733,-34.088242,518.16 18.479633,-34.085407,487.68 18.479733,-34.081512,487.68 18.480034,-34.078472,487.68 18.480574,-34.074051,487.68 18.480854,-34.071854,487.68 18.48135,-34.067532,487.68 18.481695,-34.064713,487.68 18.483433,-34.052124,518.16 18.484329,-34.043198,548.64 18.48461,-34.035736,548.64 18.484898,-34.027824,579.12 18.48517,-34.014496,609.6 18.485506,-34.004929,579.12 18.486179,-33.991928,548.64 18.486729,-33.981735,518.16 18.486671,-33.973312,518.16 18.4865,-33.970284,518.16 18.486122,-33.966156,518.16 18.485899,-33.963501,518.16 18.485506,-33.959106,487.68 18.485394,-33.956177,487.68 18.485058,-33.951828,487.68 18.48461,-33.948853,487.68 18.483925,-33.94445,457.2 18.483467,-33.94175,457.2 18.482552,-33.93779,457.2 18.481525,-33.934479,457.2 18.479677,-33.930222,457.2 18.478163,-33.927658,457.2 18.475628,-33.924107,457.2 18.47374,-33.921963,457.2 18.470936,-33.918983,457.2 18.468819,-33.916889,457.2 18.466244,-33.914188,457.2 18.464149,-33.912003,457.2 18.461552,-33.90921,457.2 18.459606,-33.907066,426.72 18.456863,-33.903946,457.2 18.451818,-33.898224,426.72 18.449688,-33.895569,426.72 18.448162,-33.893707,396.24 18.445709,-33.891495,396.24 18.444027,-33.890579,365.76 18.44101,-33.890263,365.76 18.43943,-33.8909,335.28 18.437805,-33.892227,304.8 18.435955,-33.894012,243.84 18.434258,-33.895382,213.36 18.433285,-33.896034,182.88 18.431864,-33.896805,152.4 18.430767,-33.897385,121.92 18.42865,-33.898872,60.96 18.427996,-33.899963,60.96 18.427603,-33.90065,30.48 18.427505,-33.900784,30.48 18.431339,-33.901154,91.44 18.432884,-33.901154,91.44 18.435345,-33.900875,121.92 18.437132,-33.900375,152.4 18.439598,-33.899323,152.4 18.44128,-33.898315,182.88 18.443802,-33.896255,182.88 18.445091,-33.894562,213.36 18.44582,-33.891998,243.84 18.445597,-33.889938,243.84 18.444271,-33.887051,274.32 18.442841,-33.885139,274.32 18.440664,-33.882935,274.32 18.438721,-33.881184,304.8 18.435688,-33.879322,335.28 18.433376,-33.878448,365.76 18.430309,-33.877785,396.24 18.428331,-33.877533,426.72 18.425274,-33.877274,457.2 18.423344,-33.877167,457.2 18.420092,-33.877121,518.16 18.417835,-33.877041,518.16 18.414488,-33.876846,518.16 18.41217,-33.876762,548.64 18.408566,-33.876717,548.64 18.40608,-33.876846,579.12 18.402786,-33.877182,579.12 18.400642,-33.877441,609.6 18.396942,-33.877945,609.6 18.393805,-33.878403,609.6 18.39044,-33.879044,609.6 18.387974,-33.879639,609.6 18.384275,-33.88092,640.08 18.382145,-33.88179,640.08 18.378838,-33.883301,640.08 18.376408,-33.884537,640.08 18.3734,-33.886185,640.08 18.371326,-33.887466,640.08 18.368357,-33.889389,640.08 18.366339,-33.890762,640.08 18.363533,-33.892822,640.08 18.361759,-33.894314,670.56 18.359499,-33.896439,670.56 18.357983,-33.898129,670.56 18.35598,-33.900505,670.56 18.354778,-33.902134,670.56 18.352776,-33.904831,670.56 18.351652,-33.906464,670.56 18.349915,-33.908752,701.04 18.348885,-33.910278,701.04 18.347504,-33.912552,701.04 18.346495,-33.914291,701.04 18.345095,-33.916992,701.04 18.344307,-33.918613,701.04 18.343019,-33.921387,701.04 18.342291,-33.923035,731.52 18.341227,-33.92569,731.52 18.340611,-33.927338,731.52 18.339321,-33.929718,731.52 18.337919,-33.931458,701.04 18.335781,-33.93351,731.52 18.334108,-33.934891,731.52 18.331585,-33.936722,762 18.32996,-33.937912,762 18.326878,-33.939514,822.96 18.326204,-33.940613,853.44 18.327326,-33.942398,822.96 18.329029,-33.943516,822.96 18.331923,-33.944824,792.48 18.334122,-33.945751,792.48 18.337416,-33.94693,762 18.339882,-33.947708,762 18.343105,-33.948593,731.52 18.345623,-33.948963,701.04 18.349522,-33.948578,670.56 18.351974,-33.947662,640.08 18.355236,-33.94524,640.08 18.35681,-33.943314,609.6 18.358555,-33.940445,609.6 18.359947,-33.938141,579.12 18.361874,-33.934628,579.12 18.363087,-33.93251,579.12 18.364992,-33.929214,579.12 18.366114,-33.927109,579.12 18.367825,-33.923965,579.12 18.368969,-33.922012,579.12 18.370878,-33.918961,579.12 18.372288,-33.916843,579.12 18.374409,-33.913742,609.6 18.375893,-33.911816,609.6 18.378222,-33.908936,609.6 18.379898,-33.906975,609.6 18.382425,-33.904266,579.12 18.384476,-33.902317,579.12 18.387358,-33.899872,579.12 18.389376,-33.898453,609.6 18.392515,-33.896439,579.12 18.394533,-33.895294,579.12 18.398094,-33.89352,579.12 18.400755,-33.89241,579.12 18.404398,-33.890945,548.64 18.406919,-33.890076,548.64 18.410227,-33.888977,518.16 18.413031,-33.888153,518.16 18.417122,-33.887009,518.16 18.419781,-33.886307,487.68 18.423672,-33.885326,518.16 18.426075,-33.884724,518.16 18.42968,-33.883884,487.68 18.431282,-33.884304,518.16 18.430967,-33.885727,487.68 18.429846,-33.88623,457.2 18.427792,-33.886955,426.72 18.427391,-33.887794,396.24 18.428389,-33.88916,335.28 18.429678,-33.89003,304.8 18.431568,-33.891052,274.32 18.43277,-33.891983,274.32 18.4338,-33.893379,243.84 18.433937,-33.894333,213.36 18.432199,-33.895203,182.88 18.430767,-33.89529,152.4 18.428053,-33.896164,91.44 18.42738,-33.897079,91.44 18.427105,-33.898594,60.96 18.427212,-33.89946,60.96 18.427547,-33.900375,30.48
        </coordinates>
      </LineString>
    </Placemark>
  </Document>
</kml>