<?xml version="1.0" encoding="UTF-8"?>
<kml xmlns="http://www.opengis.net/kml/2.2">
  <Document>
    <name>-/ZTRNW - Optimised</name>
    <description><![CDATA[Optimised flight path with 1052 points (decimated from 5260 original points). Source format: Standard KML]]></description>
    
    <Style id="flightPath">
      <LineStyle>
        <color>ffff0000</color>
        <width>3</width>
      </LineStyle>
    </Style>
    
    <Placemark>
      <name>Flight Path</name>
      <description><![CDATA[<div style="width:220px; text-align:center;">
<div style="width:210px; text-align:center;">
<div style=" background: #000; color: #fff; font-size: 14px; text-align:left; border: 1px solid #000; padding: 2px 6px; text-shadow: 0 1px 0 #000; box-shadow: 0 1px 3px rgba(0,0,0,0.6); background: -webkit-gradient(linear, left top, left bottom, color-stop(0%,#808080), color-stop(2%,#303030), color-stop(100%,#0c0c0c));"><span style="font-size: 14px; font-weight: bold;"><a href="javascript:void(0);" style="color: #fff; cursor: pointer;text-decoration: none;">-</a></span> / ZTRNW<br/>Private owner</div>

<div style="border-top: 1px solid #005c90; color: #fff; padding-bottom: 5px; box-shadow: 0 0 1px #9BE3F6 inset, 0 1px 0 #9BE3F6 inset, 0 -1px 3px rgba(0,0,0,0.4); background:rgba(43,114,173,1); background: -webkit-gradient(linear, left top, left bottom, color-stop(0%,rgba(92,184,229,1)), color-stop(100%,rgba(43,114,173,1)));">
<a style="text-decoration: none; color: rgb(255, 255, 255); font-size: 12px; width:77px; display: inline-block;" title=" Airport" href="javascript:void(0);/departures"><h3 style="padding: 0px; margin: 10px 0px 0px; font-size: 16px; ">?</h3></a>
<span style="background: url(https://www.flightradar24.com/static/images/userUI_sprite.png?14) no-repeat scroll 0 -464px rgba(0, 0, 0, 0); border: medium none; display: inline-block; height: 16px; width: 45px;"></span>
<a style="text-decoration: none; color: rgb(255, 255, 255); font-size: 12px; width:77px; display: inline-block;" title=" Airport" href="javascript:void(0);/arrivals"><h3 style="padding: 0px; margin: 10px 0px 0px; font-size: 16px;">?</h3></a>
<div style=" margin-top:10px;">
<div style="display: inline-block; font-size: 12px; padding: 0 5px;">
<div>
<span style="color: #c1eaff;" title="Scheduled Time of Departure">STD </span>
<span title="2025-11-02 09:23">09:23</span> <span title="Coordinated Universal Time">UTC</span>
</div>
<div>
<span style="color: #c1eaff;" title="Actual Time of Departure">ATD </span>
<span title="2025-11-02 09:23">09:23</span> <span title="Coordinated Universal Time">UTC</span>
</div>
</div>
<div style="display: inline-block; font-size: 12px; padding: 0 5px;">
<div>
<span style="color: #c1eaff;" title="Estimated Time of Arrival">ETA </span>
<span title="2025-11-02 10:05">10:05</span> <span title="Coordinated Universal Time">UTC</span>
</div>
</div>
</div>
<br style="clear: both;"/>
</div>

<div style="display: block;">
<table style="border-collapse: collapse; width: 100%;">
<tr style="border-right: 1px solid #dadada; ">
<td style="background: none repeat scroll 0 0 #dadada; padding: 0; width: 31px;">
<span style="background: url(https://www.flightradar24.com/static/images/userUI_sprite.png?14) no-repeat scroll -208px -464px rgba(0, 0, 0, 0); height: 26px; margin: 8px 0 0 4px; width: 23px; display: block;"></span>
</td>
<td colspan="2" style="border-bottom: 1px solid #dadada; border-left: 1px solid #dadada; color: #666; line-height: 1.1em; padding: 3px 6px; vertical-align: top; font-size: 14px;">
Aircraft<span style="float: right; font-size: 12px;">(EC20)</span><br>
<span style="color: #333; font-size: 16px; font-weight: bold; line-height: 1.3em;">Airbus Helicopters H120</span>
</td>
</tr>
<tr style="border-right: 1px solid #dadada; ">
<td style="background: none repeat scroll 0 0 #dadada; padding: 0; width: 31px;">
<td colspan="2" style="border-bottom: 1px solid #dadada; border-left: 1px solid #dadada; color: #666; line-height: 1.1em; padding: 3px 6px; vertical-align: top; font-size: 14px;">
Registration<br>
<span style="color: #333; font-size: 16px; font-weight: bold; line-height: 1.3em;"><a href="https://www.flightradar24.com/reg/zt-rnw" style="text-decoration: none; color: #333;">ZT-RNW</a></span>
</td>
</tr>
</table>
</div>

</div>
</div>]]></description>
      <styleUrl>#flightPath</styleUrl>
      <LineString>
        <extrude>1</extrude>
        <tessellate>1</tessellate>
        <altitudeMode>absolute</altitudeMode>
        <coordinates>
          18.43523,-33.901154,45.72 18.438034,-33.899479,76.2 18.439207,-33.898087,91.44 18.440384,-33.895889,106.68 18.441113,-33.893738,121.92 18.441113,-33.89122,144.78 18.440384,-33.88884,167.64 18.438663,-33.886024,190.5 18.43758,-33.884674,205.74 18.435402,-33.882069,220.98 18.434086,-33.880764,220.98 18.431358,-33.878952,251.46 18.42923,-33.878082,274.32 18.426647,-33.877365,297.18 18.424576,-33.876984,320.04 18.421886,-33.876663,342.9 18.419552,-33.876484,358.14 18.416519,-33.876434,388.62 18.414288,-33.876389,403.86 18.41114,-33.875877,419.1 18.408937,-33.874878,441.96 18.406849,-33.872807,472.44 18.406506,-33.871174,487.68 18.407936,-33.86908,502.92 18.409595,-33.868149,518.16 18.411964,-33.867691,548.64 18.413254,-33.868057,563.88 18.414263,-33.869797,563.88 18.413589,-33.871353,563.88 18.410788,-33.872955,563.88 18.408377,-33.873596,563.88 18.404846,-33.874294,563.88 18.401875,-33.874924,556.26 18.397923,-33.875786,548.64 18.395061,-33.87653,548.64 18.390999,-33.877647,541.02 18.388481,-33.878345,533.4 18.384779,-33.879547,525.78 18.38192,-33.880646,518.16 18.378296,-33.882442,518.16 18.376236,-33.883698,525.78 18.372896,-33.88623,525.78 18.371143,-33.88784,525.78 18.368511,-33.89045,533.4 18.367081,-33.892078,541.02 18.364792,-33.894962,541.02 18.363255,-33.896942,533.4 18.361015,-33.900085,533.4 18.359814,-33.901806,533.4 18.357874,-33.904724,533.4 18.356609,-33.906696,533.4 18.354904,-33.909531,533.4 18.353863,-33.91135,541.02 18.352045,-33.91452,548.64 18.350979,-33.916534,548.64 18.349634,-33.919189,563.88 18.348598,-33.921127,571.5 18.347168,-33.924042,586.74 18.346252,-33.926105,586.74 18.344879,-33.928852,594.36 18.343918,-33.930771,601.98 18.342236,-33.933746,640.08 18.341339,-33.93544,662.94 18.340553,-33.938004,693.42 18.340816,-33.939514,723.9 18.342819,-33.941097,762 18.344534,-33.941071,777.24 18.346596,-33.93998,777.24 18.34734,-33.938957,853.44 18.347952,-33.936722,838.2 18.347569,-33.935371,914.4 18.345095,-33.934341,883.92 18.343132,-33.935211,868.68 18.341675,-33.93779,899.16 18.340988,-33.939701,883.92 18.339993,-33.942719,876.3 18.339214,-33.945099,876.3 18.337898,-33.948544,883.92 18.337135,-33.9505,883.92 18.335896,-33.953434,891.54 18.334923,-33.955528,906.78 18.333664,-33.958275,914.4 18.332634,-33.960415,922.02 18.330353,-33.965332,944.88 18.329679,-33.967117,952.5 18.328114,-33.97047,944.88 18.326988,-33.972565,944.88 18.325481,-33.975544,944.88 18.324411,-33.9776,944.88 18.322729,-33.980484,944.88 18.321362,-33.982716,944.88 18.319473,-33.985832,944.88 18.318157,-33.987881,937.26 18.314896,-33.993191,922.02 18.313425,-33.995224,922.02 18.310734,-33.998657,906.78 18.309164,-34.000809,899.16 18.307056,-34.003941,899.16 18.305912,-34.005989,899.16 18.304253,-34.009434,899.16 18.303055,-34.011795,899.16 18.301277,-34.014881,891.54 18.299803,-34.01738,883.92 18.297844,-34.020794,876.3 18.296642,-34.022888,868.68 18.294983,-34.026306,853.44 18.294067,-34.028755,845.82 18.293781,-34.032013,830.58 18.294199,-34.034225,815.34 18.295898,-34.037319,800.1 18.297449,-34.039627,777.24 18.299522,-34.042648,754.38 18.300877,-34.044724,746.76 18.302774,-34.047775,739.14 18.304007,-34.049698,739.14 18.306141,-34.052868,746.76 18.307539,-34.054825,746.76 18.309574,-34.057571,746.76 18.311462,-34.060226,746.76 18.313465,-34.062878,746.76 18.314781,-34.064415,746.76 18.317516,-34.066635,746.76 18.319927,-34.067825,739.14 18.323065,-34.068924,746.76 18.325531,-34.069656,739.14 18.328915,-34.070793,739.14 18.330688,-34.072048,739.14 18.332539,-34.074966,731.52 18.333092,-34.076843,723.9 18.333721,-34.080612,731.52 18.33395,-34.082569,739.14 18.334389,-34.086227,731.52 18.334557,-34.088562,739.14 18.335005,-34.091446,739.14 18.335508,-34.093552,739.14 18.343649,-34.188438,678.18 18.346872,-34.194729,662.94 18.34926,-34.199486,617.22 18.3491,-34.201923,670.56 18.350262,-34.20488,662.94 18.351013,-34.206692,647.7 18.351204,-34.211884,640.08 18.351917,-34.213753,632.46 18.353806,-34.216873,624.84 18.355465,-34.219154,624.84 18.35741,-34.221527,609.6 18.359331,-34.223419,594.36 18.362217,-34.225857,579.12 18.363934,-34.22744,586.74 18.365593,-34.23056,594.36 18.366001,-34.232574,594.36 18.366226,-34.236008,586.74 18.366165,-34.238052,586.74 18.366001,-34.241409,586.74 18.365946,-34.243927,586.74 18.366562,-34.247726,579.12 18.367178,-34.249786,571.5 18.368244,-34.253036,548.64 18.369141,-34.25523,541.02 18.370262,-34.258347,525.78 18.370628,-34.26054,518.16 18.3708,-34.264263,502.92 18.370972,-34.266499,495.3 18.371439,-34.269745,495.3 18.371887,-34.271942,487.68 18.372631,-34.275295,487.68 18.373177,-34.277252,480.06 18.374241,-34.280228,472.44 18.375149,-34.282696,472.44 18.376465,-34.285816,472.44 18.382645,-34.29657,472.44 18.386854,-34.303848,472.44 18.387737,-34.305275,464.82 18.390427,-34.308998,449.58 18.392086,-34.310955,449.58 18.394375,-34.313374,441.96 18.39632,-34.315239,441.96 18.398781,-34.317425,434.34 18.401203,-34.319366,434.34 18.404045,-34.321522,381 18.40608,-34.322983,426.72 18.409996,-34.32576,419.1 18.412056,-34.327248,419.1 18.414936,-34.329208,434.34 18.41692,-34.330551,434.34 18.419588,-34.332458,441.96 18.421438,-34.333694,441.96 18.42802,-34.338421,441.96 18.433489,-34.342484,441.96 18.436947,-34.345123,449.58 18.438927,-34.346786,457.2 18.441,-34.348663,472.44 18.442682,-34.350266,480.06 18.445015,-34.352665,495.3 18.446381,-34.353973,495.3 18.448906,-34.356388,502.92 18.450336,-34.357738,502.92 18.457432,-34.364117,563.88 18.462524,-34.368393,594.36 18.465214,-34.370262,601.98 18.466784,-34.371277,609.6 18.46962,-34.373196,624.84 18.47138,-34.374298,624.84 18.474239,-34.375763,632.46 18.476086,-34.376453,640.08 18.479404,-34.377384,647.7 18.48147,-34.377731,647.7 18.485058,-34.378052,640.08 18.487579,-34.378098,640.08 18.490887,-34.37796,640.08 18.493298,-34.377869,640.08 18.497108,-34.378006,647.7 18.499374,-34.378082,655.32 18.502489,-34.37764,662.94 18.504396,-34.376495,678.18 18.506126,-34.374546,685.8 18.506985,-34.373196,685.8 18.507957,-34.371052,693.42 18.508039,-34.369537,693.42 18.506584,-34.367981,693.42 18.504507,-34.367569,678.18 18.501148,-34.367889,655.32 18.498734,-34.368256,647.7 18.495651,-34.368347,632.46 18.493465,-34.368118,617.22 18.489597,-34.367523,594.36 18.487015,-34.367096,579.12 18.483639,-34.366676,548.64 18.481121,-34.366817,556.26 18.480125,-34.369812,541.02 18.482151,-34.370636,518.16 18.485561,-34.370865,495.3 18.488216,-34.370773,487.68 18.492008,-34.370361,480.06 18.494682,-34.369843,480.06 18.498287,-34.368679,472.44 18.500473,-34.367432,472.44 18.502995,-34.364777,449.58 18.503952,-34.362534,464.82 18.504181,-34.358624,457.2 18.503723,-34.355988,441.96 18.502378,-34.351913,426.72 18.501257,-34.349258,419.1 18.499603,-34.345169,411.48 18.498688,-34.342705,419.1 18.497276,-34.338684,419.1 18.496456,-34.335999,419.1 18.495371,-34.332092,419.1 18.494642,-34.32962,419.1 18.49369,-34.325821,411.48 18.49308,-34.322781,411.48 18.492456,-34.318909,419.1 18.491993,-34.316448,411.48 18.491335,-34.312317,419.1 18.490999,-34.309845,419.1 18.490505,-34.305927,426.72 18.489878,-34.299408,434.34 18.489819,-34.295452,441.96 18.489819,-34.293125,449.58 18.489819,-34.289494,441.96 18.489822,-34.286865,434.34 18.489418,-34.275249,396.24 18.488789,-34.266357,365.76 18.487988,-34.252251,358.14 18.487415,-34.243687,388.62 18.486614,-34.236935,396.24 18.486067,-34.234406,388.62 18.484777,-34.230423,388.62 18.483936,-34.227814,381 18.482704,-34.22406,388.62 18.481976,-34.22168,388.62 18.481022,-34.218109,396.24 18.480263,-34.215382,403.86 18.477116,-34.203327,388.62 18.474655,-34.195599,381 18.473118,-34.191788,373.38 18.472109,-34.189133,373.38 18.470877,-34.185471,373.38 18.470148,-34.182678,373.38 18.469391,-34.178558,373.38 18.468876,-34.17614,373.38 18.468018,-34.172241,373.38 18.467737,-34.169586,373.38 18.467789,-34.165432,388.62 18.467962,-34.162949,396.24 18.468361,-34.158634,411.48 18.468647,-34.156216,411.48 18.469139,-34.152512,411.48 18.469419,-34.150085,411.48 18.46998,-34.146423,419.1 18.470478,-34.143692,419.1 18.471437,-34.139969,419.1 18.47208,-34.137779,411.48 18.47311,-34.134197,411.48 18.473736,-34.131775,403.86 18.474655,-34.128052,396.24 18.475473,-34.125504,403.86 18.476818,-34.122025,403.86 18.477688,-34.119812,396.24 18.478718,-34.116272,388.62 18.479059,-34.113785,388.62 18.479347,-34.110268,396.24 18.479633,-34.107475,403.86 18.479958,-34.104034,426.72 18.480148,-34.101795,426.72 18.480606,-34.095463,434.34 18.480663,-34.090298,434.34 18.480574,-34.086777,434.34 18.480663,-34.084198,434.34 18.481525,-34.080276,426.72 18.482265,-34.077728,426.72 18.482985,-34.074005,426.72 18.483238,-34.071304,426.72 18.48332,-34.06723,426.72 18.483263,-34.065033,434.34 18.483238,-34.061295,434.34 18.48332,-34.058578,434.34 18.483376,-34.054459,434.34 18.483467,-34.052124,434.34 18.483656,-34.048553,426.72 18.483881,-34.045807,426.72 18.483868,-34.042023,426.72 18.483524,-34.039276,426.72 18.482927,-34.035416,426.72 18.482552,-34.033039,441.96 18.481979,-34.029175,457.2 18.481583,-34.026993,464.82 18.480854,-34.023468,464.82 18.480263,-34.020748,472.44 18.479404,-34.016975,472.44 18.478891,-34.014313,472.44 18.478146,-34.010834,472.44 18.477491,-34.007904,472.44 18.476482,-34.004288,464.82 18.4758,-34.001896,472.44 18.474688,-33.998062,480.06 18.474026,-33.995796,502.92 18.473063,-33.992752,518.16 18.472221,-33.990463,518.16 18.470993,-33.987091,518.16 18.470091,-33.985062,518.16 18.468189,-33.981689,525.78 18.466953,-33.979797,533.4 18.464878,-33.976273,541.02 18.463814,-33.973755,541.02 18.462692,-33.970139,541.02 18.461609,-33.967537,541.02 18.460064,-33.964279,533.4 18.458862,-33.962139,541.02 18.456751,-33.959015,548.64 18.455372,-33.956833,563.88 18.453892,-33.953705,571.5 18.453051,-33.951553,563.88 18.45171,-33.948032,541.02 18.450865,-33.945831,518.16 18.449184,-33.942307,487.68 18.448063,-33.940201,480.06 18.446159,-33.936676,449.58 18.444958,-33.934395,434.34 18.442841,-33.930668,396.24 18.441673,-33.928574,365.76 18.440266,-33.924664,266.7 18.440323,-33.922058,304.8 18.44141,-33.91824,259.08 18.442402,-33.915894,243.84 18.443813,-33.912281,228.6 18.444672,-33.909767,220.98 18.445816,-33.905766,213.36 18.446274,-33.903297,205.74 18.44656,-33.899433,190.5 18.446381,-33.897263,190.5 18.445429,-33.893692,182.88 18.444099,-33.891518,175.26 18.441225,-33.889709,152.4 18.439095,-33.889389,137.16 18.436031,-33.889843,99.06 18.433825,-33.890396,76.2 18.431168,-33.891331,60.96 18.429733,-33.892227,45.72 18.429398,-33.893509,38.1 18.429565,-33.894173,22.86 18.429966,-33.895149,7.62 18.430138,-33.895756,0 18.430182,-33.896667,0 18.43008,-33.897293,0 18.429678,-33.898407,0 18.429394,-33.898922,0 18.428782,-33.899597,0 18.42802,-33.900131,0 18.427773,-33.90065,0 18.428879,-33.900597,0 18.429966,-33.90041,0 18.430767,-33.900272,0 18.431911,-33.90004,0 18.432648,-33.899826,0 18.433769,-33.899551,15.24 18.434498,-33.899323,22.86 18.436012,-33.898819,45.72 18.437357,-33.898315,68.58 18.439007,-33.896732,99.06 18.439407,-33.895245,114.3 18.439236,-33.892681,152.4 18.438759,-33.891174,160.02 18.43786,-33.888611,190.5 18.437233,-33.886864,205.74 18.436068,-33.884445,236.22 18.434778,-33.883072,251.46 18.431969,-33.881462,266.7 18.429966,-33.880718,289.56 18.426931,-33.879822,312.42 18.424801,-33.87941,327.66 18.421551,-33.879227,342.9 18.419209,-33.87923,358.14 18.416405,-33.879276,388.62 18.41432,-33.87941,403.86 18.410797,-33.879696,434.34 18.408451,-33.879974,449.58 18.405294,-33.880371,472.44 18.402884,-33.880737,487.68 18.399639,-33.881279,510.54 18.397522,-33.881695,518.16 18.394588,-33.882385,518.16 18.392235,-33.88298,548.64 18.388815,-33.884033,563.88 18.386517,-33.884903,571.5 18.383331,-33.886444,594.36 18.381081,-33.887695,609.6 18.378525,-33.889469,624.84 18.376652,-33.890854,632.46 18.374119,-33.892963,647.7 18.372503,-33.894424,647.7 18.370094,-33.896667,655.32 18.368626,-33.89827,662.94 18.366507,-33.900604,670.56 18.365021,-33.902412,685.8 18.362974,-33.904999,693.42 18.36153,-33.906788,693.42 18.359642,-33.909302,701.04 18.358379,-33.911133,701.04 18.356249,-33.914383,701.04 18.355236,-33.91605,701.04 18.353502,-33.919052,693.42 18.352318,-33.92136,693.42 18.350868,-33.924271,685.8 18.349915,-33.926338,685.8 18.34837,-33.929832,685.8 18.347504,-33.931961,685.8 18.346367,-33.934998,685.8 18.345375,-33.937408,678.18 18.344078,-33.940536,693.42 18.342876,-33.94347,685.8 18.340834,-33.948898,685.8 18.338535,-33.955536,678.18 18.333042,-33.969223,640.08 18.330633,-33.974167,670.56 18.323936,-33.98653,701.04 18.320711,-33.992386,723.9 18.317413,-33.998032,746.76 18.316154,-33.999985,739.14 18.314041,-34.002869,739.14 18.312721,-34.004642,739.14 18.310398,-34.007721,739.14 18.308884,-34.009735,731.52 18.306828,-34.012508,731.52 18.305073,-34.014908,723.9 18.302937,-34.018047,716.28 18.301598,-34.019989,716.28 18.299332,-34.023403,716.28 18.298187,-34.025169,716.28 18.296299,-34.02829,739.14 18.295319,-34.030289,777.24 18.295431,-34.032715,845.82 18.296585,-34.033688,868.68 18.298988,-34.033363,868.68 18.300762,-34.032291,853.44 18.303616,-34.030426,822.96 18.305521,-34.028915,807.72 18.308323,-34.026077,777.24 18.309917,-34.024193,762 18.312471,-34.02095,754.38 18.313816,-34.019073,739.14 18.316114,-34.015778,723.9 18.317356,-34.013813,716.28 18.319647,-34.01001,701.04 18.320789,-34.007992,685.8 18.322678,-34.004734,662.94 18.324074,-34.002686,662.94 18.326597,-33.999527,662.94 18.328857,-33.996914,655.32 18.337191,-33.985886,594.36 18.342459,-33.977737,556.26 18.347168,-33.96904,548.64 18.349857,-33.963303,533.4 18.352325,-33.957001,525.78 18.353222,-33.954117,533.4 18.354286,-33.950043,533.4 18.354792,-33.948029,541.02 18.356024,-33.943909,548.64 18.356667,-33.94175,548.64 18.357697,-33.938023,533.4 18.35844,-33.935139,533.4 18.359528,-33.931229,533.4 18.360271,-33.929039,541.02 18.361965,-33.925415,541.02 18.363132,-33.923313,541.02 18.365273,-33.920151,533.4 18.366955,-33.917999,533.4 18.36937,-33.914982,525.78 18.370857,-33.913166,525.78 18.3734,-33.91008,525.78 18.374863,-33.908279,525.78 18.377325,-33.905502,525.78 18.37904,-33.903576,525.78 18.381958,-33.900688,525.78 18.383657,-33.899094,533.4 18.386797,-33.896255,533.4 18.388767,-33.894592,533.4 18.391729,-33.892227,525.78 18.394089,-33.89045,518.16 18.397335,-33.888153,502.92 18.399633,-33.886642,487.68 18.402901,-33.884724,464.82 18.405533,-33.883278,449.58 18.409779,-33.881424,411.48 18.412457,-33.880672,396.24 18.417492,-33.880344,365.76 18.420467,-33.880672,350.52 18.424358,-33.88179,312.42 18.427267,-33.883072,312.42 18.43071,-33.885002,297.18 18.43276,-33.886276,289.56 18.435574,-33.888214,274.32 18.437357,-33.889801,266.7 18.438646,-33.892181,251.46 18.438086,-33.893784,236.22 18.435059,-33.894928,182.88 18.432705,-33.894516,144.78 18.430014,-33.893463,114.3 18.427677,-33.893429,99.06 18.426018,-33.89529,45.72 18.426132,-33.896358,38.1 18.426647,-33.897243,30.48 18.427162,-33.898083,15.24 18.427219,-33.899155,0 18.427219,-33.899666,0 18.427563,-33.900455,0 18.427773,-33.900604,0 18.429108,-33.900738,0 18.429794,-33.900784,0 18.431471,-33.900742,0 18.432312,-33.900738,7.62 18.433399,-33.900642,22.86 18.433914,-33.900505,30.48 18.435516,-33.899807,60.96 18.436516,-33.898865,76.2 18.437462,-33.896873,106.68 18.437918,-33.895294,114.3 18.438141,-33.89296,129.54 18.438034,-33.89138,144.78 18.43758,-33.888977,175.26 18.43689,-33.887142,190.5 18.435516,-33.885002,213.36 18.434217,-33.883896,236.22 18.431358,-33.882477,266.7 18.429565,-33.881836,289.56 18.426706,-33.881012,320.04 18.424416,-33.88044,342.9 18.421097,-33.879929,365.76 18.419195,-33.87973,373.38 18.415665,-33.879547,388.62 18.413422,-33.879593,403.86 18.409939,-33.879696,419.1 18.407764,-33.879833,426.72 18.404285,-33.880188,449.58 18.4021,-33.880581,464.82 18.399181,-33.881371,487.68 18.397179,-33.882023,495.3 18.394032,-33.883141,518.16 18.391506,-33.884079,533.4 18.388596,-33.885281,541.02 18.386742,-33.88623,548.64 18.383938,-33.887787,571.5 18.382359,-33.888771,579.12 18.379612,-33.890682,609.6 18.377781,-33.892078,624.84 18.375607,-33.893845,640.08 18.374119,-33.895149,655.32 18.371716,-33.89743,678.18 18.37043,-33.898773,693.42 18.368244,-33.901062,708.66 18.366898,-33.902618,708.66 18.364712,-33.905228,708.66 18.363361,-33.906879,716.28 18.361404,-33.909485,716.28 18.36006,-33.911362,723.9 18.358099,-33.914246,723.9 18.35701,-33.915913,731.52 18.355179,-33.918797,731.52 18.353119,-33.92215,731.52 18.351345,-33.925407,731.52 18.35025,-33.927383,731.52 18.348625,-33.930725,723.9 18.347569,-33.932812,716.28 18.345966,-33.936489,708.66 18.345051,-33.938583,701.04 18.343637,-33.941803,701.04 18.342684,-33.943954,693.42 18.341002,-33.947891,685.8 18.337751,-33.955994,685.8 18.335285,-33.962128,693.42 18.332291,-33.968422,693.42 18.326597,-33.979065,678.18 18.321304,-33.988346,678.18 18.3183,-33.993118,693.42 18.317011,-33.994995,701.04 18.314938,-33.998154,701.04 18.313593,-34.000214,708.66 18.311577,-34.003292,701.04 18.310341,-34.005112,701.04 18.308268,-34.008316,708.66 18.306885,-34.010414,701.04 18.304848,-34.013626,701.04 18.302879,-34.016697,708.66 18.299635,-34.022095,701.04 18.299046,-34.024612,708.66 18.300247,-34.028057,723.9 18.301849,-34.029408,731.52 18.305185,-34.030334,746.76 18.307686,-34.03006,746.76 18.311295,-34.028366,731.52 18.313145,-34.026855,716.28 18.315582,-34.023727,708.66 18.317011,-34.021362,716.28 18.318615,-34.018421,716.28 18.319757,-34.016098,716.28 18.321215,-34.012894,716.28 18.322168,-34.010742,716.28 18.323593,-34.007389,716.28 18.324411,-34.005295,708.66 18.326111,-34.001335,701.04 18.327198,-33.998962,701.04 18.329372,-33.994724,708.66 18.330521,-33.992615,716.28 18.333435,-33.987396,708.66 18.338648,-33.977783,670.56 18.346653,-33.960556,579.12 18.348232,-33.956177,571.5 18.34997,-33.951462,571.5 18.350945,-33.948872,571.5 18.353348,-33.94268,571.5 18.354904,-33.939194,571.5 18.356585,-33.935898,571.5 18.357819,-33.933609,571.5 18.359892,-33.929901,563.88 18.361069,-33.92775,556.26 18.363247,-33.924107,548.64 18.364563,-33.921825,548.64 18.366909,-33.91824,541.02 18.368168,-33.916332,541.02 18.370653,-33.913147,525.78 18.372231,-33.911259,525.78 18.375034,-33.908047,510.54 18.376808,-33.906044,510.54 18.379343,-33.903259,510.54 18.381191,-33.901382,510.54 18.383675,-33.898922,502.92 18.385565,-33.897171,502.92 18.388424,-33.89473,510.54 18.390385,-33.893234,510.54 18.393745,-33.890915,510.54 18.395748,-33.889702,502.92 18.399353,-33.88784,495.3 18.401819,-33.886734,480.06 18.405575,-33.885086,472.44 18.408394,-33.884026,419.1 18.412693,-33.882706,441.96 18.415329,-33.882156,381 18.419838,-33.881927,411.48 18.42256,-33.882294,411.48 18.426146,-33.883163,403.86 18.428879,-33.884026,350.52 18.432144,-33.885452,373.38 18.434443,-33.886642,358.14 18.436293,-33.888977,335.28 18.43646,-33.890671,320.04 18.434946,-33.892731,289.56 18.433113,-33.893429,259.08 18.429165,-33.89352,205.74 18.426876,-33.893379,190.5 18.424358,-33.89394,167.64 18.424072,-33.895103,121.92 18.425474,-33.896851,38.1 18.426018,-33.897339,22.86 18.426704,-33.897942,0 18.427267,-33.899048,0 18.427105,-33.899807,0 18.426933,-33.900364,0 18.427492,-33.900696,0 18.428478,-33.900784,0 18.430252,-33.900597,0 18.430967,-33.900513,0 18.432655,-33.900272,0 18.433376,-33.900146,0 18.434544,-33.899944,22.86 18.435402,-33.899712,30.48 18.437061,-33.898968,68.58 18.43803,-33.89772,91.44 18.438606,-33.895428,114.3 18.438478,-33.893784,129.54 18.437693,-33.890762,152.4 18.437189,-33.88916,160.02 18.436348,-33.886459,175.26 18.435675,-33.884354,190.5 18.434315,-33.881416,205.74 18.43277,-33.879463,220.98 18.430182,-33.877487,251.46 18.428389,-33.876846,274.32 18.425417,-33.876663,320.04 18.423904,-33.877258,350.52 18.422756,-33.878716,388.62 18.422813,-33.879696,419.1 18.423271,-33.880951,464.82 18.423624,-33.88179,495.3 18.423901,-33.882908,541.02 18.423847,-33.883575,563.88 18.422127,-33.884396,563.88 18.420296,-33.884441,556.26 18.417122,-33.884216,571.5 18.414543,-33.883987,579.12 18.411026,-33.883652,594.36 18.408566,-33.883465,601.98 18.404789,-33.883327,617.22 18.402828,-33.883392,617.22 18.398895,-33.883698,624.84 18.396091,-33.884071,632.46 18.392544,-33.884815,647.7 18.390497,-33.885315,655.32 18.387245,-33.886276,678.18 18.385059,-33.887238,678.18 18.381977,-33.888977,685.8 18.379902,-33.890488,693.42 18.377495,-33.892448,701.04 18.375755,-33.894012,701.04 18.372917,-33.8965,716.28 18.371201,-33.898129,716.28 18.368525,-33.900787,708.66 18.367023,-33.902458,716.28 18.364601,-33.905319,716.28 18.363132,-33.907112,723.9 18.360846,-33.91008,731.52 18.359556,-33.911865,731.52 18.357594,-33.914658,731.52 18.356438,-33.91647,739.14 18.354454,-33.919601,731.52 18.353291,-33.921593,731.52 18.351574,-33.924526,731.52 18.35043,-33.926712,723.9 18.348827,-33.929646,716.28 18.347797,-33.931694,716.28 18.346888,-33.934753,731.52 18.347397,-33.936768,754.38 18.349689,-33.938461,807.72 18.351707,-33.938232,838.2 18.35339,-33.936722,883.92 18.354034,-33.935696,929.64 18.354679,-33.934616,982.98 18.355072,-33.934113,1005.84 18.355923,-33.933556,1028.7 18.356838,-33.933369,1028.7 18.35849,-33.933975,1021.08 18.359388,-33.935303,1013.46 18.359585,-33.937977,1013.46 18.35907,-33.940258,1013.46 18.358212,-33.943378,1005.84 18.357651,-33.945374,998.22 18.356529,-33.948807,990.6 18.355865,-33.951107,998.22 18.354847,-33.954437,998.22 18.354118,-33.956863,998.22 18.352716,-33.961304,998.22 18.351877,-33.963913,1005.84 18.351002,-33.967026,1005.84 18.350475,-33.969177,1013.46 18.349689,-33.972794,1013.46 18.349073,-33.975586,1013.46 18.348312,-33.978943,1005.84 18.34734,-33.981411,998.22 18.345205,-33.984283,998.22 18.343391,-33.986298,998.22 18.340721,-33.989136,998.22 18.339214,-33.990814,998.22 18.336575,-33.993713,998.22 18.334694,-33.995796,990.6 18.332005,-33.9991,975.36 18.330574,-34.001194,967.74 18.328726,-34.004791,960.12 18.327997,-34.006851,952.5 18.32737,-34.010551,960.12 18.327606,-34.012802,899.16 18.3288,-34.015907,967.74 18.330353,-34.018158,975.36 18.33292,-34.020935,975.36 18.334866,-34.022655,982.98 18.337416,-34.024841,990.6 18.339153,-34.026443,998.22 18.34156,-34.028801,998.22 18.342991,-34.030571,998.22 18.344994,-34.033222,1013.46 18.346272,-34.034958,1013.46 18.348009,-34.037933,1021.08 18.348827,-34.040115,1028.7 18.34997,-34.043243,1021.08 18.350658,-34.045326,1021.08 18.351631,-34.048492,1013.46 18.3521,-34.050522,1013.46 18.352829,-34.053955,1005.84 18.353222,-34.056335,1013.46 18.353863,-34.059807,1021.08 18.354492,-34.06176,1013.46 18.356024,-34.064941,1005.84 18.35737,-34.067184,1005.84 18.359163,-34.069931,1005.84 18.360558,-34.071815,1005.84 18.362675,-34.074471,998.22 18.36422,-34.076286,998.22 18.36668,-34.079357,990.6 18.368132,-34.081375,975.36 18.370285,-34.084709,944.88 18.371429,-34.086575,922.02 18.373432,-34.089787,899.16 18.37492,-34.092251,883.92 18.377045,-34.095474,861.06 18.378639,-34.097607,845.82 18.381214,-34.10054,822.96 18.382874,-34.102261,815.34 18.38562,-34.105042,792.48 18.38747,-34.106827,777.24 18.390656,-34.109756,754.38 18.392738,-34.111588,739.14 18.396034,-34.113945,723.9 18.398737,-34.115479,716.28 18.402716,-34.117264,693.42 18.405247,-34.118275,678.18 18.409195,-34.119812,670.56 18.411573,-34.120697,662.94 18.415049,-34.121887,655.32 18.417892,-34.122883,647.7 18.421999,-34.124313,640.08 18.424408,-34.125229,640.08 18.427906,-34.12656,617.22 18.43063,-34.127701,594.36 18.434315,-34.129307,518.16 18.437119,-34.130566,556.26 18.441067,-34.132099,502.92 18.444042,-34.132751,541.02 18.448624,-34.132782,525.78 18.45137,-34.132324,518.16 18.455069,-34.130951,449.58 18.457317,-34.129726,487.68 18.460899,-34.127243,510.54 18.462925,-34.125492,510.54 18.465328,-34.122883,518.16 18.466816,-34.120975,525.78 18.468859,-34.11795,533.4 18.470135,-34.115669,541.02 18.471565,-34.112457,541.02 18.472334,-34.10994,548.64 18.473118,-34.106552,556.26 18.473454,-34.103985,556.26 18.473625,-34.100166,548.64 18.473568,-34.097652,548.64 18.473339,-34.093975,548.64 18.47323,-34.091583,556.26 18.47295,-34.087921,556.26 18.472727,-34.085678,510.54 18.472023,-34.077915,563.88 18.471909,-34.075539,556.26 18.471565,-34.069443,548.64 18.471325,-34.060638,510.54 18.471718,-34.048782,563.88 18.471886,-34.041367,518.16 18.472195,-34.029312,548.64 18.472557,-34.020355,556.26 18.473225,-34.008133,548.64 18.473854,-34.000404,510.54 18.474426,-33.996403,487.68 18.474855,-33.994034,480.06 18.475529,-33.98996,464.82 18.475914,-33.987324,457.2 18.47637,-33.983505,457.2 18.476538,-33.981079,449.58 18.476944,-33.977592,426.72 18.477402,-33.974895,419.1 18.478107,-33.9711,396.24 18.478775,-33.96833,388.62 18.47962,-33.964783,373.38 18.480263,-33.962231,373.38 18.481121,-33.958553,365.76 18.481808,-33.95562,365.76 18.482666,-33.95171,350.52 18.483295,-33.948826,335.28 18.483881,-33.945007,327.66 18.483982,-33.942074,320.04 18.483095,-33.9375,304.8 18.482031,-33.934937,304.8 18.479958,-33.931274,289.56 18.478088,-33.928715,281.94 18.475304,-33.925735,274.32 18.473007,-33.923767,259.08 18.46953,-33.920883,251.46 18.467064,-33.919006,243.84 18.463554,-33.916191,236.22 18.461515,-33.9142,228.6 18.458488,-33.91127,220.98 18.456247,-33.909164,213.36 18.453108,-33.90596,213.36 18.450909,-33.903717,205.74 18.448008,-33.900696,205.74 18.445873,-33.898548,198.12 18.442963,-33.895706,182.88 18.440838,-33.893799,175.26 18.437977,-33.891331,160.02 18.435688,-33.889984,137.16 18.431696,-33.889618,121.92 18.429733,-33.890396,106.68 18.427996,-33.892273,76.2 18.427492,-33.893692,53.34 18.427547,-33.895294,38.1 18.428108,-33.896393,22.86 18.428669,-33.897171,22.86 18.429117,-33.89772,15.24 18.429846,-33.898682,7.62 18.429966,-33.899338,0 18.428724,-33.900192,0 18.428192,-33.900505,0 18.427391,-33.900784,0 18.426987,-33.900375,0 18.427448,-33.8992,0 18.428192,-33.898174,0 18.428822,-33.897198,0 18.429508,-33.896221,7.62 18.430239,-33.89502,15.24 18.430687,-33.894287,22.86 18.431568,-33.892868,45.72 18.432426,-33.891331,68.58 18.433571,-33.889099,106.68 18.434275,-33.887604,129.54 18.435394,-33.884995,175.26 18.435732,-33.883255,205.74 18.435171,-33.880737,236.22 18.4338,-33.879135,266.7 18.431303,-33.877121,304.8 18.429451,-33.876343,335.28 18.426426,-33.875839,358.14 18.424017,-33.875702,373.38 18.420765,-33.875793,396.24 18.418579,-33.876019,411.48 18.415104,-33.876572,434.34 18.4128,-33.877087,449.58 18.409611,-33.877808,472.44 18.407478,-33.878391,495.3 18.40416,-33.879322,518.16 18.4021,-33.879929,525.78 18.398781,-33.880859,548.64 18.396492,-33.881603,556.26 18.393019,-33.882889,556.26 18.39072,-33.88385,571.5 18.38719,-33.885498,579.12 18.385117,-33.886551,586.74 18.381958,-33.888447,624.84 18.380013,-33.889751,640.08 18.37738,-33.891613,670.56 18.375492,-33.893147,685.8 18.372952,-33.89534,701.04 18.371494,-33.896713,708.66 18.369026,-33.899059,716.28 18.367424,-33.900642,723.9 18.364882,-33.903305,723.9 18.363199,-33.905136,723.9 18.360733,-33.907928,723.9 18.358995,-33.909988,716.28 18.356838,-33.912888,708.66 18.355179,-33.915169,708.66 18.353291,-33.918285,708.66 18.352032,-33.920429,716.28 18.350258,-33.923641,708.66 18.349131,-33.925827,716.28 18.347454,-33.929459,716.28 18.346539,-33.931648,716.28 18.344982,-33.935257,716.28 18.344078,-33.937466,716.28 18.341732,-33.943237,716.28 18.340498,-33.94693,716.28 18.339712,-33.950455,708.66 18.339657,-33.952835,701.04 18.34033,-33.956314,701.04 18.341789,-33.958786,701.04 18.345165,-33.961254,685.8 18.353558,-33.961441,670.56 18.35844,-33.954922,640.08 18.358435,-33.952148,624.84 18.358267,-33.948257,609.6 18.358154,-33.945557,594.36 18.357983,-33.941471,579.12 18.35804,-33.938816,571.5 18.358603,-33.935165,563.88 18.359241,-33.932766,556.26 18.3605,-33.929413,548.64 18.361645,-33.926853,541.02 18.363533,-33.923409,541.02 18.364906,-33.921406,541.02 18.367458,-33.918228,541.02 18.369312,-33.91605,541.02 18.371544,-33.91349,541.02 18.373344,-33.911453,533.4 18.375811,-33.908798,525.78 18.379734,-33.904678,518.16 18.382761,-33.90184,510.54 18.384779,-33.900146,518.16 18.387852,-33.897617,518.16 18.389769,-33.896072,518.16 18.392963,-33.893555,510.54 18.395405,-33.89175,502.92 18.398792,-33.889435,495.3 18.401203,-33.887878,480.06 18.404621,-33.885818,472.44 18.407145,-33.884491,472.44 18.411255,-33.882908,457.2 18.413927,-33.882523,449.58 18.418243,-33.882248,434.34 18.421158,-33.882339,419.1 18.425585,-33.883255,388.62 18.427906,-33.884026,373.38 18.431396,-33.885746,358.14 18.433399,-33.886909,358.14 18.436068,-33.888702,342.9 18.437977,-33.890217,327.66 18.440151,-33.892357,312.42 18.441639,-33.893986,281.94 18.443184,-33.896267,190.5 18.443756,-33.898129,220.98 18.44313,-33.900604,190.5 18.441982,-33.901714,190.5 18.440048,-33.902023,205.74 18.438646,-33.901794,160.02 18.435955,-33.901016,137.16 18.434443,-33.900009,129.54 18.432312,-33.899246,114.3 18.431396,-33.899525,91.44 18.430014,-33.900009,45.72 18.429173,-33.900238,22.86 18.428364,-33.900505,0
        </coordinates>
      </LineString>
    </Placemark>
  </Document>
</kml>