<?xml version="1.0" encoding="UTF-8"?>
<kml xmlns="http://www.opengis.net/kml/2.2">
  <Document>
    <name>-/ZTHOT - Optimised</name>
    <description><![CDATA[Optimised flight path with 274 points (decimated from 1366 original points). Source format: Standard KML]]></description>
    
    <Style id="flightPath">
      <LineStyle>
        <color>ffff0000</color>
        <width>3</width>
      </LineStyle>
    </Style>
    
    <Placemark>
      <name>Flight Path</name>
      <description><![CDATA[<div style="width:220px; text-align:center;">
<div style="width:210px; text-align:center;">
<div style=" background: #000; color: #fff; font-size: 14px; text-align:left; border: 1px solid #000; padding: 2px 6px; text-shadow: 0 1px 0 #000; box-shadow: 0 1px 3px rgba(0,0,0,0.6); background: -webkit-gradient(linear, left top, left bottom, color-stop(0%,#808080), color-stop(2%,#303030), color-stop(100%,#0c0c0c));"><span style="font-size: 14px; font-weight: bold;"><a href="javascript:void(0);" style="color: #fff; cursor: pointer;text-decoration: none;">-</a></span> / ZTHOT<br/>Cape Town Helicopters</div>

<div style="border-top: 1px solid #005c90; color: #fff; padding-bottom: 5px; box-shadow: 0 0 1px #9BE3F6 inset, 0 1px 0 #9BE3F6 inset, 0 -1px 3px rgba(0,0,0,0.4); background:rgba(43,114,173,1); background: -webkit-gradient(linear, left top, left bottom, color-stop(0%,rgba(92,184,229,1)), color-stop(100%,rgba(43,114,173,1)));">
<a style="text-decoration: none; color: rgb(255, 255, 255); font-size: 12px; width:77px; display: inline-block;" title="Cape Town Airport" href="https://www.flightradar24.com/airport/cpt/departures"><h3 style="padding: 0px; margin: 10px 0px 0px; font-size: 16px; ">CPT</h3>Cape Town</a>
<span style="background: url(https://www.flightradar24.com/static/images/userUI_sprite.png?14) no-repeat scroll 0 -464px rgba(0, 0, 0, 0); border: medium none; display: inline-block; height: 16px; width: 45px;"></span>
<a style="text-decoration: none; color: rgb(255, 255, 255); font-size: 12px; width:77px; display: inline-block;" title="Cape Town Airport" href="https://www.flightradar24.com/airport/cpt/arrivals"><h3 style="padding: 0px; margin: 10px 0px 0px; font-size: 16px;">CPT</h3>Cape Town</a>
<div style=" margin-top:10px;">
<div style="display: inline-block; font-size: 12px; padding: 0 5px;">
<div>
<span style="color: #c1eaff;" title="Actual Time of Departure">ATD </span>
<span title="2025-12-21 10:17">10:17</span> <span title="Coordinated Universal Time">UTC</span>
</div>
</div>
<div style="display: inline-block; font-size: 12px; padding: 0 5px;">
<div>
<span style="color: #c1eaff;" title="Estimated Time of Arrival">ETA </span>
<span title="2025-12-21 10:29">10:29</span> <span title="Coordinated Universal Time">UTC</span>
</div>
</div>
</div>
<br style="clear: both;"/>
</div>

<div style="display: block;">
<table style="border-collapse: collapse; width: 100%;">
<tr style="border-right: 1px solid #dadada; ">
<td style="background: none repeat scroll 0 0 #dadada; padding: 0; width: 31px;">
<span style="background: url(https://www.flightradar24.com/static/images/userUI_sprite.png?14) no-repeat scroll -208px -464px rgba(0, 0, 0, 0); height: 26px; margin: 8px 0 0 4px; width: 23px; display: block;"></span>
</td>
<td colspan="2" style="border-bottom: 1px solid #dadada; border-left: 1px solid #dadada; color: #666; line-height: 1.1em; padding: 3px 6px; vertical-align: top; font-size: 14px;">
Aircraft<span style="float: right; font-size: 12px;">(AS50)</span><br>
<span style="color: #333; font-size: 16px; font-weight: bold; line-height: 1.3em;">Airbus Helicopters H125</span>
</td>
</tr>
<tr style="border-right: 1px solid #dadada; ">
<td style="background: none repeat scroll 0 0 #dadada; padding: 0; width: 31px;">
<td colspan="2" style="border-bottom: 1px solid #dadada; border-left: 1px solid #dadada; color: #666; line-height: 1.1em; padding: 3px 6px; vertical-align: top; font-size: 14px;">
Registration<br>
<span style="color: #333; font-size: 16px; font-weight: bold; line-height: 1.3em;"><a href="https://www.flightradar24.com/reg/zt-hot" style="text-decoration: none; color: #333;">ZT-HOT</a></span>
</td>
</tr>
</table>
</div>

</div>
</div>]]></description>
      <styleUrl>#flightPath</styleUrl>
      <LineString>
        <extrude>1</extrude>
        <tessellate>1</tessellate>
        <altitudeMode>absolute</altitudeMode>
        <coordinates>
          18.427393,-33.900536,0 18.428478,-33.898827,121.92 18.429222,-33.897617,121.92 18.430367,-33.895943,152.4 18.431135,-33.894791,182.88 18.432367,-33.892776,243.84 18.433096,-33.891541,243.84 18.43433,-33.889481,274.32 18.435171,-33.88797,304.8 18.436012,-33.885773,335.28 18.436089,-33.88393,335.28 18.435226,-33.881012,365.76 18.434143,-33.878998,365.76 18.432369,-33.876621,396.24 18.430519,-33.874786,396.24 18.427162,-33.872387,396.24 18.425274,-33.871361,426.72 18.42099,-33.869705,426.72 18.419266,-33.869221,426.72 18.414879,-33.868423,457.2 18.412132,-33.868378,487.68 18.408852,-33.868755,487.68 18.406303,-33.869431,487.68 18.402786,-33.870941,518.16 18.400978,-33.871902,518.16 18.397671,-33.873825,548.64 18.39571,-33.875015,548.64 18.392851,-33.876892,548.64 18.390942,-33.878159,579.12 18.387909,-33.880344,579.12 18.386135,-33.881649,609.6 18.383274,-33.88393,609.6 18.381529,-33.885361,640.08 18.378782,-33.88765,640.08 18.377094,-33.889099,640.08 18.374689,-33.891312,670.56 18.373009,-33.892868,670.56 18.370686,-33.895149,701.04 18.369141,-33.896687,701.04 18.36701,-33.898956,701.04 18.365217,-33.900833,731.52 18.361416,-33.905018,731.52 18.358669,-33.908371,762 18.356192,-33.911636,762 18.354836,-33.913586,762 18.353062,-33.916332,792.48 18.35182,-33.918365,792.48 18.349857,-33.921593,822.96 18.34877,-33.923409,822.96 18.344421,-33.931274,822.96 18.342909,-33.934341,822.96 18.341103,-33.938072,822.96 18.337191,-33.946426,822.96 18.334612,-33.953934,822.96 18.335209,-33.955948,822.96 18.341789,-33.959812,792.48 18.344822,-33.959251,792.48 18.34837,-33.955948,762 18.349411,-33.953796,762 18.351372,-33.949997,731.52 18.352381,-33.947983,731.52 18.354149,-33.944633,731.52 18.355295,-33.94249,731.52 18.35701,-33.939049,701.04 18.358099,-33.936951,701.04 18.359724,-33.933517,701.04 18.360729,-33.931229,701.04 18.363087,-33.925781,701.04 18.364162,-33.923359,701.04 18.365707,-33.920334,701.04 18.366898,-33.918091,701.04 18.368637,-33.914886,670.56 18.369999,-33.91256,670.56 18.372002,-33.909443,670.56 18.373203,-33.907578,670.56 18.375195,-33.904678,670.56 18.376652,-33.902573,670.56 18.378696,-33.899853,670.56 18.380182,-33.898041,670.56 18.382645,-33.895195,670.56 18.384418,-33.893429,670.56 18.387245,-33.891083,670.56 18.389601,-33.889435,670.56 18.39283,-33.88747,670.56 18.395372,-33.88623,670.56 18.398952,-33.884769,670.56 18.401356,-33.883976,640.08 18.405239,-33.882889,640.08 18.408051,-33.882256,640.08 18.412022,-33.881744,609.6 18.414824,-33.881607,579.12 18.418634,-33.88179,579.12 18.421438,-33.882294,548.64 18.424913,-33.883347,518.16 18.427048,-33.88435,487.68 18.430023,-33.886074,457.2 18.431911,-33.887329,426.72 18.4342,-33.889004,396.24 18.435787,-33.890213,396.24 18.437805,-33.892078,365.76 18.438702,-33.89328,335.28 18.439262,-33.895477,304.8 18.438721,-33.896687,274.32 18.436628,-33.897858,243.84 18.435003,-33.89827,213.36 18.43276,-33.898727,182.88 18.430967,-33.899094,152.4 18.428078,-33.89999,121.92 18.427563,-33.90041,121.92 18.428593,-33.898224,152.4 18.429451,-33.897106,182.88 18.430824,-33.895336,213.36 18.431568,-33.894218,213.36 18.432705,-33.892227,274.32 18.433456,-33.89082,274.32 18.434486,-33.888493,304.8 18.435114,-33.8871,335.28 18.435843,-33.88504,365.76 18.435675,-33.883072,365.76 18.434772,-33.880581,396.24 18.433825,-33.878906,396.24 18.431864,-33.876205,426.72 18.430138,-33.874386,426.72 18.42738,-33.872269,457.2 18.425585,-33.871353,457.2 18.421774,-33.869934,487.68 18.41942,-33.869431,487.68 18.416058,-33.869019,518.16 18.413486,-33.869034,548.64 18.409538,-33.869686,548.64 18.407032,-33.870529,579.12 18.403988,-33.871872,609.6 18.402044,-33.872955,609.6 18.399128,-33.874603,609.6 18.39735,-33.87569,640.08 18.394547,-33.877506,640.08 18.392683,-33.878815,640.08 18.389912,-33.880905,670.56 18.388309,-33.88221,670.56 18.3859,-33.884262,731.52 18.384666,-33.885406,762 18.383045,-33.887005,792.48 18.381639,-33.888382,792.48 18.379326,-33.890541,792.48 18.377829,-33.892044,792.48 18.375475,-33.894516,822.96 18.374073,-33.896027,822.96 18.371552,-33.898773,822.96 18.370342,-33.900177,822.96 18.367907,-33.902893,822.96 18.366165,-33.904926,822.96 18.360846,-33.911453,822.96 18.357811,-33.915585,822.96 18.355751,-33.918427,822.96 18.354399,-33.920471,822.96 18.352489,-33.923313,822.96 18.351259,-33.925369,822.96 18.348827,-33.929367,822.96 18.347,-33.932648,822.96 18.345051,-33.936161,822.96 18.343906,-33.938442,822.96 18.342361,-33.941654,822.96 18.341227,-33.944046,822.96 18.339769,-33.947205,822.96 18.337526,-33.952286,822.96 18.331947,-33.964977,853.44 18.327045,-33.976318,853.44 18.321648,-33.98951,853.44 18.320961,-33.991791,853.44 18.320206,-33.995407,853.44 18.319931,-33.997658,853.44 18.319874,-34.001102,853.44 18.320045,-34.003292,853.44 18.320675,-34.007015,853.44 18.320824,-34.009323,853.44 18.319702,-34.013077,822.96 18.318077,-34.015366,822.96 18.315105,-34.01857,822.96 18.313145,-34.020309,822.96 18.310286,-34.022736,822.96 18.308491,-34.024521,883.92 18.307056,-34.026474,944.88 18.306313,-34.027637,944.88 18.305185,-34.02951,975.36 18.30468,-34.030838,975.36 18.304512,-34.033035,1005.84 18.304825,-34.034389,1005.84 18.306198,-34.036201,1036.32 18.307652,-34.036972,1066.8 18.30986,-34.037136,1066.8 18.311237,-34.036606,1066.8 18.312696,-34.035049,1066.8 18.313368,-34.033676,1097.28 18.313929,-34.031387,1066.8 18.314095,-34.029686,1066.8 18.314381,-34.026707,1036.32 18.314602,-34.02475,1005.84 18.315125,-34.021355,1005.84 18.315443,-34.019577,975.36 18.316172,-34.016464,975.36 18.316669,-34.014278,975.36 18.317127,-34.011204,944.88 18.316669,-34.008968,944.88 18.315722,-34.005936,914.4 18.314896,-34.003803,914.4 18.313255,-34.001083,914.4 18.311911,-33.999207,914.4 18.309669,-33.996643,883.92 18.307482,-33.995407,883.92 18.305466,-33.993713,944.88 18.305283,-33.992489,914.4 18.30681,-33.989594,822.96 18.307987,-33.987991,792.48 18.310318,-33.985043,792.48 18.312263,-33.983551,792.48 18.315182,-33.981876,762 18.318386,-33.979595,731.52 18.329029,-33.96912,670.56 18.33498,-33.961811,670.56 18.339157,-33.956085,670.56 18.340816,-33.953621,670.56 18.344196,-33.949219,670.56 18.346495,-33.947617,640.08 18.349285,-33.945427,670.56 18.351002,-33.943798,670.56 18.353577,-33.941143,670.56 18.355072,-33.939514,640.08 18.357538,-33.936447,670.56 18.358938,-33.934616,670.56 18.360844,-33.931927,670.56 18.362103,-33.930157,670.56 18.363815,-33.927567,701.04 18.365021,-33.92569,701.04 18.366619,-33.922897,731.52 18.367628,-33.920975,731.52 18.369141,-33.918182,731.52 18.370228,-33.916191,731.52 18.372173,-33.912933,731.52 18.373569,-33.910767,731.52 18.375378,-33.907951,731.52 18.376637,-33.90609,731.52 18.378838,-33.90303,731.52 18.380295,-33.901062,701.04 18.382759,-33.898037,701.04 18.384556,-33.896118,701.04 18.387451,-33.893333,701.04 18.389225,-33.891846,701.04 18.392683,-33.889389,670.56 18.394924,-33.888062,670.56 18.398792,-33.886047,640.08 18.401203,-33.88504,640.08 18.405476,-33.883698,640.08 18.408209,-33.883072,640.08 18.4128,-33.882488,640.08 18.415384,-33.882294,640.08 18.419895,-33.882347,640.08 18.422783,-33.882706,640.08 18.426819,-33.883793,609.6 18.429165,-33.884861,609.6 18.432144,-33.886551,579.12 18.4338,-33.887749,548.64 18.436489,-33.889797,487.68 18.43786,-33.890945,487.68 18.440151,-33.893196,426.72 18.441124,-33.894592,396.24 18.442009,-33.896667,365.76 18.44141,-33.898361,365.76 18.439407,-33.89962,335.28 18.437634,-33.899853,304.8 18.435452,-33.89978,274.32 18.432484,-33.899712,213.36 18.429453,-33.899826,152.4 18.428444,-33.899963,152.4 18.42742,-33.900597,0
        </coordinates>
      </LineString>
    </Placemark>
  </Document>
</kml>