<?xml version="1.0" encoding="UTF-8"?>
<kml xmlns="http://www.opengis.net/kml/2.2">
  <Document>
    <name>-/ZTRNW - Optimised</name>
    <description><![CDATA[Optimised flight path with 926 points (decimated from 4628 original points). Source format: Standard KML]]></description>
    
    <Style id="flightPath">
      <LineStyle>
        <color>ffff0000</color>
        <width>3</width>
      </LineStyle>
    </Style>
    
    <Placemark>
      <name>Flight Path</name>
      <description><![CDATA[<div style="width:220px; text-align:center;">
<div style="width:210px; text-align:center;">
<div style=" background: #000; color: #fff; font-size: 14px; text-align:left; border: 1px solid #000; padding: 2px 6px; text-shadow: 0 1px 0 #000; box-shadow: 0 1px 3px rgba(0,0,0,0.6); background: -webkit-gradient(linear, left top, left bottom, color-stop(0%,#808080), color-stop(2%,#303030), color-stop(100%,#0c0c0c));"><span style="font-size: 14px; font-weight: bold;"><a href="javascript:void(0);" style="color: #fff; cursor: pointer;text-decoration: none;">-</a></span> / ZTRNW<br/>Private owner</div>

<div style="border-top: 1px solid #005c90; color: #fff; padding-bottom: 5px; box-shadow: 0 0 1px #9BE3F6 inset, 0 1px 0 #9BE3F6 inset, 0 -1px 3px rgba(0,0,0,0.4); background:rgba(43,114,173,1); background: -webkit-gradient(linear, left top, left bottom, color-stop(0%,rgba(92,184,229,1)), color-stop(100%,rgba(43,114,173,1)));">
<a style="text-decoration: none; color: rgb(255, 255, 255); font-size: 12px; width:77px; display: inline-block;" title="Cape Town Airport" href="https://www.flightradar24.com/airport/cpt/departures"><h3 style="padding: 0px; margin: 10px 0px 0px; font-size: 16px; ">CPT</h3>Cape Town</a>
<span style="background: url(https://www.flightradar24.com/static/images/userUI_sprite.png?14) no-repeat scroll 0 -464px rgba(0, 0, 0, 0); border: medium none; display: inline-block; height: 16px; width: 45px;"></span>
<a style="text-decoration: none; color: rgb(255, 255, 255); font-size: 12px; width:77px; display: inline-block;" title=" Airport" href="javascript:void(0);/arrivals"><h3 style="padding: 0px; margin: 10px 0px 0px; font-size: 16px;">?</h3></a>
<div style=" margin-top:10px;">
<div style="display: inline-block; font-size: 12px; padding: 0 5px;">
<div>
<span style="color: #c1eaff;" title="Scheduled Time of Departure">STD </span>
<span title="2025-11-01 07:23">07:23</span> <span title="Coordinated Universal Time">UTC</span>
</div>
<div>
<span style="color: #c1eaff;" title="Actual Time of Departure">ATD </span>
<span title="2025-11-01 07:23">07:23</span> <span title="Coordinated Universal Time">UTC</span>
</div>
</div>
<div style="display: inline-block; font-size: 12px; padding: 0 5px;">
<div>
<span style="color: #c1eaff;" title="Estimated Time of Arrival">ETA </span>
<span title="2025-11-01 07:46">07:46</span> <span title="Coordinated Universal Time">UTC</span>
</div>
</div>
</div>
<br style="clear: both;"/>
</div>

<div style="display: block;">
<table style="border-collapse: collapse; width: 100%;">
<tr style="border-right: 1px solid #dadada; ">
<td style="background: none repeat scroll 0 0 #dadada; padding: 0; width: 31px;">
<span style="background: url(https://www.flightradar24.com/static/images/userUI_sprite.png?14) no-repeat scroll -208px -464px rgba(0, 0, 0, 0); height: 26px; margin: 8px 0 0 4px; width: 23px; display: block;"></span>
</td>
<td colspan="2" style="border-bottom: 1px solid #dadada; border-left: 1px solid #dadada; color: #666; line-height: 1.1em; padding: 3px 6px; vertical-align: top; font-size: 14px;">
Aircraft<span style="float: right; font-size: 12px;">(EC20)</span><br>
<span style="color: #333; font-size: 16px; font-weight: bold; line-height: 1.3em;">Airbus Helicopters H120</span>
</td>
</tr>
<tr style="border-right: 1px solid #dadada; ">
<td style="background: none repeat scroll 0 0 #dadada; padding: 0; width: 31px;">
<td colspan="2" style="border-bottom: 1px solid #dadada; border-left: 1px solid #dadada; color: #666; line-height: 1.1em; padding: 3px 6px; vertical-align: top; font-size: 14px;">
Registration<br>
<span style="color: #333; font-size: 16px; font-weight: bold; line-height: 1.3em;"><a href="https://www.flightradar24.com/reg/zt-rnw" style="text-decoration: none; color: #333;">ZT-RNW</a></span>
</td>
</tr>
</table>
</div>

</div>
</div>]]></description>
      <styleUrl>#flightPath</styleUrl>
      <LineString>
        <extrude>1</extrude>
        <tessellate>1</tessellate>
        <altitudeMode>absolute</altitudeMode>
        <coordinates>
          18.427391,-33.896732,45.72 18.433546,-33.889984,152.4 18.434601,-33.888634,160.02 18.435787,-33.886414,213.36 18.436031,-33.884628,243.84 18.435619,-33.881973,266.7 18.435171,-33.88028,281.94 18.434258,-33.877552,297.18 18.433456,-33.876202,335.28 18.431639,-33.875061,396.24 18.430653,-33.87532,426.72 18.430481,-33.87653,472.44 18.431078,-33.877213,502.92 18.433113,-33.877598,541.02 18.434778,-33.876892,556.26 18.435171,-33.874786,563.88 18.43405,-33.873734,571.5 18.431528,-33.873093,579.12 18.429451,-33.872898,601.98 18.426706,-33.873047,632.46 18.424856,-33.87323,647.7 18.422241,-33.873505,670.56 18.420525,-33.873783,685.8 18.417435,-33.874249,708.66 18.415607,-33.874512,723.9 18.412973,-33.875015,739.14 18.410854,-33.875458,746.76 18.407761,-33.876343,754.38 18.405575,-33.877121,754.38 18.402729,-33.878437,762 18.400726,-33.879463,762 18.397783,-33.881012,746.76 18.395542,-33.882248,762 18.392683,-33.883987,754.38 18.390656,-33.885326,754.38 18.388142,-33.887146,754.38 18.386124,-33.888611,754.38 18.383217,-33.890865,754.38 18.3815,-33.892311,754.38 18.378614,-33.894836,754.38 18.3771,-33.896301,754.38 18.374802,-33.898499,762 18.373344,-33.900055,762 18.370972,-33.902504,762 18.369589,-33.904037,754.38 18.367516,-33.90683,746.76 18.366337,-33.908649,739.14 18.36422,-33.911442,731.52 18.362789,-33.912979,731.52 18.360386,-33.915585,723.9 18.358841,-33.917542,762 18.358727,-33.919964,838.2 18.359779,-33.921066,883.92 18.361965,-33.92157,929.64 18.363873,-33.921112,967.74 18.36544,-33.919647,998.22 18.365479,-33.918148,1013.46 18.362864,-33.917404,1005.84 18.360956,-33.918182,998.22 18.358326,-33.920055,990.6 18.356838,-33.92136,982.98 18.354399,-33.923813,952.5 18.353119,-33.925316,967.74 18.350698,-33.928482,944.88 18.349298,-33.930496,937.26 18.347282,-33.933743,914.4 18.346104,-33.935806,899.16 18.344307,-33.939049,883.92 18.343391,-33.940956,876.3 18.341904,-33.944263,876.3 18.340834,-33.946701,883.92 18.339443,-33.950127,883.92 18.33847,-33.952457,891.54 18.337555,-33.955807,891.54 18.336966,-33.958054,891.54 18.335508,-33.961578,891.54 18.333996,-33.964828,891.54 18.332539,-33.968079,891.54 18.331718,-33.970192,891.54 18.330688,-33.973495,883.92 18.450623,-33.912933,449.58 18.45294,-33.905823,411.48 18.453197,-33.903809,396.24 18.453163,-33.901291,381 18.452797,-33.899853,373.38 18.451481,-33.897991,342.9 18.450165,-33.897385,320.04 18.448008,-33.897446,281.94 18.44656,-33.897709,266.7 18.444614,-33.898457,236.22 18.443356,-33.898968,213.36 18.441505,-33.899643,182.88 18.440323,-33.900085,167.64 18.438606,-33.900551,129.54 18.437132,-33.90065,99.06 18.435059,-33.900925,76.2 18.433914,-33.901016,53.34 18.432713,-33.901016,38.1 18.431248,-33.90097,22.86 18.429909,-33.900875,7.62 18.429398,-33.900787,0 18.428249,-33.900688,0 18.427734,-33.900688,0 18.426819,-33.900513,0 18.426315,-33.900101,0 18.42581,-33.899277,7.62 18.425846,-33.89827,7.62 18.426476,-33.89706,15.24 18.427267,-33.89621,22.86 18.428444,-33.895157,38.1 18.429794,-33.893894,76.2 18.431696,-33.891861,99.06 18.433096,-33.890305,129.54 18.43461,-33.888153,167.64 18.435402,-33.886444,190.5 18.435631,-33.883698,220.98 18.435226,-33.882019,236.22 18.434143,-33.879833,251.46 18.433056,-33.8783,266.7 18.430939,-33.876389,297.18 18.429285,-33.875427,312.42 18.427155,-33.874603,342.9 18.425331,-33.874107,365.76 18.422928,-33.873737,388.62 18.420933,-33.873596,403.86 18.418076,-33.873734,434.34 18.416519,-33.874016,449.58 18.41383,-33.874668,472.44 18.412228,-33.875134,487.68 18.409595,-33.875923,510.54 18.407761,-33.876572,518.16 18.405294,-33.877625,541.02 18.403557,-33.878494,548.64 18.40107,-33.879929,571.5 18.399578,-33.880875,586.74 18.397448,-33.882339,601.98 18.39592,-33.883419,609.6 18.393692,-33.884995,624.84 18.392086,-33.886166,632.46 18.390026,-33.88784,640.08 18.388367,-33.889069,640.08 18.386078,-33.890865,647.7 18.384418,-33.892216,655.32 18.382072,-33.894173,670.56 18.380642,-33.895428,685.8 18.378557,-33.897354,693.42 18.3771,-33.898773,701.04 18.375092,-33.900784,701.04 18.373625,-33.902344,708.66 18.371607,-33.904404,723.9 18.369814,-33.906372,731.52 18.367653,-33.908882,746.76 18.366337,-33.910419,739.14 18.364563,-33.912514,731.52 18.362806,-33.914474,739.14 18.36062,-33.916901,731.52 18.359127,-33.918613,731.52 18.35681,-33.921295,723.9 18.352489,-33.926666,701.04 18.347912,-33.932766,708.66 18.346882,-33.934395,708.66 18.345051,-33.93742,708.66 18.344021,-33.939373,723.9 18.342705,-33.942402,731.52 18.342648,-33.944401,746.76 18.344479,-33.946915,777.24 18.346767,-33.947521,807.72 18.350475,-33.946655,815.34 18.352718,-33.945427,815.34 18.355743,-33.942398,815.34 18.357426,-33.940384,807.72 18.360157,-33.937046,792.48 18.362135,-33.934433,777.24 18.364882,-33.930908,762 18.366955,-33.928162,746.76 18.376596,-33.916443,685.8 18.380814,-33.911674,662.94 18.389225,-33.90218,594.36 18.391457,-33.900177,579.12 18.395262,-33.897034,571.5 18.397751,-33.895149,563.88 18.401871,-33.892357,548.64 18.404173,-33.890991,541.02 18.408394,-33.889004,510.54 18.411942,-33.887653,480.06 18.416634,-33.886307,472.44 18.419643,-33.885727,449.58 18.424244,-33.885422,426.72 18.427105,-33.885468,419.1 18.431808,-33.885956,388.62 18.434429,-33.886539,365.76 18.438086,-33.887833,342.9 18.440208,-33.888821,327.66 18.443069,-33.890541,289.56 18.444475,-33.891907,259.08 18.44593,-33.894405,220.98 18.44599,-33.896027,198.12 18.445261,-33.89827,167.64 18.444252,-33.899323,152.4 18.442268,-33.900085,121.92 18.440552,-33.900055,106.68 18.437805,-33.899918,76.2 18.436146,-33.899944,60.96 18.434486,-33.89999,38.1 18.433971,-33.90004,38.1 18.432873,-33.900146,22.86 18.432312,-33.900223,15.24 18.431168,-33.900318,7.62 18.430653,-33.900364,0 18.429453,-33.900421,0 18.428822,-33.900455,0 18.428053,-33.900604,0 18.427563,-33.900738,0 18.426651,-33.900375,0 18.42609,-33.89978,0 18.426018,-33.898502,7.62 18.426361,-33.897804,15.24 18.427505,-33.896175,45.72 18.428389,-33.894882,68.58 18.429794,-33.892776,99.06 18.430967,-33.891174,114.3 18.432713,-33.889053,137.16 18.434162,-33.887329,152.4 18.435226,-33.88472,182.88 18.435001,-33.882908,205.74 18.433743,-33.880344,228.6 18.432541,-33.878857,243.84 18.430367,-33.876949,274.32 18.428822,-33.876019,289.56 18.426132,-33.874947,312.42 18.42452,-33.874557,335.28 18.421551,-33.874191,365.76 18.419552,-33.874203,381 18.417177,-33.874512,403.86 18.415031,-33.874947,426.72 18.412022,-33.875839,449.58 18.410452,-33.876389,464.82 18.407764,-33.877506,487.68 18.406219,-33.878204,502.92 18.403782,-33.879501,533.4 18.402267,-33.880371,533.4 18.400154,-33.881649,556.26 18.398552,-33.88258,571.5 18.396158,-33.884125,579.12 18.393467,-33.885818,586.74 18.389544,-33.888611,617.22 18.387806,-33.889847,624.84 18.385395,-33.891678,632.46 18.383904,-33.892822,632.46 18.381329,-33.894779,640.08 18.379623,-33.896072,647.7 18.377213,-33.898132,662.94 18.375492,-33.899666,670.56 18.373375,-33.901527,678.18 18.371494,-33.903305,685.8 18.369308,-33.905411,701.04 18.36771,-33.907021,708.66 18.365707,-33.90921,716.28 18.364391,-33.910652,723.9 18.362217,-33.91312,731.52 18.360956,-33.91452,723.9 18.358828,-33.917038,723.9 18.356724,-33.91959,723.9 18.351746,-33.92564,708.66 18.346439,-33.932693,731.52 18.344593,-33.935417,739.14 18.340645,-33.941422,731.52 18.336926,-33.9478,723.9 18.335846,-33.949951,723.9 18.333607,-33.954132,723.9 18.331753,-33.95755,731.52 18.323233,-33.972885,716.28 18.319187,-33.981735,701.04 18.315443,-33.99028,739.14 18.312893,-33.996029,769.62 18.311911,-33.998566,777.24 18.311014,-34.000809,784.86 18.30986,-34.003475,792.48 18.308659,-34.005478,800.1 18.306999,-34.008087,807.72 18.305798,-34.01004,822.96 18.304539,-34.012695,876.3 18.303896,-34.01445,891.54 18.303223,-34.017071,914.4 18.30283,-34.018707,929.64 18.324522,-34.004791,876.3 18.329372,-33.996449,807.72 18.332233,-33.992119,769.62 18.334122,-33.989185,746.76 18.340666,-33.979111,670.56 18.344534,-33.973206,640.08 18.355637,-33.954269,563.88 18.360558,-33.945751,579.12 18.363422,-33.940475,579.12 18.364431,-33.938461,579.12 18.367767,-33.932114,579.12 18.369925,-33.928024,579.12 18.374977,-33.918938,563.88 18.376427,-33.916809,563.88 18.379343,-33.913101,556.26 18.381386,-33.910557,548.64 18.384018,-33.907345,548.64 18.385956,-33.905045,548.64 18.388824,-33.901806,548.64 18.391113,-33.89946,548.64 18.394661,-33.896267,548.64 18.397293,-33.894264,541.02 18.401127,-33.891937,480.06 18.403988,-33.890633,525.78 18.408623,-33.888958,518.16 18.411427,-33.888168,502.92 18.416168,-33.887192,480.06 18.419981,-33.886551,464.82 18.424816,-33.886074,441.96 18.427734,-33.886024,426.72 18.432144,-33.886368,403.86 18.435287,-33.886955,396.24 18.438869,-33.888062,373.38 18.441113,-33.889114,358.14 18.444082,-33.891449,327.66 18.445244,-33.893055,304.8 18.446331,-33.895847,274.32 18.446493,-33.897583,251.46 18.445873,-33.900131,213.36 18.444923,-33.901245,198.12 18.442457,-33.90239,160.02 18.440887,-33.902435,137.16 18.438421,-33.90184,99.06 18.436964,-33.901382,83.82 18.433685,-33.900455,45.72 18.432087,-33.900238,30.48 18.431078,-33.900238,15.24 18.429852,-33.900272,0 18.428764,-33.90041,0 18.428249,-33.900551,0 18.427492,-33.900284,0 18.42766,-33.899185,0 18.427963,-33.898407,0 18.428221,-33.897675,7.62 18.428612,-33.896667,15.24 18.428949,-33.895844,30.48 18.42968,-33.894218,45.72 18.430182,-33.89296,60.96 18.431511,-33.890354,91.44 18.432199,-33.888702,106.68 18.432816,-33.88623,137.16 18.432648,-33.884628,160.02 18.431471,-33.88266,182.88 18.429909,-33.881371,205.74 18.427849,-33.880066,228.6 18.426361,-33.879276,251.46 18.42396,-33.878357,274.32 18.422184,-33.877834,289.56 18.419151,-33.877274,312.42 18.41732,-33.877087,327.66 18.414516,-33.876949,342.9 18.412571,-33.876995,358.14 18.409424,-33.877274,381 18.407364,-33.877552,396.24 18.404274,-33.878159,411.48 18.402267,-33.878586,411.48 18.399353,-33.879456,426.72 18.397671,-33.880051,441.96 18.394833,-33.881325,457.2 18.39323,-33.882114,464.82 18.390312,-33.883698,472.44 18.38871,-33.884628,480.06 18.386421,-33.886024,495.3 18.384533,-33.887238,502.92 18.382313,-33.888748,525.78 18.3808,-33.889893,533.4 18.378445,-33.891724,556.26 18.377155,-33.892868,563.88 18.375027,-33.894836,579.12 18.373661,-33.896221,586.74 18.371716,-33.89827,601.98 18.37043,-33.899689,609.6 18.368511,-33.901993,617.22 18.367138,-33.903667,624.84 18.365479,-33.906044,624.84 18.364277,-33.90781,624.84 18.362864,-33.910126,624.84 18.361874,-33.911861,624.84 18.360443,-33.91433,632.46 18.359356,-33.916378,640.08 18.357986,-33.919052,647.7 18.35709,-33.920837,647.7 18.355408,-33.924477,670.56 18.352997,-33.929855,685.8 18.349228,-33.93919,716.28 18.348083,-33.942261,716.28 18.346832,-33.945328,708.66 18.346104,-33.947113,708.66 18.34487,-33.949997,701.04 18.344028,-33.95192,701.04 18.341618,-33.957298,701.04 18.340187,-33.960045,708.66 18.334122,-33.97224,701.04 18.331137,-33.97966,693.42 18.329144,-33.987137,693.42 18.328278,-33.992706,685.8 18.327774,-33.996048,685.8 18.327438,-33.998337,685.8 18.32682,-34.002136,678.18 18.326597,-34.004425,678.18 18.326454,-34.007572,670.56 18.326569,-34.009529,670.56 18.327198,-34.013065,678.18 18.328167,-34.01532,670.56 18.330231,-34.01828,670.56 18.332371,-34.020355,655.32 18.335667,-34.022934,647.7 18.337807,-34.024658,662.94 18.340473,-34.026939,685.8 18.342348,-34.028732,708.66 18.344366,-34.030884,746.76 18.345737,-34.032665,754.38 18.347393,-34.035233,777.24 18.348906,-34.03624,800.1 18.351427,-34.035828,853.44 18.351597,-34.034454,853.44 18.350086,-34.032619,822.96 18.348427,-34.031269,807.72 18.34568,-34.029175,784.86 18.34358,-34.027588,769.62 18.340385,-34.025299,777.24 18.338528,-34.023869,777.24 18.335896,-34.021679,769.62 18.334276,-34.020218,762 18.331978,-34.017471,746.76 18.330744,-34.015457,746.76 18.329372,-34.011997,739.14 18.329006,-34.009872,723.9 18.328857,-34.00655,708.66 18.329176,-34.003738,693.42 18.330185,-33.99939,662.94 18.332762,-33.991791,624.84 18.336966,-33.982407,594.36 18.343048,-33.969635,563.88 18.350086,-33.955109,518.16 18.35535,-33.945007,495.3 18.361588,-33.931831,487.68 18.365364,-33.924107,480.06 18.368912,-33.917866,487.68 18.37043,-33.915573,487.68 18.373009,-33.911911,495.3 18.374521,-33.909851,495.3 18.377323,-33.906181,487.68 18.37895,-33.903854,487.68 18.38192,-33.899963,472.44 18.38405,-33.897491,472.44 18.387358,-33.894196,464.82 18.389992,-33.891953,464.82 18.39414,-33.889206,464.82 18.396606,-33.887936,464.82 18.401184,-33.88612,457.2 18.404453,-33.884995,457.2 18.408852,-33.883698,449.58 18.412342,-33.882813,441.96 18.417206,-33.881927,419.1 18.420181,-33.881557,403.86 18.424644,-33.881512,381 18.427849,-33.881882,358.14 18.431808,-33.882843,281.94 18.434429,-33.883839,312.42 18.437525,-33.88559,297.18 18.439236,-33.887005,281.94 18.441505,-33.889481,259.08 18.442497,-33.891193,236.22 18.442955,-33.893707,205.74 18.442064,-33.895203,182.88 18.440104,-33.896347,152.4 18.438534,-33.896896,121.92 18.436348,-33.897583,91.44 18.434944,-33.897991,76.2 18.432816,-33.898682,45.72 18.432312,-33.898872,38.1 18.431339,-33.899246,22.86 18.430595,-33.899479,7.62 18.429285,-33.899963,0 18.428276,-33.900375,0 18.427492,-33.900787,0 18.427105,-33.901154,0 18.427334,-33.899899,0 18.42766,-33.899185,0 18.428135,-33.898361,0 18.428612,-33.897629,7.62 18.429508,-33.896267,30.48 18.429909,-33.895615,38.1 18.431454,-33.893196,60.96 18.432312,-33.891769,76.2 18.433882,-33.889206,106.68 18.434891,-33.887421,129.54 18.435732,-33.884628,144.78 18.435619,-33.882751,160.02 18.434443,-33.879959,182.88 18.433342,-33.878437,190.5 18.431471,-33.876434,213.36 18.429846,-33.875107,228.6 18.427155,-33.87355,243.84 18.425388,-33.872757,259.08 18.422615,-33.871857,281.94 18.420353,-33.871269,297.18 18.417377,-33.87085,312.42 18.415375,-33.870758,327.66 18.412077,-33.870712,350.52 18.41011,-33.870895,365.76 18.407192,-33.871456,388.62 18.405743,-33.871948,403.86 18.404102,-33.87355,441.96 18.404217,-33.874901,457.2 18.405855,-33.876389,472.44 18.407648,-33.876846,487.68 18.410625,-33.876434,518.16 18.412342,-33.87569,533.4 18.414879,-33.874329,563.88 18.415888,-33.873413,579.12 18.416336,-33.871536,609.6 18.415203,-33.870663,609.6 18.412973,-33.870575,601.98 18.41114,-33.870991,609.6 18.408434,-33.871948,609.6 18.406677,-33.872711,617.22 18.404045,-33.87397,624.84 18.402212,-33.874878,632.46 18.399185,-33.876434,632.46 18.397335,-33.877533,640.08 18.39489,-33.878998,640.08 18.393187,-33.880096,640.08 18.390484,-33.881882,640.08 18.388535,-33.883209,640.08 18.3859,-33.884811,647.7 18.384132,-33.885933,647.7 18.381697,-33.887695,647.7 18.380072,-33.888977,647.7 18.377548,-33.891083,655.32 18.376122,-33.892357,662.94 18.373737,-33.894653,662.94 18.372231,-33.896175,662.94 18.370285,-33.898315,662.94 18.368912,-33.899853,662.94 18.366898,-33.902298,670.56 18.365593,-33.90395,670.56 18.363705,-33.906368,678.18 18.362732,-33.90781,678.18 18.360956,-33.910492,678.18 18.359892,-33.912186,678.18 18.358267,-33.91507,670.56 18.357258,-33.916901,678.18 18.355808,-33.919498,678.18 18.354893,-33.921219,670.56 18.353004,-33.925083,678.18 18.352045,-33.9272,678.18 18.350773,-33.930157,678.18 18.350143,-33.931786,678.18 18.34837,-33.936211,685.8 18.347897,-33.938049,701.04 18.348738,-33.940842,777.24 18.350307,-33.941574,838.2 18.353176,-33.940491,883.92 18.354206,-33.938908,899.16 18.35524,-33.936172,922.02 18.355856,-33.934341,937.26 18.356697,-33.93132,967.74 18.357033,-33.92894,990.6 18.356667,-33.925873,1021.08 18.355352,-33.924133,1051.56 18.352493,-33.923447,1066.8 18.350487,-33.924385,1043.94 18.34857,-33.926743,1005.84 18.34734,-33.928902,990.6 18.345795,-33.931927,975.36 18.344936,-33.933697,967.74 18.343334,-33.937,952.5 18.342403,-33.939148,937.26 18.340759,-33.942913,914.4 18.339937,-33.945007,906.78 18.338816,-33.948074,899.16 18.338013,-33.9505,891.54 18.336811,-33.953899,891.54 18.336239,-33.955528,883.92 18.333206,-33.964001,861.06 18.329344,-33.974716,822.96 18.324522,-33.986298,777.24 18.322048,-33.991932,762 18.320789,-33.994911,746.76 18.317928,-34.001896,723.9 18.313293,-34.0126,678.18 18.312416,-34.014587,670.56 18.307743,-34.024147,640.08 18.306026,-34.027126,632.46 18.303951,-34.030563,624.84 18.302765,-34.032711,632.46 18.302078,-34.036201,632.46 18.302439,-34.038254,632.46 18.303616,-34.041367,624.84 18.304653,-34.043419,617.22 18.30677,-34.04705,601.98 18.308029,-34.049145,594.36 18.310204,-34.052544,579.12 18.311855,-34.054871,571.5 18.314495,-34.058361,563.88 18.316059,-34.06041,556.26 18.318638,-34.06366,548.64 18.320318,-34.065811,541.02 18.325869,-34.073273,525.78 18.327269,-34.075378,533.4 18.329735,-34.078812,525.78 18.331249,-34.080963,525.78 18.33349,-34.084076,525.78 18.335117,-34.086365,525.78 18.337246,-34.089249,525.78 18.339729,-34.0923,525.78 18.342459,-34.095428,525.78 18.344193,-34.097324,525.78 18.347336,-34.100418,525.78 18.349628,-34.102261,525.78 18.353165,-34.104675,518.16 18.355968,-34.106277,518.16 18.360172,-34.108246,510.54 18.363247,-34.109524,510.54 18.367023,-34.110966,510.54 18.370056,-34.112175,502.92 18.374241,-34.113876,502.92 18.377325,-34.115158,510.54 18.381615,-34.116833,518.16 18.384666,-34.117996,518.16 18.388983,-34.119781,510.54 18.392258,-34.121208,518.16 18.396778,-34.123116,525.78 18.399298,-34.12413,533.4 18.403645,-34.125771,533.4 18.406391,-34.126793,525.78 18.410683,-34.12833,518.16 18.416561,-34.130539,510.54 18.429285,-34.135162,525.78 18.435059,-34.136944,525.78 18.439293,-34.137733,548.64 18.442268,-34.138012,579.12 18.446617,-34.137825,579.12 18.450081,-34.137131,571.5 18.453836,-34.135757,563.88 18.456802,-34.134335,556.26 18.460619,-34.132141,563.88 18.463326,-34.130238,556.26 18.466702,-34.127491,548.64 18.469139,-34.125366,533.4 18.472538,-34.121998,533.4 18.474464,-34.11969,525.78 18.476715,-34.116226,510.54 18.477802,-34.114086,502.92 18.479004,-34.110306,495.3 18.47962,-34.107834,487.68 18.480148,-34.104263,487.68 18.480406,-34.101654,480.06 18.480606,-34.098118,480.06 18.480721,-34.095558,472.44 18.480835,-34.092113,457.2 18.480892,-34.089691,457.2 18.481407,-34.080662,464.82 18.481693,-34.078098,464.82 18.482208,-34.074142,457.2 18.482609,-34.071957,449.58 18.483263,-34.067596,441.96 18.483753,-34.065392,457.2 18.484497,-34.061481,449.58 18.484898,-34.059109,441.96 18.485338,-34.054916,441.96 18.485561,-34.052444,441.96 18.485928,-34.048958,441.96 18.486099,-34.046909,449.58 18.486628,-34.036469,449.58 18.486683,-34.034134,449.58 18.486843,-34.030476,464.82 18.486963,-34.028,480.06 18.487019,-34.02269,487.68 18.487076,-34.020081,495.3 18.487131,-34.016235,487.68 18.487131,-34.013763,480.06 18.487019,-34.009872,472.44 18.486963,-34.007721,464.82 18.486843,-34.001057,449.58 18.486958,-33.996075,480.06 18.487019,-33.991928,472.44 18.486958,-33.989464,457.2 18.486908,-33.985748,449.58 18.486843,-33.983318,441.96 18.486795,-33.978973,434.34 18.486795,-33.976181,434.34 18.486557,-33.967304,457.2 18.486271,-33.964699,441.96 18.48587,-33.961021,434.34 18.485527,-33.958275,441.96 18.485012,-33.954411,434.34 18.484325,-33.949245,426.72 18.482494,-33.939701,396.24 18.481865,-33.93742,388.62 18.480516,-33.933563,381 18.479462,-33.931042,373.38 18.477516,-33.927177,373.38 18.476257,-33.925095,373.38 18.474026,-33.921825,388.62 18.472595,-33.919964,388.62 18.469868,-33.917175,381 18.468075,-33.915634,373.38 18.465271,-33.913353,320.04 18.463421,-33.911774,358.14 18.460693,-33.909534,304.8 18.45892,-33.907906,289.56 18.456358,-33.905594,304.8 18.454565,-33.903946,243.84 18.451931,-33.901611,266.7 18.450451,-33.90041,259.08 18.44767,-33.898544,243.84 18.445644,-33.897709,220.98 18.442625,-33.897263,198.12 18.44101,-33.897293,175.26 18.438606,-33.897572,137.16 18.437077,-33.897812,114.3 18.435059,-33.89827,83.82 18.433489,-33.898682,53.34 18.431976,-33.899094,38.1 18.430996,-33.899387,15.24 18.429565,-33.899944,0 18.429108,-33.900085,0 18.427996,-33.900558,0 18.427563,-33.900738,0 18.427162,-33.899853,15.24 18.427219,-33.899292,7.62 18.428192,-33.897663,15.24 18.428822,-33.896873,22.86 18.430349,-33.89502,30.48 18.431023,-33.894241,38.1 18.432985,-33.891769,68.58 18.434315,-33.89003,91.44 18.436203,-33.887142,121.92 18.436964,-33.885086,137.16 18.435802,-33.88258,152.4 18.4342,-33.881229,167.64 18.431911,-33.879646,190.5 18.430252,-33.878902,205.74 18.42738,-33.877991,236.22 18.425642,-33.877625,251.46 18.422813,-33.877041,289.56 18.421158,-33.876755,312.42 18.418131,-33.876297,350.52 18.416336,-33.876068,373.38 18.413544,-33.875832,403.86 18.411598,-33.875786,426.72 18.408657,-33.875793,464.82 18.406977,-33.875839,487.68 18.404503,-33.87611,510.54 18.402716,-33.876434,525.78 18.400082,-33.877075,548.64 18.398266,-33.877647,571.5 18.395823,-33.878632,594.36 18.394089,-33.879414,609.6 18.391628,-33.880672,632.46 18.390049,-33.881516,647.7 18.387751,-33.882797,670.56 18.386236,-33.883713,685.8 18.383883,-33.885178,701.04 18.38237,-33.88623,716.28 18.380182,-33.88797,716.28 18.378811,-33.889145,723.9 18.480879,-34.070011,525.78 18.479738,-34.063625,518.16 18.479769,-34.050781,541.02 18.480036,-34.045815,541.02 18.481092,-34.034569,541.02 18.481304,-34.027042,556.26 18.482143,-34.023235,556.26 18.482447,-34.020683,563.88 18.482981,-34.016685,563.88 18.483467,-34.014313,563.88 18.482874,-34.010571,571.5 18.483007,-34.008064,563.88 18.483528,-34.004021,563.88 18.483555,-34.001457,556.26 18.483091,-33.997795,556.26 18.483076,-33.995346,548.64 18.481806,-33.991837,541.02 18.481426,-33.989361,541.02 18.480827,-33.984436,548.64 18.479698,-33.982903,541.02 18.477264,-33.979347,525.78 18.476143,-33.976894,510.54 18.473944,-33.972878,495.3 18.473495,-33.969997,495.3 18.472891,-33.964886,472.44 18.470528,-33.96246,472.44 18.46645,-33.958359,472.44 18.465593,-33.956238,464.82 18.464508,-33.952377,457.2 18.462696,-33.949429,449.58 18.460464,-33.945847,434.34 18.45892,-33.943283,426.72 18.456863,-33.939926,411.48 18.455544,-33.937557,403.86 18.453836,-33.934204,388.62 18.452995,-33.93219,373.38 18.451653,-33.927921,358.14 18.451035,-33.925232,342.9 18.44767,-33.913971,266.7 18.445709,-33.909988,228.6 18.444214,-33.906879,205.74 18.443634,-33.905136,182.88 18.442554,-33.902645,152.4 18.441525,-33.901108,129.54 18.43943,-33.899551,60.96 18.438034,-33.898968,76.2 18.435917,-33.89864,38.1 18.434834,-33.898636,30.48 18.433628,-33.898781,15.24 18.433041,-33.898865,15.24 18.432087,-33.899048,7.62 18.431471,-33.899139,7.62 18.430014,-33.899551,0 18.42934,-33.899826,0 18.428331,-33.90033,0 18.427734,-33.900642,0 18.427099,-33.900833,0 18.427277,-33.900177,0 18.427883,-33.899094,0 18.428249,-33.898457,0 18.428993,-33.89743,0 18.429453,-33.896805,7.62 18.430126,-33.895844,15.24 18.430882,-33.894825,30.48 18.432713,-33.892311,53.34 18.433769,-33.890808,60.96 18.435452,-33.88829,91.44 18.436516,-33.886505,99.06 18.437405,-33.883419,129.54 18.436348,-33.881699,152.4 18.433914,-33.880486,175.26 18.432199,-33.879868,190.5 18.428556,-33.878769,213.36 18.426704,-33.878159,236.22 18.423512,-33.877258,266.7 18.421719,-33.876846,281.94 18.418804,-33.876343,297.18 18.417067,-33.876114,304.8 18.413927,-33.875793,320.04 18.411797,-33.875656,327.66 18.408737,-33.875645,342.9 18.406506,-33.875736,358.14 18.403502,-33.87616,373.38 18.401413,-33.876621,381 18.39838,-33.877506,396.24 18.396492,-33.878204,411.48 18.393803,-33.879322,426.72 18.392347,-33.880096,434.34 18.389769,-33.881653,457.2 18.388309,-33.882626,472.44 18.386307,-33.884071,487.68 18.384819,-33.885235,495.3 18.382706,-33.886963,510.54 18.381304,-33.888016,518.16 18.37944,-33.889519,533.4 18.378067,-33.890728,541.02 18.376064,-33.892498,548.64 18.374802,-33.8936,563.88 18.370228,-33.897804,594.36 18.366394,-33.901657,624.84 18.363312,-33.904999,647.7 18.362274,-33.906181,655.32 18.360386,-33.908463,662.94 18.359388,-33.909714,670.56 18.357706,-33.911957,685.8 18.356667,-33.913303,693.42 18.354959,-33.915756,708.66 18.354006,-33.91713,716.28 18.352489,-33.919498,731.52 18.351316,-33.921341,739.14 18.34997,-33.923447,754.38 18.348906,-33.925049,769.62 18.34734,-33.927505,769.62 18.345222,-33.93095,784.86 18.342852,-33.935211,800.1 18.342018,-33.936859,807.72 18.340666,-33.939423,815.34 18.339769,-33.941162,815.34 18.338425,-33.944,815.34 18.337919,-33.946198,807.72 18.3395,-33.949245,784.86 18.342236,-33.950592,731.52 18.347797,-33.950825,655.32 18.35146,-33.949009,632.46 18.354664,-33.945007,594.36 18.356323,-33.942585,586.74 18.358898,-33.938908,571.5 18.361126,-33.93576,556.26 18.364048,-33.931461,533.4 18.369656,-33.923222,510.54 18.378124,-33.910793,502.92 18.384556,-33.90239,502.92 18.387508,-33.899059,495.3 18.38974,-33.896778,487.68 18.393459,-33.893612,457.2 18.396158,-33.891861,441.96 18.400866,-33.889526,419.1 18.404217,-33.88826,388.62 18.409218,-33.886826,342.9 18.412806,-33.886047,320.04 18.418293,-33.885139,281.94 18.421841,-33.884815,266.7 18.427906,-33.884583,228.6 18.431023,-33.884583,220.98 18.436718,-33.885094,182.88 18.439543,-33.885956,167.64 18.443069,-33.888214,137.16 18.444901,-33.89045,114.3 18.444588,-33.893372,106.68 18.443018,-33.89447,99.06 18.440838,-33.895569,38.1 18.439095,-33.896301,68.58 18.436516,-33.897263,45.72 18.435507,-33.897629,38.1 18.434315,-33.897942,30.48 18.433456,-33.898224,15.24 18.432087,-33.898682,7.62 18.430595,-33.899246,0 18.429565,-33.899734,0 18.428724,-33.900146,0 18.427963,-33.900551,0
        </coordinates>
      </LineString>
    </Placemark>
  </Document>
</kml>