<?xml version="1.0" encoding="UTF-8"?>
<kml xmlns="http://www.opengis.net/kml/2.2">
  <Document>
    <name>-/ZTHOT - Optimised</name>
    <description><![CDATA[Optimised flight path with 376 points (decimated from 1878 original points). Source format: Standard KML]]></description>
    
    <Style id="flightPath">
      <LineStyle>
        <color>ffff0000</color>
        <width>3</width>
      </LineStyle>
    </Style>
    
    <Placemark>
      <name>Flight Path</name>
      <description><![CDATA[<div style="width:220px; text-align:center;">
<div style="width:210px; text-align:center;">
<div style=" background: #000; color: #fff; font-size: 14px; text-align:left; border: 1px solid #000; padding: 2px 6px; text-shadow: 0 1px 0 #000; box-shadow: 0 1px 3px rgba(0,0,0,0.6); background: -webkit-gradient(linear, left top, left bottom, color-stop(0%,#808080), color-stop(2%,#303030), color-stop(100%,#0c0c0c));"><span style="font-size: 14px; font-weight: bold;"><a href="javascript:void(0);" style="color: #fff; cursor: pointer;text-decoration: none;">-</a></span> / ZTHOT<br/>Cape Town Helicopters</div>

<div style="border-top: 1px solid #005c90; color: #fff; padding-bottom: 5px; box-shadow: 0 0 1px #9BE3F6 inset, 0 1px 0 #9BE3F6 inset, 0 -1px 3px rgba(0,0,0,0.4); background:rgba(43,114,173,1); background: -webkit-gradient(linear, left top, left bottom, color-stop(0%,rgba(92,184,229,1)), color-stop(100%,rgba(43,114,173,1)));">
<a style="text-decoration: none; color: rgb(255, 255, 255); font-size: 12px; width:77px; display: inline-block;" title=" Airport" href="javascript:void(0);/departures"><h3 style="padding: 0px; margin: 10px 0px 0px; font-size: 16px; ">?</h3></a>
<span style="background: url(https://www.flightradar24.com/static/images/userUI_sprite.png?14) no-repeat scroll 0 -464px rgba(0, 0, 0, 0); border: medium none; display: inline-block; height: 16px; width: 45px;"></span>
<a style="text-decoration: none; color: rgb(255, 255, 255); font-size: 12px; width:77px; display: inline-block;" title=" Airport" href="javascript:void(0);/arrivals"><h3 style="padding: 0px; margin: 10px 0px 0px; font-size: 16px;">?</h3></a>
<div style=" margin-top:10px;">
<div style="display: inline-block; font-size: 12px; padding: 0 5px;">
<div>
<span style="color: #c1eaff;" title="Actual Time of Departure">ATD </span>
<span title="2025-08-17 09:51">09:51</span> <span title="Coordinated Universal Time">UTC</span>
</div>
</div>
<div style="display: inline-block; font-size: 12px; padding: 0 5px;">
<div>
<span style="color: #c1eaff;" title="Estimated Time of Arrival">ETA </span>
<span title="2025-08-17 10:14">10:14</span> <span title="Coordinated Universal Time">UTC</span>
</div>
</div>
</div>
<br style="clear: both;"/>
</div>

<div style="display: block;">
<table style="border-collapse: collapse; width: 100%;">
<tr style="border-right: 1px solid #dadada; ">
<td style="background: none repeat scroll 0 0 #dadada; padding: 0; width: 31px;">
<span style="background: url(https://www.flightradar24.com/static/images/userUI_sprite.png?14) no-repeat scroll -208px -464px rgba(0, 0, 0, 0); height: 26px; margin: 8px 0 0 4px; width: 23px; display: block;"></span>
</td>
<td colspan="2" style="border-bottom: 1px solid #dadada; border-left: 1px solid #dadada; color: #666; line-height: 1.1em; padding: 3px 6px; vertical-align: top; font-size: 14px;">
Aircraft<span style="float: right; font-size: 12px;">(AS50)</span><br>
<span style="color: #333; font-size: 16px; font-weight: bold; line-height: 1.3em;">Airbus Helicopters H125</span>
</td>
</tr>
<tr style="border-right: 1px solid #dadada; ">
<td style="background: none repeat scroll 0 0 #dadada; padding: 0; width: 31px;">
<td colspan="2" style="border-bottom: 1px solid #dadada; border-left: 1px solid #dadada; color: #666; line-height: 1.1em; padding: 3px 6px; vertical-align: top; font-size: 14px;">
Registration<br>
<span style="color: #333; font-size: 16px; font-weight: bold; line-height: 1.3em;"><a href="https://www.flightradar24.com/reg/zt-hot" style="text-decoration: none; color: #333;">ZT-HOT</a></span>
</td>
</tr>
</table>
</div>

</div>
</div>]]></description>
      <styleUrl>#flightPath</styleUrl>
      <LineString>
        <extrude>1</extrude>
        <tessellate>1</tessellate>
        <altitudeMode>absolute</altitudeMode>
        <coordinates>
          18.430939,-33.894127,60.96 18.436031,-33.883839,182.88 18.435745,-33.880718,213.36 18.431454,-33.873455,335.28 18.430069,-33.873184,365.76 18.428307,-33.873737,457.2 18.427883,-33.874695,518.16 18.427792,-33.875923,548.64 18.428389,-33.877029,579.12 18.429737,-33.878532,609.6 18.430519,-33.879913,609.6 18.428331,-33.882477,609.6 18.425674,-33.882721,609.6 18.421955,-33.882626,579.12 18.419323,-33.88258,579.12 18.415146,-33.882393,579.12 18.411713,-33.882256,548.64 18.403702,-33.882301,548.64 18.40107,-33.88258,548.64 18.396549,-33.883419,548.64 18.395004,-33.883839,548.64 18.389151,-33.886002,579.12 18.385391,-33.88826,579.12 18.380241,-33.892822,609.6 18.378334,-33.894882,640.08 18.375755,-33.89772,640.08 18.374073,-33.899689,670.56 18.371719,-33.902664,670.56 18.370375,-33.904404,701.04 18.36834,-33.907253,701.04 18.366842,-33.909393,701.04 18.364712,-33.912369,731.52 18.359814,-33.919731,701.04 18.357582,-33.923454,701.04 18.356249,-33.925919,701.04 18.354454,-33.929626,701.04 18.353519,-33.931694,701.04 18.35043,-33.937977,701.04 18.349571,-33.940586,731.52 18.350315,-33.943333,822.96 18.351988,-33.944,883.92 18.353838,-33.943405,944.88 18.354778,-33.942818,975.36 18.355856,-33.941895,1005.84 18.356585,-33.941254,1036.32 18.357697,-33.940304,1097.28 18.358603,-33.939651,1097.28 18.36153,-33.938908,1158.24 18.363075,-33.939514,1158.24 18.364544,-33.94194,1158.24 18.364601,-33.944321,1158.24 18.36404,-33.947845,1158.24 18.363361,-33.950592,1158.24 18.36216,-33.954224,1158.24 18.360901,-33.957436,1158.24 18.359388,-33.961075,1127.76 18.358267,-33.963638,1127.76 18.35638,-33.967491,1097.28 18.354847,-33.970322,1097.28 18.349802,-33.979706,1066.8 18.344421,-33.989456,1036.32 18.338535,-33.999023,1005.84 18.335323,-34.003662,975.36 18.33292,-34.007061,944.88 18.32943,-34.011715,944.88 18.320543,-34.023376,914.4 18.314602,-34.031616,883.92 18.311014,-34.037888,853.44 18.310118,-34.040451,822.96 18.309612,-34.044846,822.96 18.309917,-34.047794,792.48 18.311069,-34.052078,792.48 18.312078,-34.054504,762 18.314838,-34.058872,762 18.316612,-34.061016,762 18.319927,-34.064621,731.52 18.322163,-34.066879,731.52 18.325367,-34.069954,731.52 18.327662,-34.072037,731.52 18.331305,-34.0746,731.52 18.334108,-34.075836,731.52 18.338642,-34.076332,701.04 18.341274,-34.075726,701.04 18.344936,-34.073399,701.04 18.346481,-34.071674,701.04 18.348513,-34.069153,731.52 18.35025,-34.067917,731.52 18.354492,-34.06786,731.52 18.35692,-34.069199,701.04 18.36034,-34.072128,701.04 18.36256,-34.074051,701.04 18.365385,-34.07666,701.04 18.367683,-34.078903,731.52 18.370485,-34.082016,731.52 18.372345,-34.084339,731.52 18.374119,-34.088108,701.04 18.374634,-34.090809,701.04 18.374634,-34.095139,670.56 18.374466,-34.097763,670.56 18.374405,-34.101704,640.08 18.374805,-34.104496,640.08 18.377037,-34.109013,640.08 18.379154,-34.111012,640.08 18.382759,-34.113247,640.08 18.385448,-34.114552,609.6 18.388824,-34.116879,640.08 18.390999,-34.118507,609.6 18.39529,-34.12088,609.6 18.398151,-34.121952,579.12 18.402548,-34.123306,579.12 18.405294,-34.124222,579.12 18.409779,-34.125732,579.12 18.41275,-34.12674,579.12 18.422985,-34.129818,579.12 18.425617,-34.130424,579.12 18.429966,-34.131218,579.12 18.432592,-34.131592,579.12 18.436852,-34.132141,548.64 18.440159,-34.13269,548.64 18.444443,-34.133358,548.64 18.447533,-34.133591,548.64 18.452154,-34.133057,548.64 18.454453,-34.131866,518.16 18.457546,-34.128654,518.16 18.459148,-34.126747,518.16 18.461552,-34.123909,518.16 18.463308,-34.121841,518.16 18.466072,-34.11832,518.16 18.467514,-34.116211,518.16 18.469419,-34.113007,518.16 18.470261,-34.111176,518.16 18.471279,-34.107613,518.16 18.471661,-34.105362,518.16 18.47208,-34.101936,518.16 18.472334,-34.09964,548.64 18.472557,-34.09639,548.64 18.472727,-34.094055,548.64 18.47295,-34.090347,548.64 18.473343,-34.082062,548.64 18.474026,-34.07056,579.12 18.474239,-34.060867,548.64 18.474026,-34.053101,548.64 18.47414,-34.045094,518.16 18.474745,-34.033173,518.16 18.474998,-34.025448,518.16 18.475399,-34.013859,548.64 18.475971,-34.005341,518.16 18.476944,-33.998684,518.16 18.477434,-33.996368,518.16 18.478107,-33.992798,518.16 18.479507,-33.983688,457.2 18.481638,-33.972061,426.72 18.483009,-33.964142,396.24 18.483376,-33.960068,396.24 18.483488,-33.957962,396.24 18.483582,-33.954502,365.76 18.483982,-33.947754,365.76 18.483868,-33.942261,335.28 18.483601,-33.93988,335.28 18.482759,-33.936584,335.28 18.481865,-33.934254,304.8 18.480238,-33.931137,304.8 18.479004,-33.929272,304.8 18.476887,-33.926292,304.8 18.475361,-33.924362,304.8 18.47295,-33.921524,274.32 18.471222,-33.919682,274.32 18.468361,-33.917076,274.32 18.466473,-33.915447,274.32 18.463383,-33.912979,243.84 18.461609,-33.911629,243.84 18.458488,-33.909119,243.84 18.454678,-33.905411,243.84 18.452282,-33.902412,243.84 18.450809,-33.900558,243.84 18.448563,-33.897293,243.84 18.447247,-33.89529,243.84 18.444901,-33.892822,243.84 18.441582,-33.893009,335.28 18.441925,-33.895523,304.8 18.442963,-33.897125,274.32 18.443241,-33.900085,182.88 18.441753,-33.901714,121.92 18.438606,-33.902134,91.44 18.436571,-33.901337,60.96 18.434143,-33.899899,60.96 18.432655,-33.8992,30.48 18.431854,-33.899059,30.48 18.43111,-33.899105,30.48 18.427334,-33.900455,0 18.426931,-33.90097,0 18.427277,-33.899899,0 18.42794,-33.898956,0 18.428892,-33.897629,0 18.429678,-33.896576,0 18.430574,-33.89534,30.48 18.431583,-33.893829,60.96 18.433994,-33.889938,152.4 18.434723,-33.888519,152.4 18.435745,-33.885979,213.36 18.436068,-33.884171,213.36 18.436031,-33.881649,243.84 18.435732,-33.87973,274.32 18.434891,-33.877075,304.8 18.434086,-33.875504,365.76 18.432144,-33.873871,426.72 18.428364,-33.873272,518.16 18.425306,-33.873276,548.64 18.423176,-33.873871,609.6 18.421886,-33.876068,640.08 18.422413,-33.877693,640.08 18.42396,-33.879593,670.56 18.425102,-33.880905,670.56 18.426247,-33.882626,701.04 18.425903,-33.883884,701.04 18.423231,-33.884811,640.08 18.420353,-33.884769,640.08 18.416576,-33.884628,640.08 18.413887,-33.884441,640.08 18.409996,-33.884163,640.08 18.407192,-33.883976,640.08 18.401819,-33.884033,640.08 18.399181,-33.884304,640.08 18.39489,-33.885235,640.08 18.392347,-33.886093,640.08 18.388086,-33.888153,640.08 18.386078,-33.889423,670.56 18.383274,-33.891705,701.04 18.381615,-33.893379,701.04 18.379063,-33.896301,731.52 18.377666,-33.898083,731.52 18.375362,-33.901245,731.52 18.374073,-33.90303,731.52 18.371887,-33.906281,731.52 18.370171,-33.908882,701.04 18.367996,-33.912235,701.04 18.362961,-33.920429,701.04 18.358383,-33.928761,670.56 18.357067,-33.931461,670.56 18.355923,-33.936626,762 18.356752,-33.938187,822.96 18.358658,-33.938919,914.4 18.359499,-33.938644,944.88 18.36062,-33.937958,975.36 18.361588,-33.937511,1005.84 18.363705,-33.937233,1036.32 18.36525,-33.937466,1066.8 18.366955,-33.939377,1066.8 18.367123,-33.941528,1036.32 18.366394,-33.944962,1036.32 18.365593,-33.947102,1005.84 18.363876,-33.950825,1005.84 18.362583,-33.953568,975.36 18.360672,-33.957344,944.88 18.353838,-33.970871,883.92 18.345509,-33.98616,853.44 18.34156,-33.991653,853.44 18.339096,-33.994949,853.44 18.337212,-33.997284,822.96 18.334465,-34.000729,822.96 18.328571,-34.007992,822.96 18.320446,-34.018791,792.48 18.314095,-34.027824,762 18.312246,-34.030975,762 18.311176,-34.033642,762 18.310547,-34.037369,762 18.310547,-34.040207,731.52 18.311176,-34.044537,731.52 18.312092,-34.048027,731.52 18.31348,-34.052307,701.04 18.314434,-34.055008,701.04 18.316212,-34.059246,701.04 18.317585,-34.061855,701.04 18.320318,-34.065536,701.04 18.322277,-34.06744,701.04 18.325882,-34.070095,670.56 18.328503,-34.071625,670.56 18.332806,-34.073772,670.56 18.335678,-34.074692,701.04 18.340162,-34.074783,701.04 18.34259,-34.07391,701.04 18.345566,-34.07177,731.52 18.347504,-34.070114,731.52 18.351002,-34.068462,762 18.353334,-34.068512,762 18.357353,-34.070885,762 18.358938,-34.072906,762 18.361359,-34.076054,762 18.362974,-34.078033,762 18.365498,-34.081879,762 18.366562,-34.084213,762 18.368132,-34.088333,731.52 18.369026,-34.090855,731.52 18.37396,-34.098175,701.04 18.375698,-34.100601,670.56 18.378296,-34.104355,670.56 18.379841,-34.10659,670.56 18.385563,-34.113571,640.08 18.387863,-34.115662,609.6 18.391685,-34.118553,609.6 18.394318,-34.120369,579.12 18.398289,-34.122894,579.12 18.400841,-34.12442,548.64 18.405182,-34.126556,548.64 18.407873,-34.127289,548.64 18.412342,-34.127956,548.64 18.415888,-34.128296,548.64 18.420181,-34.128796,548.64 18.423157,-34.129215,548.64 18.426931,-34.129715,548.64 18.433113,-34.130566,518.16 18.439121,-34.131683,518.16 18.446493,-34.132645,518.16 18.451145,-34.131821,548.64 18.453724,-34.130722,548.64 18.457432,-34.128098,548.64 18.459206,-34.12656,548.64 18.462357,-34.123444,548.64 18.464241,-34.121395,548.64 18.466616,-34.118591,579.12 18.467846,-34.116787,579.12 18.469448,-34.11348,579.12 18.470261,-34.111084,579.12 18.471107,-34.107708,579.12 18.471661,-34.105362,579.12 18.472424,-34.101982,579.12 18.472895,-34.09996,579.12 18.473398,-34.096252,579.12 18.473625,-34.094021,579.12 18.473846,-34.090714,548.64 18.473959,-34.088287,548.64 18.474083,-34.085129,548.64 18.474295,-34.080414,548.64 18.475023,-34.069107,548.64 18.475399,-34.061108,579.12 18.475914,-34.048306,579.12 18.47637,-34.039215,548.64 18.476986,-34.027039,548.64 18.477322,-34.01738,548.64 18.478203,-34.004269,487.68 18.479061,-33.995331,487.68 18.479748,-33.990536,457.2 18.481022,-33.981262,426.72 18.482143,-33.970459,426.72 18.483263,-33.96167,396.24 18.48381,-33.952782,365.76 18.483881,-33.949356,365.76 18.483824,-33.94043,335.28 18.483488,-33.938278,335.28 18.482479,-33.934799,335.28 18.481522,-33.932671,304.8 18.479691,-33.929317,304.8 18.478203,-33.927364,274.32 18.475685,-33.924572,274.32 18.473846,-33.922897,274.32 18.470989,-33.920563,274.32 18.469027,-33.918915,243.84 18.465775,-33.916168,243.84 18.463726,-33.914516,243.84 18.45892,-33.910278,243.84 18.45726,-33.908512,243.84 18.454845,-33.905731,213.36 18.453388,-33.9039,213.36 18.451424,-33.901062,243.84 18.449993,-33.899105,243.84 18.447933,-33.896454,243.84 18.446903,-33.895103,274.32 18.444557,-33.893753,274.32 18.443871,-33.893799,274.32 18.439465,-33.90004,121.92 18.436775,-33.899757,91.44 18.434555,-33.898727,91.44 18.433096,-33.89827,91.44 18.430138,-33.899014,30.48 18.428192,-33.89962,0 18.427048,-33.900738,60.96
        </coordinates>
      </LineString>
    </Placemark>
  </Document>
</kml>