<?xml version="1.0" encoding="UTF-8"?>
<kml xmlns="http://www.opengis.net/kml/2.2">
  <Document>
    <name>-/ZTHOT - Optimised</name>
    <description><![CDATA[Optimised flight path with 1136 points (decimated from 5680 original points). Source format: Standard KML]]></description>
    
    <Style id="flightPath">
      <LineStyle>
        <color>ffff0000</color>
        <width>3</width>
      </LineStyle>
    </Style>
    
    <Placemark>
      <name>Flight Path</name>
      <description><![CDATA[<div style="width:220px; text-align:center;">
<div style="width:210px; text-align:center;">
<div style=" background: #000; color: #fff; font-size: 14px; text-align:left; border: 1px solid #000; padding: 2px 6px; text-shadow: 0 1px 0 #000; box-shadow: 0 1px 3px rgba(0,0,0,0.6); background: -webkit-gradient(linear, left top, left bottom, color-stop(0%,#808080), color-stop(2%,#303030), color-stop(100%,#0c0c0c));"><span style="font-size: 14px; font-weight: bold;"><a href="javascript:void(0);" style="color: #fff; cursor: pointer;text-decoration: none;">-</a></span> / ZTHOT<br/>Cape Town Helicopters</div>

<div style="border-top: 1px solid #005c90; color: #fff; padding-bottom: 5px; box-shadow: 0 0 1px #9BE3F6 inset, 0 1px 0 #9BE3F6 inset, 0 -1px 3px rgba(0,0,0,0.4); background:rgba(43,114,173,1); background: -webkit-gradient(linear, left top, left bottom, color-stop(0%,rgba(92,184,229,1)), color-stop(100%,rgba(43,114,173,1)));">
<a style="text-decoration: none; color: rgb(255, 255, 255); font-size: 12px; width:77px; display: inline-block;" title=" Airport" href="javascript:void(0);/departures"><h3 style="padding: 0px; margin: 10px 0px 0px; font-size: 16px; ">?</h3></a>
<span style="background: url(https://www.flightradar24.com/static/images/userUI_sprite.png?14) no-repeat scroll 0 -464px rgba(0, 0, 0, 0); border: medium none; display: inline-block; height: 16px; width: 45px;"></span>
<a style="text-decoration: none; color: rgb(255, 255, 255); font-size: 12px; width:77px; display: inline-block;" title=" Airport" href="javascript:void(0);/arrivals"><h3 style="padding: 0px; margin: 10px 0px 0px; font-size: 16px;">?</h3></a>
<div style=" margin-top:10px;">
<div style="display: inline-block; font-size: 12px; padding: 0 5px;">
<div>
<span style="color: #c1eaff;" title="Actual Time of Departure">ATD </span>
<span title="2025-11-09 07:46">07:46</span> <span title="Coordinated Universal Time">UTC</span>
</div>
</div>
<div style="display: inline-block; font-size: 12px; padding: 0 5px;">
<div>
<span style="color: #c1eaff;" title="Estimated Time of Arrival">ETA </span>
<span title="2025-11-09 08:15">08:15</span> <span title="Coordinated Universal Time">UTC</span>
</div>
</div>
</div>
<br style="clear: both;"/>
</div>

<div style="display: block;">
<table style="border-collapse: collapse; width: 100%;">
<tr style="border-right: 1px solid #dadada; ">
<td style="background: none repeat scroll 0 0 #dadada; padding: 0; width: 31px;">
<span style="background: url(https://www.flightradar24.com/static/images/userUI_sprite.png?14) no-repeat scroll -208px -464px rgba(0, 0, 0, 0); height: 26px; margin: 8px 0 0 4px; width: 23px; display: block;"></span>
</td>
<td colspan="2" style="border-bottom: 1px solid #dadada; border-left: 1px solid #dadada; color: #666; line-height: 1.1em; padding: 3px 6px; vertical-align: top; font-size: 14px;">
Aircraft<span style="float: right; font-size: 12px;">(AS50)</span><br>
<span style="color: #333; font-size: 16px; font-weight: bold; line-height: 1.3em;">Airbus Helicopters H125</span>
</td>
</tr>
<tr style="border-right: 1px solid #dadada; ">
<td style="background: none repeat scroll 0 0 #dadada; padding: 0; width: 31px;">
<td colspan="2" style="border-bottom: 1px solid #dadada; border-left: 1px solid #dadada; color: #666; line-height: 1.1em; padding: 3px 6px; vertical-align: top; font-size: 14px;">
Registration<br>
<span style="color: #333; font-size: 16px; font-weight: bold; line-height: 1.3em;"><a href="https://www.flightradar24.com/reg/zt-hot" style="text-decoration: none; color: #333;">ZT-HOT</a></span>
</td>
</tr>
</table>
</div>

</div>
</div>]]></description>
      <styleUrl>#flightPath</styleUrl>
      <LineString>
        <extrude>1</extrude>
        <tessellate>1</tessellate>
        <altitudeMode>absolute</altitudeMode>
        <coordinates>
          18.427099,-33.900375,60.96 18.428724,-33.898407,91.44 18.429623,-33.897526,91.44 18.43119,-33.895844,152.4 18.432199,-33.894745,152.4 18.433882,-33.89296,213.36 18.434778,-33.891907,213.36 18.436123,-33.889984,243.84 18.436775,-33.888725,274.32 18.437405,-33.886539,304.8 18.437637,-33.885132,335.28 18.437634,-33.882675,365.76 18.437357,-33.881012,365.76 18.436571,-33.878723,396.24 18.435688,-33.877319,426.72 18.4338,-33.875645,426.72 18.431864,-33.874603,457.2 18.429173,-33.873596,487.68 18.42738,-33.873138,518.16 18.424688,-33.872635,518.16 18.42207,-33.872292,548.64 18.419083,-33.872177,579.12 18.417091,-33.872341,579.12 18.413927,-33.873001,579.12 18.411884,-33.873642,609.6 18.408937,-33.874924,609.6 18.406752,-33.876068,609.6 18.403244,-33.877834,609.6 18.401012,-33.878948,640.08 18.397465,-33.880814,640.08 18.394533,-33.882339,670.56 18.391617,-33.884171,670.56 18.389568,-33.885513,670.56 18.386822,-33.88747,670.56 18.384836,-33.888931,701.04 18.382015,-33.891239,701.04 18.380413,-33.892731,701.04 18.377941,-33.895111,701.04 18.376204,-33.896805,701.04 18.373718,-33.899246,731.52 18.370285,-33.902645,731.52 18.364906,-33.908558,731.52 18.363361,-33.910419,762 18.361181,-33.913147,762 18.359724,-33.915115,762 18.357874,-33.917725,762 18.356438,-33.919823,762 18.354567,-33.922852,762 18.353348,-33.924942,762 18.351688,-33.928017,762 18.350716,-33.930111,762 18.349186,-33.933746,762 18.348122,-33.936584,762 18.347111,-33.93998,762 18.346424,-33.942169,762 18.345337,-33.945705,762 18.344477,-33.948212,762 18.34156,-33.960464,731.52 18.341904,-33.955528,701.04 18.354792,-33.961624,670.56 18.356209,-33.95874,670.56 18.357296,-33.955437,640.08 18.357986,-33.953201,640.08 18.358955,-33.949848,640.08 18.359499,-33.947708,640.08 18.360386,-33.944496,609.6 18.360901,-33.94249,609.6 18.363705,-33.932018,609.6 18.364376,-33.930038,609.6 18.365665,-33.926926,609.6 18.366507,-33.925095,609.6 18.368019,-33.922256,609.6 18.369196,-33.920425,609.6 18.371143,-33.917683,609.6 18.372391,-33.915939,609.6 18.374805,-33.912792,609.6 18.376316,-33.910995,609.6 18.37841,-33.908558,609.6 18.380013,-33.906834,609.6 18.382538,-33.904312,609.6 18.384108,-33.902847,609.6 18.386797,-33.900558,609.6 18.388592,-33.899139,609.6 18.391674,-33.896896,579.12 18.39386,-33.895428,579.12 18.397408,-33.893242,548.64 18.399467,-33.89217,548.64 18.403072,-33.890541,518.16 18.405533,-33.889519,518.16 18.409386,-33.888199,518.16 18.411541,-33.887516,487.68 18.415489,-33.88649,487.68 18.417664,-33.885979,457.2 18.42127,-33.885269,457.2 18.423624,-33.884949,457.2 18.42794,-33.884949,426.72 18.430595,-33.885372,396.24 18.434429,-33.886539,365.76 18.436571,-33.887421,365.76 18.439636,-33.888866,335.28 18.441696,-33.889935,304.8 18.444386,-33.891659,304.8 18.44593,-33.893288,274.32 18.446999,-33.896027,243.84 18.446606,-33.897629,243.84 18.445036,-33.899185,213.36 18.443298,-33.899689,182.88 18.440895,-33.899433,182.88 18.439465,-33.8992,152.4 18.437412,-33.898956,152.4 18.436068,-33.898911,121.92 18.43405,-33.898956,121.92 18.432873,-33.899002,91.44 18.430882,-33.8992,91.44 18.428164,-33.900192,30.48 18.427391,-33.900223,60.96 18.428307,-33.899014,60.96 18.430023,-33.897758,91.44 18.43119,-33.896896,121.92 18.433113,-33.895523,152.4 18.434385,-33.894608,182.88 18.436317,-33.893009,213.36 18.437405,-33.891891,243.84 18.438721,-33.889935,274.32 18.439293,-33.888306,274.32 18.439598,-33.886047,304.8 18.439579,-33.884304,335.28 18.439064,-33.881927,365.76 18.438589,-33.880325,396.24 18.437462,-33.87825,396.24 18.436432,-33.877041,426.72 18.434258,-33.875134,457.2 18.43277,-33.874249,457.2 18.430014,-33.873138,487.68 18.427883,-33.872543,518.16 18.424913,-33.872086,548.64 18.423063,-33.871994,548.64 18.419701,-33.872086,579.12 18.417625,-33.872269,609.6 18.414745,-33.872757,609.6 18.4128,-33.873222,640.08 18.409666,-33.874146,640.08 18.407536,-33.874901,640.08 18.404566,-33.876022,670.56 18.40266,-33.876755,670.56 18.399754,-33.877972,701.04 18.397865,-33.878857,701.04 18.394775,-33.880627,701.04 18.392658,-33.881927,731.52 18.389397,-33.884117,731.52 18.387413,-33.885452,731.52 18.384476,-33.887608,731.52 18.38253,-33.889053,731.52 18.379734,-33.891357,731.52 18.377609,-33.893196,731.52 18.375027,-33.895569,731.52 18.373009,-33.897354,762 18.370514,-33.899807,762 18.36874,-33.901573,762 18.366058,-33.904449,762 18.364506,-33.906136,762 18.36191,-33.90921,762 18.360558,-33.910931,762 18.35849,-33.913742,762 18.357067,-33.915867,762 18.35524,-33.918823,762 18.354149,-33.920662,762 18.352493,-33.923904,762 18.351484,-33.926193,762 18.350143,-33.929924,762 18.349285,-33.932529,762 18.348026,-33.936722,762 18.347281,-33.939285,762 18.346214,-33.943039,762 18.345655,-33.945236,762 18.34465,-33.948963,762 18.344028,-33.951324,762 18.341675,-33.962093,762 18.344193,-33.968052,731.52 18.353838,-33.970642,701.04 18.357986,-33.96666,670.56 18.35877,-33.959702,640.08 18.358658,-33.957047,640.08 18.35849,-33.953705,640.08 18.358379,-33.951233,640.08 18.358435,-33.948074,640.08 18.358658,-33.94574,640.08 18.359163,-33.942444,640.08 18.359779,-33.940018,640.08 18.360786,-33.936859,640.08 18.361462,-33.935211,609.6 18.362961,-33.931786,609.6 18.363991,-33.929737,609.6 18.365665,-33.926697,609.6 18.366674,-33.924911,609.6 18.368397,-33.921963,609.6 18.369534,-33.920151,609.6 18.371544,-33.917217,579.12 18.372688,-33.915634,609.6 18.374805,-33.912792,609.6 18.376122,-33.911259,609.6 18.378067,-33.909161,609.6 18.379398,-33.907791,609.6 18.381416,-33.905823,640.08 18.382818,-33.904541,640.08 18.385048,-33.902554,640.08 18.38665,-33.901386,640.08 18.389208,-33.899689,640.08 18.391171,-33.898548,609.6 18.394146,-33.896965,579.12 18.396378,-33.895756,548.64 18.399466,-33.89415,518.16 18.401871,-33.892963,518.16 18.405018,-33.891518,487.68 18.40748,-33.890533,457.2 18.410625,-33.889378,457.2 18.4132,-33.888493,426.72 18.416576,-33.887421,396.24 18.418636,-33.886772,396.24 18.42211,-33.885727,365.76 18.42453,-33.885281,365.76 18.428221,-33.885086,335.28 18.430407,-33.885315,335.28 18.4338,-33.886074,304.8 18.435974,-33.886864,274.32 18.438869,-33.888336,274.32 18.440887,-33.889755,243.84 18.442726,-33.891705,213.36 18.443413,-33.893333,213.36 18.442841,-33.89571,182.88 18.441811,-33.896732,182.88 18.439543,-33.897766,152.4 18.437691,-33.898174,152.4 18.435339,-33.898453,121.92 18.433743,-33.898689,121.92 18.431976,-33.898956,91.44 18.429901,-33.899368,60.96 18.428331,-33.900055,60.96 18.427828,-33.90033,30.48 18.42738,-33.90033,30.48 18.427677,-33.899387,60.96 18.428936,-33.897896,91.44 18.429909,-33.896873,121.92 18.431471,-33.895111,152.4 18.43248,-33.893875,182.88 18.433937,-33.891815,213.36 18.434772,-33.89045,213.36 18.435732,-33.88829,243.84 18.436068,-33.886734,274.32 18.436089,-33.884441,274.32 18.435631,-33.882675,304.8 18.434486,-33.880112,304.8 18.433657,-33.878723,335.28 18.431864,-33.876572,365.76 18.430595,-33.87532,396.24 18.428364,-33.873642,426.72 18.426819,-33.872818,457.2 18.424297,-33.871948,457.2 18.421999,-33.87149,487.68 18.419195,-33.871353,518.16 18.417263,-33.871502,518.16 18.41423,-33.872105,548.64 18.412302,-33.872635,579.12 18.409386,-33.873688,579.12 18.407705,-33.874374,579.12 18.40456,-33.875736,609.6 18.402443,-33.876717,609.6 18.399185,-33.878357,609.6 18.397236,-33.879414,609.6 18.394253,-33.881241,609.6 18.392347,-33.882568,640.08 18.389568,-33.884491,640.08 18.387852,-33.885746,640.08 18.385334,-33.887794,670.56 18.383617,-33.889236,670.56 18.381023,-33.891357,670.56 18.379511,-33.892685,670.56 18.376877,-33.89502,701.04 18.375378,-33.896408,701.04 18.372917,-33.898827,731.52 18.371372,-33.900364,731.52 18.369312,-33.902554,731.52 18.364964,-33.907207,762 18.362694,-33.909988,762 18.361359,-33.911816,762 18.359612,-33.914566,762 18.35844,-33.916702,762 18.356838,-33.919868,762 18.355911,-33.922073,762 18.354492,-33.925362,762 18.353519,-33.927784,762 18.352203,-33.931229,762 18.350643,-33.935303,762 18.346939,-33.94701,762 18.346195,-33.949711,762 18.345263,-33.952744,762 18.34259,-33.960556,792.48 18.337135,-33.973846,792.48 18.332146,-33.985062,762 18.32674,-33.999054,762 18.323936,-34.004875,762 18.322105,-34.008411,762 18.320879,-34.010422,731.52 18.318787,-34.013439,762 18.316507,-34.016602,762 18.315331,-34.019302,853.44 18.316612,-34.019909,822.96 18.318861,-34.018845,792.48 18.320206,-34.017334,762 18.32172,-34.014862,762 18.322735,-34.01302,731.52 18.324522,-34.010147,731.52 18.325699,-34.008362,731.52 18.327599,-34.005245,701.04 18.328783,-34.003326,701.04 18.330633,-34.000488,670.56 18.33209,-33.998291,670.56 18.341446,-33.984203,609.6 18.347784,-33.974716,609.6 18.353445,-33.965012,609.6 18.355801,-33.95993,609.6 18.356977,-33.956543,609.6 18.357538,-33.954666,609.6 18.35849,-33.951233,609.6 18.358995,-33.94931,609.6 18.36006,-33.945831,609.6 18.360788,-33.94368,609.6 18.361874,-33.940536,609.6 18.362806,-33.937775,609.6 18.364489,-33.932877,579.12 18.365778,-33.929398,609.6 18.367596,-33.925407,579.12 18.36858,-33.923584,579.12 18.370228,-33.920567,579.12 18.371429,-33.918751,579.12 18.373457,-33.916031,579.12 18.374748,-33.914284,579.12 18.376923,-33.911442,579.12 18.378445,-33.909576,579.12 18.380814,-33.906879,579.12 18.382473,-33.905113,579.12 18.385059,-33.902435,579.12 18.386742,-33.900925,579.12 18.389568,-33.898594,548.64 18.391226,-33.897263,548.64 18.394253,-33.895111,548.64 18.396326,-33.893784,518.16 18.399353,-33.891937,518.16 18.401764,-33.890625,518.16 18.404959,-33.889023,518.16 18.407368,-33.887924,487.68 18.410969,-33.886444,487.68 18.413479,-33.88559,487.68 18.417263,-33.884491,457.2 18.419588,-33.883896,457.2 18.423176,-33.883438,457.2 18.425529,-33.883392,426.72 18.429062,-33.883667,426.72 18.431282,-33.884071,396.24 18.434666,-33.884949,365.76 18.43689,-33.885746,365.76 18.440048,-33.8871,335.28 18.441896,-33.888153,304.8 18.444271,-33.889751,304.8 18.445873,-33.891148,274.32 18.447361,-33.893147,243.84 18.447727,-33.895248,243.84 18.446661,-33.897491,213.36 18.445541,-33.898315,213.36 18.443069,-33.898827,182.88 18.441168,-33.898636,182.88 18.438589,-33.898407,152.4 18.437233,-33.898361,152.4 18.435059,-33.898502,121.92 18.433882,-33.898636,121.92 18.431639,-33.899048,91.44 18.428707,-33.899944,60.96 18.427408,-33.900581,0 18.427906,-33.899059,60.96 18.429165,-33.897476,91.44 18.430023,-33.8965,121.92 18.431471,-33.894836,152.4 18.432541,-33.893661,182.88 18.433994,-33.891861,213.36 18.434834,-33.890717,243.84 18.436031,-33.888725,274.32 18.436684,-33.8871,274.32 18.436852,-33.884903,304.8 18.436604,-33.883278,335.28 18.435843,-33.881012,365.76 18.43523,-33.879742,365.76 18.433743,-33.877739,396.24 18.432592,-33.876572,426.72 18.430424,-33.874901,457.2 18.428837,-33.8741,457.2 18.425617,-33.873363,518.16 18.423679,-33.873184,518.16 18.420639,-33.873085,548.64 18.418751,-33.873177,579.12 18.415945,-33.87355,609.6 18.413927,-33.873917,609.6 18.41118,-33.874466,640.08 18.408995,-33.875015,640.08 18.405991,-33.875923,640.08 18.403873,-33.876621,670.56 18.401012,-33.877739,670.56 18.39896,-33.878632,670.56 18.395149,-33.880554,701.04 18.393116,-33.881649,701.04 18.390272,-33.883347,701.04 18.388081,-33.884769,701.04 18.385277,-33.886772,731.52 18.383657,-33.88797,731.52 18.380856,-33.890213,731.52 18.378983,-33.89175,731.52 18.376236,-33.894077,762 18.374521,-33.895523,762 18.37183,-33.898083,762 18.370037,-33.899918,762 18.367796,-33.902527,762 18.366169,-33.904449,762 18.363928,-33.90715,762 18.362389,-33.909115,762 18.360285,-33.911819,762 18.358727,-33.913956,762 18.356552,-33.917076,762 18.355179,-33.919266,762 18.353519,-33.92215,762 18.352489,-33.924339,762 18.351149,-33.927658,762 18.350544,-33.929459,762 18.349285,-33.933369,762 18.348625,-33.935669,762 18.347616,-33.938965,792.48 18.346996,-33.941238,792.48 18.345966,-33.944683,792.48 18.345318,-33.94693,792.48 18.344254,-33.9505,762 18.342964,-33.955124,762 18.345509,-33.962559,762 18.349522,-33.958374,731.52 18.351707,-33.955536,701.04 18.353119,-33.95348,701.04 18.354836,-33.950409,670.56 18.355808,-33.948219,670.56 18.357239,-33.944775,640.08 18.358097,-33.942585,640.08 18.359444,-33.93924,640.08 18.360443,-33.936909,640.08 18.361702,-33.933601,609.6 18.362526,-33.931549,609.6 18.363876,-33.928387,609.6 18.364769,-33.926422,609.6 18.366394,-33.923172,609.6 18.367367,-33.92136,609.6 18.369253,-33.918091,609.6 18.37043,-33.916306,609.6 18.372517,-33.913445,609.6 18.37389,-33.91177,579.12 18.377151,-33.908184,579.12 18.379063,-33.906464,579.12 18.382032,-33.903992,579.12 18.383904,-33.902504,579.12 18.386593,-33.90041,579.12 18.388702,-33.898819,579.12 18.392029,-33.896454,548.64 18.394196,-33.894974,548.64 18.397579,-33.892731,518.16 18.399525,-33.891613,518.16 18.403015,-33.889702,487.68 18.405687,-33.888428,457.2 18.409163,-33.887009,457.2 18.411713,-33.88612,426.72 18.415546,-33.885002,426.72 18.417906,-33.884399,426.72 18.421551,-33.883759,396.24 18.424297,-33.883575,396.24 18.428276,-33.883987,365.76 18.430574,-33.884491,335.28 18.434372,-33.885887,335.28 18.436348,-33.886826,304.8 18.439465,-33.888538,304.8 18.441525,-33.889797,274.32 18.444139,-33.891586,274.32 18.445702,-33.893147,243.84 18.446674,-33.895428,243.84 18.446331,-33.896873,243.84 18.4447,-33.898407,213.36 18.443356,-33.898735,213.36 18.441,-33.898727,182.88 18.439465,-33.898594,152.4 18.437233,-33.898502,152.4 18.43586,-33.898457,121.92 18.4338,-33.898594,121.92 18.432655,-33.898735,91.44 18.42934,-33.899597,60.96 18.42766,-33.900467,30.48 18.427792,-33.899479,60.96 18.428478,-33.898735,91.44 18.42979,-33.897446,121.92 18.430767,-33.896454,152.4 18.432369,-33.894592,182.88 18.433153,-33.893692,213.36 18.434544,-33.891891,243.84 18.435452,-33.890717,243.84 18.436571,-33.888153,304.8 18.436741,-33.886414,304.8 18.436203,-33.884209,335.28 18.435507,-33.882706,365.76 18.434162,-33.880829,396.24 18.432985,-33.879456,426.72 18.430996,-33.877739,457.2 18.429398,-33.876617,487.68 18.427162,-33.875134,487.68 18.425362,-33.874329,518.16 18.422728,-33.873596,548.64 18.420933,-33.873322,579.12 18.418076,-33.873276,579.12 18.416176,-33.873505,609.6 18.413254,-33.874146,609.6 18.410732,-33.874832,640.08 18.407873,-33.875748,640.08 18.405855,-33.87648,640.08 18.402716,-33.87767,670.56 18.40081,-33.878494,670.56 18.398064,-33.87973,701.04 18.396034,-33.880718,701.04 18.393187,-33.882202,701.04 18.391449,-33.883209,731.52 18.388481,-33.885002,731.52 18.38665,-33.886166,731.52 18.384018,-33.887981,762 18.382244,-33.889286,762 18.379734,-33.891129,762 18.377773,-33.892639,792.48 18.375435,-33.894547,792.48 18.373793,-33.895935,792.48 18.371326,-33.898132,792.48 18.369982,-33.899368,792.48 18.367796,-33.901978,792.48 18.366339,-33.903992,792.48 18.364277,-33.907112,792.48 18.363132,-33.909023,792.48 18.361517,-33.911865,792.48 18.360397,-33.913788,792.48 18.358669,-33.917076,792.48 18.357754,-33.918846,792.48 18.354721,-33.925129,792.48 18.353951,-33.926926,792.48 18.352661,-33.930019,792.48 18.351091,-33.934113,792.48 18.349285,-33.939236,792.48 18.347113,-33.945694,792.48 18.343861,-33.955353,792.48 18.338871,-33.968285,762 18.332062,-33.984203,792.48 18.327656,-33.994678,792.48 18.322678,-34.004688,792.48 18.318974,-34.011795,792.48 18.317013,-34.017117,853.44 18.3183,-34.017242,853.44 18.320486,-34.015228,792.48 18.32172,-34.013626,792.48 18.323683,-34.011063,792.48 18.325251,-34.009003,762 18.327312,-34.00613,762 18.328686,-34.004314,762 18.331032,-34.001244,731.52 18.332539,-33.999344,731.52 18.338816,-33.98996,701.04 18.342178,-33.984558,670.56 18.35154,-33.968948,609.6 18.356865,-33.958694,609.6 18.358326,-33.954597,609.6 18.358955,-33.952549,609.6 18.359837,-33.949173,609.6 18.360271,-33.947197,609.6 18.360956,-33.944046,609.6 18.361404,-33.94194,609.6 18.362303,-33.938599,609.6 18.362974,-33.936172,609.6 18.363991,-33.933231,609.6 18.364849,-33.930668,609.6 18.366114,-33.927429,609.6 18.367023,-33.925316,609.6 18.368454,-33.922337,609.6 18.369541,-33.920475,609.6 18.371607,-33.917221,609.6 18.372974,-33.915352,609.6 18.375307,-33.912369,609.6 18.376987,-33.910446,579.12 18.379211,-33.907906,579.12 18.380911,-33.906052,579.12 18.383377,-33.903488,579.12 18.385048,-33.901852,579.12 18.387909,-33.89957,579.12 18.389912,-33.898083,579.12 18.393517,-33.895756,579.12 18.395653,-33.89447,548.64 18.399124,-33.892544,548.64 18.401642,-33.891285,518.16 18.405294,-33.889618,518.16 18.40748,-33.888657,487.68 18.411123,-33.887146,487.68 18.41383,-33.886166,487.68 18.417458,-33.885086,457.2 18.419924,-33.884537,457.2 18.423569,-33.883942,457.2 18.426189,-33.883884,426.72 18.429733,-33.884399,426.72 18.431969,-33.884956,396.24 18.435287,-33.886166,365.76 18.437302,-33.887146,335.28 18.440439,-33.889114,304.8 18.442039,-33.890354,304.8 18.444214,-33.892357,274.32 18.445587,-33.893845,274.32 18.446674,-33.896221,243.84 18.446493,-33.897858,243.84 18.444923,-33.89978,213.36 18.443579,-33.900375,213.36 18.440838,-33.900272,182.88 18.439465,-33.899944,182.88 18.437233,-33.899479,152.4 18.436012,-33.899231,152.4 18.434217,-33.898956,121.92 18.433056,-33.898968,121.92 18.431282,-33.8992,91.44 18.42968,-33.899712,91.44 18.427734,-33.900455,60.96 18.42738,-33.900146,60.96 18.428837,-33.898315,91.44 18.429846,-33.8974,121.92 18.431358,-33.895935,152.4 18.432312,-33.894962,182.88 18.433769,-33.893097,213.36 18.434555,-33.891998,243.84 18.435675,-33.889801,274.32 18.436203,-33.888214,304.8 18.436432,-33.885746,335.28 18.436203,-33.884117,365.76 18.435394,-33.881927,396.24 18.434555,-33.880646,396.24 18.432655,-33.878345,426.72 18.431225,-33.877041,457.2 18.42905,-33.875504,487.68 18.427547,-33.874512,518.16 18.425217,-33.873222,548.64 18.4235,-33.87262,579.12 18.42041,-33.872154,609.6 18.418524,-33.872177,609.6 18.41572,-33.872498,640.08 18.413759,-33.872864,640.08 18.410339,-33.873783,640.08 18.408051,-33.874573,640.08 18.404566,-33.875931,640.08 18.402328,-33.876854,640.08 18.39896,-33.878265,670.56 18.396942,-33.879135,670.56 18.394032,-33.880531,670.56 18.391897,-33.881699,670.56 18.388815,-33.883575,701.04 18.386879,-33.884956,701.04 18.384247,-33.886909,731.52 18.382416,-33.88826,731.52 18.379669,-33.890354,731.52 18.377838,-33.8918,762 18.371943,-33.896759,762 18.370342,-33.89827,762 18.368019,-33.90065,762 18.366507,-33.902252,762 18.364208,-33.904861,762 18.362961,-33.906368,762 18.360676,-33.909119,762 18.359276,-33.910904,762 18.357258,-33.913651,762 18.355968,-33.915527,762 18.354063,-33.918549,762 18.353054,-33.920288,762 18.351574,-33.923222,762 18.350698,-33.925278,762 18.349241,-33.92894,762 18.348009,-33.932236,762 18.344135,-33.943935,762 18.341103,-33.954319,762 18.340218,-33.964142,853.44 18.344309,-33.962036,792.48 18.348177,-33.960434,762 18.352547,-33.957157,731.52 18.354893,-33.954037,701.04 18.355923,-33.951992,701.04 18.357067,-33.948685,701.04 18.357706,-33.946289,670.56 18.358658,-33.942764,670.56 18.359276,-33.940292,670.56 18.360329,-33.936768,640.08 18.361816,-33.931973,609.6 18.363199,-33.928574,609.6 18.364105,-33.926712,609.6 18.365822,-33.923592,609.6 18.367067,-33.921478,609.6 18.368912,-33.918659,609.6 18.370056,-33.91703,609.6 18.372448,-33.913971,609.6 18.374073,-33.912094,609.6 18.376465,-33.909443,609.6 18.378109,-33.907654,609.6 18.380699,-33.905064,609.6 18.38237,-33.903488,609.6 18.385284,-33.900925,579.12 18.387358,-33.899323,579.12 18.39016,-33.897263,579.12 18.392235,-33.895889,548.64 18.395597,-33.893875,518.16 18.397923,-33.892635,518.16 18.401596,-33.8909,487.68 18.404285,-33.889893,487.68 18.407986,-33.888702,457.2 18.410452,-33.88797,457.2 18.414459,-33.886909,426.72 18.417091,-33.886211,426.72 18.42099,-33.885315,396.24 18.423399,-33.884811,396.24 18.427155,-33.884308,365.76 18.42979,-33.884216,365.76 18.433514,-33.884537,335.28 18.435675,-33.884995,335.28 18.438721,-33.886211,335.28 18.440271,-33.887512,304.8 18.441925,-33.889984,274.32 18.442514,-33.891449,274.32 18.442738,-33.89415,243.84 18.442345,-33.89566,213.36 18.44101,-33.897385,213.36 18.439543,-33.898132,182.88 18.437004,-33.898689,152.4 18.435507,-33.898865,152.4 18.433601,-33.899048,121.92 18.432484,-33.8992,121.92 18.428949,-33.899872,91.44 18.427773,-33.900421,60.96 18.427828,-33.898682,91.44 18.428764,-33.897709,121.92 18.430195,-33.896313,152.4 18.431248,-33.895294,182.88 18.43276,-33.893692,213.36 18.433628,-33.892681,243.84 18.435059,-33.890808,243.84 18.435745,-33.889565,274.32 18.436546,-33.887375,304.8 18.436796,-33.885681,304.8 18.436684,-33.883392,335.28 18.43626,-33.881695,365.76 18.435116,-33.879181,365.76 18.434217,-33.877625,396.24 18.432598,-33.875366,426.72 18.431471,-33.8741,457.2 18.429173,-33.872635,487.68 18.427391,-33.872059,518.16 18.424746,-33.872131,548.64 18.423328,-33.872807,579.12 18.421774,-33.874283,579.12 18.421494,-33.875656,609.6 18.42247,-33.877506,609.6 18.423847,-33.878311,609.6 18.426874,-33.87854,640.08 18.428724,-33.877762,640.08 18.430424,-33.875504,640.08 18.430595,-33.873688,640.08 18.429398,-33.871078,640.08 18.427828,-33.869431,640.08 18.424913,-33.867783,640.08 18.423042,-33.867218,670.56 18.419724,-33.86694,670.56 18.417435,-33.867126,670.56 18.414207,-33.867691,701.04 18.411348,-33.868332,701.04 18.407928,-33.869247,701.04 18.405519,-33.870071,731.52 18.402328,-33.871548,731.52 18.400154,-33.872711,731.52 18.39695,-33.874573,731.52 18.394981,-33.875885,701.04 18.391914,-33.878067,731.52 18.389969,-33.879555,701.04 18.387337,-33.881649,731.52 18.385565,-33.883072,731.52 18.382874,-33.885223,762 18.381081,-33.88678,762 18.378696,-33.888821,762 18.377209,-33.890121,762 18.374689,-33.892502,762 18.373009,-33.89415,762 18.370914,-33.896408,762 18.36937,-33.89827,762 18.367403,-33.90097,792.48 18.366165,-33.902691,792.48 18.364334,-33.9053,792.48 18.363075,-33.907112,792.48 18.358099,-33.914658,762 18.354435,-33.920475,792.48 18.351345,-33.926155,792.48 18.35043,-33.928062,792.48 18.349171,-33.93095,822.96 18.348289,-33.932922,822.96 18.346081,-33.93784,883.92 18.343805,-33.943176,914.4 18.339769,-33.953293,914.4 18.337584,-33.958969,914.4 18.332426,-33.971237,944.88 18.328445,-33.97934,944.88 18.326878,-33.983047,944.88 18.324165,-33.989742,975.36 18.322842,-33.993668,975.36 18.322336,-33.995636,975.36 18.322056,-33.998657,975.36 18.322113,-34.001129,975.36 18.322561,-34.004196,975.36 18.323135,-34.006317,944.88 18.324242,-34.009369,944.88 18.325363,-34.011612,944.88 18.327045,-34.014404,944.88 18.328503,-34.016373,944.88 18.331203,-34.018608,944.88 18.333263,-34.019817,944.88 18.336798,-34.021591,944.88 18.339153,-34.022736,944.88 18.342571,-34.024338,975.36 18.344421,-34.025299,975.36 18.347626,-34.027405,975.36 18.349354,-34.02887,975.36 18.351597,-34.031525,975.36 18.352547,-34.033455,944.88 18.35339,-34.036835,944.88 18.353445,-34.038895,944.88 18.353109,-34.042511,944.88 18.352718,-34.044582,944.88 18.35186,-34.047562,944.88 18.350945,-34.049934,944.88 18.349743,-34.052914,914.4 18.348885,-34.055058,914.4 18.347729,-34.058212,883.92 18.346775,-34.060593,883.92 18.344589,-34.066086,853.44 18.342648,-34.071629,822.96 18.341171,-34.076385,792.48 18.340498,-34.07872,792.48 18.339787,-34.08173,792.48 18.339386,-34.084618,792.48 18.3391,-34.087597,762 18.339096,-34.090164,762 18.339901,-34.093647,762 18.341045,-34.095882,762 18.34358,-34.098541,731.52 18.345737,-34.100025,731.52 18.349579,-34.101929,731.52 18.352381,-34.102982,701.04 18.356249,-34.104309,701.04 18.358995,-34.10527,701.04 18.363367,-34.106689,670.56 18.366222,-34.107613,670.56 18.370285,-34.108871,670.56 18.375378,-34.110592,640.08 18.388195,-34.115063,640.08 18.396893,-34.11832,640.08 18.407249,-34.122417,640.08 18.416004,-34.126003,640.08 18.426538,-34.130493,640.08 18.43405,-34.133926,640.08 18.43758,-34.135117,640.08 18.440781,-34.135826,640.08 18.445036,-34.136169,640.08 18.447838,-34.136078,640.08 18.451996,-34.135174,640.08 18.45451,-34.133881,640.08 18.457535,-34.131226,609.6 18.459217,-34.129257,609.6 18.461851,-34.126007,609.6 18.463326,-34.124046,609.6 18.465607,-34.12056,609.6 18.466816,-34.118416,609.6 18.468185,-34.115021,609.6 18.468876,-34.112595,609.6 18.469475,-34.109116,609.6 18.469734,-34.106731,609.6 18.47002,-34.103191,609.6 18.470135,-34.100773,609.6 18.470316,-34.097351,609.6 18.470428,-34.094696,609.6 18.470936,-34.083408,609.6 18.471165,-34.074097,609.6 18.471212,-34.061508,640.08 18.471325,-34.052811,640.08 18.471622,-34.041325,640.08 18.471998,-34.033401,640.08 18.472767,-34.020329,609.6 18.473118,-34.010925,609.6 18.473959,-33.998703,579.12 18.474483,-33.993889,548.64 18.476202,-33.981583,518.16 18.477659,-33.972153,518.16 18.478603,-33.963676,487.68 18.478718,-33.961113,487.68 18.478779,-33.957504,457.2 18.478724,-33.95517,457.2 18.478546,-33.951153,457.2 18.47826,-33.94873,426.72 18.477573,-33.944962,426.72 18.477001,-33.942635,426.72 18.476089,-33.93924,396.24 18.475193,-33.936539,396.24 18.473854,-33.933277,396.24 18.47271,-33.93095,365.76 18.471107,-33.92783,365.76 18.46953,-33.925095,365.76 18.467445,-33.921917,335.28 18.465832,-33.919693,335.28 18.463326,-33.916565,304.8 18.461609,-33.914608,304.8 18.459148,-33.911907,274.32 18.457312,-33.909943,243.84 18.454628,-33.907299,243.84 18.453026,-33.905766,243.84 18.450165,-33.903156,213.36 18.448566,-33.901703,213.36 18.446213,-33.899643,182.88 18.444811,-33.898682,182.88 18.442234,-33.897858,182.88 18.440664,-33.897812,182.88 18.438377,-33.897991,182.88 18.437004,-33.898174,152.4 18.435001,-33.898457,152.4 18.433342,-33.898735,121.92 18.431454,-33.899105,121.92 18.430294,-33.899323,121.92 18.427448,-33.900223,60.96 18.427212,-33.900696,60.96 18.427505,-33.899712,91.44 18.428307,-33.898872,91.44 18.429852,-33.897385,152.4 18.430767,-33.896454,152.4 18.432255,-33.894871,213.36 18.43317,-33.893799,213.36 18.43433,-33.892136,274.32 18.435114,-33.890854,274.32 18.435917,-33.888866,304.8 18.436293,-33.887375,335.28 18.436403,-33.884949,365.76 18.436235,-33.883347,365.76 18.435459,-33.880859,396.24 18.434666,-33.879272,426.72 18.433208,-33.876938,426.72 18.432199,-33.875656,457.2 18.430252,-33.874249,487.68 18.428478,-33.873737,518.16 18.426146,-33.873825,548.64 18.424746,-33.874557,579.12 18.423672,-33.876297,579.12 18.423729,-33.877647,609.6 18.425102,-33.879555,609.6 18.426764,-33.880417,609.6 18.42968,-33.880581,640.08 18.431625,-33.879742,640.08 18.432999,-33.877598,640.08 18.432312,-33.87616,670.56 18.429852,-33.874901,670.56 18.427963,-33.87434,670.56 18.424465,-33.873825,640.08 18.422167,-33.873642,670.56 18.418579,-33.873642,670.56 18.416336,-33.873825,701.04 18.4132,-33.874203,701.04 18.410854,-33.874527,731.52 18.408051,-33.875038,731.52 18.405704,-33.875504,762 18.402615,-33.876297,762 18.400698,-33.876938,762 18.397236,-33.87825,762 18.395176,-33.87923,792.48 18.392458,-33.880692,792.48 18.390104,-33.882111,792.48 18.387337,-33.884026,792.48 18.385334,-33.885372,792.48 18.382473,-33.887516,762 18.380527,-33.889004,792.48 18.377716,-33.891312,762 18.376007,-33.892731,762 18.373203,-33.895195,762 18.371429,-33.896824,762 18.368855,-33.899338,762 18.367252,-33.901062,762 18.365078,-33.903435,792.48 18.363476,-33.905205,792.48 18.36153,-33.907486,792.48 18.359985,-33.909443,792.48 18.357868,-33.912281,792.48 18.356609,-33.914143,792.48 18.354778,-33.917122,792.48 18.353615,-33.919327,792.48 18.352203,-33.922382,792.48 18.351427,-33.924133,792.48 18.35014,-33.927521,792.48 18.349457,-33.929504,792.48 18.34734,-33.935276,792.48 18.345509,-33.940586,792.48 18.34156,-33.951756,792.48 18.339043,-33.958973,792.48 18.333607,-33.97224,792.48 18.329945,-33.9809,792.48 18.324467,-33.99527,792.48 18.324051,-33.997284,792.48 18.323738,-34.000305,792.48 18.323708,-34.00264,792.48 18.323906,-34.005798,792.48 18.324186,-34.007721,792.48 18.325027,-34.010971,792.48 18.325768,-34.012882,792.48 18.327829,-34.016052,792.48 18.329315,-34.017628,792.48 18.332405,-34.02005,792.48 18.334669,-34.021408,792.48 18.3382,-34.023331,792.48 18.340498,-34.024521,762 18.343861,-34.026398,762 18.346024,-34.027779,762 18.348999,-34.030151,762 18.350588,-34.031845,762 18.352547,-34.035038,762 18.353445,-34.037155,792.48 18.354378,-34.040066,792.48 18.354893,-34.042393,792.48 18.355007,-34.045467,792.48 18.354778,-34.047516,792.48 18.354231,-34.051163,792.48 18.353748,-34.053242,792.48 18.352606,-34.056656,762 18.351746,-34.058922,731.52 18.350544,-34.06218,731.52 18.349689,-34.064484,701.04 18.348457,-34.06778,701.04 18.347504,-34.070389,670.56 18.344534,-34.07959,640.08 18.344196,-34.081924,640.08 18.344479,-34.085361,640.08 18.345165,-34.08741,640.08 18.34671,-34.090717,640.08 18.348009,-34.093002,640.08 18.349628,-34.095791,640.08 18.350716,-34.097698,640.08 18.352489,-34.100956,640.08 18.353558,-34.103073,640.08 18.355633,-34.105774,640.08 18.357258,-34.107193,640.08 18.360844,-34.109245,640.08 18.363422,-34.110214,640.08 18.366909,-34.11134,670.56 18.369427,-34.112083,670.56 18.372952,-34.113098,640.08 18.37553,-34.113831,640.08 18.379383,-34.114876,640.08 18.384647,-34.116367,640.08 18.39896,-34.120697,640.08 18.402603,-34.122025,640.08 18.406677,-34.123489,640.08 18.409023,-34.124374,640.08 18.418751,-34.128052,640.08 18.427849,-34.131496,609.6 18.436348,-34.134476,640.08 18.439262,-34.134888,640.08 18.443413,-34.13443,640.08 18.445702,-34.133591,640.08 18.449465,-34.1315,609.6 18.451538,-34.130173,609.6 18.454971,-34.127956,609.6 18.456917,-34.126606,609.6 18.460236,-34.124374,609.6 18.462469,-34.122803,609.6 18.465775,-34.120285,609.6 18.467846,-34.118275,640.08 18.46953,-34.114609,640.08 18.469791,-34.112503,640.08 18.469849,-34.109058,640.08 18.469868,-34.106873,640.08 18.469849,-34.10347,670.56 18.469906,-34.10091,640.08 18.469868,-34.091309,640.08 18.469849,-34.088902,640.08 18.46981,-34.085175,609.6 18.469791,-34.082478,609.6 18.46962,-34.07354,609.6 18.46953,-34.066315,640.08 18.46953,-34.059494,640.08 18.469587,-34.057251,640.08 18.469587,-34.053772,640.08 18.469643,-34.051437,640.08 18.469643,-34.048141,640.08 18.469791,-34.043606,640.08 18.470036,-34.030792,640.08 18.470261,-34.022141,640.08 18.47065,-34.008644,609.6 18.471336,-33.999939,579.12 18.472054,-33.994675,548.64 18.472389,-33.992569,548.64 18.473396,-33.986065,548.64 18.474655,-33.977592,518.16 18.476543,-33.965351,487.68 18.477715,-33.957001,457.2 18.478107,-33.950546,426.72 18.477974,-33.947895,426.72 18.477379,-33.944092,426.72 18.476818,-33.941528,396.24 18.475742,-33.93779,396.24 18.474827,-33.935184,365.76 18.473455,-33.931915,365.76 18.47208,-33.929085,365.76 18.470261,-33.925827,335.28 18.468761,-33.923359,335.28 18.466448,-33.920197,335.28 18.464935,-33.918228,335.28 18.462353,-33.915215,335.28 18.460732,-33.913467,304.8 18.458118,-33.910698,304.8 18.456415,-33.908981,274.32 18.45377,-33.906368,274.32 18.451931,-33.904541,243.84 18.449633,-33.902252,243.84 18.446903,-33.89962,213.36 18.44442,-33.897995,213.36 18.442612,-33.897526,213.36 18.439865,-33.897572,182.88 18.43803,-33.897858,182.88 18.435562,-33.898315,152.4 18.434162,-33.89859,152.4 18.432144,-33.899002,121.92 18.43119,-33.899185,121.92 18.427212,-33.900558,60.96
        </coordinates>
      </LineString>
    </Placemark>
  </Document>
</kml>