<?xml version="1.0" encoding="UTF-8"?>
<kml xmlns="http://www.opengis.net/kml/2.2">
  <Document>
    <name>-/ZTHOT - Optimised</name>
    <description><![CDATA[Optimised flight path with 394 points (decimated from 1968 original points). Source format: Standard KML]]></description>
    
    <Style id="flightPath">
      <LineStyle>
        <color>ffff0000</color>
        <width>3</width>
      </LineStyle>
    </Style>
    
    <Placemark>
      <name>Flight Path</name>
      <description><![CDATA[<div style="width:220px; text-align:center;">
<div style="width:210px; text-align:center;">
<div style=" background: #000; color: #fff; font-size: 14px; text-align:left; border: 1px solid #000; padding: 2px 6px; text-shadow: 0 1px 0 #000; box-shadow: 0 1px 3px rgba(0,0,0,0.6); background: -webkit-gradient(linear, left top, left bottom, color-stop(0%,#808080), color-stop(2%,#303030), color-stop(100%,#0c0c0c));"><span style="font-size: 14px; font-weight: bold;"><a href="javascript:void(0);" style="color: #fff; cursor: pointer;text-decoration: none;">-</a></span> / ZTHOT<br/>Cape Town Helicopters</div>

<div style="border-top: 1px solid #005c90; color: #fff; padding-bottom: 5px; box-shadow: 0 0 1px #9BE3F6 inset, 0 1px 0 #9BE3F6 inset, 0 -1px 3px rgba(0,0,0,0.4); background:rgba(43,114,173,1); background: -webkit-gradient(linear, left top, left bottom, color-stop(0%,rgba(92,184,229,1)), color-stop(100%,rgba(43,114,173,1)));">
<a style="text-decoration: none; color: rgb(255, 255, 255); font-size: 12px; width:77px; display: inline-block;" title=" Airport" href="javascript:void(0);/departures"><h3 style="padding: 0px; margin: 10px 0px 0px; font-size: 16px; ">?</h3></a>
<span style="background: url(https://www.flightradar24.com/static/images/userUI_sprite.png?14) no-repeat scroll 0 -464px rgba(0, 0, 0, 0); border: medium none; display: inline-block; height: 16px; width: 45px;"></span>
<a style="text-decoration: none; color: rgb(255, 255, 255); font-size: 12px; width:77px; display: inline-block;" title=" Airport" href="javascript:void(0);/arrivals"><h3 style="padding: 0px; margin: 10px 0px 0px; font-size: 16px;">?</h3></a>
<div style=" margin-top:10px;">
<div style="display: inline-block; font-size: 12px; padding: 0 5px;">
<div>
<span style="color: #c1eaff;" title="Actual Time of Departure">ATD </span>
<span title="2025-11-07 08:56">08:56</span> <span title="Coordinated Universal Time">UTC</span>
</div>
</div>
<div style="display: inline-block; font-size: 12px; padding: 0 5px;">
<div>
<span style="color: #c1eaff;" title="Estimated Time of Arrival">ETA </span>
<span title="2025-11-07 09:38">09:38</span> <span title="Coordinated Universal Time">UTC</span>
</div>
</div>
</div>
<br style="clear: both;"/>
</div>

<div style="display: block;">
<table style="border-collapse: collapse; width: 100%;">
<tr style="border-right: 1px solid #dadada; ">
<td style="background: none repeat scroll 0 0 #dadada; padding: 0; width: 31px;">
<span style="background: url(https://www.flightradar24.com/static/images/userUI_sprite.png?14) no-repeat scroll -208px -464px rgba(0, 0, 0, 0); height: 26px; margin: 8px 0 0 4px; width: 23px; display: block;"></span>
</td>
<td colspan="2" style="border-bottom: 1px solid #dadada; border-left: 1px solid #dadada; color: #666; line-height: 1.1em; padding: 3px 6px; vertical-align: top; font-size: 14px;">
Aircraft<span style="float: right; font-size: 12px;">(AS50)</span><br>
<span style="color: #333; font-size: 16px; font-weight: bold; line-height: 1.3em;">Airbus Helicopters H125</span>
</td>
</tr>
<tr style="border-right: 1px solid #dadada; ">
<td style="background: none repeat scroll 0 0 #dadada; padding: 0; width: 31px;">
<td colspan="2" style="border-bottom: 1px solid #dadada; border-left: 1px solid #dadada; color: #666; line-height: 1.1em; padding: 3px 6px; vertical-align: top; font-size: 14px;">
Registration<br>
<span style="color: #333; font-size: 16px; font-weight: bold; line-height: 1.3em;"><a href="https://www.flightradar24.com/reg/zt-hot" style="text-decoration: none; color: #333;">ZT-HOT</a></span>
</td>
</tr>
</table>
</div>

</div>
</div>]]></description>
      <styleUrl>#flightPath</styleUrl>
      <LineString>
        <extrude>1</extrude>
        <tessellate>1</tessellate>
        <altitudeMode>absolute</altitudeMode>
        <coordinates>
          18.432816,-33.896439,152.4 18.437077,-33.889984,274.32 18.437862,-33.886864,304.8 18.437693,-33.884079,335.28 18.437233,-33.88216,365.76 18.436031,-33.879463,396.24 18.434944,-33.877926,396.24 18.432713,-33.876202,426.72 18.428707,-33.875134,487.68 18.424856,-33.876114,518.16 18.423904,-33.878036,518.16 18.424416,-33.879555,548.64 18.425446,-33.880581,548.64 18.427603,-33.881012,579.12 18.428879,-33.880394,579.12 18.429852,-33.8783,579.12 18.42923,-33.876572,609.6 18.426426,-33.874557,609.6 18.424644,-33.87392,609.6 18.420296,-33.873222,609.6 18.417515,-33.873138,609.6 18.413254,-33.873367,609.6 18.410339,-33.873734,640.08 18.404274,-33.875179,640.08 18.401764,-33.876022,640.08 18.396942,-33.877899,640.08 18.394476,-33.879044,670.56 18.391449,-33.880692,670.56 18.388138,-33.882675,701.04 18.385117,-33.884674,731.52 18.383045,-33.88612,731.52 18.380413,-33.88826,762 18.378868,-33.88961,762 18.376293,-33.892078,762 18.37429,-33.894264,762 18.371773,-33.897106,762 18.370171,-33.899014,762 18.367825,-33.901852,762 18.366282,-33.903717,792.48 18.361874,-33.909393,822.96 18.35821,-33.914383,853.44 18.355408,-33.918194,853.44 18.354321,-33.919914,853.44 18.352776,-33.922615,883.92 18.351707,-33.924591,883.92 18.350086,-33.927784,883.92 18.349228,-33.92955,883.92 18.345623,-33.937885,914.4 18.34362,-33.943333,914.4 18.338757,-33.957249,914.4 18.334236,-33.96777,914.4 18.329624,-33.979294,914.4 18.329144,-33.981503,914.4 18.328671,-33.984879,914.4 18.328503,-33.986893,914.4 18.328285,-33.990257,914.4 18.328335,-33.992661,914.4 18.32839,-33.995956,914.4 18.328503,-33.998154,914.4 18.328726,-34.001633,914.4 18.328896,-34.003601,914.4 18.329372,-34.007107,914.4 18.32996,-34.009277,914.4 18.331375,-34.012276,914.4 18.332481,-34.01413,914.4 18.334444,-34.016922,914.4 18.335901,-34.01889,914.4 18.338144,-34.021683,914.4 18.339544,-34.023468,914.4 18.341446,-34.026009,914.4 18.342739,-34.027725,914.4 18.347454,-34.034153,914.4 18.348541,-34.035923,914.4 18.350258,-34.038948,914.4 18.351204,-34.040955,914.4 18.352261,-34.044071,914.4 18.352716,-34.046265,914.4 18.35289,-34.049423,914.4 18.352661,-34.051704,914.4 18.352203,-34.054962,914.4 18.351877,-34.056839,914.4 18.351173,-34.060085,914.4 18.350658,-34.062225,914.4 18.349859,-34.065628,914.4 18.349411,-34.067734,914.4 18.348122,-34.074097,914.4 18.347448,-34.078445,914.4 18.347225,-34.081547,914.4 18.347223,-34.083847,883.92 18.347223,-34.087143,914.4 18.347225,-34.089321,914.4 18.34734,-34.092766,914.4 18.347454,-34.094765,914.4 18.347855,-34.100258,883.92 18.348289,-34.10257,883.92 18.349285,-34.106079,853.44 18.34997,-34.108246,853.44 18.350756,-34.111679,822.96 18.351091,-34.114059,822.96 18.351204,-34.117676,822.96 18.351059,-34.120136,822.96 18.350643,-34.123718,822.96 18.350418,-34.125824,792.48 18.349915,-34.129395,792.48 18.349634,-34.131592,792.48 18.34868,-34.137451,792.48 18.347223,-34.146378,792.48 18.346552,-34.152512,762 18.34631,-34.15612,762 18.346327,-34.159653,762 18.346653,-34.162079,762 18.347448,-34.165466,731.52 18.348177,-34.167938,731.52 18.349285,-34.171482,701.04 18.350027,-34.173569,701.04 18.351204,-34.177368,701.04 18.351988,-34.180023,701.04 18.353062,-34.183449,701.04 18.353691,-34.18573,701.04 18.354959,-34.189819,670.56 18.355743,-34.192657,670.56 18.358498,-34.202209,640.08 18.360676,-34.209274,640.08 18.364544,-34.221725,640.08 18.366737,-34.22958,640.08 18.369598,-34.241081,640.08 18.371552,-34.247955,609.6 18.373737,-34.254318,640.08 18.375435,-34.258816,640.08 18.377773,-34.264343,640.08 18.380856,-34.271439,640.08 18.385506,-34.281952,640.08 18.388983,-34.290573,670.56 18.393244,-34.299088,670.56 18.394375,-34.301086,670.56 18.396263,-34.304344,670.56 18.39728,-34.305862,670.56 18.400269,-34.310024,670.56 18.401756,-34.311932,670.56 18.404959,-34.315887,670.56 18.407593,-34.318962,640.08 18.413534,-34.325546,640.08 18.415203,-34.327248,640.08 18.417402,-34.3293,640.08 18.41898,-34.330738,640.08 18.421886,-34.333328,640.08 18.423214,-34.334465,640.08 18.426018,-34.336792,640.08 18.427734,-34.338234,640.08 18.430252,-34.340191,640.08 18.431976,-34.341522,640.08 18.434498,-34.343262,670.56 18.436348,-34.344498,640.08 18.439095,-34.346283,640.08 18.440781,-34.347359,640.08 18.44553,-34.350384,640.08 18.450794,-34.353737,640.08 18.459091,-34.358532,640.08 18.461628,-34.359879,640.08 18.464699,-34.36137,640.08 18.46693,-34.362347,640.08 18.46998,-34.363724,640.08 18.471828,-34.364594,640.08 18.475304,-34.366104,640.08 18.479958,-34.368118,640.08 18.482952,-34.369099,640.08 18.485184,-34.369797,640.08 18.488588,-34.370682,640.08 18.490664,-34.371185,640.08 18.493652,-34.371799,640.08 18.495987,-34.372238,670.56 18.498802,-34.372543,670.56 18.500977,-34.37265,640.08 18.504507,-34.37265,670.56 18.506134,-34.372375,640.08 18.508991,-34.371506,640.08 18.510674,-34.370636,640.08 18.512356,-34.369263,640.08 18.512859,-34.367844,640.08 18.511963,-34.3657,640.08 18.510281,-34.364502,640.08 18.506973,-34.363403,609.6 18.504452,-34.363266,609.6 18.500118,-34.36351,609.6 18.497486,-34.363743,640.08 18.492682,-34.364044,640.08 18.489597,-34.36409,640.08 18.485899,-34.364044,640.08 18.482323,-34.363697,640.08 18.478275,-34.362808,670.56 18.475641,-34.361847,670.56 18.472595,-34.360065,701.04 18.470936,-34.358391,731.52 18.469448,-34.355644,731.52 18.46899,-34.354015,731.52 18.468647,-34.351269,731.52 18.468761,-34.34922,731.52 18.469276,-34.346287,701.04 18.469643,-34.344131,701.04 18.470192,-34.341122,670.56 18.470592,-34.338745,670.56 18.471508,-34.333439,640.08 18.472996,-34.325851,640.08 18.475641,-34.314606,640.08 18.477379,-34.307144,640.08 18.477882,-34.303482,640.08 18.478107,-34.301285,609.6 18.478443,-34.297897,609.6 18.478603,-34.295639,640.08 18.478891,-34.292633,609.6 18.479116,-34.29007,609.6 18.479347,-34.286514,609.6 18.479452,-34.284393,609.6 18.47962,-34.28096,609.6 18.479633,-34.278507,609.6 18.479691,-34.270409,609.6 18.479677,-34.267776,609.6 18.47962,-34.264343,609.6 18.479519,-34.262306,609.6 18.479229,-34.258392,609.6 18.479061,-34.256115,609.6 18.478031,-34.246853,609.6 18.476706,-34.238708,609.6 18.476028,-34.235401,609.6 18.475513,-34.233166,609.6 18.474014,-34.227081,609.6 18.472221,-34.220261,609.6 18.469475,-34.20813,609.6 18.467625,-34.199158,640.08 18.465384,-34.188263,640.08 18.464355,-34.180424,640.08 18.464069,-34.176975,640.08 18.463926,-34.17485,640.08 18.463814,-34.171234,640.08 18.463814,-34.169174,640.08 18.46384,-34.165897,640.08 18.463926,-34.163635,640.08 18.464207,-34.160477,640.08 18.46447,-34.15831,640.08 18.464991,-34.154938,640.08 18.465443,-34.152771,640.08 18.466225,-34.149536,640.08 18.466759,-34.147415,640.08 18.467457,-34.144409,640.08 18.468801,-34.139191,640.08 18.47208,-34.128422,640.08 18.47414,-34.122044,640.08 18.476315,-34.11441,640.08 18.476706,-34.112228,640.08 18.477041,-34.108932,640.08 18.477154,-34.106873,640.08 18.477098,-34.103394,640.08 18.477058,-34.100819,640.08 18.476931,-34.097397,640.08 18.476873,-34.095474,640.08 18.476887,-34.088715,640.08 18.476887,-34.081963,640.08 18.477058,-34.06879,640.08 18.476986,-34.065399,640.08 18.476887,-34.061947,640.08 18.476761,-34.053497,640.08 18.476601,-34.040672,640.08 18.476538,-34.032486,640.08 18.476931,-34.021042,640.08 18.477287,-34.013115,640.08 18.47794,-34.000946,579.12 18.478836,-33.992065,548.64 18.479452,-33.986572,518.16 18.479733,-33.984146,518.16 18.481064,-33.970238,487.68 18.482323,-33.960278,457.2 18.482759,-33.953751,426.72 18.482666,-33.951012,426.72 18.482208,-33.947243,426.72 18.48175,-33.944866,396.24 18.480721,-33.940678,396.24 18.479977,-33.93821,396.24 18.478668,-33.934799,365.76 18.477659,-33.932373,365.76 18.475857,-33.929134,365.76 18.474083,-33.926571,365.76 18.471828,-33.923676,365.76 18.470135,-33.92173,335.28 18.467625,-33.918915,335.28 18.466015,-33.917076,335.28 18.463926,-33.914795,335.28 18.46035,-33.910931,304.8 18.4548,-33.905159,274.32 18.453312,-33.903717,274.32 18.450697,-33.901199,243.84 18.449184,-33.89978,243.84 18.442345,-33.897171,213.36 18.438492,-33.897709,182.88 18.433285,-33.898735,121.92 18.430481,-33.899246,91.44 18.428192,-33.900177,60.96 18.430407,-33.900879,121.92 18.435339,-33.899963,213.36 18.437004,-33.897758,243.84 18.43775,-33.895477,274.32 18.437977,-33.893661,304.8 18.437918,-33.890488,304.8 18.437576,-33.888447,335.28 18.436628,-33.885498,365.76 18.435787,-33.883667,396.24 18.434143,-33.881184,426.72 18.432873,-33.87973,426.72 18.430653,-33.877739,457.2 18.429108,-33.876762,487.68 18.426247,-33.875412,487.68 18.424187,-33.874714,518.16 18.421101,-33.8741,548.64 18.419209,-33.873875,548.64 18.415665,-33.873825,579.12 18.413086,-33.874016,579.12 18.409538,-33.874573,609.6 18.404846,-33.87561,609.6 18.401596,-33.876526,640.08 18.399181,-33.877365,640.08 18.395149,-33.879089,640.08 18.393131,-33.880051,640.08 18.390217,-33.881653,670.56 18.388138,-33.882858,670.56 18.385284,-33.884674,670.56 18.383266,-33.886002,670.56 18.380463,-33.88797,701.04 18.378582,-33.889332,701.04 18.374578,-33.892502,731.52 18.372402,-33.894314,731.52 18.369644,-33.896713,731.52 18.368019,-33.898178,762 18.365707,-33.900551,762 18.364376,-33.901886,762 18.362078,-33.904404,762 18.360443,-33.906231,792.48 18.358099,-33.90889,792.48 18.356642,-33.910721,792.48 18.354624,-33.913422,792.48 18.353462,-33.915169,792.48 18.351688,-33.918098,792.48 18.350475,-33.920288,792.48 18.348999,-33.923409,792.48 18.348064,-33.925461,792.48 18.346775,-33.928482,792.48 18.344421,-33.934765,792.48 18.340416,-33.9478,792.48 18.338642,-33.955761,762 18.343805,-33.959747,762 18.347,-33.95874,731.52 18.3498,-33.955761,701.04 18.350868,-33.953751,701.04 18.352493,-33.950134,670.56 18.353577,-33.947662,670.56 18.354904,-33.944366,670.56 18.355751,-33.942261,670.56 18.360397,-33.931412,670.56 18.363647,-33.92485,640.08 18.365479,-33.921543,640.08 18.36668,-33.91959,640.08 18.368637,-33.916672,640.08 18.370037,-33.914795,640.08 18.372173,-33.912235,640.08 18.373737,-33.910492,640.08 18.376179,-33.907951,609.6 18.377716,-33.906372,609.6 18.380299,-33.903996,609.6 18.382072,-33.902367,609.6 18.384779,-33.900101,609.6 18.386536,-33.89864,609.6 18.389431,-33.896347,609.6 18.391281,-33.89502,579.12 18.394318,-33.892914,579.12 18.396606,-33.891541,548.64 18.400026,-33.889709,518.16 18.402435,-33.888565,518.16 18.405304,-33.887238,487.68 18.407761,-33.88623,487.68 18.411198,-33.884956,487.68 18.413429,-33.884209,457.2 18.416897,-33.883072,457.2 18.418922,-33.882488,426.72 18.422615,-33.881699,426.72 18.424931,-33.881416,426.72 18.428249,-33.881462,396.24 18.430519,-33.881882,396.24 18.433228,-33.882858,365.76 18.434772,-33.883652,365.76 18.436741,-33.885132,335.28 18.43786,-33.886414,304.8 18.438086,-33.891541,243.84 18.435619,-33.894104,182.88 18.431471,-33.896805,152.4 18.42905,-33.898361,91.44 18.427828,-33.90033,60.96
        </coordinates>
      </LineString>
    </Placemark>
  </Document>
</kml>