<?xml version="1.0" encoding="UTF-8"?>
<kml xmlns="http://www.opengis.net/kml/2.2">
  <Document>
    <name>-/ZTHOT - Optimised</name>
    <description><![CDATA[Optimised flight path with 369 points (decimated from 1842 original points). Source format: Standard KML]]></description>
    
    <Style id="flightPath">
      <LineStyle>
        <color>ffff0000</color>
        <width>3</width>
      </LineStyle>
    </Style>
    
    <Placemark>
      <name>Flight Path</name>
      <description><![CDATA[<div style="width:220px; text-align:center;">
<div style="width:210px; text-align:center;">
<div style=" background: #000; color: #fff; font-size: 14px; text-align:left; border: 1px solid #000; padding: 2px 6px; text-shadow: 0 1px 0 #000; box-shadow: 0 1px 3px rgba(0,0,0,0.6); background: -webkit-gradient(linear, left top, left bottom, color-stop(0%,#808080), color-stop(2%,#303030), color-stop(100%,#0c0c0c));"><span style="font-size: 14px; font-weight: bold;"><a href="javascript:void(0);" style="color: #fff; cursor: pointer;text-decoration: none;">-</a></span> / ZTHOT<br/>Cape Town Helicopters</div>

<div style="border-top: 1px solid #005c90; color: #fff; padding-bottom: 5px; box-shadow: 0 0 1px #9BE3F6 inset, 0 1px 0 #9BE3F6 inset, 0 -1px 3px rgba(0,0,0,0.4); background:rgba(43,114,173,1); background: -webkit-gradient(linear, left top, left bottom, color-stop(0%,rgba(92,184,229,1)), color-stop(100%,rgba(43,114,173,1)));">
<a style="text-decoration: none; color: rgb(255, 255, 255); font-size: 12px; width:77px; display: inline-block;" title=" Airport" href="javascript:void(0);/departures"><h3 style="padding: 0px; margin: 10px 0px 0px; font-size: 16px; ">?</h3></a>
<span style="background: url(https://www.flightradar24.com/static/images/userUI_sprite.png?14) no-repeat scroll 0 -464px rgba(0, 0, 0, 0); border: medium none; display: inline-block; height: 16px; width: 45px;"></span>
<a style="text-decoration: none; color: rgb(255, 255, 255); font-size: 12px; width:77px; display: inline-block;" title=" Airport" href="javascript:void(0);/arrivals"><h3 style="padding: 0px; margin: 10px 0px 0px; font-size: 16px;">?</h3></a>
<div style=" margin-top:10px;">
<div style="display: inline-block; font-size: 12px; padding: 0 5px;">
<div>
<span style="color: #c1eaff;" title="Actual Time of Departure">ATD </span>
<span title="2025-07-12 14:27">14:27</span> <span title="Coordinated Universal Time">UTC</span>
</div>
</div>
<div style="display: inline-block; font-size: 12px; padding: 0 5px;">
<div>
<span style="color: #c1eaff;" title="Estimated Time of Arrival">ETA </span>
<span title="2025-07-12 14:44">14:44</span> <span title="Coordinated Universal Time">UTC</span>
</div>
</div>
</div>
<br style="clear: both;"/>
</div>

<div style="display: block;">
<table style="border-collapse: collapse; width: 100%;">
<tr style="border-right: 1px solid #dadada; ">
<td style="background: none repeat scroll 0 0 #dadada; padding: 0; width: 31px;">
<span style="background: url(https://www.flightradar24.com/static/images/userUI_sprite.png?14) no-repeat scroll -208px -464px rgba(0, 0, 0, 0); height: 26px; margin: 8px 0 0 4px; width: 23px; display: block;"></span>
</td>
<td colspan="2" style="border-bottom: 1px solid #dadada; border-left: 1px solid #dadada; color: #666; line-height: 1.1em; padding: 3px 6px; vertical-align: top; font-size: 14px;">
Aircraft<span style="float: right; font-size: 12px;">(AS50)</span><br>
<span style="color: #333; font-size: 16px; font-weight: bold; line-height: 1.3em;">Airbus Helicopters H125</span>
</td>
</tr>
<tr style="border-right: 1px solid #dadada; ">
<td style="background: none repeat scroll 0 0 #dadada; padding: 0; width: 31px;">
<td colspan="2" style="border-bottom: 1px solid #dadada; border-left: 1px solid #dadada; color: #666; line-height: 1.1em; padding: 3px 6px; vertical-align: top; font-size: 14px;">
Registration<br>
<span style="color: #333; font-size: 16px; font-weight: bold; line-height: 1.3em;"><a href="https://www.flightradar24.com/reg/zt-hot" style="text-decoration: none; color: #333;">ZT-HOT</a></span>
</td>
</tr>
</table>
</div>

</div>
</div>]]></description>
      <styleUrl>#flightPath</styleUrl>
      <LineString>
        <extrude>1</extrude>
        <tessellate>1</tessellate>
        <altitudeMode>absolute</altitudeMode>
        <coordinates>
          18.430462,-33.897125,60.96 18.432941,-33.89352,121.92 18.433914,-33.891659,152.4 18.435402,-33.888401,182.88 18.435745,-33.886772,213.36 18.435675,-33.884125,243.84 18.435284,-33.881927,274.32 18.434217,-33.878815,304.8 18.433228,-33.877132,335.28 18.431168,-33.875038,335.28 18.429005,-33.873779,365.76 18.425474,-33.872818,396.24 18.422813,-33.872433,426.72 18.419037,-33.872246,487.68 18.416449,-33.872314,487.68 18.411484,-33.873272,518.16 18.409138,-33.87392,518.16 18.404791,-33.875336,548.64 18.402386,-33.876202,548.64 18.398176,-33.877991,579.12 18.395748,-33.879135,579.12 18.391972,-33.881184,579.12 18.38904,-33.882935,579.12 18.385792,-33.885139,609.6 18.382425,-33.887604,609.6 18.379097,-33.890217,640.08 18.376427,-33.892456,640.08 18.373146,-33.895245,670.56 18.370934,-33.897263,670.56 18.367571,-33.900558,670.56 18.365553,-33.902802,670.56 18.362217,-33.907066,670.56 18.360676,-33.90921,670.56 18.358212,-33.91312,670.56 18.356438,-33.916424,670.56 18.354063,-33.921066,670.56 18.353062,-33.923222,670.56 18.351149,-33.928299,670.56 18.350027,-33.931366,670.56 18.348793,-33.935028,701.04 18.348026,-33.937466,701.04 18.344994,-33.947243,701.04 18.342419,-33.956318,701.04 18.338425,-33.970642,670.56 18.337955,-33.977127,670.56 18.337807,-33.986115,670.56 18.337955,-33.998684,670.56 18.338144,-34.012344,701.04 18.338535,-34.016968,670.56 18.339264,-34.020813,670.56 18.339901,-34.023449,670.56 18.341002,-34.027679,701.04 18.342304,-34.031174,701.04 18.345165,-34.034668,701.04 18.348026,-34.036251,701.04 18.353577,-34.037041,701.04 18.356585,-34.036331,701.04 18.360228,-34.03363,701.04 18.361588,-34.031082,670.56 18.361349,-34.027863,670.56 18.359444,-34.025024,640.08 18.355801,-34.022552,640.08 18.352604,-34.020981,609.6 18.348232,-34.018799,609.6 18.345966,-34.017395,609.6 18.34173,-34.013763,579.12 18.339096,-34.011246,579.12 18.336353,-34.008411,579.12 18.334465,-34.005943,579.12 18.332539,-34.002502,579.12 18.331585,-33.999985,579.12 18.331146,-33.987415,548.64 18.333435,-33.981903,548.64 18.337807,-33.974258,518.16 18.341789,-33.966839,548.64 18.345394,-33.959114,548.64 18.346596,-33.956181,548.64 18.350588,-33.94606,548.64 18.352942,-33.939194,579.12 18.357201,-33.92926,548.64 18.358379,-33.926971,548.64 18.360172,-33.923813,548.64 18.361965,-33.921204,548.64 18.364321,-33.917999,548.64 18.366051,-33.915726,548.64 18.368855,-33.912373,518.16 18.370571,-33.910557,518.16 18.373177,-33.907745,518.16 18.37492,-33.906044,518.16 18.377953,-33.902969,518.16 18.379791,-33.901199,518.16 18.38356,-33.897804,487.68 18.386021,-33.89571,487.68 18.390198,-33.89259,457.2 18.392347,-33.891037,457.2 18.396721,-33.888168,426.72 18.400194,-33.886185,426.72 18.404217,-33.884304,426.72 18.407928,-33.88298,396.24 18.413198,-33.881882,396.24 18.416176,-33.881744,396.24 18.420925,-33.881927,365.76 18.424746,-33.882431,365.76 18.42979,-33.883438,335.28 18.433514,-33.884441,304.8 18.437525,-33.885727,274.32 18.440104,-33.886597,274.32 18.444271,-33.888447,243.84 18.446548,-33.889847,213.36 18.449072,-33.892548,213.36 18.449707,-33.895382,182.88 18.448399,-33.898499,152.4 18.447109,-33.899963,152.4 18.444195,-33.901474,121.92 18.442122,-33.901382,121.92 18.438927,-33.900238,91.44 18.437021,-33.899551,91.44 18.434162,-33.898956,60.96 18.43276,-33.899002,60.96 18.431358,-33.899185,30.48 18.430519,-33.899277,30.48 18.428993,-33.899525,0 18.427505,-33.900085,0 18.427048,-33.900551,0 18.428135,-33.899479,0 18.42934,-33.89859,30.48 18.430367,-33.897758,60.96 18.432426,-33.895756,91.44 18.435003,-33.892731,152.4 18.436432,-33.890682,182.88 18.437233,-33.888912,213.36 18.43775,-33.885544,243.84 18.437405,-33.883232,274.32 18.436123,-33.880142,304.8 18.435171,-33.878448,304.8 18.433041,-33.875473,335.28 18.431248,-33.873962,365.76 18.427906,-33.872292,396.24 18.425306,-33.871674,426.72 18.421097,-33.871361,487.68 18.419037,-33.871639,487.68 18.414917,-33.87262,518.16 18.412628,-33.873272,548.64 18.40868,-33.874527,579.12 18.406219,-33.875504,579.12 18.402548,-33.877075,579.12 18.399296,-33.878624,579.12 18.395094,-33.88092,579.12 18.392403,-33.882568,579.12 18.387583,-33.885818,579.12 18.384762,-33.888027,579.12 18.381386,-33.89082,548.64 18.378502,-33.89328,548.64 18.375195,-33.896301,548.64 18.373344,-33.898132,548.64 18.369028,-33.902618,548.64 18.36729,-33.904495,548.64 18.359276,-33.912918,548.64 18.35524,-33.917725,548.64 18.352604,-33.92136,518.16 18.350924,-33.924133,548.64 18.349579,-33.927109,548.64 18.348484,-33.931507,609.6 18.349171,-33.934578,640.08 18.350544,-33.936211,670.56 18.353783,-33.937408,701.04 18.355688,-33.93718,701.04 18.357868,-33.935276,731.52 18.358267,-33.933701,731.52 18.357819,-33.931183,762 18.356081,-33.929626,762 18.352606,-33.92894,792.48 18.350029,-33.929878,822.96 18.347281,-33.933243,822.96 18.34631,-33.935696,822.96 18.344646,-33.942032,822.96 18.343277,-33.949196,822.96 18.342516,-33.954666,822.96 18.341955,-33.961441,822.96 18.34156,-33.974522,822.96 18.342247,-33.981037,822.96 18.343187,-33.98671,822.96 18.343678,-33.989231,822.96 18.344925,-33.99408,822.96 18.345966,-33.997936,853.44 18.347626,-34.003242,853.44 18.348713,-34.00655,853.44 18.353004,-34.019863,853.44 18.353615,-34.022598,853.44 18.354321,-34.026985,853.44 18.354549,-34.030849,822.96 18.354549,-34.035179,822.96 18.354321,-34.038948,792.48 18.353725,-34.044342,762 18.353222,-34.047821,762 18.352375,-34.052216,731.52 18.351597,-34.055786,701.04 18.350658,-34.059525,670.56 18.349743,-34.063484,640.08 18.346159,-34.076981,548.64 18.343861,-34.08577,548.64 18.342348,-34.093185,548.64 18.342419,-34.096256,548.64 18.343357,-34.099731,579.12 18.344702,-34.102066,579.12 18.347225,-34.104774,579.12 18.3494,-34.106358,579.12 18.353233,-34.108452,579.12 18.355801,-34.109756,548.64 18.360271,-34.111942,548.64 18.363422,-34.113373,548.64 18.369028,-34.115753,548.64 18.372803,-34.117298,548.64 18.378334,-34.119415,548.64 18.380968,-34.120422,548.64 18.395149,-34.125229,548.64 18.40353,-34.128098,548.64 18.417345,-34.132919,548.64 18.426931,-34.136261,548.64 18.435059,-34.138523,548.64 18.43786,-34.138962,548.64 18.442383,-34.139084,548.64 18.445316,-34.138779,548.64 18.449633,-34.137589,548.64 18.452267,-34.13649,548.64 18.457432,-34.133404,548.64 18.459606,-34.131866,548.64 18.463497,-34.128887,548.64 18.466415,-34.126514,548.64 18.470192,-34.123302,548.64 18.472895,-34.120651,548.64 18.475628,-34.117157,548.64 18.476658,-34.11525,548.64 18.478163,-34.111496,579.12 18.478775,-34.108685,579.12 18.479116,-34.104309,579.12 18.479172,-34.1017,579.12 18.47934,-34.097855,579.12 18.479452,-34.095474,579.12 18.47962,-34.089203,579.12 18.479805,-34.080055,579.12 18.479677,-34.069016,579.12 18.47962,-34.061691,548.64 18.479347,-34.049332,548.64 18.478947,-34.041416,548.64 18.478603,-34.028801,548.64 18.478775,-34.019398,548.64 18.47934,-34.006348,518.16 18.479677,-33.997879,487.68 18.480238,-33.984924,426.72 18.481022,-33.976044,396.24 18.482552,-33.964001,396.24 18.484039,-33.955437,335.28 18.484272,-33.947617,335.28 18.483994,-33.945007,304.8 18.483009,-33.940258,304.8 18.481922,-33.93742,304.8 18.479748,-33.93351,274.32 18.477745,-33.930622,274.32 18.475754,-33.927933,274.32 18.474072,-33.925964,274.32 18.471565,-33.922943,274.32 18.469791,-33.920845,274.32 18.466,-33.916626,274.32 18.463869,-33.914429,243.84 18.461437,-33.912189,243.84 18.459497,-33.910446,213.36 18.456345,-33.90781,213.36 18.454565,-33.906372,213.36 18.45211,-33.904415,182.88 18.449993,-33.902878,182.88 18.445358,-33.899433,152.4 18.442955,-33.898037,121.92 18.439768,-33.8974,91.44 18.437576,-33.897709,91.44 18.434944,-33.89827,60.96 18.432705,-33.898773,30.48 18.431225,-33.899105,30.48 18.429623,-33.899387,0 18.427105,-33.900784,0 18.427162,-33.900223,0 18.430252,-33.896919,60.96 18.431528,-33.894974,91.44 18.433096,-33.892136,121.92 18.433937,-33.890579,152.4 18.435173,-33.887749,182.88 18.435631,-33.885139,213.36 18.434887,-33.882023,243.84 18.433685,-33.879833,274.32 18.431416,-33.876984,304.8 18.428949,-33.875107,335.28 18.425846,-33.873783,365.76 18.423624,-33.873184,396.24 18.419533,-33.872543,426.72 18.416842,-33.872498,457.2 18.413086,-33.87291,457.2 18.410511,-33.87355,487.68 18.406303,-33.874878,487.68 18.403988,-33.875736,518.16 18.39924,-33.877625,518.16 18.396999,-33.878677,548.64 18.393467,-33.8806,548.64 18.390833,-33.882156,548.64 18.38625,-33.885048,548.64 18.383266,-33.887146,548.64 18.379902,-33.889893,548.64 18.377037,-33.892635,548.64 18.37389,-33.896175,548.64 18.372059,-33.898315,548.64 18.369028,-33.902069,548.64 18.366566,-33.905113,548.64 18.362526,-33.9104,518.16 18.358841,-33.915539,548.64 18.356529,-33.91951,548.64 18.355236,-33.922058,548.64 18.353577,-33.925549,548.64 18.352325,-33.928665,548.64 18.350773,-33.932671,548.64 18.349634,-33.935669,548.64 18.347168,-33.943726,518.16 18.344814,-33.953979,518.16 18.345451,-33.967587,548.64 18.351427,-33.966156,518.16 18.354607,-33.956367,518.16 18.355122,-33.953293,518.16 18.355633,-33.949631,548.64 18.356529,-33.942444,548.64 18.35804,-33.934628,579.12 18.358841,-33.931881,579.12 18.360285,-33.928024,579.12 18.361759,-33.925083,579.12 18.36422,-33.920895,548.64 18.365536,-33.918983,548.64 18.368748,-33.914566,548.64 18.370262,-33.912598,518.16 18.373064,-33.909027,518.16 18.374689,-33.907059,518.16 18.378054,-33.903305,487.68 18.380407,-33.900879,487.68 18.384075,-33.897617,487.68 18.386124,-33.896027,457.2 18.389282,-33.893845,457.2 18.391972,-33.891983,457.2 18.395519,-33.889889,426.72 18.398495,-33.888401,426.72 18.403416,-33.886444,426.72 18.406277,-33.885468,426.72 18.410732,-33.884262,396.24 18.413647,-33.883621,396.24 18.417683,-33.882889,365.76 18.420597,-33.882477,335.28 18.424587,-33.88216,335.28 18.427906,-33.882256,304.8 18.43214,-33.883186,304.8 18.434658,-33.884209,274.32 18.438534,-33.886185,243.84 18.440777,-33.88765,243.84 18.443859,-33.889984,213.36 18.445587,-33.8918,213.36 18.446732,-33.894314,182.88 18.445932,-33.896439,152.4 18.443411,-33.897903,121.92 18.440439,-33.898315,121.92 18.436909,-33.898499,91.44 18.435001,-33.89864,60.96 18.432087,-33.899002,30.48 18.430799,-33.899185,30.48 18.427563,-33.90041,0 18.427267,-33.90097,0
        </coordinates>
      </LineString>
    </Placemark>
  </Document>
</kml>