<?xml version="1.0" encoding="UTF-8"?>
<kml xmlns="http://www.opengis.net/kml/2.2">
  <Document>
    <name>-/ZTRNW - Optimised</name>
    <description><![CDATA[Optimised flight path with 531 points (decimated from 2652 original points). Source format: Standard KML]]></description>
    
    <Style id="flightPath">
      <LineStyle>
        <color>ffff0000</color>
        <width>3</width>
      </LineStyle>
    </Style>
    
    <Placemark>
      <name>Flight Path</name>
      <description><![CDATA[<div style="width:220px; text-align:center;">
<div style="width:210px; text-align:center;">
<div style=" background: #000; color: #fff; font-size: 14px; text-align:left; border: 1px solid #000; padding: 2px 6px; text-shadow: 0 1px 0 #000; box-shadow: 0 1px 3px rgba(0,0,0,0.6); background: -webkit-gradient(linear, left top, left bottom, color-stop(0%,#808080), color-stop(2%,#303030), color-stop(100%,#0c0c0c));"><span style="font-size: 14px; font-weight: bold;"><a href="javascript:void(0);" style="color: #fff; cursor: pointer;text-decoration: none;">-</a></span> / ZTRNW<br/>Private owner</div>

<div style="border-top: 1px solid #005c90; color: #fff; padding-bottom: 5px; box-shadow: 0 0 1px #9BE3F6 inset, 0 1px 0 #9BE3F6 inset, 0 -1px 3px rgba(0,0,0,0.4); background:rgba(43,114,173,1); background: -webkit-gradient(linear, left top, left bottom, color-stop(0%,rgba(92,184,229,1)), color-stop(100%,rgba(43,114,173,1)));">
<a style="text-decoration: none; color: rgb(255, 255, 255); font-size: 12px; width:77px; display: inline-block;" title="Cape Town Airport" href="https://www.flightradar24.com/airport/cpt/departures"><h3 style="padding: 0px; margin: 10px 0px 0px; font-size: 16px; ">CPT</h3>Cape Town</a>
<span style="background: url(https://www.flightradar24.com/static/images/userUI_sprite.png?14) no-repeat scroll 0 -464px rgba(0, 0, 0, 0); border: medium none; display: inline-block; height: 16px; width: 45px;"></span>
<a style="text-decoration: none; color: rgb(255, 255, 255); font-size: 12px; width:77px; display: inline-block;" title="Cape Town Airport" href="https://www.flightradar24.com/airport/cpt/arrivals"><h3 style="padding: 0px; margin: 10px 0px 0px; font-size: 16px;">CPT</h3>Cape Town</a>
<div style=" margin-top:10px;">
<div style="display: inline-block; font-size: 12px; padding: 0 5px;">
<div>
<span style="color: #c1eaff;" title="Actual Time of Departure">ATD </span>
<span title="2025-11-08 13:17">13:17</span> <span title="Coordinated Universal Time">UTC</span>
</div>
</div>
<div style="display: inline-block; font-size: 12px; padding: 0 5px;">
<div>
<span style="color: #c1eaff;" title="Estimated Time of Arrival">ETA </span>
<span title="2025-11-08 14:32">14:32</span> <span title="Coordinated Universal Time">UTC</span>
</div>
</div>
</div>
<br style="clear: both;"/>
</div>

<div style="display: block;">
<table style="border-collapse: collapse; width: 100%;">
<tr style="border-right: 1px solid #dadada; ">
<td style="background: none repeat scroll 0 0 #dadada; padding: 0; width: 31px;">
<span style="background: url(https://www.flightradar24.com/static/images/userUI_sprite.png?14) no-repeat scroll -208px -464px rgba(0, 0, 0, 0); height: 26px; margin: 8px 0 0 4px; width: 23px; display: block;"></span>
</td>
<td colspan="2" style="border-bottom: 1px solid #dadada; border-left: 1px solid #dadada; color: #666; line-height: 1.1em; padding: 3px 6px; vertical-align: top; font-size: 14px;">
Aircraft<span style="float: right; font-size: 12px;">(EC20)</span><br>
<span style="color: #333; font-size: 16px; font-weight: bold; line-height: 1.3em;">Airbus Helicopters H120</span>
</td>
</tr>
<tr style="border-right: 1px solid #dadada; ">
<td style="background: none repeat scroll 0 0 #dadada; padding: 0; width: 31px;">
<td colspan="2" style="border-bottom: 1px solid #dadada; border-left: 1px solid #dadada; color: #666; line-height: 1.1em; padding: 3px 6px; vertical-align: top; font-size: 14px;">
Registration<br>
<span style="color: #333; font-size: 16px; font-weight: bold; line-height: 1.3em;"><a href="https://www.flightradar24.com/reg/zt-rnw" style="text-decoration: none; color: #333;">ZT-RNW</a></span>
</td>
</tr>
</table>
</div>

</div>
</div>]]></description>
      <styleUrl>#flightPath</styleUrl>
      <LineString>
        <extrude>1</extrude>
        <tessellate>1</tessellate>
        <altitudeMode>absolute</altitudeMode>
        <coordinates>
          18.427277,-33.900597,68.58 18.428764,-33.901062,68.58 18.429909,-33.901436,83.82 18.431854,-33.901669,114.3 18.433113,-33.901714,129.54 18.435339,-33.901337,152.4 18.436964,-33.900696,167.64 18.43895,-33.899433,190.5 18.440094,-33.898315,205.74 18.441639,-33.896267,236.22 18.442289,-33.894928,251.46 18.443012,-33.892635,259.08 18.443241,-33.890587,266.7 18.442898,-33.888351,289.56 18.442009,-33.886734,297.18 18.440323,-33.884628,312.42 18.439007,-33.883278,327.66 18.436964,-33.881332,350.52 18.435394,-33.880096,358.14 18.432827,-33.878765,381 18.430855,-33.878128,396.24 18.427773,-33.877533,411.48 18.425865,-33.877304,419.1 18.4231,-33.877087,434.34 18.42099,-33.877029,449.58 18.417906,-33.877075,464.82 18.416119,-33.877182,480.06 18.412973,-33.87735,487.68 18.411026,-33.877506,487.68 18.407936,-33.877693,502.92 18.405933,-33.87788,510.54 18.402729,-33.878345,525.78 18.400587,-33.878769,533.4 18.39756,-33.879547,541.02 18.395691,-33.880112,541.02 18.392796,-33.881104,548.64 18.390656,-33.881927,548.64 18.387526,-33.883255,548.64 18.38562,-33.884163,502.92 18.382874,-33.885681,502.92 18.381042,-33.886723,510.54 18.378525,-33.888351,586.74 18.376932,-33.889526,594.36 18.374578,-33.891449,601.98 18.372896,-33.892914,609.6 18.370653,-33.894974,617.22 18.369198,-33.896358,624.84 18.36701,-33.898544,632.46 18.365498,-33.900101,640.08 18.363647,-33.902161,647.7 18.362274,-33.903763,655.32 18.360397,-33.90596,662.94 18.359184,-33.907486,670.56 18.357538,-33.909531,685.8 18.356472,-33.911041,685.8 18.355127,-33.91333,701.04 18.354286,-33.915207,701.04 18.353119,-33.917542,708.66 18.352213,-33.919189,716.28 18.350487,-33.921593,739.14 18.349522,-33.922989,739.14 18.348009,-33.925278,746.76 18.347,-33.927109,746.76 18.345711,-33.929718,746.76 18.344822,-33.931507,754.38 18.343563,-33.934578,754.38 18.343334,-33.936676,746.76 18.343973,-33.939697,731.52 18.345205,-33.941711,723.9 18.348009,-33.943909,716.28 18.350531,-33.94487,708.66 18.354847,-33.945099,685.8 18.357538,-33.944321,662.94 18.360844,-33.942074,632.46 18.362446,-33.940025,617.22 18.364096,-33.93631,617.22 18.364964,-33.933647,624.84 18.366058,-33.930359,632.46 18.366787,-33.928162,632.46 18.367907,-33.925186,640.08 18.36886,-33.922989,640.08 18.370571,-33.919823,647.7 18.371773,-33.91782,647.7 18.37385,-33.914658,647.7 18.375149,-33.912838,647.7 18.377323,-33.909908,640.08 18.379005,-33.90802,632.46 18.381697,-33.90509,624.84 18.383602,-33.903122,624.84 18.387022,-33.900055,617.22 18.388996,-33.898548,617.22 18.392403,-33.896164,617.22 18.394701,-33.894699,609.6 18.398399,-33.892776,594.36 18.401146,-33.891541,579.12 18.405247,-33.890121,556.26 18.408222,-33.889332,487.68 18.412571,-33.888214,533.4 18.415489,-33.88747,533.4 18.419151,-33.886585,518.16 18.421783,-33.885979,502.92 18.425961,-33.885139,472.44 18.428331,-33.884766,449.58 18.431568,-33.884956,434.34 18.433342,-33.886024,411.48 18.434723,-33.887924,373.38 18.435339,-33.88916,358.14 18.43646,-33.89122,320.04 18.437004,-33.892498,297.18 18.436235,-33.894058,251.46 18.434772,-33.89436,213.36 18.431454,-33.894451,152.4 18.42968,-33.894917,129.54 18.427547,-33.89621,99.06 18.427277,-33.897385,83.82 18.427267,-33.898911,68.58 18.427267,-33.899689,60.96 18.427448,-33.900551,45.72 18.428501,-33.900925,68.58 18.430239,-33.901108,76.2 18.431625,-33.90097,91.44 18.433571,-33.900738,121.92 18.434946,-33.900467,137.16 18.437061,-33.899525,160.02 18.438421,-33.898499,175.26 18.440327,-33.896484,190.5 18.441181,-33.894871,190.5 18.441811,-33.892498,213.36 18.441982,-33.8904,220.98 18.441505,-33.887741,243.84 18.440887,-33.886414,251.46 18.439236,-33.884071,274.32 18.437748,-33.882675,281.94 18.435003,-33.881012,312.42 18.43317,-33.880299,327.66 18.430538,-33.879742,350.52 18.428724,-33.879547,365.76 18.425961,-33.879646,381 18.423847,-33.879913,403.86 18.421381,-33.880096,419.1 18.419495,-33.880112,434.34 18.416842,-33.879959,449.58 18.414711,-33.87973,464.82 18.411741,-33.87941,472.44 18.409946,-33.879227,480.06 18.406906,-33.878998,495.3 18.404789,-33.878948,495.3 18.401699,-33.878998,510.54 18.399582,-33.879181,518.16 18.396721,-33.879555,525.78 18.394533,-33.879959,541.02 18.391571,-33.880672,563.88 18.38974,-33.881184,571.5 18.386965,-33.882248,579.12 18.385117,-33.883118,586.74 18.3822,-33.88472,586.74 18.380352,-33.885864,601.98 18.377661,-33.887604,617.22 18.376064,-33.888725,632.46 18.373661,-33.890682,655.32 18.372288,-33.891937,662.94 18.370171,-33.894032,678.18 18.368855,-33.895336,693.42 18.366955,-33.897446,708.66 18.365707,-33.898922,716.28 18.363647,-33.901482,731.52 18.362503,-33.902969,739.14 18.360788,-33.905365,746.76 18.359556,-33.907104,746.76 18.357145,-33.910538,754.38 18.353783,-33.915482,777.24 18.35014,-33.921066,800.1 18.349131,-33.922852,807.72 18.347729,-33.925461,807.72 18.346767,-33.927273,815.34 18.345486,-33.930084,815.34 18.344589,-33.932098,830.58 18.343391,-33.93486,853.44 18.342628,-33.936676,868.68 18.34156,-33.939236,891.54 18.340946,-33.940704,899.16 18.339882,-33.943451,922.02 18.339272,-33.945148,944.88 18.33848,-33.947525,975.36 18.337784,-33.949429,1005.84 18.336926,-33.95171,1036.32 18.336296,-33.953106,1051.56 18.33534,-33.955353,1066.8 18.334579,-33.957016,1074.42 18.333548,-33.959381,1074.42 18.332634,-33.961254,1082.04 18.331318,-33.963676,1082.04 18.330402,-33.965397,1082.04 18.328896,-33.967896,1089.66 18.327774,-33.969772,1089.66 18.326204,-33.972107,1089.66 18.324795,-33.974056,1089.66 18.323009,-33.976547,1089.66 18.321762,-33.97834,1097.28 18.319983,-33.981079,1097.28 18.318918,-33.983047,1089.66 18.317516,-33.98616,1089.66 18.31673,-33.988083,1089.66 18.315443,-33.991104,1089.66 18.314381,-33.993469,1089.66 18.313145,-33.996277,1089.66 18.312321,-33.998077,1089.66 18.310146,-34.000729,1089.66 18.308155,-34.00209,1097.28 18.305168,-34.003616,1104.9 18.30328,-34.004593,1112.52 18.300924,-34.006393,1127.76 18.299904,-34.0079,1127.76 18.298794,-34.010559,1127.76 18.298931,-34.012321,1127.76 18.30014,-34.014725,1127.76 18.301485,-34.016052,1127.76 18.304007,-34.017471,1135.38 18.306084,-34.018143,1135.38 18.309174,-34.018654,1135.38 18.311577,-34.018654,1127.76 18.314825,-34.017792,1120.14 18.316675,-34.016693,1104.9 18.319073,-34.014557,1089.66 18.320389,-34.012928,1082.04 18.322224,-34.009872,1059.18 18.323065,-34.00827,1051.56 18.324795,-34.004921,1028.7 18.325939,-34.002777,1021.08 18.327662,-33.999619,998.22 18.328726,-33.997696,982.98 18.330631,-33.994305,952.5 18.333206,-33.989605,922.02 18.342964,-33.974808,792.48 18.347841,-33.967072,769.62 18.354567,-33.954849,716.28 18.356037,-33.951756,716.28 18.357426,-33.948578,708.66 18.358498,-33.945984,701.04 18.361702,-33.938259,685.8 18.362974,-33.93576,678.18 18.364937,-33.932007,662.94 18.366226,-33.929672,655.32 18.368053,-33.926479,640.08 18.369476,-33.92395,632.46 18.372974,-33.918194,609.6 18.376596,-33.912735,609.6 18.37923,-33.909485,609.6 18.380968,-33.907562,609.6 18.383732,-33.904507,609.6 18.385334,-33.902737,601.98 18.388367,-33.89978,563.88 18.39044,-33.897949,617.22 18.394196,-33.895432,541.02 18.396606,-33.894173,601.98 18.400612,-33.892311,594.36 18.403276,-33.89122,594.36 18.407307,-33.889751,579.12 18.410172,-33.888794,571.5 18.414543,-33.887604,556.26 18.417206,-33.887005,548.64 18.421551,-33.886185,533.4 18.424465,-33.885635,518.16 18.428837,-33.884995,502.92 18.431696,-33.884903,480.06 18.43586,-33.885281,449.58 18.43832,-33.885887,426.72 18.441393,-33.887329,403.86 18.442905,-33.888885,388.62 18.443184,-33.891472,350.52 18.441841,-33.892593,320.04 18.43943,-33.89296,289.56 18.43758,-33.893005,266.7 18.435059,-33.893147,228.6 18.433489,-33.893326,205.74 18.431225,-33.89394,160.02 18.429451,-33.894638,137.16 18.427448,-33.89608,106.68 18.426987,-33.896942,99.06 18.426931,-33.898407,76.2 18.427105,-33.899246,68.58 18.427322,-33.900055,53.34 18.427492,-33.900558,53.34 18.431135,-33.900604,83.82 18.432425,-33.90033,99.06 18.434443,-33.89946,129.54 18.435619,-33.898499,137.16 18.437004,-33.896687,160.02 18.437576,-33.895428,175.26 18.438148,-33.893379,190.5 18.43832,-33.8918,205.74 18.438034,-33.889191,228.6 18.437634,-33.887608,236.22 18.436604,-33.885605,266.7 18.435745,-33.884491,274.32 18.433882,-33.882889,297.18 18.432592,-33.882065,312.42 18.430294,-33.881104,327.66 18.428782,-33.880875,342.9 18.426762,-33.881649,373.38 18.426476,-33.882767,396.24 18.428108,-33.884079,411.48 18.429737,-33.884071,419.1 18.431696,-33.882568,434.34 18.431864,-33.881012,441.96 18.430252,-33.879276,464.82 18.42905,-33.878857,472.44 18.426651,-33.878403,502.92 18.424988,-33.8783,518.16 18.42239,-33.878265,533.4 18.420696,-33.878391,548.64 18.418179,-33.878532,556.26 18.416348,-33.878624,563.88 18.413486,-33.878716,586.74 18.411655,-33.878857,594.36 18.408909,-33.87923,609.6 18.406977,-33.879547,617.22 18.404343,-33.880188,624.84 18.402443,-33.880718,632.46 18.399754,-33.881557,632.46 18.398037,-33.88221,640.08 18.395119,-33.883373,632.46 18.393173,-33.884258,632.46 18.390427,-33.885605,640.08 18.388702,-33.886551,647.7 18.385906,-33.88826,647.7 18.38419,-33.889378,655.32 18.381271,-33.891518,655.32 18.379398,-33.89296,662.94 18.37698,-33.894962,670.56 18.375664,-33.896221,670.56 18.373457,-33.898361,678.18 18.372055,-33.899689,678.18 18.369884,-33.901947,685.8 18.368412,-33.903534,693.42 18.366507,-33.905594,693.42 18.363991,-33.908463,701.04 18.362022,-33.910995,701.04 18.360956,-33.912643,708.66 18.359331,-33.915436,708.66 18.358435,-33.917084,716.28 18.357258,-33.91951,716.28 18.356304,-33.921524,716.28 18.355127,-33.924042,708.66 18.354286,-33.926102,708.66 18.353222,-33.928802,701.04 18.352493,-33.930817,701.04 18.35154,-33.933884,708.66 18.350924,-33.935989,708.66 18.350082,-33.939056,708.66 18.349579,-33.941025,708.66 18.348961,-33.943863,708.66 18.348484,-33.946125,708.66 18.347897,-33.94899,716.28 18.347336,-33.951096,723.9 18.346252,-33.954086,731.52 18.345337,-33.955902,739.14 18.339712,-33.964279,754.38 18.335438,-33.970657,754.38 18.331024,-33.97934,769.62 18.32983,-33.983833,769.62 18.329086,-33.987461,769.62 18.328726,-33.989319,777.24 18.328278,-33.992294,784.86 18.328056,-33.9944,784.86 18.327774,-33.997559,792.48 18.327606,-33.999435,792.48 18.32737,-34.002731,784.86 18.327427,-34.004734,784.86 18.327885,-34.007805,784.86 18.328514,-34.009995,784.86 18.329716,-34.013065,777.24 18.330576,-34.014816,784.86 18.332348,-34.018143,784.86 18.33349,-34.020126,784.86 18.335117,-34.022598,784.86 18.336407,-34.024612,777.24 18.33807,-34.027546,784.86 18.338985,-34.029499,784.86 18.34013,-34.032291,777.24 18.340891,-34.034454,777.24 18.3419,-34.03743,777.24 18.342403,-34.039261,777.24 18.342819,-34.04221,769.62 18.342934,-34.04435,769.62 18.342762,-34.047703,762 18.342628,-34.049698,754.38 18.34219,-34.053333,746.76 18.341904,-34.05529,739.14 18.341114,-34.058533,739.14 18.340553,-34.060547,739.14 18.339443,-34.063717,731.52 18.338816,-34.065582,731.52 18.338032,-34.068741,731.52 18.338425,-34.070847,731.52 18.341059,-34.07254,754.38 18.342964,-34.07222,762 18.344814,-34.070526,762 18.34487,-34.069153,754.38 18.342819,-34.06744,731.52 18.340946,-34.067734,693.42 18.339153,-34.070023,655.32 18.339041,-34.072083,647.7 18.339489,-34.0746,640.08 18.340015,-34.076611,640.08 18.340759,-34.079544,647.7 18.341331,-34.081451,647.7 18.342516,-34.084488,647.7 18.343506,-34.086338,647.7 18.345451,-34.089134,647.7 18.346996,-34.090717,647.7 18.349915,-34.092911,647.7 18.35186,-34.093975,647.7 18.355127,-34.095657,647.7 18.357239,-34.096722,647.7 18.360453,-34.098358,647.7 18.362274,-34.099281,647.7 18.36561,-34.100693,655.32 18.367767,-34.101563,655.32 18.3708,-34.102726,655.32 18.373121,-34.103668,655.32 18.376122,-34.104916,655.32 18.378353,-34.105846,655.32 18.381386,-34.107101,655.32 18.383789,-34.108032,647.7 18.389225,-34.110268,640.08 18.392515,-34.111771,640.08 18.395765,-34.113281,647.7 18.397896,-34.114197,647.7 18.401035,-34.11557,647.7 18.40451,-34.117126,647.7 18.407478,-34.118462,647.7 18.409555,-34.11937,647.7 18.412743,-34.120834,647.7 18.41486,-34.121861,647.7 18.417835,-34.123348,640.08 18.419588,-34.124268,632.46 18.422413,-34.125816,632.46 18.424185,-34.126831,640.08 18.426706,-34.128387,647.7 18.428556,-34.129395,647.7 18.431528,-34.130768,655.32 18.433456,-34.131451,655.32 18.437004,-34.13224,655.32 18.43935,-34.132381,655.32 18.442783,-34.131962,662.94 18.444981,-34.131363,655.32 18.448505,-34.130005,655.32 18.450584,-34.128983,655.32 18.454229,-34.126877,647.7 18.45623,-34.125675,647.7 18.459148,-34.123814,647.7 18.461403,-34.122391,647.7 18.464375,-34.120377,647.7 18.46656,-34.118683,655.32 18.469162,-34.11618,647.7 18.470764,-34.114243,647.7 18.472614,-34.111313,647.7 18.473623,-34.10907,655.32 18.474598,-34.105518,655.32 18.474941,-34.103611,655.32 18.475361,-34.100098,655.32 18.475473,-34.097946,640.08 18.475628,-34.094486,632.46 18.475641,-34.092041,617.22 18.475754,-34.088287,609.6 18.475922,-34.083389,586.74 18.476482,-34.073044,548.64 18.476372,-34.070419,533.4 18.476315,-34.066833,518.16 18.476257,-34.064461,510.54 18.47637,-34.06041,510.54 18.476486,-34.058174,510.54 18.476944,-34.050915,510.54 18.477631,-34.042347,502.92 18.478556,-34.032669,495.3 18.478661,-34.030197,495.3 18.478668,-34.026443,495.3 18.478603,-34.024239,502.92 18.478489,-34.020794,502.92 18.478331,-34.018387,502.92 18.477715,-34.007217,502.92 18.477402,-33.997749,487.68 18.477659,-33.993851,487.68 18.477827,-33.991379,487.68 18.47822,-33.9879,487.68 18.478443,-33.985428,487.68 18.478836,-33.981812,480.06 18.479118,-33.978989,480.06 18.479576,-33.975311,480.06 18.4799,-33.972931,480.06 18.480549,-33.969307,472.44 18.480909,-33.966705,464.82 18.481525,-33.96254,449.58 18.481806,-33.959747,441.96 18.482143,-33.955811,419.1 18.482265,-33.952827,403.86 18.482208,-33.949104,396.24 18.481976,-33.946426,388.62 18.48135,-33.942585,373.38 18.480629,-33.940018,365.76 18.479233,-33.936443,358.14 18.478088,-33.934162,350.52 18.475641,-33.93045,342.9 18.473846,-33.928253,342.9 18.470539,-33.924637,335.28 18.468819,-33.922848,335.28 18.465775,-33.919739,335.28 18.463869,-33.917816,335.28 18.460865,-33.914936,335.28 18.458994,-33.91301,335.28 18.456516,-33.910324,335.28 18.455238,-33.908798,335.28 18.453083,-33.906231,320.04 18.451824,-33.904694,320.04 18.450081,-33.902481,304.8 18.448849,-33.90097,297.18 18.447018,-33.898781,281.94 18.445873,-33.897526,266.7 18.443634,-33.895844,236.22 18.441868,-33.895012,220.98 18.438148,-33.894405,190.5 18.436203,-33.894592,167.64 18.433601,-33.895203,144.78 18.432198,-33.89571,137.16 18.42951,-33.896805,106.68 18.428444,-33.897491,91.44 18.427435,-33.898682,76.2 18.427162,-33.89957,60.96 18.426819,-33.900513,53.34 18.427155,-33.900833,45.72
        </coordinates>
      </LineString>
    </Placemark>
  </Document>
</kml>