<?xml version="1.0" encoding="UTF-8"?>
<kml xmlns="http://www.opengis.net/kml/2.2">
  <Document>
    <name>-/ZTHOT - Optimised</name>
    <description><![CDATA[Optimised flight path with 199 points (decimated from 994 original points). Source format: Standard KML]]></description>
    
    <Style id="flightPath">
      <LineStyle>
        <color>ffff0000</color>
        <width>3</width>
      </LineStyle>
    </Style>
    
    <Placemark>
      <name>Flight Path</name>
      <description><![CDATA[<div style="width:220px; text-align:center;">
<div style="width:210px; text-align:center;">
<div style=" background: #000; color: #fff; font-size: 14px; text-align:left; border: 1px solid #000; padding: 2px 6px; text-shadow: 0 1px 0 #000; box-shadow: 0 1px 3px rgba(0,0,0,0.6); background: -webkit-gradient(linear, left top, left bottom, color-stop(0%,#808080), color-stop(2%,#303030), color-stop(100%,#0c0c0c));"><span style="font-size: 14px; font-weight: bold;"><a href="javascript:void(0);" style="color: #fff; cursor: pointer;text-decoration: none;">-</a></span> / ZTHOT<br/>Cape Town Helicopters</div>

<div style="border-top: 1px solid #005c90; color: #fff; padding-bottom: 5px; box-shadow: 0 0 1px #9BE3F6 inset, 0 1px 0 #9BE3F6 inset, 0 -1px 3px rgba(0,0,0,0.4); background:rgba(43,114,173,1); background: -webkit-gradient(linear, left top, left bottom, color-stop(0%,rgba(92,184,229,1)), color-stop(100%,rgba(43,114,173,1)));">
<a style="text-decoration: none; color: rgb(255, 255, 255); font-size: 12px; width:77px; display: inline-block;" title=" Airport" href="javascript:void(0);/departures"><h3 style="padding: 0px; margin: 10px 0px 0px; font-size: 16px; ">?</h3></a>
<span style="background: url(https://www.flightradar24.com/static/images/userUI_sprite.png?14) no-repeat scroll 0 -464px rgba(0, 0, 0, 0); border: medium none; display: inline-block; height: 16px; width: 45px;"></span>
<a style="text-decoration: none; color: rgb(255, 255, 255); font-size: 12px; width:77px; display: inline-block;" title=" Airport" href="javascript:void(0);/arrivals"><h3 style="padding: 0px; margin: 10px 0px 0px; font-size: 16px;">?</h3></a>
<div style=" margin-top:10px;">
<div style="display: inline-block; font-size: 12px; padding: 0 5px;">
<div>
<span style="color: #c1eaff;" title="Actual Time of Departure">ATD </span>
<span title="2025-03-21 10:52">10:52</span> <span title="Coordinated Universal Time">UTC</span>
</div>
</div>
<div style="display: inline-block; font-size: 12px; padding: 0 5px;">
<div>
<span style="color: #c1eaff;" title="Estimated Time of Arrival">ETA </span>
<span title="2025-03-21 11:14">11:14</span> <span title="Coordinated Universal Time">UTC</span>
</div>
</div>
</div>
<br style="clear: both;"/>
</div>

<div style="display: block;">
<table style="border-collapse: collapse; width: 100%;">
<tr style="border-right: 1px solid #dadada; ">
<td style="background: none repeat scroll 0 0 #dadada; padding: 0; width: 31px;">
<span style="background: url(https://www.flightradar24.com/static/images/userUI_sprite.png?14) no-repeat scroll -208px -464px rgba(0, 0, 0, 0); height: 26px; margin: 8px 0 0 4px; width: 23px; display: block;"></span>
</td>
<td colspan="2" style="border-bottom: 1px solid #dadada; border-left: 1px solid #dadada; color: #666; line-height: 1.1em; padding: 3px 6px; vertical-align: top; font-size: 14px;">
Aircraft<span style="float: right; font-size: 12px;">(AS50)</span><br>
<span style="color: #333; font-size: 16px; font-weight: bold; line-height: 1.3em;">Airbus Helicopters H125</span>
</td>
</tr>
<tr style="border-right: 1px solid #dadada; ">
<td style="background: none repeat scroll 0 0 #dadada; padding: 0; width: 31px;">
<td colspan="2" style="border-bottom: 1px solid #dadada; border-left: 1px solid #dadada; color: #666; line-height: 1.1em; padding: 3px 6px; vertical-align: top; font-size: 14px;">
Registration<br>
<span style="color: #333; font-size: 16px; font-weight: bold; line-height: 1.3em;"><a href="https://www.flightradar24.com/reg/zt-hot" style="text-decoration: none; color: #333;">ZT-HOT</a></span>
</td>
</tr>
</table>
</div>

</div>
</div>]]></description>
      <styleUrl>#flightPath</styleUrl>
      <LineString>
        <extrude>1</extrude>
        <tessellate>1</tessellate>
        <altitudeMode>absolute</altitudeMode>
        <coordinates>
          18.427155,-33.900146,60.96 18.428556,-33.898956,60.96 18.429623,-33.898129,91.44 18.431969,-33.89571,152.4 18.432884,-33.894451,152.4 18.432928,-33.892639,182.88 18.43214,-33.891285,182.88 18.43063,-33.889801,213.36 18.428949,-33.889206,213.36 18.426483,-33.888657,243.84 18.424644,-33.888351,274.32 18.421942,-33.888016,304.8 18.419895,-33.88784,304.8 18.41692,-33.887608,335.28 18.414991,-33.887604,365.76 18.412132,-33.887604,396.24 18.410172,-33.887695,396.24 18.407145,-33.887787,457.2 18.405018,-33.888027,457.2 18.402214,-33.888306,487.68 18.400497,-33.888493,487.68 18.397503,-33.889114,518.16 18.395462,-33.889751,518.16 18.392086,-33.891006,548.64 18.39016,-33.891769,548.64 18.387077,-33.893143,548.64 18.385227,-33.894104,548.64 18.381786,-33.896175,579.12 18.379955,-33.897339,579.12 18.377209,-33.8992,609.6 18.375027,-33.900742,609.6 18.372002,-33.902832,609.6 18.367851,-33.905823,609.6 18.36516,-33.908066,609.6 18.363533,-33.90958,609.6 18.361013,-33.91214,640.08 18.359444,-33.913971,640.08 18.357697,-33.91703,640.08 18.357353,-33.918983,640.08 18.358042,-33.921799,670.56 18.359779,-33.923309,670.56 18.363144,-33.923996,670.56 18.365105,-33.924591,670.56 18.36729,-33.927017,701.04 18.367424,-33.929085,701.04 18.366562,-33.93219,701.04 18.365553,-33.934341,701.04 18.363703,-33.937317,670.56 18.362331,-33.939327,670.56 18.360172,-33.942398,640.08 18.358784,-33.944401,640.08 18.356642,-33.947433,640.08 18.353519,-33.951618,640.08 18.342533,-33.967445,609.6 18.338425,-33.975357,579.12 18.3395,-33.984482,609.6 18.34156,-33.989651,609.6 18.348198,-34.001244,640.08 18.351688,-34.007526,640.08 18.352606,-34.010559,701.04 18.353109,-34.01239,701.04 18.353748,-34.015533,731.52 18.353838,-34.017471,731.52 18.353748,-34.020374,731.52 18.353615,-34.022507,762 18.353519,-34.025635,762 18.353558,-34.028046,762 18.354006,-34.034592,762 18.354263,-34.037273,731.52 18.354624,-34.040634,731.52 18.354959,-34.043015,701.04 18.356192,-34.052902,670.56 18.356865,-34.055557,670.56 18.35804,-34.058872,670.56 18.359013,-34.061295,670.56 18.360558,-34.06488,670.56 18.361629,-34.066864,670.56 18.363419,-34.069954,670.56 18.364656,-34.071899,670.56 18.366898,-34.07515,670.56 18.36834,-34.077076,670.56 18.370598,-34.080048,640.08 18.374691,-34.086338,640.08 18.380756,-34.094162,640.08 18.382313,-34.095978,670.56 18.384779,-34.098541,670.56 18.386574,-34.100189,670.56 18.388983,-34.102386,670.56 18.390827,-34.103889,670.56 18.393579,-34.106049,670.56 18.395748,-34.107708,670.56 18.398905,-34.109894,670.56 18.401012,-34.11134,701.04 18.404102,-34.113293,701.04 18.406416,-34.114746,701.04 18.409595,-34.116737,670.56 18.413887,-34.119534,670.56 18.424988,-34.12698,609.6 18.432312,-34.131451,609.6 18.436123,-34.132965,609.6 18.438721,-34.13308,609.6 18.442154,-34.131496,609.6 18.444082,-34.12999,609.6 18.447054,-34.127655,579.12 18.449127,-34.126053,579.12 18.45211,-34.123676,548.64 18.453949,-34.121841,548.64 18.455715,-34.118462,548.64 18.455854,-34.116394,548.64 18.454845,-34.113281,579.12 18.453712,-34.111294,579.12 18.451874,-34.1082,609.6 18.450851,-34.106499,609.6 18.449072,-34.103394,609.6 18.448118,-34.101517,609.6 18.441925,-34.09132,609.6 18.440609,-34.089367,579.12 18.43832,-34.08662,579.12 18.436317,-34.084572,579.12 18.433514,-34.081406,579.12 18.431864,-34.079636,579.12 18.429279,-34.076611,548.64 18.427219,-34.073818,548.64 18.425846,-34.070187,548.64 18.425417,-34.068192,548.64 18.424759,-34.064926,548.64 18.424416,-34.062691,548.64 18.423214,-34.059059,548.64 18.421606,-34.056061,548.64 18.419838,-34.053009,548.64 18.418524,-34.050797,548.64 18.416748,-34.047981,579.12 18.415497,-34.045029,579.12 18.415833,-34.041512,579.12 18.416576,-34.039276,579.12 18.41729,-34.036469,579.12 18.417963,-34.03418,609.6 18.419209,-34.030849,640.08 18.419552,-34.028011,640.08 18.418131,-34.02507,640.08 18.41629,-34.023449,670.56 18.413429,-34.021679,701.04 18.411884,-34.019909,701.04 18.4128,-34.015907,701.04 18.41423,-34.014091,701.04 18.416616,-34.011566,701.04 18.418236,-34.009808,701.04 18.420753,-34.007156,701.04 18.422642,-34.005665,670.56 18.426247,-34.003429,670.56 18.428593,-34.002174,670.56 18.432312,-34.000305,670.56 18.43461,-33.999252,701.04 18.43832,-33.997517,670.56 18.440552,-33.996494,640.08 18.444557,-33.99482,640.08 18.453892,-33.990372,609.6 18.457317,-33.988255,548.64 18.459949,-33.986393,548.64 18.462973,-33.984009,518.16 18.465439,-33.982086,518.16 18.468361,-33.979736,487.68 18.470535,-33.977779,457.2 18.473225,-33.974941,457.2 18.475056,-33.972984,426.72 18.477631,-33.9701,396.24 18.479004,-33.968124,396.24 18.480461,-33.964737,396.24 18.481077,-33.962723,396.24 18.482208,-33.959347,365.76 18.482895,-33.957344,365.76 18.483753,-33.954224,365.76 18.484211,-33.952084,365.76 18.484726,-33.948917,365.76 18.484945,-33.946609,335.28 18.484898,-33.943237,365.76 18.48461,-33.941208,365.76 18.483524,-33.93784,335.28 18.482534,-33.935898,335.28 18.480797,-33.932831,335.28 18.479733,-33.931091,335.28 18.477116,-33.928574,304.8 18.475056,-33.927273,304.8 18.471508,-33.925407,274.32 18.469048,-33.924244,274.32 18.465557,-33.922523,274.32 18.463154,-33.921452,274.32 18.457146,-33.918285,243.84 18.455029,-33.91703,213.36 18.45211,-33.915169,182.88 18.450249,-33.913925,182.88 18.447557,-33.912048,182.88 18.44582,-33.910904,152.4 18.437691,-33.905392,121.92 18.43405,-33.90303,91.44 18.43174,-33.901714,60.96 18.430939,-33.901295,60.96 18.428764,-33.900272,60.96 18.42802,-33.90041,60.96
        </coordinates>
      </LineString>
    </Placemark>
  </Document>
</kml>