<?xml version="1.0" encoding="UTF-8"?>
<kml xmlns="http://www.opengis.net/kml/2.2">
  <Document>
    <name>-/ZTRNW - Optimised</name>
    <description><![CDATA[Optimised flight path with 794 points (decimated from 3966 original points). Source format: Standard KML]]></description>
    
    <Style id="flightPath">
      <LineStyle>
        <color>ffff0000</color>
        <width>3</width>
      </LineStyle>
    </Style>
    
    <Placemark>
      <name>Flight Path</name>
      <description><![CDATA[<div style="width:220px; text-align:center;">
<div style="width:210px; text-align:center;">
<div style=" background: #000; color: #fff; font-size: 14px; text-align:left; border: 1px solid #000; padding: 2px 6px; text-shadow: 0 1px 0 #000; box-shadow: 0 1px 3px rgba(0,0,0,0.6); background: -webkit-gradient(linear, left top, left bottom, color-stop(0%,#808080), color-stop(2%,#303030), color-stop(100%,#0c0c0c));"><span style="font-size: 14px; font-weight: bold;"><a href="javascript:void(0);" style="color: #fff; cursor: pointer;text-decoration: none;">-</a></span> / ZTRNW<br/>Private owner</div>

<div style="border-top: 1px solid #005c90; color: #fff; padding-bottom: 5px; box-shadow: 0 0 1px #9BE3F6 inset, 0 1px 0 #9BE3F6 inset, 0 -1px 3px rgba(0,0,0,0.4); background:rgba(43,114,173,1); background: -webkit-gradient(linear, left top, left bottom, color-stop(0%,rgba(92,184,229,1)), color-stop(100%,rgba(43,114,173,1)));">
<a style="text-decoration: none; color: rgb(255, 255, 255); font-size: 12px; width:77px; display: inline-block;" title="Cape Town Airport" href="https://www.flightradar24.com/airport/cpt/departures"><h3 style="padding: 0px; margin: 10px 0px 0px; font-size: 16px; ">CPT</h3>Cape Town</a>
<span style="background: url(https://www.flightradar24.com/static/images/userUI_sprite.png?14) no-repeat scroll 0 -464px rgba(0, 0, 0, 0); border: medium none; display: inline-block; height: 16px; width: 45px;"></span>
<a style="text-decoration: none; color: rgb(255, 255, 255); font-size: 12px; width:77px; display: inline-block;" title=" Airport" href="javascript:void(0);/arrivals"><h3 style="padding: 0px; margin: 10px 0px 0px; font-size: 16px;">?</h3></a>
<div style=" margin-top:10px;">
<div style="display: inline-block; font-size: 12px; padding: 0 5px;">
<div>
<span style="color: #c1eaff;" title="Actual Time of Departure">ATD </span>
<span title="2025-12-18 07:00">07:00</span> <span title="Coordinated Universal Time">UTC</span>
</div>
</div>
<div style="display: inline-block; font-size: 12px; padding: 0 5px;">
<div>
<span style="color: #c1eaff;" title="Estimated Time of Arrival">ETA </span>
<span title="2025-12-18 07:16">07:16</span> <span title="Coordinated Universal Time">UTC</span>
</div>
</div>
</div>
<br style="clear: both;"/>
</div>

<div style="display: block;">
<table style="border-collapse: collapse; width: 100%;">
<tr style="border-right: 1px solid #dadada; ">
<td style="background: none repeat scroll 0 0 #dadada; padding: 0; width: 31px;">
<span style="background: url(https://www.flightradar24.com/static/images/userUI_sprite.png?14) no-repeat scroll -208px -464px rgba(0, 0, 0, 0); height: 26px; margin: 8px 0 0 4px; width: 23px; display: block;"></span>
</td>
<td colspan="2" style="border-bottom: 1px solid #dadada; border-left: 1px solid #dadada; color: #666; line-height: 1.1em; padding: 3px 6px; vertical-align: top; font-size: 14px;">
Aircraft<span style="float: right; font-size: 12px;">(EC20)</span><br>
<span style="color: #333; font-size: 16px; font-weight: bold; line-height: 1.3em;">Airbus Helicopters H120</span>
</td>
</tr>
<tr style="border-right: 1px solid #dadada; ">
<td style="background: none repeat scroll 0 0 #dadada; padding: 0; width: 31px;">
<td colspan="2" style="border-bottom: 1px solid #dadada; border-left: 1px solid #dadada; color: #666; line-height: 1.1em; padding: 3px 6px; vertical-align: top; font-size: 14px;">
Registration<br>
<span style="color: #333; font-size: 16px; font-weight: bold; line-height: 1.3em;"><a href="https://www.flightradar24.com/reg/zt-rnw" style="text-decoration: none; color: #333;">ZT-RNW</a></span>
</td>
</tr>
</table>
</div>

</div>
</div>]]></description>
      <styleUrl>#flightPath</styleUrl>
      <LineString>
        <extrude>1</extrude>
        <tessellate>1</tessellate>
        <altitudeMode>absolute</altitudeMode>
        <coordinates>
          18.427492,-33.900742,0 18.429279,-33.901062,15.24 18.429852,-33.901154,30.48 18.430538,-33.901249,38.1 18.431023,-33.901291,38.1 18.432598,-33.901436,60.96 18.4338,-33.901386,76.2 18.436031,-33.900642,99.06 18.437302,-33.899368,121.92 18.437973,-33.896896,144.78 18.437918,-33.894928,152.4 18.437189,-33.891998,175.26 18.436403,-33.889938,190.5 18.43483,-33.887005,213.36 18.433456,-33.885094,228.6 18.430767,-33.88216,236.22 18.428669,-33.880508,251.46 18.425388,-33.878716,274.32 18.423042,-33.877926,289.56 18.418865,-33.877319,304.8 18.416233,-33.877228,320.04 18.412189,-33.877441,342.9 18.409891,-33.877762,358.14 18.406248,-33.878448,381 18.404118,-33.878998,396.24 18.400866,-33.879913,403.86 18.398457,-33.880737,419.1 18.395094,-33.882156,434.34 18.392944,-33.883278,441.96 18.389656,-33.885223,457.2 18.387693,-33.886551,472.44 18.384933,-33.888584,480.06 18.383045,-33.890076,487.68 18.380127,-33.892502,502.92 18.378164,-33.894196,510.54 18.375755,-33.896347,518.16 18.374062,-33.897991,525.78 18.371773,-33.90041,533.4 18.370113,-33.902134,541.02 18.367996,-33.904507,541.02 18.366508,-33.906277,548.64 18.364563,-33.908649,548.64 18.363199,-33.910446,548.64 18.361187,-33.913166,556.26 18.359985,-33.914841,571.5 18.358383,-33.917309,571.5 18.35701,-33.919266,571.5 18.354792,-33.922028,586.74 18.353291,-33.923733,586.74 18.350811,-33.926285,601.98 18.349241,-33.927933,609.6 18.346882,-33.930531,609.6 18.345205,-33.932556,609.6 18.343163,-33.93523,617.22 18.341843,-33.937042,617.22 18.339937,-33.939835,624.84 18.33876,-33.941574,624.84 18.336926,-33.944588,624.84 18.335781,-33.946449,624.84 18.334219,-33.948944,632.46 18.333092,-33.950733,640.08 18.33149,-33.953388,647.7 18.330521,-33.95517,655.32 18.327606,-33.960709,662.94 18.325924,-33.964096,670.56 18.318693,-33.977188,701.04 18.315163,-33.984283,716.28 18.312023,-33.990784,731.52 18.311234,-33.992489,746.76 18.310146,-33.994957,746.76 18.309332,-33.996872,754.38 18.308372,-33.999519,762 18.307686,-34.001663,777.24 18.30677,-34.004688,784.86 18.306194,-34.006531,792.48 18.305111,-34.009716,777.24 18.304424,-34.011669,777.24 18.303165,-34.014557,777.24 18.302364,-34.01651,777.24 18.301277,-34.019257,777.24 18.300644,-34.021179,777.24 18.299561,-34.024193,777.24 18.298645,-34.026287,777.24 18.297562,-34.029007,784.86 18.296946,-34.030609,784.86 18.296185,-34.033409,800.1 18.295767,-34.035141,807.72 18.296242,-34.037506,838.2 18.297394,-34.038345,868.68 18.299618,-34.037273,906.78 18.300308,-34.035187,906.78 18.30126,-34.032166,899.16 18.302307,-34.029594,883.92 18.304287,-34.02562,861.06 18.30534,-34.02354,853.44 18.307285,-34.02005,845.82 18.308601,-34.017723,838.2 18.310719,-34.013996,822.96 18.312149,-34.011623,807.72 18.314434,-34.008087,800.1 18.315697,-34.006084,784.86 18.317852,-34.002594,762 18.319199,-34.000351,754.38 18.321533,-33.996494,739.14 18.326036,-33.98909,716.28 18.337023,-33.970825,640.08 18.34173,-33.962952,662.94 18.347168,-33.952469,617.22 18.351002,-33.945797,609.6 18.353502,-33.94162,617.22 18.354836,-33.939327,609.6 18.357313,-33.935165,609.6 18.358435,-33.93338,609.6 18.360672,-33.929737,617.22 18.361816,-33.92783,624.84 18.36359,-33.924759,617.22 18.364937,-33.92244,617.22 18.368019,-33.916855,586.74 18.369598,-33.914375,586.74 18.371719,-33.911316,571.5 18.37326,-33.90921,571.5 18.375492,-33.906464,556.26 18.377037,-33.904552,548.64 18.379398,-33.902023,541.02 18.381386,-33.90004,541.02 18.384247,-33.897476,525.78 18.386021,-33.89608,518.16 18.389626,-33.893566,495.3 18.392086,-33.891983,487.68 18.395653,-33.890076,480.06 18.398209,-33.888821,472.44 18.402386,-33.887005,457.2 18.404846,-33.885887,449.58 18.408434,-33.884262,449.58 18.410797,-33.883278,457.2 18.414207,-33.881973,457.2 18.416336,-33.881332,449.58 18.419495,-33.880718,426.72 18.421551,-33.880646,419.1 18.424301,-33.880905,403.86 18.42556,-33.881279,396.24 18.427322,-33.882339,365.76 18.42802,-33.883186,350.52 18.428764,-33.884861,335.28 18.428993,-33.885792,312.42 18.42934,-33.887192,281.94 18.429453,-33.888153,259.08 18.429678,-33.889618,220.98 18.429794,-33.890587,198.12 18.429852,-33.892078,167.64 18.429794,-33.893009,144.78 18.429453,-33.894379,114.3 18.429062,-33.895386,91.44 18.428478,-33.896687,68.58 18.428053,-33.897446,45.72 18.42766,-33.898315,22.86 18.427505,-33.898827,7.62 18.427219,-33.89962,0 18.427044,-33.900101,0 18.426991,-33.900784,0 18.427435,-33.900696,0 18.420683,-34.12513,571.5 18.423159,-34.126396,563.88 18.42647,-34.12796,533.4 18.428822,-34.129021,525.78 18.432316,-34.131031,525.78 18.434448,-34.132099,510.54 18.437885,-34.133907,502.92 18.441101,-34.135342,495.3 18.445004,-34.136292,502.92 18.447821,-34.135826,502.92 18.451225,-34.133553,480.06 18.452902,-34.130985,472.44 18.45512,-34.127537,449.58 18.457237,-34.125298,426.72 18.461172,-34.122738,403.86 18.46413,-34.120968,396.24 18.468018,-34.118408,388.62 18.474688,-34.113785,388.62 18.478275,-34.11113,403.86 18.480034,-34.108685,419.1 18.479507,-34.104996,457.2 18.477211,-34.103119,449.58 18.473167,-34.101421,441.96 18.470364,-34.100166,434.34 18.466673,-34.097351,441.96 18.465046,-34.094742,434.34 18.464207,-34.090805,426.72 18.464317,-34.088196,411.48 18.464878,-34.083755,419.1 18.465157,-34.081081,426.72 18.465729,-34.076611,441.96 18.466015,-34.074188,449.58 18.466816,-34.066135,457.2 18.467962,-34.056152,472.44 18.469419,-34.041595,495.3 18.469505,-34.038998,495.3 18.469587,-34.035049,502.92 18.469677,-34.0322,502.92 18.469734,-34.025589,502.92 18.470078,-34.01614,518.16 18.470821,-34.004128,541.02 18.471279,-34.000263,563.88 18.471909,-33.996307,571.5 18.472366,-33.993515,579.12 18.473225,-33.989651,571.5 18.474014,-33.986938,563.88 18.474913,-33.983047,556.26 18.475193,-33.980438,548.64 18.475456,-33.976196,541.02 18.475742,-33.973312,525.78 18.47683,-33.969028,487.68 18.477859,-33.96656,487.68 18.479677,-33.962402,480.06 18.480909,-33.959747,464.82 18.482592,-33.956039,464.82 18.483524,-33.953293,434.34 18.484442,-33.94899,403.86 18.484497,-33.946262,403.86 18.483601,-33.942215,365.76 18.482479,-33.939468,350.52 18.480206,-33.93565,335.28 18.4785,-33.933105,320.04 18.475754,-33.929489,297.18 18.473846,-33.927109,274.32 18.470877,-33.92363,259.08 18.468353,-33.920837,243.84 18.465158,-33.917496,228.6 18.46314,-33.91539,205.74 18.459833,-33.912003,205.74 18.457947,-33.910091,198.12 18.454628,-33.906834,190.5 18.451706,-33.903763,205.74 18.448904,-33.90065,160.02 18.446718,-33.89827,198.12 18.443699,-33.895149,205.74 18.441616,-33.893005,198.12 18.438835,-33.890263,175.26 18.436947,-33.888584,175.26 18.433342,-33.886353,190.5 18.431396,-33.886166,190.5 18.429966,-33.887653,167.64 18.429453,-33.888931,144.78 18.428764,-33.890961,121.92 18.428276,-33.892502,106.68 18.427773,-33.894608,83.82 18.427563,-33.895802,68.58 18.427322,-33.897491,45.72 18.427277,-33.89827,30.48 18.427219,-33.899155,7.62 18.427155,-33.899689,0 18.427219,-33.90041,0 18.334482,-33.967911,1036.32 18.328171,-33.97699,1036.32 18.327484,-33.979084,1021.08 18.326397,-33.982388,1028.7 18.325811,-33.984558,1036.32 18.324623,-33.987789,1036.32 18.323936,-33.989559,1036.32 18.322506,-33.992908,1036.32 18.32172,-33.994812,1036.32 18.320486,-33.998291,1059.18 18.319874,-34.000263,1066.8 18.319874,-34.003475,1074.42 18.320431,-34.005157,1074.42 18.322001,-34.00795,1074.42 18.323307,-34.009995,1074.42 18.325195,-34.0126,1089.66 18.32634,-34.014183,1104.9 18.32777,-34.016373,1120.14 18.328726,-34.017792,1127.76 18.33024,-34.020126,1127.76 18.331203,-34.021725,1135.38 18.332634,-34.024101,1135.38 18.333778,-34.025543,1135.38 18.335733,-34.027267,1143 18.337358,-34.02832,1143 18.339787,-34.029827,1150.62 18.34173,-34.030975,1150.62 18.344307,-34.032387,1150.62 18.346327,-34.033493,1150.62 18.348289,-34.035553,1135.38 18.34868,-34.037796,1112.52 18.347841,-34.041046,1082.04 18.347223,-34.043198,1082.04 18.346495,-34.046494,1066.8 18.346046,-34.048508,1051.56 18.345318,-34.051895,1036.32 18.344814,-34.054321,1013.46 18.344135,-34.057941,990.6 18.343748,-34.059952,982.98 18.342991,-34.063622,975.36 18.342533,-34.065811,967.74 18.341675,-34.069626,960.12 18.341282,-34.071533,960.12 18.340702,-34.075169,960.12 18.34033,-34.077576,960.12 18.339882,-34.08078,967.74 18.339787,-34.082756,960.12 18.339882,-34.085587,944.88 18.34013,-34.08783,944.88 18.340473,-34.091042,929.64 18.340553,-34.093185,922.02 18.340645,-34.096256,914.4 18.341114,-34.098404,906.78 18.342304,-34.101097,899.16 18.343748,-34.102844,891.54 18.34672,-34.104492,883.92 18.349018,-34.104858,868.68 18.353222,-34.105499,845.82 18.355743,-34.105865,838.2 18.359642,-34.106499,838.2 18.36216,-34.107101,830.58 18.366169,-34.108109,800.1 18.368797,-34.108917,784.86 18.372728,-34.110077,769.62 18.375475,-34.110901,762 18.37944,-34.111992,754.38 18.381729,-34.11264,746.76 18.385508,-34.113647,746.76 18.387918,-34.114334,739.14 18.391787,-34.115662,731.52 18.393972,-34.116394,723.9 18.397751,-34.117764,708.66 18.40004,-34.118599,693.42 18.406849,-34.12093,655.32 18.415497,-34.123672,617.22 18.421551,-34.125732,601.98 18.423958,-34.126747,579.12 18.42762,-34.128376,548.64 18.430023,-34.129448,525.78 18.433489,-34.131088,518.16 18.436012,-34.13237,518.16 18.439236,-34.133915,502.92 18.441616,-34.135025,495.3 18.445597,-34.135986,502.92 18.448277,-34.135544,510.54 18.451763,-34.133194,495.3 18.453611,-34.130951,480.06 18.456173,-34.127354,457.2 18.45804,-34.125183,434.34 18.461403,-34.122253,411.48 18.463669,-34.120697,403.86 18.467625,-34.118134,388.62 18.470091,-34.116577,396.24 18.473959,-34.113922,403.86 18.476313,-34.112091,403.86 18.478661,-34.108871,419.1 18.478949,-34.10614,426.72 18.477402,-34.102352,403.86 18.475473,-34.100052,381 18.472446,-34.096619,381 18.470709,-34.093414,388.62 18.47002,-34.088806,381 18.470192,-34.085922,373.38 18.470652,-34.081558,373.38 18.470989,-34.078903,381 18.471451,-34.074471,373.38 18.471718,-34.07135,381 18.471909,-34.067348,388.62 18.471909,-34.064739,403.86 18.471828,-34.060684,411.48 18.471737,-34.057758,419.1 18.471548,-34.053772,419.1 18.471394,-34.050961,419.1 18.471165,-34.044163,419.1 18.470879,-34.035458,419.1 18.470652,-34.020538,434.34 18.470478,-34.017673,441.96 18.470036,-34.013992,449.58 18.469849,-34.011017,457.2 18.46998,-34.006851,457.2 18.470203,-34.004196,464.82 18.470707,-34.000778,464.82 18.471222,-33.997845,464.82 18.472109,-33.993896,457.2 18.472767,-33.991188,457.2 18.473969,-33.987278,457.2 18.4748,-33.984695,457.2 18.476257,-33.980576,457.2 18.477116,-33.978107,457.2 18.478432,-33.973824,449.58 18.479176,-33.971123,434.34 18.480238,-33.967072,426.72 18.481134,-33.964005,411.48 18.483238,-33.956879,403.86 18.48461,-33.951462,396.24 18.484554,-33.946915,381 18.483925,-33.944496,373.38 18.482094,-33.940304,388.62 18.480663,-33.937698,396.24 18.4785,-33.934204,388.62 18.476706,-33.931595,381 18.474312,-33.928341,358.14 18.472538,-33.92606,335.28 18.469419,-33.92244,297.18 18.467445,-33.920334,266.7 18.464149,-33.916901,236.22 18.462299,-33.91507,228.6 18.459034,-33.911957,205.74 18.456919,-33.909988,205.74 18.452682,-33.90609,175.26 18.450508,-33.9039,175.26 18.447418,-33.900921,167.64 18.445301,-33.899059,167.64 18.442457,-33.896576,160.02 18.440266,-33.89473,152.4 18.437176,-33.892403,152.4 18.434555,-33.891083,144.78 18.430309,-33.890167,129.54 18.428331,-33.890671,121.92 18.427435,-33.892365,106.68 18.427334,-33.893612,91.44 18.427277,-33.895523,60.96 18.427219,-33.896591,45.72 18.427162,-33.897709,30.48 18.427105,-33.89827,22.86 18.427044,-33.899185,7.62 18.427099,-33.899734,0 18.427277,-33.900455,0 18.427734,-33.900642,22.86 18.428612,-33.900742,22.86 18.429279,-33.900829,30.48 18.431135,-33.900742,45.72 18.432941,-33.900364,60.96 18.435116,-33.899155,83.82 18.436146,-33.897663,99.06 18.436546,-33.89436,121.92 18.43646,-33.892365,137.16 18.43626,-33.889332,160.02 18.436068,-33.886917,175.26 18.435452,-33.883987,205.74 18.434275,-33.882065,220.98 18.431808,-33.879593,243.84 18.429621,-33.878082,251.46 18.426476,-33.876251,281.94 18.424416,-33.875271,304.8 18.420822,-33.873871,335.28 18.418121,-33.873085,365.76 18.414402,-33.872387,388.62 18.411797,-33.872131,411.48 18.408337,-33.872105,434.34 18.405968,-33.872223,449.58 18.402443,-33.872807,480.06 18.399982,-33.873409,487.68 18.396887,-33.874557,518.16 18.395037,-33.875381,541.02 18.392067,-33.876892,563.88 18.390553,-33.877808,579.12 18.388199,-33.87941,601.98 18.38625,-33.880814,617.22 18.383617,-33.882858,640.08 18.381901,-33.884304,640.08 18.379454,-33.886459,647.7 18.37801,-33.887794,647.7 18.375721,-33.890121,647.7 18.374241,-33.891678,647.7 18.371832,-33.894287,647.7 18.37015,-33.896027,647.7 18.367996,-33.898594,655.32 18.366674,-33.900284,662.94 18.364712,-33.903076,670.56 18.363132,-33.9053,670.56 18.361301,-33.908184,670.56 18.360228,-33.909897,670.56 18.358379,-33.912964,670.56 18.357182,-33.915028,670.56 18.351746,-33.924572,670.56 18.348457,-33.930817,678.18 18.345934,-33.936127,678.18 18.344536,-33.939327,685.8 18.342852,-33.943726,678.18 18.34219,-33.945847,670.56 18.341059,-33.949265,662.94 18.34013,-33.951756,655.32 18.338703,-33.954895,640.08 18.337751,-33.956543,632.46 18.331432,-33.965958,632.46 18.32682,-33.970276,624.84 18.317299,-33.969585,586.74 18.314264,-33.965012,594.36 18.311806,-33.968098,563.88 18.311634,-33.976803,525.78 18.309893,-33.98259,525.78 18.307932,-33.988358,541.02 18.305969,-33.99482,563.88 18.305454,-33.997658,571.5 18.304996,-34.000683,579.12 18.304625,-34.00296,586.74 18.304232,-34.006485,594.36 18.304007,-34.009369,601.98 18.303839,-34.012802,601.98 18.303452,-34.015675,609.6 18.302536,-34.019024,617.22 18.30143,-34.020905,624.84 18.298403,-34.027954,594.36 18.297955,-34.03006,586.74 18.296665,-34.032944,571.5 18.295441,-34.034805,563.88 18.294367,-34.038025,548.64 18.294758,-34.039902,541.02 18.295898,-34.042393,525.78 18.297337,-34.044846,510.54 18.299187,-34.047226,510.54 18.300589,-34.048691,510.54 18.303165,-34.051147,502.92 18.304625,-34.052582,495.3 18.306942,-34.054638,480.06 18.308661,-34.056061,472.44 18.31152,-34.058037,441.96 18.313522,-34.059341,419.1 18.317642,-34.061295,381 18.321272,-34.062424,350.52 18.328951,-34.068466,312.42 18.332033,-34.072861,350.52 18.334051,-34.074554,388.62 18.335381,-34.075493,403.86 18.337555,-34.077217,426.72 18.338593,-34.078766,434.34 18.339214,-34.081497,434.34 18.339443,-34.083267,441.96 18.34005,-34.085907,441.96 18.340816,-34.08783,441.96 18.342348,-34.090988,441.96 18.343334,-34.093136,441.96 18.344646,-34.096252,449.58 18.345263,-34.098083,457.2 18.346159,-34.101425,464.82 18.347113,-34.103577,464.82 18.349747,-34.106094,472.44 18.352325,-34.107376,464.82 18.356037,-34.108685,464.82 18.358498,-34.109478,457.2 18.36256,-34.110779,457.2 18.36525,-34.111664,457.2 18.368568,-34.112782,457.2 18.371143,-34.113667,449.58 18.374802,-34.114975,449.58 18.380072,-34.116852,449.58 18.392067,-34.120926,441.96 18.394476,-34.12175,449.58 18.398569,-34.123306,449.58 18.401203,-34.124313,457.2 18.413773,-34.129028,464.82 18.421383,-34.131916,472.44 18.424913,-34.133926,472.44 18.427162,-34.135406,487.68 18.430309,-34.137547,487.68 18.432426,-34.13876,495.3 18.435745,-34.140015,495.3 18.438534,-34.140564,502.92 18.442514,-34.140884,510.54 18.445036,-34.14093,525.78 18.449127,-34.140518,541.02 18.452042,-34.139832,533.4 18.455486,-34.138386,525.78 18.458118,-34.136944,525.78 18.461266,-34.134567,525.78 18.46314,-34.132919,518.16 18.466015,-34.130005,525.78 18.467905,-34.127747,525.78 18.470192,-34.124653,533.4 18.471622,-34.122513,533.4 18.473566,-34.119278,541.02 18.474884,-34.11739,541.02 18.477602,-34.114014,525.78 18.479061,-34.11171,518.16 18.480148,-34.107567,510.54 18.480406,-34.104721,502.92 18.480742,-34.100327,495.3 18.481302,-34.097855,502.92 18.482838,-34.093231,502.92 18.483656,-34.090668,495.3 18.484665,-34.086685,487.68 18.484898,-34.084152,487.68 18.484554,-34.079731,480.06 18.484154,-34.076889,487.68 18.483488,-34.07309,480.06 18.483067,-34.070328,487.68 18.482552,-34.066135,487.68 18.482199,-34.063248,487.68 18.481863,-34.059265,487.68 18.481693,-34.056454,495.3 18.481407,-34.052265,495.3 18.481236,-34.049564,502.92 18.480892,-34.045376,502.92 18.48032,-34.037086,510.54 18.480206,-34.031876,510.54 18.480148,-34.028801,518.16 18.480125,-34.025162,518.16 18.480206,-34.022236,510.54 18.480721,-34.018188,502.92 18.481808,-34.015629,502.92 18.483868,-34.012135,495.3 18.485281,-34.009323,495.3 18.486628,-34.005753,487.68 18.487415,-34.003105,480.06 18.488197,-33.999023,472.44 18.488365,-33.996048,464.82 18.488159,-33.991375,457.2 18.488085,-33.988358,449.58 18.488159,-33.983738,441.96 18.488331,-33.980946,434.34 18.488789,-33.976151,419.1 18.48896,-33.97308,419.1 18.488789,-33.968517,411.48 18.488533,-33.965607,403.86 18.486843,-33.961395,396.24 18.484669,-33.958973,373.38 18.481358,-33.955994,350.52 18.479397,-33.954025,335.28 18.476658,-33.950268,327.66 18.475361,-33.947296,327.66 18.474127,-33.942856,304.8 18.473167,-33.940399,297.18 18.471212,-33.936127,281.94 18.47002,-33.933136,266.7 18.468533,-33.929272,259.08 18.467457,-33.926559,251.46 18.465614,-33.92215,243.84 18.464542,-33.919693,228.6 18.462925,-33.915771,228.6 18.461403,-33.911865,236.22 18.459606,-33.907997,228.6 18.457947,-33.905392,228.6 18.455406,-33.902023,228.6 18.453669,-33.899963,220.98 18.450754,-33.896667,220.98 18.448792,-33.894497,213.36 18.445473,-33.891331,198.12 18.44285,-33.889297,190.5 18.438589,-33.886597,190.5 18.435787,-33.885269,190.5 18.430996,-33.884163,182.88 18.428307,-33.884491,175.26 18.425529,-33.886551,160.02 18.425331,-33.888214,144.78 18.425529,-33.890762,121.92 18.425732,-33.892216,106.68 18.426146,-33.89447,76.2 18.426371,-33.89566,60.96 18.426704,-33.897339,30.48 18.426762,-33.897896,22.86 18.426991,-33.899059,7.62 18.427105,-33.899666,0 18.427219,-33.900364,0 18.427734,-33.900642,7.62 18.429737,-33.900921,22.86 18.431135,-33.90097,53.34 18.433041,-33.900925,83.82 18.434544,-33.900597,91.44 18.436375,-33.899246,121.92 18.43729,-33.897526,152.4 18.437525,-33.894791,175.26 18.437244,-33.893051,198.12 18.436403,-33.890121,228.6 18.435631,-33.88826,243.84 18.4342,-33.885468,281.94 18.433153,-33.883896,304.8 18.431339,-33.881557,327.66 18.429852,-33.879974,358.14 18.427547,-33.877853,396.24 18.426018,-33.876621,419.1 18.423512,-33.874924,434.34 18.421774,-33.87442,472.44 18.41942,-33.875153,525.78 18.418692,-33.876389,556.26 18.419083,-33.878403,586.74 18.419027,-33.880051,594.36 18.416616,-33.881744,594.36 18.414207,-33.881927,594.36 18.410797,-33.881882,601.98 18.408279,-33.881836,617.22 18.404846,-33.882065,640.08 18.402435,-33.882477,662.94 18.398838,-33.883278,693.42 18.396664,-33.883839,716.28 18.393574,-33.884583,739.14 18.391169,-33.885132,754.38 18.387966,-33.886074,784.86 18.386293,-33.886963,800.1 18.383377,-33.888611,815.34 18.381361,-33.889801,838.2 18.378614,-33.891586,853.44 18.37698,-33.892822,861.06 18.374405,-33.894917,861.06 18.372448,-33.896484,861.06 18.369427,-33.899059,807.72 18.367571,-33.90065,807.72 18.364882,-33.902985,807.72 18.363247,-33.904507,868.68 18.36062,-33.907242,876.3 18.358898,-33.909348,883.92 18.356697,-33.911865,883.92 18.355015,-33.913696,891.54 18.352716,-33.91626,891.54 18.351173,-33.918098,891.54 18.349113,-33.92136,891.54 18.347912,-33.923222,883.92 18.346775,-33.92601,922.02 18.347281,-33.927795,975.36 18.349686,-33.928574,1021.08 18.351091,-33.928162,1021.08 18.353405,-33.926105,1036.32 18.35392,-33.924526,1051.56 18.352089,-33.922523,1066.8 18.349859,-33.922668,1066.8 18.34734,-33.924664,1059.18 18.34568,-33.926758,1036.32 18.343334,-33.930019,1021.08 18.341675,-33.932346,1021.08 18.339489,-33.935623,1005.84 18.338013,-33.937885,998.22 18.336237,-33.94075,982.98 18.33506,-33.942719,990.6 18.333263,-33.945847,982.98 18.332005,-33.948311,975.36 18.33024,-33.951874,975.36 18.329086,-33.954269,975.36 18.327717,-33.95755,975.36 18.32682,-33.960022,967.74 18.326111,-33.96307,967.74 18.325644,-33.965973,967.74 18.325083,-33.969315,960.12 18.324692,-33.971878,952.5 18.324242,-33.975449,944.88 18.323961,-33.977966,937.26 18.323536,-33.981224,944.88 18.477156,-34.070026,579.12 18.474703,-34.06369,579.12 18.4765,-34.060799,586.74 18.478098,-34.057068,594.36 18.478701,-34.054581,594.36 18.479496,-34.050583,586.74 18.4795,-34.047886,586.74 18.480577,-34.043587,579.12 18.480885,-34.04052,571.5 18.481436,-34.036533,571.5 18.481384,-34.033691,571.5 18.481422,-34.029682,556.26 18.481623,-34.026672,556.26 18.482922,-34.013657,541.02 18.482958,-34.010838,548.64 18.483027,-34.005619,556.26 18.483284,-34.002731,579.12 18.4834,-33.997417,563.88 18.483927,-33.9949,548.64 18.48377,-33.990971,556.26 18.484476,-33.985821,556.26 18.484838,-33.981514,541.02 18.484676,-33.978565,541.02 18.485222,-33.973881,525.78 18.48671,-33.971001,518.16 18.487942,-33.966885,510.54 18.488201,-33.964294,502.92 18.488712,-33.959984,495.3 18.488079,-33.957005,480.06 18.488438,-33.952991,472.44 18.488115,-33.950066,472.44 18.485842,-33.943497,487.68 18.484945,-33.940796,487.68 18.48332,-33.936905,472.44 18.481863,-33.934067,472.44 18.479788,-33.930588,457.2 18.477995,-33.927887,441.96 18.475513,-33.924526,388.62 18.473511,-33.922012,434.34 18.470879,-33.918797,426.72 18.468859,-33.916351,419.1 18.465729,-33.91256,396.24 18.463533,-33.909988,373.38 18.456802,-33.90218,312.42 18.454971,-33.89999,304.8 18.451706,-33.896072,289.56 18.449856,-33.893784,281.94 18.446846,-33.89045,266.7 18.444643,-33.888611,251.46 18.441238,-33.886631,243.84 18.438982,-33.885956,236.22 18.435452,-33.885635,213.36 18.433266,-33.885818,198.12 18.43063,-33.88678,175.26 18.429451,-33.88784,167.64 18.428364,-33.889519,144.78 18.427883,-33.890671,129.54 18.427105,-33.892498,91.44 18.426706,-33.893646,76.2 18.426361,-33.89529,53.34 18.426426,-33.896301,45.72 18.426538,-33.8974,38.1 18.426762,-33.898315,22.86 18.426987,-33.899231,15.24 18.427155,-33.899918,7.62 18.427435,-33.90065,0
        </coordinates>
      </LineString>
    </Placemark>
  </Document>
</kml>