<?xml version="1.0" encoding="UTF-8"?>
<kml xmlns="http://www.opengis.net/kml/2.2">
  <Document>
    <name>-/ZTHOT - Optimised</name>
    <description><![CDATA[Optimised flight path with 172 points (decimated from 856 original points). Source format: Standard KML]]></description>
    
    <Style id="flightPath">
      <LineStyle>
        <color>ffff0000</color>
        <width>3</width>
      </LineStyle>
    </Style>
    
    <Placemark>
      <name>Flight Path</name>
      <description><![CDATA[<div style="width:220px; text-align:center;">
<div style="width:210px; text-align:center;">
<div style=" background: #000; color: #fff; font-size: 14px; text-align:left; border: 1px solid #000; padding: 2px 6px; text-shadow: 0 1px 0 #000; box-shadow: 0 1px 3px rgba(0,0,0,0.6); background: -webkit-gradient(linear, left top, left bottom, color-stop(0%,#808080), color-stop(2%,#303030), color-stop(100%,#0c0c0c));"><span style="font-size: 14px; font-weight: bold;"><a href="javascript:void(0);" style="color: #fff; cursor: pointer;text-decoration: none;">-</a></span> / ZTHOT<br/>Cape Town Helicopters</div>

<div style="border-top: 1px solid #005c90; color: #fff; padding-bottom: 5px; box-shadow: 0 0 1px #9BE3F6 inset, 0 1px 0 #9BE3F6 inset, 0 -1px 3px rgba(0,0,0,0.4); background:rgba(43,114,173,1); background: -webkit-gradient(linear, left top, left bottom, color-stop(0%,rgba(92,184,229,1)), color-stop(100%,rgba(43,114,173,1)));">
<a style="text-decoration: none; color: rgb(255, 255, 255); font-size: 12px; width:77px; display: inline-block;" title="Cape Town Airport" href="https://www.flightradar24.com/airport/cpt/departures"><h3 style="padding: 0px; margin: 10px 0px 0px; font-size: 16px; ">CPT</h3>Cape Town</a>
<span style="background: url(https://www.flightradar24.com/static/images/userUI_sprite.png?14) no-repeat scroll 0 -464px rgba(0, 0, 0, 0); border: medium none; display: inline-block; height: 16px; width: 45px;"></span>
<a style="text-decoration: none; color: rgb(255, 255, 255); font-size: 12px; width:77px; display: inline-block;" title="Cape Town Airport" href="https://www.flightradar24.com/airport/cpt/arrivals"><h3 style="padding: 0px; margin: 10px 0px 0px; font-size: 16px;">CPT</h3>Cape Town</a>
<div style=" margin-top:10px;">
<div style="display: inline-block; font-size: 12px; padding: 0 5px;">
<div>
<span style="color: #c1eaff;" title="Actual Time of Departure">ATD </span>
<span title="2025-06-15 10:44">10:44</span> <span title="Coordinated Universal Time">UTC</span>
</div>
</div>
<div style="display: inline-block; font-size: 12px; padding: 0 5px;">
<div>
<span style="color: #c1eaff;" title="Estimated Time of Arrival">ETA </span>
<span title="2025-06-15 11:06">11:06</span> <span title="Coordinated Universal Time">UTC</span>
</div>
</div>
</div>
<br style="clear: both;"/>
</div>

<div style="display: block;">
<table style="border-collapse: collapse; width: 100%;">
<tr style="border-right: 1px solid #dadada; ">
<td style="background: none repeat scroll 0 0 #dadada; padding: 0; width: 31px;">
<span style="background: url(https://www.flightradar24.com/static/images/userUI_sprite.png?14) no-repeat scroll -208px -464px rgba(0, 0, 0, 0); height: 26px; margin: 8px 0 0 4px; width: 23px; display: block;"></span>
</td>
<td colspan="2" style="border-bottom: 1px solid #dadada; border-left: 1px solid #dadada; color: #666; line-height: 1.1em; padding: 3px 6px; vertical-align: top; font-size: 14px;">
Aircraft<span style="float: right; font-size: 12px;">(AS50)</span><br>
<span style="color: #333; font-size: 16px; font-weight: bold; line-height: 1.3em;">Airbus Helicopters H125</span>
</td>
</tr>
<tr style="border-right: 1px solid #dadada; ">
<td style="background: none repeat scroll 0 0 #dadada; padding: 0; width: 31px;">
<td colspan="2" style="border-bottom: 1px solid #dadada; border-left: 1px solid #dadada; color: #666; line-height: 1.1em; padding: 3px 6px; vertical-align: top; font-size: 14px;">
Registration<br>
<span style="color: #333; font-size: 16px; font-weight: bold; line-height: 1.3em;"><a href="https://www.flightradar24.com/reg/zt-hot" style="text-decoration: none; color: #333;">ZT-HOT</a></span>
</td>
</tr>
</table>
</div>

</div>
</div>]]></description>
      <styleUrl>#flightPath</styleUrl>
      <LineString>
        <extrude>1</extrude>
        <tessellate>1</tessellate>
        <altitudeMode>absolute</altitudeMode>
        <coordinates>
          18.595161,-33.976849,0 18.59333,-33.974754,91.44 18.59293,-33.973824,121.92 18.592186,-33.972332,152.4 18.590527,-33.971031,182.88 18.588181,-33.97089,213.36 18.586233,-33.971329,213.36 18.58371,-33.972702,243.84 18.582115,-33.973869,243.84 18.579618,-33.976181,274.32 18.57811,-33.977734,274.32 18.575993,-33.980339,274.32 18.574505,-33.98225,274.32 18.57233,-33.984997,274.32 18.570818,-33.986847,304.8 18.568687,-33.989639,304.8 18.567175,-33.991791,304.8 18.562298,-33.99884,304.8 18.561121,-34.000809,304.8 18.559216,-34.004333,304.8 18.558319,-34.006165,304.8 18.55648,-34.00967,274.32 18.55402,-34.014137,304.8 18.547333,-34.027222,274.32 18.544407,-34.033875,274.32 18.543205,-34.037182,274.32 18.542404,-34.039509,304.8 18.541334,-34.042877,274.32 18.540688,-34.045094,274.32 18.539715,-34.048725,274.32 18.539085,-34.051193,274.32 18.537598,-34.057106,274.32 18.53651,-34.061806,274.32 18.532927,-34.074234,274.32 18.530125,-34.082794,274.32 18.527658,-34.088608,274.32 18.526369,-34.090851,304.8 18.524239,-34.09346,304.8 18.522549,-34.094952,304.8 18.51923,-34.096954,304.8 18.517113,-34.097885,335.28 18.514194,-34.098816,335.28 18.512077,-34.099422,365.76 18.509274,-34.100212,396.24 18.507479,-34.100647,396.24 18.504524,-34.101284,396.24 18.502922,-34.101608,396.24 18.498959,-34.102432,396.24 18.496799,-34.102867,426.72 18.485012,-34.105381,457.2 18.479059,-34.106323,518.16 18.476538,-34.106644,518.16 18.474855,-34.106781,548.64 18.472277,-34.106918,548.64 18.470421,-34.106964,579.12 18.467625,-34.106918,579.12 18.465496,-34.106827,609.6 18.463154,-34.106731,670.56 18.461571,-34.106644,701.04 18.457661,-34.106403,731.52 18.456345,-34.106216,731.52 18.453827,-34.105892,762 18.450851,-34.105705,792.48 18.449192,-34.105751,853.44 18.448063,-34.10582,853.44 18.445873,-34.105984,883.92 18.444307,-34.106186,883.92 18.441055,-34.106689,883.92 18.438759,-34.10701,883.92 18.434217,-34.107651,883.92 18.431808,-34.108017,883.92 18.419437,-34.110081,914.4 18.411293,-34.111221,883.92 18.406528,-34.111496,853.44 18.404118,-34.111221,822.96 18.400726,-34.110825,792.48 18.393412,-34.111588,640.08 18.389936,-34.112823,609.6 18.387852,-34.114365,579.12 18.385284,-34.117767,548.64 18.384476,-34.119999,548.64 18.384876,-34.123814,548.64 18.386307,-34.125908,518.16 18.389824,-34.128113,487.68 18.392658,-34.12875,487.68 18.396832,-34.129028,518.16 18.399969,-34.129623,518.16 18.403782,-34.131775,518.16 18.407078,-34.134521,518.16 18.410225,-34.13736,548.64 18.41247,-34.139557,548.64 18.415833,-34.143272,548.64 18.417778,-34.145275,548.64 18.426418,-34.152676,518.16 18.429398,-34.153748,548.64 18.432999,-34.153141,579.12 18.434778,-34.152145,579.12 18.437576,-34.150211,579.12 18.43943,-34.148758,548.64 18.442457,-34.146423,548.64 18.444271,-34.144997,548.64 18.447247,-34.142761,548.64 18.454004,-34.137451,548.64 18.459492,-34.132706,518.16 18.461094,-34.131168,518.16 18.4655,-34.12698,518.16 18.471548,-34.121155,518.16 18.473511,-34.118591,518.16 18.474598,-34.116879,518.16 18.476032,-34.114426,518.16 18.476931,-34.11264,518.16 18.477974,-34.109711,518.16 18.4785,-34.10788,518.16 18.479233,-34.10482,518.16 18.479576,-34.102959,518.16 18.480034,-34.100121,548.64 18.480263,-34.098259,548.64 18.480574,-34.095428,548.64 18.480854,-34.093689,548.64 18.481865,-34.086292,518.16 18.483009,-34.078335,518.16 18.484211,-34.072422,518.16 18.485561,-34.065491,518.16 18.486235,-34.059769,518.16 18.486328,-34.057617,548.64 18.486403,-34.054733,548.64 18.486443,-34.052776,548.64 18.486628,-34.047089,609.6 18.486683,-34.040268,609.6 18.48674,-34.029282,548.64 18.486443,-34.022144,518.16 18.486042,-34.01218,457.2 18.486179,-34.007904,426.72 18.48646,-34.005478,426.72 18.486958,-34.004082,396.24 18.488789,-34.001846,396.24 18.490677,-34.000729,396.24 18.494587,-33.999527,365.76 18.496971,-33.999008,365.76 18.500751,-33.998474,365.76 18.503723,-33.998245,365.76 18.507957,-33.997982,365.76 18.511047,-33.997799,365.76 18.51511,-33.997612,365.76 18.517971,-33.997566,365.76 18.523178,-33.997517,396.24 18.525921,-33.997559,396.24 18.533878,-33.997658,365.76 18.5438,-33.997879,365.76 18.553505,-33.997658,365.76 18.556423,-33.997379,335.28 18.560728,-33.996964,335.28 18.5637,-33.996689,335.28 18.571266,-33.996094,335.28 18.574219,-33.995609,335.28 18.577824,-33.994865,335.28 18.580515,-33.994308,304.8 18.583878,-33.993347,304.8 18.585892,-33.992489,274.32 18.588295,-33.991001,243.84 18.589668,-33.989883,213.36 18.59127,-33.988209,213.36 18.592117,-33.987167,182.88 18.593239,-33.985519,152.4 18.59396,-33.98439,152.4 18.594818,-33.982903,121.92 18.59539,-33.981785,121.92 18.595848,-33.98048,91.44 18.59602,-33.979641,91.44 18.595848,-33.978523,60.96 18.595619,-33.978058,60.96 18.595257,-33.977234,60.96
        </coordinates>
      </LineString>
    </Placemark>
  </Document>
</kml>