<?xml version="1.0" encoding="UTF-8"?>
<kml xmlns="http://www.opengis.net/kml/2.2">
  <Document>
    <name>-/ZTHOT - Optimised</name>
    <description><![CDATA[Optimised flight path with 930 points (decimated from 4646 original points). Source format: Standard KML]]></description>
    
    <Style id="flightPath">
      <LineStyle>
        <color>ffff0000</color>
        <width>3</width>
      </LineStyle>
    </Style>
    
    <Placemark>
      <name>Flight Path</name>
      <description><![CDATA[<div style="width:220px; text-align:center;">
<div style="width:210px; text-align:center;">
<div style=" background: #000; color: #fff; font-size: 14px; text-align:left; border: 1px solid #000; padding: 2px 6px; text-shadow: 0 1px 0 #000; box-shadow: 0 1px 3px rgba(0,0,0,0.6); background: -webkit-gradient(linear, left top, left bottom, color-stop(0%,#808080), color-stop(2%,#303030), color-stop(100%,#0c0c0c));"><span style="font-size: 14px; font-weight: bold;"><a href="javascript:void(0);" style="color: #fff; cursor: pointer;text-decoration: none;">-</a></span> / ZTHOT<br/>Cape Town Helicopters</div>

<div style="border-top: 1px solid #005c90; color: #fff; padding-bottom: 5px; box-shadow: 0 0 1px #9BE3F6 inset, 0 1px 0 #9BE3F6 inset, 0 -1px 3px rgba(0,0,0,0.4); background:rgba(43,114,173,1); background: -webkit-gradient(linear, left top, left bottom, color-stop(0%,rgba(92,184,229,1)), color-stop(100%,rgba(43,114,173,1)));">
<a style="text-decoration: none; color: rgb(255, 255, 255); font-size: 12px; width:77px; display: inline-block;" title=" Airport" href="javascript:void(0);/departures"><h3 style="padding: 0px; margin: 10px 0px 0px; font-size: 16px; ">?</h3></a>
<span style="background: url(https://www.flightradar24.com/static/images/userUI_sprite.png?14) no-repeat scroll 0 -464px rgba(0, 0, 0, 0); border: medium none; display: inline-block; height: 16px; width: 45px;"></span>
<a style="text-decoration: none; color: rgb(255, 255, 255); font-size: 12px; width:77px; display: inline-block;" title="Cape Town Airport" href="https://www.flightradar24.com/airport/cpt/arrivals"><h3 style="padding: 0px; margin: 10px 0px 0px; font-size: 16px;">CPT</h3>Cape Town</a>
<div style=" margin-top:10px;">
<div style="display: inline-block; font-size: 12px; padding: 0 5px;">
<div>
<span style="color: #c1eaff;" title="Actual Time of Departure">ATD </span>
<span title="2025-03-11 14:59">14:59</span> <span title="Coordinated Universal Time">UTC</span>
</div>
</div>
<div style="display: inline-block; font-size: 12px; padding: 0 5px;">
<div>
<span style="color: #c1eaff;" title="Estimated Time of Arrival">ETA </span>
<span title="2025-03-11 15:22">15:22</span> <span title="Coordinated Universal Time">UTC</span>
</div>
</div>
</div>
<br style="clear: both;"/>
</div>

<div style="display: block;">
<table style="border-collapse: collapse; width: 100%;">
<tr style="border-right: 1px solid #dadada; ">
<td style="background: none repeat scroll 0 0 #dadada; padding: 0; width: 31px;">
<span style="background: url(https://www.flightradar24.com/static/images/userUI_sprite.png?14) no-repeat scroll -208px -464px rgba(0, 0, 0, 0); height: 26px; margin: 8px 0 0 4px; width: 23px; display: block;"></span>
</td>
<td colspan="2" style="border-bottom: 1px solid #dadada; border-left: 1px solid #dadada; color: #666; line-height: 1.1em; padding: 3px 6px; vertical-align: top; font-size: 14px;">
Aircraft<span style="float: right; font-size: 12px;">(AS50)</span><br>
<span style="color: #333; font-size: 16px; font-weight: bold; line-height: 1.3em;">Airbus Helicopters H125</span>
</td>
</tr>
<tr style="border-right: 1px solid #dadada; ">
<td style="background: none repeat scroll 0 0 #dadada; padding: 0; width: 31px;">
<td colspan="2" style="border-bottom: 1px solid #dadada; border-left: 1px solid #dadada; color: #666; line-height: 1.1em; padding: 3px 6px; vertical-align: top; font-size: 14px;">
Registration<br>
<span style="color: #333; font-size: 16px; font-weight: bold; line-height: 1.3em;"><a href="https://www.flightradar24.com/reg/zt-hot" style="text-decoration: none; color: #333;">ZT-HOT</a></span>
</td>
</tr>
</table>
</div>

</div>
</div>]]></description>
      <styleUrl>#flightPath</styleUrl>
      <LineString>
        <extrude>1</extrude>
        <tessellate>1</tessellate>
        <altitudeMode>absolute</altitudeMode>
        <coordinates>
          18.429173,-33.897446,60.96 18.432426,-33.893288,91.44 18.433342,-33.891937,91.44 18.43483,-33.889469,121.92 18.435619,-33.88765,121.92 18.436089,-33.884956,152.4 18.435745,-33.882767,152.4 18.434315,-33.880207,152.4 18.433041,-33.878815,152.4 18.430182,-33.876709,182.88 18.428276,-33.875702,182.88 18.425217,-33.874573,213.36 18.422951,-33.8741,213.36 18.419552,-33.87392,243.84 18.417034,-33.874153,243.84 18.413815,-33.874649,274.32 18.411236,-33.875244,274.32 18.407873,-33.876205,304.8 18.4058,-33.876846,335.28 18.402672,-33.877972,335.28 18.400866,-33.878723,365.76 18.397579,-33.880112,396.24 18.395933,-33.88092,396.24 18.392683,-33.882477,426.72 18.390999,-33.883373,457.2 18.388086,-33.88504,457.2 18.386478,-33.886074,487.68 18.383995,-33.887695,487.68 18.382015,-33.889053,487.68 18.379623,-33.890854,487.68 18.377666,-33.892357,487.68 18.375149,-33.894314,518.16 18.373432,-33.89566,548.64 18.371046,-33.897629,548.64 18.369427,-33.899105,579.12 18.366966,-33.901482,579.12 18.365721,-33.902847,579.12 18.363367,-33.905548,609.6 18.361931,-33.907253,609.6 18.359837,-33.910034,640.08 18.358727,-33.911674,640.08 18.356752,-33.91452,640.08 18.355751,-33.91605,640.08 18.353806,-33.919357,640.08 18.352829,-33.921249,640.08 18.351427,-33.92395,670.56 18.350315,-33.926155,640.08 18.348827,-33.92918,640.08 18.347841,-33.931274,640.08 18.346539,-33.934395,640.08 18.345623,-33.936676,640.08 18.344421,-33.939835,640.08 18.34322,-33.943844,731.52 18.342705,-33.946358,762 18.342459,-33.947891,792.48 18.342133,-33.950222,822.96 18.341787,-33.952606,853.44 18.34156,-33.954922,883.92 18.341045,-33.959625,944.88 18.340105,-33.964828,944.88 18.339376,-33.966705,975.36 18.337751,-33.96936,975.36 18.336407,-33.971146,975.36 18.334389,-33.973663,944.88 18.33292,-33.975498,944.88 18.330574,-33.978291,944.88 18.329119,-33.980072,944.88 18.322449,-33.988403,944.88 18.321476,-33.990303,944.88 18.32119,-33.993374,944.88 18.322281,-33.995407,944.88 18.325653,-33.997147,914.4 18.328335,-33.997192,914.4 18.332176,-33.995655,914.4 18.333939,-33.99408,883.92 18.336239,-33.99128,883.92 18.337751,-33.989182,853.44 18.339993,-33.986023,853.44 18.34145,-33.983871,822.96 18.343357,-33.980896,822.96 18.34487,-33.97847,792.48 18.346664,-33.975357,792.48 18.349972,-33.96954,762 18.354378,-33.960743,701.04 18.355463,-33.958237,701.04 18.35692,-33.954208,670.56 18.357594,-33.951599,670.56 18.358379,-33.947845,640.08 18.358828,-33.945419,640.08 18.359528,-33.941982,609.6 18.360157,-33.939095,609.6 18.362617,-33.931507,579.12 18.363533,-33.929226,579.12 18.36533,-33.925507,579.12 18.366623,-33.923222,579.12 18.368525,-33.920105,548.64 18.370037,-33.917908,548.64 18.372345,-33.914795,548.64 18.37413,-33.912643,548.64 18.376652,-33.909622,518.16 18.378445,-33.907608,518.16 18.381416,-33.904541,518.16 18.383217,-33.902786,518.16 18.386181,-33.900101,518.16 18.388086,-33.898453,518.16 18.391342,-33.896126,487.68 18.393688,-33.89473,487.68 18.397223,-33.893051,487.68 18.399857,-33.891953,487.68 18.403358,-33.890774,487.68 18.40591,-33.89003,487.68 18.409882,-33.889004,487.68 18.4128,-33.888306,457.2 18.416506,-33.887466,426.72 18.418804,-33.886963,426.72 18.42267,-33.88623,396.24 18.424931,-33.886074,396.24 18.428724,-33.886642,335.28 18.430824,-33.887375,335.28 18.433399,-33.888866,274.32 18.43461,-33.889893,274.32 18.436432,-33.89175,243.84 18.437176,-33.893009,213.36 18.437233,-33.895103,182.88 18.436516,-33.896439,121.92 18.434723,-33.897675,91.44 18.433153,-33.898361,60.96 18.42968,-33.899757,30.48 18.428249,-33.900318,0 18.427128,-33.901062,0 18.427099,-33.900375,0 18.427563,-33.899387,30.48 18.427963,-33.898781,30.48 18.428556,-33.897949,30.48 18.42905,-33.897339,30.48 18.430882,-33.895428,60.96 18.432026,-33.894218,91.44 18.433882,-33.892044,121.92 18.4359,-33.888702,152.4 18.436628,-33.88591,182.88 18.43646,-33.884033,182.88 18.43483,-33.880486,213.36 18.433571,-33.878765,243.84 18.431639,-33.876572,274.32 18.430069,-33.874924,304.8 18.427322,-33.87236,335.28 18.425732,-33.870991,335.28 18.423231,-33.869064,365.76 18.420933,-33.868195,396.24 18.416576,-33.868149,426.72 18.414745,-33.868427,426.72 18.410969,-33.869453,457.2 18.408995,-33.870255,457.2 18.406105,-33.871639,487.68 18.404102,-33.872665,487.68 18.401241,-33.87434,518.16 18.399239,-33.875645,518.16 18.396719,-33.877441,548.64 18.39489,-33.878811,548.64 18.392347,-33.88092,579.12 18.39072,-33.882339,579.12 18.388142,-33.884628,579.12 18.386536,-33.886166,609.6 18.383995,-33.888748,609.6 18.382593,-33.89035,609.6 18.380184,-33.893566,609.6 18.378893,-33.89534,609.6 18.376932,-33.898178,640.08 18.375698,-33.900101,640.08 18.373833,-33.903065,640.08 18.372803,-33.904785,640.08 18.371159,-33.907837,670.56 18.370342,-33.909534,670.56 18.368969,-33.912514,670.56 18.368132,-33.914429,701.04 18.366795,-33.91745,701.04 18.365993,-33.919357,701.04 18.364849,-33.922337,701.04 18.362331,-33.929226,731.52 18.358612,-33.938492,731.52 18.355923,-33.94603,731.52 18.353783,-33.958466,731.52 18.353558,-33.966156,731.52 18.353634,-33.980621,731.52 18.353291,-33.993141,762 18.352947,-34.003059,822.96 18.352829,-34.010513,853.44 18.352997,-34.021683,822.96 18.352833,-34.028709,822.96 18.352213,-34.038483,883.92 18.3521,-34.044662,914.4 18.351288,-34.052776,944.88 18.351002,-34.054962,975.36 18.350307,-34.058029,975.36 18.349571,-34.059944,975.36 18.347855,-34.062645,975.36 18.346495,-34.064301,975.36 18.344196,-34.066589,975.36 18.342516,-34.068054,975.36 18.339657,-34.070297,975.36 18.33744,-34.071629,975.36 18.333549,-34.072746,975.36 18.330969,-34.072723,975.36 18.326397,-34.071629,975.36 18.323822,-34.070374,975.36 18.320847,-34.06786,975.36 18.319359,-34.065765,975.36 18.319073,-34.06218,944.88 18.319874,-34.060085,944.88 18.321215,-34.056885,914.4 18.322113,-34.054733,914.4 18.323626,-34.051392,883.92 18.324566,-34.049145,883.92 18.327494,-34.041229,853.44 18.328972,-34.036854,853.44 18.329945,-34.033039,822.96 18.330353,-34.031021,822.96 18.33086,-34.027592,822.96 18.331146,-34.025265,822.96 18.331472,-34.022003,822.96 18.331661,-34.019955,822.96 18.33189,-34.01651,822.96 18.332462,-34.008598,822.96 18.333603,-33.998291,822.96 18.334064,-33.995796,822.96 18.334837,-33.992569,792.48 18.335609,-33.990116,792.48 18.336966,-33.98671,792.48 18.339272,-33.981922,792.48 18.347626,-33.965771,701.04 18.351116,-33.958599,670.56 18.357819,-33.945969,609.6 18.361759,-33.938396,579.12 18.367367,-33.926804,579.12 18.370485,-33.920837,579.12 18.372391,-33.917908,548.64 18.373718,-33.915913,548.64 18.375978,-33.91301,548.64 18.377605,-33.911133,548.64 18.380239,-33.908524,518.16 18.381958,-33.906834,518.16 18.385048,-33.904694,518.16 18.387394,-33.903435,487.68 18.390888,-33.901016,487.68 18.392963,-33.89946,487.68 18.396046,-33.8974,487.68 18.399525,-33.895523,487.68 18.404961,-33.89352,457.2 18.407307,-33.892868,426.72 18.411404,-33.891769,396.24 18.413647,-33.891037,396.24 18.41938,-33.889004,335.28 18.425306,-33.887329,274.32 18.428593,-33.887283,274.32 18.430882,-33.887886,243.84 18.433456,-33.889565,243.84 18.434544,-33.890728,213.36 18.435574,-33.892448,213.36 18.435974,-33.893845,182.88 18.435787,-33.89566,121.92 18.435003,-33.896896,91.44 18.433434,-33.898087,60.96 18.432032,-33.898819,60.96 18.430294,-33.899551,30.48 18.428108,-33.900421,30.48 18.427155,-33.901016,0 18.427048,-33.900223,30.48 18.427563,-33.899525,30.48 18.428478,-33.898548,30.48 18.430023,-33.896873,60.96 18.431053,-33.895428,91.44 18.432541,-33.893196,91.44 18.434555,-33.890076,121.92 18.435745,-33.887421,152.4 18.436012,-33.885727,152.4 18.435459,-33.882626,182.88 18.434658,-33.880859,213.36 18.432537,-33.877853,213.36 18.431135,-33.876251,243.84 18.428389,-33.873825,274.32 18.426018,-33.872292,274.32 18.42256,-33.870895,304.8 18.420317,-33.870392,304.8 18.416449,-33.870117,335.28 18.413927,-33.870346,335.28 18.410339,-33.87117,365.76 18.408377,-33.871948,365.76 18.40563,-33.873413,396.24 18.403444,-33.874786,396.24 18.400417,-33.876846,426.72 18.398737,-33.878082,426.72 18.395863,-33.880253,457.2 18.39414,-33.881699,457.2 18.391685,-33.883793,487.68 18.390049,-33.885178,487.68 18.387852,-33.887188,518.16 18.386364,-33.888584,548.64 18.384275,-33.890671,579.12 18.381472,-33.893417,609.6 18.377155,-33.898041,670.56 18.375978,-33.899551,701.04 18.374176,-33.901947,701.04 18.372896,-33.903763,701.04 18.371103,-33.906326,701.04 18.369701,-33.908478,701.04 18.364735,-33.916145,731.52 18.360729,-33.922894,731.52 18.355127,-33.93251,731.52 18.351372,-33.939377,731.52 18.346367,-33.949291,731.52 18.343391,-33.955669,731.52 18.340611,-33.969406,731.52 18.344477,-33.973343,701.04 18.352947,-33.971684,670.56 18.354778,-33.966373,670.56 18.355408,-33.960159,640.08 18.355865,-33.957344,609.6 18.356552,-33.953945,609.6 18.357124,-33.951477,609.6 18.358099,-33.948029,579.12 18.35877,-33.945602,579.12 18.359756,-33.942352,548.64 18.360558,-33.940025,548.64 18.361931,-33.936256,548.64 18.362846,-33.933929,548.64 18.364162,-33.930717,548.64 18.365135,-33.928619,548.64 18.366623,-33.925503,518.16 18.367851,-33.923218,518.16 18.369589,-33.920059,518.16 18.370823,-33.918182,518.16 18.373064,-33.915161,518.16 18.374691,-33.913166,487.68 18.377266,-33.910324,487.68 18.378838,-33.908661,487.68 18.381386,-33.906136,487.68 18.383041,-33.904495,487.68 18.385788,-33.902023,487.68 18.38768,-33.900455,487.68 18.390665,-33.898224,487.68 18.392738,-33.896851,487.68 18.395863,-33.895012,487.68 18.397923,-33.893894,518.16 18.401527,-33.892124,487.68 18.40395,-33.891083,487.68 18.407364,-33.889843,487.68 18.409946,-33.889069,487.68 18.413715,-33.88826,457.2 18.416348,-33.88784,457.2 18.42001,-33.887375,426.72 18.422335,-33.887146,426.72 18.425697,-33.887466,396.24 18.427334,-33.888214,365.76 18.429565,-33.889847,335.28 18.430882,-33.890961,304.8 18.432713,-33.892544,274.32 18.433914,-33.893612,213.36 18.435459,-33.895195,182.88 18.436031,-33.896454,152.4 18.435339,-33.897995,121.92 18.43433,-33.898453,91.44 18.432426,-33.899014,60.96 18.428993,-33.899944,30.48 18.42738,-33.900787,30.48 18.427044,-33.900604,30.48 18.427492,-33.899506,60.96 18.427996,-33.898727,60.96 18.429222,-33.896873,91.44 18.430069,-33.895569,91.44 18.431282,-33.893566,121.92 18.432257,-33.891953,121.92 18.435287,-33.886723,152.4 18.435745,-33.884956,182.88 18.435507,-33.882065,213.36 18.434498,-33.880096,213.36 18.432425,-33.878082,243.84 18.430742,-33.877121,274.32 18.427448,-33.87611,304.8 18.425194,-33.875793,304.8 18.421829,-33.875565,335.28 18.419666,-33.875599,365.76 18.416348,-33.875736,365.76 18.414459,-33.875969,396.24 18.410511,-33.87653,426.72 18.408165,-33.876808,426.72 18.404388,-33.877415,457.2 18.402493,-33.877808,487.68 18.398838,-33.878857,518.16 18.396832,-33.879593,518.16 18.393745,-33.880859,518.16 18.391514,-33.881836,518.16 18.388367,-33.883278,548.64 18.386124,-33.884399,548.64 18.382931,-33.886024,548.64 18.380928,-33.887096,579.12 18.378222,-33.88884,579.12 18.376259,-33.890305,579.12 18.373203,-33.892914,579.12 18.371439,-33.894608,579.12 18.369085,-33.897263,579.12 18.367571,-33.899139,579.12 18.36544,-33.901932,579.12 18.364096,-33.903854,579.12 18.362078,-33.906555,609.6 18.360733,-33.908295,609.6 18.355688,-33.91571,640.08 18.354607,-33.917774,640.08 18.353054,-33.920654,670.56 18.352089,-33.922569,670.56 18.350716,-33.925594,670.56 18.349689,-33.927887,670.56 18.344994,-33.93742,701.04 18.341389,-33.944401,731.52 18.335896,-33.954319,731.52 18.332987,-33.960892,731.52 18.333607,-33.970238,701.04 18.339443,-33.972099,731.52 18.346832,-33.966797,731.52 18.347729,-33.964417,731.52 18.348713,-33.960648,701.04 18.349342,-33.958508,670.56 18.351597,-33.951416,640.08 18.35339,-33.946701,609.6 18.355007,-33.942867,609.6 18.355911,-33.940796,579.12 18.358784,-33.934532,579.12 18.360172,-33.930038,579.12 18.360956,-33.926834,579.12 18.363199,-33.922485,518.16 18.365536,-33.919357,518.16 18.366966,-33.9174,518.16 18.369141,-33.914375,518.16 18.37043,-33.912735,548.64 18.37286,-33.909908,548.64 18.374521,-33.908203,548.64 18.376865,-33.905811,548.64 18.378639,-33.904133,548.64 18.381248,-33.901794,548.64 18.38316,-33.900223,548.64 18.386078,-33.897991,548.64 18.388195,-33.896545,548.64 18.391281,-33.894699,548.64 18.393805,-33.893463,518.16 18.397694,-33.891983,518.16 18.40053,-33.89122,487.68 18.40423,-33.890396,457.2 18.407089,-33.889893,426.72 18.411198,-33.889236,396.24 18.413815,-33.88884,396.24 18.417892,-33.888119,365.76 18.42609,-33.886414,304.8 18.429621,-33.886414,304.8 18.431919,-33.886963,274.32 18.43483,-33.888306,243.84 18.436403,-33.889389,243.84 18.438435,-33.89175,213.36 18.439039,-33.893326,182.88 18.438869,-33.895889,152.4 18.437973,-33.897446,152.4 18.436146,-33.898922,121.92 18.434498,-33.89946,91.44 18.432083,-33.899666,60.96 18.429678,-33.900009,60.96 18.428276,-33.900513,30.48 18.427773,-33.90065,30.48 18.427603,-33.899414,30.48 18.428444,-33.898361,30.48 18.429846,-33.896805,60.96 18.431303,-33.895294,91.44 18.432999,-33.892914,91.44 18.435059,-33.889572,121.92 18.436489,-33.88649,152.4 18.436516,-33.88385,182.88 18.43523,-33.881138,213.36 18.433571,-33.879135,213.36 18.431168,-33.876854,243.84 18.428764,-33.875134,274.32 18.425306,-33.873184,274.32 18.423231,-33.872406,304.8 18.418808,-33.871315,304.8 18.415661,-33.870941,304.8 18.411427,-33.87085,335.28 18.40868,-33.871037,335.28 18.405304,-33.871548,365.76 18.402672,-33.872246,365.76 18.399353,-33.873505,396.24 18.396549,-33.874805,396.24 18.393459,-33.876667,426.72 18.391617,-33.878036,426.72 18.388815,-33.880234,426.72 18.387022,-33.881653,426.72 18.384275,-33.883713,487.68 18.382702,-33.884907,518.16 18.380814,-33.886539,579.12 18.378353,-33.888821,609.6 18.37682,-33.890488,640.08 18.375835,-33.891705,670.56 18.374409,-33.893646,701.04 18.373547,-33.894825,731.52 18.372112,-33.896759,731.52 18.3708,-33.898548,731.52 18.362904,-33.908745,701.04 18.359585,-33.91349,701.04 18.357426,-33.916946,701.04 18.356323,-33.918892,701.04 18.354549,-33.92215,701.04 18.353334,-33.924408,701.04 18.351688,-33.927597,701.04 18.34997,-33.931,701.04 18.344879,-33.941654,701.04 18.341103,-33.950127,670.56 18.34005,-33.960251,640.08 18.344925,-33.964462,609.6 18.354174,-33.961761,579.12 18.355522,-33.958553,579.12 18.356361,-33.954163,548.64 18.356977,-33.951462,548.64 18.357868,-33.948128,548.64 18.359388,-33.942352,548.64 18.360956,-33.93718,548.64 18.36191,-33.934708,548.64 18.363535,-33.931412,518.16 18.364712,-33.929123,518.16 18.366449,-33.926193,518.16 18.36771,-33.924107,518.16 18.369598,-33.921032,518.16 18.370972,-33.919079,518.16 18.372896,-33.916214,548.64 18.374233,-33.914375,548.64 18.376637,-33.91135,518.16 18.377941,-33.909851,518.16 18.380642,-33.906975,518.16 18.382416,-33.905205,518.16 18.385117,-33.902618,518.16 18.387022,-33.90097,518.16 18.390104,-33.898544,518.16 18.392429,-33.89706,487.68 18.396034,-33.895058,487.68 18.39838,-33.893845,487.68 18.401987,-33.892044,487.68 18.404285,-33.890991,487.68 18.408222,-33.889565,457.2 18.411068,-33.88884,426.72 18.414974,-33.888073,396.24 18.417492,-33.887703,365.76 18.421045,-33.887146,335.28 18.423512,-33.886734,335.28 18.426876,-33.886539,304.8 18.429165,-33.887005,274.32 18.431225,-33.88826,243.84 18.432426,-33.889702,213.36 18.433266,-33.891632,182.88 18.433546,-33.892914,182.88 18.433601,-33.894699,152.4 18.433514,-33.89571,121.92 18.432985,-33.897537,91.44 18.432312,-33.898407,60.96 18.430653,-33.899292,60.96 18.429337,-33.89962,30.48 18.428665,-33.899597,0 18.428837,-33.898911,30.48 18.430481,-33.895943,60.96 18.431854,-33.893612,91.44 18.433376,-33.89122,91.44 18.435284,-33.88765,121.92 18.435745,-33.884491,152.4 18.435171,-33.882202,182.88 18.43277,-33.878998,182.88 18.430653,-33.877598,213.36 18.427155,-33.875839,243.84 18.42453,-33.87476,243.84 18.421101,-33.873734,274.32 18.418972,-33.87323,304.8 18.414824,-33.872543,304.8 18.412457,-33.8722,335.28 18.408394,-33.871826,365.76 18.405855,-33.871857,365.76 18.402557,-33.872105,396.24 18.400154,-33.872478,396.24 18.396778,-33.873363,426.72 18.394604,-33.87434,426.72 18.391628,-33.876297,426.72 18.389824,-33.877808,426.72 18.387165,-33.880344,426.72 18.385565,-33.881973,426.72 18.383389,-33.884304,457.2 18.38213,-33.885792,457.2 18.380013,-33.888168,518.16 18.379097,-33.889378,548.64 18.377716,-33.891266,609.6 18.376932,-33.892593,609.6 18.375778,-33.894592,670.56 18.375092,-33.895893,701.04 18.372746,-33.899712,701.04 18.369421,-33.904678,731.52 18.364792,-33.911957,731.52 18.360043,-33.919216,731.52 18.352886,-33.931595,701.04 18.34868,-33.939011,701.04 18.342178,-33.950729,701.04 18.340759,-33.953991,670.56 18.349186,-33.962402,670.56 18.354893,-33.960369,640.08 18.358269,-33.953945,609.6 18.358784,-33.951431,579.12 18.359667,-33.9478,579.12 18.360285,-33.945282,548.64 18.361349,-33.941528,548.64 18.362974,-33.936584,518.16 18.364431,-33.933151,518.16 18.36544,-33.931091,518.16 18.367123,-33.927612,518.16 18.368111,-33.925549,518.16 18.369713,-33.922428,518.16 18.370934,-33.920242,518.16 18.372728,-33.917313,518.16 18.374186,-33.915207,518.16 18.376371,-33.912415,518.16 18.37801,-33.910511,518.16 18.380352,-33.907928,518.16 18.382015,-33.906136,518.16 18.384779,-33.903442,518.16 18.386629,-33.901749,518.16 18.389568,-33.899387,487.68 18.391729,-33.897766,487.68 18.394924,-33.895523,487.68 18.397223,-33.894104,487.68 18.400866,-33.89209,487.68 18.403244,-33.891006,487.68 18.407089,-33.889801,487.68 18.409946,-33.889206,457.2 18.41423,-33.888538,426.72 18.416634,-33.888168,426.72 18.420925,-33.887375,396.24 18.423615,-33.886955,365.76 18.427505,-33.886955,335.28 18.429909,-33.887329,304.8 18.433571,-33.888493,274.32 18.435452,-33.889526,274.32 18.43758,-33.89122,243.84 18.438478,-33.892365,243.84 18.438982,-33.894379,213.36 18.438435,-33.895523,182.88 18.436964,-33.896759,152.4 18.435745,-33.897385,121.92 18.432484,-33.898689,60.96 18.431303,-33.899002,60.96 18.429173,-33.899551,30.48 18.428679,-33.89957,0 18.431396,-33.895149,60.96 18.432598,-33.892868,91.44 18.433937,-33.890167,121.92 18.434723,-33.888428,121.92 18.435507,-33.885269,152.4 18.435287,-33.883045,152.4 18.433971,-33.880112,182.88 18.432705,-33.878403,213.36 18.429737,-33.876251,213.36 18.427492,-33.875427,213.36 18.423729,-33.874851,243.84 18.421494,-33.874741,243.84 18.417835,-33.874573,274.32 18.415318,-33.874435,274.32 18.411964,-33.874283,304.8 18.409891,-33.874237,304.8 18.406105,-33.874435,335.28 18.403816,-33.87476,335.28 18.400383,-33.875553,335.28 18.398037,-33.876251,365.76 18.394253,-33.877808,396.24 18.3922,-33.878811,396.24 18.38887,-33.880646,396.24 18.386993,-33.881882,396.24 18.384132,-33.883884,426.72 18.382257,-33.885269,426.72 18.379679,-33.887238,426.72 18.378181,-33.888538,457.2 18.375492,-33.890961,457.2 18.373947,-33.892498,457.2 18.371552,-33.894928,487.68 18.370317,-33.896393,487.68 18.367907,-33.899597,487.68 18.36668,-33.901295,518.16 18.364824,-33.904037,518.16 18.363815,-33.905594,548.64 18.36216,-33.908371,548.64 18.361126,-33.910126,548.64 18.359699,-33.912792,579.12 18.358883,-33.914429,579.12 18.357468,-33.917355,579.12 18.356697,-33.919098,609.6 18.355408,-33.922073,609.6 18.354624,-33.923996,609.6 18.353519,-33.926899,640.08 18.350887,-33.933743,640.08 18.347055,-33.942215,670.56 18.345934,-33.944321,670.56 18.344421,-33.947197,670.56 18.341846,-33.952225,670.56 18.33321,-33.96936,670.56 18.327774,-33.979385,670.56 18.319477,-33.993027,640.08 18.315666,-33.999939,640.08 18.314495,-34.003338,640.08 18.315067,-34.005291,609.6 18.317965,-34.007126,609.6 18.320206,-34.007034,609.6 18.323193,-34.005154,609.6 18.324623,-34.003151,609.6 18.326111,-33.999939,609.6 18.327101,-33.99765,609.6 18.331032,-33.989326,609.6 18.334179,-33.984249,579.12 18.342516,-33.971329,579.12 18.347841,-33.962036,579.12 18.354118,-33.950775,579.12 18.358042,-33.943176,548.64 18.363647,-33.932159,548.64 18.366795,-33.926804,548.64 18.368683,-33.923824,548.64 18.369925,-33.92189,548.64 18.372116,-33.918705,548.64 18.37368,-33.916718,548.64 18.375755,-33.914062,548.64 18.377213,-33.912231,548.64 18.379726,-33.909161,548.64 18.381529,-33.907196,548.64 18.384163,-33.904495,548.64 18.385906,-33.902691,548.64 18.388481,-33.900177,548.64 18.390198,-33.898594,548.64 18.393345,-33.896126,518.16 18.395405,-33.894825,518.16 18.399298,-33.892776,518.16 18.401651,-33.891769,518.16 18.40559,-33.890354,518.16 18.408337,-33.889469,518.16 18.41217,-33.888447,487.68 18.414936,-33.887833,457.2 18.418579,-33.8871,457.2 18.421612,-33.886539,426.72 18.425503,-33.88612,396.24 18.428078,-33.886257,396.24 18.431696,-33.8871,365.76 18.433489,-33.887833,365.76 18.435745,-33.889286,335.28 18.436796,-33.890259,304.8 18.438034,-33.891846,274.32 18.438589,-33.893234,213.36 18.438478,-33.895386,182.88 18.437637,-33.896667,152.4 18.435917,-33.89785,121.92 18.4342,-33.898502,121.92 18.430939,-33.899292,60.96 18.429565,-33.899433,60.96 18.427849,-33.899807,30.48 18.427334,-33.90004,30.48 18.426933,-33.900738,30.48 18.426987,-33.900787,30.48 18.427603,-33.89946,60.96 18.428501,-33.898499,60.96 18.430182,-33.896393,91.44 18.431168,-33.895012,121.92 18.432705,-33.892593,152.4 18.433628,-33.890774,152.4 18.434772,-33.888306,182.88 18.43523,-33.886398,182.88 18.434946,-33.883347,213.36 18.434258,-33.881557,243.84 18.432144,-33.878815,274.32 18.430481,-33.877552,274.32 18.427105,-33.876019,274.32 18.424408,-33.875336,304.8 18.420372,-33.874786,304.8 18.41785,-33.874695,335.28 18.413815,-33.875061,335.28 18.411541,-33.875645,365.76 18.408096,-33.876984,365.76 18.405687,-33.878128,396.24 18.402493,-33.879959,396.24 18.400755,-33.881012,426.72 18.398119,-33.882706,426.72 18.396091,-33.884117,426.72 18.393467,-33.886093,457.2 18.391743,-33.88747,457.2 18.389168,-33.889519,487.68 18.387394,-33.890961,487.68 18.384933,-33.893101,487.68 18.382257,-33.895477,548.64 18.380014,-33.897675,548.64 18.376987,-33.900513,579.12 18.371429,-33.906368,640.08 18.370375,-33.907654,670.56 18.368855,-33.909767,701.04 18.367882,-33.911259,731.52 18.366451,-33.91349,762 18.36565,-33.914841,792.48 18.364391,-33.917168,822.96 18.363535,-33.918823,853.44 18.362446,-33.921219,853.44 18.361759,-33.922802,883.92 18.359585,-33.927597,914.4 18.356697,-33.934021,1005.84 18.353462,-33.942169,1066.8 18.351173,-33.948406,1097.28 18.349354,-33.954254,1097.28 18.34877,-33.956272,1097.28 18.345879,-33.966019,1127.76 18.343973,-33.972382,1127.76 18.340931,-33.983879,1158.24 18.339825,-33.989136,1158.24 18.339432,-33.992477,1158.24 18.339329,-33.994678,1158.24 18.339272,-33.998123,1158.24 18.339272,-34.00008,1158.24 18.339376,-34.003464,1158.24 18.339432,-34.005615,1158.24 18.339602,-34.012939,1158.24 18.339602,-34.02095,1127.76 18.339329,-34.031036,1097.28 18.339272,-34.035969,1097.28 18.339901,-34.038902,1097.28 18.340416,-34.040531,1097.28 18.341217,-34.043232,1127.76 18.341843,-34.045166,1127.76 18.342684,-34.047684,1127.76 18.343187,-34.04924,1097.28 18.34425,-34.051891,1097.28 18.345051,-34.053753,1066.8 18.346138,-34.056221,1066.8 18.346943,-34.057938,1066.8 18.348255,-34.060505,1066.8 18.349073,-34.06192,1066.8 18.350773,-34.064693,1066.8 18.35186,-34.066231,1066.8 18.353615,-34.068558,1066.8 18.354792,-34.070114,1066.8 18.356697,-34.072495,1066.8 18.357819,-34.073959,1097.28 18.362135,-34.079636,1066.8 18.366619,-34.085724,1066.8 18.372173,-34.092716,1066.8 18.373625,-34.094421,1066.8 18.375868,-34.096848,1036.32 18.378893,-34.100052,1036.32 18.385227,-34.106415,1036.32 18.386822,-34.107895,1036.32 18.389431,-34.110168,1036.32 18.391001,-34.111542,1036.32 18.393692,-34.113739,1036.32 18.395405,-34.115108,1036.32 18.399689,-34.118454,1005.84 18.402548,-34.12056,975.36 18.409723,-34.125549,914.4 18.411827,-34.126747,914.4 18.414803,-34.128376,883.92 18.41692,-34.129353,883.92 18.420261,-34.130905,853.44 18.422279,-34.131729,853.44 18.425503,-34.132984,853.44 18.427849,-34.133869,822.96 18.431454,-34.135174,822.96 18.433546,-34.135941,822.96 18.43803,-34.137405,822.96 18.440832,-34.138,792.48 18.444786,-34.138245,792.48 18.447304,-34.138058,792.48 18.45108,-34.13736,792.48 18.453444,-34.136581,762 18.456976,-34.134979,762 18.45933,-34.13356,762 18.462524,-34.131271,762 18.464655,-34.129395,731.52 18.467159,-34.126793,731.52 18.468761,-34.12484,731.52 18.4711,-34.121796,701.04 18.472446,-34.119827,701.04 18.474426,-34.116646,701.04 18.475742,-34.114273,701.04 18.476931,-34.111084,670.56 18.477573,-34.108311,670.56 18.47805,-34.104584,670.56 18.478107,-34.102295,670.56 18.478031,-34.098118,670.56 18.477917,-34.095604,670.56 18.477631,-34.092068,670.56 18.477379,-34.089615,670.56 18.476887,-34.08569,670.56 18.476543,-34.08308,670.56 18.475571,-34.072002,640.08 18.474541,-34.063156,640.08 18.472389,-34.048416,640.08 18.471268,-34.038208,640.08 18.47002,-34.025543,640.08 18.469505,-34.016651,640.08 18.469048,-34.003242,670.56 18.469219,-33.998543,640.08 18.469505,-33.994911,640.08 18.469734,-33.992489,640.08 18.470078,-33.988907,640.08 18.470364,-33.986252,640.08 18.471661,-33.975861,640.08 18.472824,-33.967121,640.08 18.473791,-33.955261,640.08 18.474072,-33.95018,640.08 18.474127,-33.942215,640.08 18.473959,-33.936951,640.08 18.473682,-33.932812,609.6 18.47323,-33.929947,609.6 18.472109,-33.925827,579.12 18.4711,-33.923309,579.12 18.469252,-33.919601,548.64 18.467569,-33.917038,518.16 18.464813,-33.913723,487.68 18.46258,-33.911224,457.2 18.459721,-33.908092,426.72 18.457603,-33.905903,426.72 18.454172,-33.902481,365.76 18.45211,-33.901108,365.76 18.448008,-33.899551,304.8 18.445129,-33.898922,274.32 18.441393,-33.898453,213.36 18.438492,-33.898224,182.88 18.43523,-33.898174,152.4 18.433321,-33.898407,152.4 18.430742,-33.899094,121.92 18.429165,-33.89962,60.96 18.427792,-33.899899,60.96 18.426991,-33.900272,60.96 18.427063,-33.901051,0
        </coordinates>
      </LineString>
    </Placemark>
  </Document>
</kml>