<?xml version="1.0" encoding="UTF-8"?>
<kml xmlns="http://www.opengis.net/kml/2.2">
  <Document>
    <name>FR24 40d76eba - Optimised</name>
    <description><![CDATA[Optimised flight path with 129 points (decimated from 644 original points). Source format: Standard KML]]></description>
    
    <Style id="flightPath">
      <LineStyle>
        <color>ffff0000</color>
        <width>3</width>
      </LineStyle>
    </Style>
    
    <Placemark>
      <name>Flight Path</name>
      <description><![CDATA[Optimized flight path]]></description>
      <styleUrl>#flightPath</styleUrl>
      <LineString>
        <extrude>1</extrude>
        <tessellate>1</tessellate>
        <altitudeMode>absolute</altitudeMode>
        <coordinates>
          18.43414,-33.88975,0 18.43556,-33.88504,0 18.43382,-33.88184,0 18.43037,-33.87923,0 18.42553,-33.87794,0 18.42054,-33.87744,0 18.41578,-33.87767,0 18.41118,-33.87859,0 18.4067,-33.8801,0 18.40204,-33.88206,0 18.39722,-33.88463,0 18.39302,-33.88724,0 18.3887,-33.8903,0 18.38478,-33.89328,0 18.38058,-33.89631,0 18.37669,-33.89934,0 18.37278,-33.90276,0 18.36931,-33.90619,0 18.36559,-33.91023,0 18.36241,-33.91406,0 18.35936,-33.91796,0 18.35619,-33.9218,0 18.353,-33.92564,0 18.34997,-33.92969,0 18.34717,-33.93407,0 18.34465,-33.9386,0 18.3423,-33.9431,0 18.33721,-33.95413,0 18.33534,-33.95874,0 18.33143,-33.97145,0 18.32977,-33.98215,0 18.32891,-33.99337,0 18.3292,-33.99798,0 18.32989,-34.00269,0 18.33075,-34.00743,0 18.33229,-34.012,0 18.33435,-34.01614,0 18.33669,-34.02013,0 18.3391,-34.02425,0 18.34156,-34.02843,0 18.34616,-34.03679,0 18.35278,-34.04919,0 18.35747,-34.0579,0 18.35978,-34.06201,0 18.36205,-34.06604,0 18.36421,-34.06975,0 18.37127,-34.0811,0 18.37332,-34.08424,0 18.37542,-34.08737,0 18.37861,-34.09163,0 18.38093,-34.09453,0 18.38355,-34.09749,0 18.38659,-34.10063,0 18.38968,-34.10361,0 18.3928,-34.10646,0 18.39627,-34.10934,0 18.39947,-34.1119,0 18.40283,-34.11443,0 18.40619,-34.11667,0 18.40994,-34.11902,0 18.41331,-34.12102,0 18.41709,-34.12339,0 18.42054,-34.12555,0 18.42367,-34.12768,0 18.42648,-34.12977,0 18.42979,-34.13201,0 18.43332,-34.13393,0 18.43775,-34.13503,0 18.44218,-34.13475,0 18.44662,-34.1334,0 18.45114,-34.13112,0 18.45552,-34.12852,0 18.45955,-34.12591,0 18.46355,-34.12293,0 18.46768,-34.11955,0 18.47151,-34.11595,0 18.47477,-34.11227,0 18.47777,-34.10783,0 18.47929,-34.10296,0 18.4799,-34.09818,0 18.47996,-34.09282,0 18.47998,-34.08764,0 18.48029,-34.08197,0 18.48119,-34.07675,0 18.48248,-34.07167,0 18.48394,-34.06631,0 18.48541,-34.0606,0 18.48954,-34.04553,0 18.49096,-34.04025,0 18.49195,-34.03528,0 18.49246,-34.03001,0 18.49257,-34.02452,0 18.49234,-34.01939,0 18.49184,-34.01436,0 18.49119,-34.00948,0 18.48993,-33.99929,0 18.48988,-33.99445,0 18.48993,-33.98942,0 18.49045,-33.98439,0 18.49125,-33.97918,0 18.49184,-33.97398,0 18.49102,-33.96889,0 18.48954,-33.96332,0 18.48839,-33.95827,0 18.48616,-33.94854,0 18.48427,-33.94363,0 18.48221,-33.93877,0 18.47828,-33.92976,0 18.47488,-33.92355,0 18.47222,-33.91937,0 18.46919,-33.91534,0 18.46583,-33.91132,0 18.46292,-33.90797,0 18.45972,-33.90483,0 18.45602,-33.90271,0 18.45348,-33.90162,0 18.45119,-33.90092,0 18.44896,-33.90036,0 18.44685,-33.89994,0 18.44459,-33.89987,0 18.44284,-33.90009,0 18.44078,-33.90088,0 18.43952,-33.90181,0 18.43764,-33.90239,0 18.43592,-33.90213,0 18.43388,-33.90179,0 18.43158,-33.90138,0 18.42968,-33.90102,0 18.42842,-33.90078,0
        </coordinates>
      </LineString>
    </Placemark>
  </Document>
</kml>