<?xml version="1.0" encoding="UTF-8"?>
<kml xmlns="http://www.opengis.net/kml/2.2">
  <Document>
    <name>FR24 3e972c22 - Optimised</name>
    <description><![CDATA[Optimised flight path with 199 points (decimated from 995 original points). Source format: Standard KML]]></description>
    
    <Style id="flightPath">
      <LineStyle>
        <color>ffff0000</color>
        <width>3</width>
      </LineStyle>
    </Style>
    
    <Placemark>
      <name>Flight Path</name>
      <description><![CDATA[Optimized flight path]]></description>
      <styleUrl>#flightPath</styleUrl>
      <LineString>
        <extrude>1</extrude>
        <tessellate>1</tessellate>
        <altitudeMode>absolute</altitudeMode>
        <coordinates>
          18.42816,-33.89708,0 18.43254,-33.89417,0 18.43674,-33.89365,0 18.44044,-33.89561,0 18.44307,-33.89846,0 18.44554,-33.90157,0 18.44822,-33.90469,0 18.45176,-33.90802,0 18.45583,-33.91126,0 18.46024,-33.91447,0 18.46493,-33.91773,0 18.47757,-33.92592,0 18.48221,-33.92969,0 18.48661,-33.93328,0 18.49094,-33.93686,0 18.49537,-33.94044,0 18.50275,-33.94626,0 18.50853,-33.94915,0 18.51448,-33.95082,0 18.52049,-33.95181,0 18.52727,-33.95284,0 18.53365,-33.9539,0 18.53983,-33.95483,0 18.54576,-33.95554,0 18.55412,-33.95622,0 18.56352,-33.95707,0 18.56958,-33.95683,0 18.57536,-33.95627,0 18.58147,-33.95549,0 18.58727,-33.95441,0 18.59307,-33.95306,0 18.59888,-33.95171,0 18.60479,-33.95073,0 18.61095,-33.95018,0 18.61706,-33.94977,0 18.62297,-33.94934,0 18.62875,-33.94878,0 18.63482,-33.94775,0 18.6406,-33.94656,0 18.64683,-33.94528,0 18.65271,-33.9435,0 18.65873,-33.94138,0 18.66415,-33.93887,0 18.66975,-33.93594,0 18.6751,-33.93341,0 18.68093,-33.93104,0 18.68657,-33.92848,0 18.69156,-33.92564,0 18.6969,-33.9228,0 18.70228,-33.91978,0 18.7077,-33.91658,0 18.7128,-33.91383,0 18.71863,-33.91063,0 18.72894,-33.90564,0 18.73535,-33.90297,0 18.74187,-33.90046,0 18.74822,-33.89841,0 18.75422,-33.89658,0 18.76101,-33.89488,0 18.76689,-33.89397,0 18.77171,-33.89369,0 18.77678,-33.89389,0 18.78208,-33.89452,0 18.78731,-33.89543,0 18.79279,-33.89658,0 18.79875,-33.89776,0 18.81094,-33.89971,0 18.81718,-33.89915,0 18.82399,-33.89929,0 18.83034,-33.90019,0 18.83673,-33.90157,0 18.84279,-33.90312,0 18.84873,-33.90527,0 18.85489,-33.90761,0 18.86627,-33.91154,0 18.87262,-33.91321,0 18.87846,-33.91479,0 18.89225,-33.91856,0 18.89755,-33.91988,0 18.90338,-33.92111,0 18.9101,-33.92248,0 18.91571,-33.92381,0 18.92097,-33.92508,0 18.92597,-33.92628,0 18.92922,-33.92839,0 18.92989,-33.92693,0 18.92733,-33.92611,0 18.92521,-33.92532,0 18.92372,-33.92429,0 18.92305,-33.9229,0 18.92081,-33.92322,0 18.91874,-33.92126,0 18.91711,-33.91809,0 18.91425,-33.91837,0 18.91285,-33.92107,0 18.90987,-33.92401,0 18.90512,-33.92453,0 18.89992,-33.92322,0 18.89494,-33.92126,0 18.88945,-33.91856,0 18.88399,-33.91544,0 18.87897,-33.91214,0 18.87418,-33.90862,0 18.86942,-33.90535,0 18.86465,-33.90189,0 18.85923,-33.89846,0 18.85456,-33.89438,0 18.85047,-33.89085,0 18.84492,-33.88811,0 18.83938,-33.88607,0 18.83337,-33.88435,0 18.82687,-33.8828,0 18.82027,-33.88118,0 18.81374,-33.87965,0 18.8073,-33.87831,0 18.8008,-33.87744,0 18.79446,-33.87718,0 18.78811,-33.87765,0 18.78216,-33.87825,0 18.77687,-33.87895,0 18.77117,-33.87988,0 18.76642,-33.88072,0 18.76345,-33.88109,0 18.76099,-33.88198,0 18.75725,-33.88348,0 18.75271,-33.88522,0 18.74794,-33.88724,0 18.7421,-33.88975,0 18.7373,-33.89198,0 18.73247,-33.89438,0 18.7276,-33.8968,0 18.723,-33.89923,0 18.71841,-33.90195,0 18.71349,-33.90442,0 18.70865,-33.90692,0 18.70417,-33.90921,0 18.69879,-33.91173,0 18.69184,-33.91498,0 18.6869,-33.91754,0 18.68192,-33.92061,0 18.6767,-33.92345,0 18.67161,-33.92616,0 18.66606,-33.92839,0 18.66091,-33.9303,0 18.65576,-33.93295,0 18.65019,-33.93567,0 18.64477,-33.93789,0 18.63892,-33.93997,0 18.63236,-33.94217,0 18.61258,-33.94876,0 18.60266,-33.95247,0 18.59648,-33.95478,0 18.59072,-33.95714,0 18.58543,-33.95925,0 18.57994,-33.96111,0 18.57433,-33.96288,0 18.56884,-33.96456,0 18.56134,-33.96693,0 18.54223,-33.97243,0 18.52135,-33.97848,0 18.50321,-33.9836,0 18.49588,-33.98607,0 18.49176,-33.98891,0 18.48921,-33.9922,0 18.48792,-33.99582,0 18.48719,-33.99947,0 18.49005,-34.00218,0 18.4929,-34.00003,0 18.49083,-33.99696,0 18.48652,-33.99371,0 18.48198,-33.99033,0 18.47794,-33.98698,0 18.47391,-33.98323,0 18.35587,-33.95292,0 18.35984,-33.9435,0 18.36208,-33.93741,0 18.3641,-33.93192,0 18.36662,-33.92651,0 18.36988,-33.92122,0 18.37368,-33.91621,0 18.37788,-33.91127,0 18.38271,-33.90633,0 18.38739,-33.90218,0 18.39266,-33.89822,0 18.39823,-33.89488,0 18.40433,-33.89217,0 18.41131,-33.88975,0 18.41784,-33.88812,0 18.42442,-33.88672,0 18.43111,-33.88659,0 18.43781,-33.88747,0 18.44387,-33.88919,0 18.44776,-33.89291,0 18.44719,-33.89711,0 18.44319,-33.89859,0 18.43786,-33.89832,0 18.43416,-33.89854,0 18.43114,-33.89909,0 18.42808,-33.90022,0
        </coordinates>
      </LineString>
    </Placemark>
  </Document>
</kml>