<?xml version="1.0" encoding="UTF-8"?>
<kml xmlns="http://www.opengis.net/kml/2.2">
  <Document>
    <name>FR24 ZTREG 3dd4eef1 - Optimised</name>
    <description><![CDATA[Optimised flight path with 123 points (decimated from 613 original points). Source format: Standard KML]]></description>
    
    <Style id="flightPath">
      <LineStyle>
        <color>ffff0000</color>
        <width>3</width>
      </LineStyle>
    </Style>
    
    <Placemark>
      <name>Flight Path</name>
      <description><![CDATA[Source: ADS-B
Start (SAST): 2026-01-09 10:08:57
End (SAST): 2026-01-09 10:50:24
Points: 613]]></description>
      <styleUrl>#flightPath</styleUrl>
      <LineString>
        <extrude>1</extrude>
        <tessellate>1</tessellate>
        <altitudeMode>absolute</altitudeMode>
        <coordinates>
          18.41687,-33.87037,304.8 18.39156,-33.87757,457.20000000000005 18.35453,-33.89891,609.6 18.34443,-33.91013,640.08 18.3168,-33.96555,853.44 18.31287,-33.97663,822.96 18.31011,-33.99182,792.48 18.30404,-33.99754,822.96 18.30079,-34.00539,853.44 18.29727,-34.01198,853.44 18.29508,-34.01946,883.9200000000001 18.29515,-34.02672,883.9200000000001 18.29488,-34.03201,853.44 18.2933,-34.03749,853.44 18.29516,-34.04664,822.96 18.29511,-34.05296,792.48 18.29608,-34.06009,731.52 18.29432,-34.06607,731.52 18.29048,-34.07362,701.0400000000001 18.29533,-34.08212,670.5600000000001 18.29372,-34.09278,640.08 18.2924,-34.11895,640.08 18.28955,-34.12843,609.6 18.28991,-34.13737,609.6 18.30452,-34.14222,579.12 18.31382,-34.14537,548.64 18.31845,-34.14902,548.64 18.32472,-34.15397,487.68 18.32992,-34.15729,518.1600000000001 18.33618,-34.16085,518.1600000000001 18.34127,-34.16453,518.1600000000001 18.34648,-34.16745,548.64 18.35045,-34.17055,548.64 18.35529,-34.17341,548.64 18.36238,-34.17773,548.64 18.3657,-34.18322,548.64 18.36703,-34.18988,518.1600000000001 18.37079,-34.19429,518.1600000000001 18.37367,-34.19942,518.1600000000001 18.37416,-34.2045,518.1600000000001 18.37542,-34.2104,518.1600000000001 18.37738,-34.2175,518.1600000000001 18.37794,-34.2242,518.1600000000001 18.37951,-34.22923,518.1600000000001 18.38272,-34.24282,518.1600000000001 18.3892,-34.26064,518.1600000000001 18.42947,-34.314,487.68 18.44847,-34.31715,518.1600000000001 18.45574,-34.31919,518.1600000000001 18.46179,-34.32229,518.1600000000001 18.47251,-34.32486,487.68 18.47651,-34.33058,487.68 18.48513,-34.33648,487.68 18.49032,-34.33976,487.68 18.49738,-34.34567,487.68 18.53176,-34.31017,487.68 18.50645,-34.36179,518.1600000000001 18.49812,-34.3725,548.64 18.49142,-34.37436,548.64 18.48355,-34.37963,548.64 18.48241,-34.39059,548.64 18.53185,-34.32907,579.12 18.50022,-34.3363,548.64 18.50111,-34.32033,518.1600000000001 18.49804,-34.31397,457.20000000000005 18.49318,-34.29584,457.20000000000005 18.48919,-34.28508,457.20000000000005 18.49018,-34.27115,457.20000000000005 18.48973,-34.26456,426.72 18.49142,-34.25299,365.76 18.49107,-34.24511,335.28000000000003 18.49041,-34.23626,304.8 18.48851,-34.22759,274.32 18.48621,-34.22049,274.32 18.48132,-34.21454,243.84 18.47107,-34.22046,182.88 18.47075,-34.22337,121.92 18.47143,-34.22785,60.96 18.47219,-34.23196,0 18.47389,-34.23207,0 18.47382,-34.23361,0 18.47483,-34.23444,0 18.4741,-34.23585,0 18.47595,-34.23671,0 18.47787,-34.23918,30.48 18.48165,-34.24057,91.44 18.48803,-34.23606,182.88 18.48952,-34.22668,213.36 18.4895,-34.21506,274.32 18.48165,-34.2068,304.8 18.47872,-34.19882,304.8 18.47464,-34.18993,304.8 18.47172,-34.18041,304.8 18.46969,-34.1721,335.28000000000003 18.4696,-34.16273,335.28000000000003 18.46941,-34.15332,365.76 18.47009,-34.14423,396.24 18.47107,-34.13614,396.24 18.47241,-34.1274,396.24 18.47388,-34.11826,396.24 18.47463,-34.11029,396.24 18.47459,-34.1022,396.24 18.47411,-34.09439,396.24 18.47546,-34.08522,365.76 18.47337,-34.07672,335.28000000000003 18.47489,-34.06934,335.28000000000003 18.47552,-34.06126,304.8 18.47606,-34.05343,304.8 18.47589,-34.04652,304.8 18.47618,-34.03919,335.28000000000003 18.47725,-34.03126,335.28000000000003 18.47791,-34.02387,365.76 18.47869,-34.01718,335.28000000000003 18.47968,-34.00921,335.28000000000003 18.48027,-34.00093,335.28000000000003 18.48014,-33.99342,335.28000000000003 18.48049,-33.9864,335.28000000000003 18.48226,-33.96704,335.28000000000003 18.4835,-33.95804,335.28000000000003 18.48296,-33.95124,335.28000000000003 18.47981,-33.94123,335.28000000000003 18.47206,-33.93041,304.8 18.45376,-33.90998,304.8
        </coordinates>
      </LineString>
    </Placemark>
  </Document>
</kml>