<?xml version="1.0" encoding="UTF-8"?>
<kml xmlns="http://www.opengis.net/kml/2.2">
  <Document>
    <name>FR24 ZSHGD 3e217add - Optimised</name>
    <description><![CDATA[Optimised flight path with 406 points (decimated from 2028 original points). Source format: Standard KML]]></description>
    
    <Style id="flightPath">
      <LineStyle>
        <color>ffff0000</color>
        <width>3</width>
      </LineStyle>
    </Style>
    
    <Placemark>
      <name>Flight Path</name>
      <description><![CDATA[Park boundary / NP17 restricted airspace. Red track segments show flight inside this area.]]></description>
      <styleUrl>#flightPath</styleUrl>
      <LineString>
        <extrude>1</extrude>
        <tessellate>1</tessellate>
        <altitudeMode>absolute</altitudeMode>
        <coordinates>
          18.43013,-33.89452,45.72 18.43506,-33.88626,160.02 18.43467,-33.88266,198.12 18.43163,-33.87983,228.60000000000002 18.42755,-33.87813,266.7 18.42321,-33.87718,297.18 18.41813,-33.87653,327.66 18.41314,-33.8763,350.52000000000004 18.40832,-33.87657,373.38 18.40313,-33.87755,396.24 18.39775,-33.87904,434.34000000000003 18.39324,-33.88083,464.82000000000005 18.38888,-33.88305,487.68 18.38488,-33.88542,525.78 18.38097,-33.88829,556.26 18.37767,-33.8911,586.74 18.37413,-33.89429,601.98 18.37065,-33.89754,617.22 18.36729,-33.90106,624.84 18.36404,-33.90482,632.46 18.36085,-33.9088,632.46 18.35597,-33.91525,647.7 18.3522,-33.92108,655.32 18.34952,-33.9256,655.32 18.34324,-33.93672,701.0400000000001 18.3403,-33.94249,708.6600000000001 18.33464,-33.95567,731.52 18.32828,-33.9722,777.24 18.32682,-33.9787,784.86 18.32594,-33.98425,807.72 18.32548,-33.98868,822.96 18.32554,-33.99333,838.2 18.32609,-33.99779,861.0600000000001 18.32708,-34.00222,868.6800000000001 18.32856,-34.00639,891.5400000000001 18.33063,-34.01079,899.1600000000001 18.33304,-34.01505,899.1600000000001 18.33578,-34.01963,899.1600000000001 18.33841,-34.02368,883.9200000000001 18.34082,-34.02768,845.82 18.34305,-34.03155,800.1 18.34522,-34.03555,754.38 18.34705,-34.03932,723.9000000000001 18.34986,-34.04503,693.4200000000001 18.35232,-34.04873,670.5600000000001 18.35524,-34.05194,640.08 18.3567,-34.05551,632.46 18.35429,-34.05922,632.46 18.34913,-34.05991,632.46 18.347,-34.0565,655.32 18.34969,-34.05286,655.32 18.35415,-34.05305,655.32 18.35598,-34.05645,655.32 18.35485,-34.06073,647.7 18.35277,-34.06494,632.46 18.35036,-34.06929,617.22 18.3478,-34.07391,617.22 18.34543,-34.07831,640.08 18.34341,-34.08224,647.7 18.34253,-34.08611,647.7 18.34308,-34.09003,632.46 18.34577,-34.09369,624.84 18.34879,-34.09634,624.84 18.35272,-34.09904,632.46 18.35632,-34.10119,647.7 18.36017,-34.10321,655.32 18.3646,-34.10545,655.32 18.36908,-34.10761,647.7 18.37391,-34.10999,655.32 18.38699,-34.11637,647.7 18.40158,-34.12256,617.22 18.41393,-34.12752,594.36 18.42098,-34.13047,594.36 18.42968,-34.13383,579.12 18.43552,-34.13536,563.88 18.44206,-34.13512,556.26 18.44773,-34.1331,556.26 18.45348,-34.13005,548.64 18.45899,-34.12656,563.88 18.46337,-34.12299,571.5 18.4675,-34.11851,586.74 18.47065,-34.11424,594.36 18.47271,-34.10929,594.36 18.47403,-34.10338,586.74 18.4748,-34.09767,571.5 18.47536,-34.09172,563.88 18.4757,-34.08568,571.5 18.47592,-34.07076,556.26 18.47564,-34.05089,510.54 18.47488,-34.04509,502.92 18.47379,-34.03899,495.3 18.47385,-34.03313,487.68 18.47458,-34.0275,495.3 18.47546,-34.02168,480.06 18.47677,-34.01386,464.82000000000005 18.47775,-34.00767,441.96000000000004 18.4798,-33.99496,419.1 18.48175,-33.98085,388.62 18.48237,-33.97527,381 18.48281,-33.96964,381 18.4827,-33.96391,373.38 18.4822,-33.95746,381 18.48141,-33.95139,381 18.48024,-33.94579,381 18.47861,-33.93993,365.76 18.47677,-33.93463,350.52000000000004 18.47466,-33.92946,342.90000000000003 18.472,-33.92418,327.66 18.46876,-33.91898,304.8 18.46493,-33.91405,289.56 18.46067,-33.90953,266.7 18.45629,-33.90548,243.84 18.45091,-33.90223,228.60000000000002 18.4456,-33.90024,205.74 18.44061,-33.89957,152.4 18.43607,-33.89978,106.68 18.43197,-33.90022,53.34 18.42985,-33.90022,22.86 18.42808,-33.89999,0 18.42688,-33.89804,0 18.42738,-33.89607,0 18.42912,-33.8942,22.86 18.43105,-33.89245,45.72 18.43388,-33.88902,91.44 18.43556,-33.88522,144.78 18.43409,-33.88151,198.12 18.42985,-33.88021,243.84 18.4251,-33.88002,289.56 18.42047,-33.87993,335.28000000000003 18.41537,-33.88011,388.62 18.41096,-33.88055,426.72 18.40605,-33.88142,487.68 18.40165,-33.88257,541.02 18.39724,-33.88407,571.5 18.39254,-33.88589,594.36 18.38797,-33.88775,617.22 18.38355,-33.88985,632.46 18.37921,-33.89227,640.08 18.37515,-33.89529,640.08 18.37127,-33.89882,647.7 18.36777,-33.9026,655.32 18.36462,-33.90637,670.5600000000001 18.36164,-33.91047,701.0400000000001 18.35911,-33.91415,739.14 18.35642,-33.91795,769.62 18.35199,-33.92505,807.72 18.34974,-33.92895,822.96 18.34448,-33.93886,853.44 18.34252,-33.9435,861.0600000000001 18.3407,-33.94859,868.6800000000001 18.33916,-33.95329,868.6800000000001 18.33786,-33.95824,876.3000000000001 18.33681,-33.96279,883.9200000000001 18.33573,-33.96744,883.9200000000001 18.33428,-33.97229,891.5400000000001 18.33102,-33.98232,906.7800000000001 18.3288,-33.98914,906.7800000000001 18.32727,-33.99348,906.7800000000001 18.32576,-33.99806,899.1600000000001 18.32463,-34.00232,883.9200000000001 18.32365,-34.0066,868.6800000000001 18.32323,-34.01157,861.0600000000001 18.32503,-34.01546,838.2 18.328,-34.01917,822.96 18.33248,-34.02191,807.72 18.33725,-34.02347,777.24 18.34184,-34.02457,762 18.347,-34.02522,746.76 18.35182,-34.02521,723.9000000000001 18.35678,-34.0247,731.52 18.36152,-34.02356,754.38 18.36684,-34.02177,762 18.37206,-34.02005,746.76 18.37744,-34.01823,739.14 18.38338,-34.01642,731.52 18.38859,-34.01477,731.52 18.39386,-34.01363,731.52 18.39879,-34.01317,739.14 18.40367,-34.01331,739.14 18.40933,-34.01326,723.9000000000001 18.41454,-34.01207,739.14 18.4197,-34.01019,746.76 18.42407,-34.00768,739.14 18.42844,-34.0042,723.9000000000001 18.4326,-34.00013,723.9000000000001 18.43637,-33.99622,723.9000000000001 18.43999,-33.99197,708.6600000000001 18.44302,-33.98763,701.0400000000001 18.44622,-33.98304,701.0400000000001 18.44936,-33.97848,701.0400000000001 18.45221,-33.97385,693.4200000000001 18.4548,-33.96898,685.8000000000001 18.45709,-33.96386,678.1800000000001 18.45818,-33.95879,678.1800000000001 18.45818,-33.95385,678.1800000000001 18.45742,-33.94853,655.32 18.45657,-33.94324,624.84 18.45509,-33.93723,586.74 18.45303,-33.93225,563.88 18.45086,-33.92743,525.78 18.44879,-33.92276,487.68 18.44593,-33.91754,411.48 18.44403,-33.91296,358.14000000000004 18.44267,-33.90898,297.18 18.44128,-33.90541,236.22 18.43915,-33.90257,160.02 18.43652,-33.90051,114.30000000000001 18.43422,-33.8996,60.96 18.43243,-33.89957,30.48 18.43105,-33.89967,7.62 18.42928,-33.89981,0 18.42785,-33.89985,0 18.42653,-33.89846,0 18.4259,-33.89706,7.62 18.42676,-33.89515,30.48 18.42871,-33.89198,60.96 18.43065,-33.8884,91.44 18.43057,-33.88458,129.54000000000002 18.42693,-33.88253,167.64000000000001 18.422,-33.88229,213.36 18.41757,-33.88239,259.08000000000004 18.41286,-33.88249,304.8 18.40787,-33.88321,342.90000000000003 18.40333,-33.8844,381 18.39827,-33.88612,419.1 18.39317,-33.88794,449.58000000000004 18.38865,-33.88966,480.06 18.38413,-33.89161,518.1600000000001 18.37996,-33.89388,548.64 18.37536,-33.89648,586.74 18.37126,-33.89911,624.84 18.36757,-33.90207,662.94 18.36382,-33.90539,678.1800000000001 18.36062,-33.90871,701.0400000000001 18.35754,-33.91223,708.6600000000001 18.35426,-33.91587,716.2800000000001 18.34631,-33.92522,723.9000000000001 18.34299,-33.93007,731.52 18.34047,-33.93449,739.14 18.33932,-33.93892,746.76 18.3405,-33.9435,746.76 18.34391,-33.94729,746.76 18.34906,-33.94934,739.14 18.35501,-33.94849,731.52 18.35964,-33.94459,739.14 18.36185,-33.93988,739.14 18.36432,-33.93475,731.52 18.36645,-33.9295,723.9000000000001 18.36863,-33.92462,701.0400000000001 18.3716,-33.91973,678.1800000000001 18.37526,-33.91479,640.08 18.37961,-33.90977,617.22 18.38394,-33.90523,586.74 18.38905,-33.90115,563.88 18.39425,-33.8979,541.02 18.39998,-33.89529,518.1600000000001 18.40599,-33.89301,480.06 18.41246,-33.89091,449.58000000000004 18.41835,-33.88921,419.1 18.42447,-33.88742,388.62 18.43025,-33.88663,342.90000000000003 18.43512,-33.88807,289.56 18.43859,-33.89017,251.46 18.44055,-33.8931,182.88 18.44009,-33.89566,144.78 18.43792,-33.89758,83.82000000000001 18.43494,-33.89859,45.72 18.43328,-33.89915,30.48 18.43174,-33.89948,15.24 18.42979,-33.89978,0 18.4285,-33.90001,0 18.42766,-33.89923,0 18.42822,-33.89735,0 18.42917,-33.8958,15.24 18.43071,-33.89338,30.48 18.43254,-33.89099,53.34 18.43483,-33.88742,91.44 18.43552,-33.88361,129.54000000000002 18.43271,-33.88058,175.26000000000002 18.42805,-33.88005,220.98000000000002 18.42346,-33.8801,266.7 18.41875,-33.8803,304.8 18.414,-33.88072,358.14000000000004 18.4096,-33.88132,403.86 18.40507,-33.8822,441.96000000000004 18.40038,-33.88337,480.06 18.39588,-33.8849,525.78 18.39167,-33.88683,571.5 18.38764,-33.88879,586.74 18.38345,-33.89161,609.6 18.37996,-33.8945,624.84 18.37609,-33.8974,647.7 18.37217,-33.90041,662.94 18.36834,-33.90362,693.4200000000001 18.36491,-33.90702,716.2800000000001 18.36193,-33.91032,739.14 18.35916,-33.91365,762 18.35661,-33.91693,777.24 18.35426,-33.92085,792.48 18.3521,-33.92473,807.72 18.34991,-33.92876,815.34 18.34784,-33.93283,830.58 18.34341,-33.94194,868.6800000000001 18.34016,-33.95045,891.5400000000001 18.33847,-33.9553,906.7800000000001 18.33693,-33.95972,914.4000000000001 18.33529,-33.96474,929.6400000000001 18.33378,-33.96949,922.0200000000001 18.33086,-33.97801,937.26 18.32845,-33.98589,937.26 18.32783,-33.99012,944.88 18.32726,-33.99468,952.5 18.32699,-33.99916,944.88 18.32685,-34.00348,944.88 18.3271,-34.0079,952.5 18.32817,-34.01216,944.88 18.33063,-34.01642,929.6400000000001 18.33292,-34.02052,922.0200000000001 18.33515,-34.02466,906.7800000000001 18.33719,-34.02887,906.7800000000001 18.33814,-34.03345,899.1600000000001 18.33854,-34.0377,883.9200000000001 18.33847,-34.0423,868.6800000000001 18.33813,-34.04672,838.2 18.3375,-34.05138,807.72 18.33733,-34.05589,777.24 18.33725,-34.0605,754.38 18.33702,-34.0648,731.52 18.3367,-34.0686,723.9000000000001 18.33601,-34.07249,716.2800000000001 18.3354,-34.07597,716.2800000000001 18.33487,-34.08024,716.2800000000001 18.33487,-34.08373,716.2800000000001 18.33472,-34.08714,708.6600000000001 18.33469,-34.091,716.2800000000001 18.33444,-34.09721,739.14 18.33366,-34.10097,746.76 18.33304,-34.1049,754.38 18.33241,-34.10887,739.14 18.33212,-34.11287,731.52 18.33198,-34.11717,723.9000000000001 18.33175,-34.12138,731.52 18.33164,-34.12537,731.52 18.33206,-34.12982,716.2800000000001 18.33259,-34.13429,693.4200000000001 18.33282,-34.13901,685.8000000000001 18.33303,-34.1436,670.5600000000001 18.33338,-34.14899,647.7 18.33433,-34.15347,640.08 18.33561,-34.1577,632.46 18.33708,-34.16222,609.6 18.33865,-34.16647,594.36 18.34044,-34.17032,594.36 18.34282,-34.17428,586.74 18.34511,-34.178,594.36 18.34831,-34.18289,594.36 18.35066,-34.18675,571.5 18.35333,-34.19096,556.26 18.35586,-34.19472,541.02 18.35827,-34.19824,533.4 18.36061,-34.20188,533.4 18.36253,-34.20511,525.78 18.3646,-34.20886,510.54 18.36685,-34.2125,495.3 18.36903,-34.21596,480.06 18.37143,-34.21981,464.82000000000005 18.37351,-34.2236,457.20000000000005 18.37581,-34.22758,449.58000000000004 18.37788,-34.23111,449.58000000000004 18.3799,-34.23482,441.96000000000004 18.38226,-34.23843,441.96000000000004 18.38476,-34.24234,441.96000000000004 18.38728,-34.24606,426.72 18.38999,-34.24979,419.1 18.39294,-34.25379,396.24 18.42889,-33.89763,7.62 18.43018,-33.89575,30.48 18.43147,-33.89351,60.96 18.43328,-33.88993,99.06 18.43477,-33.88621,144.78 18.435,-33.88221,198.12 18.43414,-33.87844,236.22 18.43225,-33.87425,281.94 18.42996,-33.87007,327.66 18.42727,-33.86604,373.38 18.42436,-33.862,411.48 18.42155,-33.85791,441.96000000000004 18.41863,-33.85368,472.44 18.41555,-33.8492,502.92 18.41224,-33.8448,525.78 18.40908,-33.8405,541.02 18.40625,-33.83615,556.26 18.4035,-33.83121,548.64 18.4009,-33.82611,556.26 18.3975,-33.81894,541.02 18.3918,-33.80693,541.02 18.38534,-33.79427,518.1600000000001 18.38192,-33.78996,472.44 18.37732,-33.78645,419.1 18.37222,-33.78447,350.52000000000004 18.36707,-33.78589,281.94 18.36445,-33.7898,228.60000000000002 18.36359,-33.79413,167.64000000000001 18.36285,-33.79804,114.30000000000001 18.36674,-33.79967,38.1 18.36673,-33.79779,30.48
        </coordinates>
      </LineString>
    </Placemark>
    <Placemark>
      <name>Entry 1</name>
      <description><![CDATA[Entry into TMNP (incursion 1) at 2026-01-31 09:30:30 SAST]]></description>
      <Style>
        <IconStyle>
          <color>ff00ff00</color>
          <scale>0.8</scale>
          <Icon><href>http://maps.google.com/mapfiles/kml/shapes/placemark_circle.png</href></Icon>
        </IconStyle>
      </Style>
      <Point>
        <coordinates>18.339016869272122,-34.02466243629814,875.6756803253666</coordinates>
      </Point>
    </Placemark>
    <Placemark>
      <name>Exit 1</name>
      <description><![CDATA[Exit from TMNP (incursion 1) at 2026-01-31 09:30:32 SAST]]></description>
      <Style>
        <IconStyle>
          <color>ff0000ff</color>
          <scale>0.8</scale>
          <Icon><href>http://maps.google.com/mapfiles/kml/shapes/placemark_circle.png</href></Icon>
        </IconStyle>
      </Style>
      <Point>
        <coordinates>18.339551124830525,-34.02545568367448,866.9385448894278</coordinates>
      </Point>
    </Placemark>
    <Placemark>
      <name>Entry 2</name>
      <description><![CDATA[Entry into TMNP (incursion 2) at 2026-01-31 09:30:34 SAST]]></description>
      <Style>
        <IconStyle>
          <color>ff00ff00</color>
          <scale>0.8</scale>
          <Icon><href>http://maps.google.com/mapfiles/kml/shapes/placemark_circle.png</href></Icon>
        </IconStyle>
      </Style>
      <Point>
        <coordinates>18.340021202101912,-34.02626386437565,859.9754418219254</coordinates>
      </Point>
    </Placemark>
    <Placemark>
      <name>Exit 2</name>
      <description><![CDATA[Exit from TMNP (incursion 2) at 2026-01-31 09:30:57 SAST]]></description>
      <Style>
        <IconStyle>
          <color>ff0000ff</color>
          <scale>0.8</scale>
          <Icon><href>http://maps.google.com/mapfiles/kml/shapes/placemark_circle.png</href></Icon>
        </IconStyle>
      </Style>
      <Point>
        <coordinates>18.344468158855214,-34.034101855944286,767.920067098327</coordinates>
      </Point>
    </Placemark>
    <Placemark>
      <name>Entry 3</name>
      <description><![CDATA[Entry into TMNP (incursion 3) at 2026-01-31 09:35:18 SAST]]></description>
      <Style>
        <IconStyle>
          <color>ff00ff00</color>
          <scale>0.8</scale>
          <Icon><href>http://maps.google.com/mapfiles/kml/shapes/placemark_circle.png</href></Icon>
        </IconStyle>
      </Style>
      <Point>
        <coordinates>18.352676835683845,-34.09901239491409,632.46</coordinates>
      </Point>
    </Placemark>
    <Placemark>
      <name>Exit 3</name>
      <description><![CDATA[Exit from TMNP (incursion 3) at 2026-01-31 09:35:37 SAST]]></description>
      <Style>
        <IconStyle>
          <color>ff0000ff</color>
          <scale>0.8</scale>
          <Icon><href>http://maps.google.com/mapfiles/kml/shapes/placemark_circle.png</href></Icon>
        </IconStyle>
      </Style>
      <Point>
        <coordinates>18.358900316829793,-34.10257586817447,647.7</coordinates>
      </Point>
    </Placemark>
    <Placemark>
      <name>Entry 4</name>
      <description><![CDATA[Entry into TMNP (incursion 4) at 2026-01-31 09:36:06 SAST]]></description>
      <Style>
        <IconStyle>
          <color>ff00ff00</color>
          <scale>0.8</scale>
          <Icon><href>http://maps.google.com/mapfiles/kml/shapes/placemark_circle.png</href></Icon>
        </IconStyle>
      </Style>
      <Point>
        <coordinates>18.369789007266668,-34.10794824199878,647.7</coordinates>
      </Point>
    </Placemark>
    <Placemark>
      <name>Exit 4</name>
      <description><![CDATA[Exit from TMNP (incursion 4) at 2026-01-31 09:36:24 SAST]]></description>
      <Style>
        <IconStyle>
          <color>ff0000ff</color>
          <scale>0.8</scale>
          <Icon><href>http://maps.google.com/mapfiles/kml/shapes/placemark_circle.png</href></Icon>
        </IconStyle>
      </Style>
      <Point>
        <coordinates>18.37737403879782,-34.11169871153159,649.3803965986893</coordinates>
      </Point>
    </Placemark>
    <Placemark>
      <name>Entry 5</name>
      <description><![CDATA[Entry into TMNP (incursion 5) at 2026-01-31 09:37:20 SAST]]></description>
      <Style>
        <IconStyle>
          <color>ff00ff00</color>
          <scale>0.8</scale>
          <Icon><href>http://maps.google.com/mapfiles/kml/shapes/placemark_circle.png</href></Icon>
        </IconStyle>
      </Style>
      <Point>
        <coordinates>18.4019224669289,-34.122695899574964,616.3915561910346</coordinates>
      </Point>
    </Placemark>
    <Placemark>
      <name>Exit 5</name>
      <description><![CDATA[Exit from TMNP (incursion 5) at 2026-01-31 09:37:29 SAST]]></description>
      <Style>
        <IconStyle>
          <color>ff0000ff</color>
          <scale>0.8</scale>
          <Icon><href>http://maps.google.com/mapfiles/kml/shapes/placemark_circle.png</href></Icon>
        </IconStyle>
      </Style>
      <Point>
        <coordinates>18.40570971877027,-34.124192329276205,607.779156822078</coordinates>
      </Point>
    </Placemark>
    <Placemark>
      <name>Entry 6</name>
      <description><![CDATA[Entry into TMNP (incursion 6) at 2026-01-31 10:20:54 SAST]]></description>
      <Style>
        <IconStyle>
          <color>ff00ff00</color>
          <scale>0.8</scale>
          <Icon><href>http://maps.google.com/mapfiles/kml/shapes/placemark_circle.png</href></Icon>
        </IconStyle>
      </Style>
      <Point>
        <coordinates>18.45575479147451,-33.96706831432886,685.8000000000001</coordinates>
      </Point>
    </Placemark>
    <Placemark>
      <name>Exit 6</name>
      <description><![CDATA[Exit from TMNP (incursion 6) at 2026-01-31 10:21:10 SAST]]></description>
      <Style>
        <IconStyle>
          <color>ff0000ff</color>
          <scale>0.8</scale>
          <Icon><href>http://maps.google.com/mapfiles/kml/shapes/placemark_circle.png</href></Icon>
        </IconStyle>
      </Style>
      <Point>
        <coordinates>18.45804805143986,-33.95986443827543,678.1800000000001</coordinates>
      </Point>
    </Placemark>
    <Placemark>
      <name>Entry 7</name>
      <description><![CDATA[Entry into TMNP (incursion 7) at 2026-01-31 10:21:19 SAST]]></description>
      <Style>
        <IconStyle>
          <color>ff00ff00</color>
          <scale>0.8</scale>
          <Icon><href>http://maps.google.com/mapfiles/kml/shapes/placemark_circle.png</href></Icon>
        </IconStyle>
      </Style>
      <Point>
        <coordinates>18.458314825595078,-33.95565649265396,678.1800000000001</coordinates>
      </Point>
    </Placemark>
    <Placemark>
      <name>Exit 7</name>
      <description><![CDATA[Exit from TMNP (incursion 7) at 2026-01-31 10:21:49 SAST]]></description>
      <Style>
        <IconStyle>
          <color>ff0000ff</color>
          <scale>0.8</scale>
          <Icon><href>http://maps.google.com/mapfiles/kml/shapes/placemark_circle.png</href></Icon>
        </IconStyle>
      </Style>
      <Point>
        <coordinates>18.455978250212986,-33.94053080349473,607.9256138050184</coordinates>
      </Point>
    </Placemark>
    <Placemark>
      <name>Entry 8</name>
      <description><![CDATA[Entry into TMNP (incursion 8) at 2026-01-31 12:03:31 SAST]]></description>
      <Style>
        <IconStyle>
          <color>ff00ff00</color>
          <scale>0.8</scale>
          <Icon><href>http://maps.google.com/mapfiles/kml/shapes/placemark_circle.png</href></Icon>
        </IconStyle>
      </Style>
      <Point>
        <coordinates>18.33445492031023,-34.023270475581675,911.2034057786689</coordinates>
      </Point>
    </Placemark>
    <Placemark>
      <name>Exit 8</name>
      <description><![CDATA[Exit from TMNP (incursion 8) at 2026-01-31 12:04:05 SAST]]></description>
      <Style>
        <IconStyle>
          <color>ff0000ff</color>
          <scale>0.8</scale>
          <Icon><href>http://maps.google.com/mapfiles/kml/shapes/placemark_circle.png</href></Icon>
        </IconStyle>
      </Style>
      <Point>
        <coordinates>18.338414657092446,-34.0360970334086,891.5400000000001</coordinates>
      </Point>
    </Placemark>
    <Placemark>
      <name>Entry 9</name>
      <description><![CDATA[Entry into TMNP (incursion 9) at 2026-01-31 12:04:53 SAST]]></description>
      <Style>
        <IconStyle>
          <color>ff00ff00</color>
          <scale>0.8</scale>
          <Icon><href>http://maps.google.com/mapfiles/kml/shapes/placemark_circle.png</href></Icon>
        </IconStyle>
      </Style>
      <Point>
        <coordinates>18.33730751663791,-34.05529793813164,782.95077397082</coordinates>
      </Point>
    </Placemark>
    <Placemark>
      <name>Exit 9</name>
      <description><![CDATA[Exit from TMNP (incursion 9) at 2026-01-31 12:04:57 SAST]]></description>
      <Style>
        <IconStyle>
          <color>ff0000ff</color>
          <scale>0.8</scale>
          <Icon><href>http://maps.google.com/mapfiles/kml/shapes/placemark_circle.png</href></Icon>
        </IconStyle>
      </Style>
      <Point>
        <coordinates>18.337290371276552,-34.05638535904313,777.24</coordinates>
      </Point>
    </Placemark>
    <Placemark>
      <name>Entry 10</name>
      <description><![CDATA[Entry into TMNP (incursion 10) at 2026-01-31 12:09:06 SAST]]></description>
      <Style>
        <IconStyle>
          <color>ff00ff00</color>
          <scale>0.8</scale>
          <Icon><href>http://maps.google.com/mapfiles/kml/shapes/placemark_circle.png</href></Icon>
        </IconStyle>
      </Style>
      <Point>
        <coordinates>18.33314264727792,-34.14504970916877,667.6057067478821</coordinates>
      </Point>
    </Placemark>
    <Placemark>
      <name>Exit 10</name>
      <description><![CDATA[Exit from TMNP (incursion 10) at 2026-01-31 12:09:55 SAST]]></description>
      <Style>
        <IconStyle>
          <color>ff0000ff</color>
          <scale>0.8</scale>
          <Icon><href>http://maps.google.com/mapfiles/kml/shapes/placemark_circle.png</href></Icon>
        </IconStyle>
      </Style>
      <Point>
        <coordinates>18.337552682551944,-34.16377804765584,602.812635816671</coordinates>
      </Point>
    </Placemark>
    <Placemark>
      <name>Entry 11</name>
      <description><![CDATA[Entry into TMNP (incursion 11) at 2026-01-31 12:13:21 SAST]]></description>
      <Style>
        <IconStyle>
          <color>ff00ff00</color>
          <scale>0.8</scale>
          <Icon><href>http://maps.google.com/mapfiles/kml/shapes/placemark_circle.png</href></Icon>
        </IconStyle>
      </Style>
      <Point>
        <coordinates>18.377554808326288,-34.230496570251866,449.58000000000004</coordinates>
      </Point>
    </Placemark>
    <Placemark>
      <name>Exit 11</name>
      <description><![CDATA[Exit from TMNP (incursion 11) at 2026-01-31 13:02:33 SAST]]></description>
      <Style>
        <IconStyle>
          <color>ff0000ff</color>
          <scale>0.8</scale>
          <Icon><href>http://maps.google.com/mapfiles/kml/shapes/placemark_circle.png</href></Icon>
        </IconStyle>
      </Style>
      <Point>
        <coordinates>18.42315377893716,-33.945491105937286,51.42698830470443</coordinates>
      </Point>
    </Placemark>
  </Document>
</kml>