<?xml version="1.0" encoding="UTF-8"?>
<kml xmlns="http://www.opengis.net/kml/2.2">
  <Document>
    <name>FR24 41fb6b64 - Optimised</name>
    <description><![CDATA[Optimised flight path with 287 points (decimated from 1431 original points). Source format: Standard KML]]></description>
    
    <Style id="flightPath">
      <LineStyle>
        <color>ffff0000</color>
        <width>3</width>
      </LineStyle>
    </Style>
    
    <Placemark>
      <name>Flight Path</name>
      <description><![CDATA[Optimized flight path]]></description>
      <styleUrl>#flightPath</styleUrl>
      <LineString>
        <extrude>1</extrude>
        <tessellate>1</tessellate>
        <altitudeMode>absolute</altitudeMode>
        <coordinates>
          18.42738,-33.90065,0 18.42905,-33.89711,0 18.43164,-33.89397,0 18.43405,-33.89099,0 18.43609,-33.88784,0 18.43592,-33.88519,0 18.43374,-33.88384,0 18.43052,-33.88335,0 18.42665,-33.88321,0 18.42312,-33.88307,0 18.41936,-33.88307,0 18.4148,-33.88323,0 18.40994,-33.88346,0 18.40412,-33.88403,0 18.40004,-33.88482,0 18.39593,-33.88614,0 18.39139,-33.88847,0 18.38694,-33.89133,0 18.3827,-33.89417,0 18.37601,-33.89878,0 18.37246,-33.90167,0 18.36891,-33.90511,0 18.36561,-33.90884,0 18.36219,-33.91328,0 18.35916,-33.91805,0 18.35598,-33.92397,0 18.35358,-33.92946,0 18.35216,-33.93594,0 18.351,-33.94249,0 18.34951,-33.9491,0 18.34763,-33.95525,0 18.34557,-33.96181,0 18.3403,-33.97592,0 18.3313,-33.99825,0 18.32705,-34.01138,0 18.32851,-34.01819,0 18.32994,-34.02522,0 18.33023,-34.03173,0 18.33103,-34.03872,0 18.33086,-34.04519,0 18.32923,-34.0518,0 18.32906,-34.0584,0 18.33013,-34.06512,0 18.332,-34.07219,0 18.33428,-34.07922,0 18.33635,-34.08625,0 18.33848,-34.09323,0 18.34067,-34.0995,0 18.34324,-34.10587,0 18.34762,-34.11214,0 18.35432,-34.11604,0 18.3617,-34.11893,0 18.36931,-34.12115,0 18.37681,-34.12275,0 18.38439,-34.12408,0 18.39492,-34.12564,0 18.40636,-34.12761,0 18.4136,-34.12935,0 18.42037,-34.13109,0 18.42732,-34.13297,0 18.43439,-34.13452,0 18.44141,-34.13499,0 18.44873,-34.13368,0 18.45474,-34.13103,0 18.46018,-34.12805,0 18.46556,-34.12484,0 18.47008,-34.12172,0 18.47435,-34.11777,0 18.47727,-34.11301,0 18.47867,-34.10825,0 18.47923,-34.10307,0 18.47952,-34.09779,0 18.4798,-34.09262,0 18.48057,-34.07465,0 18.48049,-34.06981,0 18.48049,-34.06292,0 18.48041,-34.05569,0 18.48013,-34.0507,0 18.47973,-34.04562,0 18.47934,-34.04095,0 18.47878,-34.03579,0 18.47783,-34.02571,0 18.47734,-34.01432,0 18.47755,-34.00928,0 18.47766,-34.00397,0 18.47867,-33.98497,0 18.48007,-33.9695,0 18.48125,-33.96382,0 18.48265,-33.95819,0 18.48382,-33.95325,0 18.48433,-33.94799,0 18.48375,-33.94315,0 18.48215,-33.93793,0 18.47962,-33.93237,0 18.47694,-33.92769,0 18.47368,-33.92318,0 18.46942,-33.91887,0 18.46522,-33.91502,0 18.46118,-33.91145,0 18.45686,-33.90779,0 18.45222,-33.90423,0 18.44776,-33.90069,0 18.44425,-33.89832,0 18.44027,-33.89731,0 18.43643,-33.89827,0 18.43388,-33.90015,0 18.43157,-33.90083,0 18.42934,-33.90009,0 18.42772,-33.90015,0 18.42732,-33.89859,0 18.42957,-33.89529,0 18.43369,-33.89115,0 18.43752,-33.88701,0 18.4382,-33.88266,0 18.4366,-33.87877,0 18.4346,-33.87541,0 18.43052,-33.87469,0 18.42619,-33.87537,0 18.42196,-33.87611,0 18.41698,-33.877,0 18.41286,-33.87783,0 18.40894,-33.87863,0 18.40536,-33.87965,0 18.40193,-33.88076,0 18.39896,-33.88225,0 18.39563,-33.88426,0 18.39209,-33.88659,0 18.38842,-33.88924,0 18.38499,-33.89189,0 18.38139,-33.89492,0 18.37811,-33.8979,0 18.37446,-33.90153,0 18.37149,-33.9052,0 18.3688,-33.9093,0 18.3655,-33.91388,0 18.36197,-33.91887,0 18.35855,-33.92409,0 18.35546,-33.92921,0 18.35243,-33.93491,0 18.34997,-33.9403,0 18.34874,-33.94565,0 18.34952,-33.95036,0 18.35186,-33.95353,0 18.35604,-33.95227,0 18.35754,-33.94812,0 18.35936,-33.94361,0 18.36176,-33.9384,0 18.36466,-33.93288,0 18.36771,-33.9276,0 18.37074,-33.92271,0 18.37447,-33.91791,0 18.37864,-33.91335,0 18.38247,-33.90907,0 18.38699,-33.90465,0 18.39218,-33.90042,0 18.39781,-33.89682,0 18.40416,-33.89445,0 18.41108,-33.89212,0 18.41749,-33.88942,0 18.42351,-33.88687,0 18.43002,-33.88496,0 18.43708,-33.88573,0 18.44147,-33.8891,0 18.44296,-33.89355,0 18.44084,-33.89669,0 18.43666,-33.89808,0 18.43293,-33.89905,0 18.42957,-33.8999,0 18.42796,-33.90036,0 18.42766,-33.89905,0 18.43054,-33.89576,0 18.43409,-33.89152,0 18.43678,-33.88691,0 18.43674,-33.88225,0 18.4346,-33.87862,0 18.43108,-33.87744,0 18.42794,-33.87762,0 18.42475,-33.87799,0 18.42149,-33.87872,0 18.4183,-33.87955,0 18.41543,-33.88044,0 18.41251,-33.88128,0 18.40995,-33.88211,0 18.40731,-33.883,0 18.40456,-33.88388,0 18.40141,-33.88463,0 18.39809,-33.88593,0 18.39363,-33.8882,0 18.38926,-33.89076,0 18.38505,-33.89361,0 18.3813,-33.89653,0 18.37732,-33.90004,0 18.37337,-33.90348,0 18.36937,-33.90701,0 18.36561,-33.91168,0 18.36233,-33.91652,0 18.35907,-33.92187,0 18.35518,-33.92867,0 18.35232,-33.93444,0 18.35054,-33.93896,0 18.34952,-33.94382,0 18.34969,-33.94794,0 18.35072,-33.95162,0 18.353,-33.95384,0 18.35614,-33.95247,0 18.35787,-33.94817,0 18.36028,-33.94235,0 18.36479,-33.93202,0 18.3692,-33.92519,0 18.37486,-33.9202,0 18.38035,-33.91484,0 18.38506,-33.90967,0 18.38943,-33.90431,0 18.39426,-33.89915,0 18.4005,-33.8951,0 18.40742,-33.8924,0 18.41429,-33.88966,0 18.42172,-33.8871,0 18.42912,-33.88522,0 18.43668,-33.88651,0 18.44066,-33.89012,0 18.44101,-33.89459,0 18.43831,-33.8974,0 18.43483,-33.89845,0 18.43164,-33.89919,0 18.42899,-33.89999,0 18.42751,-33.90055,0 18.42957,-33.89708,0 18.43409,-33.89305,0 18.4373,-33.88884,0 18.43729,-33.88444,0 18.43534,-33.88076,0 18.43321,-33.87717,0 18.43091,-33.87387,0 18.42728,-33.8736,0 18.42441,-33.87424,0 18.42155,-33.87499,0 18.41869,-33.87575,0 18.41606,-33.87653,0 18.41325,-33.87749,0 18.41022,-33.87853,0 18.40731,-33.87991,0 18.40372,-33.88138,0 18.4001,-33.88281,0 18.3961,-33.88467,0 18.39169,-33.88691,0 18.38705,-33.88961,0 18.38271,-33.89232,0 18.37704,-33.89594,0 18.3732,-33.89939,0 18.36953,-33.90308,0 18.36583,-33.90669,0 18.36269,-33.91049,0 18.36325,-33.9147,0 18.36428,-33.91898,0 18.36222,-33.92294,0 18.3595,-33.92656,0 18.35678,-33.93039,0 18.35443,-33.93467,0 18.3498,-33.94338,0 18.34863,-33.9473,0 18.35059,-33.95128,0 18.35356,-33.95412,0 18.35621,-33.95213,0 18.35838,-33.9473,0 18.3613,-33.94156,0 18.36567,-33.93132,0 18.36847,-33.92542,0 18.37177,-33.91973,0 18.37589,-33.91428,0 18.38029,-33.90926,0 18.38573,-33.90423,0 18.39201,-33.89992,0 18.39846,-33.89658,0 18.40496,-33.89392,0 18.4128,-33.89161,0 18.41981,-33.88943,0 18.4267,-33.88691,0 18.43405,-33.88655,0 18.43981,-33.88807,0 18.44358,-33.8911,0 18.44313,-33.89516,0 18.43946,-33.89706,0 18.43546,-33.89827,0 18.43192,-33.89914,0 18.42912,-33.89992,0 18.42756,-33.90051,0
        </coordinates>
      </LineString>
    </Placemark>
  </Document>
</kml>