<?xml version="1.0" encoding="UTF-8"?>
<kml xmlns="http://www.opengis.net/kml/2.2">
  <Document>
    <name>FR24 41643b56 - Optimised</name>
    <description><![CDATA[Optimised flight path with 341 points (decimated from 1705 original points). Source format: Standard KML]]></description>
    
    <Style id="flightPath">
      <LineStyle>
        <color>ffff0000</color>
        <width>3</width>
      </LineStyle>
    </Style>
    
    <Placemark>
      <name>Flight Path</name>
      <description><![CDATA[Optimized flight path]]></description>
      <styleUrl>#flightPath</styleUrl>
      <LineString>
        <extrude>1</extrude>
        <tessellate>1</tessellate>
        <altitudeMode>absolute</altitudeMode>
        <coordinates>
          18.43287,-33.90134,0 18.43708,-33.89969,0 18.43866,-33.89636,0 18.43859,-33.89268,0 18.43763,-33.8884,0 18.43562,-33.88458,0 18.43197,-33.88132,0 18.42693,-33.87982,0 18.42105,-33.8795,0 18.41432,-33.88,0 18.40737,-33.88152,0 18.40096,-33.88346,0 18.3934,-33.88626,0 18.38728,-33.88929,0 18.38121,-33.89264,0 18.37581,-33.89639,0 18.37071,-33.90074,0 18.366,-33.90596,0 18.36213,-33.91136,0 18.35855,-33.91722,0 18.35512,-33.92299,0 18.35199,-33.92917,0 18.34935,-33.93466,0 18.34638,-33.94066,0 18.34373,-33.94659,0 18.34099,-33.95292,0 18.33773,-33.95911,0 18.34379,-33.97126,0 18.35146,-33.95772,0 18.35312,-33.95101,0 18.3558,-33.94203,0 18.35775,-33.93677,0 18.35978,-33.93105,0 18.36342,-33.92136,0 18.36645,-33.9161,0 18.3702,-33.91104,0 18.37423,-33.90632,0 18.37864,-33.90204,0 18.38327,-33.89795,0 18.38831,-33.89442,0 18.3942,-33.89138,0 18.4007,-33.88907,0 18.40696,-33.88728,0 18.41291,-33.88579,0 18.41875,-33.88458,0 18.42475,-33.88344,0 18.42985,-33.88458,0 18.43042,-33.88896,0 18.42929,-33.89282,0 18.42859,-33.89543,0 18.42816,-33.89694,0 18.42779,-33.89855,0 18.4271,-33.90018,0 18.4276,-33.90106,0 18.43157,-33.90078,0 18.43454,-33.90027,0 18.43763,-33.89753,0 18.43853,-33.89337,0 18.43821,-33.88929,0 18.43637,-33.88519,0 18.43321,-33.88234,0 18.42895,-33.88028,0 18.42413,-33.87904,0 18.41841,-33.87854,0 18.41146,-33.87872,0 18.40479,-33.87964,0 18.3979,-33.88138,0 18.39106,-33.88412,0 18.385,-33.88751,0 18.3794,-33.89159,0 18.37486,-33.89594,0 18.37023,-33.90092,0 18.36606,-33.90623,0 18.3623,-33.91173,0 18.35911,-33.91713,0 18.35546,-33.92317,0 18.35199,-33.92931,0 18.34871,-33.93537,0 18.34557,-33.94142,0 18.3424,-33.9483,0 18.33949,-33.95467,0 18.3395,-33.97182,0 18.34911,-33.96661,0 18.35117,-33.96074,0 18.35318,-33.95399,0 18.35484,-33.94813,0 18.35658,-33.94286,0 18.35867,-33.93686,0 18.36101,-33.93118,0 18.36348,-33.92587,0 18.36605,-33.92103,0 18.36937,-33.91512,0 18.37429,-33.90725,0 18.37794,-33.90248,0 18.38242,-33.89771,0 18.38781,-33.89388,0 18.39403,-33.89115,0 18.40078,-33.88905,0 18.40703,-33.88742,0 18.41359,-33.88605,0 18.41949,-33.88496,0 18.42558,-33.88417,0 18.43014,-33.88621,0 18.43048,-33.89008,0 18.42916,-33.8938,0 18.42856,-33.89594,0 18.42813,-33.89743,0 18.42762,-33.8992,0 18.42687,-33.9006,0 18.42884,-33.90115,0 18.43082,-33.9012,0 18.43382,-33.90106,0 18.437,-33.8992,0 18.43881,-33.89548,0 18.43893,-33.89154,0 18.43769,-33.88756,0 18.43512,-33.88421,0 18.43119,-33.88179,0 18.42592,-33.88028,0 18.41995,-33.87937,0 18.41309,-33.87895,0 18.40593,-33.87937,0 18.39958,-33.88067,0 18.39308,-33.88266,0 18.38663,-33.88536,0 18.3811,-33.88854,0 18.37547,-33.89291,0 18.37071,-33.89763,0 18.36651,-33.90283,0 18.36314,-33.90825,0 18.36033,-33.9134,0 18.35726,-33.91933,0 18.34986,-33.93411,0 18.34705,-33.94026,0 18.34328,-33.94883,0 18.34162,-33.97219,0 18.351,-33.96512,0 18.35255,-33.95613,0 18.35367,-33.94986,0 18.3553,-33.94368,0 18.35701,-33.93821,0 18.35907,-33.9323,0 18.36096,-33.92625,0 18.36292,-33.92125,0 18.36611,-33.91626,0 18.37057,-33.91214,0 18.3744,-33.90753,0 18.37852,-33.9032,0 18.38349,-33.89886,0 18.38837,-33.89506,0 18.3942,-33.89212,0 18.40064,-33.89026,0 18.40714,-33.88879,0 18.41404,-33.88733,0 18.42867,-33.88499,0 18.43164,-33.88806,0 18.43063,-33.89191,0 18.42934,-33.89493,0 18.42848,-33.89706,0 18.42794,-33.89859,0 18.42728,-33.90009,0 18.42699,-33.9012,0 18.42728,-33.89971,0 18.42831,-33.89776,0 18.42929,-33.89603,0 18.43108,-33.89291,0 18.43321,-33.88902,0 18.43523,-33.88518,0 18.43695,-33.88095,0 18.43964,-33.87751,0 18.44313,-33.87909,0 18.44212,-33.88206,0 18.43803,-33.88307,0 18.43304,-33.88184,0 18.42745,-33.88091,0 18.42116,-33.8806,0 18.41421,-33.8806,0 18.40681,-33.88106,0 18.39935,-33.88221,0 18.39272,-33.88435,0 18.38657,-33.88792,0 18.38144,-33.89217,0 18.37635,-33.89664,0 18.37103,-33.90153,0 18.36639,-33.90587,0 18.36164,-33.91056,0 18.3572,-33.91544,0 18.35289,-33.9201,0 18.35031,-33.92519,0 18.35352,-33.92811,0 18.35741,-33.9262,0 18.36202,-33.92487,0 18.36508,-33.92839,0 18.36365,-33.93375,0 18.36057,-33.93919,0 18.35724,-33.9451,0 18.34923,-33.96056,0 18.33932,-33.98058,0 18.33218,-33.99607,0 18.3304,-34.00273,0 18.33013,-34.00868,0 18.33153,-34.01472,0 18.33412,-34.02028,0 18.33755,-34.02615,0 18.34106,-34.03235,0 18.34414,-34.03862,0 18.34694,-34.04485,0 18.35322,-34.05771,0 18.3573,-34.06404,0 18.36164,-34.07028,0 18.36623,-34.07593,0 18.37069,-34.08192,0 18.37429,-34.08844,0 18.37778,-34.09458,0 18.38164,-34.10042,0 18.3864,-34.10674,0 18.39134,-34.11213,0 18.39672,-34.11685,0 18.40284,-34.1213,0 18.40961,-34.12495,0 18.41623,-34.12814,0 18.42318,-34.13123,0 18.4299,-34.13379,0 18.43649,-34.13671,0 18.44273,-34.13913,0 18.44907,-34.14134,0 18.45574,-34.14267,0 18.46218,-34.14039,0 18.46607,-34.13564,0 18.46802,-34.13075,0 18.4688,-34.12532,0 18.46882,-34.12041,0 18.46825,-34.11483,0 18.46888,-34.10929,0 18.46893,-34.10394,0 18.46842,-34.09872,0 18.46773,-34.09309,0 18.46664,-34.08694,0 18.46527,-34.08038,0 18.46315,-34.07568,0 18.46121,-34.07033,0 18.46081,-34.0652,0 18.46132,-34.05999,0 18.46127,-34.0551,0 18.4609,-34.05029,0 18.45966,-34.04509,0 18.45748,-34.04027,0 18.45524,-34.03532,0 18.45354,-34.03057,0 18.45232,-34.02512,0 18.45165,-34.01986,0 18.45137,-34.01445,0 18.45103,-34.00928,0 18.45019,-34.00443,0 18.44975,-33.99934,0 18.45075,-33.99435,0 18.45266,-33.98987,0 18.45473,-33.98474,0 18.45657,-33.97997,0 18.45877,-33.97522,0 18.46051,-33.97083,0 18.46109,-33.96628,0 18.46073,-33.96208,0 18.45961,-33.95762,0 18.45787,-33.95311,0 18.45585,-33.94826,0 18.45406,-33.9435,0 18.4528,-33.93854,0 18.45221,-33.93338,0 18.45227,-33.92848,0 18.45251,-33.92411,0 18.45263,-33.91968,0 18.45294,-33.91374,0 18.45222,-33.90809,0 18.44986,-33.90459,0 18.44673,-33.90208,0 18.44285,-33.90028,0 18.43872,-33.89952,0 18.43506,-33.89925,0 18.43317,-33.89929,0 18.43181,-33.89937,0 18.43035,-33.89969,0 18.42884,-33.90019,0 18.42749,-33.90079,0 18.42777,-33.90125,0 18.42905,-33.90134,0 18.43077,-33.90111,0 18.43403,-33.90051,0 18.43736,-33.8985,0 18.43926,-33.89525,0 18.43954,-33.89113,0 18.43843,-33.88724,0 18.43523,-33.88384,0 18.43085,-33.88193,0 18.42636,-33.88095,0 18.42138,-33.88065,0 18.41537,-33.88063,0 18.40933,-33.88101,0 18.40284,-33.88202,0 18.39684,-33.88379,0 18.39117,-33.88623,0 18.38596,-33.88896,0 18.38013,-33.89232,0 18.37509,-33.89566,0 18.37049,-33.89941,0 18.36611,-33.90367,0 18.36273,-33.90828,0 18.35964,-33.91317,0 18.35703,-33.91864,0 18.35524,-33.92424,0 18.35335,-33.93048,0 18.35104,-33.93626,0 18.34843,-33.94194,0 18.34333,-33.95297,0 18.34511,-33.96856,0 18.35216,-33.96382,0 18.35373,-33.95682,0 18.35432,-33.95082,0 18.35591,-33.94418,0 18.35832,-33.93787,0 18.36084,-33.93188,0 18.36303,-33.92642,0 18.36599,-33.92057,0 18.3696,-33.91507,0 18.37343,-33.91009,0 18.37755,-33.90541,0 18.38214,-33.90047,0 18.38682,-33.89627,0 18.39294,-33.89264,0 18.39986,-33.8904,0 18.40616,-33.88873,0 18.4123,-33.88705,0 18.4248,-33.88417,0 18.42934,-33.88528,0 18.43063,-33.88779,0 18.43041,-33.89021,0 18.42985,-33.89241,0 18.42888,-33.89501,0 18.42816,-33.89726,0 18.42773,-33.89887,0 18.42704,-33.90024,0
        </coordinates>
      </LineString>
    </Placemark>
  </Document>
</kml>