<?xml version="1.0" encoding="UTF-8"?>
<kml xmlns="http://www.opengis.net/kml/2.2">
  <Document>
    <name>FR24 ZTHOT 3e0cb69c - Optimised</name>
    <description><![CDATA[Optimised flight path with 544 points (decimated from 2719 original points). Source format: Standard KML]]></description>
    
    <Style id="flightPath">
      <LineStyle>
        <color>ffff0000</color>
        <width>3</width>
      </LineStyle>
    </Style>
    
    <Placemark>
      <name>Flight Path</name>
      <description><![CDATA[Source: ADS-B
Start (SAST): 2026-01-25 09:12:27
End (SAST): 2026-01-25 17:35:26
Points: 2719]]></description>
      <styleUrl>#flightPath</styleUrl>
      <LineString>
        <extrude>1</extrude>
        <tessellate>1</tessellate>
        <altitudeMode>absolute</altitudeMode>
        <coordinates>
          18.42794,-33.89951,60.96 18.43114,-33.89497,121.92 18.43351,-33.89147,182.88 18.43556,-33.88783,243.84 18.43637,-33.88398,304.8 18.43456,-33.87964,335.28000000000003 18.4308,-33.87675,396.24 18.42519,-33.87511,426.72 18.41984,-33.87481,487.68 18.41471,-33.87515,518.1600000000001 18.40939,-33.87598,548.64 18.40401,-33.87753,579.12 18.39868,-33.87996,609.6 18.39352,-33.88281,640.08 18.38859,-33.88591,640.08 18.38383,-33.88921,670.5600000000001 18.3791,-33.89282,701.0400000000001 18.37424,-33.89671,701.0400000000001 18.36981,-33.90047,731.52 18.36582,-33.9046,762 18.36225,-33.90926,792.48 18.3593,-33.91377,822.96 18.35681,-33.91837,822.96 18.35455,-33.92336,853.44 18.35215,-33.93016,883.9200000000001 18.34997,-33.93933,914.4000000000001 18.34644,-33.951,914.4000000000001 18.34391,-33.95665,914.4000000000001 18.34924,-33.96909,883.9200000000001 18.3577,-33.96251,822.96 18.359,-33.95668,822.96 18.36027,-33.95078,762 18.36129,-33.94505,731.52 18.3621,-33.93942,701.0400000000001 18.36342,-33.93393,670.5600000000001 18.36531,-33.92811,640.08 18.36802,-33.92244,640.08 18.37161,-33.91736,609.6 18.37566,-33.91261,609.6 18.38013,-33.90788,609.6 18.38459,-33.90343,579.12 18.38877,-33.8992,579.12 18.3938,-33.89516,548.64 18.39941,-33.8924,518.1600000000001 18.4057,-33.89035,487.68 18.41257,-33.88873,487.68 18.41869,-33.88761,457.20000000000005 18.42436,-33.88691,426.72 18.42985,-33.88756,396.24 18.4341,-33.88962,365.76 18.4373,-33.89209,304.8 18.43964,-33.89534,274.32 18.43918,-33.89855,213.36 18.43534,-33.8999,152.4 18.4317,-33.89978,91.44 18.42842,-33.90032,60.96 18.42813,-33.89864,60.96 18.43042,-33.89468,121.92 18.43293,-33.8914,152.4 18.43534,-33.88779,213.36 18.43607,-33.88376,274.32 18.43422,-33.87955,304.8 18.43014,-33.87653,365.76 18.4248,-33.8752,426.72 18.41944,-33.87485,457.20000000000005 18.41429,-33.87495,518.1600000000001 18.40911,-33.87561,548.64 18.40412,-33.87703,609.6 18.39901,-33.87909,640.08 18.39392,-33.88151,640.08 18.38905,-33.88435,670.5600000000001 18.38433,-33.88747,670.5600000000001 18.37973,-33.89085,701.0400000000001 18.37559,-33.89433,731.52 18.37161,-33.89818,762 18.36794,-33.90208,762 18.36411,-33.90651,792.48 18.36085,-33.91086,822.96 18.35782,-33.91534,822.96 18.35529,-33.92015,853.44 18.35335,-33.92541,883.9200000000001 18.35216,-33.93086,883.9200000000001 18.35094,-33.93784,883.9200000000001 18.35003,-33.94354,914.4000000000001 18.3482,-33.94962,914.4000000000001 18.34549,-33.95535,914.4000000000001 18.34706,-33.96822,883.9200000000001 18.35752,-33.96326,792.48 18.35866,-33.95769,792.48 18.35976,-33.95181,762 18.36219,-33.94034,701.0400000000001 18.36589,-33.92697,640.08 18.36886,-33.92139,609.6 18.37267,-33.91649,609.6 18.37699,-33.91164,609.6 18.38121,-33.90716,579.12 18.39083,-33.89708,548.64 18.39582,-33.89333,548.64 18.40137,-33.89049,518.1600000000001 18.40703,-33.88829,487.68 18.41326,-33.88659,487.68 18.41903,-33.88564,457.20000000000005 18.42418,-33.8855,426.72 18.42906,-33.88623,396.24 18.43426,-33.88649,396.24 18.43904,-33.88696,365.76 18.44341,-33.88834,335.28000000000003 18.44666,-33.89072,304.8 18.44795,-33.89365,274.32 18.44696,-33.89645,243.84 18.44363,-33.89882,213.36 18.43929,-33.90041,152.4 18.43609,-33.90046,121.92 18.43294,-33.90013,91.44 18.42929,-33.90015,60.96 18.42738,-33.90061,0 18.42884,-33.89781,60.96 18.43071,-33.89487,121.92 18.43287,-33.89154,152.4 18.435,-33.88789,213.36 18.43573,-33.88344,274.32 18.4338,-33.87946,335.28000000000003 18.42894,-33.8769,365.76 18.42374,-33.87547,426.72 18.41852,-33.87467,487.68 18.41297,-33.87467,548.64 18.40771,-33.87564,579.12 18.40232,-33.87776,609.6 18.39781,-33.88034,609.6 18.39296,-33.88367,640.08 18.38842,-33.88714,670.5600000000001 18.38433,-33.89044,670.5600000000001 18.38024,-33.89403,701.0400000000001 18.3762,-33.89763,731.52 18.37088,-33.90266,762 18.36752,-33.90633,792.48 18.36422,-33.91037,822.96 18.36146,-33.91443,822.96 18.35924,-33.9187,853.44 18.35724,-33.92378,853.44 18.35546,-33.92899,883.9200000000001 18.35358,-33.93565,883.9200000000001 18.35148,-33.94437,853.44 18.34935,-33.95087,853.44 18.34666,-33.95673,853.44 18.35157,-33.97038,792.48 18.36028,-33.96304,762 18.36119,-33.95753,731.52 18.36205,-33.95143,701.0400000000001 18.36314,-33.94276,670.5600000000001 18.36479,-33.93169,640.08 18.36651,-33.92574,609.6 18.36903,-33.92052,609.6 18.37303,-33.91531,609.6 18.37727,-33.91088,609.6 18.38158,-33.90633,609.6 18.38668,-33.90079,609.6 18.39128,-33.89648,548.64 18.39689,-33.8931,518.1600000000001 18.40279,-33.89101,518.1600000000001 18.40866,-33.88925,487.68 18.41482,-33.8877,457.20000000000005 18.42058,-33.88649,426.72 18.42581,-33.88591,396.24 18.43063,-33.88692,365.76 18.43414,-33.88887,335.28000000000003 18.43706,-33.89152,304.8 18.43876,-33.89433,274.32 18.43872,-33.8972,213.36 18.4358,-33.89906,152.4 18.4322,-33.89951,91.44 18.42732,-33.90074,30.48 18.42788,-33.89937,60.96 18.43025,-33.89627,91.44 18.43231,-33.89301,152.4 18.43444,-33.88966,182.88 18.43601,-33.88522,213.36 18.43454,-33.88109,274.32 18.42974,-33.8776,304.8 18.42447,-33.87602,365.76 18.41869,-33.87527,426.72 18.41337,-33.87534,457.20000000000005 18.40851,-33.87616,518.1600000000001 18.40347,-33.87778,548.64 18.39844,-33.88011,579.12 18.3942,-33.88266,609.6 18.38997,-33.8856,640.08 18.38612,-33.88857,670.5600000000001 18.38237,-33.89186,701.0400000000001 18.37852,-33.89543,731.52 18.37503,-33.89897,731.52 18.37172,-33.90265,762 18.36819,-33.90688,792.48 18.3651,-33.91086,822.96 18.3623,-33.91493,853.44 18.35989,-33.91933,853.44 18.35804,-33.9242,883.9200000000001 18.35661,-33.92946,914.4000000000001 18.35546,-33.93514,914.4000000000001 18.35373,-33.94226,914.4000000000001 18.35186,-33.94752,914.4000000000001 18.34917,-33.95264,914.4000000000001 18.35025,-33.964,883.9200000000001 18.35993,-33.96191,792.48 18.36073,-33.9549,792.48 18.36146,-33.94894,762 18.36236,-33.94308,731.52 18.36471,-33.93004,670.5600000000001 18.36668,-33.92415,640.08 18.36981,-33.91919,609.6 18.37406,-33.91442,609.6 18.37841,-33.91005,609.6 18.38299,-33.90541,579.12 18.38728,-33.90097,548.64 18.39197,-33.89669,518.1600000000001 18.39769,-33.89347,518.1600000000001 18.4037,-33.89128,487.68 18.40956,-33.8898,457.20000000000005 18.41578,-33.88854,457.20000000000005 18.42133,-33.88751,426.72 18.4262,-33.88724,396.24 18.43091,-33.88857,335.28000000000003 18.43431,-33.89063,304.8 18.43752,-33.89343,243.84 18.43929,-33.89631,213.36 18.43837,-33.89896,152.4 18.43534,-33.89934,121.92 18.43203,-33.89941,91.44 18.4294,-33.89964,60.96 18.42791,-33.8992,60.96 18.42854,-33.89594,121.92 18.43102,-33.8931,152.4 18.4338,-33.88993,213.36 18.43601,-33.88591,243.84 18.43546,-33.88146,274.32 18.43145,-33.87732,304.8 18.42609,-33.8752,365.76 18.42099,-33.87442,396.24 18.41482,-33.87469,457.20000000000005 18.40977,-33.87564,487.68 18.40485,-33.87695,518.1600000000001 18.40021,-33.87872,548.64 18.39593,-33.88097,579.12 18.3918,-33.8837,609.6 18.38803,-33.88655,640.08 18.38413,-33.8897,670.5600000000001 18.38053,-33.89264,701.0400000000001 18.37612,-33.89645,731.52 18.37121,-33.9012,792.48 18.368,-33.90493,792.48 18.36505,-33.90884,822.96 18.36233,-33.91279,853.44 18.3597,-33.91717,883.9200000000001 18.35748,-33.92152,883.9200000000001 18.35564,-33.92643,883.9200000000001 18.35386,-33.93286,883.9200000000001 18.35233,-33.93777,883.9200000000001 18.35053,-33.94295,914.4000000000001 18.34877,-33.94799,883.9200000000001 18.34986,-33.96181,883.9200000000001 18.35661,-33.96088,853.44 18.35916,-33.95503,792.48 18.35976,-33.94925,762 18.36084,-33.94357,731.52 18.36241,-33.93777,701.0400000000001 18.36415,-33.93173,670.5600000000001 18.36578,-33.92596,670.5600000000001 18.36863,-33.92052,640.08 18.37234,-33.91591,640.08 18.3762,-33.91136,640.08 18.38036,-33.90665,609.6 18.38859,-33.8979,579.12 18.39397,-33.89422,548.64 18.39975,-33.89177,518.1600000000001 18.40586,-33.88998,487.68 18.41188,-33.88845,457.20000000000005 18.41795,-33.8871,426.72 18.42357,-33.88632,426.72 18.42884,-33.88696,365.76 18.43332,-33.88866,335.28000000000003 18.43652,-33.89095,274.32 18.43901,-33.89357,243.84 18.43949,-33.89662,182.88 18.43696,-33.89832,152.4 18.43299,-33.89905,121.92 18.43041,-33.89955,60.96 18.42834,-33.89961,0 18.42805,-33.89781,60.96 18.43057,-33.89429,91.44 18.43351,-33.89022,121.92 18.43596,-33.88641,182.88 18.43552,-33.88281,274.32 18.43203,-33.88037,335.28000000000003 18.42659,-33.87904,396.24 18.42138,-33.87844,426.72 18.41651,-33.87854,487.68 18.41118,-33.87932,548.64 18.4058,-33.88037,579.12 18.40031,-33.88174,609.6 18.39481,-33.88367,609.6 18.38968,-33.88649,640.08 18.38459,-33.88975,640.08 18.37929,-33.89328,640.08 18.3744,-33.89706,640.08 18.37037,-33.90097,701.0400000000001 18.36691,-33.90488,701.0400000000001 18.36388,-33.90893,731.52 18.3609,-33.91333,762 18.35821,-33.91782,762 18.35563,-33.92276,762 18.35329,-33.92774,792.48 18.35106,-33.93337,762 18.34757,-33.94645,762 18.34492,-33.96249,731.52 18.33979,-33.97583,762 18.33007,-33.9976,762 18.32794,-34.00608,792.48 18.32834,-34.01158,792.48 18.3299,-34.01688,762 18.33226,-34.02182,762 18.33529,-34.02681,762 18.33944,-34.03057,792.48 18.34308,-34.03482,792.48 18.34522,-34.04007,792.48 18.34633,-34.04544,792.48 18.35008,-34.04956,792.48 18.35609,-34.04873,822.96 18.35684,-34.04393,822.96 18.35272,-34.03949,762 18.34785,-34.03509,762 18.34219,-34.03085,701.0400000000001 18.33618,-34.02722,701.0400000000001 18.3312,-34.02229,701.0400000000001 18.3288,-34.0167,670.5600000000001 18.3288,-34.01078,670.5600000000001 18.33024,-34.00461,640.08 18.33206,-33.99887,640.08 18.3415,-33.97974,640.08 18.35232,-33.958,609.6 18.35398,-33.95204,609.6 18.3553,-33.94643,640.08 18.35681,-33.94048,640.08 18.359,-33.93352,640.08 18.36153,-33.92751,640.08 18.36462,-33.92229,609.6 18.36834,-33.91698,609.6 18.37234,-33.91191,609.6 18.37676,-33.90701,609.6 18.38139,-33.90246,609.6 18.38612,-33.89822,609.6 18.39128,-33.89408,609.6 18.39678,-33.89012,609.6 18.40238,-33.88632,579.12 18.40897,-33.88277,548.64 18.41589,-33.88115,518.1600000000001 18.42384,-33.88202,487.68 18.43037,-33.88496,457.20000000000005 18.43637,-33.88858,426.72 18.4413,-33.89222,365.76 18.4449,-33.89697,304.8 18.44416,-33.90139,274.32 18.43977,-33.90202,213.36 18.43597,-33.89971,152.4 18.43175,-33.89969,91.44 18.42889,-33.89973,60.96 18.42865,-33.89785,91.44 18.43057,-33.89516,121.92 18.43277,-33.89198,152.4 18.43461,-33.88834,213.36 18.43529,-33.88398,243.84 18.43355,-33.87959,304.8 18.4299,-33.87634,335.28000000000003 18.42458,-33.87428,396.24 18.41908,-33.87373,457.20000000000005 18.414,-33.87406,487.68 18.40839,-33.87541,518.1600000000001 18.40324,-33.87755,548.64 18.39846,-33.88033,579.12 18.39415,-33.88328,609.6 18.39005,-33.88646,640.08 18.38608,-33.88975,670.5600000000001 18.3822,-33.89314,701.0400000000001 18.37858,-33.89631,731.52 18.37114,-33.90311,792.48 18.36791,-33.90678,822.96 18.3651,-33.91058,822.96 18.36247,-33.91493,853.44 18.36039,-33.91968,883.9200000000001 18.35866,-33.92432,853.44 18.35698,-33.92944,883.9200000000001 18.35529,-33.93453,853.44 18.35363,-33.93951,853.44 18.35157,-33.94757,853.44 18.3498,-33.95297,853.44 18.34642,-33.96344,822.96 18.3581,-33.96661,762 18.3605,-33.95874,731.52 18.36067,-33.95278,701.0400000000001 18.36107,-33.94645,670.5600000000001 18.36193,-33.94012,640.08 18.36309,-33.93393,640.08 18.36471,-33.92802,640.08 18.36707,-33.92267,640.08 18.37057,-33.91773,640.08 18.37491,-33.91324,640.08 18.37887,-33.90911,609.6 18.38299,-33.90436,609.6 18.38769,-33.89946,609.6 18.39249,-33.89585,579.12 18.39832,-33.89273,548.64 18.4045,-33.89031,518.1600000000001 18.4104,-33.88849,487.68 18.41681,-33.887,457.20000000000005 18.42241,-33.88612,457.20000000000005 18.42721,-33.88591,426.72 18.43136,-33.88692,396.24 18.4346,-33.88891,335.28000000000003 18.43735,-33.89157,304.8 18.43889,-33.89417,243.84 18.43842,-33.89754,213.36 18.43523,-33.89868,152.4 18.43197,-33.89911,121.92 18.42779,-33.89985,60.96 18.42713,-33.90093,0 18.42755,-33.89969,60.96 18.42922,-33.89724,91.44 18.43125,-33.89433,121.92 18.43343,-33.89095,182.88 18.43512,-33.88724,213.36 18.43546,-33.88319,274.32 18.43355,-33.87859,304.8 18.42945,-33.87546,365.76 18.4243,-33.87378,426.72 18.4188,-33.87273,457.20000000000005 18.41366,-33.87201,518.1600000000001 18.40804,-33.87177,548.64 18.4029,-33.87262,579.12 18.39792,-33.87425,609.6 18.39306,-33.87634,640.08 18.3886,-33.87881,670.5600000000001 18.38456,-33.88147,701.0400000000001 18.3803,-33.88477,731.52 18.37654,-33.88788,762 18.37301,-33.8914,762 18.36987,-33.89525,792.48 18.36695,-33.89928,822.96 18.36426,-33.90308,822.96 18.36142,-33.90753,853.44 18.35905,-33.91196,853.44 18.3569,-33.9167,883.9200000000001 18.35518,-33.9212,914.4000000000001 18.3539,-33.92619,914.4000000000001 18.35277,-33.93214,914.4000000000001 18.34974,-33.94613,914.4000000000001 18.34778,-33.95164,914.4000000000001 18.34528,-33.9566,914.4000000000001 18.34773,-33.97023,883.9200000000001 18.35793,-33.96542,822.96 18.35911,-33.95842,792.48 18.35961,-33.95233,792.48 18.36023,-33.9462,762 18.3614,-33.93983,731.52 18.36292,-33.93384,701.0400000000001 18.36473,-33.92815,670.5600000000001 18.36729,-33.92253,670.5600000000001 18.37114,-33.91731,640.08 18.37543,-33.91242,640.08 18.37967,-33.90786,640.08 18.3839,-33.9032,609.6 18.38825,-33.89897,609.6 18.39375,-33.8951,579.12 18.39947,-33.89223,548.64 18.40548,-33.88998,518.1600000000001 18.41168,-33.88815,487.68 18.41778,-33.88677,487.68 18.42362,-33.88591,457.20000000000005 18.42878,-33.88637,426.72 18.43299,-33.88806,396.24 18.43601,-33.89012,365.76 18.43821,-33.89259,304.8 18.43964,-33.89524,243.84 18.43912,-33.89822,182.88 18.43612,-33.89919,152.4 18.43317,-33.8992,121.92 18.43063,-33.89946,91.44 18.42865,-33.89962,60.96 18.42676,-33.89869,60.96 18.42923,-33.89552,91.44 18.43168,-33.89222,152.4 18.43374,-33.88826,213.36 18.43506,-33.88472,274.32 18.43391,-33.88016,335.28000000000003 18.42991,-33.87672,426.72 18.42514,-33.87561,487.68 18.41944,-33.87546,548.64 18.41423,-33.8769,579.12 18.40894,-33.87886,609.6 18.40361,-33.88101,640.08 18.3984,-33.8833,670.5600000000001 18.39302,-33.88591,701.0400000000001 18.38809,-33.88857,701.0400000000001 18.38339,-33.89147,731.52 18.37895,-33.89484,762 18.37475,-33.89864,762 18.37065,-33.90248,731.52 18.36651,-33.90744,731.52 18.36309,-33.91214,762 18.35981,-33.91703,731.52 18.35692,-33.92198,731.52 18.35438,-33.92713,731.52 18.35203,-33.93277,731.52 18.35008,-33.93782,731.52 18.3482,-33.94328,731.52 18.34554,-33.95238,762 18.34268,-33.96547,914.4000000000001 18.34534,-33.96558,975.36 18.35009,-33.96209,975.36 18.35466,-33.95804,944.88 18.35604,-33.95246,914.4000000000001 18.35644,-33.94598,853.44 18.35748,-33.93951,822.96 18.35944,-33.93274,762 18.36176,-33.92671,701.0400000000001 18.36479,-33.92061,670.5600000000001 18.36847,-33.91493,640.08 18.37257,-33.90958,640.08 18.3771,-33.90445,609.6 18.38219,-33.90004,609.6 18.38825,-33.89613,609.6 18.39403,-33.89273,609.6 18.40021,-33.88956,609.6 18.40673,-33.88644,579.12 18.41337,-33.88348,518.1600000000001 18.4206,-33.88211,487.68 18.42756,-33.88346,487.68 18.43327,-33.88664,487.68 18.43781,-33.89017,457.20000000000005 18.4413,-33.89371,426.72 18.44403,-33.89763,365.76 18.44501,-33.90125,335.28000000000003 18.44084,-33.90064,274.32 18.43747,-33.89827,243.84 18.43366,-33.89868,121.92 18.42728,-33.90009,60.96
        </coordinates>
      </LineString>
    </Placemark>
  </Document>
</kml>