<?xml version="1.0" encoding="UTF-8"?>
<kml xmlns="http://www.opengis.net/kml/2.2">
  <Document>
    <name>FR24 3f8c144e - Optimised</name>
    <description><![CDATA[Optimised flight path with 153 points (decimated from 761 original points). Source format: Standard KML]]></description>
    
    <Style id="flightPath">
      <LineStyle>
        <color>ffff0000</color>
        <width>3</width>
      </LineStyle>
    </Style>
    
    <Placemark>
      <name>Flight Path</name>
      <description><![CDATA[Optimized flight path]]></description>
      <styleUrl>#flightPath</styleUrl>
      <LineString>
        <extrude>1</extrude>
        <tessellate>1</tessellate>
        <altitudeMode>absolute</altitudeMode>
        <coordinates>
          18.43145,-33.89101,0 18.43702,-33.88371,0 18.43929,-33.87974,0 18.44134,-33.87589,0 18.44416,-33.87015,0 18.44799,-33.86103,0 18.45058,-33.85327,0 18.45176,-33.84787,0 18.45266,-33.84242,0 18.4532,-33.83715,0 18.45371,-33.8317,0 18.45423,-33.81541,0 18.45361,-33.80338,0 18.45297,-33.7979,0 18.45199,-33.78978,0 18.4526,-33.78442,0 18.45372,-33.77911,0 18.45537,-33.77435,0 18.45726,-33.76932,0 18.45877,-33.76396,0 18.45978,-33.75894,0 18.46101,-33.75352,0 18.46241,-33.74803,0 18.46487,-33.74265,0 18.4762,-33.73485,0 18.46852,-33.73938,0 18.47497,-33.73526,0 18.47162,-33.7379,0 18.47043,-33.73796,0 18.47502,-33.72835,0 18.47815,-33.72142,0 18.48083,-33.71695,0 18.48562,-33.71338,0 18.49154,-33.71127,0 18.49697,-33.70903,0 18.50121,-33.70527,0 18.50546,-33.70161,0 18.50983,-33.69864,0 18.51522,-33.69623,0 18.5211,-33.69649,0 18.52375,-33.70024,0 18.51409,-33.69704,0 18.51583,-33.7002,0 18.5183,-33.69905,0 18.42928,-33.89627,0 18.43203,-33.89314,0 18.42581,-33.88042,0 18.4146,-33.88014,0 18.41057,-33.88034,0 18.40679,-33.88086,0 18.40266,-33.88202,0 18.39728,-33.88458,0 18.3938,-33.88663,0 18.38971,-33.88907,0 18.38562,-33.89154,0 18.38074,-33.8947,0 18.37693,-33.89772,0 18.3736,-33.90115,0 18.37029,-33.90469,0 18.36718,-33.90825,0 18.36454,-33.91164,0 18.36199,-33.91545,0 18.35972,-33.91978,0 18.35793,-33.92422,0 18.35619,-33.9288,0 18.35468,-33.93329,0 18.35345,-33.93832,0 18.35272,-33.94336,0 18.35163,-33.9485,0 18.35026,-33.95357,0 18.34877,-33.95916,0 18.3411,-33.9789,0 18.33149,-33.99887,0 18.32846,-34.00576,0 18.32703,-34.01055,0 18.32693,-34.01578,0 18.32846,-34.02075,0 18.33023,-34.0254,0 18.33189,-34.03066,0 18.33332,-34.03569,0 18.33523,-34.04109,0 18.33702,-34.04604,0 18.33824,-34.05143,0 18.33825,-34.05679,0 18.33837,-34.06252,0 18.33864,-34.06763,0 18.34282,-34.07182,0 18.34757,-34.07517,0 18.34991,-34.07964,0 18.34952,-34.08563,0 18.34924,-34.0914,0 18.34894,-34.09812,0 18.35008,-34.10335,0 18.35367,-34.10829,0 18.35894,-34.11214,0 18.36491,-34.11553,0 18.37103,-34.1186,0 18.37766,-34.12111,0 18.38448,-34.12316,0 18.39123,-34.12482,0 18.40008,-34.12711,0 18.40731,-34.12875,0 18.42514,-34.13274,0 18.43198,-34.13406,0 18.43918,-34.13513,0 18.44645,-34.13424,0 18.45348,-34.1328,0 18.46046,-34.13042,0 18.46605,-34.12669,0 18.47116,-34.12256,0 18.47609,-34.11818,0 18.48021,-34.11348,0 18.48231,-34.10806,0 18.48242,-34.10239,0 18.48215,-34.09612,0 18.48124,-34.09044,0 18.47979,-34.08472,0 18.47816,-34.07904,0 18.47637,-34.07344,0 18.47435,-34.06659,0 18.47397,-34.0606,0 18.47397,-34.05524,0 18.47391,-34.04956,0 18.47397,-34.04403,0 18.47424,-34.03825,0 18.47469,-34.03249,0 18.47525,-34.0264,0 18.47586,-34.02056,0 18.47631,-34.01459,0 18.47654,-34.00854,0 18.47721,-34.00214,0 18.47809,-33.99626,0 18.47906,-33.98964,0 18.4799,-33.98341,0 18.48074,-33.97737,0 18.48248,-33.9662,0 18.48495,-33.94775,0 18.48433,-33.94161,0 18.48209,-33.93565,0 18.47849,-33.9303,0 18.47474,-33.92532,0 18.47004,-33.92038,0 18.46561,-33.91617,0 18.46121,-33.91186,0 18.45737,-33.90734,0 18.4536,-33.90297,0 18.44948,-33.89887,0 18.44473,-33.8965,0 18.43964,-33.89701,0 18.43569,-33.89887,0 18.43226,-33.90019,0 18.42957,-33.90001,0 18.42828,-33.89955,0
        </coordinates>
      </LineString>
    </Placemark>
  </Document>
</kml>