<?xml version="1.0" encoding="UTF-8"?>
<kml xmlns="http://www.opengis.net/kml/2.2">
  <Document>
    <name>FR24 4187d178 - Optimised</name>
    <description><![CDATA[Optimised flight path with 127 points (decimated from 631 original points). Source format: Standard KML]]></description>
    
    <Style id="flightPath">
      <LineStyle>
        <color>ffff0000</color>
        <width>3</width>
      </LineStyle>
    </Style>
    
    <Placemark>
      <name>Flight Path</name>
      <description><![CDATA[Optimized flight path]]></description>
      <styleUrl>#flightPath</styleUrl>
      <LineString>
        <extrude>1</extrude>
        <tessellate>1</tessellate>
        <altitudeMode>absolute</altitudeMode>
        <coordinates>
          18.43047,-33.88224,0 18.48165,-33.95025,0 18.48163,-33.95416,0 18.47995,-33.95804,0 18.47569,-33.96274,0 18.47426,-33.96635,0 18.46904,-33.97098,0 18.46383,-33.97324,0 18.45853,-33.97653,0 18.4542,-33.98021,0 18.45083,-33.98448,0 18.44678,-33.98831,0 18.44365,-33.99203,0 18.43908,-33.99604,0 18.4338,-33.99961,0 18.42943,-34.00402,0 18.42691,-34.00824,0 18.4233,-34.01325,0 18.42122,-34.01833,0 18.42039,-34.02387,0 18.42078,-34.02993,0 18.42291,-34.03536,0 18.42634,-34.04116,0 18.42996,-34.04644,0 18.43444,-34.05158,0 18.43853,-34.05611,0 18.44267,-34.06075,0 18.44707,-34.0658,0 18.45129,-34.07056,0 18.45562,-34.07572,0 18.45989,-34.08041,0 18.46341,-34.08511,0 18.46642,-34.08984,0 18.46838,-34.09552,0 18.46906,-34.10179,0 18.47083,-34.10872,0 18.47042,-34.11489,0 18.46893,-34.12066,0 18.46636,-34.12719,0 18.46374,-34.1329,0 18.46093,-34.13913,0 18.45898,-34.14486,0 18.45692,-34.15115,0 18.4556,-34.15708,0 18.45562,-34.16333,0 18.45665,-34.16972,0 18.4575,-34.17603,0 18.47167,-34.1792,0 18.46237,-34.1922,0 18.4633,-34.19827,0 18.46738,-34.20261,0 18.4884,-34.20189,0 18.47503,-34.21884,0 18.47482,-34.22676,0 18.47896,-34.23156,0 18.48281,-34.23658,0 18.48537,-34.24216,0 18.48608,-34.24866,0 18.48644,-34.25437,0 18.48523,-34.26269,0 18.50547,-34.25848,0 18.489,-34.28635,0 18.47075,-34.30186,0 18.46636,-34.31105,0 18.4664,-34.31562,0 18.46527,-34.32438,0 18.46018,-34.33394,0 18.45735,-34.34076,0 18.45473,-34.34898,0 18.4562,-34.355,0 18.46516,-34.36377,0 18.47198,-34.36764,0 18.48002,-34.36849,0 18.48683,-34.36963,0 18.49297,-34.37177,0 18.50714,-34.35903,0 18.50619,-34.34864,0 18.4944,-34.37404,0 18.47872,-34.38067,0 18.47445,-34.3671,0 18.46694,-34.36353,0 18.45774,-34.36126,0 18.45195,-34.34884,0 18.44753,-34.34195,0 18.44242,-34.33826,0 18.43922,-34.33041,0 18.43689,-34.32384,0 18.43436,-34.31727,0 18.43083,-34.30947,0 18.42826,-34.30077,0 18.42562,-34.29454,0 18.42244,-34.28623,0 18.41747,-34.28103,0 18.41451,-34.27306,0 18.41068,-34.26586,0 18.40753,-34.25838,0 18.40411,-34.25219,0 18.40165,-34.24506,0 18.39863,-34.23872,0 18.39641,-34.23031,0 18.39284,-34.22255,0 18.39032,-34.21601,0 18.38773,-34.20961,0 18.38483,-34.20332,0 18.3826,-34.1969,0 18.37986,-34.19063,0 18.37734,-34.18433,0 18.37495,-34.17837,0 18.37066,-34.17239,0 18.36691,-34.16619,0 18.36418,-34.15902,0 18.36265,-34.15186,0 18.36077,-34.14517,0 18.35671,-34.13923,0 18.35202,-34.13345,0 18.3472,-34.12782,0 18.34474,-34.1212,0 18.34132,-34.11483,0 18.34133,-34.10683,0 18.33431,-34.09742,0 18.32052,-34.01433,0 18.35599,-33.91903,0 18.36155,-33.91028,0 18.3703,-33.90256,0 18.38046,-33.89262,0 18.39414,-33.88107,0 18.44279,-33.88764,0
        </coordinates>
      </LineString>
    </Placemark>
  </Document>
</kml>