<?xml version="1.0" encoding="UTF-8"?>
<kml xmlns="http://www.opengis.net/kml/2.2">
  <Document>
    <name>FR24 ZTHOT 3e0f60a7 - Optimised</name>
    <description><![CDATA[Optimised flight path with 567 points (decimated from 2833 original points). Source format: Standard KML]]></description>
    
    <Style id="flightPath">
      <LineStyle>
        <color>ffff0000</color>
        <width>3</width>
      </LineStyle>
    </Style>
    
    <Placemark>
      <name>Flight Path</name>
      <description><![CDATA[Source: ADS-B
Start (SAST): 2026-01-26 08:56:24
End (SAST): 2026-01-26 17:18:09
Points: 2833]]></description>
      <styleUrl>#flightPath</styleUrl>
      <LineString>
        <extrude>1</extrude>
        <tessellate>1</tessellate>
        <altitudeMode>absolute</altitudeMode>
        <coordinates>
          18.42732,-33.9006,60.96 18.42939,-33.89715,121.92 18.43145,-33.89394,152.4 18.43374,-33.89045,213.36 18.4359,-33.88687,274.32 18.43603,-33.88239,304.8 18.43349,-33.87813,335.28000000000003 18.42895,-33.87465,365.76 18.42333,-33.87262,396.24 18.41774,-33.87204,457.20000000000005 18.41171,-33.87257,487.68 18.40563,-33.87415,518.1600000000001 18.40003,-33.87634,579.12 18.39481,-33.879,609.6 18.38982,-33.88202,609.6 18.38495,-33.88564,640.08 18.38076,-33.88933,670.5600000000001 18.37624,-33.89371,701.0400000000001 18.37222,-33.89786,731.52 18.3688,-33.9017,762 18.3655,-33.90569,792.48 18.36225,-33.91003,822.96 18.35924,-33.91456,822.96 18.35587,-33.91987,822.96 18.35152,-33.92685,853.44 18.34883,-33.93179,853.44 18.3462,-33.93728,822.96 18.34381,-33.94295,822.96 18.341,-33.94872,822.96 18.33837,-33.95407,822.96 18.34379,-33.9599,762 18.34778,-33.95316,762 18.3507,-33.94775,762 18.35381,-33.94226,731.52 18.3593,-33.93341,731.52 18.36674,-33.91978,731.52 18.37009,-33.91434,731.52 18.37378,-33.90907,701.0400000000001 18.37749,-33.90409,731.52 18.38104,-33.89948,731.52 18.38528,-33.89456,701.0400000000001 18.39016,-33.89053,701.0400000000001 18.39598,-33.88714,701.0400000000001 18.40244,-33.88463,701.0400000000001 18.40939,-33.88298,701.0400000000001 18.41623,-33.88198,701.0400000000001 18.42385,-33.88193,701.0400000000001 18.43065,-33.8837,640.08 18.43674,-33.88728,579.12 18.44218,-33.89072,548.64 18.44739,-33.89433,457.20000000000005 18.44908,-33.89883,396.24 18.44507,-33.90078,396.24 18.44118,-33.90046,335.28000000000003 18.43747,-33.90005,274.32 18.43397,-33.89985,213.36 18.42997,-33.8999,121.92 18.42693,-33.90032,60.96 18.42872,-33.89772,91.44 18.43082,-33.89455,182.88 18.43288,-33.89143,243.84 18.43575,-33.88644,304.8 18.43528,-33.88216,365.76 18.43271,-33.87811,396.24 18.42872,-33.87451,426.72 18.42396,-33.8722,487.68 18.41852,-33.8708,518.1600000000001 18.4124,-33.87066,518.1600000000001 18.40569,-33.87213,579.12 18.40015,-33.87434,579.12 18.39498,-33.87689,609.6 18.38997,-33.87979,640.08 18.38516,-33.88281,670.5600000000001 18.38058,-33.88609,701.0400000000001 18.37595,-33.88998,701.0400000000001 18.37172,-33.89399,731.52 18.36813,-33.8979,762 18.36454,-33.90221,792.48 18.36136,-33.90656,822.96 18.35838,-33.91118,853.44 18.35484,-33.91693,853.44 18.3507,-33.92459,853.44 18.34808,-33.92992,853.44 18.33933,-33.9479,853.44 18.33859,-33.95499,822.96 18.35072,-33.95744,792.48 18.35233,-33.95132,762 18.35462,-33.94533,762 18.35735,-33.93966,762 18.35995,-33.93466,792.48 18.36157,-33.93164,914.4000000000001 18.36273,-33.92904,975.36 18.36376,-33.92615,1005.84 18.36583,-33.92143,944.88 18.36869,-33.91608,914.4000000000001 18.37229,-33.91032,853.44 18.37576,-33.90518,822.96 18.38018,-33.89964,762 18.385,-33.89479,701.0400000000001 18.39066,-33.89087,670.5600000000001 18.39695,-33.88737,670.5600000000001 18.40333,-33.88449,670.5600000000001 18.41028,-33.88235,640.08 18.41732,-33.88184,640.08 18.42452,-33.88312,640.08 18.43091,-33.88559,640.08 18.43712,-33.88849,579.12 18.44279,-33.89168,487.68 18.44633,-33.8952,426.72 18.44513,-33.8992,365.76 18.44078,-33.90009,274.32 18.43632,-33.89999,182.88 18.43237,-33.89987,121.92 18.42794,-33.89996,60.96 18.42836,-33.89808,91.44 18.431,-33.89506,121.92 18.43483,-33.89212,152.4 18.43775,-33.88831,213.36 18.43837,-33.8838,243.84 18.43626,-33.87946,274.32 18.43192,-33.87753,335.28000000000003 18.42693,-33.87695,365.76 18.42177,-33.87689,396.24 18.416,-33.8774,426.72 18.41063,-33.87825,487.68 18.40513,-33.87932,518.1600000000001 18.4001,-33.88044,548.64 18.39426,-33.88188,548.64 18.3887,-33.88376,579.12 18.38349,-33.886,548.64 18.37805,-33.8893,548.64 18.37309,-33.89301,548.64 18.3684,-33.89697,579.12 18.36433,-33.90083,579.12 18.36045,-33.90495,609.6 18.35701,-33.90888,640.08 18.35373,-33.91292,670.5600000000001 18.35083,-33.91712,701.0400000000001 18.34803,-33.92136,731.52 18.34562,-33.92564,762 18.34356,-33.93193,792.48 18.34027,-33.93604,792.48 18.33801,-33.94287,822.96 18.34253,-33.94715,792.48 18.34797,-33.94994,762 18.35412,-33.94972,731.52 18.3589,-33.94487,670.5600000000001 18.3613,-33.9397,640.08 18.3637,-33.93374,640.08 18.36628,-33.92757,640.08 18.36903,-33.92234,609.6 18.37257,-33.91708,609.6 18.37682,-33.91214,609.6 18.38133,-33.90763,609.6 18.38624,-33.90312,609.6 18.39157,-33.89897,579.12 18.39741,-33.89543,579.12 18.40395,-33.89282,579.12 18.41096,-33.89099,579.12 18.41789,-33.88966,548.64 18.42516,-33.88849,518.1600000000001 18.43192,-33.88797,457.20000000000005 18.43826,-33.88858,396.24 18.44448,-33.89008,335.28000000000003 18.44919,-33.89357,304.8 18.44761,-33.89639,304.8 18.44404,-33.89701,274.32 18.43987,-33.89785,213.36 18.43652,-33.89864,182.88 18.43226,-33.89992,121.92 18.42813,-33.90046,60.96 18.42703,-33.90075,0 18.42861,-33.89809,91.44 18.431,-33.89501,152.4 18.43317,-33.89166,213.36 18.43534,-33.88788,243.84 18.43635,-33.88367,274.32 18.43467,-33.87918,304.8 18.43192,-33.87561,335.28000000000003 18.42794,-33.87268,365.76 18.42312,-33.87112,396.24 18.41768,-33.8709,426.72 18.41191,-33.87209,457.20000000000005 18.40726,-33.87392,487.68 18.40261,-33.87625,518.1600000000001 18.39821,-33.87862,548.64 18.39375,-33.88123,579.12 18.38994,-33.8838,609.6 18.38612,-33.88673,640.08 18.38226,-33.8898,670.5600000000001 18.37861,-33.89291,701.0400000000001 18.37441,-33.89671,701.0400000000001 18.36847,-33.90248,731.52 18.36445,-33.90702,731.52 18.36096,-33.91145,731.52 18.35776,-33.91599,731.52 18.35485,-33.92056,731.52 18.35087,-33.92738,762 18.34499,-33.93807,762 18.34167,-33.94585,762 18.34263,-33.95155,762 18.34806,-33.95526,762 18.35558,-33.9539,731.52 18.3581,-33.94881,731.52 18.35878,-33.94305,701.0400000000001 18.36034,-33.93713,701.0400000000001 18.36258,-33.93105,701.0400000000001 18.3651,-33.92496,670.5600000000001 18.36791,-33.91914,670.5600000000001 18.37099,-33.91393,670.5600000000001 18.37463,-33.90879,670.5600000000001 18.37906,-33.90331,640.08 18.3835,-33.89832,640.08 18.38814,-33.89384,670.5600000000001 18.39375,-33.88998,640.08 18.39975,-33.887,640.08 18.40651,-33.88454,640.08 18.41354,-33.883,640.08 18.42104,-33.88263,640.08 18.42842,-33.88416,579.12 18.43466,-33.88724,548.64 18.44004,-33.89063,487.68 18.44386,-33.89365,457.20000000000005 18.44524,-33.89711,396.24 18.44324,-33.89964,335.28000000000003 18.43977,-33.89996,274.32 18.43612,-33.89978,213.36 18.43306,-33.89967,152.4 18.43013,-33.89964,91.44 18.42705,-33.90032,60.96 18.42705,-33.90051,60.96 18.42848,-33.89804,60.96 18.43108,-33.89424,121.92 18.4338,-33.89035,152.4 18.43646,-33.88605,213.36 18.43718,-33.88151,243.84 18.43643,-33.87709,274.32 18.43439,-33.87222,304.8 18.43663,-33.86929,396.24 18.43977,-33.86943,426.72 18.43918,-33.87085,426.72 18.43494,-33.87164,396.24 18.42916,-33.87215,426.72 18.42312,-33.87259,457.20000000000005 18.41819,-33.87305,457.20000000000005 18.41286,-33.87383,487.68 18.40754,-33.8749,518.1600000000001 18.40221,-33.87648,518.1600000000001 18.39729,-33.87848,548.64 18.39268,-33.88074,579.12 18.38786,-33.88339,579.12 18.38356,-33.88602,609.6 18.37923,-33.88902,640.08 18.37486,-33.89254,640.08 18.37097,-33.89599,670.5600000000001 18.36752,-33.89941,701.0400000000001 18.36353,-33.9039,701.0400000000001 18.36034,-33.90802,731.52 18.35743,-33.91223,762 18.35461,-33.91647,762 18.35215,-33.92061,792.48 18.3544,-33.9234,883.9200000000001 18.35684,-33.92168,883.9200000000001 18.35546,-33.91954,883.9200000000001 18.3522,-33.92187,853.44 18.34997,-33.92766,792.48 18.34785,-33.93309,792.48 18.34549,-33.93842,792.48 18.34276,-33.94417,792.48 18.33579,-33.9592,792.48 18.32657,-33.98513,792.48 18.32491,-33.99358,792.48 18.3243,-33.9998,792.48 18.32422,-34.00581,792.48 18.32497,-34.01166,792.48 18.32643,-34.01701,792.48 18.32845,-34.02324,762 18.33058,-34.02924,762 18.33344,-34.03899,731.52 18.33693,-34.05352,762 18.3371,-34.05976,762 18.33641,-34.06522,762 18.33635,-34.06958,883.9200000000001 18.34005,-34.06842,883.9200000000001 18.34437,-34.06888,853.44 18.34566,-34.0746,762 18.34585,-34.08108,731.52 18.34633,-34.08723,731.52 18.34843,-34.09277,731.52 18.35352,-34.09756,701.0400000000001 18.36027,-34.10077,701.0400000000001 18.36679,-34.10329,701.0400000000001 18.37372,-34.10556,701.0400000000001 18.38058,-34.10751,670.5600000000001 18.3882,-34.10953,670.5600000000001 18.3947,-34.1115,670.5600000000001 18.40187,-34.11367,670.5600000000001 18.40914,-34.11585,670.5600000000001 18.43158,-34.12276,701.0400000000001 18.44095,-34.12503,731.52 18.44868,-34.1261,670.5600000000001 18.45597,-34.12477,670.5600000000001 18.46224,-34.12195,670.5600000000001 18.46807,-34.11795,670.5600000000001 18.47271,-34.11348,670.5600000000001 18.47626,-34.10864,640.08 18.47844,-34.10353,640.08 18.47946,-34.09821,670.5600000000001 18.47963,-34.09277,640.08 18.47946,-34.0876,640.08 18.47958,-34.08229,640.08 18.48069,-34.07684,609.6 18.48248,-34.07144,609.6 18.48394,-34.0659,640.08 18.48506,-34.06,640.08 18.48579,-34.05446,640.08 18.4873,-34.041,640.08 18.48747,-34.03569,640.08 18.48752,-34.0302,640.08 18.48736,-34.02466,640.08 18.48667,-34.01009,670.5600000000001 18.48618,-34.00475,670.5600000000001 18.48646,-33.99857,640.08 18.48787,-33.99258,609.6 18.48915,-33.98685,579.12 18.49039,-33.98104,579.12 18.4915,-33.97284,548.64 18.49079,-33.96721,487.68 18.48909,-33.96181,487.68 18.48701,-33.95669,487.68 18.48495,-33.95151,487.68 18.48231,-33.94565,487.68 18.47755,-33.93636,457.20000000000005 18.47301,-33.92871,426.72 18.46947,-33.92381,396.24 18.46555,-33.91924,365.76 18.46155,-33.91498,365.76 18.45778,-33.91079,365.76 18.45411,-33.90651,365.76 18.45058,-33.90248,365.76 18.44622,-33.89967,335.28000000000003 18.4417,-33.89855,274.32 18.43775,-33.89859,243.84 18.43405,-33.89909,182.88 18.43122,-33.89952,121.92 18.4271,-33.90027,60.96 18.42728,-33.89994,60.96 18.42951,-33.89658,60.96 18.43248,-33.89223,121.92 18.43539,-33.8876,152.4 18.43649,-33.88281,182.88 18.43529,-33.87769,213.36 18.43689,-33.8742,304.8 18.43982,-33.87502,396.24 18.43837,-33.87689,426.72 18.43394,-33.87666,426.72 18.42878,-33.87584,457.20000000000005 18.4234,-33.87479,487.68 18.41784,-33.87374,518.1600000000001 18.41247,-33.87355,518.1600000000001 18.40611,-33.87462,518.1600000000001 18.40061,-33.87606,548.64 18.39504,-33.87804,548.64 18.38963,-33.88044,579.12 18.38439,-33.88344,609.6 18.37967,-33.887,640.08 18.37543,-33.89068,640.08 18.37177,-33.89429,640.08 18.36805,-33.89841,670.5600000000001 18.36416,-33.90288,670.5600000000001 18.36068,-33.90706,701.0400000000001 18.35715,-33.9115,701.0400000000001 18.35378,-33.91608,731.52 18.35126,-33.92033,762 18.35294,-33.92271,914.4000000000001 18.35535,-33.92141,975.36 18.35361,-33.92033,1036.3200000000002 18.35169,-33.92341,1066.8 18.35019,-33.92743,1097.28 18.34863,-33.93192,1127.76 18.34705,-33.93635,1158.24 18.34324,-33.94629,1219.2 18.3403,-33.95278,1219.2 18.33797,-33.95732,1219.2 18.33389,-33.96512,1219.2 18.3284,-33.97783,1188.72 18.32565,-33.98635,1158.24 18.32434,-33.9924,1127.76 18.32365,-33.99831,1127.76 18.32329,-34.00447,1097.28 18.32411,-34.01041,1066.8 18.32565,-34.01628,1066.8 18.3272,-34.02196,1066.8 18.32856,-34.02782,1036.3200000000002 18.32972,-34.03402,1005.84 18.33063,-34.04025,1005.84 18.33119,-34.04659,1005.84 18.33181,-34.05624,975.36 18.33164,-34.06206,1005.84 18.33132,-34.06753,1005.84 18.33183,-34.07251,1036.3200000000002 18.3363,-34.07331,1097.28 18.3395,-34.07028,1127.76 18.34402,-34.07126,1097.28 18.34588,-34.07666,1066.8 18.34723,-34.08285,1005.84 18.34941,-34.08902,975.36 18.3544,-34.09456,944.88 18.3614,-34.09822,914.4000000000001 18.36903,-34.10138,883.9200000000001 18.37598,-34.10399,853.44 18.384,-34.10687,853.44 18.39117,-34.10948,822.96 18.40272,-34.1136,822.96 18.4251,-34.12144,731.52 18.43573,-34.12431,701.0400000000001 18.44341,-34.12573,670.5600000000001 18.4516,-34.12521,670.5600000000001 18.45869,-34.12246,670.5600000000001 18.46482,-34.11855,670.5600000000001 18.46998,-34.11406,670.5600000000001 18.47413,-34.10912,670.5600000000001 18.47683,-34.10394,640.08 18.47839,-34.09822,670.5600000000001 18.47935,-34.09248,640.08 18.47996,-34.08701,640.08 18.48057,-34.08133,609.6 18.48175,-34.07561,579.12 18.48321,-34.06989,579.12 18.4845,-34.06435,579.12 18.48558,-34.05873,609.6 18.48656,-34.05278,640.08 18.48719,-34.04713,640.08 18.4881,-34.04072,609.6 18.48865,-34.03423,609.6 18.4885,-34.02834,579.12 18.48808,-34.02228,548.64 18.4877,-34.01633,548.64 18.48775,-34.01033,518.1600000000001 18.48842,-34.0042,518.1600000000001 18.48926,-33.99802,518.1600000000001 18.48999,-33.99202,548.64 18.49122,-33.97971,518.1600000000001 18.49108,-33.97084,518.1600000000001 18.49016,-33.96506,487.68 18.48881,-33.95906,487.68 18.4873,-33.95348,487.68 18.48483,-33.94556,426.72 18.48192,-33.93774,396.24 18.47917,-33.93205,396.24 18.47592,-33.92715,365.76 18.47145,-33.92308,365.76 18.46619,-33.91866,335.28000000000003 18.4568,-33.91037,335.28000000000003 18.45263,-33.90586,335.28000000000003 18.44879,-33.90167,304.8 18.44381,-33.89962,274.32 18.43921,-33.89928,243.84 18.43556,-33.89941,182.88 18.43153,-33.89969,121.92 18.42884,-33.89996,60.96 18.42695,-33.90071,0 18.42808,-33.89846,91.44 18.43063,-33.8952,152.4 18.43338,-33.89149,213.36 18.43601,-33.88742,243.84 18.43713,-33.88275,304.8 18.43552,-33.87858,335.28000000000003 18.4322,-33.8756,365.76 18.42813,-33.87378,396.24 18.42293,-33.87285,457.20000000000005 18.41819,-33.87268,487.68 18.41376,-33.87296,518.1600000000001 18.40928,-33.8735,548.64 18.40433,-33.87434,579.12 18.39963,-33.87556,609.6 18.39492,-33.87721,609.6 18.39038,-33.87914,640.08 18.38619,-33.8816,670.5600000000001 18.38259,-33.8844,731.52 18.3795,-33.88737,762 18.37681,-33.89035,822.96 18.374,-33.89384,822.96 18.37144,-33.89754,822.96 18.36892,-33.90166,822.96 18.3651,-33.90756,822.96 18.36124,-33.91342,822.96 18.35294,-33.9261,792.48 18.35043,-33.93062,762 18.3478,-33.93584,762 18.34538,-33.94116,731.52 18.34265,-33.94938,883.9200000000001 18.34694,-33.9473,792.48 18.35171,-33.94157,731.52 18.35575,-33.93546,701.0400000000001 18.35947,-33.92937,701.0400000000001 18.36292,-33.9234,701.0400000000001 18.36886,-33.91338,701.0400000000001 18.37492,-33.90455,701.0400000000001 18.37889,-33.89969,731.52 18.38366,-33.89465,731.52 18.389,-33.89035,731.52 18.39571,-33.88692,701.0400000000001 18.40344,-33.88431,640.08 18.4116,-33.88258,640.08 18.41998,-33.88197,640.08 18.42693,-33.88361,548.64 18.43334,-33.88705,457.20000000000005 18.43915,-33.89081,365.76 18.44296,-33.89488,304.8 18.44141,-33.89785,274.32 18.43729,-33.89869,213.36 18.43382,-33.89905,152.4 18.43041,-33.89964,91.44 18.42791,-33.90004,60.96 18.42704,-33.90088,60.96 18.42906,-33.89735,91.44 18.43197,-33.89315,121.92 18.43512,-33.88863,182.88 18.43683,-33.88398,213.36 18.43562,-33.87964,274.32 18.43243,-33.87606,304.8 18.42788,-33.87369,304.8 18.42287,-33.87248,365.76 18.41818,-33.87215,396.24 18.41331,-33.87241,426.72 18.40868,-33.87299,457.20000000000005 18.4035,-33.87401,487.68 18.39902,-33.87538,518.1600000000001 18.39437,-33.87718,548.64 18.39016,-33.87927,579.12 18.38652,-33.88161,609.6 18.3827,-33.8844,640.08 18.3794,-33.88728,670.5600000000001 18.37612,-33.89035,701.0400000000001 18.3728,-33.89375,731.52 18.36981,-33.89717,762 18.36691,-33.90074,762 18.36416,-33.9046,762 18.36146,-33.90852,792.48 18.35741,-33.91507,792.48 18.35496,-33.91951,822.96 18.35272,-33.92378,822.96 18.35031,-33.92857,822.96 18.34705,-33.93518,792.48 18.349,-33.94059,853.44 18.35489,-33.93672,762 18.35878,-33.93053,731.52 18.36256,-33.92411,701.0400000000001 18.36651,-33.91782,670.5600000000001 18.37086,-33.91182,670.5600000000001 18.37559,-33.90587,640.08 18.38069,-33.90028,640.08 18.38556,-33.8952,640.08 18.391,-33.8903,640.08 18.39683,-33.88637,640.08 18.40456,-33.88328,609.6 18.41246,-33.8816,609.6 18.42098,-33.88151,579.12 18.42876,-33.88337,548.64 18.43556,-33.88646,487.68 18.44072,-33.89012,396.24 18.44285,-33.89452,365.76 18.43994,-33.89722,274.32 18.43569,-33.89804,213.36 18.43168,-33.89887,121.92 18.42732,-33.9001,60.96
        </coordinates>
      </LineString>
    </Placemark>
  </Document>
</kml>