<?xml version="1.0" encoding="UTF-8"?>
<kml xmlns="http://www.opengis.net/kml/2.2">
  <Document>
    <name>FR24 ZSHMB 3e0cca6d - Optimised</name>
    <description><![CDATA[Optimised flight path with 926 points (decimated from 4627 original points). Source format: Standard KML]]></description>
    
    <Style id="flightPath">
      <LineStyle>
        <color>ffff0000</color>
        <width>3</width>
      </LineStyle>
    </Style>
    
    <Placemark>
      <name>Flight Path</name>
      <description><![CDATA[Source: ADS-B
Start (SAST): 2026-01-25 10:01:44
End (SAST): 2026-01-25 18:42:35
Points: 4627]]></description>
      <styleUrl>#flightPath</styleUrl>
      <LineString>
        <extrude>1</extrude>
        <tessellate>1</tessellate>
        <altitudeMode>absolute</altitudeMode>
        <coordinates>
          18.4276,-33.89905,45.72 18.4306,-33.89431,83.82000000000001 18.43357,-33.89008,106.68 18.43609,-33.88593,129.54000000000002 18.43556,-33.88174,175.26000000000002 18.43114,-33.87923,220.98000000000002 18.42607,-33.87867,259.08000000000004 18.42041,-33.87881,304.8 18.41527,-33.87923,342.90000000000003 18.40737,-33.8806,411.48 18.40249,-33.88184,449.58000000000004 18.39812,-33.88348,495.3 18.3942,-33.88528,541.02 18.39071,-33.88747,586.74 18.38762,-33.88975,624.84 18.3847,-33.89198,670.5600000000001 18.38161,-33.89468,708.6600000000001 18.37873,-33.89763,739.14 18.37572,-33.90106,754.38 18.37257,-33.90488,762 18.36943,-33.90911,769.62 18.36617,-33.91338,769.62 18.36286,-33.91777,777.24 18.35484,-33.92862,746.76 18.35186,-33.93351,739.14 18.34906,-33.93872,739.14 18.34688,-33.9437,746.76 18.34504,-33.94853,754.38 18.34106,-33.96007,746.76 18.33472,-33.98415,746.76 18.33254,-33.99994,731.52 18.33258,-34.00497,739.14 18.33315,-34.00995,731.52 18.33422,-34.01514,723.9000000000001 18.33544,-34.02028,708.6600000000001 18.3371,-34.02554,701.0400000000001 18.3387,-34.03038,693.4200000000001 18.3405,-34.03601,685.8000000000001 18.34185,-34.04151,685.8000000000001 18.34268,-34.04672,693.4200000000001 18.34316,-34.05198,685.8000000000001 18.34336,-34.05711,685.8000000000001 18.34322,-34.06209,678.1800000000001 18.34296,-34.06755,678.1800000000001 18.34257,-34.07721,655.32 18.34285,-34.08257,647.7 18.3433,-34.08806,624.84 18.34362,-34.09318,601.98 18.34358,-34.10019,571.5 18.34322,-34.10519,556.26 18.34219,-34.11027,556.26 18.34039,-34.11479,518.1600000000001 18.33738,-34.11948,495.3 18.33355,-34.12391,495.3 18.32834,-34.12819,480.06 18.32336,-34.13187,480.06 18.31847,-34.13548,464.82000000000005 18.31478,-34.13964,441.96000000000004 18.31358,-34.14523,419.1 18.31426,-34.14944,419.1 18.31606,-34.15329,426.72 18.31833,-34.15677,434.34000000000003 18.32088,-34.16034,426.72 18.32368,-34.16414,434.34000000000003 18.32617,-34.16753,426.72 18.32897,-34.17097,426.72 18.33282,-34.17572,411.48 18.33961,-34.18322,411.48 18.34296,-34.18643,411.48 18.34625,-34.18983,426.72 18.34923,-34.19308,426.72 18.35272,-34.19714,441.96000000000004 18.35524,-34.20044,449.58000000000004 18.3577,-34.20444,457.20000000000005 18.35956,-34.20827,457.20000000000005 18.36142,-34.21278,457.20000000000005 18.36233,-34.21687,472.44 18.36393,-34.22157,464.82000000000005 18.36572,-34.22612,457.20000000000005 18.36737,-34.23046,441.96000000000004 18.36868,-34.23498,434.34000000000003 18.36948,-34.23949,434.34000000000003 18.37006,-34.24424,411.48 18.37091,-34.24881,396.24 18.372,-34.25336,396.24 18.37334,-34.25789,381 18.37521,-34.26422,388.62 18.37788,-34.27171,396.24 18.39598,-34.29983,365.76 18.40616,-34.31705,403.86 18.41303,-34.32227,388.62 18.41768,-34.32527,381 18.42224,-34.32813,373.38 18.42687,-34.33136,373.38 18.4313,-34.33424,365.76 18.43609,-34.33679,342.90000000000003 18.44089,-34.3391,342.90000000000003 18.44526,-34.34152,365.76 18.44902,-34.34405,388.62 18.45232,-34.34669,411.48 18.45552,-34.34949,434.34000000000003 18.45881,-34.35248,457.20000000000005 18.46236,-34.35548,464.82000000000005 18.46611,-34.35814,480.06 18.47036,-34.3603,487.68 18.47536,-34.36194,487.68 18.48106,-34.36323,472.44 18.48719,-34.36435,464.82000000000005 18.49274,-34.36537,472.44 18.49823,-34.36663,472.44 18.50533,-34.36831,480.06 18.51448,-34.36844,495.3 18.51683,-34.36449,533.4 18.51631,-34.36002,579.12 18.51311,-34.35672,632.46 18.50853,-34.35658,655.32 18.50452,-34.35923,662.94 18.5021,-34.36313,662.94 18.50115,-34.36752,662.94 18.50327,-34.3716,685.8000000000001 18.50804,-34.3726,701.0400000000001 18.5118,-34.36977,716.2800000000001 18.51325,-34.36436,693.4200000000001 18.51282,-34.35862,693.4200000000001 18.51157,-34.35329,678.1800000000001 18.50961,-34.3472,670.5600000000001 18.50748,-34.34129,647.7 18.5047,-34.33321,624.84 18.50299,-34.32742,617.22 18.49777,-34.3083,632.46 18.49347,-34.29117,632.46 18.49216,-34.28265,617.22 18.49119,-34.27451,609.6 18.48873,-34.25663,594.36 18.48644,-34.24559,563.88 18.48388,-34.23615,548.64 18.48147,-34.23001,533.4 18.47912,-34.22461,518.1600000000001 18.47649,-34.2192,510.54 18.47379,-34.21376,502.92 18.47099,-34.20835,502.92 18.46768,-34.20245,487.68 18.4635,-34.19509,487.68 18.45967,-34.18813,495.3 18.45737,-34.18336,510.54 18.45574,-34.17824,510.54 18.45457,-34.17283,525.78 18.45377,-34.1678,525.78 18.4532,-34.16259,518.1600000000001 18.45243,-34.1515,510.54 18.45294,-34.14597,518.1600000000001 18.45445,-34.14084,518.1600000000001 18.45686,-34.13615,525.78 18.45972,-34.13164,525.78 18.4627,-34.12703,518.1600000000001 18.46916,-34.11725,525.78 18.47138,-34.11214,548.64 18.47254,-34.10673,563.88 18.47317,-34.10114,563.88 18.47248,-34.09551,548.64 18.47088,-34.09035,541.02 18.46807,-34.08508,533.4 18.46413,-34.08024,541.02 18.46018,-34.07619,541.02 18.45625,-34.07185,533.4 18.45314,-34.06744,541.02 18.45025,-34.06265,541.02 18.4481,-34.05762,533.4 18.4465,-34.05259,533.4 18.44496,-34.04742,525.78 18.4441,-34.04226,525.78 18.44404,-34.03709,525.78 18.44456,-34.03169,518.1600000000001 18.44548,-34.02649,502.92 18.44644,-34.02104,518.1600000000001 18.44812,-34.01175,518.1600000000001 18.44868,-34.00604,510.54 18.44913,-34.00081,487.68 18.45045,-33.99189,510.54 18.45193,-33.98634,502.92 18.45344,-33.9809,487.68 18.45496,-33.97563,495.3 18.45658,-33.97023,502.92 18.45793,-33.9646,525.78 18.45871,-33.95934,541.02 18.45869,-33.95395,548.64 18.45759,-33.94844,533.4 18.45574,-33.94318,518.1600000000001 18.45333,-33.93796,518.1600000000001 18.45108,-33.93328,495.3 18.44879,-33.92867,464.82000000000005 18.44666,-33.92455,411.48 18.44444,-33.91954,358.14000000000004 18.44301,-33.91475,281.94 18.44251,-33.9104,220.98000000000002 18.44263,-33.90605,152.4 18.44173,-33.90198,106.68 18.43809,-33.90022,83.82000000000001 18.42802,-33.90185,7.62 18.42699,-33.90065,15.24 18.42768,-33.89906,45.72 18.42957,-33.89608,76.2 18.43157,-33.89291,99.06 18.43403,-33.8891,114.30000000000001 18.43557,-33.88528,137.16 18.4338,-33.88169,175.26000000000002 18.42945,-33.8801,220.98000000000002 18.42333,-33.88049,289.56 18.41891,-33.88129,327.66 18.41372,-33.88235,373.38 18.40902,-33.88365,388.62 18.40399,-33.88533,411.48 18.39941,-33.88714,441.96000000000004 18.39492,-33.88916,464.82000000000005 18.39043,-33.89133,487.68 18.38624,-33.89365,502.92 18.38203,-33.89616,518.1600000000001 18.3779,-33.89906,533.4 18.37418,-33.90232,548.64 18.37127,-33.90555,563.88 18.36858,-33.90894,586.74 18.36611,-33.91228,601.98 18.36388,-33.91573,624.84 18.36187,-33.91903,647.7 18.35995,-33.92262,678.1800000000001 18.35558,-33.93142,716.2800000000001 18.35333,-33.9364,723.9000000000001 18.35154,-33.9413,708.6600000000001 18.35014,-33.94654,693.4200000000001 18.34896,-33.95137,678.1800000000001 18.34608,-33.9626,678.1800000000001 18.3407,-33.97894,746.76 18.33487,-33.99761,746.76 18.334,-34.00305,731.52 18.33378,-34.00799,716.2800000000001 18.33452,-34.0126,739.14 18.33585,-34.01697,723.9000000000001 18.33758,-34.0215,716.2800000000001 18.33949,-34.02585,716.2800000000001 18.34117,-34.03011,716.2800000000001 18.34274,-34.03427,716.2800000000001 18.34644,-34.04512,685.8000000000001 18.34734,-34.0502,670.5600000000001 18.34774,-34.05566,647.7 18.3479,-34.06151,617.22 18.34751,-34.0673,601.98 18.34689,-34.07245,571.5 18.34566,-34.07808,556.26 18.34375,-34.08334,556.26 18.34196,-34.08834,556.26 18.3405,-34.09273,548.64 18.34127,-34.09723,525.78 18.34448,-34.1011,480.06 18.34911,-34.10435,464.82000000000005 18.35417,-34.10669,464.82000000000005 18.35901,-34.10831,457.20000000000005 18.36365,-34.10976,464.82000000000005 18.37051,-34.1119,480.06 18.3813,-34.11566,480.06 18.38685,-34.11754,487.68 18.39167,-34.11919,487.68 18.39724,-34.12116,502.92 18.40239,-34.12293,510.54 18.40719,-34.12465,518.1600000000001 18.41234,-34.12656,518.1600000000001 18.41738,-34.12852,525.78 18.42273,-34.13077,525.78 18.4276,-34.13269,533.4 18.43306,-34.13461,525.78 18.43884,-34.13517,525.78 18.44459,-34.13411,533.4 18.4503,-34.13145,525.78 18.45507,-34.12839,525.78 18.45955,-34.12486,533.4 18.4637,-34.12097,525.78 18.46729,-34.11713,548.64 18.4702,-34.11296,571.5 18.47214,-34.10794,571.5 18.47261,-34.10252,563.88 18.47149,-34.09703,541.02 18.46962,-34.09104,533.4 18.46757,-34.08563,541.02 18.46572,-34.08028,541.02 18.46437,-34.07515,533.4 18.46325,-34.06979,541.02 18.46236,-34.06435,541.02 18.46127,-34.05603,541.02 18.46087,-34.05087,548.64 18.46045,-34.04549,541.02 18.46006,-34.03215,533.4 18.46017,-34.0172,525.78 18.46006,-34.01175,518.1600000000001 18.46012,-33.9991,518.1600000000001 18.46045,-33.98909,502.92 18.46029,-33.98327,502.92 18.45995,-33.97815,502.92 18.45972,-33.97298,510.54 18.45972,-33.96777,510.54 18.45944,-33.96231,510.54 18.45909,-33.9566,525.78 18.45827,-33.95123,525.78 18.45663,-33.94613,510.54 18.45428,-33.9408,502.92 18.45176,-33.93617,480.06 18.44936,-33.93193,457.20000000000005 18.44713,-33.92792,426.72 18.44479,-33.92382,381 18.44268,-33.91969,327.66 18.44151,-33.91493,281.94 18.44141,-33.91051,236.22 18.44201,-33.90633,205.74 18.44221,-33.90241,160.02 18.43876,-33.90038,99.06 18.43369,-33.90083,45.72 18.42825,-33.9012,7.62 18.42699,-33.90083,15.24 18.42755,-33.89923,45.72 18.42912,-33.89648,76.2 18.43163,-33.89273,99.06 18.4342,-33.88882,106.68 18.43624,-33.88472,114.30000000000001 18.43439,-33.88078,160.02 18.43008,-33.8796,190.5 18.42396,-33.87968,259.08000000000004 18.41686,-33.88044,335.28000000000003 18.41269,-33.8812,381 18.40851,-33.8823,426.72 18.40462,-33.88365,464.82000000000005 18.40061,-33.88533,502.92 18.39644,-33.88715,533.4 18.39156,-33.88966,563.88 18.38792,-33.89186,594.36 18.38453,-33.89408,632.46 18.38102,-33.89639,655.32 18.37761,-33.89877,685.8000000000001 18.37273,-33.90253,716.2800000000001 18.36925,-33.90555,731.52 18.36628,-33.9087,746.76 18.36348,-33.91219,746.76 18.36056,-33.91638,739.14 18.35815,-33.92038,731.52 18.35591,-33.92468,731.52 18.35395,-33.92949,731.52 18.35226,-33.93421,716.2800000000001 18.3507,-33.93938,708.6600000000001 18.34929,-33.94459,716.2800000000001 18.34722,-33.95183,723.9000000000001 18.34551,-33.96163,701.0400000000001 18.35976,-33.96772,693.4200000000001 18.36359,-33.96237,708.6600000000001 18.36462,-33.95739,685.8000000000001 18.36485,-33.9525,685.8000000000001 18.36473,-33.94785,685.8000000000001 18.36454,-33.94267,678.1800000000001 18.3655,-33.93741,647.7 18.36742,-33.93142,609.6 18.36992,-33.92638,601.98 18.37295,-33.92166,586.74 18.37632,-33.91722,579.12 18.38013,-33.91273,571.5 18.38402,-33.90856,556.26 18.38814,-33.90423,556.26 18.39235,-33.90038,548.64 18.39678,-33.89678,541.02 18.40215,-33.89342,502.92 18.40765,-33.89073,464.82000000000005 18.41331,-33.88863,449.58000000000004 18.41886,-33.88724,441.96000000000004 18.42442,-33.88617,426.72 18.43018,-33.88641,396.24 18.43539,-33.88815,335.28000000000003 18.43935,-33.89101,274.32 18.44118,-33.89473,213.36 18.43904,-33.89891,129.54000000000002 18.43181,-33.90097,38.1 18.42889,-33.90125,15.24 18.4271,-33.90064,15.24 18.42794,-33.89928,30.48 18.43002,-33.89771,38.1 18.4336,-33.89438,76.2 18.43643,-33.89138,121.92 18.43842,-33.88843,167.64000000000001 18.43848,-33.88467,213.36 18.437,-33.88137,259.08000000000004 18.43369,-33.87877,297.18 18.42884,-33.8773,335.28000000000003 18.42463,-33.87666,381 18.41998,-33.87648,426.72 18.416,-33.87676,464.82000000000005 18.4116,-33.87723,502.92 18.40771,-33.87774,541.02 18.40361,-33.87831,579.12 18.3998,-33.87923,609.6 18.39615,-33.88058,647.7 18.39274,-33.88197,685.8000000000001 18.38951,-33.88333,723.9000000000001 18.38659,-33.88463,754.38 18.38327,-33.88618,792.48 18.38018,-33.88789,800.1 18.37606,-33.89063,800.1 18.37217,-33.89365,784.86 18.36852,-33.89694,784.86 18.3651,-33.90047,777.24 18.36157,-33.90436,754.38 18.35821,-33.90851,746.76 18.35546,-33.91265,746.76 18.35311,-33.91695,762 18.35129,-33.92099,769.62 18.34969,-33.92564,754.38 18.34843,-33.93072,746.76 18.3475,-33.93567,746.76 18.34682,-33.94035,754.38 18.34588,-33.94931,784.86 18.34482,-33.9552,769.62 18.34362,-33.96014,746.76 18.33949,-33.97554,739.14 18.33585,-33.98932,762 18.33527,-33.99491,754.38 18.33572,-34.00045,754.38 18.33807,-34.0052,739.14 18.34218,-34.00946,731.52 18.34677,-34.0127,731.52 18.35199,-34.01477,746.76 18.35776,-34.01564,746.76 18.36331,-34.01569,739.14 18.3688,-34.01527,746.76 18.37452,-34.01463,731.52 18.38047,-34.01405,731.52 18.38739,-34.01358,716.2800000000001 18.39616,-34.0134,701.0400000000001 18.40204,-34.01367,693.4200000000001 18.40816,-34.014,693.4200000000001 18.41443,-34.01408,693.4200000000001 18.42065,-34.01395,685.8000000000001 18.42687,-34.01358,678.1800000000001 18.43357,-34.01274,670.5600000000001 18.4396,-34.01193,670.5600000000001 18.44582,-34.01083,685.8000000000001 18.45227,-34.00919,685.8000000000001 18.45835,-34.00716,678.1800000000001 18.46441,-34.00459,670.5600000000001 18.47002,-34.00157,655.32 18.47528,-33.99798,632.46 18.48024,-33.99348,617.22 18.48312,-33.98821,609.6 18.4845,-33.98236,579.12 18.48541,-33.97638,548.64 18.48567,-33.97014,510.54 18.48573,-33.96405,464.82000000000005 18.4853,-33.94799,381 18.48433,-33.94198,388.62 18.48272,-33.93616,381 18.47973,-33.93077,373.38 18.47536,-33.92569,381 18.46973,-33.92141,365.76 18.46481,-33.91773,350.52000000000004 18.45967,-33.91393,312.42 18.4548,-33.90972,281.94 18.45039,-33.90586,236.22 18.44582,-33.90248,190.5 18.44072,-33.9019,137.16 18.43562,-33.9028,83.82000000000001 18.42854,-33.90204,22.86 18.43031,-33.87778,335.28000000000003 18.42278,-33.87492,403.86 18.41812,-33.87397,449.58000000000004 18.41359,-33.87337,502.92 18.40942,-33.87309,548.64 18.40524,-33.87337,586.74 18.40092,-33.87433,609.6 18.39666,-33.87598,647.7 18.39289,-33.87769,685.8000000000001 18.3891,-33.87959,716.2800000000001 18.38522,-33.88156,739.14 18.38156,-33.88379,754.38 18.37755,-33.88626,762 18.37303,-33.88924,762 18.36864,-33.8925,754.38 18.36485,-33.89594,754.38 18.36124,-33.89981,746.76 18.35815,-33.90376,754.38 18.35524,-33.90802,754.38 18.35289,-33.91219,754.38 18.35059,-33.91672,754.38 18.34863,-33.92139,754.38 18.34711,-33.92639,769.62 18.3462,-33.93183,762 18.34562,-33.937,754.38 18.34545,-33.94366,746.76 18.34505,-33.94887,746.76 18.34425,-33.95663,754.38 18.3403,-33.97587,746.76 18.33674,-33.99348,746.76 18.33778,-33.99878,762 18.34022,-34.00378,754.38 18.34351,-34.00799,754.38 18.34863,-34.01216,739.14 18.3535,-34.01445,731.52 18.35884,-34.01567,746.76 18.36405,-34.01609,746.76 18.36942,-34.01628,739.14 18.37491,-34.01587,754.38 18.38046,-34.01523,769.62 18.38631,-34.01432,754.38 18.39226,-34.01358,746.76 18.39815,-34.01307,746.76 18.40457,-34.01294,731.52 18.4112,-34.01293,708.6600000000001 18.41789,-34.01279,693.4200000000001 18.42447,-34.01221,655.32 18.4313,-34.01129,632.46 18.43803,-34.01004,617.22 18.44391,-34.01079,640.08 18.44862,-34.01376,632.46 18.45491,-34.01423,586.74 18.46161,-34.0119,541.02 18.46751,-34.00845,510.54 18.47288,-34.00408,487.68 18.47727,-33.99971,457.20000000000005 18.48085,-33.99477,457.20000000000005 18.48332,-33.98904,434.34000000000003 18.48416,-33.98332,441.96000000000004 18.4845,-33.97736,449.58000000000004 18.48478,-33.97165,457.20000000000005 18.48551,-33.95476,403.86 18.48595,-33.94835,381 18.48483,-33.94221,342.90000000000003 18.4827,-33.93613,358.14000000000004 18.47973,-33.9305,350.52000000000004 18.47558,-33.92578,342.90000000000003 18.47048,-33.92117,335.28000000000003 18.46432,-33.91658,320.04 18.45926,-33.91251,297.18 18.45411,-33.90846,266.7 18.44896,-33.90463,213.36 18.44313,-33.90213,167.64000000000001 18.43752,-33.90175,114.30000000000001 18.43282,-33.90221,60.96 18.42911,-33.90167,30.48 18.42766,-33.89914,53.34 18.42917,-33.89603,99.06 18.43013,-33.89241,114.30000000000001 18.43105,-33.88877,129.54000000000002 18.43174,-33.88472,152.4 18.42945,-33.88152,190.5 18.42536,-33.87996,228.60000000000002 18.42001,-33.88021,274.32 18.41561,-33.8812,320.04 18.41185,-33.8822,365.76 18.4081,-33.8833,411.48 18.40339,-33.8849,449.58000000000004 18.39963,-33.88651,487.68 18.39543,-33.88834,541.02 18.39203,-33.89008,586.74 18.38848,-33.89198,617.22 18.385,-33.89401,655.32 18.38156,-33.89627,685.8000000000001 18.37801,-33.89864,708.6600000000001 18.37441,-33.90125,731.52 18.37116,-33.90399,731.52 18.36785,-33.90729,746.76 18.36491,-33.91051,762 18.36208,-33.91388,769.62 18.35944,-33.91727,784.86 18.35681,-33.92084,792.48 18.35432,-33.92471,792.48 18.35192,-33.92885,792.48 18.34974,-33.93304,792.48 18.3478,-33.93747,777.24 18.34591,-33.94194,769.62 18.34196,-33.95148,769.62 18.34208,-33.96498,716.2800000000001 18.35429,-33.96899,685.8000000000001 18.3621,-33.96279,670.5600000000001 18.36398,-33.9581,670.5600000000001 18.36522,-33.95316,655.32 18.36599,-33.94822,640.08 18.36667,-33.9429,632.46 18.3678,-33.93343,640.08 18.36908,-33.92844,640.08 18.3708,-33.92401,632.46 18.37329,-33.91905,617.22 18.37641,-33.91452,609.6 18.37978,-33.91051,594.36 18.38377,-33.90665,586.74 18.38825,-33.90294,571.5 18.39272,-33.89962,571.5 18.39741,-33.89664,548.64 18.40244,-33.89389,510.54 18.40782,-33.89145,495.3 18.4132,-33.88933,464.82000000000005 18.41852,-33.88742,441.96000000000004 18.42402,-33.88589,411.48 18.42997,-33.88547,381 18.43586,-33.88659,342.90000000000003 18.43994,-33.88893,320.04 18.44212,-33.892,281.94 18.44238,-33.89576,228.60000000000002 18.44066,-33.899,190.5 18.437,-33.90111,144.78 18.4331,-33.90202,76.2 18.42917,-33.90166,38.1 18.42716,-33.90092,30.48 18.42773,-33.89883,68.58 18.42951,-33.89607,99.06 18.43157,-33.89296,129.54000000000002 18.43366,-33.88948,152.4 18.43562,-33.88536,198.12 18.43612,-33.88087,243.84 18.43382,-33.87666,297.18 18.42962,-33.8741,327.66 18.42487,-33.87318,350.52000000000004 18.41852,-33.8736,373.38 18.41281,-33.87456,403.86 18.40759,-33.87598,434.34000000000003 18.40324,-33.87751,464.82000000000005 18.39885,-33.87932,495.3 18.3947,-33.88152,533.4 18.39072,-33.88412,563.88 18.38699,-33.8871,586.74 18.38356,-33.89012,617.22 18.38013,-33.89347,640.08 18.37716,-33.89653,647.7 18.37389,-33.90022,647.7 18.37086,-33.9039,640.08 18.36777,-33.90795,662.94 18.36508,-33.91135,685.8000000000001 18.36256,-33.9147,701.0400000000001 18.36006,-33.91846,723.9000000000001 18.3577,-33.92243,731.52 18.35535,-33.92671,746.76 18.35323,-33.93095,746.76 18.3512,-33.93512,754.38 18.34896,-33.93974,754.38 18.34678,-33.94473,731.52 18.34482,-33.94971,723.9000000000001 18.34311,-33.95441,716.2800000000001 18.33456,-33.97783,678.1800000000001 18.32918,-33.99605,685.8000000000001 18.32839,-34.0015,708.6600000000001 18.3285,-34.00575,716.2800000000001 18.32951,-34.00996,731.52 18.3317,-34.01404,746.76 18.33521,-34.01749,762 18.3403,-34.01995,754.38 18.34566,-34.021,769.62 18.35083,-34.02112,769.62 18.3563,-34.02095,777.24 18.36163,-34.02113,784.86 18.36662,-34.02191,784.86 18.37211,-34.02328,784.86 18.3771,-34.02498,784.86 18.38224,-34.02708,784.86 18.38717,-34.02941,784.86 18.39223,-34.03171,800.1 18.39778,-34.03285,800.1 18.40342,-34.03178,792.48 18.40834,-34.02876,815.34 18.41211,-34.0254,800.1 18.41629,-34.02112,777.24 18.41978,-34.01693,762 18.42329,-34.01239,746.76 18.42779,-34.00604,731.52 18.43085,-34.00136,708.6600000000001 18.43901,-33.9883,670.5600000000001 18.44976,-33.97117,609.6 18.45406,-33.96281,586.74 18.45606,-33.95749,563.88 18.45658,-33.95206,556.26 18.45563,-33.94698,525.78 18.4535,-33.94226,495.3 18.45097,-33.93779,495.3 18.44885,-33.93388,457.20000000000005 18.44685,-33.92983,419.1 18.44509,-33.9256,388.62 18.44358,-33.92116,335.28000000000003 18.44238,-33.91642,304.8 18.44184,-33.91154,259.08000000000004 18.44179,-33.9071,220.98000000000002 18.4419,-33.90257,198.12 18.43901,-33.89976,152.4 18.43374,-33.89976,91.44 18.42785,-33.90125,22.86 18.42733,-33.90004,38.1 18.43013,-33.89836,68.58 18.43346,-33.89659,106.68 18.43646,-33.89424,144.78 18.43809,-33.89099,198.12 18.43809,-33.88687,251.46 18.43702,-33.88326,320.04 18.43426,-33.88007,350.52000000000004 18.43025,-33.87741,403.86 18.42602,-33.87588,449.58000000000004 18.42138,-33.87506,487.68 18.41707,-33.87488,518.1600000000001 18.41292,-33.87492,556.26 18.40885,-33.87518,586.74 18.40496,-33.87621,617.22 18.4009,-33.87765,655.32 18.39706,-33.87904,693.4200000000001 18.39357,-33.88039,739.14 18.39016,-33.88179,762 18.38608,-33.88398,777.24 18.3819,-33.88686,769.62 18.37772,-33.8898,762 18.37372,-33.8931,754.38 18.36988,-33.89641,746.76 18.36565,-33.90027,746.76 18.36225,-33.90404,754.38 18.35958,-33.90805,777.24 18.35741,-33.91214,822.96 18.35597,-33.9158,861.0600000000001 18.35485,-33.91956,891.5400000000001 18.35367,-33.92377,914.4000000000001 18.35249,-33.92774,937.26 18.35098,-33.93187,960.12 18.34963,-33.93567,982.98 18.34818,-33.93997,1005.84 18.34689,-33.94446,1028.7 18.3447,-33.95247,1036.3200000000002 18.34242,-33.95865,1051.56 18.34024,-33.96312,1066.8 18.33786,-33.96776,1066.8 18.33551,-33.97202,1082.04 18.33303,-33.97624,1074.42 18.32587,-33.98959,1059.18 18.32422,-33.99491,1051.56 18.32411,-34.00059,1036.3200000000002 18.32503,-34.00616,1051.56 18.32626,-34.0117,1043.94 18.32822,-34.0172,1036.3200000000002 18.3303,-34.02246,1043.94 18.33147,-34.02805,1036.3200000000002 18.33172,-34.03285,1043.94 18.33155,-34.03765,1043.94 18.3316,-34.04323,1043.94 18.33332,-34.04874,1043.94 18.33613,-34.054,1043.94 18.33926,-34.05849,1043.94 18.34336,-34.0632,1059.18 18.34711,-34.06707,1066.8 18.35129,-34.07126,1074.42 18.35506,-34.07545,1066.8 18.35884,-34.08038,1036.3200000000002 18.36281,-34.08591,990.6 18.36628,-34.09127,952.5 18.36937,-34.09685,929.6400000000001 18.37194,-34.10179,914.4000000000001 18.37547,-34.10715,899.1600000000001 18.37945,-34.11145,868.6800000000001 18.38413,-34.11576,845.82 18.38877,-34.11944,838.2 18.39386,-34.12223,815.34 18.3998,-34.12473,800.1 18.40529,-34.12697,777.24 18.41097,-34.12945,754.38 18.41639,-34.13182,746.76 18.4219,-34.13433,731.52 18.42739,-34.13694,708.6600000000001 18.43315,-34.13956,708.6600000000001 18.43866,-34.14183,685.8000000000001 18.44439,-34.14416,678.1800000000001 18.45008,-34.14592,685.8000000000001 18.45591,-34.14688,708.6600000000001 18.46212,-34.14542,708.6600000000001 18.46659,-34.14137,701.0400000000001 18.47043,-34.13571,685.8000000000001 18.47374,-34.13028,670.5600000000001 18.47694,-34.12498,670.5600000000001 18.47979,-34.11955,662.94 18.48198,-34.11401,647.7 18.48332,-34.10783,632.46 18.48371,-34.10156,609.6 18.48404,-34.09579,609.6 18.48398,-34.08988,609.6 18.48394,-34.08449,601.98 18.48466,-34.07813,579.12 18.48612,-34.07199,556.26 18.48759,-34.06548,533.4 18.48839,-34.05892,502.92 18.48876,-34.05235,480.06 18.48965,-34.04608,472.44 18.49094,-34.0399,457.20000000000005 18.49139,-34.03363,449.58000000000004 18.49091,-34.02717,449.58000000000004 18.49005,-34.02127,457.20000000000005 18.48902,-34.01525,457.20000000000005 18.48685,-34.00333,449.58000000000004 18.48633,-33.99738,449.58000000000004 18.48604,-33.99105,457.20000000000005 18.4861,-33.98016,449.58000000000004 18.48558,-33.96777,441.96000000000004 18.48513,-33.96102,419.1 18.48467,-33.95432,396.24 18.4841,-33.94789,381 18.48307,-33.94165,358.14000000000004 18.48136,-33.93558,350.52000000000004 18.47889,-33.92958,350.52000000000004 18.47525,-33.92413,342.90000000000003 18.4702,-33.9196,335.28000000000003 18.46418,-33.91573,312.42 18.45827,-33.91219,297.18 18.4532,-33.90865,259.08000000000004 18.44767,-33.90477,205.74 18.44212,-33.90189,144.78 18.43723,-33.90157,106.68 18.43025,-33.90223,53.34 18.42768,-33.9012,22.86 18.42768,-33.89948,38.1 18.43052,-33.89713,45.72 18.43332,-33.89424,99.06 18.43612,-33.89104,129.54000000000002 18.43797,-33.88733,175.26000000000002 18.43775,-33.88358,213.36 18.43539,-33.87987,251.46 18.43175,-33.87726,281.94 18.42721,-33.87529,320.04 18.42258,-33.87429,358.14000000000004 18.41766,-33.87411,396.24 18.41348,-33.87451,426.72 18.40857,-33.8755,457.20000000000005 18.40429,-33.87671,487.68 18.40038,-33.87811,518.1600000000001 18.39666,-33.87968,548.64 18.39289,-33.88137,571.5 18.38905,-33.88346,579.12 18.38522,-33.88593,609.6 18.38196,-33.88812,655.32 18.37881,-33.89026,693.4200000000001 18.37606,-33.89245,739.14 18.37332,-33.89473,762 18.37015,-33.89735,762 18.36712,-33.90019,769.62 18.3641,-33.9034,769.62 18.36079,-33.90683,762 18.35759,-33.9104,762 18.35468,-33.91415,754.38 18.35266,-33.91786,762 18.35094,-33.92248,769.62 18.3498,-33.92667,769.62 18.3486,-33.93123,769.62 18.34614,-33.94068,754.38 18.34671,-33.94533,762 18.35115,-33.94826,762 18.35709,-33.9472,762 18.36057,-33.94276,769.62 18.36279,-33.93761,769.62 18.36477,-33.93242,769.62 18.36748,-33.92574,762 18.37051,-33.91978,769.62 18.37374,-33.91461,746.76 18.37783,-33.9099,708.6600000000001 18.38259,-33.90553,678.1800000000001 18.38797,-33.90129,655.32 18.39363,-33.89757,594.36 18.39981,-33.89441,556.26 18.40616,-33.89189,518.1600000000001 18.41269,-33.8898,495.3 18.41967,-33.88807,457.20000000000005 18.42632,-33.88715,426.72 18.43355,-33.88737,365.76 18.43912,-33.88947,304.8 18.4417,-33.89357,228.60000000000002 18.44044,-33.89822,160.02 18.43735,-33.90134,114.30000000000001 18.43119,-33.90294,60.96 18.42825,-33.90213,38.1 18.42727,-33.90125,22.86 18.42833,-33.89832,68.58 18.43052,-33.89529,106.68 18.4326,-33.89161,167.64000000000001 18.43366,-33.88756,236.22 18.43388,-33.88339,289.56 18.43237,-33.87937,342.90000000000003 18.4294,-33.87602,388.62 18.42575,-33.87332,434.34000000000003 18.4219,-33.87132,487.68 18.41795,-33.86996,548.64 18.41423,-33.86922,609.6 18.4104,-33.86941,640.08 18.4063,-33.87025,678.1800000000001 18.40221,-33.8715,716.2800000000001 18.39838,-33.87271,762 18.39431,-33.87424,769.62 18.38994,-33.87621,769.62 18.38551,-33.87853,777.24 18.38102,-33.88165,777.24 18.37733,-33.88467,769.62 18.3734,-33.88824,762 18.37004,-33.89191,762 18.36684,-33.89607,762 18.36376,-33.90001,762 18.35913,-33.90628,769.62 18.35642,-33.91045,769.62 18.35415,-33.91465,762 18.35193,-33.91951,769.62 18.3498,-33.92409,762 18.34814,-33.92885,784.86 18.347,-33.9337,807.72 18.34585,-33.93816,784.86 18.34487,-33.9446,769.62 18.34751,-33.94925,769.62 18.35384,-33.95045,769.62 18.35855,-33.94743,777.24 18.36164,-33.94231,769.62 18.36404,-33.93668,762 18.36595,-33.93118,769.62 18.3676,-33.92597,762 18.37023,-33.92048,769.62 18.37423,-33.91554,762 18.37878,-33.91118,769.62 18.38327,-33.90716,762 18.38791,-33.90311,701.0400000000001 18.39352,-33.89868,640.08 18.39941,-33.89548,579.12 18.40586,-33.89291,525.78 18.41275,-33.89099,457.20000000000005 18.41955,-33.88929,396.24 18.42632,-33.88792,342.90000000000003 18.43282,-33.88838,297.18 18.43775,-33.89096,236.22 18.43992,-33.89478,175.26000000000002 18.43866,-33.89855,121.92 18.43374,-33.90018,76.2 18.42945,-33.90004,38.1 18.42749,-33.90079,22.86
        </coordinates>
      </LineString>
    </Placemark>
  </Document>
</kml>