<?xml version="1.0" encoding="UTF-8"?>
<kml xmlns="http://www.opengis.net/kml/2.2">
  <Document>
    <name>FR24 40775084 - Optimised</name>
    <description><![CDATA[Optimised flight path with 407 points (decimated from 2034 original points). Source format: Standard KML]]></description>
    
    <Style id="flightPath">
      <LineStyle>
        <color>ffff0000</color>
        <width>3</width>
      </LineStyle>
    </Style>
    
    <Placemark>
      <name>Flight Path</name>
      <description><![CDATA[Optimized flight path]]></description>
      <styleUrl>#flightPath</styleUrl>
      <LineString>
        <extrude>1</extrude>
        <tessellate>1</tessellate>
        <altitudeMode>absolute</altitudeMode>
        <coordinates>
          18.43037,-33.89268,0 18.43311,-33.8871,0 18.43174,-33.88444,0 18.4276,-33.8838,0 18.42304,-33.88416,0 18.41784,-33.88444,0 18.41325,-33.8849,0 18.40857,-33.8857,0 18.40339,-33.88728,0 18.39872,-33.88952,0 18.39415,-33.8924,0 18.38945,-33.89585,0 18.38528,-33.89952,0 18.3811,-33.90334,0 18.37699,-33.90756,0 18.37312,-33.91191,0 18.36931,-33.91667,0 18.36583,-33.92134,0 18.36085,-33.92812,0 18.35715,-33.93333,0 18.3539,-33.93874,0 18.35081,-33.94395,0 18.34545,-33.95255,0 18.3371,-33.96628,0 18.32699,-33.9879,0 18.32256,-33.99603,0 18.31867,-34.00194,0 18.31507,-34.00757,0 18.31032,-34.0154,0 18.30254,-34.02792,0 18.29876,-34.03429,0 18.29879,-34.04036,0 18.30137,-34.047,0 18.30442,-34.05296,0 18.30786,-34.05855,0 18.31174,-34.06435,0 18.316,-34.07021,0 18.32211,-34.07792,0 18.32637,-34.08275,0 18.33164,-34.08801,0 18.3371,-34.09262,0 18.34369,-34.09708,0 18.35059,-34.10069,0 18.35712,-34.10389,0 18.3697,-34.10971,0 18.39582,-34.12115,0 18.41875,-34.13099,0 18.42996,-34.13539,0 18.43747,-34.13704,0 18.44433,-34.13699,0 18.45109,-34.13489,0 18.45664,-34.13182,0 18.46138,-34.12842,0 18.46538,-34.12473,0 18.4688,-34.1207,0 18.47149,-34.11662,0 18.47397,-34.11232,0 18.47609,-34.10806,0 18.47769,-34.10384,0 18.47872,-34.09927,0 18.47946,-34.09453,0 18.48013,-34.08998,0 18.48129,-34.07763,0 18.48237,-34.07007,0 18.4833,-34.06558,0 18.48467,-34.06092,0 18.48581,-34.05645,0 18.48685,-34.05203,0 18.48758,-34.04759,0 18.48814,-34.04329,0 18.48865,-34.03807,0 18.4885,-34.0322,0 18.48814,-34.02809,0 18.48804,-34.02326,0 18.48822,-34.01851,0 18.4881,-34.01442,0 18.4881,-34.01014,0 18.48814,-34.00241,0 18.48799,-33.99594,0 18.48724,-33.9843,0 18.4865,-33.97168,0 18.48595,-33.96748,0 18.48507,-33.96302,0 18.48387,-33.9579,0 18.48289,-33.95362,0 18.48186,-33.94926,0 18.48069,-33.94464,0 18.47917,-33.93974,0 18.47763,-33.93575,0 18.4757,-33.93159,0 18.473,-33.92736,0 18.47013,-33.92359,0 18.46682,-33.91968,0 18.4631,-33.91545,0 18.46039,-33.91168,0 18.45778,-33.90818,0 18.45412,-33.90546,0 18.44965,-33.90442,0 18.44645,-33.90385,0 18.44433,-33.90343,0 18.44223,-33.90303,0 18.43912,-33.9026,0 18.43607,-33.90244,0 18.43357,-33.90227,0 18.43164,-33.90189,0 18.42811,-33.90092,0 18.42755,-33.89932,0 18.42783,-33.89767,0 18.42819,-33.89631,0 18.42888,-33.89487,0 18.42957,-33.89361,0 18.43122,-33.89073,0 18.43266,-33.88821,0 18.43185,-33.8856,0 18.42796,-33.88505,0 18.4239,-33.88573,0 18.41942,-33.88683,0 18.41471,-33.88802,0 18.41005,-33.88887,0 18.4049,-33.89017,0 18.39975,-33.89194,0 18.39466,-33.8945,0 18.38991,-33.89762,0 18.3854,-33.9012,0 18.38099,-33.90497,0 18.37664,-33.90879,0 18.37222,-33.91301,0 18.36811,-33.91722,0 18.36416,-33.92178,0 18.36051,-33.92633,0 18.35361,-33.93539,0 18.34436,-33.94966,0 18.34812,-33.95467,0 18.35445,-33.95334,0 18.35726,-33.94839,0 18.35999,-33.94342,0 18.36269,-33.9386,0 18.36505,-33.93347,0 18.36742,-33.92792,0 18.36874,-33.92262,0 18.37091,-33.91759,0 18.37424,-33.91232,0 18.37794,-33.90807,0 18.38209,-33.90408,0 18.38722,-33.89971,0 18.39272,-33.89585,0 18.39806,-33.89282,0 18.40439,-33.88989,0 18.41017,-33.88792,0 18.41634,-33.8866,0 18.42276,-33.88626,0 18.42916,-33.88686,0 18.43512,-33.88752,0 18.44084,-33.88905,0 18.44537,-33.89314,0 18.44679,-33.89804,0 18.44421,-33.90204,0 18.44111,-33.90289,0 18.43898,-33.90289,0 18.43674,-33.90276,0 18.435,-33.90253,0 18.43282,-33.90221,0 18.43122,-33.90185,0 18.42934,-33.90129,0 18.42762,-33.90078,0 18.42699,-33.90051,0 18.42755,-33.89923,0 18.42848,-33.89743,0 18.42951,-33.89561,0 18.43203,-33.89138,0 18.43343,-33.88774,0 18.43105,-33.88617,0 18.42693,-33.88651,0 18.42256,-33.88747,0 18.41808,-33.88861,0 18.41381,-33.88943,0 18.40851,-33.89031,0 18.40339,-33.8914,0 18.39872,-33.89287,0 18.39408,-33.89497,0 18.38917,-33.89757,0 18.38444,-33.90056,0 18.38013,-33.90381,0 18.37561,-33.90767,0 18.37143,-33.91191,0 18.36757,-33.91676,0 18.3637,-33.92159,0 18.35844,-33.9283,0 18.34705,-33.94408,0 18.3474,-33.94999,0 18.35478,-33.95278,0 18.35928,-33.9489,0 18.36079,-33.94366,0 18.36253,-33.93869,0 18.36454,-33.93388,0 18.36668,-33.9289,0 18.36903,-33.92406,0 18.37217,-33.9191,0 18.37576,-33.91429,0 18.37973,-33.90971,0 18.38402,-33.9052,0 18.3886,-33.90074,0 18.39363,-33.89641,0 18.39879,-33.89264,0 18.40389,-33.88948,0 18.40984,-33.88669,0 18.41578,-33.88505,0 18.4219,-33.88421,0 18.42854,-33.88505,0 18.4345,-33.88669,0 18.43992,-33.8891,0 18.44416,-33.89296,0 18.44553,-33.8978,0 18.44341,-33.9012,0 18.4401,-33.90221,0 18.43736,-33.90225,0 18.43534,-33.90211,0 18.4338,-33.90195,0 18.43203,-33.90167,0 18.43042,-33.90139,0 18.42865,-33.90097,0 18.42733,-33.90078,0 18.42687,-33.90015,0 18.42743,-33.89859,0 18.42844,-33.8969,0 18.42934,-33.89543,0 18.43077,-33.89329,0 18.43266,-33.8905,0 18.43386,-33.88765,0 18.4318,-33.88547,0 18.42732,-33.88477,0 18.42267,-33.88477,0 18.41732,-33.88523,0 18.41177,-33.88621,0 18.40658,-33.88742,0 18.40073,-33.88919,0 18.39546,-33.89217,0 18.39055,-33.89635,0 18.38596,-33.9006,0 18.38153,-33.90486,0 18.37463,-33.91173,0 18.37063,-33.91619,0 18.36667,-33.92107,0 18.36285,-33.92597,0 18.35855,-33.93109,0 18.35421,-33.93612,0 18.34666,-33.94579,0 18.34785,-33.95171,0 18.35632,-33.95255,0 18.35867,-33.94827,0 18.36044,-33.94338,0 18.3621,-33.93909,0 18.36432,-33.93356,0 18.36679,-33.92923,0 18.36971,-33.92476,0 18.37252,-33.92024,0 18.37604,-33.91571,0 18.37961,-33.91149,0 18.38338,-33.90733,0 18.38702,-33.90308,0 18.391,-33.89883,0 18.39621,-33.89525,0 18.40227,-33.89301,0 18.40888,-33.89131,0 18.41566,-33.88998,0 18.42205,-33.88884,0 18.42876,-33.88803,0 18.43523,-33.88857,0 18.44049,-33.89022,0 18.44536,-33.8932,0 18.44689,-33.89781,0 18.44397,-33.90166,0 18.44158,-33.90283,0 18.43937,-33.90303,0 18.43747,-33.90303,0 18.4354,-33.90297,0 18.43366,-33.90276,0 18.43174,-33.90246,0 18.43014,-33.90204,0 18.42819,-33.90134,0 18.42688,-33.90097,0 18.42791,-33.89971,0 18.42945,-33.89896,0 18.43029,-33.89781,0 18.43136,-33.89616,0 18.43259,-33.8942,0 18.43618,-33.88792,0 18.43573,-33.88417,0 18.43242,-33.88193,0 18.42762,-33.88137,0 18.42258,-33.88146,0 18.41766,-33.88184,0 18.41257,-33.88263,0 18.40754,-33.8844,0 18.40216,-33.88682,0 18.39729,-33.8897,0 18.39218,-33.89355,0 18.38758,-33.89772,0 18.38339,-33.90208,0 18.37933,-33.90641,0 18.37503,-33.91163,0 18.37126,-33.91661,0 18.368,-33.9222,0 18.36542,-33.92755,0 18.36267,-33.93323,0 18.35496,-33.94894,0 18.34874,-33.96016,0 18.33292,-33.98504,0 18.32082,-34.00497,0 18.31544,-34.01321,0 18.31101,-34.02045,0 18.30776,-34.02695,0 18.3042,-34.03215,0 18.29935,-34.03207,0 18.30378,-34.02892,0 18.30935,-34.02457,0 18.31426,-34.01967,0 18.31875,-34.01495,0 18.32329,-34.00974,0 18.32743,-34.00459,0 18.33206,-33.9985,0 18.33561,-33.99328,0 18.35203,-33.96749,0 18.3604,-33.9521,0 18.36303,-33.94597,0 18.36479,-33.9403,0 18.36645,-33.93472,0 18.36823,-33.92923,0 18.37029,-33.92392,0 18.37278,-33.91859,0 18.37584,-33.9134,0 18.37973,-33.90807,0 18.38422,-33.90289,0 18.39016,-33.89832,0 18.39677,-33.89493,0 18.40529,-33.89154,0 18.41359,-33.8893,0 18.42281,-33.88873,0 18.43237,-33.89096,0 18.44016,-33.89415,0 18.44543,-33.89868,0 18.44251,-33.90216,0 18.43861,-33.9025,0 18.43607,-33.90234,0 18.43369,-33.90199,0 18.43136,-33.90152,0 18.42819,-33.90088,0 18.42704,-33.90079,0 18.42791,-33.89929,0 18.42928,-33.89757,0 18.4306,-33.8958,0 18.43181,-33.89429,0 18.43357,-33.89198,0 18.43573,-33.88866,0 18.43637,-33.88519,0 18.4318,-33.88477,0 18.42727,-33.88513,0 18.42281,-33.88547,0 18.41784,-33.88593,0 18.41269,-33.88659,0 18.40771,-33.88788,0 18.40221,-33.88966,0 18.39683,-33.89154,0 18.39117,-33.89408,0 18.38612,-33.89758,0 18.3817,-33.90157,0 18.37744,-33.9061,0 18.37396,-33.91013,0 18.36914,-33.91589,0 18.36273,-33.92462,0 18.35956,-33.92981,0 18.35655,-33.93523,0 18.35367,-33.94084,0 18.3478,-33.95264,0 18.34509,-33.95929,0 18.33498,-33.97829,0 18.32862,-33.99202,0 18.32777,-33.99884,0 18.33223,-33.9998,0 18.33549,-33.99505,0 18.33893,-33.98982,0 18.35278,-33.96759,0 18.359,-33.95494,0 18.36191,-33.94807,0 18.36411,-33.94231,0 18.36651,-33.93626,0 18.372,-33.92372,0 18.37503,-33.91855,0 18.37824,-33.91359,0 18.38198,-33.90848,0 18.38625,-33.9033,0 18.39106,-33.89897,0 18.39769,-33.89501,0 18.40552,-33.892,0 18.41404,-33.8893,0 18.42222,-33.88719,0 18.43128,-33.88742,0 18.43966,-33.88953,0 18.44656,-33.89371,0 18.44879,-33.89897,0 18.44564,-33.90283,0 18.4405,-33.90276,0 18.43729,-33.90246,0 18.43528,-33.90225,0 18.43306,-33.90208,0 18.43117,-33.90181,0 18.42779,-33.90111,0
        </coordinates>
      </LineString>
    </Placemark>
  </Document>
</kml>