<?xml version="1.0" encoding="UTF-8"?>
<kml xmlns="http://www.opengis.net/kml/2.2">
  <Document>
    <name>FR24 ZTREG 3dea5830 - Optimised</name>
    <description><![CDATA[Optimised flight path with 136 points (decimated from 680 original points). Source format: Standard KML]]></description>
    
    <Style id="flightPath">
      <LineStyle>
        <color>ffff0000</color>
        <width>3</width>
      </LineStyle>
    </Style>
    
    <Placemark>
      <name>Flight Path</name>
      <description><![CDATA[Source: ADS-B
Start (SAST): 2026-01-15 13:08:57
End (SAST): 2026-01-15 14:46:25
Points: 680]]></description>
      <styleUrl>#flightPath</styleUrl>
      <LineString>
        <extrude>1</extrude>
        <tessellate>1</tessellate>
        <altitudeMode>absolute</altitudeMode>
        <coordinates>
          18.35556,-33.90195,487.68 18.34859,-33.91148,548.64 18.33377,-34.00644,822.96 18.32034,-34.00425,822.96 18.33106,-34.01982,762 18.33229,-34.02369,731.52 18.33574,-34.02885,701.0400000000001 18.33929,-34.03455,762 18.3396,-34.03983,853.44 18.33978,-34.0452,883.9200000000001 18.33998,-34.05148,914.4000000000001 18.34186,-34.05664,914.4000000000001 18.34411,-34.06166,944.88 18.34616,-34.06787,975.36 18.34993,-34.07362,975.36 18.35386,-34.07792,975.36 18.35884,-34.08211,914.4000000000001 18.36296,-34.08563,914.4000000000001 18.36739,-34.08924,883.9200000000001 18.37271,-34.09336,883.9200000000001 18.37771,-34.09697,853.44 18.38366,-34.10073,731.52 18.38961,-34.10454,640.08 18.39502,-34.1082,609.6 18.39981,-34.11226,579.12 18.40476,-34.11589,548.64 18.41031,-34.11967,518.1600000000001 18.41528,-34.12293,518.1600000000001 18.42016,-34.12636,518.1600000000001 18.42447,-34.13012,518.1600000000001 18.42926,-34.13334,487.68 18.43501,-34.13491,487.68 18.44163,-34.13505,457.20000000000005 18.44795,-34.13416,457.20000000000005 18.45442,-34.13166,457.20000000000005 18.46245,-34.1256,426.72 18.46851,-34.1199,426.72 18.47371,-34.11214,426.72 18.47502,-34.10447,487.68 18.47219,-34.09774,548.64 18.46822,-34.09071,579.12 18.46517,-34.08269,548.64 18.46051,-34.07631,579.12 18.45414,-34.06973,579.12 18.44773,-34.06363,579.12 18.44304,-34.05629,579.12 18.43936,-34.04858,548.64 18.4376,-34.04026,548.64 18.43788,-34.03293,518.1600000000001 18.44003,-34.02469,457.20000000000005 18.44452,-34.01833,487.68 18.44876,-34.01234,487.68 18.45335,-34.00655,518.1600000000001 18.45807,-34.00076,518.1600000000001 18.4621,-33.99456,457.20000000000005 18.46599,-33.98787,487.68 18.46856,-33.98115,457.20000000000005 18.4713,-33.97425,457.20000000000005 18.47558,-33.96597,396.24 18.47652,-33.95257,274.32 18.48177,-33.93579,213.36 18.46646,-33.91962,213.36 18.46129,-33.9131,213.36 18.43947,-33.88783,304.8 18.42553,-33.88197,213.36 18.41674,-33.87281,304.8 18.40346,-33.87268,365.76 18.35732,-33.90233,487.68 18.32489,-33.99178,883.9200000000001 18.31657,-33.99367,883.9200000000001 18.32475,-34.0082,1036.3200000000002 18.32874,-34.01191,1005.84 18.3318,-34.01727,975.36 18.33474,-34.02304,944.88 18.33713,-34.02909,944.88 18.33817,-34.03543,914.4000000000001 18.33795,-34.04165,914.4000000000001 18.33613,-34.04784,944.88 18.33525,-34.05367,944.88 18.33442,-34.06115,944.88 18.33293,-34.06844,975.36 18.33235,-34.07569,914.4000000000001 18.3326,-34.08356,883.9200000000001 18.33295,-34.08925,853.44 18.33482,-34.09562,853.44 18.33851,-34.09995,822.96 18.34404,-34.10417,731.52 18.35018,-34.10678,731.52 18.3559,-34.10895,670.5600000000001 18.36184,-34.11082,670.5600000000001 18.3675,-34.11239,670.5600000000001 18.37366,-34.11416,640.08 18.37972,-34.11617,640.08 18.38428,-34.11809,640.08 18.3901,-34.12031,609.6 18.39581,-34.12222,579.12 18.40067,-34.12407,579.12 18.40579,-34.12592,579.12 18.41108,-34.12804,548.64 18.41632,-34.13028,548.64 18.42075,-34.1326,548.64 18.42583,-34.13548,518.1600000000001 18.43069,-34.13857,518.1600000000001 18.43618,-34.14072,487.68 18.4423,-34.14007,487.68 18.44931,-34.13703,487.68 18.45699,-34.12932,457.20000000000005 18.46466,-34.12113,457.20000000000005 18.47143,-34.11713,518.1600000000001 18.47758,-34.11333,518.1600000000001 18.48067,-34.10636,548.64 18.47881,-34.09912,548.64 18.47334,-34.0924,548.64 18.46748,-34.08557,548.64 18.46063,-34.08,548.64 18.45391,-34.07451,579.12 18.44889,-34.06916,579.12 18.44454,-34.0622,579.12 18.44214,-34.05445,579.12 18.44218,-34.04708,548.64 18.44328,-34.04065,548.64 18.44631,-34.03395,487.68 18.45105,-34.02726,487.68 18.45497,-34.02074,487.68 18.45874,-34.01486,487.68 18.4621,-34.00827,487.68 18.46493,-34.00153,487.68 18.46756,-33.99517,487.68 18.46991,-33.98792,457.20000000000005 18.47282,-33.9812,396.24 18.47468,-33.97451,335.28000000000003 18.48066,-33.96266,213.36 18.48699,-33.94727,274.32 18.46993,-33.92658,243.84 18.45685,-33.91427,243.84 18.43,-33.88163,274.32
        </coordinates>
      </LineString>
    </Placemark>
  </Document>
</kml>