<?xml version="1.0" encoding="UTF-8"?>
<kml xmlns="http://www.opengis.net/kml/2.2">
  <Document>
    <name>FR24 3f790027 - Optimised</name>
    <description><![CDATA[Optimised flight path with 85 points (decimated from 422 original points). Source format: Standard KML]]></description>
    
    <Style id="flightPath">
      <LineStyle>
        <color>ffff0000</color>
        <width>3</width>
      </LineStyle>
    </Style>
    
    <Placemark>
      <name>Flight Path</name>
      <description><![CDATA[Optimized flight path]]></description>
      <styleUrl>#flightPath</styleUrl>
      <LineString>
        <extrude>1</extrude>
        <tessellate>1</tessellate>
        <altitudeMode>absolute</altitudeMode>
        <coordinates>
          18.40113,-33.87835,0 18.38485,-33.8819,0 18.37294,-33.8923,0 18.36033,-33.9107,0 18.3539,-33.91864,0 18.34846,-33.92596,0 18.34539,-33.93011,0 18.34259,-33.93398,0 18.33961,-33.93826,0 18.33685,-33.94249,0 18.33057,-33.95166,0 18.32754,-33.9559,0 18.31593,-33.97266,0 18.31163,-33.98011,0 18.30883,-33.98557,0 18.30395,-33.99513,0 18.30185,-33.9998,0 18.29807,-34.00859,0 18.29372,-34.02042,0 18.29465,-34.02512,0 18.29945,-34.02633,0 18.30423,-34.02324,0 18.30782,-34.01862,0 18.31107,-34.01408,0 18.3145,-34.0093,0 18.31791,-34.00443,0 18.32113,-33.99961,0 18.33321,-33.98181,0 18.34665,-33.96116,0 18.3597,-33.94003,0 18.36454,-33.93173,0 18.37229,-33.9195,0 18.38213,-33.90562,0 18.38596,-33.90064,0 18.39037,-33.89608,0 18.39621,-33.89236,0 18.40221,-33.89003,0 18.40866,-33.88829,0 18.41486,-33.88686,0 18.42081,-33.8856,0 18.42636,-33.88472,0 18.43203,-33.88528,0 18.43573,-33.88811,0 18.43764,-33.89154,0 18.43573,-33.89552,0 18.43494,-33.8979,0 18.43091,-33.89951,0 18.43489,-33.88916,0 18.40113,-33.883,0 18.38937,-33.88556,0 18.36385,-33.88948,0 18.37063,-33.90139,0 18.36565,-33.90632,0 18.36222,-33.91014,0 18.35916,-33.91397,0 18.35615,-33.91805,0 18.35346,-33.92201,0 18.35054,-33.9262,0 18.34402,-33.93626,0 18.34151,-33.94148,0 18.33973,-33.94613,0 18.33755,-33.95069,0 18.33551,-33.95508,0 18.33366,-33.95939,0 18.32951,-33.97206,0 18.32823,-33.98448,0 18.32906,-33.9933,0 18.33002,-33.99843,0 18.33109,-34.00324,0 18.44147,-34.1383,0 18.44784,-34.13711,0 18.4552,-34.13414,0 18.46145,-34.13026,0 18.46647,-34.12588,0 18.47125,-34.12105,0 18.47495,-34.11583,0 18.47721,-34.11037,0 18.47904,-34.10464,0 18.4795,-34.09872,0 18.48003,-34.09228,0 18.48014,-34.08652,0 18.47944,-34.08103,0 18.47909,-34.07518,0 18.47963,-34.06924,0 18.4802,-34.06353,0
        </coordinates>
      </LineString>
    </Placemark>
  </Document>
</kml>