<?xml version="1.0" encoding="UTF-8"?>
<kml xmlns="http://www.opengis.net/kml/2.2">
  <Document>
    <name>FR24 40e9133b - Optimised</name>
    <description><![CDATA[Optimised flight path with 186 points (decimated from 929 original points). Source format: Standard KML]]></description>
    
    <Style id="flightPath">
      <LineStyle>
        <color>ffff0000</color>
        <width>3</width>
      </LineStyle>
    </Style>
    
    <Placemark>
      <name>Flight Path</name>
      <description><![CDATA[Optimized flight path]]></description>
      <styleUrl>#flightPath</styleUrl>
      <LineString>
        <extrude>1</extrude>
        <tessellate>1</tessellate>
        <altitudeMode>absolute</altitudeMode>
        <coordinates>
          18.43615,-33.8978,0 18.4368,-33.89145,0 18.43657,-33.88683,0 18.43517,-33.88239,0 18.43191,-33.87825,0 18.42766,-33.87502,0 18.4225,-33.87318,0 18.41675,-33.87276,0 18.41103,-33.8736,0 18.40552,-33.8752,0 18.39981,-33.87746,0 18.39489,-33.87983,0 18.39022,-33.88243,0 18.38512,-33.88554,0 18.38053,-33.88831,0 18.37606,-33.89208,0 18.37222,-33.89607,0 18.3688,-33.8999,0 18.36376,-33.90555,0 18.36028,-33.90971,0 18.35507,-33.91566,0 18.35146,-33.92052,0 18.3482,-33.92522,0 18.34494,-33.93044,0 18.34173,-33.93558,0 18.33858,-33.94059,0 18.33579,-33.94551,0 18.33282,-33.9505,0 18.32968,-33.95499,0 18.32665,-33.95984,0 18.3217,-33.96987,0 18.31438,-33.98555,0 18.30957,-33.99561,0 18.30151,-34.01237,0 18.29807,-34.01912,0 18.29577,-34.02631,0 18.29487,-34.03159,0 18.29487,-34.03714,0 18.2959,-34.04291,0 18.29745,-34.04796,0 18.29947,-34.05322,0 18.30202,-34.05855,0 18.30502,-34.06366,0 18.30843,-34.06828,0 18.31198,-34.0727,0 18.31547,-34.07661,0 18.31942,-34.08094,0 18.32335,-34.08508,0 18.32737,-34.08941,0 18.33265,-34.0947,0 18.3375,-34.09816,0 18.34229,-34.1011,0 18.34705,-34.10398,0 18.35197,-34.10678,0 18.3572,-34.10939,0 18.36216,-34.11171,0 18.36742,-34.1139,0 18.37263,-34.1159,0 18.38444,-34.12015,0 18.39095,-34.12271,0 18.39661,-34.12493,0 18.40182,-34.12706,0 18.40736,-34.12917,0 18.41532,-34.13229,0 18.4215,-34.13475,0 18.42699,-34.13644,0 18.43306,-34.13764,0 18.43889,-34.13778,0 18.44464,-34.13745,0 18.45074,-34.1362,0 18.45577,-34.13391,0 18.4609,-34.13008,0 18.46498,-34.12605,0 18.46869,-34.12138,0 18.47191,-34.11604,0 18.47385,-34.11059,0 18.47477,-34.10459,0 18.47491,-34.09845,0 18.47471,-34.09225,0 18.47425,-34.0862,0 18.4738,-34.08033,0 18.47328,-34.07456,0 18.47265,-34.06842,0 18.47116,-34.05409,0 18.47043,-34.03537,0 18.47032,-34.01784,0 18.47094,-34.01176,0 18.47155,-34.00616,0 18.47329,-33.99271,0 18.47429,-33.98634,0 18.47553,-33.98103,0 18.47712,-33.97503,0 18.47794,-33.96927,0 18.47856,-33.96387,0 18.47906,-33.95842,0 18.47928,-33.95375,0 18.47929,-33.94934,0 18.47849,-33.94477,0 18.47723,-33.94003,0 18.47551,-33.93528,0 18.47288,-33.93044,0 18.46959,-33.92532,0 18.46577,-33.9207,0 18.46174,-33.91644,0 18.45755,-33.91237,0 18.45348,-33.90814,0 18.44958,-33.90363,0 18.44582,-33.89868,0 18.4445,-33.89394,0 18.44353,-33.8897,0 18.44106,-33.8855,0 18.43626,-33.88323,0 18.43108,-33.88362,0 18.42768,-33.88659,0 18.42682,-33.8904,0 18.42671,-33.8941,0 18.42682,-33.89667,0 18.42715,-33.89845,0 18.4271,-33.90027,0 18.42912,-33.90106,0 18.4318,-33.90069,0 18.43397,-33.90032,0 18.4362,-33.89925,0 18.43712,-33.89711,0 18.43702,-33.89305,0 18.43713,-33.88815,0 18.43609,-33.88323,0 18.43153,-33.87991,0 18.42598,-33.87813,0 18.41984,-33.87765,0 18.41372,-33.8782,0 18.40759,-33.87918,0 18.40154,-33.88046,0 18.39529,-33.88211,0 18.3891,-33.88454,0 18.38349,-33.88747,0 18.37816,-33.89095,0 18.37355,-33.89426,0 18.36937,-33.89786,0 18.36525,-33.90199,0 18.36135,-33.90619,0 18.3577,-33.9107,0 18.35449,-33.91587,0 18.35171,-33.92093,0 18.3482,-33.92769,0 18.34402,-33.93705,0 18.34219,-33.9424,0 18.34403,-33.94702,0 18.34935,-33.94725,0 18.35417,-33.94391,0 18.35878,-33.94072,0 18.36264,-33.93626,0 18.36617,-33.93109,0 18.36914,-33.92606,0 18.37245,-33.92116,0 18.37635,-33.91675,0 18.38029,-33.91264,0 18.38405,-33.9088,0 18.38809,-33.905,0 18.39223,-33.90152,0 18.39684,-33.89869,0 18.4025,-33.89645,0 18.40799,-33.8941,0 18.41337,-33.89159,0 18.41829,-33.88905,0 18.42293,-33.88686,0 18.42762,-33.88496,0 18.43069,-33.88184,0 18.43094,-33.87751,0 18.42979,-33.87327,0 18.42819,-33.86899,0 18.42567,-33.86512,0 18.42189,-33.86298,0 18.4199,-33.8648,0 18.42133,-33.86778,0 18.42373,-33.87127,0 18.42564,-33.87447,0 18.42762,-33.87825,0 18.429,-33.8822,0 18.42796,-33.88612,0 18.42732,-33.88998,0 18.42738,-33.89337,0 18.42727,-33.89598,0 18.42732,-33.89735,0 18.42738,-33.89891,0 18.42722,-33.90027,0
        </coordinates>
      </LineString>
    </Placemark>
  </Document>
</kml>