<?xml version="1.0" encoding="UTF-8"?>
<kml xmlns="http://www.opengis.net/kml/2.2">
  <Document>
    <name>FR24 42036809 - Optimised</name>
    <description><![CDATA[Optimised flight path with 87 points (decimated from 435 original points). Source format: Standard KML]]></description>
    
    <Style id="flightPath">
      <LineStyle>
        <color>ffff0000</color>
        <width>3</width>
      </LineStyle>
    </Style>
    
    <Placemark>
      <name>Flight Path</name>
      <description><![CDATA[Optimized flight path]]></description>
      <styleUrl>#flightPath</styleUrl>
      <LineString>
        <extrude>1</extrude>
        <tessellate>1</tessellate>
        <altitudeMode>absolute</altitudeMode>
        <coordinates>
          18.4773,-33.92719,0 18.48404,-33.96601,0 18.48603,-33.97171,0 18.48484,-33.97744,0 18.48515,-33.98211,0 18.48508,-33.9866,0 18.48477,-33.99213,0 18.48473,-33.99726,0 18.4849,-34.00244,0 18.48514,-34.00775,0 18.485,-34.01347,0 18.48514,-34.01929,0 18.48539,-34.02435,0 18.48442,-34.02893,0 18.48473,-34.03421,0 18.48454,-34.03884,0 18.48414,-34.04364,0 18.48382,-34.04876,0 18.48355,-34.05481,0 18.48295,-34.06021,0 18.48262,-34.06528,0 18.48079,-34.07065,0 18.48118,-34.07566,0 18.48092,-34.08088,0 18.48071,-34.0862,0 18.47928,-34.10801,0 18.47944,-34.11667,0 18.47868,-34.12622,0 18.47796,-34.13239,0 18.47738,-34.13798,0 18.47676,-34.14338,0 18.4763,-34.14876,0 18.47596,-34.15379,0 18.4755,-34.15935,0 18.47499,-34.1649,0 18.47469,-34.16986,0 18.47449,-34.17521,0 18.47406,-34.18087,0 18.47337,-34.18729,0 18.4869,-34.1916,0 18.47275,-34.21232,0 18.49677,-34.2056,0 18.49481,-34.21839,0 18.4708,-34.23785,0 18.47357,-34.23676,0 18.46573,-34.21284,0 18.46313,-34.18567,0 18.46196,-34.17023,0 18.46261,-34.16339,0 18.46392,-34.15617,0 18.46554,-34.14939,0 18.46734,-34.1424,0 18.46958,-34.13535,0 18.47178,-34.12846,0 18.47379,-34.12101,0 18.47502,-34.11402,0 18.47593,-34.10656,0 18.47761,-34.09894,0 18.47045,-34.09399,0 18.46559,-34.08823,0 18.46104,-34.08288,0 18.45481,-34.07716,0 18.44979,-34.07289,0 18.44227,-34.07063,0 18.43452,-34.06885,0 18.42869,-34.0646,0 18.42364,-34.0599,0 18.41754,-34.05449,0 18.41178,-34.05107,0 18.40444,-34.04881,0 18.39899,-34.04428,0 18.40603,-34.0393,0 18.41883,-34.02827,0 18.43503,-34.01815,0 18.43984,-34.0136,0 18.44589,-34.00979,0 18.45229,-34.00356,0 18.45841,-33.9996,0 18.46322,-33.9941,0 18.46723,-33.98852,0 18.47127,-33.98226,0 18.47394,-33.95557,0 18.47541,-33.9481,0 18.47722,-33.94021,0 18.472,-33.93239,0 18.46922,-33.9261,0 18.46264,-33.91765,0
        </coordinates>
      </LineString>
    </Placemark>
  </Document>
</kml>