<?xml version="1.0" encoding="UTF-8"?>
<kml xmlns="http://www.opengis.net/kml/2.2">
  <Document>
    <name>FR24 4080169b - Optimised</name>
    <description><![CDATA[Optimised flight path with 333 points (decimated from 1665 original points). Source format: Standard KML]]></description>
    
    <Style id="flightPath">
      <LineStyle>
        <color>ffff0000</color>
        <width>3</width>
      </LineStyle>
    </Style>
    
    <Placemark>
      <name>Flight Path</name>
      <description><![CDATA[Optimized flight path]]></description>
      <styleUrl>#flightPath</styleUrl>
      <LineString>
        <extrude>1</extrude>
        <tessellate>1</tessellate>
        <altitudeMode>absolute</altitudeMode>
        <coordinates>
          18.43674,-33.88847,0 18.43629,-33.8839,0 18.43391,-33.88053,0 18.43037,-33.87811,0 18.42519,-33.8774,0 18.42024,-33.8776,0 18.41499,-33.87813,0 18.40971,-33.87904,0 18.40473,-33.88055,0 18.39952,-33.88319,0 18.39442,-33.88609,0 18.38923,-33.88947,0 18.38442,-33.89371,0 18.38001,-33.89827,0 18.37549,-33.90348,0 18.37154,-33.90874,0 18.36768,-33.91411,0 18.3637,-33.92033,0 18.35999,-33.92662,0 18.35698,-33.93242,0 18.35403,-33.93867,0 18.35129,-33.94533,0 18.34843,-33.95283,0 18.34577,-33.95943,0 18.34868,-33.97343,0 18.36096,-33.96549,0 18.36236,-33.9543,0 18.36297,-33.94821,0 18.36336,-33.9418,0 18.36428,-33.93565,0 18.36622,-33.93007,0 18.3692,-33.92439,0 18.37262,-33.91887,0 18.37635,-33.91401,0 18.38058,-33.9093,0 18.38539,-33.90465,0 18.39072,-33.89969,0 18.39677,-33.89529,0 18.40406,-33.89168,0 18.41103,-33.88873,0 18.41931,-33.88628,0 18.42688,-33.88491,0 18.435,-33.88573,0 18.44184,-33.88939,0 18.44599,-33.89464,0 18.4453,-33.90013,0 18.44078,-33.9017,0 18.43815,-33.90139,0 18.43626,-33.9012,0 18.43388,-33.90083,0 18.43203,-33.90055,0 18.43052,-33.90033,0 18.42911,-33.90022,0 18.4276,-33.90056,0 18.42861,-33.89854,0 18.42996,-33.89671,0 18.43134,-33.89478,0 18.43556,-33.88815,0 18.43626,-33.88426,0 18.43461,-33.88028,0 18.43198,-33.87689,0 18.42766,-33.87497,0 18.42278,-33.87483,0 18.41749,-33.87564,0 18.41251,-33.87685,0 18.40736,-33.8783,0 18.4025,-33.87988,0 18.39695,-33.88198,0 18.39184,-33.88486,0 18.38654,-33.88905,0 18.38236,-33.89329,0 18.37812,-33.89808,0 18.37424,-33.90303,0 18.37077,-33.90793,0 18.36742,-33.91293,0 18.36426,-33.91809,0 18.36124,-33.92317,0 18.3581,-33.92853,0 18.35462,-33.93443,0 18.34941,-33.9446,0 18.34099,-33.9654,0 18.35409,-33.97266,0 18.36241,-33.96172,0 18.36439,-33.95241,0 18.36496,-33.9465,0 18.36594,-33.94054,0 18.36824,-33.93182,0 18.37049,-33.92578,0 18.37326,-33.92038,0 18.37733,-33.91521,0 18.38198,-33.9104,0 18.38702,-33.90564,0 18.39246,-33.90115,0 18.39913,-33.89722,0 18.40668,-33.89455,0 18.4151,-33.89214,0 18.42258,-33.88989,0 18.43035,-33.8876,0 18.43909,-33.88889,0 18.44507,-33.89399,0 18.44554,-33.90001,0 18.4405,-33.90207,0 18.43781,-33.90129,0 18.43523,-33.90042,0 18.433,-33.8999,0 18.43136,-33.89983,0 18.42985,-33.8999,0 18.42808,-33.90027,0 18.42749,-33.89969,0 18.42859,-33.89766,0 18.43057,-33.89639,0 18.43357,-33.89599,0 18.43832,-33.89724,0 18.44347,-33.90092,0 18.44839,-33.90497,0 18.45406,-33.91019,0 18.45926,-33.91573,0 18.46398,-33.9213,0 18.46852,-33.92725,0 18.47278,-33.93352,0 18.47643,-33.93974,0 18.47928,-33.94675,0 18.48038,-33.95353,0 18.47985,-33.96011,0 18.47866,-33.96684,0 18.47727,-33.97321,0 18.4758,-33.97964,0 18.47323,-33.99335,0 18.47233,-33.99998,0 18.47145,-34.00669,0 18.47054,-34.01395,0 18.46991,-34.02094,0 18.46925,-34.02722,0 18.46824,-34.03377,0 18.46757,-34.04027,0 18.46768,-34.04695,0 18.46802,-34.05396,0 18.46848,-34.06092,0 18.46903,-34.06796,0 18.47278,-34.09099,0 18.47396,-34.09955,0 18.47396,-34.10646,0 18.47245,-34.11259,0 18.46996,-34.11906,0 18.46802,-34.12555,0 18.46651,-34.13187,0 18.46544,-34.13787,0 18.46521,-34.14472,0 18.46639,-34.15141,0 18.46869,-34.15764,0 18.47088,-34.16352,0 18.47271,-34.16972,0 18.47448,-34.17572,0 18.4762,-34.1819,0 18.47792,-34.1881,0 18.48198,-34.20053,0 18.48513,-34.20984,0 18.48799,-34.22041,0 18.48971,-34.22955,0 18.48887,-34.235,0 18.48501,-34.23889,0 18.48237,-34.23999,0 18.48003,-34.2401,0 18.47828,-34.23953,0 18.47671,-34.23793,0 18.47569,-34.23638,0 18.47497,-34.23505,0 18.47648,-34.23463,0 18.47822,-34.23358,0 18.47866,-34.23172,0 18.47826,-34.23023,0 18.47783,-34.22878,0 18.47715,-34.22699,0 18.47569,-34.22372,0 18.47431,-34.22078,0 18.47374,-34.21719,0 18.4738,-34.21389,0 18.47414,-34.21008,0 18.47441,-34.20621,0 18.47514,-34.19646,0 18.47637,-34.17984,0 18.47649,-34.16632,0 18.47643,-34.15471,0 18.47603,-34.14981,0 18.47558,-34.14473,0 18.47486,-34.13947,0 18.47408,-34.13387,0 18.47329,-34.12633,0 18.47267,-34.12093,0 18.47205,-34.11557,0 18.47139,-34.10896,0 18.47008,-34.10375,0 18.46773,-34.09947,0 18.46488,-34.0957,0 18.46124,-34.092,0 18.45772,-34.08867,0 18.45406,-34.08476,0 18.45092,-34.08115,0 18.44748,-34.07731,0 18.44307,-34.07259,0 18.43929,-34.06884,0 18.4359,-34.06522,0 18.43226,-34.0616,0 18.42828,-34.0584,0 18.42436,-34.05548,0 18.4207,-34.05278,0 18.4164,-34.05073,0 18.41236,-34.04887,0 18.41017,-34.04659,0 18.40982,-34.04416,0 18.41017,-34.04187,0 18.41137,-34.04044,0 18.41281,-34.0399,0 18.41045,-34.03928,0 18.40965,-34.0362,0 18.41263,-34.03322,0 18.41662,-34.02992,0 18.42054,-34.02631,0 18.42442,-34.02224,0 18.42831,-34.01809,0 18.43231,-34.0139,0 18.43666,-34.01004,0 18.44135,-34.00641,0 18.44599,-34.00232,0 18.45005,-33.99826,0 18.45333,-33.99422,0 18.45646,-33.98979,0 18.45916,-33.98474,0 18.46157,-33.97966,0 18.46361,-33.97438,0 18.46544,-33.96881,0 18.46664,-33.96372,0 18.46734,-33.95842,0 18.46704,-33.9532,0 18.4646,-33.94867,0 18.46152,-33.9446,0 18.45843,-33.94089,0 18.45428,-33.93741,0 18.45016,-33.93411,0 18.44694,-33.93018,0 18.44419,-33.92542,0 18.44215,-33.92029,0 18.44032,-33.91521,0 18.43843,-33.91005,0 18.43454,-33.89776,0 18.43601,-33.89301,0 18.44218,-33.89108,0 18.44856,-33.89403,0 18.44959,-33.89832,0 18.44576,-33.89976,0 18.44206,-33.89973,0 18.44015,-33.89981,0 18.43838,-33.8999,0 18.4314,-33.90036,0 18.42878,-33.90042,0 18.42739,-33.9006,0 18.42788,-33.89822,0 18.42878,-33.89621,0 18.43001,-33.89424,0 18.43136,-33.8925,0 18.43351,-33.88993,0 18.43624,-33.88596,0 18.43567,-33.88202,0 18.43304,-33.87827,0 18.42889,-33.87625,0 18.42384,-33.87634,0 18.41852,-33.87735,0 18.41337,-33.87881,0 18.40816,-33.88049,0 18.40328,-33.88243,0 18.39834,-33.88477,0 18.39283,-33.88775,0 18.38768,-33.8911,0 18.38242,-33.89496,0 18.3779,-33.89943,0 18.37357,-33.90459,0 18.36988,-33.90968,0 18.36589,-33.91553,0 18.35993,-33.92513,0 18.35609,-33.93225,0 18.35335,-33.93812,0 18.3507,-33.94464,0 18.34831,-33.95124,0 18.34436,-33.96237,0 18.33596,-33.99005,0 18.33412,-33.99859,0 18.33372,-34.00562,0 18.33509,-34.01228,0 18.33801,-34.01912,0 18.34179,-34.02548,0 18.34566,-34.03194,0 18.34871,-34.0389,0 18.34991,-34.04636,0 18.34906,-34.0531,0 18.34425,-34.05939,0 18.33721,-34.06129,0 18.33091,-34.05945,0 18.3271,-34.05565,0 18.32474,-34.05147,0 18.32302,-34.04733,0 18.32183,-34.0426,0 18.3215,-34.03825,0 18.32291,-34.03341,0 18.32628,-34.02848,0 18.32973,-34.02333,0 18.33271,-34.01797,0 18.33555,-34.01274,0 18.33854,-34.00676,0 18.36737,-33.9552,0 18.36667,-33.94473,0 18.36595,-33.93361,0 18.3696,-33.92802,0 18.37315,-33.92299,0 18.37721,-33.91809,0 18.38198,-33.91301,0 18.38596,-33.90791,0 18.3901,-33.90312,0 18.39426,-33.8985,0 18.40019,-33.89429,0 18.40816,-33.89231,0 18.41673,-33.892,0 18.42476,-33.89026,0 18.43225,-33.88914,0 18.43909,-33.89067,0 18.44484,-33.89571,0 18.44554,-33.90033,0 18.44118,-33.90032,0 18.43878,-33.89887,0 18.43706,-33.89817,0 18.43472,-33.89817,0 18.43287,-33.89859,0 18.43094,-33.89906,0 18.42871,-33.89976,0
        </coordinates>
      </LineString>
    </Placemark>
  </Document>
</kml>