<?xml version="1.0" encoding="UTF-8"?>
<kml xmlns="http://www.opengis.net/kml/2.2">
  <Document>
    <name>FR24 ZSHIM 3dce0dd1 - Optimised</name>
    <description><![CDATA[Optimised flight path with 214 points (decimated from 1066 original points). Source format: Standard KML]]></description>
    
    <Style id="flightPath">
      <LineStyle>
        <color>ffff0000</color>
        <width>3</width>
      </LineStyle>
    </Style>
    
    <Placemark>
      <name>Flight Path</name>
      <description><![CDATA[Source: ADS-B
Start (SAST): 2026-01-07 10:43:26
End (SAST): 2026-01-07 11:35:03
Points: 1066]]></description>
      <styleUrl>#flightPath</styleUrl>
      <LineString>
        <extrude>1</extrude>
        <tessellate>1</tessellate>
        <altitudeMode>absolute</altitudeMode>
        <coordinates>
          18.42854,-33.89957,0 18.43105,-33.90106,15.24 18.43288,-33.9012,30.48 18.43657,-33.89932,68.58 18.43838,-33.89548,99.06 18.43866,-33.89059,121.92 18.43821,-33.88551,152.4 18.43702,-33.88065,190.5 18.43443,-33.8762,236.22 18.43111,-33.87248,281.94 18.42632,-33.87003,320.04 18.42093,-33.86987,373.38 18.4164,-33.87015,419.1 18.41183,-33.87043,457.20000000000005 18.40719,-33.8709,525.78 18.4025,-33.87159,548.64 18.39778,-33.87263,579.12 18.39268,-33.87383,601.98 18.38764,-33.87524,640.08 18.38282,-33.87698,670.5600000000001 18.37784,-33.87946,701.0400000000001 18.37332,-33.88253,723.9000000000001 18.36925,-33.88536,754.38 18.36502,-33.88854,769.62 18.36085,-33.89232,769.62 18.35678,-33.89641,777.24 18.35289,-33.90111,792.48 18.34974,-33.90562,800.1 18.34677,-33.91061,792.48 18.34397,-33.91617,777.24 18.34145,-33.92173,762 18.3379,-33.9295,746.76 18.33418,-33.93784,723.9000000000001 18.33203,-33.94304,716.2800000000001 18.33018,-33.94807,708.6600000000001 18.32839,-33.95357,701.0400000000001 18.32654,-33.95934,693.4200000000001 18.32479,-33.96461,693.4200000000001 18.31881,-33.98415,731.52 18.31753,-33.99086,762 18.3169,-33.99538,762 18.3169,-34.0005,769.62 18.31833,-34.00557,792.48 18.32079,-34.01009,800.1 18.32376,-34.01465,777.24 18.32685,-34.01823,792.48 18.33029,-34.0201,784.86 18.33378,-34.01926,777.24 18.33355,-34.01477,723.9000000000001 18.33377,-34.00951,655.32 18.33544,-34.0032,601.98 18.34139,-33.98853,495.3 18.34969,-33.97103,457.20000000000005 18.35799,-33.94812,449.58000000000004 18.36068,-33.93938,434.34000000000003 18.36502,-33.92834,441.96000000000004 18.36858,-33.92294,457.20000000000005 18.37257,-33.91787,472.44 18.37658,-33.91307,495.3 18.38046,-33.90848,502.92 18.38402,-33.90423,533.4 18.38779,-33.90074,556.26 18.39274,-33.89726,548.64 18.39867,-33.8945,525.78 18.40582,-33.89236,480.06 18.41234,-33.8905,449.58000000000004 18.41858,-33.88824,403.86 18.42435,-33.88637,381 18.42894,-33.88714,327.66 18.42957,-33.89059,236.22 18.42654,-33.89369,137.16 18.42558,-33.89676,68.58 18.42642,-33.89864,15.24 18.42715,-33.90019,0 18.42888,-33.90129,7.62 18.43085,-33.90211,30.48 18.43371,-33.90157,68.58 18.43678,-33.89892,106.68 18.43792,-33.8947,129.54000000000002 18.43815,-33.89012,160.02 18.43792,-33.88531,205.74 18.43797,-33.88065,228.60000000000002 18.4387,-33.87666,236.22 18.43517,-33.8742,236.22 18.42985,-33.87267,251.46 18.42516,-33.87113,297.18 18.42054,-33.86975,342.90000000000003 18.41623,-33.86889,381 18.41185,-33.86861,388.62 18.40754,-33.86899,426.72 18.403,-33.87012,472.44 18.39879,-33.87144,510.54 18.39518,-33.87276,556.26 18.39197,-33.8742,594.36 18.38825,-33.8757,647.7 18.38505,-33.87709,685.8000000000001 18.38158,-33.87886,723.9000000000001 18.3783,-33.88044,777.24 18.37486,-33.88202,815.34 18.37166,-33.8839,853.44 18.36885,-33.88607,876.3000000000001 18.36576,-33.88868,914.4000000000001 18.36313,-33.89143,960.12 18.36044,-33.89441,998.22 18.35798,-33.89748,1036.3200000000002 18.35541,-33.90074,1066.8 18.35277,-33.90413,1097.28 18.35042,-33.90752,1127.76 18.34806,-33.91127,1127.76 18.34539,-33.916,1104.9 18.34259,-33.92094,1089.66 18.33994,-33.92596,1082.04 18.33767,-33.93137,1082.04 18.33568,-33.93613,1074.42 18.33338,-33.94082,1074.42 18.33086,-33.94583,1074.42 18.32856,-33.95068,1074.42 18.32674,-33.95539,1082.04 18.32497,-33.9606,1097.28 18.32325,-33.96679,1097.28 18.32085,-33.97652,1097.28 18.31925,-33.98465,1104.9 18.31881,-33.98923,1112.52 18.31873,-33.99389,1112.52 18.31907,-33.99826,1120.14 18.31959,-34.00236,1127.76 18.3205,-34.00683,1127.76 18.32233,-34.01116,1120.14 18.32452,-34.01527,1104.9 18.32777,-34.01953,1074.42 18.33114,-34.02319,1051.56 18.33489,-34.02672,1036.3200000000002 18.33932,-34.02997,1021.08 18.34385,-34.03271,1013.46 18.34854,-34.03513,1005.84 18.35188,-34.03926,990.6 18.35243,-34.04388,982.98 18.35249,-34.04896,975.36 18.35266,-34.05366,982.98 18.35316,-34.05807,998.22 18.35468,-34.06233,1013.46 18.35712,-34.06628,1036.3200000000002 18.35989,-34.06947,1066.8 18.36285,-34.07233,1082.04 18.36617,-34.07549,1104.9 18.36942,-34.07858,1097.28 18.37222,-34.08192,1089.66 18.37452,-34.08629,1066.8 18.37589,-34.09072,1059.18 18.37715,-34.09505,1043.94 18.3791,-34.09989,1013.46 18.38179,-34.10412,990.6 18.38608,-34.10738,975.36 18.39061,-34.1104,929.6400000000001 18.39492,-34.11356,883.9200000000001 18.39952,-34.11713,830.58 18.40445,-34.12042,769.62 18.4095,-34.12349,708.6600000000001 18.4148,-34.12642,662.94 18.41981,-34.12907,617.22 18.42547,-34.13182,571.5 18.43065,-34.1342,525.78 18.43575,-34.13596,495.3 18.44179,-34.13649,472.44 18.4477,-34.13559,472.44 18.45308,-34.13289,464.82000000000005 18.45726,-34.12862,464.82000000000005 18.46146,-34.12399,472.44 18.46601,-34.12009,472.44 18.47151,-34.11665,480.06 18.47694,-34.11334,487.68 18.48066,-34.10892,525.78 18.48141,-34.10389,533.4 18.48113,-34.09772,518.1600000000001 18.48057,-34.09186,510.54 18.47929,-34.08532,510.54 18.47749,-34.07909,525.78 18.47637,-34.073,525.78 18.47581,-34.06659,510.54 18.47536,-34.06041,518.1600000000001 18.47483,-34.04538,502.92 18.47477,-34.0302,472.44 18.47471,-34.02373,472.44 18.47452,-34.01747,487.68 18.47429,-34.01093,487.68 18.47401,-34.00475,487.68 18.47374,-33.99857,487.68 18.47385,-33.99252,480.06 18.47441,-33.98671,457.20000000000005 18.47546,-33.98104,457.20000000000005 18.47715,-33.97549,449.58000000000004 18.4794,-33.97019,426.72 18.48152,-33.96507,388.62 18.48347,-33.95953,381 18.48438,-33.95375,365.76 18.48371,-33.94711,335.28000000000003 18.48232,-33.94161,320.04 18.4798,-33.9357,297.18 18.47712,-33.931,304.8 18.47357,-33.92564,281.94 18.46942,-33.92061,236.22 18.46436,-33.91563,198.12 18.45978,-33.91167,190.5 18.45507,-33.90756,190.5 18.45086,-33.90367,190.5 18.44673,-33.89985,190.5 18.44255,-33.89631,182.88 18.43775,-33.89352,160.02 18.43242,-33.89232,114.30000000000001 18.42791,-33.8932,83.82000000000001 18.42585,-33.89566,60.96 18.4259,-33.89762,30.48 18.4271,-33.89891,0 18.42839,-33.89951,0
        </coordinates>
      </LineString>
    </Placemark>
  </Document>
</kml>