<?xml version="1.0" encoding="UTF-8"?>
<kml xmlns="http://www.opengis.net/kml/2.2">
  <Document>
    <name>FR24 40b17a00 - Optimised</name>
    <description><![CDATA[Optimised flight path with 170 points (decimated from 847 original points). Source format: Standard KML]]></description>
    
    <Style id="flightPath">
      <LineStyle>
        <color>ffff0000</color>
        <width>3</width>
      </LineStyle>
    </Style>
    
    <Placemark>
      <name>Flight Path</name>
      <description><![CDATA[Optimized flight path]]></description>
      <styleUrl>#flightPath</styleUrl>
      <LineString>
        <extrude>1</extrude>
        <tessellate>1</tessellate>
        <altitudeMode>absolute</altitudeMode>
        <coordinates>
          18.43237,-33.8918,0 18.43746,-33.8904,0 18.43988,-33.89415,0 18.44246,-33.89932,0 18.44515,-33.90376,0 18.44925,-33.90842,0 18.45103,-33.91328,0 18.45092,-33.91846,0 18.45176,-33.92418,0 18.45384,-33.92981,0 18.45572,-33.93467,0 18.45623,-33.94003,0 18.45852,-33.94459,0 18.45983,-33.94917,0 18.46018,-33.95385,0 18.45967,-33.95874,0 18.45804,-33.96318,0 18.45537,-33.96726,0 18.45297,-33.97033,0 18.45028,-33.97406,0 18.44582,-33.98058,0 18.44044,-33.98979,0 18.43719,-33.99454,0 18.4322,-33.99847,0 18.42934,-34.00397,0 18.4271,-34.01014,0 18.4247,-34.01619,0 18.42194,-34.02159,0 18.41887,-34.02731,0 18.41766,-34.03318,0 18.41914,-34.03963,0 18.42295,-34.04572,0 18.42772,-34.05075,0 18.4334,-34.05594,0 18.43921,-34.06078,0 18.44403,-34.0654,0 18.44711,-34.07158,0 18.45204,-34.07716,0 18.45692,-34.08202,0 18.46224,-34.08718,0 18.46931,-34.09474,0 18.473,-34.10054,0 18.4748,-34.10687,0 18.47413,-34.11314,0 18.47122,-34.11893,0 18.46676,-34.12386,0 18.46172,-34.12847,0 18.4568,-34.1335,0 18.45091,-34.13699,0 18.44453,-34.13727,0 18.43866,-34.1362,0 18.43282,-34.13461,0 18.42693,-34.13308,0 18.41712,-34.13022,0 18.39672,-34.12367,0 18.38905,-34.12074,0 18.38293,-34.11818,0 18.37071,-34.11264,0 18.35186,-34.1045,0 18.34614,-34.10049,0 18.34252,-34.09525,0 18.34128,-34.08943,0 18.34253,-34.08313,0 18.34539,-34.07735,0 18.34403,-34.07497,0 18.34324,-34.07721,0 18.34745,-34.07624,0 18.34545,-34.0714,0 18.34016,-34.06741,0 18.33338,-34.06292,0 18.32783,-34.05904,0 18.32314,-34.05431,0 18.31976,-34.04896,0 18.31747,-34.04333,0 18.3169,-34.03714,0 18.31774,-34.03061,0 18.3192,-34.0242,0 18.32121,-34.01733,0 18.32336,-34.01055,0 18.32628,-34.00287,0 18.33057,-33.99347,0 18.34308,-33.97009,0 18.3518,-33.95413,0 18.35468,-33.94785,0 18.35798,-33.94091,0 18.36006,-33.93571,0 18.35787,-33.9342,0 18.35861,-33.93537,0 18.3621,-33.93155,0 18.36451,-33.92616,0 18.36729,-33.9201,0 18.37065,-33.91406,0 18.37452,-33.90862,0 18.37895,-33.90308,0 18.38356,-33.89794,0 18.38934,-33.8932,0 18.3961,-33.88925,0 18.40356,-33.88632,0 18.41039,-33.88417,0 18.41726,-33.88272,0 18.42487,-33.88281,0 18.43054,-33.88542,0 18.43403,-33.88914,0 18.43729,-33.89324,0 18.43887,-33.89703,0 18.4374,-33.89878,0 18.43563,-33.89948,0 18.43382,-33.89978,0 18.43192,-33.89992,0 18.42996,-33.89992,0 18.42831,-33.8999,0 18.42727,-33.90019,0 18.42777,-33.89845,0 18.42867,-33.89717,0 18.43007,-33.89548,0 18.43147,-33.89351,0 18.43338,-33.8904,0 18.43443,-33.88672,0 18.43315,-33.88339,0 18.43029,-33.87941,0 18.4271,-33.87598,0 18.42245,-33.87369,0 18.41738,-33.87336,0 18.41224,-33.87433,0 18.40754,-33.87579,0 18.40227,-33.8779,0 18.39827,-33.88034,0 18.3942,-33.88333,0 18.39031,-33.88654,0 18.38591,-33.89026,0 18.38198,-33.89406,0 18.3783,-33.89822,0 18.37395,-33.90297,0 18.36836,-33.90939,0 18.36034,-33.91924,0 18.35771,-33.92427,0 18.35501,-33.92923,0 18.3498,-33.93835,0 18.34106,-33.95384,0 18.33949,-33.96007,0 18.34648,-33.95418,0 18.35014,-33.94896,0 18.35386,-33.94338,0 18.35764,-33.93807,0 18.36085,-33.93274,0 18.36405,-33.9268,0 18.36737,-33.92071,0 18.37143,-33.91489,0 18.3757,-33.90939,0 18.37996,-33.90395,0 18.38585,-33.89685,0 18.39054,-33.89194,0 18.39643,-33.88779,0 18.40305,-33.88412,0 18.41017,-33.88197,0 18.41738,-33.8816,0 18.4247,-33.88281,0 18.4314,-33.88458,0 18.43723,-33.88724,0 18.44193,-33.89026,0 18.44403,-33.89447,0 18.4417,-33.89715,0 18.43906,-33.89776,0 18.43672,-33.89827,0 18.43494,-33.89874,0 18.43349,-33.89909,0 18.43198,-33.89941,0 18.43057,-33.89978,0 18.429,-33.90024,0 18.42755,-33.9006,0
        </coordinates>
      </LineString>
    </Placemark>
  </Document>
</kml>