<?xml version="1.0" encoding="UTF-8"?>
<kml xmlns="http://www.opengis.net/kml/2.2">
  <Document>
    <name>FR24 3f787cc4 - Optimised</name>
    <description><![CDATA[Optimised flight path with 169 points (decimated from 845 original points). Source format: Standard KML]]></description>
    
    <Style id="flightPath">
      <LineStyle>
        <color>ffff0000</color>
        <width>3</width>
      </LineStyle>
    </Style>
    
    <Placemark>
      <name>Flight Path</name>
      <description><![CDATA[Optimized flight path]]></description>
      <styleUrl>#flightPath</styleUrl>
      <LineString>
        <extrude>1</extrude>
        <tessellate>1</tessellate>
        <altitudeMode>absolute</altitudeMode>
        <coordinates>
          18.40597,-33.87671,0 18.39712,-33.87974,0 18.39071,-33.88351,0 18.38682,-33.88607,0 18.38333,-33.88863,0 18.37967,-33.89138,0 18.37576,-33.89452,0 18.36774,-33.90134,0 18.36451,-33.90442,0 18.36176,-33.90744,0 18.35883,-33.91104,0 18.35598,-33.91456,0 18.353,-33.91846,0 18.35025,-33.92207,0 18.34694,-33.92619,0 18.34386,-33.93027,0 18.341,-33.93466,0 18.33837,-33.93869,0 18.33406,-33.94552,0 18.32628,-33.95879,0 18.32245,-33.96516,0 18.31656,-33.97401,0 18.30763,-33.98937,0 18.30454,-33.99491,0 18.30042,-34.00296,0 18.2984,-34.00745,0 18.29647,-34.0126,0 18.29515,-34.0174,0 18.29414,-34.02232,0 18.29,-34.03109,0 18.29111,-34.03667,0 18.29096,-34.04267,0 18.29126,-34.0478,0 18.30348,-34.05654,0 18.30839,-34.06142,0 18.31208,-34.06905,0 18.3164,-34.07383,0 18.32319,-34.0808,0 18.32622,-34.08525,0 18.32941,-34.08953,0 18.33305,-34.09377,0 18.33815,-34.09883,0 18.34353,-34.1022,0 18.34979,-34.10515,0 18.35386,-34.10763,0 18.3602,-34.10966,0 18.37197,-34.11425,0 18.39041,-34.12158,0 18.40017,-34.12576,0 18.4055,-34.1276,0 18.41098,-34.12944,0 18.41638,-34.13151,0 18.4227,-34.13406,0 18.42955,-34.13633,0 18.43508,-34.13783,0 18.44126,-34.13818,0 18.44734,-34.13638,0 18.45294,-34.13372,0 18.4585,-34.13035,0 18.46346,-34.12657,0 18.46772,-34.12252,0 18.47171,-34.11798,0 18.47472,-34.11295,0 18.47691,-34.10764,0 18.47821,-34.1016,0 18.47856,-34.09599,0 18.47903,-34.08966,0 18.47826,-34.0835,0 18.4749,-34.07821,0 18.47383,-34.07184,0 18.47259,-34.0654,0 18.47411,-34.05851,0 18.47558,-34.05178,0 18.47692,-34.04534,0 18.47796,-34.03959,0 18.47893,-34.0336,0 18.48146,-34.01912,0 18.48355,-34.00586,0 18.48397,-33.99986,0 18.48491,-33.9942,0 18.48824,-33.97982,0 18.4882,-33.97388,0 18.49015,-33.96735,0 18.48908,-33.9621,0 18.48778,-33.95529,0 18.4859,-33.94698,0 18.48052,-33.93539,0 18.47738,-33.93004,0 18.47374,-33.92455,0 18.46998,-33.91937,0 18.46566,-33.91484,0 18.46144,-33.91103,0 18.45423,-33.906,0 18.44902,-33.90321,0 18.43889,-33.9006,0 18.43025,-33.89985,0 18.42844,-33.89854,0 18.38211,-33.87754,0 18.35361,-33.89612,0 18.34797,-33.90331,0 18.35177,-33.90908,0 18.34629,-33.91616,0 18.34219,-33.94035,0 18.34042,-33.94706,0 18.34351,-33.95092,0 18.34986,-33.95181,0 18.35513,-33.94908,0 18.35844,-33.94384,0 18.36079,-33.9384,0 18.36302,-33.93323,0 18.36737,-33.92373,0 18.3702,-33.91864,0 18.37402,-33.91324,0 18.37984,-33.90641,0 18.38465,-33.90162,0 18.38985,-33.89757,0 18.39565,-33.89465,0 18.40204,-33.89264,0 18.40866,-33.89108,0 18.41533,-33.88957,0 18.42323,-33.88797,0 18.42916,-33.88789,0 18.43397,-33.89012,0 18.43723,-33.89329,0 18.43964,-33.8965,0 18.44111,-33.89987,0 18.43975,-33.90269,0 18.42876,-33.89952,0 18.39536,-33.88538,0 18.39111,-33.89003,0 18.38753,-33.89227,0 18.38379,-33.89473,0 18.37978,-33.89766,0 18.37584,-33.90083,0 18.37217,-33.90408,0 18.3684,-33.90763,0 18.36477,-33.91132,0 18.36129,-33.91516,0 18.35345,-33.92445,0 18.34975,-33.92944,0 18.34637,-33.93425,0 18.34324,-33.93837,0 18.33927,-33.94357,0 18.33601,-33.94799,0 18.33265,-33.95219,0 18.32737,-33.95883,0 18.31281,-33.97852,0 18.31106,-33.97457,0 18.3252,-33.96497,0 18.34276,-33.95409,0 18.34803,-33.95027,0 18.35294,-33.94574,0 18.35737,-33.94061,0 18.3613,-33.93533,0 18.36488,-33.93027,0 18.36847,-33.92519,0 18.37212,-33.9202,0 18.38196,-33.90758,0 18.39123,-33.89713,0 18.39615,-33.89347,0 18.40305,-33.88994,0 18.40956,-33.88783,0 18.41618,-33.88714,0 18.42318,-33.88696,0 18.42917,-33.88806,0 18.435,-33.8904,0 18.43966,-33.89333,0 18.44302,-33.89722,0 18.44301,-33.90157,0
        </coordinates>
      </LineString>
    </Placemark>
  </Document>
</kml>