<?xml version="1.0" encoding="UTF-8"?>
<kml xmlns="http://www.opengis.net/kml/2.2">
  <Document>
    <name>FR24 3e71a3fe - Optimised</name>
    <description><![CDATA[Optimised flight path with 292 points (decimated from 1458 original points). Source format: Standard KML]]></description>
    
    <Style id="flightPath">
      <LineStyle>
        <color>ffff0000</color>
        <width>3</width>
      </LineStyle>
    </Style>
    
    <Placemark>
      <name>Flight Path</name>
      <description><![CDATA[Optimized flight path]]></description>
      <styleUrl>#flightPath</styleUrl>
      <LineString>
        <extrude>1</extrude>
        <tessellate>1</tessellate>
        <altitudeMode>absolute</altitudeMode>
        <coordinates>
          18.72648,-33.95357,0 18.72278,-33.95549,0 18.71835,-33.95544,0 18.71358,-33.95567,0 18.70831,-33.95609,0 18.69727,-33.95673,0 18.6882,-33.95688,0 18.68202,-33.95674,0 18.67625,-33.95645,0 18.65916,-33.95503,0 18.6533,-33.95464,0 18.64789,-33.95439,0 18.64256,-33.95425,0 18.63865,-33.95418,0 18.6343,-33.95413,0 18.6323,-33.95604,0 18.63201,-33.95921,0 18.63224,-33.96256,0 18.63236,-33.96579,0 18.63235,-33.96935,0 18.63192,-33.97334,0 18.63091,-33.97792,0 18.62777,-33.98186,0 18.62328,-33.98506,0 18.61846,-33.98772,0 18.6129,-33.99002,0 18.60714,-33.99083,0 18.60176,-33.98927,0 18.59655,-33.98808,0 18.59038,-33.98849,0 18.58475,-33.989,0 18.57857,-33.98965,0 18.56993,-33.9903,0 18.56403,-33.99072,0 18.55563,-33.9912,0 18.538,-33.99147,0 18.52381,-33.99165,0 18.51757,-33.99202,0 18.51162,-33.99258,0 18.50518,-33.99326,0 18.49886,-33.99398,0 18.49363,-33.9944,0 18.48782,-33.99472,0 18.48231,-33.99376,0 18.47826,-33.99044,0 18.47514,-33.98611,0 18.47242,-33.98137,0 18.47025,-33.97662,0 18.46824,-33.9716,0 18.46639,-33.96675,0 18.4646,-33.96103,0 18.46309,-33.95563,0 18.46129,-33.95018,0 18.45932,-33.94436,0 18.45709,-33.93732,0 18.45572,-33.93193,0 18.45474,-33.92741,0 18.45412,-33.92281,0 18.45378,-33.91827,0 18.45339,-33.91438,0 18.45245,-33.91103,0 18.45051,-33.90795,0 18.44765,-33.90511,0 18.44473,-33.90274,0 18.44147,-33.90074,0 18.43825,-33.89946,0 18.435,-33.89901,0 18.43157,-33.8992,0 18.43001,-33.8996,0 18.42848,-33.89971,0 18.4271,-33.89941,0 18.42453,-33.89855,0 18.42379,-33.8963,0 18.42777,-33.89511,0 18.43237,-33.89701,0 18.43569,-33.89952,0 18.43918,-33.90213,0 18.44318,-33.90511,0 18.44924,-33.90967,0 18.45322,-33.91301,0 18.45697,-33.9167,0 18.46052,-33.92057,0 18.46367,-33.92453,0 18.46617,-33.92912,0 18.46813,-33.93346,0 18.4697,-33.93773,0 18.47048,-33.94221,0 18.46987,-33.9472,0 18.46893,-33.95171,0 18.46773,-33.95669,0 18.46687,-33.96149,0 18.46596,-33.96624,0 18.46522,-33.97092,0 18.46453,-33.97792,0 18.46458,-33.9829,0 18.46476,-33.98779,0 18.46476,-33.99933,0 18.46488,-34.00969,0 18.46498,-34.01558,0 18.46522,-34.02109,0 18.4655,-34.02658,0 18.46601,-34.03727,0 18.46605,-34.04961,0 18.46628,-34.0556,0 18.46676,-34.06111,0 18.46785,-34.07085,0 18.46916,-34.07954,0 18.47054,-34.08988,0 18.47151,-34.10031,0 18.47088,-34.10587,0 18.46886,-34.1114,0 18.46607,-34.11599,0 18.46286,-34.12074,0 18.45955,-34.12549,0 18.4521,-34.13631,0 18.44868,-34.1418,0 18.44524,-34.14728,0 18.44193,-34.15156,0 18.43609,-34.15398,0 18.42957,-34.15328,0 18.42374,-34.15146,0 18.41774,-34.14949,0 18.41163,-34.14761,0 18.40602,-34.14468,0 18.40193,-34.1408,0 18.39712,-34.13764,0 18.39095,-34.1358,0 18.38419,-34.13475,0 18.37794,-34.13402,0 18.36605,-34.1328,0 18.35771,-34.13159,0 18.35283,-34.1287,0 18.3502,-34.12461,0 18.34957,-34.11977,0 18.34957,-34.11474,0 18.34963,-34.10944,0 18.34902,-34.09822,0 18.34854,-34.09295,0 18.34814,-34.08476,0 18.34814,-34.07968,0 18.34854,-34.0701,0 18.34975,-34.05414,0 18.35025,-34.04851,0 18.35049,-34.04328,0 18.35031,-34.03784,0 18.35014,-34.03281,0 18.35014,-34.02131,0 18.34957,-34.0139,0 18.34848,-34.00925,0 18.34465,-34.00529,0 18.34067,-34.00186,0 18.3387,-33.9949,0 18.34076,-33.98909,0 18.34814,-33.9762,0 18.35546,-33.96335,0 18.35821,-33.95599,0 18.36,-33.95009,0 18.36152,-33.94446,0 18.36256,-33.93891,0 18.36365,-33.93337,0 18.36544,-33.92807,0 18.3684,-33.92225,0 18.372,-33.9174,0 18.37572,-33.91302,0 18.38013,-33.90852,0 18.38482,-33.90413,0 18.38999,-33.90019,0 18.39603,-33.89706,0 18.40307,-33.89561,0 18.40971,-33.89576,0 18.41606,-33.89729,0 18.42196,-33.89943,0 18.42779,-33.90204,0 18.43299,-33.90363,0 18.43752,-33.90298,0 18.43915,-33.90033,0 18.43803,-33.89813,0 18.43562,-33.89781,0 18.43288,-33.89859,0 18.43042,-33.89939,0 18.42828,-33.89996,0 18.42722,-33.90083,0 18.42592,-33.89969,0 18.4247,-33.89799,0 18.4255,-33.89566,0 18.42833,-33.8947,0 18.4326,-33.89548,0 18.43666,-33.89753,0 18.44044,-33.90032,0 18.44391,-33.90331,0 18.44765,-33.9066,0 18.45137,-33.90999,0 18.45451,-33.91379,0 18.45629,-33.91843,0 18.4572,-33.92313,0 18.45806,-33.92788,0 18.45932,-33.93267,0 18.4609,-33.93727,0 18.4623,-33.94199,0 18.46359,-33.94693,0 18.46487,-33.95218,0 18.46544,-33.9573,0 18.46611,-33.96227,0 18.46684,-33.96744,0 18.4683,-33.98222,0 18.46847,-33.98813,0 18.46836,-34.00366,0 18.46819,-34.00937,0 18.46734,-34.02837,0 18.46662,-34.04956,0 18.46678,-34.05661,0 18.46706,-34.06696,0 18.46774,-34.08211,0 18.46796,-34.09639,0 18.4671,-34.10231,0 18.4651,-34.10829,0 18.46155,-34.11371,0 18.45737,-34.11837,0 18.4535,-34.12285,0 18.45016,-34.12763,0 18.44719,-34.13177,0 18.44404,-34.13615,0 18.44067,-34.14039,0 18.43668,-34.14317,0 18.43142,-34.14359,0 18.42643,-34.14267,0 18.42167,-34.14174,0 18.41606,-34.14062,0 18.40078,-34.13773,0 18.39106,-34.13603,0 18.38108,-34.13429,0 18.37475,-34.13359,0 18.36875,-34.13306,0 18.36275,-34.13228,0 18.3567,-34.13077,0 18.35209,-34.12786,0 18.34885,-34.12367,0 18.34588,-34.11909,0 18.34336,-34.11461,0 18.34122,-34.1098,0 18.33961,-34.10543,0 18.33893,-34.10068,0 18.33887,-34.09584,0 18.33926,-34.0903,0 18.34011,-34.08522,0 18.34145,-34.0795,0 18.34288,-34.07396,0 18.34431,-34.06865,0 18.34549,-34.06334,0 18.34638,-34.05789,0 18.34683,-34.05254,0 18.34717,-34.04691,0 18.34717,-34.0378,0 18.347,-34.02927,0 18.3461,-34.02411,0 18.34316,-34.01907,0 18.33876,-34.01577,0 18.33601,-34.01079,0 18.33635,-34.00566,0 18.33698,-34.00013,0 18.33784,-33.99472,0 18.33926,-33.98836,0 18.34431,-33.97494,0 18.33956,-33.97061,0 18.33781,-33.97939,0 18.3498,-33.97417,0 18.3544,-33.96126,0 18.35552,-33.95242,0 18.35838,-33.93756,0 18.36039,-33.93197,0 18.3629,-33.92676,0 18.3655,-33.92189,0 18.36909,-33.9169,0 18.3732,-33.91233,0 18.37812,-33.90758,0 18.38332,-33.90349,0 18.389,-33.90027,0 18.39523,-33.89738,0 18.4016,-33.89525,0 18.40897,-33.89478,0 18.41595,-33.89539,0 18.42184,-33.89692,0 18.42715,-33.89964,0 18.43214,-33.90204,0 18.43769,-33.90339,0 18.44221,-33.90176,0 18.44134,-33.89864,0 18.43775,-33.89799,0 18.43431,-33.89874,0 18.43119,-33.89955,0 18.42859,-33.90009,0 18.42715,-33.90065,0
        </coordinates>
      </LineString>
    </Placemark>
  </Document>
</kml>