<?xml version="1.0" encoding="UTF-8"?>
<kml xmlns="http://www.opengis.net/kml/2.2">
  <Document>
    <name>FR24 3fe992db - Optimised</name>
    <description><![CDATA[Optimised flight path with 153 points (decimated from 763 original points). Source format: Standard KML]]></description>
    
    <Style id="flightPath">
      <LineStyle>
        <color>ffff0000</color>
        <width>3</width>
      </LineStyle>
    </Style>
    
    <Placemark>
      <name>Flight Path</name>
      <description><![CDATA[Optimized flight path]]></description>
      <styleUrl>#flightPath</styleUrl>
      <LineString>
        <extrude>1</extrude>
        <tessellate>1</tessellate>
        <altitudeMode>absolute</altitudeMode>
        <coordinates>
          18.43134,-33.89371,0 18.43592,-33.88509,0 18.43403,-33.88091,0 18.42973,-33.87895,0 18.42453,-33.8782,0 18.41908,-33.87845,0 18.41331,-33.87914,0 18.40742,-33.88023,0 18.40193,-33.8816,0 18.39598,-33.88356,0 18.39016,-33.88582,0 18.3843,-33.88854,0 18.37878,-33.89149,0 18.3734,-33.89497,0 18.36897,-33.89897,0 18.36473,-33.9039,0 18.36146,-33.90884,0 18.35827,-33.91442,0 18.35552,-33.91974,0 18.35272,-33.9255,0 18.3486,-33.93556,0 18.34408,-33.94864,0 18.3371,-33.97275,0 18.32937,-33.9964,0 18.32828,-34.002,0 18.32834,-34.00739,0 18.32951,-34.01262,0 18.33189,-34.01749,0 18.33515,-34.02256,0 18.3383,-34.0274,0 18.34128,-34.03244,0 18.34532,-34.03976,0 18.34734,-34.04523,0 18.34837,-34.0505,0 18.347,-34.05556,0 18.34095,-34.05766,0 18.33461,-34.05469,0 18.3313,-34.04924,0 18.32979,-34.04292,0 18.3288,-34.03672,0 18.32811,-34.02978,0 18.328,-34.02308,0 18.32817,-34.016,0 18.32891,-34.00934,0 18.3303,-34.00269,0 18.33521,-33.98904,0 18.34459,-33.96318,0 18.34952,-33.94849,0 18.35205,-33.94235,0 18.35461,-33.93639,0 18.35758,-33.93039,0 18.36113,-33.92464,0 18.36502,-33.91898,0 18.36954,-33.91368,0 18.37458,-33.90828,0 18.38001,-33.90274,0 18.38528,-33.8979,0 18.3902,-33.8938,0 18.39571,-33.88962,0 18.40244,-33.88621,0 18.41006,-33.88458,0 18.41755,-33.88416,0 18.42525,-33.88454,0 18.4326,-33.88589,0 18.43926,-33.88779,0 18.44548,-33.89117,0 18.44879,-33.89585,0 18.4473,-33.90088,0 18.44261,-33.90265,0 18.43803,-33.90111,0 18.43366,-33.89905,0 18.43111,-33.89883,0 18.42693,-33.90038,0 18.42951,-33.89711,0 18.43181,-33.8942,0 18.4338,-33.89101,0 18.43478,-33.88742,0 18.43388,-33.88335,0 18.43007,-33.88,0 18.42384,-33.87867,0 18.41789,-33.87788,0 18.41168,-33.8774,0 18.4058,-33.87813,0 18.39998,-33.87993,0 18.39431,-33.88206,0 18.38887,-33.88463,0 18.38366,-33.88783,0 18.37795,-33.89185,0 18.37301,-33.89589,0 18.36796,-33.90111,0 18.36415,-33.90601,0 18.36084,-33.91107,0 18.35799,-33.91626,0 18.35513,-33.92162,0 18.35192,-33.92806,0 18.34874,-33.93553,0 18.34627,-33.94336,0 18.3447,-33.94904,0 18.33769,-33.97343,0 18.33303,-33.98798,0 18.32979,-34.00177,0 18.32943,-34.00743,0 18.33052,-34.01303,0 18.33309,-34.01823,0 18.33641,-34.0231,0 18.34007,-34.02801,0 18.34339,-34.03299,0 18.34616,-34.03848,0 18.34784,-34.04356,0 18.34888,-34.04877,0 18.34846,-34.05409,0 18.34538,-34.05853,0 18.33904,-34.06041,0 18.3322,-34.05862,0 18.32862,-34.05309,0 18.32794,-34.04686,0 18.32772,-34.04059,0 18.3276,-34.03444,0 18.32766,-34.02763,0 18.32851,-34.01856,0 18.32994,-34.01209,0 18.33155,-34.00594,0 18.3359,-33.99239,0 18.34511,-33.97401,0 18.35094,-33.95749,0 18.3526,-33.94994,0 18.35378,-33.94377,0 18.35541,-33.93686,0 18.35731,-33.93036,0 18.36017,-33.92413,0 18.3637,-33.91818,0 18.36768,-33.91269,0 18.37256,-33.90747,0 18.37755,-33.90279,0 18.3831,-33.89818,0 18.38865,-33.89394,0 18.39453,-33.89021,0 18.40115,-33.88692,0 18.40821,-33.88449,0 18.41658,-33.88323,0 18.4239,-33.88351,0 18.43085,-33.88518,0 18.43764,-33.88728,0 18.44419,-33.88998,0 18.44954,-33.8938,0 18.45277,-33.89886,0 18.45154,-33.90404,0 18.44639,-33.90595,0 18.44072,-33.90348,0 18.43626,-33.9006,0 18.43214,-33.89868,0 18.43041,-33.89877,0 18.42688,-33.90055,0
        </coordinates>
      </LineString>
    </Placemark>
  </Document>
</kml>