<?xml version="1.0" encoding="UTF-8"?>
<kml xmlns="http://www.opengis.net/kml/2.2">
  <Document>
    <name>FR24 3eb5183b - Optimised</name>
    <description><![CDATA[Optimised flight path with 117 points (decimated from 585 original points). Source format: Standard KML]]></description>
    
    <Style id="flightPath">
      <LineStyle>
        <color>ffff0000</color>
        <width>3</width>
      </LineStyle>
    </Style>
    
    <Placemark>
      <name>Flight Path</name>
      <description><![CDATA[Optimized flight path]]></description>
      <styleUrl>#flightPath</styleUrl>
      <LineString>
        <extrude>1</extrude>
        <tessellate>1</tessellate>
        <altitudeMode>absolute</altitudeMode>
        <coordinates>
          18.59834,-33.97774,0 18.59745,-33.97876,0 18.59505,-33.98057,0 18.59285,-33.98277,0 18.59066,-33.98524,0 18.58841,-33.9877,0 18.58567,-33.99037,0 18.58281,-33.99298,0 18.57995,-33.99568,0 18.57693,-33.99884,0 18.57362,-34.00237,0 18.56796,-34.00891,0 18.55705,-34.02061,0 18.54565,-34.03267,0 18.53668,-34.04169,0 18.52261,-34.05506,0 18.51042,-34.06702,0 18.49766,-34.08015,0 18.48759,-34.09155,0 18.48024,-34.10097,0 18.47723,-34.10543,0 18.47448,-34.10948,0 18.46959,-34.11603,0 18.46605,-34.12033,0 18.46286,-34.1239,0 18.45926,-34.12735,0 18.45503,-34.13066,0 18.45075,-34.13338,0 18.44559,-34.13508,0 18.44089,-34.13557,0 18.43562,-34.13512,0 18.43048,-34.13396,0 18.42519,-34.13255,0 18.41998,-34.13104,0 18.40344,-34.12683,0 18.39565,-34.12482,0 18.39207,-34.12413,0 18.38893,-34.12376,0 18.38608,-34.12381,0 18.38366,-34.12404,0 18.38091,-34.1245,0 18.37812,-34.12521,0 18.37531,-34.12605,0 18.37256,-34.12679,0 18.36925,-34.12766,0 18.36525,-34.12833,0 18.3605,-34.12889,0 18.35564,-34.12889,0 18.35312,-34.12624,0 18.35569,-34.12298,0 18.35993,-34.11958,0 18.36439,-34.11683,0 18.36966,-34.11581,0 18.37332,-34.11776,0 18.37334,-34.12157,0 18.37091,-34.12465,0 18.36869,-34.12697,0 18.36695,-34.12875,0 18.36499,-34.1304,0 18.36302,-34.13215,0 18.36056,-34.13429,0 18.35614,-34.138,0 18.35233,-34.14034,0 18.34871,-34.13936,0 18.34763,-34.13606,0 18.35003,-34.13275,0 18.35518,-34.13045,0 18.36096,-34.12931,0 18.36746,-34.12862,0 18.3736,-34.12828,0 18.3803,-34.12828,0 18.38717,-34.12838,0 18.39369,-34.12848,0 18.40137,-34.12889,0 18.40725,-34.1294,0 18.41852,-34.13075,0 18.42453,-34.13173,0 18.43074,-34.13292,0 18.43769,-34.1334,0 18.44444,-34.13266,0 18.45074,-34.13047,0 18.45634,-34.12707,0 18.46191,-34.12267,0 18.46642,-34.11842,0 18.47065,-34.11365,0 18.47446,-34.10902,0 18.4813,-34.10074,0 18.48501,-34.09644,0 18.49027,-34.09053,0 18.50189,-34.07624,0 18.50905,-34.06778,0 18.51225,-34.06376,0 18.51835,-34.05634,0 18.52129,-34.05189,0 18.52362,-34.04759,0 18.52587,-34.04314,0 18.52816,-34.03867,0 18.53027,-34.03429,0 18.53662,-34.02126,0 18.53937,-34.01646,0 18.54618,-34.00557,0 18.54929,-34.00127,0 18.5558,-33.99197,0 18.56192,-33.98202,0 18.56409,-33.97708,0 18.56605,-33.97234,0 18.56807,-33.96776,0 18.57115,-33.964,0 18.57582,-33.96167,0 18.58096,-33.9613,0 18.58567,-33.96277,0 18.58932,-33.96493,0 18.59178,-33.96753,0 18.59373,-33.97015,0 18.59533,-33.97266,0 18.59643,-33.97444,0 18.59716,-33.97581,0
        </coordinates>
      </LineString>
    </Placemark>
  </Document>
</kml>