<?xml version="1.0" encoding="UTF-8"?>
<kml xmlns="http://www.opengis.net/kml/2.2">
  <Document>
    <name>FR24 ZSHGD 3e1a1a3a - Optimised</name>
    <description><![CDATA[Optimised flight path with 292 points (decimated from 1459 original points). Source format: Standard KML]]></description>
    
    <Style id="flightPath">
      <LineStyle>
        <color>ffff0000</color>
        <width>3</width>
      </LineStyle>
    </Style>
    
    <Placemark>
      <name>Flight Path</name>
      <description><![CDATA[Park boundary / NP17 restricted airspace. Red track segments show flight inside this area.]]></description>
      <styleUrl>#flightPath</styleUrl>
      <LineString>
        <extrude>1</extrude>
        <tessellate>1</tessellate>
        <altitudeMode>absolute</altitudeMode>
        <coordinates>
          18.43008,-33.89585,45.72 18.43495,-33.88797,129.54000000000002 18.43626,-33.88472,152.4 18.43472,-33.8817,182.88 18.43102,-33.88023,213.36 18.42693,-33.87997,243.84 18.42267,-33.88028,266.7 18.41818,-33.88091,289.56 18.41377,-33.88165,320.04 18.40972,-33.88243,350.52000000000004 18.4029,-33.88393,419.1 18.39851,-33.88545,434.34000000000003 18.3946,-33.88752,472.44 18.39088,-33.88989,502.92 18.38728,-33.89254,525.78 18.38299,-33.8958,556.26 18.37783,-33.90015,586.74 18.37423,-33.90348,617.22 18.36981,-33.90788,640.08 18.3637,-33.91443,678.1800000000001 18.3605,-33.91843,685.8000000000001 18.35771,-33.92253,693.4200000000001 18.35489,-33.92755,701.0400000000001 18.35289,-33.93253,708.6600000000001 18.35137,-33.93796,708.6600000000001 18.35059,-33.94272,708.6600000000001 18.3521,-33.94753,716.2800000000001 18.35743,-33.9489,716.2800000000001 18.36061,-33.94556,693.4200000000001 18.36187,-33.94059,655.32 18.36337,-33.93549,640.08 18.36533,-33.93068,617.22 18.36782,-33.92643,594.36 18.37071,-33.92235,579.12 18.37402,-33.91805,556.26 18.37744,-33.91414,533.4 18.38114,-33.9104,518.1600000000001 18.38499,-33.90665,502.92 18.38951,-33.90288,487.68 18.39363,-33.8999,480.06 18.39838,-33.89692,464.82000000000005 18.40339,-33.8942,441.96000000000004 18.40849,-33.89191,426.72 18.41412,-33.88984,403.86 18.41984,-33.88798,381 18.4257,-33.88641,365.76 18.43209,-33.88591,335.28000000000003 18.43752,-33.88737,312.42 18.44201,-33.89058,274.32 18.4445,-33.8945,228.60000000000002 18.44313,-33.89846,167.64000000000001 18.43814,-33.90056,91.44 18.43349,-33.90047,53.34 18.43052,-33.90015,38.1 18.42856,-33.89996,7.62 18.42716,-33.89981,15.24 18.42564,-33.8985,38.1 18.42794,-33.8952,68.58 18.43094,-33.89231,99.06 18.43414,-33.88887,137.16 18.43603,-33.88542,160.02 18.43483,-33.88142,198.12 18.43102,-33.87927,220.98000000000002 18.42636,-33.87877,243.84 18.4215,-33.87904,274.32 18.41663,-33.87965,297.18 18.41152,-33.8806,320.04 18.40664,-33.88174,335.28000000000003 18.40199,-33.88309,358.14000000000004 18.39722,-33.88486,381 18.39263,-33.88696,403.86 18.38865,-33.88934,426.72 18.38461,-33.89209,441.96000000000004 18.38024,-33.89479,472.44 18.3766,-33.89772,502.92 18.37379,-33.9006,541.02 18.37103,-33.90362,563.88 18.36819,-33.90692,594.36 18.36376,-33.91251,624.84 18.3609,-33.91638,647.7 18.35804,-33.92052,655.32 18.35457,-33.92583,662.94 18.3518,-33.93034,685.8000000000001 18.349,-33.93463,701.0400000000001 18.34487,-33.94102,716.2800000000001 18.34253,-33.94594,723.9000000000001 18.34059,-33.95097,739.14 18.33876,-33.95622,754.38 18.33492,-33.96828,800.1 18.33,-33.98732,830.58 18.32867,-33.99467,838.2 18.32862,-33.99976,845.82 18.32937,-34.00534,845.82 18.33074,-34.01042,853.44 18.33265,-34.01527,845.82 18.33498,-34.01972,838.2 18.33769,-34.02411,838.2 18.34027,-34.02823,822.96 18.34257,-34.0323,807.72 18.34454,-34.03695,792.48 18.34608,-34.0416,777.24 18.34723,-34.04668,754.38 18.34784,-34.05222,731.52 18.34784,-34.05748,708.6600000000001 18.34678,-34.06274,693.4200000000001 18.34532,-34.06801,693.4200000000001 18.34375,-34.07304,701.0400000000001 18.34208,-34.08001,693.4200000000001 18.3415,-34.08527,685.8000000000001 18.34202,-34.09053,685.8000000000001 18.34448,-34.0957,678.1800000000001 18.3482,-34.09966,685.8000000000001 18.35272,-34.1024,685.8000000000001 18.35804,-34.10482,662.94 18.36309,-34.10692,662.94 18.36813,-34.1088,655.32 18.37357,-34.1109,640.08 18.37968,-34.11337,632.46 18.38517,-34.11557,624.84 18.3998,-34.1218,586.74 18.41281,-34.12729,563.88 18.41721,-34.12945,548.64 18.4225,-34.13196,541.02 18.42772,-34.13397,533.4 18.43293,-34.13544,518.1600000000001 18.43832,-34.13606,518.1600000000001 18.44398,-34.13578,525.78 18.44902,-34.13489,525.78 18.45372,-34.13278,525.78 18.45776,-34.12976,518.1600000000001 18.46161,-34.12633,510.54 18.46539,-34.12279,525.78 18.46876,-34.11963,525.78 18.47242,-34.11553,525.78 18.47525,-34.11154,525.78 18.47771,-34.10687,518.1600000000001 18.4794,-34.10194,502.92 18.48013,-34.09708,495.3 18.48018,-34.09204,495.3 18.48013,-34.08673,487.68 18.47996,-34.08192,480.06 18.47962,-34.07176,464.82000000000005 18.47906,-34.05844,449.58000000000004 18.47856,-34.04375,441.96000000000004 18.47912,-34.02726,434.34000000000003 18.479,-34.02017,419.1 18.47878,-34.01523,426.72 18.47883,-34.00608,403.86 18.47928,-33.99568,388.62 18.47969,-33.9897,381 18.48013,-33.98433,373.38 18.48072,-33.97922,365.76 18.48259,-33.96625,342.90000000000003 18.48364,-33.95581,320.04 18.48312,-33.95111,304.8 18.48203,-33.94629,297.18 18.48043,-33.94156,297.18 18.47826,-33.93663,297.18 18.4757,-33.93224,289.56 18.47273,-33.92766,289.56 18.46939,-33.9235,289.56 18.46579,-33.91964,289.56 18.46252,-33.91626,297.18 18.45909,-33.91242,266.7 18.45602,-33.90894,243.84 18.45271,-33.90546,220.98000000000002 18.44918,-33.90253,205.74 18.4452,-33.90083,175.26000000000002 18.44089,-33.9001,137.16 18.43685,-33.90015,99.06 18.43266,-33.90022,53.34 18.42957,-33.90005,30.48 18.42791,-33.89985,7.62 18.43775,-33.89658,144.78 18.43843,-33.89282,175.26000000000002 18.43713,-33.88898,198.12 18.43382,-33.88605,228.60000000000002 18.42922,-33.88412,259.08000000000004 18.42424,-33.88326,289.56 18.41949,-33.88281,312.42 18.41421,-33.88271,335.28000000000003 18.40871,-33.88307,365.76 18.40416,-33.8837,388.62 18.39947,-33.88477,411.48 18.39453,-33.88646,449.58000000000004 18.39067,-33.8882,472.44 18.38619,-33.89063,502.92 18.38226,-33.89301,533.4 18.3785,-33.89543,563.88 18.37458,-33.89841,579.12 18.37086,-33.90171,586.74 18.36724,-33.90523,601.98 18.36382,-33.90879,601.98 18.36044,-33.91219,601.98 18.35724,-33.9161,609.6 18.35429,-33.92038,617.22 18.35186,-33.92434,632.46 18.34947,-33.92871,655.32 18.34722,-33.93283,662.94 18.34285,-33.94084,693.4200000000001 18.34076,-33.94538,701.0400000000001 18.3373,-33.95329,731.52 18.33384,-33.96284,754.38 18.33092,-33.97252,800.1 18.32817,-33.98579,800.1 18.32833,-33.99174,792.48 18.32884,-33.99742,792.48 18.32962,-34.00278,815.34 18.3312,-34.00809,853.44 18.33349,-34.01288,868.6800000000001 18.3363,-34.01735,868.6800000000001 18.33967,-34.02163,883.9200000000001 18.34322,-34.02563,891.5400000000001 18.34677,-34.02959,906.7800000000001 18.35008,-34.03381,914.4000000000001 18.35333,-34.03821,929.6400000000001 18.35608,-34.04265,960.12 18.35833,-34.04696,967.74 18.35956,-34.05162,960.12 18.35781,-34.05627,944.88 18.35272,-34.05894,944.88 18.34785,-34.05762,952.5 18.34625,-34.05436,960.12 18.34907,-34.05144,952.5 18.35412,-34.05222,944.88 18.35608,-34.05707,929.6400000000001 18.35466,-34.06176,914.4000000000001 18.35232,-34.06632,906.7800000000001 18.34941,-34.07176,876.3000000000001 18.3456,-34.07675,845.82 18.34196,-34.08145,822.96 18.33938,-34.08664,800.1 18.33876,-34.09277,777.24 18.34106,-34.09767,769.62 18.34543,-34.10161,754.38 18.35059,-34.10463,754.38 18.35592,-34.10733,754.38 18.36124,-34.10971,754.38 18.36639,-34.11191,746.76 18.37407,-34.11507,723.9000000000001 18.38478,-34.11909,685.8000000000001 18.38968,-34.12107,678.1800000000001 18.39426,-34.12307,670.5600000000001 18.39912,-34.12521,655.32 18.40387,-34.12735,655.32 18.40914,-34.1294,647.7 18.41421,-34.13127,640.08 18.41955,-34.13294,617.22 18.42497,-34.1347,609.6 18.43085,-34.13667,586.74 18.43706,-34.13783,563.88 18.44353,-34.13787,533.4 18.45022,-34.13643,502.92 18.45589,-34.13391,472.44 18.46118,-34.1304,449.58000000000004 18.46594,-34.12628,434.34000000000003 18.46979,-34.1214,403.86 18.473,-34.1159,381 18.47525,-34.11031,365.76 18.47631,-34.10408,373.38 18.47683,-34.0977,365.76 18.47717,-34.09127,358.14000000000004 18.47788,-34.07414,312.42 18.47895,-34.05524,312.42 18.47935,-34.03923,320.04 18.48057,-34.02049,335.28000000000003 18.48101,-34.01507,327.66 18.48158,-34.00879,320.04 18.48225,-34.00291,320.04 18.48364,-33.98635,304.8 18.48394,-33.98094,297.18 18.48392,-33.97382,297.18 18.48358,-33.96768,281.94 18.48287,-33.9619,281.94 18.48192,-33.95677,281.94 18.48032,-33.94864,289.56 18.47749,-33.93851,281.94 18.4754,-33.93332,289.56 18.47271,-33.9282,281.94 18.46931,-33.92336,266.7 18.4659,-33.91838,259.08000000000004 18.4623,-33.9133,251.46 18.45812,-33.90856,236.22 18.45383,-33.90418,236.22 18.44959,-33.89994,228.60000000000002 18.44513,-33.89557,205.74 18.44033,-33.89204,190.5 18.4345,-33.89149,160.02 18.42979,-33.8936,121.92 18.4271,-33.89655,68.58 18.42733,-33.89906,45.72 18.42728,-33.90041,22.86
        </coordinates>
      </LineString>
    </Placemark>
    <Placemark>
      <name>Entry 1</name>
      <description><![CDATA[Entry into TMNP (incursion 1) at 2026-01-29 13:04:47 SAST]]></description>
      <Style>
        <IconStyle>
          <color>ff00ff00</color>
          <scale>0.8</scale>
          <Icon><href>http://maps.google.com/mapfiles/kml/shapes/placemark_circle.png</href></Icon>
        </IconStyle>
      </Style>
      <Point>
        <coordinates>18.337812575195972,-34.024294977113925,838.2</coordinates>
      </Point>
    </Placemark>
    <Placemark>
      <name>Exit 1</name>
      <description><![CDATA[Exit from TMNP (incursion 1) at 2026-01-29 13:05:13 SAST]]></description>
      <Style>
        <IconStyle>
          <color>ff0000ff</color>
          <scale>0.8</scale>
          <Icon><href>http://maps.google.com/mapfiles/kml/shapes/placemark_circle.png</href></Icon>
        </IconStyle>
      </Style>
      <Point>
        <coordinates>18.34357486552501,-34.03439627705734,800.1</coordinates>
      </Point>
    </Placemark>
    <Placemark>
      <name>Entry 2</name>
      <description><![CDATA[Entry into TMNP (incursion 2) at 2026-01-29 13:07:55 SAST]]></description>
      <Style>
        <IconStyle>
          <color>ff00ff00</color>
          <scale>0.8</scale>
          <Icon><href>http://maps.google.com/mapfiles/kml/shapes/placemark_circle.png</href></Icon>
        </IconStyle>
      </Style>
      <Point>
        <coordinates>18.353287490077875,-34.102677146317106,680.7717739611492</coordinates>
      </Point>
    </Placemark>
    <Placemark>
      <name>Exit 2</name>
      <description><![CDATA[Exit from TMNP (incursion 2) at 2026-01-29 13:08:07 SAST]]></description>
      <Style>
        <IconStyle>
          <color>ff0000ff</color>
          <scale>0.8</scale>
          <Icon><href>http://maps.google.com/mapfiles/kml/shapes/placemark_circle.png</href></Icon>
        </IconStyle>
      </Style>
      <Point>
        <coordinates>18.358469351889454,-34.10500472116174,662.94</coordinates>
      </Point>
    </Placemark>
    <Placemark>
      <name>Entry 3</name>
      <description><![CDATA[Entry into TMNP (incursion 3) at 2026-01-29 13:08:31 SAST]]></description>
      <Style>
        <IconStyle>
          <color>ff00ff00</color>
          <scale>0.8</scale>
          <Icon><href>http://maps.google.com/mapfiles/kml/shapes/placemark_circle.png</href></Icon>
        </IconStyle>
      </Style>
      <Point>
        <coordinates>18.369437675666564,-34.1092958640744,647.7</coordinates>
      </Point>
    </Placemark>
    <Placemark>
      <name>Exit 3</name>
      <description><![CDATA[Exit from TMNP (incursion 3) at 2026-01-29 13:08:50 SAST]]></description>
      <Style>
        <IconStyle>
          <color>ff0000ff</color>
          <scale>0.8</scale>
          <Icon><href>http://maps.google.com/mapfiles/kml/shapes/placemark_circle.png</href></Icon>
        </IconStyle>
      </Style>
      <Point>
        <coordinates>18.378133845727874,-34.11276244905697,632.46</coordinates>
      </Point>
    </Placemark>
    <Placemark>
      <name>Entry 4</name>
      <description><![CDATA[Entry into TMNP (incursion 4) at 2026-01-29 13:09:41 SAST]]></description>
      <Style>
        <IconStyle>
          <color>ff00ff00</color>
          <scale>0.8</scale>
          <Icon><href>http://maps.google.com/mapfiles/kml/shapes/placemark_circle.png</href></Icon>
        </IconStyle>
      </Style>
      <Point>
        <coordinates>18.401916142728552,-34.12261699181292,581.6371494963392</coordinates>
      </Point>
    </Placemark>
    <Placemark>
      <name>Exit 4</name>
      <description><![CDATA[Exit from TMNP (incursion 4) at 2026-01-29 13:09:50 SAST]]></description>
      <Style>
        <IconStyle>
          <color>ff0000ff</color>
          <scale>0.8</scale>
          <Icon><href>http://maps.google.com/mapfiles/kml/shapes/placemark_circle.png</href></Icon>
        </IconStyle>
      </Style>
      <Point>
        <coordinates>18.40574863612706,-34.12415611101473,579.12</coordinates>
      </Point>
    </Placemark>
    <Placemark>
      <name>Entry 5</name>
      <description><![CDATA[Entry into TMNP (incursion 5) at 2026-01-29 16:27:42 SAST]]></description>
      <Style>
        <IconStyle>
          <color>ff00ff00</color>
          <scale>0.8</scale>
          <Icon><href>http://maps.google.com/mapfiles/kml/shapes/placemark_circle.png</href></Icon>
        </IconStyle>
      </Style>
      <Point>
        <coordinates>18.353105889422594,-34.10592351712717,754.38</coordinates>
      </Point>
    </Placemark>
    <Placemark>
      <name>Exit 5</name>
      <description><![CDATA[Exit from TMNP (incursion 5) at 2026-01-29 16:28:35 SAST]]></description>
      <Style>
        <IconStyle>
          <color>ff0000ff</color>
          <scale>0.8</scale>
          <Icon><href>http://maps.google.com/mapfiles/kml/shapes/placemark_circle.png</href></Icon>
        </IconStyle>
      </Style>
      <Point>
        <coordinates>18.376897951425313,-34.11620118057012,717.1659406684712</coordinates>
      </Point>
    </Placemark>
  </Document>
</kml>