<?xml version="1.0" encoding="UTF-8"?>
<kml xmlns="http://www.opengis.net/kml/2.2">
  <Document>
    <name>FR24 ZTHOT 3dbb540b - Optimised</name>
    <description><![CDATA[Optimised flight path with 608 points (decimated from 3040 original points). Source format: Standard KML]]></description>
    
    <Style id="flightPath">
      <LineStyle>
        <color>ffff0000</color>
        <width>3</width>
      </LineStyle>
    </Style>
    
    <Placemark>
      <name>Flight Path</name>
      <description><![CDATA[Source: ADS-B
Start (SAST): 2026-01-01 14:33:04
End (SAST): 2026-01-01 18:08:04
Points: 3040]]></description>
      <styleUrl>#flightPath</styleUrl>
      <LineString>
        <extrude>1</extrude>
        <tessellate>1</tessellate>
        <altitudeMode>absolute</altitudeMode>
        <coordinates>
          18.42743,-33.90005,60.96 18.42934,-33.89676,91.44 18.43158,-33.89369,152.4 18.43371,-33.89026,182.88 18.43573,-33.88646,213.36 18.43489,-33.8823,243.84 18.4314,-33.87904,274.32 18.42619,-33.8769,304.8 18.42093,-33.87589,335.28000000000003 18.41515,-33.87579,365.76 18.40877,-33.87639,426.72 18.40311,-33.87753,457.20000000000005 18.39787,-33.87914,487.68 18.39291,-33.8811,518.1600000000001 18.38814,-33.88367,548.64 18.38343,-33.88683,548.64 18.37912,-33.8904,579.12 18.37525,-33.89401,609.6 18.37166,-33.89781,609.6 18.36796,-33.90202,640.08 18.36477,-33.9061,670.5600000000001 18.36199,-33.91,701.0400000000001 18.35787,-33.91612,731.52 18.35171,-33.92656,762 18.3493,-33.93123,792.48 18.34689,-33.93594,792.48 18.34425,-33.94119,792.48 18.34134,-33.94762,792.48 18.34173,-33.95393,731.52 18.34929,-33.9565,701.0400000000001 18.35369,-33.95106,670.5600000000001 18.35546,-33.94501,640.08 18.35771,-33.93887,640.08 18.36,-33.93352,640.08 18.36247,-33.92775,640.08 18.36718,-33.91795,670.5600000000001 18.37037,-33.91237,670.5600000000001 18.37378,-33.90725,670.5600000000001 18.37761,-33.90211,670.5600000000001 18.3819,-33.89701,640.08 18.38676,-33.89287,640.08 18.39283,-33.88924,640.08 18.39901,-33.88626,640.08 18.40591,-33.88376,609.6 18.41297,-33.88211,609.6 18.42007,-33.88198,609.6 18.4271,-33.88393,548.64 18.43338,-33.88724,487.68 18.43887,-33.89085,365.76 18.44347,-33.89511,243.84 18.44307,-33.89973,213.36 18.43876,-33.90056,213.36 18.43371,-33.9001,152.4 18.42872,-33.90005,91.44 18.42699,-33.90083,91.44 18.4276,-33.89937,91.44 18.4299,-33.8963,121.92 18.43242,-33.89296,152.4 18.43489,-33.88929,182.88 18.43695,-33.88575,243.84 18.43666,-33.88142,274.32 18.43346,-33.87765,304.8 18.42842,-33.87532,335.28000000000003 18.42293,-33.87439,396.24 18.41679,-33.87419,426.72 18.41091,-33.87467,457.20000000000005 18.40502,-33.87592,487.68 18.39986,-33.87772,487.68 18.39472,-33.88002,518.1600000000001 18.38957,-33.88268,548.64 18.38484,-33.88541,579.12 18.38041,-33.88849,609.6 18.37595,-33.89212,640.08 18.3724,-33.89538,670.5600000000001 18.36794,-33.89967,670.5600000000001 18.36404,-33.90372,701.0400000000001 18.36062,-33.90775,701.0400000000001 18.35731,-33.91214,731.52 18.35438,-33.91666,731.52 18.35165,-33.9213,762 18.34907,-33.92592,762 18.34588,-33.93251,762 18.34379,-33.93719,762 18.34047,-33.94873,883.9200000000001 18.34644,-33.94679,731.52 18.35182,-33.94258,701.0400000000001 18.35642,-33.9375,670.5600000000001 18.36034,-33.93219,640.08 18.3637,-33.92694,640.08 18.3669,-33.92175,640.08 18.37099,-33.91544,640.08 18.3766,-33.9077,670.5600000000001 18.38052,-33.90294,670.5600000000001 18.38465,-33.89804,670.5600000000001 18.38877,-33.89357,670.5600000000001 18.39336,-33.88916,670.5600000000001 18.39815,-33.88528,670.5600000000001 18.40395,-33.88184,670.5600000000001 18.41074,-33.88011,670.5600000000001 18.41801,-33.8803,640.08 18.42519,-33.88229,579.12 18.43136,-33.88545,518.1600000000001 18.43685,-33.88925,426.72 18.441,-33.89296,365.76 18.44167,-33.89694,304.8 18.43809,-33.89892,243.84 18.43315,-33.89964,152.4 18.42951,-33.89999,121.92 18.42693,-33.90065,91.44 18.4285,-33.89996,91.44 18.43175,-33.89717,121.92 18.43403,-33.89399,152.4 18.43569,-33.88989,182.88 18.43672,-33.88505,243.84 18.43597,-33.88007,274.32 18.43346,-33.87532,304.8 18.42894,-33.87201,365.76 18.42295,-33.87067,396.24 18.41639,-33.87076,426.72 18.41028,-33.87159,457.20000000000005 18.4045,-33.87281,487.68 18.39804,-33.87485,518.1600000000001 18.39243,-33.87723,548.64 18.38734,-33.87979,579.12 18.38247,-33.88277,579.12 18.37732,-33.8864,609.6 18.37318,-33.88989,640.08 18.36914,-33.89384,640.08 18.36522,-33.89786,670.5600000000001 18.36157,-33.90207,701.0400000000001 18.35821,-33.90646,701.0400000000001 18.35512,-33.91084,731.52 18.35165,-33.91621,762 18.34919,-33.92061,762 18.34682,-33.92527,762 18.34448,-33.93045,762 18.34246,-33.93562,762 18.34019,-33.94105,762 18.33727,-33.9498,762 18.33982,-33.95453,731.52 18.3486,-33.95348,731.52 18.35226,-33.94771,670.5600000000001 18.35535,-33.9417,640.08 18.35832,-33.9359,609.6 18.3609,-33.93027,640.08 18.36359,-33.92455,670.5600000000001 18.36657,-33.91885,670.5600000000001 18.36959,-33.91388,670.5600000000001 18.37297,-33.90902,670.5600000000001 18.37675,-33.90409,640.08 18.38086,-33.89955,640.08 18.38556,-33.89502,670.5600000000001 18.3905,-33.89108,670.5600000000001 18.39655,-33.88733,670.5600000000001 18.40288,-33.88463,670.5600000000001 18.40972,-33.8828,640.08 18.41738,-33.8823,640.08 18.42435,-33.88362,609.6 18.43074,-33.88628,548.64 18.43615,-33.88942,457.20000000000005 18.44021,-33.89268,365.76 18.44089,-33.89722,274.32 18.4374,-33.89948,213.36 18.4327,-33.89973,152.4 18.42836,-33.89999,91.44 18.42717,-33.9009,0 18.431,-33.9012,121.92 18.43489,-33.90221,152.4 18.43825,-33.90285,213.36 18.44181,-33.90199,274.32 18.44433,-33.89832,304.8 18.4433,-33.89365,335.28000000000003 18.44061,-33.88902,335.28000000000003 18.43685,-33.88454,335.28000000000003 18.43102,-33.88106,365.76 18.42516,-33.87881,396.24 18.41904,-33.87737,426.72 18.41219,-33.8763,457.20000000000005 18.40559,-33.87602,487.68 18.39849,-33.87695,518.1600000000001 18.39167,-33.87909,548.64 18.38631,-33.88184,548.64 18.38133,-33.88509,579.12 18.37692,-33.88845,609.6 18.37256,-33.892,640.08 18.36824,-33.89598,640.08 18.36443,-33.90005,670.5600000000001 18.3609,-33.90432,701.0400000000001 18.35759,-33.90871,701.0400000000001 18.35466,-33.9133,701.0400000000001 18.35169,-33.91861,701.0400000000001 18.34924,-33.92326,731.52 18.34689,-33.9283,731.52 18.34492,-33.93311,731.52 18.34276,-33.93896,731.52 18.34061,-33.94839,731.52 18.33876,-33.9539,731.52 18.33166,-33.96991,731.52 18.32587,-33.98721,731.52 18.32525,-33.99577,731.52 18.45932,-34.12162,579.12 18.46639,-34.11818,579.12 18.47158,-34.11332,579.12 18.47598,-34.10766,579.12 18.47905,-34.10108,579.12 18.47991,-34.09471,609.6 18.47966,-34.0884,579.12 18.48019,-34.08202,579.12 18.48135,-34.07518,609.6 18.48203,-34.06882,609.6 18.48299,-34.06215,609.6 18.48365,-34.05574,609.6 18.48528,-34.04943,609.6 18.48616,-34.03958,640.08 18.48627,-34.03326,640.08 18.48628,-34.02655,640.08 18.48721,-34.01353,609.6 18.48715,-34.00656,579.12 18.48813,-33.99934,548.64 18.48854,-33.99102,518.1600000000001 18.49021,-33.98242,487.68 18.49124,-33.97501,487.68 18.49245,-33.96807,487.68 18.49093,-33.96131,487.68 18.48918,-33.95452,487.68 18.48698,-33.94716,487.68 18.48392,-33.93951,487.68 18.48083,-33.93374,487.68 18.47699,-33.9278,457.20000000000005 18.47231,-33.92229,457.20000000000005 18.46722,-33.91722,426.72 18.46138,-33.91163,426.72 18.45669,-33.90707,426.72 18.45205,-33.90181,426.72 18.44834,-33.89703,457.20000000000005 18.44481,-33.89149,426.72 18.43992,-33.88798,396.24 18.43467,-33.88774,396.24 18.43142,-33.89044,274.32 18.42889,-33.89378,213.36 18.42727,-33.89694,152.4 18.42704,-33.8996,91.44 18.42713,-33.90113,0 18.431,-33.90148,91.44 18.43477,-33.90134,182.88 18.43821,-33.89939,243.84 18.43998,-33.89561,274.32 18.43954,-33.89058,304.8 18.43723,-33.88547,304.8 18.43299,-33.88042,335.28000000000003 18.42721,-33.87708,365.76 18.42093,-33.8752,396.24 18.41366,-33.87476,426.72 18.40714,-33.87527,457.20000000000005 18.40113,-33.87662,487.68 18.39537,-33.87881,487.68 18.38963,-33.88169,518.1600000000001 18.38459,-33.88505,548.64 18.3799,-33.8887,579.12 18.37566,-33.89245,579.12 18.3716,-33.89627,609.6 18.36754,-33.90036,640.08 18.36399,-33.90442,640.08 18.36067,-33.9086,670.5600000000001 18.3572,-33.91338,701.0400000000001 18.35421,-33.91819,701.0400000000001 18.35152,-33.92318,701.0400000000001 18.34874,-33.92844,731.52 18.34625,-33.93337,762 18.33949,-33.94739,762 18.34013,-33.95176,853.44 18.34621,-33.95201,792.48 18.35154,-33.94748,731.52 18.35518,-33.94231,701.0400000000001 18.35884,-33.93639,701.0400000000001 18.36197,-33.93059,670.5600000000001 18.36496,-33.92494,670.5600000000001 18.36811,-33.91954,640.08 18.37177,-33.91383,640.08 18.37538,-33.90865,640.08 18.37927,-33.90362,640.08 18.38371,-33.89859,640.08 18.3882,-33.89408,609.6 18.39352,-33.88998,609.6 18.39969,-33.88692,609.6 18.40628,-33.88482,609.6 18.41286,-33.88339,579.12 18.41949,-33.88272,548.64 18.42505,-33.88319,518.1600000000001 18.42912,-33.88486,457.20000000000005 18.43105,-33.88742,365.76 18.43209,-33.89104,304.8 18.43168,-33.89408,243.84 18.42945,-33.89655,152.4 18.42788,-33.89877,91.44 18.4271,-33.90069,60.96 18.42968,-33.90102,60.96 18.43266,-33.90092,152.4 18.43584,-33.90065,213.36 18.43912,-33.89808,274.32 18.44027,-33.89383,304.8 18.43941,-33.88905,335.28000000000003 18.43713,-33.88467,335.28000000000003 18.43374,-33.88002,365.76 18.42854,-33.87723,426.72 18.42178,-33.87616,457.20000000000005 18.41555,-33.87602,487.68 18.40972,-33.87653,518.1600000000001 18.40279,-33.87769,548.64 18.39672,-33.87946,579.12 18.39106,-33.8816,609.6 18.38607,-33.88408,640.08 18.3811,-33.8871,670.5600000000001 18.37646,-33.89035,701.0400000000001 18.37206,-33.89383,731.52 18.36819,-33.89726,731.52 18.36405,-33.90148,762 18.36057,-33.90559,792.48 18.35735,-33.90991,792.48 18.35434,-33.9147,822.96 18.3518,-33.9194,853.44 18.34923,-33.92429,853.44 18.34638,-33.92995,853.44 18.34414,-33.9353,853.44 18.34179,-33.94139,853.44 18.3396,-33.94643,853.44 18.33561,-33.95511,822.96 18.32592,-33.97893,762 18.32323,-33.99147,762 18.32279,-33.99691,762 18.32273,-34.0019,792.48 18.32329,-34.00699,792.48 18.32445,-34.01223,792.48 18.32628,-34.01791,792.48 18.32845,-34.02338,762 18.33063,-34.02852,731.52 18.33258,-34.03364,731.52 18.33384,-34.03844,701.0400000000001 18.33567,-34.04323,701.0400000000001 18.34036,-34.04523,762 18.3424,-34.04109,792.48 18.33943,-34.03578,762 18.33567,-34.03071,762 18.3312,-34.02498,731.52 18.32856,-34.01898,701.0400000000001 18.32783,-34.01221,701.0400000000001 18.32857,-34.00608,670.5600000000001 18.33017,-33.99947,670.5600000000001 18.33652,-33.98415,640.08 18.34386,-33.96899,609.6 18.35306,-33.94803,579.12 18.35735,-33.93951,579.12 18.36034,-33.93388,609.6 18.36567,-33.92386,579.12 18.36886,-33.91846,609.6 18.37578,-33.90776,609.6 18.3794,-33.90298,579.12 18.38367,-33.89785,609.6 18.38825,-33.89337,609.6 18.39369,-33.88971,609.6 18.39987,-33.88691,609.6 18.40656,-33.88482,609.6 18.4132,-33.88356,609.6 18.41955,-33.88305,579.12 18.42519,-33.8839,518.1600000000001 18.42813,-33.88593,487.68 18.42985,-33.88831,426.72 18.43117,-33.89096,335.28000000000003 18.43105,-33.8938,243.84 18.429,-33.89648,182.88 18.42749,-33.899,121.92 18.42705,-33.90078,91.44 18.428,-33.89882,91.44 18.43048,-33.8952,121.92 18.43317,-33.89105,152.4 18.43575,-33.88659,213.36 18.43741,-33.88156,274.32 18.43685,-33.87648,304.8 18.43371,-33.87209,335.28000000000003 18.42819,-33.8695,396.24 18.42155,-33.86838,457.20000000000005 18.41555,-33.86916,487.68 18.40939,-33.87112,518.1600000000001 18.40389,-33.87337,548.64 18.39821,-33.87616,579.12 18.39283,-33.87918,609.6 18.38791,-33.88253,609.6 18.38522,-33.8844,701.0400000000001 18.38181,-33.88724,731.52 18.37772,-33.89067,731.52 18.37379,-33.89424,731.52 18.36954,-33.8985,762 18.36595,-33.90244,762 18.36197,-33.9072,762 18.35849,-33.91182,762 18.3553,-33.91644,792.48 18.35216,-33.92175,792.48 18.34935,-33.92702,792.48 18.34597,-33.93383,792.48 18.34016,-33.94373,762 18.33767,-33.94766,792.48 18.34133,-33.9478,762 18.34648,-33.9431,701.0400000000001 18.35132,-33.9375,640.08 18.35574,-33.93173,640.08 18.35956,-33.92642,640.08 18.37239,-33.90894,609.6 18.37632,-33.90445,640.08 18.38058,-33.89981,640.08 18.38499,-33.89557,640.08 18.38971,-33.89168,670.5600000000001 18.39546,-33.88789,640.08 18.4013,-33.88477,609.6 18.40857,-33.88309,579.12 18.41606,-33.88268,487.68 18.42217,-33.88266,518.1600000000001 18.42693,-33.88431,487.68 18.42934,-33.88696,487.68 18.43094,-33.89003,426.72 18.43192,-33.89328,335.28000000000003 18.43142,-33.89566,274.32 18.42962,-33.89743,182.88 18.42727,-33.90001,91.44 18.42825,-33.90083,91.44 18.43276,-33.90152,121.92 18.43666,-33.90162,213.36 18.44049,-33.9006,243.84 18.44369,-33.89763,304.8 18.44341,-33.89291,335.28000000000003 18.4405,-33.88792,335.28000000000003 18.43695,-33.88272,365.76 18.4331,-33.87785,396.24 18.42785,-33.87406,426.72 18.42172,-33.87236,426.72 18.41475,-33.87225,487.68 18.40838,-33.87305,518.1600000000001 18.40132,-33.87451,548.64 18.39509,-33.87648,579.12 18.38945,-33.87895,609.6 18.38439,-33.8817,640.08 18.37912,-33.88527,701.0400000000001 18.37486,-33.88879,731.52 18.37099,-33.89273,762 18.36725,-33.89692,762 18.36353,-33.90144,792.48 18.35638,-33.91074,792.48 18.35199,-33.91754,762 18.34963,-33.92249,853.44 18.35192,-33.9248,914.4000000000001 18.35278,-33.92289,975.36 18.34969,-33.92528,914.4000000000001 18.34705,-33.93048,853.44 18.34442,-33.93622,853.44 18.34162,-33.94226,822.96 18.33418,-33.95781,731.52 18.32439,-33.9815,731.52 18.32279,-33.98956,762 18.32245,-33.9951,762 18.32278,-34.00035,762 18.32351,-34.00548,792.48 18.32474,-34.01032,792.48 18.3268,-34.01586,762 18.32918,-34.02145,792.48 18.33147,-34.02745,792.48 18.42749,-33.89914,91.44 18.42693,-33.90088,60.96 18.43063,-33.90092,121.92 18.4342,-33.90111,182.88 18.43825,-33.90038,213.36 18.44117,-33.89685,274.32 18.44078,-33.89177,304.8 18.43792,-33.88626,304.8 18.4341,-33.88129,335.28000000000003 18.42833,-33.87762,365.76 18.42183,-33.87566,396.24 18.4152,-33.8755,426.72 18.40828,-33.87639,457.20000000000005 18.4013,-33.87807,457.20000000000005 18.39504,-33.88028,487.68 18.38932,-33.88316,487.68 18.38385,-33.88663,518.1600000000001 18.3791,-33.89031,548.64 18.37446,-33.89445,579.12 18.37032,-33.89854,579.12 18.36651,-33.90269,579.12 18.36253,-33.90752,609.6 18.35894,-33.91223,609.6 18.3558,-33.91676,640.08 18.35312,-33.92113,640.08 18.35014,-33.92597,640.08 18.34723,-33.93067,670.5600000000001 18.34459,-33.93512,670.5600000000001 18.34055,-33.94226,731.52 18.33097,-33.96209,762 18.32278,-33.98383,822.96 18.3215,-33.98923,822.96 18.32067,-33.99435,822.96 18.32045,-33.99971,822.96 18.32088,-34.00493,792.48 18.32251,-34.01051,792.48 18.32491,-34.01577,792.48 18.32783,-34.02061,792.48 18.33092,-34.02559,792.48 18.33681,-34.03574,762 18.33801,-34.04058,762 18.33807,-34.04365,853.44 18.34019,-34.04099,853.44 18.33557,-34.03381,792.48 18.33097,-34.02727,762 18.32777,-34.02131,670.5600000000001 18.32548,-34.0144,701.0400000000001 18.3248,-34.00818,670.5600000000001 18.32536,-34.00177,670.5600000000001 18.32923,-33.99092,609.6 18.33842,-33.97142,548.64 18.35209,-33.94282,579.12 18.35563,-33.93713,579.12 18.35911,-33.93155,579.12 18.36216,-33.92611,609.6 18.36519,-33.92057,609.6 18.36851,-33.91535,609.6 18.37217,-33.91003,609.6 18.37598,-33.90486,609.6 18.38063,-33.89955,609.6 18.38562,-33.89496,609.6 18.39106,-33.89067,609.6 18.39683,-33.88696,579.12 18.4033,-33.88407,579.12 18.41068,-33.88235,518.1600000000001 18.41818,-33.88165,518.1600000000001 18.42475,-33.88211,487.68 18.42968,-33.88477,426.72 18.43175,-33.8887,335.28000000000003 18.4326,-33.89259,243.84 18.43063,-33.89566,182.88 18.42839,-33.89777,121.92 18.42751,-33.90018,91.44 18.43306,-33.89804,91.44 18.43567,-33.89397,121.92 18.43655,-33.88858,182.88 18.43626,-33.88309,213.36 18.43343,-33.87749,243.84 18.42822,-33.87268,274.32 18.42149,-33.87048,304.8 18.41446,-33.86987,365.76 18.40782,-33.87044,396.24 18.40098,-33.87222,426.72 18.39489,-33.87471,426.72 18.38911,-33.87807,457.20000000000005 18.38405,-33.88202,457.20000000000005 18.37962,-33.88614,518.1600000000001 18.37549,-33.89031,548.64 18.36708,-33.89906,609.6 18.36336,-33.90339,640.08 18.36,-33.90775,670.5600000000001 18.35667,-33.91256,670.5600000000001 18.35384,-33.91699,701.0400000000001 18.35112,-33.92187,701.0400000000001 18.34857,-33.92661,731.52 18.34582,-33.93233,762 18.34386,-33.93695,762 18.34184,-33.94144,792.48 18.33657,-33.95316,792.48 18.33355,-33.95963,792.48 18.32592,-33.97664,762 18.32233,-33.98863,762 18.32142,-33.99412,762 18.32142,-33.99975,762 18.32222,-34.00511,731.52 18.32348,-34.01014,731.52 18.32542,-34.01558,762 18.32794,-34.02122,762 18.33029,-34.02643,762 18.33258,-34.03159,762 18.33366,-34.0363,731.52 18.33349,-34.04142,731.52 18.33231,-34.04631,731.52 18.32805,-34.04874,762 18.32542,-34.04328,792.48 18.32548,-34.03676,792.48 18.32542,-34.03056,792.48 18.32508,-34.02351,731.52 18.32514,-34.01553,731.52 18.32571,-34.00911,731.52 18.32733,-34.00255,731.52 18.33355,-33.98662,640.08 18.34894,-33.95623,579.12 18.35636,-33.94203,609.6 18.36157,-33.93352,670.5600000000001 18.36454,-33.92853,640.08 18.36731,-33.92341,701.0400000000001 18.37011,-33.91885,640.08 18.37366,-33.91298,609.6 18.37704,-33.90734,609.6 18.38203,-33.89946,609.6 18.38596,-33.89441,640.08 18.39071,-33.88956,640.08 18.39632,-33.88565,640.08 18.40342,-33.88291,609.6 18.41051,-33.88211,609.6 18.41768,-33.8822,579.12 18.42396,-33.88321,487.68 18.42861,-33.88591,457.20000000000005 18.43057,-33.88925,396.24 18.43198,-33.89246,335.28000000000003 18.43288,-33.89561,243.84 18.43042,-33.89697,213.36 18.42739,-33.89897,91.44
        </coordinates>
      </LineString>
    </Placemark>
  </Document>
</kml>