<?xml version="1.0" encoding="UTF-8"?>
<kml xmlns="http://www.opengis.net/kml/2.2">
  <Document>
    <name>FR24 410d97a8 - Optimised</name>
    <description><![CDATA[Optimised flight path with 101 points (decimated from 502 original points). Source format: Standard KML]]></description>
    
    <Style id="flightPath">
      <LineStyle>
        <color>ffff0000</color>
        <width>3</width>
      </LineStyle>
    </Style>
    
    <Placemark>
      <name>Flight Path</name>
      <description><![CDATA[Optimized flight path]]></description>
      <styleUrl>#flightPath</styleUrl>
      <LineString>
        <extrude>1</extrude>
        <tessellate>1</tessellate>
        <altitudeMode>absolute</altitudeMode>
        <coordinates>
          18.42494,-33.87787,0 18.40733,-33.87504,0 18.39684,-33.87633,0 18.39042,-33.87928,0 18.38477,-33.8819,0 18.37849,-33.88478,0 18.37393,-33.88795,0 18.36781,-33.89206,0 18.36165,-33.89769,0 18.35449,-33.90392,0 18.35054,-33.9101,0 18.34672,-33.91665,0 18.33889,-33.9373,0 18.36359,-33.91512,0 18.36686,-33.90886,0 18.42606,-33.88468,0 18.44076,-33.90112,0 18.44233,-33.90799,0 18.44667,-33.91527,0 18.44841,-33.92215,0 18.45038,-33.92765,0 18.45291,-33.93376,0 18.45274,-33.93965,0 18.45401,-33.94531,0 18.45408,-33.95155,0 18.45357,-33.95797,0 18.45145,-33.96453,0 18.44846,-33.97117,0 18.4455,-33.9775,0 18.44192,-33.98336,0 18.43902,-33.98826,0 18.43666,-33.99184,0 18.43468,-33.99586,0 18.43206,-34.00046,0 18.4299,-34.00599,0 18.42735,-34.01186,0 18.42445,-34.01826,0 18.42167,-34.02486,0 18.42006,-34.03172,0 18.42017,-34.03905,0 18.42118,-34.04614,0 18.42431,-34.05284,0 18.42864,-34.05877,0 18.43454,-34.06394,0 18.44016,-34.06824,0 18.44569,-34.07251,0 18.45153,-34.07719,0 18.457,-34.08232,0 18.46246,-34.08692,0 18.46728,-34.0923,0 18.47045,-34.09853,0 18.4725,-34.10557,0 18.47392,-34.11089,0 18.4737,-34.11722,0 18.47177,-34.12349,0 18.46742,-34.12915,0 18.46209,-34.13398,0 18.4564,-34.13836,0 18.44997,-34.14162,0 18.4432,-34.14336,0 18.43577,-34.14315,0 18.42804,-34.14214,0 18.42131,-34.1405,0 18.41345,-34.13868,0 18.40468,-34.13665,0 18.39668,-34.13458,0 18.38583,-34.13269,0 18.37616,-34.13122,0 18.36801,-34.12978,0 18.3597,-34.12867,0 18.35156,-34.12735,0 18.43253,-33.87846,0 18.41414,-33.87244,0 18.4081,-33.87251,0 18.38512,-33.87375,0 18.38321,-33.88034,0 18.37874,-33.88435,0 18.37332,-33.89135,0 18.36884,-33.89739,0 18.36295,-33.90445,0 18.35762,-33.91027,0 18.35368,-33.91572,0 18.3459,-33.92965,0 18.33928,-33.9424,0 18.33571,-33.95411,0 18.36705,-33.90918,0 18.37855,-33.9032,0 18.41651,-33.87618,0 18.39863,-33.88038,0 18.39268,-33.88438,0 18.38606,-33.88901,0 18.38012,-33.8942,0 18.37371,-33.89919,0 18.36732,-33.90539,0 18.36196,-33.9125,0 18.35641,-33.92012,0 18.34659,-33.93546,0 18.34341,-33.94471,0 18.36403,-33.91871,0 18.37366,-33.90999,0 18.39096,-33.88918,0
        </coordinates>
      </LineString>
    </Placemark>
  </Document>
</kml>