<?xml version="1.0" encoding="UTF-8"?>
<kml xmlns="http://www.opengis.net/kml/2.2">
  <Document>
    <name>FR24 40ca8fd1 - Optimised</name>
    <description><![CDATA[Optimised flight path with 187 points (decimated from 934 original points). Source format: Standard KML]]></description>
    
    <Style id="flightPath">
      <LineStyle>
        <color>ffff0000</color>
        <width>3</width>
      </LineStyle>
    </Style>
    
    <Placemark>
      <name>Flight Path</name>
      <description><![CDATA[Optimized flight path]]></description>
      <styleUrl>#flightPath</styleUrl>
      <LineString>
        <extrude>1</extrude>
        <tessellate>1</tessellate>
        <altitudeMode>absolute</altitudeMode>
        <coordinates>
          18.43332,-33.89319,0 18.43672,-33.88724,0 18.4364,-33.88321,0 18.4342,-33.87988,0 18.43041,-33.87717,0 18.42553,-33.8757,0 18.41987,-33.87589,0 18.414,-33.87746,0 18.4086,-33.87955,0 18.40267,-33.88198,0 18.39694,-33.88463,0 18.39167,-33.8876,0 18.38625,-33.89147,0 18.38164,-33.89516,0 18.37709,-33.8992,0 18.37262,-33.90385,0 18.36841,-33.90825,0 18.36445,-33.91289,0 18.36079,-33.91768,0 18.35759,-33.92258,0 18.35462,-33.92784,0 18.35188,-33.93333,0 18.3494,-33.93933,0 18.34734,-33.94492,0 18.34454,-33.95101,0 18.3419,-33.95688,0 18.33344,-33.97485,0 18.32296,-33.9944,0 18.31903,-34.00044,0 18.31499,-34.00584,0 18.31043,-34.01055,0 18.30883,-34.01624,0 18.31381,-34.02024,0 18.32105,-34.01866,0 18.32559,-34.01454,0 18.32912,-34.00992,0 18.33246,-34.00511,0 18.33534,-34.00085,0 18.34894,-33.97881,0 18.35466,-33.96777,0 18.35987,-33.95581,0 18.36168,-33.95105,0 18.3637,-33.94589,0 18.36533,-33.94112,0 18.36668,-33.93649,0 18.36858,-33.9315,0 18.37074,-33.9269,0 18.3728,-33.92234,0 18.37648,-33.91754,0 18.38063,-33.91287,0 18.38489,-33.90848,0 18.38917,-33.90451,0 18.39386,-33.90097,0 18.39963,-33.89786,0 18.40557,-33.89511,0 18.41163,-33.89259,0 18.41829,-33.89017,0 18.42531,-33.88788,0 18.43248,-33.88617,0 18.43935,-33.88551,0 18.44633,-33.88794,0 18.44896,-33.89338,0 18.4457,-33.89757,0 18.44084,-33.8992,0 18.43618,-33.90019,0 18.43414,-33.90036,0 18.43168,-33.90041,0 18.42996,-33.90038,0 18.42871,-33.90041,0 18.42755,-33.90056,0 18.42791,-33.89952,0 18.42917,-33.89781,0 18.43046,-33.89616,0 18.43225,-33.8938,0 18.43512,-33.89017,0 18.43702,-33.88637,0 18.4359,-33.88229,0 18.4326,-33.87923,0 18.42777,-33.87781,0 18.42167,-33.87835,0 18.41606,-33.87988,0 18.41051,-33.88179,0 18.40501,-33.88412,0 18.3993,-33.88641,0 18.39392,-33.88943,0 18.3887,-33.89323,0 18.38396,-33.8972,0 18.37951,-33.90106,0 18.37543,-33.90511,0 18.37114,-33.91009,0 18.36757,-33.91512,0 18.36399,-33.9202,0 18.36096,-33.92527,0 18.35793,-33.9305,0 18.35501,-33.9359,0 18.35226,-33.94086,0 18.34902,-33.94597,0 18.34526,-33.95132,0 18.3419,-33.95618,0 18.33836,-33.96177,0 18.33327,-33.97,0 18.32284,-33.98689,0 18.31947,-33.99337,0 18.31633,-33.99961,0 18.31326,-34.00534,0 18.31043,-34.01093,0 18.3072,-34.01688,0 18.3035,-34.02214,0 18.3003,-34.02773,0 18.29847,-34.03369,0 18.2979,-34.04012,0 18.29907,-34.04663,0 18.30149,-34.05318,0 18.30523,-34.05952,0 18.30967,-34.06526,0 18.31392,-34.07112,0 18.31999,-34.07945,0 18.32828,-34.08948,0 18.33349,-34.09463,0 18.33966,-34.09955,0 18.34654,-34.10394,0 18.35363,-34.10803,0 18.36113,-34.11168,0 18.36864,-34.1147,0 18.37632,-34.11772,0 18.38366,-34.12047,0 18.3919,-34.12335,0 18.40342,-34.1273,0 18.4219,-34.13401,0 18.42859,-34.13666,0 18.43523,-34.13795,0 18.44179,-34.138,0 18.44812,-34.13622,0 18.45366,-34.1334,0 18.45852,-34.12987,0 18.46355,-34.12642,0 18.46773,-34.1226,0 18.47149,-34.11832,0 18.47425,-34.11362,0 18.47631,-34.10808,0 18.47755,-34.10316,0 18.47866,-34.09821,0 18.47945,-34.09314,0 18.47996,-34.0882,0 18.48052,-34.08307,0 18.48158,-34.07587,0 18.48152,-34.06874,0 18.48046,-34.06375,0 18.47963,-34.05869,0 18.47878,-34.05375,0 18.47783,-34.04791,0 18.47732,-34.04265,0 18.47706,-34.03793,0 18.47677,-34.0329,0 18.47654,-34.02773,0 18.47631,-34.01743,0 18.47654,-34.00781,0 18.4771,-34.0031,0 18.47769,-33.99803,0 18.47839,-33.9933,0 18.47952,-33.98844,0 18.48057,-33.98369,0 18.48164,-33.97885,0 18.48249,-33.97452,0 18.48335,-33.96977,0 18.48392,-33.96526,0 18.48438,-33.96065,0 18.48343,-33.95618,0 18.48169,-33.95213,0 18.47985,-33.94785,0 18.47811,-33.94363,0 18.47626,-33.93966,0 18.47368,-33.93544,0 18.47128,-33.93151,0 18.4687,-33.92774,0 18.46583,-33.92422,0 18.46252,-33.92085,0 18.45926,-33.91693,0 18.4558,-33.91283,0 18.45277,-33.90907,0 18.44925,-33.90567,0 18.44515,-33.90349,0 18.44078,-33.90208,0 18.43612,-33.90129,0 18.4336,-33.90111,0 18.43108,-33.90088,0 18.42811,-33.9006,0
        </coordinates>
      </LineString>
    </Placemark>
  </Document>
</kml>