<?xml version="1.0" encoding="UTF-8"?>
<kml xmlns="http://www.opengis.net/kml/2.2">
  <Document>
    <name>FR24 ZTRNW 3e167983 - Optimised</name>
    <description><![CDATA[Optimised flight path with 92 points (decimated from 457 original points). Source format: Standard KML]]></description>
    
    <Style id="flightPath">
      <LineStyle>
        <color>ffff0000</color>
        <width>3</width>
      </LineStyle>
    </Style>
    
    <Placemark>
      <name>Flight Path</name>
      <description><![CDATA[Source: ADS-B
Start (SAST): 2026-01-28 12:11:25
End (SAST): 2026-01-28 13:09:36
Points: 457]]></description>
      <styleUrl>#flightPath</styleUrl>
      <LineString>
        <extrude>1</extrude>
        <tessellate>1</tessellate>
        <altitudeMode>absolute</altitudeMode>
        <coordinates>
          18.59531,-33.97737,53.34 18.59505,-33.98062,106.68 18.59127,-33.9816,144.78 18.58658,-33.97936,175.26000000000002 18.5824,-33.97554,190.5 18.57834,-33.97126,205.74 18.57362,-33.96703,228.60000000000002 18.56807,-33.96359,236.22 18.56185,-33.96098,243.84 18.55501,-33.9586,243.84 18.5483,-33.9565,251.46 18.53565,-33.95241,266.7 18.523,-33.94739,266.7 18.51667,-33.94405,281.94 18.51053,-33.94054,281.94 18.50138,-33.935,289.56 18.49234,-33.92885,312.42 18.48601,-33.92505,312.42 18.47975,-33.92122,312.42 18.46701,-33.91306,266.7 18.45485,-33.9034,350.52000000000004 18.44982,-33.89869,342.90000000000003 18.44501,-33.89422,312.42 18.43998,-33.89059,281.94 18.43483,-33.89136,251.46 18.43288,-33.89399,182.88 18.43085,-33.89635,121.92 18.42859,-33.89874,45.72 18.42716,-33.90018,15.24 18.42743,-33.90083,0 18.42888,-33.90097,30.48 18.43186,-33.90065,60.96 18.43517,-33.89981,129.54000000000002 18.43803,-33.89753,175.26000000000002 18.43906,-33.89371,213.36 18.43842,-33.88966,243.84 18.43678,-33.88509,297.18 18.43306,-33.88142,350.52000000000004 18.42831,-33.87993,403.86 18.42321,-33.87937,449.58000000000004 18.4178,-33.87923,487.68 18.41168,-33.87923,525.78 18.40622,-33.87951,563.88 18.40109,-33.88023,601.98 18.39554,-33.88174,624.84 18.39031,-33.88398,640.08 18.38489,-33.88692,647.7 18.38007,-33.89008,662.94 18.37561,-33.89338,685.8000000000001 18.37132,-33.89711,708.6600000000001 18.36718,-33.90106,723.9000000000001 18.36353,-33.90502,731.52 18.36021,-33.90921,746.76 18.3573,-33.91372,762 18.35434,-33.91859,769.62 18.35186,-33.92313,769.62 18.34934,-33.92844,754.38 18.34706,-33.93361,754.38 18.34488,-33.93891,762 18.34324,-33.94386,769.62 18.34185,-33.94887,777.24 18.33904,-33.95915,784.86 18.33444,-33.97467,777.24 18.32867,-33.99257,800.1 18.3271,-34.00008,838.2 18.32699,-34.0052,830.58 18.33097,-34.01823,784.86 18.34053,-34.03234,708.6600000000001 18.34883,-34.03928,739.14 18.3387,-34.02708,716.2800000000001 18.32738,-34.01454,655.32 18.32914,-33.99803,624.84 18.33405,-33.98392,640.08 18.34358,-33.96451,624.84 18.3544,-33.94034,632.46 18.36582,-33.92071,601.98 18.37046,-33.91489,586.74 18.3819,-33.90302,579.12 18.3954,-33.89198,556.26 18.40569,-33.8849,533.4 18.41286,-33.88174,525.78 18.41967,-33.88132,502.92 18.42603,-33.88321,464.82000000000005 18.43168,-33.88644,419.1 18.43607,-33.88985,365.76 18.43586,-33.89394,304.8 18.43008,-33.8938,220.98000000000002 18.4239,-33.89305,190.5 18.42519,-33.8963,114.30000000000001 18.42671,-33.89832,68.58 18.42704,-33.89973,30.48 18.42722,-33.90078,15.24
        </coordinates>
      </LineString>
    </Placemark>
  </Document>
</kml>