<?xml version="1.0" encoding="UTF-8"?>
<kml xmlns="http://www.opengis.net/kml/2.2">
  <Document>
    <name>FR24 ZSHBO 3e09e859 - Optimised</name>
    <description><![CDATA[Optimised flight path with 400 points (decimated from 1998 original points). Source format: Standard KML]]></description>
    
    <Style id="flightPath">
      <LineStyle>
        <color>ffff0000</color>
        <width>3</width>
      </LineStyle>
    </Style>
    
    <Placemark>
      <name>Flight Path</name>
      <description><![CDATA[Source: ADS-B
Start (SAST): 2026-01-24 09:38:18
End (SAST): 2026-01-24 15:32:08
Points: 1998]]></description>
      <styleUrl>#flightPath</styleUrl>
      <LineString>
        <extrude>1</extrude>
        <tessellate>1</tessellate>
        <altitudeMode>absolute</altitudeMode>
        <coordinates>
          18.43271,-33.89203,45.72 18.43643,-33.88556,114.30000000000001 18.435,-33.88225,198.12 18.43035,-33.88106,259.08000000000004 18.42536,-33.8806,304.8 18.41972,-33.88039,365.76 18.41417,-33.88058,411.48 18.40838,-33.88106,464.82000000000005 18.4021,-33.88184,502.92 18.39661,-33.88309,548.64 18.39128,-33.88577,586.74 18.38652,-33.88898,624.84 18.38213,-33.89259,655.32 18.37828,-33.89621,685.8000000000001 18.37469,-33.89973,746.76 18.37114,-33.904,754.38 18.36771,-33.90865,762 18.36416,-33.91401,762 18.36079,-33.91973,762 18.3586,-33.9256,746.76 18.32376,-33.90043,609.6 18.38657,-33.89635,594.36 18.39266,-33.8931,586.74 18.39878,-33.89073,594.36 18.40496,-33.88916,601.98 18.41188,-33.88817,487.68 18.41938,-33.88747,434.34000000000003 18.42693,-33.88733,373.38 18.43357,-33.89026,327.66 18.44016,-33.89429,274.32 18.44425,-33.89914,251.46 18.44725,-33.9046,213.36 18.45075,-33.90381,236.22 18.44582,-33.9026,213.36 18.44072,-33.90221,175.26000000000002 18.43646,-33.90184,114.30000000000001 18.43225,-33.90171,60.96 18.43008,-33.90148,22.86 18.42839,-33.90111,0 18.42716,-33.90097,0 18.42705,-33.90036,0 18.42816,-33.89845,0 18.4294,-33.89658,38.1 18.43209,-33.89227,76.2 18.43472,-33.88821,121.92 18.43718,-33.88374,160.02 18.43615,-33.87909,198.12 18.43105,-33.87732,259.08000000000004 18.42573,-33.877,342.90000000000003 18.42236,-33.87872,426.72 18.42587,-33.88042,441.96000000000004 18.43105,-33.8823,441.96000000000004 18.43683,-33.88482,434.34000000000003 18.44284,-33.88803,411.48 18.44845,-33.89138,381 18.45377,-33.89515,388.62 18.45882,-33.89873,411.48 18.46544,-33.90367,434.34000000000003 18.4697,-33.90742,449.58000000000004 18.47328,-33.91154,457.20000000000005 18.47609,-33.91594,457.20000000000005 18.47855,-33.92126,464.82000000000005 18.48032,-33.92634,464.82000000000005 18.48164,-33.93205,457.20000000000005 18.48259,-33.93723,472.44 18.48371,-33.94469,495.3 18.4841,-33.94991,533.4 18.48433,-33.95554,548.64 18.48438,-33.96066,563.88 18.48438,-33.966,563.88 18.48444,-33.97173,579.12 18.48455,-33.9771,579.12 18.48467,-33.99119,556.26 18.48444,-34.00506,563.88 18.48192,-34.01032,556.26 18.47878,-34.01564,579.12 18.47654,-34.02049,601.98 18.47443,-34.02573,624.84 18.47267,-34.03079,640.08 18.47099,-34.03711,609.6 18.46987,-34.04297,601.98 18.46865,-34.04947,586.74 18.46762,-34.05524,594.36 18.46695,-34.06123,579.12 18.46678,-34.067,586.74 18.46739,-34.07275,594.36 18.4683,-34.07847,594.36 18.46939,-34.08369,594.36 18.47076,-34.09207,586.74 18.47134,-34.09798,579.12 18.47139,-34.10361,579.12 18.47031,-34.10948,563.88 18.46704,-34.11432,563.88 18.46236,-34.11882,571.5 18.45681,-34.12106,579.12 18.4503,-34.12234,601.98 18.4438,-34.1228,624.84 18.43713,-34.12193,632.46 18.43069,-34.11978,640.08 18.42407,-34.11717,655.32 18.41801,-34.11427,670.5600000000001 18.4118,-34.11145,685.8000000000001 18.40249,-34.10742,708.6600000000001 18.39285,-34.10252,746.76 18.38786,-34.09882,769.62 18.38299,-34.09472,784.86 18.37858,-34.09048,792.48 18.37385,-34.08536,807.72 18.3697,-34.07991,792.48 18.36628,-34.07498,784.86 18.36096,-34.07019,800.1 18.35529,-34.06586,807.72 18.34929,-34.06218,822.96 18.34356,-34.06367,868.6800000000001 18.34333,-34.06814,937.26 18.3478,-34.06986,998.22 18.35176,-34.06659,998.22 18.35165,-34.06027,906.7800000000001 18.34963,-34.05352,868.6800000000001 18.34723,-34.04737,853.44 18.34437,-34.041,845.82 18.34133,-34.03518,838.2 18.33825,-34.02924,822.96 18.33538,-34.02317,792.48 18.3331,-34.01642,723.9000000000001 18.33276,-34.00919,670.5600000000001 18.33405,-34.00269,640.08 18.33733,-33.99058,609.6 18.34403,-33.97664,624.84 18.35546,-33.95139,594.36 18.36256,-33.93509,579.12 18.36286,-33.92807,586.74 18.35731,-33.92628,624.84 18.35373,-33.92944,662.94 18.35148,-33.93407,685.8000000000001 18.35186,-33.93821,708.6600000000001 18.35712,-33.93728,624.84 18.36182,-33.93127,579.12 18.366,-33.92574,571.5 18.36987,-33.92029,563.88 18.37664,-33.91144,548.64 18.38327,-33.90404,533.4 18.3894,-33.89869,502.92 18.39638,-33.89484,441.96000000000004 18.40359,-33.89212,396.24 18.41079,-33.88998,388.62 18.41835,-33.88792,388.62 18.42596,-33.88668,381 18.4338,-33.88779,342.90000000000003 18.44005,-33.89026,281.94 18.44559,-33.89473,205.74 18.44805,-33.90009,160.02 18.44479,-33.9032,121.92 18.43964,-33.9026,83.82000000000001 18.43506,-33.90207,60.96 18.43185,-33.90171,38.1 18.42968,-33.90152,7.62 18.42805,-33.90129,0 18.42699,-33.90074,0 18.42813,-33.89874,0 18.42962,-33.89687,0 18.43145,-33.8945,30.48 18.43371,-33.89117,114.30000000000001 18.43575,-33.8871,144.78 18.43534,-33.88202,175.26000000000002 18.43094,-33.87886,205.74 18.42424,-33.87726,259.08000000000004 18.41784,-33.87718,312.42 18.41118,-33.87808,373.38 18.40542,-33.87955,411.48 18.39947,-33.88188,457.20000000000005 18.39375,-33.8849,480.06 18.38865,-33.88843,510.54 18.38396,-33.89254,533.4 18.37934,-33.89717,556.26 18.37491,-33.9017,563.88 18.37034,-33.90637,579.12 18.3609,-33.91608,563.88 18.35638,-33.92159,571.5 18.35339,-33.92606,678.1800000000001 18.35109,-33.93036,708.6600000000001 18.34877,-33.9356,731.52 18.34637,-33.94133,754.38 18.34184,-33.9538,754.38 18.34288,-33.96419,723.9000000000001 18.35094,-33.9565,662.94 18.35434,-33.94876,563.88 18.35928,-33.93864,548.64 18.36205,-33.93272,533.4 18.3651,-33.92656,525.78 18.36852,-33.92093,518.1600000000001 18.3724,-33.9154,518.1600000000001 18.37635,-33.91009,525.78 18.38058,-33.9053,533.4 18.38523,-33.9006,533.4 18.39128,-33.89659,464.82000000000005 18.39867,-33.89352,449.58000000000004 18.40619,-33.89099,441.96000000000004 18.41354,-33.88877,426.72 18.42121,-33.88692,411.48 18.42839,-33.88536,388.62 18.43663,-33.88509,327.66 18.44369,-33.88747,297.18 18.44845,-33.8918,259.08000000000004 18.44913,-33.89717,213.36 18.44694,-33.90253,160.02 18.4421,-33.90204,121.92 18.43781,-33.9007,83.82000000000001 18.43388,-33.89987,45.72 18.43225,-33.89967,22.86 18.43037,-33.89957,0 18.42878,-33.8996,0 18.42733,-33.90004,0 18.42688,-33.90088,0 18.42756,-33.89887,0 18.42839,-33.89717,30.48 18.43069,-33.89438,76.2 18.43366,-33.89154,121.92 18.43741,-33.88852,167.64000000000001 18.43719,-33.88541,243.84 18.43551,-33.88614,266.7 18.437,-33.88896,274.32 18.43946,-33.89212,274.32 18.44274,-33.89603,281.94 18.44656,-33.89999,289.56 18.45057,-33.90413,304.8 18.45543,-33.90939,312.42 18.46476,-33.92048,320.04 18.47295,-33.93164,320.04 18.4758,-33.93626,335.28000000000003 18.47839,-33.94084,335.28000000000003 18.48061,-33.94603,350.52000000000004 18.48158,-33.95096,350.52000000000004 18.48248,-33.95659,358.14000000000004 18.48304,-33.96204,358.14000000000004 18.4836,-33.96863,358.14000000000004 18.48392,-33.97401,365.76 18.48416,-33.97948,388.62 18.48495,-33.98467,396.24 18.48576,-33.98984,411.48 18.48646,-33.99632,411.48 18.48685,-34.00237,396.24 18.48713,-34.00827,396.24 18.48741,-34.01395,381 18.48775,-34.01994,381 18.4877,-34.02596,381 18.48776,-34.0315,373.38 18.48736,-34.03729,373.38 18.48667,-34.04281,365.76 18.48618,-34.04846,365.76 18.48581,-34.05417,365.76 18.48536,-34.05967,373.38 18.48388,-34.06567,373.38 18.48232,-34.07103,381 18.48125,-34.07671,388.62 18.48049,-34.0821,373.38 18.48018,-34.08783,373.38 18.48118,-34.09356,396.24 18.48209,-34.09877,403.86 18.48198,-34.10459,396.24 18.47929,-34.10859,449.58000000000004 18.47654,-34.11222,502.92 18.47345,-34.11585,556.26 18.46973,-34.11939,594.36 18.46613,-34.12284,640.08 18.46207,-34.12582,662.94 18.45653,-34.12761,701.0400000000001 18.45058,-34.12839,716.2800000000001 18.44442,-34.12802,723.9000000000001 18.43821,-34.12661,731.52 18.43192,-34.12445,716.2800000000001 18.42567,-34.12218,723.9000000000001 18.41959,-34.1201,731.52 18.4137,-34.11676,754.38 18.40857,-34.11395,800.1 18.40328,-34.11076,838.2 18.39815,-34.10766,861.0600000000001 18.39347,-34.10426,876.3000000000001 18.3886,-34.10012,876.3000000000001 18.38405,-34.0952,876.3000000000001 18.37996,-34.09067,868.6800000000001 18.37086,-34.08015,822.96 18.36491,-34.07103,777.24 18.36273,-34.06502,777.24 18.3597,-34.05943,807.72 18.35661,-34.05417,815.34 18.35132,-34.04576,838.2 18.34767,-34.04095,853.44 18.34362,-34.03602,845.82 18.33927,-34.03071,838.2 18.33545,-34.02493,815.34 18.33115,-34.01912,815.34 18.32909,-34.01288,800.1 18.32903,-34.00622,792.48 18.33063,-34.00022,800.1 18.33304,-33.99367,807.72 18.33551,-33.98795,800.1 18.3391,-33.97984,792.48 18.34373,-33.96954,784.86 18.34774,-33.96046,762 18.35112,-33.95469,746.76 18.35412,-33.94931,754.38 18.35552,-33.9435,762 18.35764,-33.93784,762 18.36012,-33.93173,777.24 18.36262,-33.92587,762 18.36571,-33.92057,754.38 18.36937,-33.91494,746.76 18.37246,-33.90949,731.52 18.37074,-33.90511,723.9000000000001 18.36628,-33.90446,708.6600000000001 18.36449,-33.90733,701.0400000000001 18.36869,-33.90907,662.94 18.37452,-33.90816,609.6 18.3795,-33.90539,601.98 18.38465,-33.90139,601.98 18.38808,-33.89645,579.12 18.39272,-33.8925,541.02 18.39804,-33.88947,487.68 18.40333,-33.88673,472.44 18.40843,-33.88472,464.82000000000005 18.41409,-33.88348,441.96000000000004 18.41942,-33.88303,411.48 18.42452,-33.88316,396.24 18.42985,-33.88449,358.14000000000004 18.4342,-33.88654,312.42 18.43792,-33.88925,251.46 18.44022,-33.8925,198.12 18.4405,-33.89575,152.4 18.43843,-33.89827,83.82000000000001 18.43523,-33.89901,53.34 18.43293,-33.89951,30.48 18.43134,-33.89981,15.24 18.42951,-33.90027,0 18.42791,-33.90069,0 18.42693,-33.9007,0 18.42755,-33.89896,0 18.4285,-33.89722,45.72 18.42968,-33.89492,99.06 18.43114,-33.89241,167.64000000000001 18.43242,-33.8893,213.36 18.43168,-33.88537,251.46 18.42867,-33.8817,289.56 18.42419,-33.87928,335.28000000000003 18.41869,-33.87778,388.62 18.41274,-33.87778,457.20000000000005 18.40782,-33.87932,502.92 18.40353,-33.88198,556.26 18.39952,-33.88486,594.36 18.39548,-33.88774,640.08 18.39123,-33.89081,678.1800000000001 18.38585,-33.89465,693.4200000000001 18.37915,-33.8999,708.6600000000001 18.37486,-33.90367,716.2800000000001 18.37077,-33.90779,723.9000000000001 18.36702,-33.91186,739.14 18.3629,-33.91633,731.52 18.35924,-33.92066,723.9000000000001 18.3553,-33.92519,739.14 18.35154,-33.92944,746.76 18.34767,-33.9337,754.38 18.34358,-33.93842,762 18.33881,-33.94417,762 18.33484,-33.94945,769.62 18.33125,-33.95448,784.86 18.33086,-33.95846,876.3000000000001 18.33489,-33.95975,906.7800000000001 18.33967,-33.95767,899.1600000000001 18.34397,-33.95398,868.6800000000001 18.34751,-33.94976,845.82 18.35094,-33.94552,822.96 18.35473,-33.94093,792.48 18.35799,-33.93581,754.38 18.36118,-33.93086,716.2800000000001 18.36428,-33.92606,685.8000000000001 18.36777,-33.92126,647.7 18.37138,-33.91672,609.6 18.37536,-33.91214,579.12 18.37984,-33.90749,556.26 18.38442,-33.90325,541.02 18.39078,-33.89726,472.44 18.39672,-33.8925,396.24 18.40221,-33.88924,396.24 18.40776,-33.88668,411.48 18.41353,-33.88454,411.48 18.41869,-33.88358,396.24 18.42447,-33.88365,381 18.42934,-33.88499,358.14000000000004 18.43399,-33.88678,327.66 18.4382,-33.88893,274.32 18.44111,-33.89172,220.98000000000002 18.44238,-33.89487,175.26000000000002 18.44179,-33.89767,129.54000000000002 18.43909,-33.89919,76.2 18.43552,-33.89957,53.34 18.433,-33.8999,30.48 18.43157,-33.90009,15.24 18.42996,-33.90038,0 18.42842,-33.9006,0 18.42728,-33.90083,0
        </coordinates>
      </LineString>
    </Placemark>
  </Document>
</kml>