<?xml version="1.0" encoding="UTF-8"?>
<kml xmlns="http://www.opengis.net/kml/2.2">
  <Document>
    <name>FR24 3f19a3ea - Optimised</name>
    <description><![CDATA[Optimised flight path with 192 points (decimated from 959 original points). Source format: Standard KML]]></description>
    
    <Style id="flightPath">
      <LineStyle>
        <color>ffff0000</color>
        <width>3</width>
      </LineStyle>
    </Style>
    
    <Placemark>
      <name>Flight Path</name>
      <description><![CDATA[Optimized flight path]]></description>
      <styleUrl>#flightPath</styleUrl>
      <LineString>
        <extrude>1</extrude>
        <tessellate>1</tessellate>
        <altitudeMode>absolute</altitudeMode>
        <coordinates>
          18.43371,-33.88834,0 18.43556,-33.88316,0 18.43323,-33.88016,0 18.42928,-33.87839,0 18.42441,-33.87749,0 18.41891,-33.87685,0 18.41376,-33.87657,0 18.40816,-33.87662,0 18.40244,-33.87746,0 18.39745,-33.87927,0 18.39252,-33.88206,0 18.38792,-33.88518,0 18.38371,-33.88852,0 18.37978,-33.8918,0 18.37543,-33.89557,0 18.37155,-33.89932,0 18.36782,-33.90311,0 18.36433,-33.90683,0 18.35815,-33.91425,0 18.35032,-33.9242,0 18.33842,-33.94052,0 18.32886,-33.95441,0 18.31864,-33.97234,0 18.31049,-33.98956,0 18.30585,-33.99798,0 18.30362,-34.00333,0 18.30182,-34.00818,0 18.29935,-34.01596,0 18.29818,-34.0215,0 18.29762,-34.02676,0 18.2979,-34.03192,0 18.29885,-34.03729,0 18.30042,-34.04286,0 18.30227,-34.04828,0 18.30414,-34.05296,0 18.30675,-34.05853,0 18.30939,-34.06357,0 18.31432,-34.0724,0 18.31764,-34.07731,0 18.32136,-34.0821,0 18.32508,-34.08636,0 18.32977,-34.09085,0 18.33418,-34.09425,0 18.33971,-34.09785,0 18.34505,-34.10063,0 18.35048,-34.10316,0 18.35615,-34.10575,0 18.37284,-34.11328,0 18.38444,-34.11781,0 18.39705,-34.12216,0 18.40871,-34.12656,0 18.4137,-34.12871,0 18.41841,-34.13094,0 18.42295,-34.13287,0 18.42833,-34.13489,0 18.43293,-34.13599,0 18.43831,-34.13622,0 18.44347,-34.13536,0 18.4484,-34.13329,0 18.45277,-34.13045,0 18.45697,-34.1273,0 18.46121,-34.12391,0 18.46498,-34.12046,0 18.46842,-34.11679,0 18.47155,-34.11259,0 18.4739,-34.10843,0 18.47581,-34.10381,0 18.47734,-34.09891,0 18.47849,-34.09356,0 18.47906,-34.08853,0 18.47934,-34.08389,0 18.47968,-34.07945,0 18.48066,-34.07479,0 18.48181,-34.07016,0 18.48276,-34.06554,0 18.48338,-34.061,0 18.48438,-34.0562,0 18.48567,-34.05125,0 18.48673,-34.04659,0 18.48742,-34.04198,0 18.48792,-34.03729,0 18.48816,-34.0329,0 18.48814,-34.028,0 18.4878,-34.02324,0 18.4873,-34.01839,0 18.48702,-34.01367,0 18.48696,-34.00897,0 18.48719,-34.00424,0 18.48684,-33.99761,0 18.48627,-33.9931,0 18.48629,-33.98845,0 18.48679,-33.98448,0 18.48713,-33.98029,0 18.48724,-33.97643,0 18.48724,-33.97238,0 18.4868,-33.96803,0 18.48633,-33.96395,0 18.48495,-33.95549,0 18.48293,-33.94661,0 18.48136,-33.94199,0 18.47952,-33.93709,0 18.47763,-33.93258,0 18.47506,-33.92825,0 18.47237,-33.92443,0 18.46908,-33.92029,0 18.46617,-33.91685,0 18.46269,-33.91319,0 18.45898,-33.90944,0 18.45602,-33.90532,0 18.45277,-33.90189,0 18.44812,-33.90083,0 18.44536,-33.90115,0 18.44263,-33.90161,0 18.44032,-33.90171,0 18.43803,-33.90152,0 18.43592,-33.90139,0 18.43388,-33.90125,0 18.43191,-33.90097,0 18.43002,-33.90036,0 18.42854,-33.89971,0 18.42772,-33.89845,0 18.4285,-33.8968,0 18.43014,-33.89492,0 18.43164,-33.89314,0 18.43271,-33.89175,0 18.4346,-33.88849,0 18.43551,-33.88513,0 18.43323,-33.88221,0 18.42888,-33.88142,0 18.4243,-33.88124,0 18.41948,-33.88161,0 18.41466,-33.88216,0 18.40978,-33.88298,0 18.40524,-33.88394,0 18.40078,-33.88542,0 18.39643,-33.88733,0 18.39209,-33.88966,0 18.3882,-33.89218,0 18.38433,-33.89493,0 18.38063,-33.89795,0 18.37658,-33.90097,0 18.37267,-33.90408,0 18.36869,-33.90756,0 18.36473,-33.9114,0 18.3572,-33.91901,0 18.35249,-33.92462,0 18.34907,-33.92912,0 18.34381,-33.93654,0 18.3331,-33.95261,0 18.32211,-33.9708,0 18.31101,-33.9906,0 18.3046,-34.00352,0 18.30259,-34.00874,0 18.3007,-34.01386,0 18.29717,-34.02548,0 18.29876,-34.02927,0 18.30334,-34.02905,0 18.30541,-34.02525,0 18.30694,-34.02107,0 18.30917,-34.01688,0 18.31174,-34.01239,0 18.31432,-34.00813,0 18.31707,-34.00392,0 18.31976,-33.99957,0 18.32376,-33.99249,0 18.3383,-33.96698,0 18.34902,-33.9505,0 18.35922,-33.93553,0 18.36937,-33.92075,0 18.37783,-33.90953,0 18.38144,-33.9053,0 18.38556,-33.90129,0 18.39016,-33.89777,0 18.39523,-33.89468,0 18.40019,-33.89223,0 18.40524,-33.89017,0 18.41063,-33.88831,0 18.41629,-33.88677,0 18.42196,-33.88556,0 18.42732,-33.88527,0 18.43299,-33.88683,0 18.4373,-33.89012,0 18.4396,-33.89424,0 18.43994,-33.8963,0 18.43971,-33.89841,0 18.43878,-33.90022,0 18.43719,-33.90125,0 18.43545,-33.90143,0 18.43386,-33.90092,0 18.43214,-33.90032,0 18.43097,-33.9001,0 18.42912,-33.89969,0
        </coordinates>
      </LineString>
    </Placemark>
  </Document>
</kml>