<?xml version="1.0" encoding="UTF-8"?>
<kml xmlns="http://www.opengis.net/kml/2.2">
  <Document>
    <name>FR24 410e6458 - Optimised</name>
    <description><![CDATA[Optimised flight path with 72 points (decimated from 357 original points). Source format: Standard KML]]></description>
    
    <Style id="flightPath">
      <LineStyle>
        <color>ffff0000</color>
        <width>3</width>
      </LineStyle>
    </Style>
    
    <Placemark>
      <name>Flight Path</name>
      <description><![CDATA[Optimized flight path]]></description>
      <styleUrl>#flightPath</styleUrl>
      <LineString>
        <extrude>1</extrude>
        <tessellate>1</tessellate>
        <altitudeMode>absolute</altitudeMode>
        <coordinates>
          18.59514,-33.97701,0 18.59537,-33.98112,0 18.59217,-33.98337,0 18.58741,-33.98424,0 18.58194,-33.9849,0 18.57668,-33.98555,0 18.55989,-33.98744,0 18.53754,-33.98974,0 18.51987,-33.99174,0 18.50807,-33.99282,0 18.50333,-33.99298,0 18.498,-33.99289,0 18.48265,-33.99284,0 18.477,-33.99295,0 18.47013,-33.99291,0 18.46376,-33.99207,0 18.45737,-33.99088,0 18.45022,-33.99077,0 18.44436,-33.99431,0 18.44164,-33.99994,0 18.44066,-34.00662,0 18.44032,-34.0133,0 18.44033,-34.01939,0 18.43736,-34.02287,0 18.43422,-34.01976,0 18.43351,-34.01502,0 18.43077,-34.01046,0 18.42836,-34.00599,0 18.4251,-34.00241,0 18.41927,-34.00273,0 18.41549,-34.00641,0 18.41527,-34.01157,0 18.42071,-34.01166,0 18.42596,-34.00874,0 18.43125,-34.00575,0 18.43632,-34.00287,0 18.44147,-34.00031,0 18.44683,-33.99985,0 18.44742,-34.00455,0 18.4449,-34.0093,0 18.44788,-34.01344,0 18.45343,-34.01586,0 18.45972,-34.01628,0 18.46662,-34.01582,0 18.47328,-34.01437,0 18.47906,-34.01207,0 18.48312,-34.00879,0 18.48461,-34.00456,0 18.48616,-34.00013,0 18.49167,-33.99815,0 18.49806,-33.99701,0 18.5047,-33.99556,0 18.51157,-33.99417,0 18.51813,-33.99294,0 18.52427,-33.99151,0 18.53045,-33.98979,0 18.53635,-33.98749,0 18.54229,-33.98616,0 18.54733,-33.98332,0 18.55249,-33.98067,0 18.55725,-33.97792,0 18.56286,-33.97614,0 18.5685,-33.97517,0 18.57384,-33.97417,0 18.57874,-33.97285,0 18.5836,-33.97182,0 18.58763,-33.97092,0 18.59094,-33.97078,0 18.59257,-33.97284,0 18.59419,-33.97527,0 18.59509,-33.97668,0 18.59548,-33.97998,0
        </coordinates>
      </LineString>
    </Placemark>
  </Document>
</kml>