<?xml version="1.0" encoding="UTF-8"?>
<kml xmlns="http://www.opengis.net/kml/2.2">
  <Document>
    <name>FR24 41decb82 - Optimised</name>
    <description><![CDATA[Optimised flight path with 602 points (decimated from 3008 original points). Source format: Standard KML]]></description>
    
    <Style id="flightPath">
      <LineStyle>
        <color>ffff0000</color>
        <width>3</width>
      </LineStyle>
    </Style>
    
    <Placemark>
      <name>Flight Path</name>
      <description><![CDATA[Optimized flight path]]></description>
      <styleUrl>#flightPath</styleUrl>
      <LineString>
        <extrude>1</extrude>
        <tessellate>1</tessellate>
        <altitudeMode>absolute</altitudeMode>
        <coordinates>
          18.44318,-33.90385,0 18.44765,-33.90548,0 18.44997,-33.9066,0 18.45234,-33.90791,0 18.45497,-33.90963,0 18.45806,-33.91154,0 18.46109,-33.91326,0 18.46453,-33.91512,0 18.46796,-33.91712,0 18.4742,-33.92075,0 18.47752,-33.92289,0 18.48113,-33.92519,0 18.48808,-33.92972,0 18.49162,-33.93205,0 18.49896,-33.9369,0 18.50271,-33.93956,0 18.50641,-33.94203,0 18.5107,-33.9445,0 18.51544,-33.94647,0 18.52048,-33.94803,0 18.52552,-33.94929,0 18.53079,-33.95069,0 18.53551,-33.95201,0 18.54481,-33.95436,0 18.55002,-33.95572,0 18.55923,-33.95818,0 18.56461,-33.95944,0 18.57026,-33.95892,0 18.57571,-33.95827,0 18.58343,-33.95744,0 18.5911,-33.95707,0 18.59642,-33.95711,0 18.41667,-33.8763,0 18.4095,-33.87579,0 18.40296,-33.8756,0 18.39689,-33.87564,0 18.39111,-33.87634,0 18.38556,-33.87799,0 18.38074,-33.88033,0 18.37606,-33.88323,0 18.37206,-33.88649,0 18.36796,-33.89058,0 18.36456,-33.89436,0 18.36142,-33.89836,0 18.35815,-33.90239,0 18.35484,-33.90609,0 18.353,-33.90967,0 18.35484,-33.91279,0 18.3586,-33.91296,0 18.36269,-33.91273,0 18.36302,-33.91629,0 18.36044,-33.91996,0 18.3581,-33.92349,0 18.35558,-33.92715,0 18.35283,-33.93085,0 18.34997,-33.93486,0 18.347,-33.93951,0 18.34419,-33.94412,0 18.34133,-33.94868,0 18.33864,-33.95353,0 18.33568,-33.95901,0 18.33327,-33.96368,0 18.33103,-33.9687,0 18.32856,-33.97398,0 18.32594,-33.97992,0 18.32262,-33.9876,0 18.3205,-33.99231,0 18.31813,-33.99687,0 18.31555,-34.00163,0 18.31312,-34.00608,0 18.31049,-34.01093,0 18.30729,-34.01604,0 18.30408,-34.02126,0 18.30156,-34.02671,0 18.30014,-34.03235,0 18.30025,-34.03737,0 18.30143,-34.04306,0 18.30294,-34.04836,0 18.30462,-34.05336,0 18.3082,-34.05529,0 18.31072,-34.05366,0 18.30923,-34.05119,0 18.30524,-34.05125,0 18.30334,-34.05487,0 18.30528,-34.0592,0 18.30889,-34.06297,0 18.31242,-34.06682,0 18.31555,-34.07071,0 18.31897,-34.0751,0 18.3211,-34.07913,0 18.32239,-34.08359,0 18.32308,-34.08862,0 18.32323,-34.09373,0 18.32291,-34.09877,0 18.32262,-34.10381,0 18.32256,-34.10855,0 18.32284,-34.1131,0 18.32329,-34.11804,0 18.32434,-34.12419,0 18.32542,-34.1288,0 18.32651,-34.13322,0 18.328,-34.13769,0 18.32972,-34.14211,0 18.33281,-34.14988,0 18.33721,-34.16082,0 18.33927,-34.16515,0 18.34134,-34.16954,0 18.34352,-34.17398,0 18.34597,-34.17879,0 18.34863,-34.18364,0 18.35552,-34.19597,0 18.35916,-34.20291,0 18.3613,-34.20752,0 18.36365,-34.21243,0 18.36634,-34.21738,0 18.36943,-34.2226,0 18.37606,-34.23331,0 18.37873,-34.23729,0 18.38127,-34.24126,0 18.38373,-34.24532,0 18.38602,-34.24909,0 18.3882,-34.25286,0 18.39252,-34.26013,0 18.39609,-34.26534,0 18.39867,-34.26878,0 18.4037,-34.27488,0 18.41011,-34.28188,0 18.41309,-34.28451,0 18.41611,-34.28709,0 18.41914,-34.28989,0 18.4231,-34.29354,0 18.42648,-34.29596,0 18.43035,-34.29886,0 18.43371,-34.30147,0 18.43752,-34.3042,0 18.441,-34.30669,0 18.44649,-34.31049,0 18.4498,-34.31259,0 18.45322,-34.31451,0 18.45663,-34.31631,0 18.46029,-34.31822,0 18.46415,-34.32037,0 18.46796,-34.32273,0 18.47172,-34.32527,0 18.47523,-34.32804,0 18.47878,-34.33102,0 18.4822,-34.33379,0 18.48551,-34.33667,0 18.48921,-34.33955,0 18.49257,-34.34205,0 18.49548,-34.34464,0 18.49834,-34.34713,0 18.50098,-34.34959,0 18.50384,-34.35136,0 18.50557,-34.35406,0 18.50636,-34.35768,0 18.50496,-34.36089,0 18.50014,-34.36345,0 18.49403,-34.36436,0 18.48742,-34.36435,0 18.48078,-34.36398,0 18.47391,-34.36374,0 18.46886,-34.36537,0 18.46886,-34.36729,0 18.47144,-34.36624,0 18.47407,-34.36542,0 18.47693,-34.36501,0 18.48018,-34.36464,0 18.48312,-34.36435,0 18.48667,-34.36426,0 18.49022,-34.36455,0 18.4944,-34.365,0 18.49897,-34.36458,0 18.50269,-34.36226,0 18.50496,-34.35805,0 18.50406,-34.35278,0 18.50189,-34.34685,0 18.49957,-34.34097,0 18.49606,-34.3327,0 18.49159,-34.32064,0 18.4901,-34.31465,0 18.48921,-34.30843,0 18.48867,-34.30262,0 18.48853,-34.29671,0 18.48865,-34.29048,0 18.48833,-34.27055,0 18.48876,-34.26215,0 18.48921,-34.25601,0 18.48904,-34.25015,0 18.48831,-34.24393,0 18.48707,-34.23801,0 18.48528,-34.23175,0 18.48318,-34.22595,0 18.48038,-34.21915,0 18.4776,-34.2133,0 18.47429,-34.20699,0 18.47128,-34.2009,0 18.46933,-34.19397,0 18.46891,-34.18698,0 18.46734,-34.18149,0 18.46269,-34.1787,0 18.45905,-34.18057,0 18.45967,-34.183,0 18.46275,-34.18256,0 18.46482,-34.17874,0 18.466,-34.17384,0 18.46704,-34.16869,0 18.46876,-34.16106,0 18.47065,-34.15219,0 18.47177,-34.14711,0 18.47368,-34.13988,0 18.47534,-34.13317,0 18.47672,-34.12805,0 18.47771,-34.12312,0 18.47792,-34.118,0 18.47721,-34.11214,0 18.47569,-34.10631,0 18.47318,-34.10037,0 18.46981,-34.09406,0 18.46577,-34.08852,0 18.46058,-34.08294,0 18.45513,-34.07776,0 18.45057,-34.07224,0 18.44885,-34.06614,0 18.44834,-34.06023,0 18.44873,-34.05426,0 18.44971,-34.04836,0 18.45102,-34.04277,0 18.45251,-34.03672,0 18.45356,-34.03056,0 18.45451,-34.02397,0 18.45583,-34.018,0 18.45823,-34.01186,0 18.46058,-34.0065,0 18.46258,-34.00119,0 18.46538,-33.99545,0 18.46802,-33.98988,0 18.47099,-33.98458,0 18.47414,-33.97871,0 18.47682,-33.97325,0 18.4794,-33.9673,0 18.48153,-33.9613,0 18.48261,-33.95474,0 18.48221,-33.94854,0 18.48078,-33.9418,0 18.47861,-33.93507,0 18.47542,-33.92848,0 18.47161,-33.92239,0 18.46647,-33.91615,0 18.46178,-33.91074,0 18.45692,-33.9055,0 18.45182,-33.90013,0 18.4475,-33.89529,0 18.44318,-33.89073,0 18.43855,-33.8877,0 18.43328,-33.88724,0 18.42974,-33.8884,0 18.428,-33.8904,0 18.42704,-33.89264,0 18.42671,-33.89433,0 18.42648,-33.89626,0 18.42659,-33.89781,0 18.42693,-33.89906,0 18.42728,-33.90041,0 18.42979,-33.90111,0 18.43134,-33.90125,0 18.43283,-33.90125,0 18.43416,-33.90129,0 18.43562,-33.90115,0 18.43736,-33.90024,0 18.43912,-33.89925,0 18.44151,-33.89648,0 18.4421,-33.89194,0 18.44083,-33.88728,0 18.43809,-33.88326,0 18.4331,-33.88133,0 18.42888,-33.88239,0 18.42693,-33.8844,0 18.42545,-33.88649,0 18.4243,-33.88911,0 18.42441,-33.89136,0 18.42508,-33.89346,0 18.42553,-33.89548,0 18.42615,-33.8974,0 18.42682,-33.89883,0 18.42721,-33.89996,0 18.4276,-33.9006,0 18.42957,-33.90125,0 18.43125,-33.90189,0 18.43283,-33.90237,0 18.4346,-33.9025,0 18.43635,-33.9023,0 18.43915,-33.90074,0 18.44215,-33.89734,0 18.44296,-33.89301,0 18.44135,-33.88812,0 18.43814,-33.88403,0 18.43323,-33.88309,0 18.42934,-33.885,0 18.42687,-33.88797,0 18.42596,-33.89022,0 18.42562,-33.8924,0 18.42575,-33.89438,0 18.42619,-33.89655,0 18.42665,-33.89804,0 18.4271,-33.89955,0 18.42755,-33.90056,0 18.42912,-33.90051,0 18.43085,-33.90024,0 18.43242,-33.89992,0 18.43478,-33.89914,0 18.43666,-33.89673,0 18.43674,-33.89223,0 18.43556,-33.88774,0 18.43338,-33.88362,0 18.42957,-33.88028,0 18.42458,-33.87831,0 18.41953,-33.87708,0 18.41406,-33.8762,0 18.40822,-33.87597,0 18.40244,-33.8763,0 18.39729,-33.87741,0 18.39214,-33.87918,0 18.38676,-33.88165,0 18.3819,-33.88435,0 18.37693,-33.8877,0 18.37189,-33.89189,0 18.36763,-33.89616,0 18.3637,-33.90064,0 18.35981,-33.9052,0 18.35649,-33.90977,0 18.35352,-33.91433,0 18.35064,-33.91896,0 18.34774,-33.92387,0 18.34409,-33.93073,0 18.34173,-33.93598,0 18.33933,-33.94147,0 18.34076,-33.94608,0 18.34557,-33.94636,0 18.35019,-33.94258,0 18.35429,-33.938,0 18.35827,-33.93314,0 18.36262,-33.92746,0 18.36823,-33.9194,0 18.37217,-33.91374,0 18.37536,-33.90926,0 18.37898,-33.90488,0 18.38259,-33.90074,0 18.38665,-33.89655,0 18.39134,-33.8931,0 18.39638,-33.89081,0 18.40204,-33.88905,0 18.40748,-33.88784,0 18.41314,-33.88696,0 18.41829,-33.88635,0 18.42312,-33.88609,0 18.42575,-33.88797,0 18.42632,-33.89081,0 18.42648,-33.89305,0 18.42665,-33.89621,0 18.42693,-33.89799,0 18.42715,-33.89932,0 18.42728,-33.90051,0 18.42861,-33.90074,0 18.43041,-33.90065,0 18.43214,-33.90036,0 18.43437,-33.89967,0 18.43657,-33.89735,0 18.43736,-33.89351,0 18.4373,-33.8893,0 18.43615,-33.88458,0 18.43299,-33.88087,0 18.4285,-33.8784,0 18.4239,-33.87723,0 18.41841,-33.87643,0 18.41281,-33.87616,0 18.40686,-33.87634,0 18.40101,-33.87704,0 18.39526,-33.8784,0 18.38945,-33.88067,0 18.38411,-33.88344,0 18.37929,-33.88664,0 18.37447,-33.89026,0 18.36983,-33.89422,0 18.36505,-33.89827,0 18.36102,-33.90246,0 18.3572,-33.90729,0 18.35375,-33.91224,0 18.35076,-33.91704,0 18.34167,-33.93225,0 18.33921,-33.93751,0 18.33775,-33.94327,0 18.34033,-33.94684,0 18.34568,-33.9465,0 18.34946,-33.94291,0 18.35339,-33.93846,0 18.35709,-33.93352,0 18.36056,-33.9289,0 18.36382,-33.9239,0 18.36714,-33.91931,0 18.37097,-33.91442,0 18.3748,-33.90994,0 18.37858,-33.90581,0 18.38242,-33.90125,0 18.38671,-33.89678,0 18.39145,-33.89346,0 18.39684,-33.89105,0 18.40284,-33.88896,0 18.40899,-33.88719,0 18.41526,-33.88575,0 18.42144,-33.88482,0 18.42642,-33.88547,0 18.42811,-33.88829,0 18.42819,-33.89143,0 18.428,-33.89337,0 18.42777,-33.89493,0 18.42743,-33.89694,0 18.42732,-33.89827,0 18.42733,-33.89971,0 18.42777,-33.90074,0 18.42929,-33.9007,0 18.43097,-33.90038,0 18.43315,-33.89978,0 18.43523,-33.89873,0 18.43729,-33.89589,0 18.43865,-33.892,0 18.43866,-33.88714,0 18.43712,-33.88258,0 18.43399,-33.87881,0 18.42911,-33.87602,0 18.42413,-33.87474,0 18.41829,-33.87402,0 18.41269,-33.87369,0 18.40686,-33.87378,0 18.40098,-33.87456,0 18.39515,-33.87579,0 18.38921,-33.87753,0 18.38367,-33.87993,0 18.37898,-33.88281,0 18.37463,-33.88621,0 18.37017,-33.89031,0 18.36634,-33.89459,0 18.36264,-33.89886,0 18.3593,-33.90292,0 18.35649,-33.90683,0 18.35392,-33.91065,0 18.35169,-33.9141,0 18.34911,-33.91824,0 18.34539,-33.92411,0 18.34265,-33.92885,0 18.33994,-33.93365,0 18.33733,-33.93882,0 18.33452,-33.94431,0 18.3299,-33.95453,0 18.32731,-33.96,0 18.32451,-33.96609,0 18.32176,-33.97173,0 18.3189,-33.97676,0 18.31611,-33.98181,0 18.31381,-33.98742,0 18.31192,-33.99263,0 18.31001,-33.99738,0 18.30776,-34.00214,0 18.30519,-34.00726,0 18.30276,-34.01223,0 18.30132,-34.01733,0 18.30454,-34.0201,0 18.30923,-34.01819,0 18.31129,-34.01376,0 18.31295,-34.00906,0 18.31494,-34.00424,0 18.31724,-33.99938,0 18.32005,-33.99417,0 18.32268,-33.98956,0 18.32587,-33.98451,0 18.3289,-33.97984,0 18.33282,-33.9738,0 18.34293,-33.95781,0 18.35152,-33.94347,0 18.35866,-33.93054,0 18.36199,-33.92494,0 18.36519,-33.92038,0 18.36852,-33.91617,0 18.37206,-33.91205,0 18.3757,-33.90788,0 18.37973,-33.90372,0 18.38385,-33.8999,0 18.38802,-33.89655,0 18.39319,-33.89342,0 18.39867,-33.89101,0 18.40439,-33.88882,0 18.41011,-33.88701,0 18.41583,-33.88545,0 18.42093,-33.88454,0 18.42519,-33.8849,0 18.4276,-33.88696,0 18.42796,-33.88966,0 18.42762,-33.89212,0 18.42721,-33.89401,0 18.42705,-33.89557,0 18.42693,-33.89748,0 18.42715,-33.89905,0 18.42722,-33.90032,0 18.42848,-33.9006,0 18.43007,-33.90065,0 18.43158,-33.90056,0 18.43422,-33.9001,0 18.43723,-33.89817,0 18.43937,-33.89447,0 18.43987,-33.88942,0 18.43809,-33.88445,0 18.43363,-33.88049,0 18.42777,-33.87813,0 18.42213,-33.877,0 18.41533,-33.87616,0 18.40908,-33.87574,0 18.40339,-33.87607,0 18.39773,-33.87717,0 18.39191,-33.87914,0 18.38663,-33.88129,0 18.38158,-33.88376,0 18.37687,-33.88668,0 18.37234,-33.89017,0 18.36841,-33.89355,0 18.36433,-33.89757,0 18.36085,-33.90179,0 18.35737,-33.90656,0 18.35426,-33.91154,0 18.35094,-33.91661,0 18.34806,-33.92152,0 18.34499,-33.92704,0 18.34242,-33.9323,0 18.3396,-33.93745,0 18.33736,-33.94267,0 18.3395,-33.94668,0 18.34373,-33.9465,0 18.3479,-33.94295,0 18.35175,-33.93882,0 18.35535,-33.93458,0 18.35896,-33.93016,0 18.36309,-33.9245,0 18.36645,-33.91946,0 18.36988,-33.91498,0 18.37391,-33.91026,0 18.37783,-33.90596,0 18.38202,-33.90167,0 18.38624,-33.89804,0 18.39094,-33.89459,0 18.39621,-33.89185,0 18.40164,-33.88984,0 18.4072,-33.88838,0 18.41217,-33.88737,0 18.41729,-33.88646,0 18.42173,-33.88579,0 18.42648,-33.88523,0 18.42934,-33.88659,0 18.42928,-33.8891,0 18.42831,-33.89175,0 18.42751,-33.89394,0 18.42733,-33.89538,0 18.42716,-33.89701,0 18.42722,-33.89859,0 18.42722,-33.89994,0 18.433,-33.90013,0 18.4354,-33.89855,0 18.43741,-33.89566,0 18.43853,-33.89168,0 18.43769,-33.88651,0 18.43483,-33.88132,0 18.43074,-33.87625,0 18.42596,-33.87108,0 18.42043,-33.86563,0 18.41208,-33.85794,0 18.40536,-33.85237,0 18.39975,-33.84792,0 18.39375,-33.84334,0 18.38791,-33.83896,0 18.38243,-33.83482,0 18.37643,-33.83015,0 18.36886,-33.82443,0 18.35747,-33.81541,0 18.35294,-33.8112,0 18.35083,-33.806,0 18.35709,-33.80122,0 18.35999,-33.80102,0 18.3614,-33.80164,0 18.36202,-33.80319,0 18.35936,-33.80782,0 18.359,-33.81075,0 18.35976,-33.81415,0 18.36163,-33.81734,0 18.36456,-33.82104,0 18.3674,-33.82443,0 18.37057,-33.82811,0 18.37732,-33.83668,0 18.38242,-33.84264,0 18.38539,-33.84599,0 18.38797,-33.84901,0 18.39078,-33.85217,0 18.39729,-33.8594,0 18.40473,-33.867,0 18.40776,-33.86973,0
        </coordinates>
      </LineString>
    </Placemark>
  </Document>
</kml>