<?xml version="1.0" encoding="UTF-8"?>
<kml xmlns="http://www.opengis.net/kml/2.2">
  <Document>
    <name>FR24 4184c3dd - Optimised</name>
    <description><![CDATA[Optimised flight path with 108 points (decimated from 536 original points). Source format: Standard KML]]></description>
    
    <Style id="flightPath">
      <LineStyle>
        <color>ffff0000</color>
        <width>3</width>
      </LineStyle>
    </Style>
    
    <Placemark>
      <name>Flight Path</name>
      <description><![CDATA[Optimized flight path]]></description>
      <styleUrl>#flightPath</styleUrl>
      <LineString>
        <extrude>1</extrude>
        <tessellate>1</tessellate>
        <altitudeMode>absolute</altitudeMode>
        <coordinates>
          18.37453,-33.87091,0 18.36373,-33.88208,0 18.36765,-33.89001,0 18.35437,-33.90186,0 18.35542,-33.91122,0 18.35085,-33.91714,0 18.3648,-33.90968,0 18.37488,-33.90274,0 18.48522,-33.9187,0 18.46604,-33.92908,0 18.47472,-33.93756,0 18.47427,-33.94471,0 18.47612,-33.95073,0 18.47871,-33.95512,0 18.47662,-33.96041,0 18.47824,-33.96522,0 18.47986,-33.97062,0 18.47975,-33.97667,0 18.47921,-33.98194,0 18.47968,-33.98733,0 18.47852,-33.99355,0 18.47801,-33.99939,0 18.47794,-34.00557,0 18.47804,-34.01231,0 18.47824,-34.01823,0 18.47868,-34.02551,0 18.4781,-34.03188,0 18.47707,-34.03804,0 18.47583,-34.0439,0 18.47432,-34.04955,0 18.47415,-34.05528,0 18.47386,-34.06102,0 18.47433,-34.06619,0 18.4744,-34.07187,0 18.47587,-34.0775,0 18.47693,-34.08314,0 18.47773,-34.08871,0 18.47789,-34.09466,0 18.47802,-34.10003,0 18.47878,-34.10567,0 18.4787,-34.11161,0 18.47842,-34.11782,0 18.47789,-34.12381,0 18.47683,-34.13107,0 18.47585,-34.13719,0 18.47489,-34.14384,0 18.47402,-34.15031,0 18.47353,-34.15735,0 18.47371,-34.1638,0 18.47382,-34.17019,0 18.47367,-34.17642,0 18.47272,-34.18327,0 18.48768,-34.18389,0 18.48735,-34.19033,0 18.49082,-34.20578,0 18.48941,-34.21909,0 18.49257,-34.22467,0 18.49195,-34.21431,0 18.49357,-34.21915,0 18.47366,-34.23685,0 18.47375,-34.23649,0 18.47436,-34.23612,0 18.47316,-34.2053,0 18.47583,-34.1849,0 18.47114,-34.17737,0 18.47085,-34.17009,0 18.46969,-34.16353,0 18.46869,-34.15681,0 18.46801,-34.14933,0 18.46783,-34.14223,0 18.46813,-34.13533,0 18.46861,-34.12721,0 18.46873,-34.12143,0 18.47101,-34.11412,0 18.47191,-34.10719,0 18.47104,-34.09974,0 18.4658,-34.09193,0 18.45763,-34.08653,0 18.44951,-34.08232,0 18.43968,-34.07786,0 18.43134,-34.07429,0 18.42359,-34.07072,0 18.41694,-34.06647,0 18.41096,-34.06178,0 18.40726,-34.05679,0 18.4038,-34.05152,0 18.4014,-34.04618,0 18.39981,-34.04238,0 18.40739,-34.03939,0 18.40571,-34.03975,0 18.40861,-34.03427,0 18.40988,-34.0295,0 18.43841,-34.00975,0 18.44232,-34.00453,0 18.44589,-33.99973,0 18.44833,-33.99443,0 18.4506,-33.98818,0 18.45724,-33.98448,0 18.45707,-33.97809,0 18.45938,-33.97213,0 18.46631,-33.96373,0 18.46826,-33.95558,0 18.4611,-33.94625,0 18.46182,-33.93365,0 18.45544,-33.92623,0 18.44443,-33.91631,0 18.43885,-33.90469,0 18.43303,-33.8874,0
        </coordinates>
      </LineString>
    </Placemark>
  </Document>
</kml>