<?xml version="1.0" encoding="UTF-8"?>
<kml xmlns="http://www.opengis.net/kml/2.2">
  <Document>
    <name>FR24 406e803b - Optimised</name>
    <description><![CDATA[Optimised flight path with 73 points (decimated from 362 original points). Source format: Standard KML]]></description>
    
    <Style id="flightPath">
      <LineStyle>
        <color>ffff0000</color>
        <width>3</width>
      </LineStyle>
    </Style>
    
    <Placemark>
      <name>Flight Path</name>
      <description><![CDATA[Optimized flight path]]></description>
      <styleUrl>#flightPath</styleUrl>
      <LineString>
        <extrude>1</extrude>
        <tessellate>1</tessellate>
        <altitudeMode>absolute</altitudeMode>
        <coordinates>
          18.4326,-33.89878,0 18.43597,-33.89622,0 18.43713,-33.89287,0 18.43746,-33.889,0 18.43685,-33.88495,0 18.43477,-33.88081,0 18.43164,-33.87721,0 18.42687,-33.87428,0 18.42196,-33.87248,0 18.41612,-33.87141,0 18.41011,-33.87158,0 18.40508,-33.87257,0 18.40003,-33.87433,0 18.39518,-33.87653,0 18.3906,-33.87914,0 18.38596,-33.88244,0 18.38184,-33.88607,0 18.37801,-33.89017,0 18.37435,-33.89461,0 18.37065,-33.89969,0 18.36752,-33.9044,0 18.36451,-33.90968,0 18.36182,-33.91507,0 18.35941,-33.92075,0 18.35743,-33.92578,0 18.35564,-33.93123,0 18.35401,-33.93654,0 18.35049,-33.9478,0 18.34602,-33.96181,0 18.33836,-33.98523,0 18.33164,-34.00356,0 18.32934,-34.01042,0 18.32688,-34.01582,0 18.32374,-34.02095,0 18.31993,-34.02587,0 18.31623,-34.03047,0 18.31286,-34.03633,0 18.31286,-34.04219,0 18.31544,-34.04805,0 18.31942,-34.05313,0 18.32458,-34.05785,0 18.33024,-34.06334,0 18.3359,-34.06947,0 18.3399,-34.07452,0 18.34311,-34.07996,0 18.34517,-34.08592,0 18.34666,-34.09163,0 18.34768,-34.09732,0 18.34812,-34.10335,0 18.34767,-34.10962,0 18.34538,-34.11525,0 18.34162,-34.12028,0 18.33687,-34.12479,0 18.33149,-34.12884,0 18.32654,-34.13251,0 18.32079,-34.13778,0 18.31741,-34.14374,0 18.31729,-34.14995,0 18.3197,-34.1559,0 18.32285,-34.16092,0 18.32677,-34.16611,0 18.3312,-34.17107,0 18.33585,-34.1754,0 18.34167,-34.17889,0 18.34784,-34.1819,0 18.35479,-34.18391,0 18.36191,-34.1851,0 18.36841,-34.1868,0 18.37503,-34.18759,0 18.38142,-34.18813,0 18.38659,-34.19015,0 18.38745,-34.19406,0 18.3831,-34.19467,0
        </coordinates>
      </LineString>
    </Placemark>
  </Document>
</kml>