<?xml version="1.0" encoding="UTF-8"?>
<kml xmlns="http://www.opengis.net/kml/2.2">
  <Document>
    <name>FR24 4188bb7f - Optimised</name>
    <description><![CDATA[Optimised flight path with 388 points (decimated from 1939 original points). Source format: Standard KML]]></description>
    
    <Style id="flightPath">
      <LineStyle>
        <color>ffff0000</color>
        <width>3</width>
      </LineStyle>
    </Style>
    
    <Placemark>
      <name>Flight Path</name>
      <description><![CDATA[Optimized flight path]]></description>
      <styleUrl>#flightPath</styleUrl>
      <LineString>
        <extrude>1</extrude>
        <tessellate>1</tessellate>
        <altitudeMode>absolute</altitudeMode>
        <coordinates>
          18.43019,-33.89618,0 18.43403,-33.89026,0 18.4346,-33.88621,0 18.43386,-33.88211,0 18.43077,-33.87886,0 18.42609,-33.87762,0 18.42115,-33.87774,0 18.41611,-33.87845,0 18.41112,-33.87973,0 18.40647,-33.88138,0 18.40182,-33.88335,0 18.39769,-33.88542,0 18.39334,-33.88803,0 18.38904,-33.89099,0 18.38478,-33.89388,0 18.37721,-33.89939,0 18.37329,-33.90271,0 18.36931,-33.90628,0 18.36559,-33.91,0 18.36176,-33.91414,0 18.35776,-33.91869,0 18.35375,-33.9235,0 18.35014,-33.92857,0 18.34946,-33.93374,0 18.35203,-33.93896,0 18.35787,-33.94231,0 18.36236,-33.93988,0 18.35597,-33.93933,0 18.35249,-33.944,0 18.34963,-33.9472,0 18.34678,-33.95032,0 18.34322,-33.95483,0 18.34117,-33.95874,0 18.3387,-33.96544,0 18.3308,-33.98012,0 18.32783,-33.98909,0 18.3271,-33.99371,0 18.32663,-33.9984,0 18.32648,-34.00337,0 18.32688,-34.00923,0 18.32766,-34.01482,0 18.32822,-34.02049,0 18.32996,-34.03372,0 18.33282,-34.03867,0 18.33744,-34.03648,0 18.33578,-34.03169,0 18.33338,-34.02563,0 18.33259,-34.0199,0 18.33235,-34.01409,0 18.33248,-34.008,0 18.33332,-34.00168,0 18.33506,-33.99591,0 18.34055,-33.98401,0 18.351,-33.96614,0 18.36085,-33.9467,0 18.3669,-33.9337,0 18.36937,-33.92806,0 18.37177,-33.92322,0 18.37515,-33.91805,0 18.37912,-33.91333,0 18.38327,-33.90916,0 18.38719,-33.90564,0 18.3919,-33.90115,0 18.39603,-33.8972,0 18.40064,-33.89323,0 18.40591,-33.88948,0 18.41118,-33.88715,0 18.41681,-33.88607,0 18.42301,-33.88577,0 18.42848,-33.88682,0 18.43306,-33.889,0 18.43649,-33.89198,0 18.4387,-33.89561,0 18.43652,-33.89836,0 18.43304,-33.89951,0 18.43108,-33.89964,0 18.42939,-33.89999,0 18.42785,-33.90074,0 18.42743,-33.89955,0 18.42854,-33.8979,0 18.42957,-33.89641,0 18.4313,-33.89337,0 18.43276,-33.8904,0 18.43369,-33.88663,0 18.43254,-33.88295,0 18.42951,-33.87978,0 18.42475,-33.87827,0 18.41987,-33.87808,0 18.41466,-33.87881,0 18.41011,-33.88011,0 18.40552,-33.88193,0 18.40107,-33.88403,0 18.39649,-33.88635,0 18.39186,-33.88873,0 18.38779,-33.89133,0 18.384,-33.8942,0 18.37962,-33.89754,0 18.37547,-33.90083,0 18.37132,-33.9046,0 18.36748,-33.90856,0 18.36393,-33.912,0 18.36044,-33.91549,0 18.35715,-33.91919,0 18.35378,-33.92317,0 18.34888,-33.92918,0 18.34386,-33.9353,0 18.34044,-33.94006,0 18.33721,-33.94496,0 18.33464,-33.95018,0 18.33824,-33.95441,0 18.34448,-33.95339,0 18.35025,-33.94931,0 18.35501,-33.94501,0 18.35944,-33.94029,0 18.36337,-33.93549,0 18.36673,-33.93054,0 18.36988,-33.92569,0 18.3736,-33.92052,0 18.37715,-33.91596,0 18.38121,-33.91163,0 18.38523,-33.90715,0 18.38949,-33.90331,0 18.39397,-33.89969,0 18.39855,-33.89603,0 18.40339,-33.89264,0 18.40857,-33.88993,0 18.41417,-33.88765,0 18.42026,-33.88669,0 18.42522,-33.88761,0 18.43018,-33.88943,0 18.43456,-33.89191,0 18.43624,-33.89493,0 18.43517,-33.89822,0 18.43243,-33.89934,0 18.43088,-33.89967,0 18.42895,-33.9001,0 18.42716,-33.90106,0 18.42768,-33.89934,0 18.42878,-33.89767,0 18.42979,-33.89608,0 18.43145,-33.89357,0 18.43377,-33.88957,0 18.43512,-33.88589,0 18.4331,-33.88239,0 18.42822,-33.88078,0 18.42334,-33.88037,0 18.41897,-33.88037,0 18.41434,-33.88076,0 18.40988,-33.8816,0 18.40565,-33.88281,0 18.40143,-33.88426,0 18.39712,-33.88612,0 18.39329,-33.8884,0 18.38951,-33.89101,0 18.38596,-33.89375,0 18.38224,-33.89678,0 18.37864,-33.90004,0 18.37508,-33.9034,0 18.37183,-33.90674,0 18.3688,-33.91037,0 18.36588,-33.9141,0 18.36319,-33.91787,0 18.36044,-33.92215,0 18.3577,-33.92667,0 18.35512,-33.93118,0 18.35255,-33.93626,0 18.35031,-33.94093,0 18.34774,-33.94622,0 18.34465,-33.95219,0 18.34151,-33.95746,0 18.33269,-33.97103,0 18.32903,-33.97615,0 18.32105,-33.98872,0 18.31839,-33.99356,0 18.31547,-33.99975,0 18.31524,-34.00413,0 18.31813,-34.00804,0 18.32239,-34.01161,0 18.32615,-34.01514,0 18.32845,-34.01944,0 18.33052,-34.02387,0 18.33338,-34.02834,0 18.3363,-34.03252,0 18.33882,-34.03624,0 18.34116,-34.04007,0 18.34543,-34.04269,0 18.34757,-34.03965,0 18.34442,-34.03555,0 18.33982,-34.03226,0 18.33681,-34.02768,0 18.33492,-34.02214,0 18.3345,-34.01569,0 18.33538,-34.0099,0 18.33681,-34.00413,0 18.34044,-33.99513,0 18.34941,-33.97403,0 18.35884,-33.94845,0 18.36471,-33.9332,0 18.36763,-33.92509,0 18.37004,-33.92033,0 18.3729,-33.91553,0 18.3757,-33.91118,0 18.37923,-33.90619,0 18.38304,-33.90138,0 18.38741,-33.89671,0 18.39346,-33.89273,0 18.3998,-33.89035,0 18.40636,-33.88847,0 18.41188,-33.88714,0 18.41772,-33.88612,0 18.4234,-33.8855,0 18.42945,-33.88564,0 18.43466,-33.88761,0 18.43893,-33.89095,0 18.44181,-33.8952,0 18.44238,-33.89934,0 18.43898,-33.90115,0 18.43489,-33.90064,0 18.43306,-33.90032,0 18.43108,-33.90028,0 18.42934,-33.90046,0 18.42739,-33.90078,0 18.42745,-33.89976,0 18.4285,-33.89772,0 18.42951,-33.89594,0 18.43102,-33.89319,0 18.43317,-33.88956,0 18.4346,-33.88556,0 18.43266,-33.88188,0 18.42762,-33.88002,0 18.42247,-33.87965,0 18.41789,-33.87979,0 18.41309,-33.88037,0 18.40805,-33.88123,0 18.40302,-33.88239,0 18.39827,-33.88407,0 18.39408,-33.88641,0 18.38982,-33.88939,0 18.38568,-33.89264,0 18.38198,-33.89584,0 18.37833,-33.89941,0 18.37486,-33.90317,0 18.37138,-33.90706,0 18.36702,-33.91256,0 18.36387,-33.91708,0 18.36107,-33.92148,0 18.35838,-33.92638,0 18.35535,-33.9321,0 18.353,-33.93704,0 18.35049,-33.94249,0 18.34745,-33.9489,0 18.34425,-33.95613,0 18.3391,-33.96954,0 18.33235,-33.9917,0 18.33063,-33.99825,0 18.33091,-34.00351,0 18.33164,-34.00822,0 18.33304,-34.01331,0 18.33464,-34.01763,0 18.33675,-34.0227,0 18.33876,-34.02736,0 18.34105,-34.03215,0 18.34322,-34.03667,0 18.34543,-34.04118,0 18.34846,-34.04709,0 18.35243,-34.05455,0 18.35574,-34.06004,0 18.3589,-34.06507,0 18.36227,-34.06995,0 18.36559,-34.07433,0 18.36892,-34.07904,0 18.372,-34.08322,0 18.37561,-34.08774,0 18.37957,-34.09213,0 18.38413,-34.09658,0 18.38848,-34.10054,0 18.39724,-34.10799,0 18.41056,-34.11932,0 18.41639,-34.12404,0 18.4206,-34.12711,0 18.42487,-34.12987,0 18.42922,-34.13247,0 18.4341,-34.13438,0 18.43969,-34.1341,0 18.44498,-34.13255,0 18.45016,-34.12977,0 18.45486,-34.1267,0 18.45915,-34.12339,0 18.46337,-34.11969,0 18.46704,-34.11585,0 18.47013,-34.11106,0 18.472,-34.10641,0 18.47271,-34.10105,0 18.47271,-34.09542,0 18.4726,-34.08992,0 18.47217,-34.08005,0 18.47168,-34.06907,0 18.47162,-34.06348,0 18.47197,-34.05753,0 18.47245,-34.05167,0 18.47334,-34.04416,0 18.4742,-34.03909,0 18.47547,-34.03189,0 18.47783,-34.01408,0 18.47945,-33.99605,0 18.48078,-33.98588,0 18.48209,-33.98043,0 18.48349,-33.97549,0 18.48455,-33.9706,0 18.48534,-33.96547,0 18.48567,-33.96048,0 18.48541,-33.95525,0 18.48422,-33.95055,0 18.48238,-33.94585,0 18.48021,-33.94091,0 18.47769,-33.93616,0 18.4746,-33.93127,0 18.47099,-33.92676,0 18.46723,-33.9223,0 18.46361,-33.91792,0 18.45978,-33.91356,0 18.45569,-33.90939,0 18.45119,-33.90586,0 18.44587,-33.90334,0 18.4405,-33.90189,0 18.43552,-33.90111,0 18.43282,-33.90079,0 18.43102,-33.90042,0 18.42934,-33.90004,0 18.42783,-33.89983,0 18.42693,-33.90078,0 18.42739,-33.89967,0 18.42813,-33.89776,0 18.42899,-33.89618,0 18.43024,-33.89397,0 18.43237,-33.8904,0 18.43439,-33.88628,0 18.43343,-33.88271,0 18.43037,-33.87988,0 18.42609,-33.87776,0 18.42161,-33.8768,0 18.41623,-33.87666,0 18.41124,-33.87721,0 18.40593,-33.87844,0 18.40092,-33.88033,0 18.39577,-33.8828,0 18.39095,-33.88518,0 18.38568,-33.8882,0 18.38081,-33.89143,0 18.37635,-33.89478,0 18.37189,-33.8985,0 18.36771,-33.90232,0 18.36421,-33.90601,0 18.36113,-33.91013,0 18.3586,-33.91434,0 18.35598,-33.91964,0 18.35346,-33.92499,0 18.35064,-33.93063,0 18.34785,-33.93626,0 18.34345,-33.94482,0 18.34179,-33.95242,0 18.34522,-33.95697,0 18.3534,-33.95539,0 18.35591,-33.94991,0 18.3581,-33.94427,0 18.36044,-33.93872,0 18.36583,-33.92761,0 18.37015,-33.92006,0 18.37389,-33.91489,0 18.37788,-33.90999,0 18.38231,-33.90486,0 18.38676,-33.90009,0 18.39156,-33.89566,0 18.39778,-33.89204,0 18.40416,-33.88966,0 18.4109,-33.88806,0 18.41743,-33.8871,0 18.42339,-33.88649,0 18.42962,-33.88691,0 18.435,-33.88847,0 18.43893,-33.89131,0 18.44055,-33.89492,0 18.43941,-33.89874,0 18.43528,-33.90088,0 18.43293,-33.90129,0 18.43018,-33.90056,0 18.42865,-33.89976,0 18.42721,-33.89983,0
        </coordinates>
      </LineString>
    </Placemark>
  </Document>
</kml>