<?xml version="1.0" encoding="UTF-8"?>
<kml xmlns="http://www.opengis.net/kml/2.2">
  <Document>
    <name>FR24 3ec0ea2e - Optimised</name>
    <description><![CDATA[Optimised flight path with 55 points (decimated from 272 original points). Source format: Standard KML]]></description>
    
    <Style id="flightPath">
      <LineStyle>
        <color>ffff0000</color>
        <width>3</width>
      </LineStyle>
    </Style>
    
    <Placemark>
      <name>Flight Path</name>
      <description><![CDATA[Optimized flight path]]></description>
      <styleUrl>#flightPath</styleUrl>
      <LineString>
        <extrude>1</extrude>
        <tessellate>1</tessellate>
        <altitudeMode>absolute</altitudeMode>
        <coordinates>
          18.44254,-33.89064,0 18.42617,-33.88041,0 18.42764,-33.87809,0 18.42424,-33.87625,0 18.41537,-33.87547,0 18.40924,-33.87674,0 18.40422,-33.8788,0 18.39332,-33.88403,0 18.38865,-33.88963,0 18.38577,-33.89447,0 18.37912,-33.89845,0 18.37326,-33.90777,0 18.35778,-33.91563,0 18.3631,-33.90807,0 18.35391,-33.90435,0 18.36286,-33.91105,0 18.35673,-33.91738,0 18.3392,-34.02198,0 18.34522,-34.03238,0 18.34712,-34.04003,0 18.34881,-34.03947,0 18.34641,-34.03497,0 18.3411,-34.03131,0 18.33531,-34.02838,0 18.33116,-34.02459,0 18.32788,-34.01828,0 18.32979,-33.99998,0 18.37127,-33.91222,0 18.38387,-33.90129,0 18.43024,-33.88804,0 18.43259,-33.88214,0 18.43263,-33.8781,0 18.40077,-33.87219,0 18.39597,-33.88546,0 18.39122,-33.89315,0 18.366,-33.90433,0 18.32298,-33.99883,0 18.33227,-34.01558,0 18.33584,-34.0218,0 18.3393,-34.02688,0 18.34231,-34.03249,0 18.34354,-34.03868,0 18.3467,-34.04396,0 18.35447,-34.04165,0 18.3534,-34.03532,0 18.34645,-34.03138,0 18.33878,-34.02822,0 18.3322,-34.02505,0 18.32696,-34.02014,0 18.32702,-34.01116,0 18.3288,-34.0038,0 18.33132,-33.99294,0 18.36713,-33.91522,0 18.37339,-33.90787,0 18.39606,-33.87766,0
        </coordinates>
      </LineString>
    </Placemark>
  </Document>
</kml>