<?xml version="1.0" encoding="UTF-8"?>
<kml xmlns="http://www.opengis.net/kml/2.2">
  <Document>
    <name>FR24 3e132031 - Optimised</name>
    <description><![CDATA[Optimised flight path with 465 points (decimated from 2324 original points). Source format: Standard KML]]></description>
    
    <Style id="flightPath">
      <LineStyle>
        <color>ffff0000</color>
        <width>3</width>
      </LineStyle>
    </Style>
    
    <Placemark>
      <name>Flight Path</name>
      <description><![CDATA[Source: ADS-B
Start (SAST): 2026-01-27 13:27:02
End (SAST): 2026-01-27 17:01:18
Points: 2324]]></description>
      <styleUrl>#flightPath</styleUrl>
      <LineString>
        <extrude>1</extrude>
        <tessellate>1</tessellate>
        <altitudeMode>absolute</altitudeMode>
        <coordinates>
          18.43117,-33.89422,45.72 18.43612,-33.88628,152.4 18.43643,-33.88202,182.88 18.43489,-33.87767,220.98000000000002 18.4373,-33.8752,281.94 18.43975,-33.8763,297.18 18.4387,-33.87895,312.42 18.43437,-33.87932,342.90000000000003 18.42905,-33.87825,373.38 18.42402,-33.87713,419.1 18.41852,-33.8762,449.58000000000004 18.41286,-33.87592,472.44 18.40714,-33.87653,495.3 18.40181,-33.87778,518.1600000000001 18.39615,-33.88002,541.02 18.39054,-33.88281,571.5 18.38579,-33.88575,594.36 18.38086,-33.88916,609.6 18.37646,-33.89273,632.46 18.3724,-33.89636,647.7 18.36841,-33.90019,662.94 18.36466,-33.90413,678.1800000000001 18.36096,-33.90848,685.8000000000001 18.35793,-33.9126,693.4200000000001 18.35512,-33.91698,716.2800000000001 18.35395,-33.92075,792.48 18.35661,-33.92131,876.3000000000001 18.35821,-33.91852,906.7800000000001 18.35479,-33.9196,876.3000000000001 18.35215,-33.92406,861.0600000000001 18.3498,-33.92903,853.44 18.34734,-33.93444,853.44 18.34482,-33.94017,845.82 18.34213,-33.94659,853.44 18.33418,-33.96558,822.96 18.33175,-33.97229,807.72 18.32977,-33.97815,800.1 18.32789,-33.98401,792.48 18.32587,-33.99069,784.86 18.32468,-33.99622,777.24 18.32419,-34.00209,762 18.32447,-34.00836,746.76 18.32571,-34.01456,739.14 18.32749,-34.02022,731.52 18.32973,-34.02571,723.9000000000001 18.33164,-34.03116,716.2800000000001 18.33315,-34.03674,701.0400000000001 18.33447,-34.04226,685.8000000000001 18.33544,-34.0484,678.1800000000001 18.33601,-34.0538,685.8000000000001 18.33635,-34.05915,701.0400000000001 18.3363,-34.064,723.9000000000001 18.33557,-34.06915,754.38 18.33715,-34.07335,784.86 18.34339,-34.07298,784.86 18.35066,-34.07312,769.62 18.35765,-34.07529,762 18.36309,-34.07845,754.38 18.36794,-34.0821,754.38 18.37295,-34.08627,731.52 18.37788,-34.09053,723.9000000000001 18.3823,-34.09463,716.2800000000001 18.39453,-34.105,701.0400000000001 18.3998,-34.1088,693.4200000000001 18.40602,-34.11237,678.1800000000001 18.41228,-34.11557,670.5600000000001 18.41875,-34.11851,662.94 18.42547,-34.12111,670.5600000000001 18.43271,-34.12344,685.8000000000001 18.43994,-34.12486,678.1800000000001 18.44782,-34.12493,662.94 18.45446,-34.12405,701.0400000000001 18.46115,-34.12177,662.94 18.4669,-34.11763,640.08 18.47228,-34.11241,632.46 18.47643,-34.10669,624.84 18.47866,-34.10026,640.08 18.47958,-34.0937,640.08 18.48007,-34.08769,640.08 18.48069,-34.08202,632.46 18.48186,-34.07556,609.6 18.48332,-34.0697,594.36 18.48483,-34.06339,563.88 18.48601,-34.05688,548.64 18.48702,-34.05057,533.4 18.48803,-34.0442,533.4 18.48865,-34.0378,541.02 18.48896,-34.03094,556.26 18.48879,-34.02503,571.5 18.48831,-34.01848,579.12 18.48747,-34.00905,548.64 18.48759,-34.00278,518.1600000000001 18.4882,-33.99641,502.92 18.48907,-33.99026,495.3 18.49005,-33.98383,487.68 18.49089,-33.97705,457.20000000000005 18.49119,-33.9707,441.96000000000004 18.49077,-33.96423,419.1 18.48965,-33.95776,411.48 18.48799,-33.95185,373.38 18.4861,-33.94645,320.04 18.48405,-33.94098,289.56 18.48146,-33.93551,274.32 18.47884,-33.93027,266.7 18.47477,-33.92541,274.32 18.47031,-33.92131,274.32 18.46544,-33.91735,259.08000000000004 18.46069,-33.91363,251.46 18.45187,-33.90569,236.22 18.44816,-33.90148,236.22 18.44307,-33.89906,213.36 18.43781,-33.89855,152.4 18.43371,-33.89864,91.44 18.43037,-33.89915,30.48 18.42794,-33.90005,0 18.42727,-33.90005,0 18.42816,-33.89841,0 18.42957,-33.89673,15.24 18.43157,-33.89408,60.96 18.43427,-33.88989,106.68 18.43637,-33.88551,152.4 18.43545,-33.88065,190.5 18.43288,-33.87672,228.60000000000002 18.42916,-33.87369,266.7 18.42384,-33.87229,304.8 18.41858,-33.87227,342.90000000000003 18.41326,-33.87285,373.38 18.40799,-33.87402,411.48 18.40316,-33.87561,449.58000000000004 18.39867,-33.8776,480.06 18.39414,-33.87987,510.54 18.38954,-33.88239,548.64 18.38539,-33.885,571.5 18.38121,-33.88798,601.98 18.37699,-33.89127,624.84 18.37329,-33.89474,655.32 18.36964,-33.89841,670.5600000000001 18.36645,-33.90199,685.8000000000001 18.36309,-33.90573,708.6600000000001 18.3601,-33.90944,723.9000000000001 18.35684,-33.91391,746.76 18.35401,-33.91827,762 18.35132,-33.92294,777.24 18.34883,-33.92769,777.24 18.34654,-33.93244,784.86 18.34414,-33.93751,792.48 18.34196,-33.94263,800.1 18.34549,-33.94606,754.38 18.35137,-33.94304,716.2800000000001 18.35563,-33.93759,685.8000000000001 18.35981,-33.93155,670.5600000000001 18.36348,-33.92569,655.32 18.37149,-33.91265,624.84 18.3783,-33.90316,640.08 18.38236,-33.89817,617.22 18.38762,-33.89315,601.98 18.3938,-33.88907,579.12 18.40031,-33.88564,563.88 18.40691,-33.88268,556.26 18.4137,-33.88051,548.64 18.42088,-33.88014,533.4 18.42745,-33.88211,449.58000000000004 18.43287,-33.88582,373.38 18.43763,-33.88998,312.42 18.44066,-33.89429,251.46 18.43859,-33.89767,205.74 18.43494,-33.89874,137.16 18.43181,-33.89932,68.58 18.42979,-33.89964,30.48 18.42848,-33.89985,7.62 18.42715,-33.90051,7.62 18.42598,-33.89877,22.86 18.42819,-33.89589,53.34 18.43174,-33.89296,91.44 18.43534,-33.88966,137.16 18.43825,-33.88577,175.26000000000002 18.43798,-33.88198,228.60000000000002 18.43506,-33.87993,274.32 18.43145,-33.87872,304.8 18.42768,-33.87769,342.90000000000003 18.42344,-33.87676,373.38 18.41897,-33.87607,411.48 18.41589,-33.87749,457.20000000000005 18.41656,-33.88074,487.68 18.41972,-33.88281,518.1600000000001 18.42295,-33.88193,548.64 18.42144,-33.87914,548.64 18.41673,-33.8779,541.02 18.4118,-33.87726,548.64 18.40633,-33.87709,556.26 18.40047,-33.8773,563.88 18.39509,-33.87804,571.5 18.38999,-33.8795,571.5 18.38579,-33.88142,579.12 18.38121,-33.88403,586.74 18.37698,-33.88691,594.36 18.37312,-33.88957,601.98 18.36914,-33.89259,609.6 18.36572,-33.89552,617.22 18.36219,-33.89914,624.84 18.3593,-33.90241,624.84 18.35658,-33.90601,617.22 18.35403,-33.90981,617.22 18.35186,-33.91344,640.08 18.34997,-33.91699,678.1800000000001 18.34843,-33.92038,708.6600000000001 18.34648,-33.92466,731.52 18.34235,-33.93475,777.24 18.34213,-33.93854,830.58 18.34403,-33.94185,861.0600000000001 18.34785,-33.94389,899.1600000000001 18.35226,-33.94338,937.26 18.35501,-33.94077,975.36 18.35614,-33.93681,1013.46 18.35369,-33.9343,1028.7 18.49462,-34.33478,464.82000000000005 18.49377,-34.32087,464.82000000000005 18.4933,-34.31516,464.82000000000005 18.49296,-34.30911,472.44 18.49302,-34.30321,472.44 18.49314,-34.29718,464.82000000000005 18.49352,-34.27881,495.3 18.49369,-34.26068,487.68 18.49319,-34.25349,487.68 18.49268,-34.24786,487.68 18.49128,-34.23756,480.06 18.4901,-34.23219,480.06 18.48848,-34.22662,457.20000000000005 18.48646,-34.22127,457.20000000000005 18.48433,-34.21605,464.82000000000005 18.48227,-34.21077,464.82000000000005 18.48041,-34.20557,457.20000000000005 18.47564,-34.19202,457.20000000000005 18.47306,-34.18607,480.06 18.46987,-34.17924,495.3 18.46664,-34.17456,495.3 18.46493,-34.16906,495.3 18.46454,-34.16386,502.92 18.46471,-34.15819,502.92 18.46533,-34.15279,510.54 18.46642,-34.14756,510.54 18.46791,-34.14221,502.92 18.47009,-34.13631,487.68 18.47288,-34.13084,480.06 18.47598,-34.1256,464.82000000000005 18.47923,-34.12014,449.58000000000004 18.48209,-34.11465,457.20000000000005 18.48295,-34.10943,464.82000000000005 18.48118,-34.10384,464.82000000000005 18.48035,-34.09863,472.44 18.48074,-34.09273,472.44 18.48118,-34.08722,472.44 18.48085,-34.08128,487.68 18.48169,-34.07582,472.44 18.48287,-34.07039,449.58000000000004 18.48399,-34.06499,434.34000000000003 18.48517,-34.05954,419.1 18.48593,-34.05389,403.86 18.4864,-34.0481,396.24 18.48696,-34.04265,411.48 18.48782,-34.03192,434.34000000000003 18.48793,-34.0234,441.96000000000004 18.48691,-34.00525,403.86 18.4864,-33.99911,381 18.48553,-33.99314,365.76 18.48495,-33.98749,350.52000000000004 18.48467,-33.9815,350.52000000000004 18.48466,-33.97581,342.90000000000003 18.48506,-33.95471,266.7 18.48444,-33.94702,259.08000000000004 18.48293,-33.94107,251.46 18.48072,-33.935,243.84 18.47809,-33.92974,243.84 18.4738,-33.92522,236.22 18.46893,-33.92141,220.98000000000002 18.46384,-33.9174,213.36 18.45843,-33.91338,220.98000000000002 18.45394,-33.90893,243.84 18.45131,-33.904,259.08000000000004 18.44885,-33.89957,236.22 18.4449,-33.89706,213.36 18.44009,-33.89766,144.78 18.43672,-33.89948,91.44 18.43288,-33.90018,38.1 18.43077,-33.90018,15.24 18.42894,-33.90027,0 18.42751,-33.90055,0 18.42603,-33.89964,15.24 18.42632,-33.89735,38.1 18.42974,-33.89417,60.96 18.43366,-33.89099,91.44 18.43708,-33.88692,137.16 18.43706,-33.88281,175.26000000000002 18.43288,-33.88086,220.98000000000002 18.42889,-33.88069,259.08000000000004 18.4248,-33.88097,281.94 18.42043,-33.88092,304.8 18.4156,-33.88025,342.90000000000003 18.41051,-33.87979,365.76 18.40576,-33.87965,381 18.40109,-33.87968,396.24 18.39644,-33.88037,419.1 18.39173,-33.8817,449.58000000000004 18.38717,-33.88333,464.82000000000005 18.38299,-33.88522,480.06 18.37875,-33.88756,487.68 18.37497,-33.8898,502.92 18.3712,-33.89245,518.1600000000001 18.36771,-33.89524,518.1600000000001 18.36438,-33.89832,525.78 18.36124,-33.90143,541.02 18.35838,-33.90477,563.88 18.35591,-33.90797,586.74 18.35384,-33.9115,586.74 18.35137,-33.91525,579.12 18.34851,-33.91924,601.98 18.34588,-33.92294,647.7 18.34179,-33.92517,678.1800000000001 18.33758,-33.92743,708.6600000000001 18.33492,-33.93095,716.2800000000001 18.33544,-33.93551,701.0400000000001 18.33904,-33.93947,655.32 18.34515,-33.94167,632.46 18.35289,-33.94054,601.98 18.35896,-33.93626,563.88 18.36319,-33.93118,556.26 18.36746,-33.92546,541.02 18.37144,-33.9201,518.1600000000001 18.37578,-33.91465,487.68 18.38287,-33.9066,464.82000000000005 18.38842,-33.90147,441.96000000000004 18.39408,-33.89717,434.34000000000003 18.40075,-33.89369,419.1 18.40759,-33.89122,403.86 18.41432,-33.88943,396.24 18.42149,-33.8877,381 18.42889,-33.88664,358.14000000000004 18.43567,-33.88701,327.66 18.44244,-33.88887,289.56 18.44649,-33.89259,259.08000000000004 18.44554,-33.89713,213.36 18.44117,-33.899,160.02 18.43629,-33.89868,99.06 18.43203,-33.89882,38.1 18.42945,-33.89952,15.24 18.42738,-33.90065,0 18.4271,-33.90004,0 18.42813,-33.89822,7.62 18.42917,-33.89662,38.1 18.43136,-33.89337,83.82000000000001 18.4338,-33.88984,114.30000000000001 18.43615,-33.8864,152.4 18.43695,-33.88193,182.88 18.4358,-33.87774,205.74 18.43317,-33.87402,220.98000000000002 18.43276,-33.87025,274.32 18.43539,-33.87039,304.8 18.43472,-33.87254,312.42 18.43069,-33.87364,335.28000000000003 18.42602,-33.87429,373.38 18.42098,-33.87495,403.86 18.41383,-33.87588,434.34000000000003 18.40855,-33.87694,449.58000000000004 18.40364,-33.87802,464.82000000000005 18.3984,-33.87955,480.06 18.39363,-33.88165,518.1600000000001 18.38881,-33.88426,548.64 18.38456,-33.88692,579.12 18.38058,-33.88961,594.36 18.37671,-33.89259,617.22 18.37315,-33.89566,632.46 18.36953,-33.89909,647.7 18.36639,-33.90227,655.32 18.36297,-33.90601,662.94 18.36004,-33.90949,670.5600000000001 18.35712,-33.9134,678.1800000000001 18.35438,-33.91726,685.8000000000001 18.3521,-33.92152,723.9000000000001 18.35361,-33.92322,830.58 18.35619,-33.92148,853.44 18.35466,-33.91898,868.6800000000001 18.35146,-33.9215,838.2 18.34951,-33.92616,815.34 18.3475,-33.93109,800.1 18.34356,-33.94007,792.48 18.33545,-33.95865,769.62 18.3256,-33.98192,731.52 18.32385,-33.98763,731.52 18.32216,-33.99556,723.9000000000001 18.32205,-34.00115,716.2800000000001 18.32268,-34.00627,701.0400000000001 18.32402,-34.01152,685.8000000000001 18.32632,-34.01656,678.1800000000001 18.32863,-34.02177,685.8000000000001 18.33052,-34.02699,685.8000000000001 18.33183,-34.03192,670.5600000000001 18.33263,-34.03676,662.94 18.33309,-34.04216,662.94 18.33377,-34.04713,655.32 18.33458,-34.05236,662.94 18.335,-34.05725,678.1800000000001 18.33515,-34.06255,701.0400000000001 18.33469,-34.06772,739.14 18.33428,-34.07286,769.62 18.33898,-34.0751,769.62 18.34665,-34.07456,754.38 18.35335,-34.076,739.14 18.36012,-34.07899,723.9000000000001 18.36611,-34.08257,701.0400000000001 18.37137,-34.08625,693.4200000000001 18.37641,-34.08997,693.4200000000001 18.38161,-34.09388,647.7 18.38708,-34.09822,632.46 18.39268,-34.10225,609.6 18.39829,-34.10605,594.36 18.40429,-34.10989,579.12 18.40988,-34.11362,579.12 18.41549,-34.11707,579.12 18.42149,-34.12042,586.74 18.42777,-34.12326,594.36 18.43466,-34.12558,586.74 18.44151,-34.12692,579.12 18.44851,-34.12768,571.5 18.45675,-34.12624,556.26 18.4628,-34.12317,541.02 18.46886,-34.11932,533.4 18.47385,-34.11479,525.78 18.47777,-34.10939,510.54 18.48013,-34.10312,502.92 18.48041,-34.09676,495.3 18.48009,-34.09039,495.3 18.47969,-34.08429,502.92 18.4798,-34.07805,510.54 18.48119,-34.07213,518.1600000000001 18.48321,-34.06622,525.78 18.485,-34.06004,525.78 18.48623,-34.05377,533.4 18.48747,-34.047,533.4 18.48959,-34.03183,556.26 18.48948,-34.02494,563.88 18.48898,-34.0188,563.88 18.48831,-34.01212,571.5 18.48797,-34.0004,518.1600000000001 18.48873,-33.99366,487.68 18.4897,-33.98746,472.44 18.49111,-33.97829,434.34000000000003 18.491,-33.97215,419.1 18.4901,-33.96565,403.86 18.48885,-33.95963,396.24 18.48679,-33.95353,381 18.48398,-33.94738,373.38 18.48101,-33.94133,373.38 18.47816,-33.93581,373.38 18.4746,-33.93039,358.14000000000004 18.47088,-33.92528,342.90000000000003 18.46613,-33.91927,320.04 18.46138,-33.91391,297.18 18.45658,-33.90852,289.56 18.45227,-33.9034,297.18 18.44778,-33.89923,281.94 18.4425,-33.8978,243.84 18.43758,-33.89822,175.26000000000002 18.43366,-33.89877,114.30000000000001 18.43024,-33.89951,53.34 18.42856,-33.90005,15.24
        </coordinates>
      </LineString>
    </Placemark>
  </Document>
</kml>