<?xml version="1.0" encoding="UTF-8"?>
<kml xmlns="http://www.opengis.net/kml/2.2">
  <Document>
    <name>FR24 40a8edac - Optimised</name>
    <description><![CDATA[Optimised flight path with 109 points (decimated from 541 original points). Source format: Standard KML]]></description>
    
    <Style id="flightPath">
      <LineStyle>
        <color>ffff0000</color>
        <width>3</width>
      </LineStyle>
    </Style>
    
    <Placemark>
      <name>Flight Path</name>
      <description><![CDATA[Optimized flight path]]></description>
      <styleUrl>#flightPath</styleUrl>
      <LineString>
        <extrude>1</extrude>
        <tessellate>1</tessellate>
        <altitudeMode>absolute</altitudeMode>
        <coordinates>
          18.32267,-33.9993,0 18.30688,-34.02,0 18.33635,-33.98273,0 18.34633,-33.97256,0 18.35373,-33.96126,0 18.35827,-33.94822,0 18.36197,-33.93517,0 18.36914,-33.92281,0 18.37766,-33.91182,0 18.38087,-33.90753,0 18.38467,-33.90317,0 18.38917,-33.8992,0 18.395,-33.89538,0 18.40098,-33.89259,0 18.40754,-33.89017,0 18.41415,-33.88861,0 18.4207,-33.88719,0 18.42773,-33.88659,0 18.43427,-33.88783,0 18.44027,-33.8905,0 18.4452,-33.89429,0 18.44576,-33.89911,0 18.44221,-33.90167,0 18.43966,-33.90211,0 18.43758,-33.90185,0 18.43546,-33.90181,0 18.43391,-33.90171,0 18.4326,-33.90157,0 18.43114,-33.90134,0 18.42951,-33.90102,0 18.42802,-33.90078,0 18.42785,-33.89967,0 18.42871,-33.89836,0 18.43002,-33.89641,0 18.43102,-33.89479,0 18.43386,-33.8898,0 18.43478,-33.886,0 18.43343,-33.88239,0 18.43037,-33.87928,0 18.42558,-33.87735,0 18.41981,-33.87675,0 18.41421,-33.87694,0 18.40748,-33.87767,0 18.4009,-33.87895,0 18.39453,-33.88078,0 18.38877,-33.88351,0 18.38264,-33.88742,0 18.3785,-33.89104,0 18.37435,-33.89557,0 18.37103,-33.90041,0 18.368,-33.90567,0 18.36525,-33.91093,0 18.36279,-33.91629,0 18.36056,-33.92154,0 18.35193,-33.94464,0 18.349,-33.96847,0 18.36056,-33.96284,0 18.36297,-33.95,0 18.36342,-33.94436,0 18.36488,-33.93274,0 18.36697,-33.92788,0 18.37,-33.92294,0 18.37362,-33.91832,0 18.37761,-33.9137,0 18.3823,-33.90879,0 18.38676,-33.90455,0 18.39167,-33.9007,0 18.39718,-33.89748,0 18.40342,-33.89478,0 18.40961,-33.89246,0 18.41712,-33.89017,0 18.4243,-33.88829,0 18.43134,-33.88794,0 18.43769,-33.89017,0 18.44251,-33.89502,0 18.44072,-33.90005,0 18.43557,-33.90032,0 18.43266,-33.89985,0 18.43071,-33.8999,0 18.42884,-33.90033,0 18.42751,-33.90041,0 18.42688,-33.89836,0 18.42716,-33.8965,0 18.42816,-33.89461,0 18.42945,-33.89282,0 18.43203,-33.88961,0 18.43461,-33.886,0 18.43332,-33.88266,0 18.42872,-33.88211,0 18.42346,-33.88353,0 18.42743,-33.89978,0 18.42777,-33.89818,0 18.42865,-33.89678,0 18.42951,-33.89548,0 18.43158,-33.89255,0 18.43382,-33.8893,0 18.4354,-33.88575,0 18.43248,-33.88305,0 18.42727,-33.88358,0 18.42239,-33.88463,0 18.41703,-33.88533,0 18.41154,-33.88505,0 18.40605,-33.88523,0 18.33103,-33.98174,0 18.32005,-33.9992,0 18.31633,-34.00529,0 18.32054,-34.01582,0 18.32643,-34.00497,0 18.33013,-33.99834,0
        </coordinates>
      </LineString>
    </Placemark>
  </Document>
</kml>