<?xml version="1.0" encoding="UTF-8"?>
<kml xmlns="http://www.opengis.net/kml/2.2">
  <Document>
    <name>FR24 40b17ecc - Optimised</name>
    <description><![CDATA[Optimised flight path with 204 points (decimated from 1017 original points). Source format: Standard KML]]></description>
    
    <Style id="flightPath">
      <LineStyle>
        <color>ffff0000</color>
        <width>3</width>
      </LineStyle>
    </Style>
    
    <Placemark>
      <name>Flight Path</name>
      <description><![CDATA[Optimized flight path]]></description>
      <styleUrl>#flightPath</styleUrl>
      <LineString>
        <extrude>1</extrude>
        <tessellate>1</tessellate>
        <altitudeMode>absolute</altitudeMode>
        <coordinates>
          18.43374,-33.89222,0 18.43449,-33.88714,0 18.43321,-33.88367,0 18.43002,-33.88081,0 18.42596,-33.87904,0 18.42155,-33.8779,0 18.41646,-33.87765,0 18.41166,-33.8783,0 18.40673,-33.87941,0 18.40176,-33.88132,0 18.39767,-33.88344,0 18.39352,-33.88577,0 18.38938,-33.88834,0 18.38528,-33.89128,0 18.38091,-33.89461,0 18.37699,-33.8979,0 18.37269,-33.90204,0 18.36852,-33.90605,0 18.36426,-33.91058,0 18.36062,-33.91507,0 18.35718,-33.91954,0 18.35367,-33.92418,0 18.34492,-33.93681,0 18.33949,-33.9462,0 18.3379,-33.95064,0 18.34229,-33.94995,0 18.34705,-33.94608,0 18.35192,-33.94105,0 18.35686,-33.93517,0 18.36147,-33.92974,0 18.36559,-33.9242,0 18.36959,-33.91846,0 18.37383,-33.91279,0 18.37906,-33.90582,0 18.38362,-33.90032,0 18.38848,-33.89534,0 18.39375,-33.8904,0 18.39918,-33.88593,0 18.40496,-33.88198,0 18.41194,-33.8796,0 18.41875,-33.8795,0 18.42567,-33.88137,0 18.4306,-33.88467,0 18.43517,-33.8884,0 18.43915,-33.89209,0 18.44179,-33.8958,0 18.44084,-33.89906,0 18.43842,-33.89932,0 18.43472,-33.89901,0 18.4322,-33.89905,0 18.42911,-33.89981,0 18.42688,-33.90102,0 18.47643,-34.23633,0 18.47843,-34.23647,0 18.48024,-34.2356,0 18.48141,-34.23363,0 18.48152,-34.23154,0 18.48118,-34.22949,0 18.48049,-34.22535,0 18.48013,-34.22118,0 18.48013,-34.21651,0 18.47958,-34.21222,0 18.479,-34.2079,0 18.47872,-34.20342,0 18.47815,-34.1989,0 18.47763,-34.19406,0 18.47715,-34.18881,0 18.47648,-34.1835,0 18.4754,-34.17805,0 18.47418,-34.17265,0 18.47374,-34.16707,0 18.47385,-34.1619,0 18.47408,-34.15635,0 18.47408,-34.14057,0 18.4738,-34.13452,0 18.47362,-34.12862,0 18.47323,-34.12294,0 18.47284,-34.11731,0 18.47261,-34.11227,0 18.47197,-34.10687,0 18.47054,-34.10156,0 18.46796,-34.09658,0 18.46387,-34.092,0 18.45818,-34.08783,0 18.45257,-34.08457,0 18.44736,-34.08108,0 18.44244,-34.0774,0 18.43781,-34.07451,0 18.43299,-34.07213,0 18.42836,-34.06949,0 18.42482,-34.0659,0 18.42245,-34.06215,0 18.42001,-34.05846,0 18.41818,-34.05482,0 18.41606,-34.0513,0 18.41389,-34.04896,0 18.41211,-34.04677,0 18.41017,-34.04462,0 18.40911,-34.04233,0 18.41028,-34.04077,0 18.41152,-34.04013,0 18.40899,-34.03738,0 18.41023,-34.03386,0 18.41353,-34.03061,0 18.41757,-34.02754,0 18.42228,-34.02415,0 18.42704,-34.02036,0 18.43164,-34.01601,0 18.43579,-34.0118,0 18.44016,-34.00777,0 18.44442,-34.00392,0 18.44845,-33.99947,0 18.45199,-33.99509,0 18.4556,-33.99049,0 18.45875,-33.98635,0 18.4623,-33.98109,0 18.46493,-33.97638,0 18.46718,-33.97156,0 18.46964,-33.96703,0 18.4726,-33.96256,0 18.47477,-33.95772,0 18.47564,-33.95265,0 18.47603,-33.94729,0 18.47534,-33.94212,0 18.47368,-33.93719,0 18.47166,-33.93251,0 18.46905,-33.92764,0 18.46687,-33.92303,0 18.46437,-33.91827,0 18.46129,-33.91347,0 18.45772,-33.90981,0 18.45549,-33.90805,0 18.45288,-33.90623,0 18.4507,-33.90472,0 18.44829,-33.90335,0 18.44593,-33.90198,0 18.44358,-33.90051,0 18.44139,-33.90005,0 18.43632,-33.89999,0 18.43094,-33.89994,0 18.4285,-33.90033,0 18.42064,-33.87457,0 18.40914,-33.87653,0 18.40401,-33.87772,0 18.39919,-33.87978,0 18.39464,-33.88243,0 18.38991,-33.88547,0 18.38562,-33.88849,0 18.38119,-33.89191,0 18.37704,-33.89566,0 18.37366,-33.89943,0 18.37011,-33.90376,0 18.36668,-33.90851,0 18.3637,-33.91302,0 18.36101,-33.91782,0 18.3585,-33.92294,0 18.35609,-33.9283,0 18.3514,-33.93979,0 18.3447,-33.957,0 18.35238,-33.95576,0 18.35574,-33.95036,0 18.35787,-33.94464,0 18.35976,-33.93863,0 18.36187,-33.93244,0 18.36454,-33.92661,0 18.36774,-33.92102,0 18.37088,-33.91644,0 18.37475,-33.9113,0 18.37906,-33.90637,0 18.38388,-33.90147,0 18.38893,-33.89699,0 18.39481,-33.89301,0 18.40109,-33.88989,0 18.40857,-33.88742,0 18.41555,-33.88586,0 18.42281,-33.88477,0 18.42945,-33.88467,0 18.43635,-33.88641,0 18.44181,-33.89003,0 18.44467,-33.89455,0 18.44335,-33.89873,0 18.43842,-33.89909,0 18.43489,-33.89883,0 18.43315,-33.89886,0 18.43145,-33.89901,0 18.43013,-33.89923,0 18.42777,-33.90042,0 18.42743,-33.89941,0 18.42839,-33.8979,0 18.42968,-33.89636,0 18.43097,-33.89488,0 18.4326,-33.89296,0 18.43437,-33.89091,0 18.43632,-33.88668,0 18.43596,-33.88202,0 18.43489,-33.87788,0 18.43277,-33.87611,0 18.43248,-33.87793,0 18.43443,-33.87746,0 18.4318,-33.87564,0 18.42749,-33.87552,0 18.42293,-33.87616,0 18.41841,-33.877,0 18.41359,-33.87813,0
        </coordinates>
      </LineString>
    </Placemark>
  </Document>
</kml>