<?xml version="1.0" encoding="UTF-8"?>
<kml xmlns="http://www.opengis.net/kml/2.2">
  <Document>
    <name>FR24 ZSHGD 3de276d6 - Optimised</name>
    <description><![CDATA[Optimised flight path with 609 points (decimated from 3045 original points). Source format: Standard KML]]></description>
    
    <Style id="flightPath">
      <LineStyle>
        <color>ffff0000</color>
        <width>3</width>
      </LineStyle>
    </Style>
    
    <Placemark>
      <name>Flight Path</name>
      <description><![CDATA[Source: ADS-B
Start (SAST): 2026-01-13 09:36:45
End (SAST): 2026-01-13 17:55:38
Points: 3045]]></description>
      <styleUrl>#flightPath</styleUrl>
      <LineString>
        <extrude>1</extrude>
        <tessellate>1</tessellate>
        <altitudeMode>absolute</altitudeMode>
        <coordinates>
          18.42819,-33.89836,45.72 18.43277,-33.89147,121.92 18.43472,-33.88824,152.4 18.43546,-33.8843,175.26000000000002 18.43025,-33.87867,228.60000000000002 18.4215,-33.87658,274.32 18.41337,-33.8773,312.42 18.40857,-33.87867,342.90000000000003 18.4037,-33.88067,365.76 18.39913,-33.88312,388.62 18.39492,-33.88554,419.1 18.391,-33.88812,441.96000000000004 18.38734,-33.89082,472.44 18.38366,-33.89397,487.68 18.38024,-33.89708,502.92 18.37671,-33.9006,510.54 18.37323,-33.90431,510.54 18.36976,-33.90802,525.78 18.36651,-33.91168,541.02 18.36314,-33.91585,556.26 18.3605,-33.91968,579.12 18.35793,-33.92392,594.36 18.35574,-33.92798,609.6 18.35352,-33.93248,624.84 18.35132,-33.93686,640.08 18.34919,-33.9413,647.7 18.3479,-33.94643,655.32 18.34951,-33.95059,670.5600000000001 18.35489,-33.95181,678.1800000000001 18.36004,-33.94901,685.8000000000001 18.36325,-33.94395,670.5600000000001 18.36505,-33.93823,655.32 18.36617,-33.93206,632.46 18.36737,-33.92606,609.6 18.36943,-33.92001,579.12 18.37234,-33.91428,556.26 18.37572,-33.90944,541.02 18.38029,-33.90459,525.78 18.38533,-33.90036,518.1600000000001 18.39077,-33.89659,502.92 18.39655,-33.89366,495.3 18.40307,-33.89124,480.06 18.41017,-33.88934,464.82000000000005 18.41663,-33.88803,457.20000000000005 18.42329,-33.88715,449.58000000000004 18.43002,-33.88733,449.58000000000004 18.43668,-33.88843,419.1 18.44324,-33.88989,365.76 18.44812,-33.89282,320.04 18.45028,-33.89701,259.08000000000004 18.44856,-33.90088,213.36 18.44391,-33.90244,167.64000000000001 18.43941,-33.90241,137.16 18.4354,-33.90227,106.68 18.43214,-33.90237,76.2 18.42923,-33.90225,45.72 18.4276,-33.90161,15.24 18.42751,-33.90004,22.86 18.42884,-33.89836,38.1 18.4313,-33.89557,60.96 18.43388,-33.89172,99.06 18.43597,-33.8877,152.4 18.43567,-33.88385,205.74 18.43198,-33.88124,243.84 18.42693,-33.87955,289.56 18.42161,-33.87853,327.66 18.41612,-33.87797,365.76 18.41079,-33.8779,396.24 18.40507,-33.8784,426.72 18.39952,-33.8797,441.96000000000004 18.3938,-33.88165,472.44 18.38882,-33.88388,518.1600000000001 18.38459,-33.88617,548.64 18.38029,-33.88866,586.74 18.37595,-33.8917,609.6 18.37229,-33.89496,632.46 18.36857,-33.89859,655.32 18.36508,-33.90246,670.5600000000001 18.36152,-33.90656,685.8000000000001 18.35479,-33.91452,731.52 18.34397,-33.92825,754.38 18.34039,-33.93352,762 18.33226,-33.94743,769.62 18.33258,-33.95283,762 18.33778,-33.958,769.62 18.34492,-33.95929,777.24 18.35226,-33.95702,792.48 18.35695,-33.95287,807.72 18.36004,-33.94752,792.48 18.36197,-33.94231,792.48 18.36348,-33.93686,769.62 18.3655,-33.93082,754.38 18.36782,-33.92536,746.76 18.36994,-33.92052,723.9000000000001 18.37256,-33.91521,693.4200000000001 18.37592,-33.91008,662.94 18.37984,-33.90525,632.46 18.38439,-33.90097,601.98 18.38951,-33.89711,571.5 18.39489,-33.89338,548.64 18.40044,-33.89026,525.78 18.40681,-33.88838,487.68 18.41331,-33.88672,457.20000000000005 18.41992,-33.88536,434.34000000000003 18.4263,-33.88449,403.86 18.43323,-33.88472,373.38 18.43912,-33.88602,358.14000000000004 18.44427,-33.88882,327.66 18.44656,-33.89329,297.18 18.44536,-33.89808,251.46 18.44106,-33.90097,198.12 18.43556,-33.90157,129.54000000000002 18.43158,-33.90157,76.2 18.42906,-33.90166,38.1 18.42728,-33.90134,15.24 18.42802,-33.89901,38.1 18.43122,-33.8952,83.82000000000001 18.43366,-33.89159,144.78 18.43557,-33.88775,190.5 18.43603,-33.88393,251.46 18.43343,-33.88042,297.18 18.42882,-33.87769,335.28000000000003 18.42413,-33.87606,373.38 18.41863,-33.87511,411.48 18.41314,-33.87476,457.20000000000005 18.40765,-33.87509,502.92 18.40227,-33.87625,533.4 18.39739,-33.87817,563.88 18.39246,-33.88065,586.74 18.38768,-33.88346,617.22 18.38338,-33.88651,647.7 18.37961,-33.88956,678.1800000000001 18.37606,-33.89287,701.0400000000001 18.3725,-33.89653,723.9000000000001 18.3692,-33.90009,746.76 18.36599,-33.90376,762 18.36267,-33.90809,777.24 18.35947,-33.91242,784.86 18.35077,-33.92527,800.1 18.34812,-33.93013,807.72 18.34585,-33.93486,807.72 18.34379,-33.93956,800.1 18.33618,-33.95732,815.34 18.33439,-33.96304,815.34 18.33023,-33.98109,800.1 18.32957,-33.99124,807.72 18.32957,-33.99646,815.34 18.32994,-34.00166,822.96 18.33086,-34.00674,830.58 18.33243,-34.01166,838.2 18.33509,-34.01646,830.58 18.33824,-34.02117,822.96 18.34173,-34.02578,815.34 18.34528,-34.03034,815.34 18.3486,-34.03513,815.34 18.35232,-34.04086,815.34 18.35564,-34.04519,807.72 18.359,-34.04974,800.1 18.35936,-34.05506,800.1 18.3553,-34.05858,815.34 18.34963,-34.05771,845.82 18.34763,-34.05362,868.6800000000001 18.35076,-34.0502,876.3000000000001 18.35597,-34.05194,868.6800000000001 18.35638,-34.05678,822.96 18.35345,-34.06261,784.86 18.35025,-34.06824,762 18.34706,-34.07401,762 18.34465,-34.07973,754.38 18.34425,-34.08536,754.38 18.34574,-34.09081,746.76 18.34877,-34.09565,754.38 18.35339,-34.09987,754.38 18.35843,-34.10349,762 18.36388,-34.10673,754.38 18.36976,-34.10985,762 18.37559,-34.11255,762 18.38119,-34.11511,754.38 18.38685,-34.11772,762 18.39266,-34.12056,762 18.39846,-34.12317,754.38 18.40496,-34.1254,754.38 18.41148,-34.12717,754.38 18.41806,-34.12875,762 18.42447,-34.12982,762 18.43117,-34.13033,754.38 18.43832,-34.13015,739.14 18.44501,-34.12898,716.2800000000001 18.4521,-34.12674,701.0400000000001 18.45877,-34.12376,670.5600000000001 18.46527,-34.12015,655.32 18.47082,-34.11534,632.46 18.47396,-34.10999,632.46 18.47558,-34.10445,632.46 18.4766,-34.09821,617.22 18.477,-34.09221,601.98 18.47746,-34.08634,586.74 18.47844,-34.07483,586.74 18.479,-34.05807,556.26 18.47946,-34.03588,502.92 18.4799,-34.01358,480.06 18.48119,-33.99568,464.82000000000005 18.48158,-33.98918,464.82000000000005 18.48186,-33.98295,441.96000000000004 18.48214,-33.97668,426.72 18.48253,-33.97041,419.1 18.48312,-33.96237,426.72 18.48304,-33.95641,419.1 18.48204,-33.94957,411.48 18.48063,-33.94373,411.48 18.4785,-33.93768,411.48 18.47598,-33.93205,419.1 18.47295,-33.92679,426.72 18.46942,-33.9218,419.1 18.46493,-33.91642,396.24 18.46052,-33.91177,365.76 18.45594,-33.90707,335.28000000000003 18.45126,-33.90262,297.18 18.44547,-33.89981,251.46 18.43982,-33.89951,198.12 18.43472,-33.90022,121.92 18.4306,-33.90097,68.58 18.42802,-33.9012,22.86 18.42756,-33.89994,30.48 18.42899,-33.89887,38.1 18.43243,-33.89729,68.58 18.43615,-33.89417,114.30000000000001 18.4373,-33.88989,167.64000000000001 18.43612,-33.88573,213.36 18.43271,-33.88244,251.46 18.4276,-33.88033,281.94 18.42218,-33.87932,312.42 18.41667,-33.87895,350.52000000000004 18.41074,-33.87909,388.62 18.40496,-33.87982,419.1 18.3993,-33.88129,449.58000000000004 18.39448,-33.88312,480.06 18.38974,-33.88537,510.54 18.38511,-33.88798,541.02 18.38069,-33.8909,579.12 18.37658,-33.89422,601.98 18.3729,-33.8979,617.22 18.36954,-33.90162,640.08 18.36651,-33.90535,662.94 18.36359,-33.90926,693.4200000000001 18.36073,-33.91279,723.9000000000001 18.35604,-33.91866,746.76 18.3521,-33.92445,754.38 18.34907,-33.92935,754.38 18.34644,-33.93375,762 18.34375,-33.93855,762 18.34093,-33.94403,762 18.33825,-33.94894,754.38 18.33585,-33.9537,746.76 18.33618,-33.95938,739.14 18.3484,-33.96478,746.76 18.35726,-33.95723,769.62 18.35936,-33.95152,769.62 18.36057,-33.94556,769.62 18.36197,-33.93929,746.76 18.36353,-33.93281,731.52 18.36519,-33.92709,731.52 18.36731,-33.92024,723.9000000000001 18.36942,-33.91447,716.2800000000001 18.37257,-33.90916,716.2800000000001 18.37664,-33.90413,701.0400000000001 18.38136,-33.89964,693.4200000000001 18.38676,-33.89538,662.94 18.39229,-33.89154,640.08 18.39832,-33.88784,609.6 18.40507,-33.88467,571.5 18.41171,-33.88268,533.4 18.41875,-33.88161,502.92 18.42531,-33.88133,480.06 18.43142,-33.88188,449.58000000000004 18.43758,-33.88342,411.48 18.44285,-33.88605,373.38 18.44633,-33.88943,335.28000000000003 18.44805,-33.89413,289.56 18.44542,-33.89817,228.60000000000002 18.43977,-33.89955,175.26000000000002 18.4346,-33.90027,114.30000000000001 18.43077,-33.90083,60.96 18.42808,-33.90115,30.48 18.4271,-33.9001,38.1 18.42762,-33.89785,83.82000000000001 18.42934,-33.89497,129.54000000000002 18.43164,-33.89154,167.64000000000001 18.4336,-33.88815,205.74 18.4346,-33.88426,251.46 18.43277,-33.88053,281.94 18.42889,-33.87822,320.04 18.42402,-33.87721,358.14000000000004 18.41892,-33.87741,388.62 18.41372,-33.87816,426.72 18.40866,-33.8795,449.58000000000004 18.40333,-33.88133,480.06 18.39851,-33.88353,510.54 18.39408,-33.88609,533.4 18.38957,-33.88905,548.64 18.3854,-33.89214,563.88 18.38136,-33.89534,571.5 18.37738,-33.89892,586.74 18.37374,-33.90271,594.36 18.37017,-33.90656,594.36 18.36656,-33.91058,586.74 18.35958,-33.91898,579.12 18.349,-33.93239,579.12 18.34602,-33.93653,579.12 18.34265,-33.94133,586.74 18.33915,-33.94583,594.36 18.33562,-33.94977,601.98 18.33226,-33.95448,594.36 18.33753,-33.96181,571.5 18.34728,-33.95702,563.88 18.3518,-33.94966,563.88 18.35478,-33.94422,556.26 18.35804,-33.93874,548.64 18.36185,-33.93265,533.4 18.36685,-33.92517,510.54 18.37077,-33.9201,480.06 18.37542,-33.9147,457.20000000000005 18.37962,-33.91017,441.96000000000004 18.38465,-33.90562,434.34000000000003 18.38974,-33.90144,419.1 18.39546,-33.8978,388.62 18.40136,-33.8952,365.76 18.40714,-33.89315,358.14000000000004 18.41309,-33.89143,335.28000000000003 18.41908,-33.88966,312.42 18.42499,-33.88789,289.56 18.43114,-33.88687,266.7 18.43601,-33.88889,243.84 18.43982,-33.89273,243.84 18.44164,-33.89664,236.22 18.43809,-33.89855,205.74 18.4338,-33.89962,144.78 18.43031,-33.90036,91.44 18.42768,-33.90181,38.1 18.42833,-33.90129,38.1 18.43136,-33.90042,91.44 18.43422,-33.89777,144.78 18.43517,-33.89351,213.36 18.43477,-33.88975,259.08000000000004 18.43288,-33.88635,289.56 18.42962,-33.8837,327.66 18.4248,-33.88174,365.76 18.41981,-33.88083,411.48 18.41452,-33.88076,449.58000000000004 18.40944,-33.88124,487.68 18.40416,-33.88216,525.78 18.39896,-33.88344,563.88 18.39409,-33.88514,594.36 18.38905,-33.88728,617.22 18.38422,-33.89003,640.08 18.3799,-33.89333,655.32 18.37618,-33.89682,670.5600000000001 18.37229,-33.9006,685.8000000000001 18.36415,-33.90894,701.0400000000001 18.36057,-33.91296,716.2800000000001 18.35709,-33.91681,716.2800000000001 18.34863,-33.92706,739.14 18.34574,-33.93132,746.76 18.34282,-33.93598,746.76 18.33971,-33.94139,754.38 18.33758,-33.94565,762 18.33515,-33.95045,754.38 18.33298,-33.95506,739.14 18.33058,-33.95988,746.76 18.32895,-33.96405,762 18.32699,-33.97252,754.38 18.33097,-33.98486,739.14 18.33853,-33.99868,754.38 18.34351,-34.00389,762 18.34834,-34.00694,762 18.3534,-34.00948,754.38 18.35798,-34.01167,754.38 18.36348,-34.01451,769.62 18.36433,-34.01814,777.24 18.3601,-34.01944,822.96 18.36176,-34.01721,822.96 18.36707,-34.01761,822.96 18.37257,-34.01884,815.34 18.37794,-34.02072,830.58 18.38299,-34.02292,830.58 18.38792,-34.02489,830.58 18.39323,-34.02694,815.34 18.39844,-34.02871,815.34 18.40342,-34.0308,800.1 18.40805,-34.03345,792.48 18.41051,-34.03723,792.48 18.41085,-34.04049,853.44 18.45245,-33.98579,762 18.45634,-33.98127,739.14 18.45995,-33.97664,731.52 18.4628,-33.97202,723.9000000000001 18.46464,-33.96721,708.6600000000001 18.46566,-33.96231,701.0400000000001 18.46521,-33.95725,685.8000000000001 18.46348,-33.95256,670.5600000000001 18.46124,-33.94807,655.32 18.45863,-33.94342,624.84 18.45583,-33.93867,601.98 18.45294,-33.93416,594.36 18.45034,-33.92955,571.5 18.4477,-33.92522,541.02 18.44467,-33.92033,502.92 18.44307,-33.91544,464.82000000000005 18.44234,-33.91003,434.34000000000003 18.44187,-33.90455,396.24 18.44134,-33.89973,373.38 18.44032,-33.89441,335.28000000000003 18.43859,-33.88902,297.18 18.43431,-33.88542,274.32 18.42968,-33.88654,236.22 18.42856,-33.88994,198.12 18.42825,-33.89338,167.64000000000001 18.42791,-33.89603,129.54000000000002 18.42755,-33.89841,83.82000000000001 18.4271,-33.9001,45.72 18.42766,-33.90134,45.72 18.43108,-33.90047,83.82000000000001 18.4341,-33.89809,129.54000000000002 18.43529,-33.89403,190.5 18.435,-33.88966,236.22 18.43332,-33.88577,274.32 18.42974,-33.88286,327.66 18.42458,-33.88097,381 18.41978,-33.88053,411.48 18.4144,-33.88072,441.96000000000004 18.40961,-33.88115,472.44 18.4044,-33.88188,502.92 18.39958,-33.883,548.64 18.39492,-33.88495,571.5 18.39083,-33.88724,601.98 18.38646,-33.88976,624.84 18.38224,-33.89231,640.08 18.3783,-33.89515,647.7 18.37469,-33.89827,647.7 18.37109,-33.90176,655.32 18.36788,-33.90483,662.94 18.36382,-33.90898,670.5600000000001 18.36079,-33.91237,678.1800000000001 18.35787,-33.91568,678.1800000000001 18.35478,-33.91917,678.1800000000001 18.35175,-33.92303,670.5600000000001 18.34877,-33.92709,655.32 18.34396,-33.93379,632.46 18.33629,-33.94514,632.46 18.33405,-33.94913,647.7 18.33229,-33.95311,662.94 18.33091,-33.95837,678.1800000000001 18.32979,-33.96281,685.8000000000001 18.32794,-33.9775,716.2800000000001 18.32886,-33.99552,723.9000000000001 18.32949,-34.00259,723.9000000000001 18.33023,-34.00687,716.2800000000001 18.33147,-34.01138,716.2800000000001 18.33315,-34.01549,731.52 18.33517,-34.01944,746.76 18.3367,-34.02308,769.62 18.33876,-34.02708,777.24 18.34072,-34.03102,777.24 18.3433,-34.03642,754.38 18.34492,-34.04073,723.9000000000001 18.34633,-34.0448,716.2800000000001 18.34763,-34.04914,693.4200000000001 18.34871,-34.05338,678.1800000000001 18.3498,-34.05804,655.32 18.3507,-34.06252,647.7 18.35123,-34.06744,647.7 18.35087,-34.0724,655.32 18.34986,-34.07675,662.94 18.34694,-34.0801,693.4200000000001 18.34322,-34.07805,693.4200000000001 18.34585,-34.07414,701.0400000000001 18.34997,-34.07597,701.0400000000001 18.3534,-34.07889,701.0400000000001 18.35726,-34.08211,701.0400000000001 18.36124,-34.08508,693.4200000000001 18.3646,-34.08765,685.8000000000001 18.36868,-34.09062,685.8000000000001 18.37246,-34.09341,693.4200000000001 18.37629,-34.09635,701.0400000000001 18.3803,-34.09928,716.2800000000001 18.38505,-34.10273,731.52 18.39812,-34.11177,739.14 18.40249,-34.1147,739.14 18.40754,-34.11768,723.9000000000001 18.41217,-34.12018,723.9000000000001 18.42024,-34.12456,723.9000000000001 18.42721,-34.12798,708.6600000000001 18.43332,-34.13017,701.0400000000001 18.43918,-34.13196,693.4200000000001 18.44515,-34.13338,685.8000000000001 18.45125,-34.1342,670.5600000000001 18.45692,-34.13599,670.5600000000001 18.45967,-34.13983,670.5600000000001 18.45686,-34.1402,678.1800000000001 18.45888,-34.13567,655.32 18.46252,-34.13108,662.94 18.4663,-34.12661,662.94 18.47004,-34.12207,678.1800000000001 18.47357,-34.11749,685.8000000000001 18.475,-34.1125,685.8000000000001 18.47494,-34.10729,678.1800000000001 18.47441,-34.10161,678.1800000000001 18.47374,-34.09621,670.5600000000001 18.47278,-34.09012,662.94 18.4702,-34.07501,647.7 18.46903,-34.06686,647.7 18.4675,-34.05673,670.5600000000001 18.46647,-34.0517,670.5600000000001 18.46539,-34.04617,678.1800000000001 18.46447,-34.04086,685.8000000000001 18.46359,-34.03226,701.0400000000001 18.46333,-34.02699,708.6600000000001 18.46325,-34.022,716.2800000000001 18.46344,-34.01646,723.9000000000001 18.46387,-34.01125,731.52 18.4647,-34.00599,731.52 18.46533,-34.00026,731.52 18.46734,-33.98309,723.9000000000001 18.46835,-33.9641,693.4200000000001 18.4675,-33.95902,685.8000000000001 18.46573,-33.95422,678.1800000000001 18.46333,-33.94934,670.5600000000001 18.46067,-33.94464,655.32 18.45778,-33.94003,640.08 18.45503,-33.93607,640.08 18.45222,-33.93221,594.36 18.44902,-33.92789,548.64 18.44509,-33.92249,472.44 18.44229,-33.91777,426.72 18.44107,-33.91279,388.62 18.44049,-33.90781,365.76 18.44027,-33.90276,335.28000000000003 18.43998,-33.89748,312.42 18.43904,-33.89273,289.56 18.4373,-33.88779,266.7 18.43327,-33.88463,251.46 18.42985,-33.88586,213.36 18.42872,-33.88925,175.26000000000002 18.42816,-33.89264,137.16 18.42773,-33.89594,106.68 18.42738,-33.89841,76.2 18.42699,-33.90019,45.72 18.42749,-33.90138,38.1 18.43002,-33.90078,83.82000000000001 18.43265,-33.89928,129.54000000000002 18.43397,-33.89645,167.64000000000001 18.43369,-33.89278,220.98000000000002 18.43248,-33.88921,259.08000000000004 18.42979,-33.88626,312.42 18.42615,-33.88454,358.14000000000004 18.42167,-33.88333,396.24 18.41698,-33.88244,449.58000000000004 18.41217,-33.88211,487.68 18.40719,-33.88235,518.1600000000001 18.40227,-33.88316,548.64 18.39689,-33.88486,571.5 18.39246,-33.88701,594.36 18.38859,-33.88934,617.22 18.38478,-33.89218,624.84 18.38139,-33.89538,640.08 18.37795,-33.89869,655.32 18.37469,-33.90199,662.94 18.37132,-33.90511,678.1800000000001 18.36765,-33.90846,685.8000000000001 18.36405,-33.912,693.4200000000001 18.36073,-33.91525,701.0400000000001 18.35758,-33.91829,716.2800000000001 18.35455,-33.92131,731.52 18.35152,-33.92466,731.52 18.34888,-33.92778,723.9000000000001 18.34385,-33.93383,708.6600000000001 18.34139,-33.937,693.4200000000001 18.33898,-33.9402,685.8000000000001 18.33721,-33.94361,685.8000000000001 18.3367,-33.94775,678.1800000000001 18.33943,-33.95096,685.8000000000001 18.34414,-33.95174,701.0400000000001 18.3494,-33.9498,701.0400000000001 18.35289,-33.94556,685.8000000000001 18.35627,-33.94063,662.94 18.35939,-33.93567,655.32 18.36262,-33.93058,632.46 18.36571,-33.92583,617.22 18.37011,-33.9195,586.74 18.37402,-33.91516,571.5 18.37805,-33.91109,548.64 18.38213,-33.90734,533.4 18.38663,-33.90363,510.54 18.39123,-33.90042,487.68 18.39615,-33.89771,472.44 18.40141,-33.89557,449.58000000000004 18.4072,-33.89374,426.72 18.41286,-33.89182,411.48 18.41812,-33.88984,411.48 18.42258,-33.88779,403.86 18.42693,-33.88577,388.62 18.43136,-33.88499,373.38 18.43511,-33.88651,342.90000000000003 18.43545,-33.88943,297.18 18.43259,-33.89154,266.7 18.42905,-33.89291,228.60000000000002 18.42688,-33.89506,160.02 18.42688,-33.89743,121.92 18.42693,-33.90024,53.34
        </coordinates>
      </LineString>
    </Placemark>
  </Document>
</kml>