<?xml version="1.0" encoding="UTF-8"?>
<kml xmlns="http://www.opengis.net/kml/2.2">
  <Document>
    <name>FR24 ZSHMB 3e21ccc0 - Optimised</name>
    <description><![CDATA[Optimised flight path with 701 points (decimated from 3505 original points). Source format: Standard KML]]></description>
    
    <Style id="flightPath">
      <LineStyle>
        <color>ffff0000</color>
        <width>3</width>
      </LineStyle>
    </Style>
    
    <Placemark>
      <name>Flight Path</name>
      <description><![CDATA[Park boundary / NP17 restricted airspace. Red track segments show flight inside this area.]]></description>
      <styleUrl>#flightPath</styleUrl>
      <LineString>
        <extrude>1</extrude>
        <tessellate>1</tessellate>
        <altitudeMode>absolute</altitudeMode>
        <coordinates>
          18.42788,-33.8979,53.34 18.4318,-33.89422,114.30000000000001 18.43472,-33.89117,137.16 18.437,-33.88705,160.02 18.43652,-33.88275,190.5 18.43287,-33.87886,198.12 18.42756,-33.87579,228.60000000000002 18.42287,-33.87387,251.46 18.41812,-33.87252,281.94 18.41348,-33.87181,320.04 18.40845,-33.87159,365.76 18.40405,-33.87197,419.1 18.39958,-33.87309,457.20000000000005 18.39581,-33.87453,487.68 18.39179,-33.87634,518.1600000000001 18.38774,-33.87839,548.64 18.38383,-33.88065,579.12 18.38024,-33.88272,617.22 18.37648,-33.8849,655.32 18.37292,-33.88719,693.4200000000001 18.36948,-33.88952,723.9000000000001 18.366,-33.89218,746.76 18.36262,-33.89506,762 18.35911,-33.89845,762 18.3558,-33.90175,769.62 18.35244,-33.90532,784.86 18.34906,-33.90911,777.24 18.34588,-33.91315,769.62 18.34276,-33.91735,777.24 18.33973,-33.92168,769.62 18.33719,-33.92624,762 18.33515,-33.93048,762 18.33309,-33.93491,784.86 18.33119,-33.9397,784.86 18.3296,-33.94454,777.24 18.32817,-33.94885,784.86 18.32648,-33.95453,792.48 18.32469,-33.96053,762 18.32127,-33.97545,807.72 18.32033,-33.98215,845.82 18.32016,-33.98686,853.44 18.32026,-33.99129,876.3000000000001 18.32056,-33.99747,891.5400000000001 18.3215,-34.00237,899.1600000000001 18.32256,-34.00671,906.7800000000001 18.32394,-34.01134,899.1600000000001 18.3257,-34.01601,922.0200000000001 18.32789,-34.02036,914.4000000000001 18.32977,-34.02517,906.7800000000001 18.33102,-34.02997,906.7800000000001 18.3317,-34.03505,891.5400000000001 18.33209,-34.03999,891.5400000000001 18.33212,-34.04482,876.3000000000001 18.33215,-34.04956,868.6800000000001 18.33212,-34.05441,838.2 18.33175,-34.06247,784.86 18.33149,-34.0693,754.38 18.33189,-34.07447,746.76 18.33321,-34.07903,731.52 18.33517,-34.08339,723.9000000000001 18.33742,-34.08733,716.2800000000001 18.34033,-34.09103,701.0400000000001 18.34356,-34.09449,685.8000000000001 18.3478,-34.09789,693.4200000000001 18.35289,-34.10059,685.8000000000001 18.35776,-34.10275,647.7 18.36296,-34.10496,632.46 18.36774,-34.10701,624.84 18.37206,-34.10929,617.22 18.37692,-34.1118,617.22 18.38156,-34.11409,609.6 18.38635,-34.11644,609.6 18.39643,-34.12125,601.98 18.40154,-34.12367,601.98 18.4067,-34.12619,601.98 18.41623,-34.13033,594.36 18.42149,-34.13228,594.36 18.42665,-34.13387,601.98 18.43506,-34.13629,601.98 18.44215,-34.13736,594.36 18.44799,-34.13662,586.74 18.45417,-34.13452,579.12 18.45966,-34.13154,579.12 18.46481,-34.12772,571.5 18.46925,-34.12354,571.5 18.47277,-34.11888,579.12 18.47502,-34.11351,586.74 18.47597,-34.10785,579.12 18.47591,-34.10198,571.5 18.47454,-34.0957,556.26 18.4725,-34.08948,541.02 18.47048,-34.08318,502.92 18.4683,-34.07666,487.68 18.46667,-34.07016,472.44 18.46619,-34.06353,464.82000000000005 18.46642,-34.05757,464.82000000000005 18.46699,-34.05119,464.82000000000005 18.46796,-34.04256,472.44 18.47116,-34.02136,457.20000000000005 18.47345,-34.00562,457.20000000000005 18.4746,-33.9985,441.96000000000004 18.47598,-33.99248,426.72 18.47721,-33.98634,396.24 18.47856,-33.98021,358.14000000000004 18.48055,-33.97192,320.04 18.48341,-33.96041,274.32 18.48422,-33.95471,266.7 18.48399,-33.9489,281.94 18.48276,-33.94304,304.8 18.48091,-33.93768,304.8 18.4785,-33.93192,304.8 18.47569,-33.92629,297.18 18.47197,-33.92038,297.18 18.46813,-33.91558,297.18 18.4635,-33.91061,297.18 18.45921,-33.90628,297.18 18.45473,-33.90184,289.56 18.45036,-33.89882,266.7 18.44582,-33.89781,220.98000000000002 18.44118,-33.89799,167.64000000000001 18.43624,-33.8985,121.92 18.42772,-33.90088,7.62 18.42716,-33.89999,15.24 18.42802,-33.8985,22.86 18.42929,-33.89626,30.48 18.43085,-33.89333,60.96 18.43282,-33.88962,99.06 18.43357,-33.8857,152.4 18.43082,-33.88188,213.36 18.42607,-33.88081,281.94 18.42012,-33.88132,342.90000000000003 18.41393,-33.88239,403.86 18.40883,-33.88321,457.20000000000005 18.4012,-33.88477,533.4 18.39678,-33.8864,571.5 18.39229,-33.88861,594.36 18.38768,-33.89124,609.6 18.38259,-33.89447,624.84 18.3779,-33.89734,632.46 18.3732,-33.90055,647.7 18.36914,-33.90362,670.5600000000001 18.36525,-33.90711,685.8000000000001 18.36187,-33.91088,701.0400000000001 18.35878,-33.9147,716.2800000000001 18.3558,-33.91887,731.52 18.35335,-33.92289,739.14 18.35092,-33.92766,746.76 18.34863,-33.93237,746.76 18.34671,-33.93691,754.38 18.34465,-33.9418,762 18.34061,-33.95183,769.62 18.3391,-33.95665,769.62 18.33624,-33.9694,762 18.33017,-33.98718,746.76 18.32708,-33.9978,777.24 18.32594,-34.00264,769.62 18.32497,-34.00713,762 18.32469,-34.01216,762 18.32634,-34.01721,739.14 18.3296,-34.02107,731.52 18.33332,-34.02429,708.6600000000001 18.33727,-34.02764,685.8000000000001 18.34002,-34.03136,685.8000000000001 18.34173,-34.03541,685.8000000000001 18.34257,-34.03963,685.8000000000001 18.34328,-34.0443,685.8000000000001 18.34385,-34.04859,693.4200000000001 18.34431,-34.05315,685.8000000000001 18.34442,-34.05799,655.32 18.34408,-34.06302,655.32 18.34356,-34.06772,670.5600000000001 18.34296,-34.07236,678.1800000000001 18.34229,-34.07703,678.1800000000001 18.34139,-34.08141,678.1800000000001 18.34087,-34.08629,670.5600000000001 18.34225,-34.09007,655.32 18.34602,-34.09356,640.08 18.35036,-34.09616,632.46 18.35501,-34.09882,632.46 18.35944,-34.10106,624.84 18.36398,-34.10316,624.84 18.36863,-34.10529,617.22 18.37332,-34.10743,609.6 18.37864,-34.10994,601.98 18.38327,-34.11232,601.98 18.38808,-34.11469,609.6 18.3928,-34.11694,617.22 18.40423,-34.12244,609.6 18.41549,-34.12824,609.6 18.42402,-34.13223,624.84 18.429,-34.1342,609.6 18.43433,-34.13589,609.6 18.43943,-34.13741,601.98 18.44501,-34.1375,601.98 18.45108,-34.1361,601.98 18.45669,-34.13364,609.6 18.46178,-34.12977,609.6 18.46706,-34.12642,594.36 18.4725,-34.12299,586.74 18.47763,-34.11935,579.12 18.48203,-34.11484,586.74 18.48307,-34.1092,594.36 18.48153,-34.10358,601.98 18.47867,-34.09813,601.98 18.47506,-34.09286,601.98 18.47116,-34.08769,609.6 18.46739,-34.08261,609.6 18.46401,-34.07754,609.6 18.45905,-34.07034,617.22 18.45566,-34.0653,617.22 18.45285,-34.06032,617.22 18.45028,-34.05482,594.36 18.44793,-34.04938,586.74 18.44543,-34.04402,586.74 18.44313,-34.03858,571.5 18.44124,-34.03276,556.26 18.43988,-34.02708,556.26 18.44055,-34.02164,556.26 18.44167,-34.01633,548.64 18.44341,-34.01111,548.64 18.44476,-34.00589,548.64 18.44519,-34.00036,548.64 18.4457,-33.99468,548.64 18.44627,-33.98909,541.02 18.44829,-33.98364,541.02 18.45081,-33.97884,533.4 18.454,-33.97375,541.02 18.45657,-33.9687,548.64 18.45894,-33.96323,556.26 18.46073,-33.95796,563.88 18.46118,-33.95233,586.74 18.45995,-33.9471,586.74 18.45782,-33.94144,563.88 18.45507,-33.93604,525.78 18.45215,-33.93105,510.54 18.44976,-33.92653,457.20000000000005 18.44713,-33.9221,419.1 18.44456,-33.91759,373.38 18.4429,-33.91307,335.28000000000003 18.44167,-33.90742,289.56 18.44179,-33.90266,274.32 18.44152,-33.89804,251.46 18.4401,-33.8931,251.46 18.4373,-33.88994,220.98000000000002 18.43439,-33.89163,152.4 18.43198,-33.89584,83.82000000000001 18.43069,-33.89832,53.34 18.42876,-33.90022,15.24 18.42751,-33.90092,0 18.42962,-33.90129,30.48 18.43321,-33.90115,68.58 18.43592,-33.89813,91.44 18.43723,-33.89329,129.54000000000002 18.43786,-33.88843,160.02 18.43637,-33.88346,198.12 18.4318,-33.88063,236.22 18.42648,-33.88053,274.32 18.41852,-33.88129,335.28000000000003 18.41372,-33.88207,358.14000000000004 18.40843,-33.88344,411.48 18.40401,-33.8849,472.44 18.39991,-33.88623,518.1600000000001 18.39569,-33.88803,563.88 18.39146,-33.89031,571.5 18.38736,-33.89278,579.12 18.38305,-33.89538,586.74 18.37847,-33.89808,601.98 18.3743,-33.90074,609.6 18.37015,-33.90376,624.84 18.36639,-33.90697,640.08 18.36258,-33.91045,662.94 18.35911,-33.91411,670.5600000000001 18.35661,-33.91787,685.8000000000001 18.35429,-33.92194,685.8000000000001 18.35188,-33.92619,685.8000000000001 18.3494,-33.93076,678.1800000000001 18.34711,-33.93484,685.8000000000001 18.34336,-33.94235,685.8000000000001 18.34322,-33.94817,693.4200000000001 18.34666,-33.95174,701.0400000000001 18.35221,-33.95229,685.8000000000001 18.3569,-33.94873,670.5600000000001 18.36073,-33.94391,647.7 18.36365,-33.93891,632.46 18.36622,-33.93341,609.6 18.36819,-33.92775,579.12 18.37043,-33.92226,563.88 18.37366,-33.91782,556.26 18.37761,-33.91324,556.26 18.38156,-33.90902,548.64 18.38545,-33.90483,533.4 18.3901,-33.90088,502.92 18.39504,-33.89772,502.92 18.40096,-33.8951,480.06 18.40731,-33.8938,457.20000000000005 18.41331,-33.89227,434.34000000000003 18.4192,-33.89008,396.24 18.42463,-33.88774,388.62 18.42957,-33.88579,381 18.43489,-33.88445,373.38 18.43952,-33.88505,335.28000000000003 18.44302,-33.88733,297.18 18.4437,-33.89026,274.32 18.43998,-33.89147,259.08000000000004 18.43579,-33.89113,220.98000000000002 18.43185,-33.89068,190.5 18.42779,-33.89166,137.16 18.42659,-33.89422,91.44 18.42625,-33.89673,68.58 18.42648,-33.89877,38.1 18.42682,-33.90027,15.24 18.42743,-33.90138,22.86 18.42951,-33.90179,38.1 18.43277,-33.90157,83.82000000000001 18.43557,-33.89915,121.92 18.43695,-33.89478,152.4 18.43724,-33.89012,160.02 18.43601,-33.88518,198.12 18.43111,-33.8823,251.46 18.42301,-33.88261,320.04 18.41673,-33.88335,342.90000000000003 18.40849,-33.88472,396.24 18.40336,-33.8864,464.82000000000005 18.39907,-33.88797,510.54 18.39437,-33.88966,571.5 18.38997,-33.89147,594.36 18.38551,-33.89397,609.6 18.38139,-33.89692,617.22 18.37738,-33.89999,624.84 18.3736,-33.90316,632.46 18.36954,-33.90674,640.08 18.36582,-33.91032,662.94 18.3625,-33.91391,678.1800000000001 18.35958,-33.91763,693.4200000000001 18.35695,-33.92168,708.6600000000001 18.35457,-33.92546,716.2800000000001 18.35019,-33.93283,739.14 18.34784,-33.93759,746.76 18.34593,-33.94212,754.38 18.34717,-33.94725,746.76 18.35249,-33.94945,731.52 18.35793,-33.94668,723.9000000000001 18.36135,-33.94171,716.2800000000001 18.3637,-33.9369,723.9000000000001 18.36539,-33.93182,731.52 18.36737,-33.92694,716.2800000000001 18.37023,-33.92145,693.4200000000001 18.37362,-33.91621,662.94 18.37721,-33.9115,647.7 18.38213,-33.90683,609.6 18.38728,-33.90274,579.12 18.39229,-33.89955,571.5 18.39812,-33.89653,541.02 18.40393,-33.89361,502.92 18.40994,-33.89124,457.20000000000005 18.41589,-33.88911,411.48 18.42177,-33.88724,396.24 18.42722,-33.88607,350.52000000000004 18.43136,-33.88747,312.42 18.43248,-33.89026,251.46 18.43082,-33.89273,190.5 18.42842,-33.89459,137.16 18.42654,-33.89731,68.58 18.42671,-33.89896,38.1 18.42716,-33.90041,15.24 18.42856,-33.90138,30.48 18.43008,-33.90171,45.72 18.4334,-33.90139,76.2 18.43539,-33.89799,106.68 18.43517,-33.89346,137.16 18.435,-33.88831,167.64000000000001 18.43357,-33.8837,198.12 18.42755,-33.8822,243.84 18.42207,-33.88268,274.32 18.41692,-33.88346,327.66 18.4096,-33.88482,403.86 18.40417,-33.88618,457.20000000000005 18.3998,-33.88756,495.3 18.39548,-33.88939,533.4 18.39146,-33.89166,563.88 18.38775,-33.89374,594.36 18.38367,-33.89603,617.22 18.3799,-33.89827,647.7 18.37632,-33.90088,662.94 18.37303,-33.90372,678.1800000000001 18.3696,-33.90693,685.8000000000001 18.36588,-33.91065,693.4200000000001 18.36264,-33.91457,701.0400000000001 18.36004,-33.91805,716.2800000000001 18.35754,-33.92198,723.9000000000001 18.35546,-33.92592,731.52 18.35339,-33.93022,746.76 18.35123,-33.93495,754.38 18.34854,-33.94114,769.62 18.34655,-33.94569,784.86 18.34465,-33.95,784.86 18.34268,-33.95421,784.86 18.34002,-33.96041,777.24 18.33248,-33.98012,777.24 18.32755,-33.99454,769.62 18.32582,-33.9998,769.62 18.32445,-34.0045,762 18.32295,-34.00996,762 18.32113,-34.01609,754.38 18.32026,-34.02109,746.76 18.31736,-34.02489,762 18.31113,-34.02562,769.62 18.30776,-34.02255,792.48 18.30889,-34.01847,777.24 18.31261,-34.01502,769.62 18.31701,-34.01186,769.62 18.32077,-34.00832,777.24 18.32379,-34.00392,784.86 18.32699,-33.99907,784.86 18.33035,-33.9943,762 18.33338,-33.98982,739.14 18.34274,-33.97458,701.0400000000001 18.35429,-33.95631,655.32 18.35748,-33.95045,640.08 18.35981,-33.94529,640.08 18.36219,-33.93965,640.08 18.36393,-33.93421,647.7 18.36606,-33.92958,655.32 18.36869,-33.925,647.7 18.372,-33.91987,632.46 18.37532,-33.91554,617.22 18.37927,-33.91093,601.98 18.38333,-33.90641,586.74 18.38769,-33.90239,571.5 18.39235,-33.89882,571.5 18.39787,-33.89561,563.88 18.40324,-33.89324,563.88 18.40871,-33.89117,548.64 18.41457,-33.88919,518.1600000000001 18.42047,-33.88737,502.92 18.42648,-33.88579,472.44 18.43153,-33.88554,419.1 18.43511,-33.88692,373.38 18.43523,-33.88966,312.42 18.4326,-33.89133,243.84 18.42922,-33.89287,190.5 18.42643,-33.89502,129.54000000000002 18.42615,-33.89735,76.2 18.42676,-33.89909,45.72 18.4271,-33.90042,22.86 18.42813,-33.90144,38.1 18.42962,-33.9017,38.1 18.43346,-33.90129,68.58 18.43607,-33.89772,129.54000000000002 18.43685,-33.89264,144.78 18.43695,-33.88742,175.26000000000002 18.43517,-33.88263,205.74 18.43019,-33.88044,228.60000000000002 18.42183,-33.88161,274.32 18.41669,-33.883,320.04 18.40611,-33.88537,441.96000000000004 18.39993,-33.88686,510.54 18.39558,-33.88821,556.26 18.39054,-33.88989,579.12 18.38568,-33.89231,586.74 18.38153,-33.89529,601.98 18.37732,-33.89874,609.6 18.37355,-33.90223,632.46 18.36983,-33.90558,640.08 18.36565,-33.90939,647.7 18.36253,-33.91315,662.94 18.35972,-33.91699,670.5600000000001 18.35703,-33.92111,685.8000000000001 18.35495,-33.92532,701.0400000000001 18.35329,-33.9295,716.2800000000001 18.35169,-33.93402,723.9000000000001 18.35009,-33.93863,723.9000000000001 18.34806,-33.94405,723.9000000000001 18.34625,-33.94915,731.52 18.34459,-33.95362,731.52 18.3427,-33.95832,739.14 18.33538,-33.97652,716.2800000000001 18.32788,-33.9985,670.5600000000001 18.32615,-34.00607,701.0400000000001 18.32645,-34.01018,701.0400000000001 18.32777,-34.01436,731.52 18.33041,-34.01848,731.52 18.33406,-34.02168,723.9000000000001 18.33831,-34.02484,701.0400000000001 18.34173,-34.02852,678.1800000000001 18.34481,-34.03244,670.5600000000001 18.3482,-34.03648,662.94 18.3507,-34.04073,662.94 18.35192,-34.04496,647.7 18.35205,-34.04974,632.46 18.3506,-34.05524,601.98 18.34843,-34.06036,548.64 18.34549,-34.06522,533.4 18.34291,-34.06947,533.4 18.34078,-34.07346,525.78 18.33876,-34.07744,525.78 18.33786,-34.08183,533.4 18.3387,-34.086,533.4 18.34033,-34.08971,518.1600000000001 18.34196,-34.09424,510.54 18.34465,-34.09798,495.3 18.34857,-34.10078,495.3 18.35283,-34.1028,518.1600000000001 18.35718,-34.10459,518.1600000000001 18.36193,-34.10678,510.54 18.36662,-34.10906,502.92 18.37183,-34.1115,495.3 18.37654,-34.11378,487.68 18.38099,-34.11609,487.68 18.38573,-34.11836,487.68 18.39078,-34.12051,480.06 18.39577,-34.12253,472.44 18.40044,-34.12409,472.44 18.40588,-34.12591,472.44 18.41084,-34.12834,464.82000000000005 18.41488,-34.13118,457.20000000000005 18.41927,-34.13359,464.82000000000005 18.42379,-34.13559,472.44 18.42808,-34.13704,480.06 18.43317,-34.13787,472.44 18.43859,-34.13828,464.82000000000005 18.44444,-34.13792,457.20000000000005 18.45008,-34.13672,457.20000000000005 18.45496,-34.13356,464.82000000000005 18.45983,-34.12926,472.44 18.46482,-34.12509,464.82000000000005 18.46964,-34.12088,449.58000000000004 18.47429,-34.11658,434.34000000000003 18.47826,-34.11227,449.58000000000004 18.47856,-34.10614,449.58000000000004 18.47614,-34.10028,449.58000000000004 18.47306,-34.09456,457.20000000000005 18.46964,-34.08911,449.58000000000004 18.46611,-34.08394,441.96000000000004 18.46275,-34.07866,434.34000000000003 18.45983,-34.07295,411.48 18.46062,-34.06714,381 18.46241,-34.0616,365.76 18.46376,-34.0556,358.14000000000004 18.46488,-34.04979,350.52000000000004 18.46583,-34.04398,342.90000000000003 18.46676,-34.03848,342.90000000000003 18.4688,-34.02759,350.52000000000004 18.47019,-34.01893,358.14000000000004 18.47042,-34.01418,358.14000000000004 18.47065,-34.00962,358.14000000000004 18.47134,-34.00492,350.52000000000004 18.47217,-34.00017,342.90000000000003 18.47278,-33.99504,350.52000000000004 18.47265,-33.99035,365.76 18.47214,-33.98537,381 18.47174,-33.98043,403.86 18.47127,-33.97604,426.72 18.47088,-33.97165,441.96000000000004 18.47048,-33.96703,449.58000000000004 18.46998,-33.96272,457.20000000000005 18.46899,-33.95809,464.82000000000005 18.46813,-33.95375,472.44 18.46684,-33.94917,487.68 18.4647,-33.94473,495.3 18.46144,-33.94101,502.92 18.45829,-33.93719,502.92 18.45531,-33.93332,510.54 18.45245,-33.92969,518.1600000000001 18.44971,-33.92592,495.3 18.44722,-33.92198,464.82000000000005 18.44565,-33.91763,426.72 18.44453,-33.91338,411.48 18.44335,-33.90884,403.86 18.44244,-33.90423,388.62 18.44162,-33.89987,388.62 18.44032,-33.89548,358.14000000000004 18.43826,-33.89166,327.66 18.43517,-33.88845,312.42 18.43142,-33.88742,281.94 18.42831,-33.88868,236.22 18.42626,-33.89136,175.26000000000002 18.42587,-33.89365,144.78 18.42637,-33.89552,114.30000000000001 18.42665,-33.89717,83.82000000000001 18.42688,-33.89841,53.34 18.42699,-33.8996,30.48 18.42699,-33.90074,7.62 18.42859,-33.90162,30.48 18.4314,-33.90246,60.96 18.43556,-33.90189,76.2 18.43946,-33.89897,99.06 18.43999,-33.89388,129.54000000000002 18.43872,-33.88831,152.4 18.43552,-33.88346,175.26000000000002 18.43007,-33.8817,213.36 18.42379,-33.88211,243.84 18.4183,-33.88303,274.32 18.4132,-33.88421,304.8 18.40608,-33.88573,381 18.39571,-33.88834,525.78 18.39195,-33.88985,571.5 18.38797,-33.89168,609.6 18.38396,-33.89384,632.46 18.38001,-33.89618,655.32 18.37595,-33.89925,678.1800000000001 18.37256,-33.90202,708.6600000000001 18.36903,-33.90504,723.9000000000001 18.36576,-33.90809,731.52 18.36239,-33.91135,746.76 18.35928,-33.9147,762 18.35625,-33.91855,769.62 18.35367,-33.92221,769.62 18.35089,-33.92625,769.62 18.34812,-33.9305,777.24 18.34557,-33.93453,784.86 18.3427,-33.93882,784.86 18.34033,-33.94327,800.1 18.33847,-33.94785,792.48 18.3387,-33.95334,754.38 18.34059,-33.95906,708.6600000000001 18.35294,-33.96515,655.32 18.35787,-33.96009,640.08 18.35976,-33.95422,640.08 18.36096,-33.94936,640.08 18.36273,-33.94133,632.46 18.36594,-33.92992,624.84 18.36805,-33.92466,632.46 18.37082,-33.92024,640.08 18.37406,-33.916,624.84 18.37818,-33.91126,594.36 18.38248,-33.9072,579.12 18.38682,-33.90306,563.88 18.39106,-33.89951,556.26 18.39649,-33.89589,533.4 18.40216,-33.89273,510.54 18.40776,-33.89035,480.06 18.41377,-33.88835,464.82000000000005 18.41908,-33.88683,441.96000000000004 18.42491,-33.88531,419.1 18.42922,-33.88551,388.62 18.43203,-33.88733,350.52000000000004 18.43304,-33.88994,297.18 18.43208,-33.89175,259.08000000000004 18.43007,-33.89333,190.5 18.42785,-33.89501,137.16 18.42665,-33.8968,83.82000000000001 18.42665,-33.89846,45.72 18.4271,-33.9001,22.86 18.42794,-33.90111,30.48 18.43153,-33.90147,68.58 18.43483,-33.9012,91.44 18.43848,-33.89923,106.68 18.44055,-33.89487,137.16 18.44067,-33.89035,167.64000000000001 18.43941,-33.88528,182.88 18.43618,-33.8811,205.74 18.43114,-33.87831,251.46 18.42562,-33.87727,289.56 18.4203,-33.87732,312.42 18.41494,-33.87781,350.52000000000004 18.40905,-33.87836,403.86 18.40288,-33.87918,457.20000000000005 18.39874,-33.88,480.06 18.3942,-33.88118,510.54 18.39016,-33.88257,548.64 18.38642,-33.88412,579.12 18.38259,-33.88596,609.6 18.37901,-33.88797,632.46 18.37549,-33.89026,670.5600000000001 18.3724,-33.8925,708.6600000000001 18.36954,-33.89492,731.52 18.36662,-33.89749,746.76 18.36101,-33.90271,762 18.35632,-33.90734,754.38 18.35278,-33.91107,762 18.3498,-33.91484,762 18.34717,-33.91901,762 18.34511,-33.92299,777.24 18.34305,-33.92718,777.24 18.34095,-33.93214,762 18.34099,-33.93835,769.62 18.34543,-33.94153,769.62 18.35199,-33.94038,746.76 18.35647,-33.93608,716.2800000000001 18.36,-33.93155,693.4200000000001 18.36393,-33.92676,662.94 18.36777,-33.9222,640.08 18.37206,-33.91745,617.22 18.37632,-33.91292,601.98 18.38047,-33.90842,601.98 18.38472,-33.90408,594.36 18.39078,-33.89836,579.12 18.39626,-33.89361,563.88 18.40126,-33.88998,518.1600000000001 18.40708,-33.88659,480.06 18.41303,-33.88421,449.58000000000004 18.41915,-33.8837,419.1 18.42442,-33.88486,381 18.42721,-33.88747,342.90000000000003 18.42842,-33.89008,289.56 18.42805,-33.89282,213.36 18.42755,-33.89511,167.64000000000001 18.42721,-33.89694,114.30000000000001 18.42704,-33.89891,60.96 18.42699,-33.90027,30.48
        </coordinates>
      </LineString>
    </Placemark>
    <Placemark>
      <name>Entry 1</name>
      <description><![CDATA[Entry into TMNP (incursion 1) at 2026-01-31 12:32:23 SAST]]></description>
      <Style>
        <IconStyle>
          <color>ff00ff00</color>
          <scale>0.8</scale>
          <Icon><href>http://maps.google.com/mapfiles/kml/shapes/placemark_circle.png</href></Icon>
        </IconStyle>
      </Style>
      <Point>
        <coordinates>18.329634909582733,-34.02472251299281,909.9968405611442</coordinates>
      </Point>
    </Placemark>
    <Placemark>
      <name>Exit 1</name>
      <description><![CDATA[Exit from TMNP (incursion 1) at 2026-01-31 12:33:40 SAST]]></description>
      <Style>
        <IconStyle>
          <color>ff0000ff</color>
          <scale>0.8</scale>
          <Icon><href>http://maps.google.com/mapfiles/kml/shapes/placemark_circle.png</href></Icon>
        </IconStyle>
      </Style>
      <Point>
        <coordinates>18.33200385063369,-34.05833812150449,823.4490304784105</coordinates>
      </Point>
    </Placemark>
    <Placemark>
      <name>Entry 2</name>
      <description><![CDATA[Entry into TMNP (incursion 2) at 2026-01-31 12:35:38 SAST]]></description>
      <Style>
        <IconStyle>
          <color>ff00ff00</color>
          <scale>0.8</scale>
          <Icon><href>http://maps.google.com/mapfiles/kml/shapes/placemark_circle.png</href></Icon>
        </IconStyle>
      </Style>
      <Point>
        <coordinates>18.352759544264803,-34.10052413885213,686.765119128339</coordinates>
      </Point>
    </Placemark>
    <Placemark>
      <name>Exit 2</name>
      <description><![CDATA[Exit from TMNP (incursion 2) at 2026-01-31 12:35:51 SAST]]></description>
      <Style>
        <IconStyle>
          <color>ff0000ff</color>
          <scale>0.8</scale>
          <Icon><href>http://maps.google.com/mapfiles/kml/shapes/placemark_circle.png</href></Icon>
        </IconStyle>
      </Style>
      <Point>
        <coordinates>18.358790804159977,-34.103193064945955,633.9197759666295</coordinates>
      </Point>
    </Placemark>
    <Placemark>
      <name>Entry 3</name>
      <description><![CDATA[Entry into TMNP (incursion 3) at 2026-01-31 12:36:17 SAST]]></description>
      <Style>
        <IconStyle>
          <color>ff00ff00</color>
          <scale>0.8</scale>
          <Icon><href>http://maps.google.com/mapfiles/kml/shapes/placemark_circle.png</href></Icon>
        </IconStyle>
      </Style>
      <Point>
        <coordinates>18.36977340449002,-34.10800809043318,617.22</coordinates>
      </Point>
    </Placemark>
    <Placemark>
      <name>Exit 3</name>
      <description><![CDATA[Exit from TMNP (incursion 3) at 2026-01-31 12:36:35 SAST]]></description>
      <Style>
        <IconStyle>
          <color>ff0000ff</color>
          <scale>0.8</scale>
          <Icon><href>http://maps.google.com/mapfiles/kml/shapes/placemark_circle.png</href></Icon>
        </IconStyle>
      </Style>
      <Point>
        <coordinates>18.3772730912658,-34.11196844720937,617.22</coordinates>
      </Point>
    </Placemark>
    <Placemark>
      <name>Entry 4</name>
      <description><![CDATA[Entry into TMNP (incursion 4) at 2026-01-31 12:37:34 SAST]]></description>
      <Style>
        <IconStyle>
          <color>ff00ff00</color>
          <scale>0.8</scale>
          <Icon><href>http://maps.google.com/mapfiles/kml/shapes/placemark_circle.png</href></Icon>
        </IconStyle>
      </Style>
      <Point>
        <coordinates>18.402019009099266,-34.1239004666421,598.5365572297945</coordinates>
      </Point>
    </Placemark>
    <Placemark>
      <name>Exit 4</name>
      <description><![CDATA[Exit from TMNP (incursion 4) at 2026-01-31 12:37:40 SAST]]></description>
      <Style>
        <IconStyle>
          <color>ff0000ff</color>
          <scale>0.8</scale>
          <Icon><href>http://maps.google.com/mapfiles/kml/shapes/placemark_circle.png</href></Icon>
        </IconStyle>
      </Style>
      <Point>
        <coordinates>18.404635608973802,-34.12519194471125,594.6875745245442</coordinates>
      </Point>
    </Placemark>
    <Placemark>
      <name>Entry 5</name>
      <description><![CDATA[Entry into TMNP (incursion 5) at 2026-01-31 14:29:31 SAST]]></description>
      <Style>
        <IconStyle>
          <color>ff00ff00</color>
          <scale>0.8</scale>
          <Icon><href>http://maps.google.com/mapfiles/kml/shapes/placemark_circle.png</href></Icon>
        </IconStyle>
      </Style>
      <Point>
        <coordinates>18.331470149370862,-34.022777536569684,723.9000000000001</coordinates>
      </Point>
    </Placemark>
    <Placemark>
      <name>Exit 5</name>
      <description><![CDATA[Exit from TMNP (incursion 5) at 2026-01-31 14:30:10 SAST]]></description>
      <Style>
        <IconStyle>
          <color>ff0000ff</color>
          <scale>0.8</scale>
          <Icon><href>http://maps.google.com/mapfiles/kml/shapes/placemark_circle.png</href></Icon>
        </IconStyle>
      </Style>
      <Point>
        <coordinates>18.34161317389436,-34.03504283223942,685.8000000000001</coordinates>
      </Point>
    </Placemark>
    <Placemark>
      <name>Entry 6</name>
      <description><![CDATA[Entry into TMNP (incursion 6) at 2026-01-31 14:32:58 SAST]]></description>
      <Style>
        <IconStyle>
          <color>ff00ff00</color>
          <scale>0.8</scale>
          <Icon><href>http://maps.google.com/mapfiles/kml/shapes/placemark_circle.png</href></Icon>
        </IconStyle>
      </Style>
      <Point>
        <coordinates>18.35266401029788,-34.0974755612766,624.84</coordinates>
      </Point>
    </Placemark>
    <Placemark>
      <name>Exit 6</name>
      <description><![CDATA[Exit from TMNP (incursion 6) at 2026-01-31 14:33:13 SAST]]></description>
      <Style>
        <IconStyle>
          <color>ff0000ff</color>
          <scale>0.8</scale>
          <Icon><href>http://maps.google.com/mapfiles/kml/shapes/placemark_circle.png</href></Icon>
        </IconStyle>
      </Style>
      <Point>
        <coordinates>18.358860593577642,-34.1007885663607,624.84</coordinates>
      </Point>
    </Placemark>
    <Placemark>
      <name>Entry 7</name>
      <description><![CDATA[Entry into TMNP (incursion 7) at 2026-01-31 14:33:40 SAST]]></description>
      <Style>
        <IconStyle>
          <color>ff00ff00</color>
          <scale>0.8</scale>
          <Icon><href>http://maps.google.com/mapfiles/kml/shapes/placemark_circle.png</href></Icon>
        </IconStyle>
      </Style>
      <Point>
        <coordinates>18.370277500787246,-34.10607450034639,617.22</coordinates>
      </Point>
    </Placemark>
    <Placemark>
      <name>Exit 7</name>
      <description><![CDATA[Exit from TMNP (incursion 7) at 2026-01-31 14:33:58 SAST]]></description>
      <Style>
        <IconStyle>
          <color>ff0000ff</color>
          <scale>0.8</scale>
          <Icon><href>http://maps.google.com/mapfiles/kml/shapes/placemark_circle.png</href></Icon>
        </IconStyle>
      </Style>
      <Point>
        <coordinates>18.378118904442825,-34.10970840197459,601.98</coordinates>
      </Point>
    </Placemark>
    <Placemark>
      <name>Entry 8</name>
      <description><![CDATA[Entry into TMNP (incursion 8) at 2026-01-31 14:34:52 SAST]]></description>
      <Style>
        <IconStyle>
          <color>ff00ff00</color>
          <scale>0.8</scale>
          <Icon><href>http://maps.google.com/mapfiles/kml/shapes/placemark_circle.png</href></Icon>
        </IconStyle>
      </Style>
      <Point>
        <coordinates>18.401805503651275,-34.1212365362327,616.2937181801722</coordinates>
      </Point>
    </Placemark>
    <Placemark>
      <name>Exit 8</name>
      <description><![CDATA[Exit from TMNP (incursion 8) at 2026-01-31 14:35:04 SAST]]></description>
      <Style>
        <IconStyle>
          <color>ff0000ff</color>
          <scale>0.8</scale>
          <Icon><href>http://maps.google.com/mapfiles/kml/shapes/placemark_circle.png</href></Icon>
        </IconStyle>
      </Style>
      <Point>
        <coordinates>18.406407587532346,-34.123542860869094,609.6</coordinates>
      </Point>
    </Placemark>
    <Placemark>
      <name>Entry 9</name>
      <description><![CDATA[Entry into TMNP (incursion 9) at 2026-01-31 14:43:01 SAST]]></description>
      <Style>
        <IconStyle>
          <color>ff00ff00</color>
          <scale>0.8</scale>
          <Icon><href>http://maps.google.com/mapfiles/kml/shapes/placemark_circle.png</href></Icon>
        </IconStyle>
      </Style>
      <Point>
        <coordinates>18.45904467774093,-33.96293559385363,558.7526387059316</coordinates>
      </Point>
    </Placemark>
    <Placemark>
      <name>Exit 9</name>
      <description><![CDATA[Exit from TMNP (incursion 9) at 2026-01-31 14:43:04 SAST]]></description>
      <Style>
        <IconStyle>
          <color>ff0000ff</color>
          <scale>0.8</scale>
          <Icon><href>http://maps.google.com/mapfiles/kml/shapes/placemark_circle.png</href></Icon>
        </IconStyle>
      </Style>
      <Point>
        <coordinates>18.45966132954974,-33.96135284979194,563.88</coordinates>
      </Point>
    </Placemark>
    <Placemark>
      <name>Entry 10</name>
      <description><![CDATA[Entry into TMNP (incursion 10) at 2026-01-31 14:43:20 SAST]]></description>
      <Style>
        <IconStyle>
          <color>ff00ff00</color>
          <scale>0.8</scale>
          <Icon><href>http://maps.google.com/mapfiles/kml/shapes/placemark_circle.png</href></Icon>
        </IconStyle>
      </Style>
      <Point>
        <coordinates>18.461259355561154,-33.953264632164725,573.3024583109468</coordinates>
      </Point>
    </Placemark>
    <Placemark>
      <name>Exit 10</name>
      <description><![CDATA[Exit from TMNP (incursion 10) at 2026-01-31 14:43:40 SAST]]></description>
      <Style>
        <IconStyle>
          <color>ff0000ff</color>
          <scale>0.8</scale>
          <Icon><href>http://maps.google.com/mapfiles/kml/shapes/placemark_circle.png</href></Icon>
        </IconStyle>
      </Style>
      <Point>
        <coordinates>18.458556121909915,-33.94312126564791,571.5</coordinates>
      </Point>
    </Placemark>
    <Placemark>
      <name>Entry 11</name>
      <description><![CDATA[Entry into TMNP (incursion 11) at 2026-01-31 16:24:58 SAST]]></description>
      <Style>
        <IconStyle>
          <color>ff00ff00</color>
          <scale>0.8</scale>
          <Icon><href>http://maps.google.com/mapfiles/kml/shapes/placemark_circle.png</href></Icon>
        </IconStyle>
      </Style>
      <Point>
        <coordinates>18.33752219838921,-34.0242063761428,701.8710344796629</coordinates>
      </Point>
    </Placemark>
    <Placemark>
      <name>Exit 11</name>
      <description><![CDATA[Exit from TMNP (incursion 11) at 2026-01-31 16:25:19 SAST]]></description>
      <Style>
        <IconStyle>
          <color>ff0000ff</color>
          <scale>0.8</scale>
          <Icon><href>http://maps.google.com/mapfiles/kml/shapes/placemark_circle.png</href></Icon>
        </IconStyle>
      </Style>
      <Point>
        <coordinates>18.343547136781254,-34.03089350546707,678.1800000000001</coordinates>
      </Point>
    </Placemark>
    <Placemark>
      <name>Entry 12</name>
      <description><![CDATA[Entry into TMNP (incursion 12) at 2026-01-31 16:28:45 SAST]]></description>
      <Style>
        <IconStyle>
          <color>ff00ff00</color>
          <scale>0.8</scale>
          <Icon><href>http://maps.google.com/mapfiles/kml/shapes/placemark_circle.png</href></Icon>
        </IconStyle>
      </Style>
      <Point>
        <coordinates>18.353343533322775,-34.10301068033755,513.1431744621322</coordinates>
      </Point>
    </Placemark>
    <Placemark>
      <name>Exit 12</name>
      <description><![CDATA[Exit from TMNP (incursion 12) at 2026-01-31 16:28:59 SAST]]></description>
      <Style>
        <IconStyle>
          <color>ff0000ff</color>
          <scale>0.8</scale>
          <Icon><href>http://maps.google.com/mapfiles/kml/shapes/placemark_circle.png</href></Icon>
        </IconStyle>
      </Style>
      <Point>
        <coordinates>18.358444097879342,-34.10514704893967,518.1600000000001</coordinates>
      </Point>
    </Placemark>
    <Placemark>
      <name>Entry 13</name>
      <description><![CDATA[Entry into TMNP (incursion 13) at 2026-01-31 16:29:25 SAST]]></description>
      <Style>
        <IconStyle>
          <color>ff00ff00</color>
          <scale>0.8</scale>
          <Icon><href>http://maps.google.com/mapfiles/kml/shapes/placemark_circle.png</href></Icon>
        </IconStyle>
      </Style>
      <Point>
        <coordinates>18.3691969436316,-34.11021925326271,499.49468654539436</coordinates>
      </Point>
    </Placemark>
    <Placemark>
      <name>Exit 13</name>
      <description><![CDATA[Exit from TMNP (incursion 13) at 2026-01-31 16:29:47 SAST]]></description>
      <Style>
        <IconStyle>
          <color>ff0000ff</color>
          <scale>0.8</scale>
          <Icon><href>http://maps.google.com/mapfiles/kml/shapes/placemark_circle.png</href></Icon>
        </IconStyle>
      </Style>
      <Point>
        <coordinates>18.378733048172425,-34.11483619698389,489.9862689271197</coordinates>
      </Point>
    </Placemark>
    <Placemark>
      <name>Entry 14</name>
      <description><![CDATA[Entry into TMNP (incursion 14) at 2026-01-31 16:30:40 SAST]]></description>
      <Style>
        <IconStyle>
          <color>ff00ff00</color>
          <scale>0.8</scale>
          <Icon><href>http://maps.google.com/mapfiles/kml/shapes/placemark_circle.png</href></Icon>
        </IconStyle>
      </Style>
      <Point>
        <coordinates>18.402074148723873,-34.1245884496407,477.7359094408527</coordinates>
      </Point>
    </Placemark>
    <Placemark>
      <name>Exit 14</name>
      <description><![CDATA[Exit from TMNP (incursion 14) at 2026-01-31 16:30:46 SAST]]></description>
      <Style>
        <IconStyle>
          <color>ff0000ff</color>
          <scale>0.8</scale>
          <Icon><href>http://maps.google.com/mapfiles/kml/shapes/placemark_circle.png</href></Icon>
        </IconStyle>
      </Style>
      <Point>
        <coordinates>18.404443562790714,-34.12537067162791,480.06</coordinates>
      </Point>
    </Placemark>
    <Placemark>
      <name>Entry 15</name>
      <description><![CDATA[Entry into TMNP (incursion 15) at 2026-01-31 16:39:36 SAST]]></description>
      <Style>
        <IconStyle>
          <color>ff00ff00</color>
          <scale>0.8</scale>
          <Icon><href>http://maps.google.com/mapfiles/kml/shapes/placemark_circle.png</href></Icon>
        </IconStyle>
      </Style>
      <Point>
        <coordinates>18.466847657347213,-33.94919274682554,487.68</coordinates>
      </Point>
    </Placemark>
    <Placemark>
      <name>Exit 15</name>
      <description><![CDATA[Exit from TMNP (incursion 15) at 2026-01-31 16:39:51 SAST]]></description>
      <Style>
        <IconStyle>
          <color>ff0000ff</color>
          <scale>0.8</scale>
          <Icon><href>http://maps.google.com/mapfiles/kml/shapes/placemark_circle.png</href></Icon>
        </IconStyle>
      </Style>
      <Point>
        <coordinates>18.463885083005596,-33.94367010129496,499.11107203837486</coordinates>
      </Point>
    </Placemark>
  </Document>
</kml>