<?xml version="1.0" encoding="UTF-8"?>
<kml xmlns="http://www.opengis.net/kml/2.2">
  <Document>
    <name>FR24 ZSHMB 3e0f9baa - Optimised</name>
    <description><![CDATA[Optimised flight path with 691 points (decimated from 3455 original points). Source format: Standard KML]]></description>
    
    <Style id="flightPath">
      <LineStyle>
        <color>ffff0000</color>
        <width>3</width>
      </LineStyle>
    </Style>
    
    <Placemark>
      <name>Flight Path</name>
      <description><![CDATA[Source: ADS-B
Start (SAST): 2026-01-26 11:03:56
End (SAST): 2026-01-26 17:35:07
Points: 3455]]></description>
      <styleUrl>#flightPath</styleUrl>
      <LineString>
        <extrude>1</extrude>
        <tessellate>1</tessellate>
        <altitudeMode>absolute</altitudeMode>
        <coordinates>
          18.42704,-33.90024,45.72 18.42899,-33.89738,99.06 18.43122,-33.89455,121.92 18.43369,-33.89087,129.54000000000002 18.43579,-33.88687,137.16 18.43551,-33.88252,167.64000000000001 18.43203,-33.88067,198.12 18.42768,-33.88063,228.60000000000002 18.42329,-33.88087,251.46 18.41813,-33.88133,281.94 18.41291,-33.88207,312.42 18.40467,-33.88426,388.62 18.40075,-33.88559,426.72 18.39666,-33.88719,457.20000000000005 18.39263,-33.88916,495.3 18.38894,-33.8911,525.78 18.38545,-33.89305,556.26 18.38236,-33.89501,586.74 18.37898,-33.89715,624.84 18.37581,-33.89969,655.32 18.37273,-33.90234,678.1800000000001 18.36971,-33.90493,708.6600000000001 18.36651,-33.908,731.52 18.36359,-33.91132,739.14 18.36068,-33.91493,739.14 18.35782,-33.91869,739.14 18.35495,-33.9228,739.14 18.35249,-33.92706,739.14 18.35025,-33.93141,739.14 18.34801,-33.93594,739.14 18.34582,-33.94125,746.76 18.34414,-33.9458,746.76 18.3423,-33.95101,762 18.34027,-33.95682,769.62 18.33287,-33.97769,784.86 18.33035,-33.98849,784.86 18.32979,-33.9938,777.24 18.32983,-33.9991,769.62 18.33069,-34.00415,769.62 18.33215,-34.00887,769.62 18.33418,-34.01367,777.24 18.33652,-34.01805,769.62 18.33921,-34.0227,762 18.34409,-34.03162,754.38 18.34694,-34.03821,754.38 18.3482,-34.04356,746.76 18.34854,-34.04863,731.52 18.34806,-34.05386,716.2800000000001 18.34734,-34.05883,693.4200000000001 18.34655,-34.06403,678.1800000000001 18.34454,-34.07554,640.08 18.34375,-34.0844,609.6 18.34465,-34.09026,601.98 18.34745,-34.09556,594.36 18.35135,-34.09942,609.6 18.35653,-34.10284,617.22 18.36142,-34.10556,624.84 18.36673,-34.10847,624.84 18.37172,-34.11097,624.84 18.3771,-34.11342,624.84 18.38293,-34.11581,632.46 18.38888,-34.11804,647.7 18.40199,-34.12307,624.84 18.40799,-34.12521,617.22 18.42024,-34.12977,624.84 18.4271,-34.13228,640.08 18.43243,-34.13396,662.94 18.4382,-34.13553,670.5600000000001 18.4437,-34.13578,662.94 18.44994,-34.13401,647.7 18.45496,-34.13104,632.46 18.45927,-34.12752,632.46 18.46401,-34.12354,617.22 18.46802,-34.11921,609.6 18.47082,-34.11406,594.36 18.47197,-34.1092,594.36 18.47185,-34.10445,594.36 18.47088,-34.09969,594.36 18.46939,-34.09518,586.74 18.4675,-34.09067,571.5 18.46572,-34.08618,579.12 18.46415,-34.08124,571.5 18.46286,-34.07616,579.12 18.46207,-34.07098,594.36 18.4614,-34.06581,594.36 18.46104,-34.06074,594.36 18.4609,-34.05569,579.12 18.46081,-34.05077,579.12 18.46067,-34.04572,586.74 18.46035,-34.04063,594.36 18.45894,-34.02695,586.74 18.4584,-34.01995,594.36 18.45832,-34.01399,601.98 18.45871,-34.00877,594.36 18.45932,-34.00431,594.36 18.46024,-33.99929,594.36 18.4614,-33.99353,594.36 18.46258,-33.98867,563.88 18.46361,-33.98355,533.4 18.46476,-33.97857,518.1600000000001 18.46645,-33.97311,502.92 18.46785,-33.96854,502.92 18.4691,-33.96335,487.68 18.47019,-33.95818,480.06 18.47082,-33.95334,441.96000000000004 18.47082,-33.94817,403.86 18.47026,-33.94354,358.14000000000004 18.46916,-33.93896,342.90000000000003 18.46774,-33.9348,342.90000000000003 18.46583,-33.93036,335.28000000000003 18.46381,-33.92596,335.28000000000003 18.46178,-33.92154,342.90000000000003 18.45967,-33.91754,342.90000000000003 18.45714,-33.91324,335.28000000000003 18.45479,-33.90907,312.42 18.45234,-33.90511,274.32 18.44907,-33.90179,228.60000000000002 18.44431,-33.89973,190.5 18.43975,-33.89952,137.16 18.43323,-33.90027,76.2 18.42766,-33.90088,22.86 18.42715,-33.89969,60.96 18.4285,-33.89713,99.06 18.4308,-33.89383,144.78 18.43355,-33.89026,160.02 18.43637,-33.88593,182.88 18.43567,-33.88211,220.98000000000002 18.43282,-33.88042,251.46 18.42962,-33.87996,281.94 18.42609,-33.87987,312.42 18.42253,-33.88002,358.14000000000004 18.41938,-33.88016,396.24 18.41188,-33.88114,480.06 18.40821,-33.88184,510.54 18.40467,-33.88268,533.4 18.40107,-33.88374,563.88 18.39741,-33.885,579.12 18.39334,-33.88668,609.6 18.38991,-33.88835,632.46 18.38635,-33.8904,655.32 18.3831,-33.8925,685.8000000000001 18.37984,-33.89482,716.2800000000001 18.3766,-33.89754,739.14 18.37374,-33.90038,754.38 18.37082,-33.90372,746.76 18.36811,-33.90734,746.76 18.36554,-33.91098,746.76 18.36219,-33.91612,754.38 18.35698,-33.92455,754.38 18.35438,-33.92955,754.38 18.35255,-33.93356,762 18.35087,-33.93755,777.24 18.34566,-33.95023,807.72 18.34134,-33.96245,807.72 18.33534,-33.98456,807.72 18.33411,-33.99303,792.48 18.33361,-33.9991,800.1 18.33372,-34.00404,800.1 18.33428,-34.00868,807.72 18.33517,-34.01349,815.34 18.3363,-34.01814,807.72 18.33769,-34.02274,807.72 18.33939,-34.02745,792.48 18.3423,-34.03555,800.1 18.34549,-34.04631,807.72 18.34627,-34.05116,815.34 18.34661,-34.0562,800.1 18.34654,-34.06171,784.86 18.34627,-34.06737,746.76 18.34543,-34.07922,693.4200000000001 18.34579,-34.08764,655.32 18.34785,-34.09351,640.08 18.35117,-34.09826,647.7 18.35564,-34.10217,647.7 18.36159,-34.10571,632.46 18.36708,-34.10841,624.84 18.3732,-34.11111,624.84 18.37901,-34.11351,617.22 18.39818,-34.1212,601.98 18.41967,-34.12898,601.98 18.43545,-34.13425,594.36 18.4419,-34.13452,601.98 18.4479,-34.13301,601.98 18.45288,-34.13036,594.36 18.45743,-34.12684,594.36 18.46124,-34.12303,594.36 18.46436,-34.11893,601.98 18.46656,-34.11479,624.84 18.4679,-34.11059,632.46 18.46853,-34.10571,624.84 18.4683,-34.10054,617.22 18.46762,-34.09584,601.98 18.46664,-34.09123,586.74 18.46567,-34.08662,586.74 18.46359,-34.07401,609.6 18.4627,-34.06688,624.84 18.46264,-34.06232,624.84 18.4628,-34.05766,647.7 18.46321,-34.05278,655.32 18.46348,-34.0459,662.94 18.46436,-34.02848,601.98 18.4651,-34.01143,579.12 18.46579,-33.99398,586.74 18.46706,-33.97874,533.4 18.46807,-33.97289,487.68 18.46899,-33.96847,480.06 18.47082,-33.95776,396.24 18.47082,-33.95316,381 18.4702,-33.94858,365.76 18.4687,-33.94426,350.52000000000004 18.46651,-33.93965,335.28000000000003 18.46437,-33.93581,327.66 18.46218,-33.93174,320.04 18.46035,-33.92741,312.42 18.45921,-33.92276,297.18 18.45815,-33.91786,274.32 18.45664,-33.91319,259.08000000000004 18.4549,-33.90916,266.7 18.45238,-33.90491,243.84 18.44873,-33.90176,198.12 18.44444,-33.90022,160.02 18.44016,-33.9001,121.92 18.43323,-33.90111,68.58 18.42905,-33.90195,38.1 18.42755,-33.90161,22.86 18.42699,-33.90028,38.1 18.42816,-33.89854,76.2 18.43013,-33.89571,106.68 18.43243,-33.89245,129.54000000000002 18.43523,-33.88826,144.78 18.43683,-33.88398,175.26000000000002 18.43569,-33.8803,213.36 18.43282,-33.87868,251.46 18.42968,-33.87848,274.32 18.42505,-33.87914,327.66 18.42166,-33.88023,358.14000000000004 18.41824,-33.88152,388.62 18.41497,-33.88263,411.48 18.4114,-33.88371,434.34000000000003 18.40821,-33.88472,464.82000000000005 18.40395,-33.88618,495.3 18.40038,-33.88752,518.1600000000001 18.39705,-33.88907,541.02 18.39317,-33.89096,556.26 18.38966,-33.89305,579.12 18.38607,-33.89539,601.98 18.38265,-33.89777,624.84 18.37955,-33.90027,655.32 18.37669,-33.90283,693.4200000000001 18.37452,-33.90532,731.52 18.37239,-33.90793,754.38 18.36937,-33.91182,777.24 18.36525,-33.91787,784.86 18.36296,-33.9215,777.24 18.36073,-33.92536,769.62 18.3586,-33.92953,762 18.35655,-33.93421,754.38 18.35484,-33.93844,746.76 18.35106,-33.94836,754.38 18.3447,-33.96593,762 18.33859,-33.98419,762 18.33595,-33.99542,746.76 18.33523,-34.00227,746.76 18.33549,-34.00711,754.38 18.33618,-34.01176,754.38 18.33764,-34.01624,762 18.33938,-34.02058,754.38 18.34116,-34.02526,754.38 18.34488,-34.03602,746.76 18.34677,-34.04365,754.38 18.34739,-34.04832,754.38 18.34763,-34.05324,754.38 18.34763,-34.05859,739.14 18.34728,-34.06404,731.52 18.34683,-34.07249,693.4200000000001 18.34677,-34.0848,632.46 18.34795,-34.09053,617.22 18.35089,-34.09551,601.98 18.35552,-34.10001,617.22 18.36033,-34.10342,617.22 18.36525,-34.10645,632.46 18.37026,-34.10925,632.46 18.37601,-34.1118,624.84 18.3819,-34.11418,624.84 18.38757,-34.11623,624.84 18.3938,-34.11845,624.84 18.40473,-34.12228,617.22 18.41651,-34.12683,632.46 18.42211,-34.12921,624.84 18.42777,-34.13173,624.84 18.43405,-34.13397,624.84 18.44016,-34.13484,640.08 18.44639,-34.13382,632.46 18.45217,-34.1314,617.22 18.45709,-34.12798,609.6 18.46138,-34.124,594.36 18.46499,-34.11978,579.12 18.46785,-34.11539,586.74 18.4697,-34.11035,571.5 18.46998,-34.10545,563.88 18.46916,-34.10119,556.26 18.46785,-34.09672,556.26 18.46659,-34.09225,548.64 18.46556,-34.08778,541.02 18.46482,-34.08339,533.4 18.46421,-34.07867,525.78 18.4627,-34.06791,541.02 18.46081,-34.05189,548.64 18.46056,-34.04475,518.1600000000001 18.46001,-34.03201,502.92 18.46017,-34.02686,480.06 18.46052,-34.02172,472.44 18.46075,-34.01502,487.68 18.46163,-33.99916,472.44 18.4628,-33.98474,457.20000000000005 18.46344,-33.98011,449.58000000000004 18.46453,-33.97494,434.34000000000003 18.46573,-33.97019,411.48 18.46699,-33.96558,388.62 18.46865,-33.95851,373.38 18.46942,-33.9537,365.76 18.46964,-33.94899,335.28000000000003 18.4691,-33.94366,327.66 18.46785,-33.93872,327.66 18.46617,-33.9342,312.42 18.46418,-33.92983,320.04 18.4623,-33.92564,304.8 18.45995,-33.92001,297.18 18.45789,-33.91568,274.32 18.45491,-33.90995,259.08000000000004 18.45249,-33.90587,243.84 18.44965,-33.90274,205.74 18.44479,-33.90046,167.64000000000001 18.44072,-33.89999,129.54000000000002 18.43579,-33.9007,99.06 18.43203,-33.90097,76.2 18.42957,-33.90064,45.72 18.428,-33.90074,22.86 18.42676,-33.90051,30.48 18.42619,-33.89762,83.82000000000001 18.42884,-33.89438,114.30000000000001 18.43191,-33.89115,152.4 18.43483,-33.88775,198.12 18.43615,-33.88416,236.22 18.43467,-33.88124,259.08000000000004 18.4318,-33.8796,281.94 18.42785,-33.87904,304.8 18.42213,-33.87941,327.66 18.41847,-33.88,358.14000000000004 18.41471,-33.88083,381 18.41131,-33.88184,396.24 18.40805,-33.88314,411.48 18.40479,-33.88445,434.34000000000003 18.40147,-33.88589,457.20000000000005 18.39851,-33.88742,487.68 18.39546,-33.88924,510.54 18.39268,-33.89108,533.4 18.39003,-33.89287,563.88 18.38657,-33.89323,586.74 18.38533,-33.89012,624.84 18.38882,-33.88798,647.7 18.39207,-33.88957,655.32 18.39077,-33.89305,647.7 18.38764,-33.89598,662.94 18.38453,-33.89859,678.1800000000001 18.38139,-33.90129,685.8000000000001 18.37486,-33.90721,701.0400000000001 18.372,-33.91031,708.6600000000001 18.36891,-33.91405,708.6600000000001 18.36639,-33.9175,708.6600000000001 18.36387,-33.92125,708.6600000000001 18.36168,-33.92496,708.6600000000001 18.35956,-33.92921,708.6600000000001 18.35799,-33.93379,708.6600000000001 18.35731,-33.93823,716.2800000000001 18.35647,-33.94276,723.9000000000001 18.35512,-33.94729,723.9000000000001 18.35363,-33.95157,731.52 18.34911,-33.96326,777.24 18.34551,-33.97047,792.48 18.33613,-33.99211,830.58 18.33456,-33.99779,845.82 18.33411,-34.00214,868.6800000000001 18.33439,-34.00648,891.5400000000001 18.3354,-34.01093,906.7800000000001 18.33698,-34.01479,922.0200000000001 18.33899,-34.0187,922.0200000000001 18.34093,-34.02345,929.6400000000001 18.34252,-34.02786,922.0200000000001 18.34345,-34.03271,922.0200000000001 18.34386,-34.0372,906.7800000000001 18.34392,-34.04196,883.9200000000001 18.34397,-34.04672,876.3000000000001 18.34368,-34.05613,861.0600000000001 18.34308,-34.06128,861.0600000000001 18.34235,-34.06622,868.6800000000001 18.34139,-34.07214,868.6800000000001 18.34093,-34.07693,868.6800000000001 18.33979,-34.08168,883.9200000000001 18.33549,-34.08318,899.1600000000001 18.33304,-34.0795,906.7800000000001 18.33702,-34.07666,922.0200000000001 18.34089,-34.07968,914.4000000000001 18.34196,-34.08444,899.1600000000001 18.34263,-34.08907,899.1600000000001 18.3442,-34.09401,906.7800000000001 18.34706,-34.09804,906.7800000000001 18.35132,-34.10152,906.7800000000001 18.35672,-34.10422,906.7800000000001 18.36227,-34.1065,899.1600000000001 18.36802,-34.10866,883.9200000000001 18.38367,-34.11422,853.44 18.40387,-34.12111,815.34 18.42573,-34.12926,739.14 18.43231,-34.13126,723.9000000000001 18.43898,-34.13269,708.6600000000001 18.44571,-34.13306,693.4200000000001 18.45266,-34.13255,678.1800000000001 18.45938,-34.13084,647.7 18.46437,-34.1277,624.84 18.46886,-34.12331,609.6 18.47256,-34.11841,594.36 18.47511,-34.1132,563.88 18.47626,-34.10803,548.64 18.47648,-34.10271,518.1600000000001 18.47626,-34.09749,495.3 18.47569,-34.09235,480.06 18.47506,-34.08774,464.82000000000005 18.47448,-34.08299,457.20000000000005 18.47345,-34.06963,441.96000000000004 18.47282,-34.05799,441.96000000000004 18.47294,-34.05087,441.96000000000004 18.47306,-34.03505,472.44 18.47282,-34.0302,480.06 18.47267,-34.02521,480.06 18.47256,-34.01559,487.68 18.47256,-34.01042,487.68 18.47237,-34.00548,487.68 18.47231,-34.0005,487.68 18.47254,-33.99361,480.06 18.47312,-33.98882,480.06 18.47448,-33.98416,480.06 18.47603,-33.9796,472.44 18.47746,-33.97471,480.06 18.47783,-33.96954,502.92 18.47797,-33.96474,510.54 18.4786,-33.96004,495.3 18.47895,-33.95455,495.3 18.47826,-33.94966,495.3 18.4771,-33.94446,480.06 18.4753,-33.93947,457.20000000000005 18.47214,-33.93491,457.20000000000005 18.46876,-33.93048,457.20000000000005 18.46619,-33.92592,457.20000000000005 18.46348,-33.92079,441.96000000000004 18.46075,-33.91605,426.72 18.45782,-33.91187,396.24 18.45457,-33.90805,373.38 18.45098,-33.90445,358.14000000000004 18.4475,-33.90111,342.90000000000003 18.44633,-33.89734,342.90000000000003 18.45003,-33.89507,335.28000000000003 18.45257,-33.89734,289.56 18.45045,-33.89985,243.84 18.44679,-33.90032,213.36 18.44347,-33.90019,182.88 18.4401,-33.90001,144.78 18.43632,-33.8999,106.68 18.43136,-33.90028,60.96 18.42819,-33.90074,30.48 18.43652,-33.88316,259.08000000000004 18.43489,-33.88065,281.94 18.43191,-33.87951,304.8 18.42839,-33.87936,327.66 18.42453,-33.8797,358.14000000000004 18.42133,-33.88011,381 18.41806,-33.88058,403.86 18.41219,-33.88165,449.58000000000004 18.40871,-33.88257,472.44 18.40501,-33.88367,487.68 18.4013,-33.885,502.92 18.39773,-33.88655,518.1600000000001 18.39403,-33.88826,525.78 18.39014,-33.89035,541.02 18.38682,-33.8925,563.88 18.38379,-33.89487,571.5 18.38102,-33.89754,594.36 18.37807,-33.9006,617.22 18.3757,-33.9034,647.7 18.37037,-33.90999,685.8000000000001 18.36828,-33.91302,701.0400000000001 18.36617,-33.91644,716.2800000000001 18.36416,-33.92001,731.52 18.36239,-33.92364,746.76 18.36096,-33.92722,762 18.3593,-33.93165,769.62 18.35675,-33.93965,784.86 18.35597,-33.94423,792.48 18.35947,-33.94729,807.72 18.36445,-33.94529,807.72 18.36657,-33.94044,807.72 18.36748,-33.93514,807.72 18.36805,-33.92965,807.72 18.36897,-33.92445,807.72 18.37086,-33.91912,807.72 18.3736,-33.91414,792.48 18.37699,-33.90958,762 18.3808,-33.90518,739.14 18.38495,-33.90092,708.6600000000001 18.38951,-33.89701,678.1800000000001 18.39492,-33.89323,647.7 18.40084,-33.88998,609.6 18.40702,-33.88765,571.5 18.41348,-33.88582,533.4 18.41948,-33.88454,510.54 18.42615,-33.88358,480.06 18.43277,-33.88319,449.58000000000004 18.43941,-33.8837,434.34000000000003 18.44461,-33.88551,411.48 18.44856,-33.88929,373.38 18.44959,-33.89301,335.28000000000003 18.44857,-33.89676,297.18 18.44616,-33.89969,251.46 18.44278,-33.90134,220.98000000000002 18.43954,-33.90157,182.88 18.43632,-33.90125,121.92 18.43334,-33.90088,83.82000000000001 18.42878,-33.90111,38.1 18.42688,-33.90022,38.1 18.42637,-33.89758,68.58 18.42791,-33.89403,99.06 18.43094,-33.89059,129.54000000000002 18.43433,-33.88715,167.64000000000001 18.43563,-33.88346,198.12 18.43382,-33.88055,228.60000000000002 18.43077,-33.87909,243.84 18.4271,-33.87863,266.7 18.4219,-33.87932,304.8 18.41835,-33.8803,327.66 18.4151,-33.88129,342.90000000000003 18.4116,-33.88244,358.14000000000004 18.40576,-33.88467,381 18.40284,-33.88598,419.1 18.39963,-33.88765,449.58000000000004 18.39661,-33.8893,480.06 18.39207,-33.89186,502.92 18.38573,-33.89584,533.4 18.38213,-33.89808,556.26 18.37847,-33.90046,571.5 18.37525,-33.90303,586.74 18.37246,-33.90604,594.36 18.37006,-33.90916,609.6 18.36768,-33.91241,617.22 18.36542,-33.91577,624.84 18.36273,-33.9202,640.08 18.36079,-33.9239,647.7 18.3589,-33.92806,655.32 18.35707,-33.93253,662.94 18.35558,-33.93704,670.5600000000001 18.35535,-33.94207,685.8000000000001 18.35964,-33.94454,731.52 18.36439,-33.94231,746.76 18.36662,-33.93773,739.14 18.36811,-33.93169,731.52 18.36931,-33.92643,723.9000000000001 18.37099,-33.92093,701.0400000000001 18.37349,-33.91558,662.94 18.37675,-33.91009,640.08 18.38036,-33.90539,617.22 18.38499,-33.90069,594.36 18.38997,-33.89682,563.88 18.39575,-33.89329,541.02 18.40199,-33.8905,502.92 18.40855,-33.8882,472.44 18.41583,-33.88626,441.96000000000004 18.42284,-33.88472,403.86 18.43035,-33.88367,381 18.4374,-33.88421,365.76 18.44358,-33.88621,342.90000000000003 18.44812,-33.88943,335.28000000000003 18.45042,-33.89323,312.42 18.44971,-33.89692,281.94 18.44662,-33.89939,236.22 18.44324,-33.90074,190.5 18.43981,-33.90078,160.02 18.4366,-33.90032,121.92 18.42899,-33.90046,53.34 18.42728,-33.90097,22.86 18.42704,-33.89877,60.96 18.42872,-33.89516,91.44 18.43157,-33.89166,137.16 18.4346,-33.88779,175.26000000000002 18.43551,-33.8838,213.36 18.43382,-33.88069,243.84 18.43065,-33.87877,259.08000000000004 18.42715,-33.87813,281.94 18.42177,-33.87863,312.42 18.41813,-33.8795,342.90000000000003 18.41469,-33.88053,365.76 18.41129,-33.88174,373.38 18.40794,-33.88323,388.62 18.40434,-33.88495,411.48 18.40061,-33.88659,434.34000000000003 18.39728,-33.88838,441.96000000000004 18.39415,-33.89059,464.82000000000005 18.39095,-33.89287,487.68 18.38757,-33.89496,510.54 18.38419,-33.89715,525.78 18.38104,-33.89915,548.64 18.37761,-33.90167,563.88 18.37486,-33.9045,571.5 18.37246,-33.90749,586.74 18.37004,-33.91081,609.6 18.36768,-33.91429,624.84 18.36522,-33.91841,640.08 18.36319,-33.92229,655.32 18.42939,-33.88216,502.92 18.43569,-33.88235,472.44 18.44223,-33.88358,434.34000000000003 18.44822,-33.88565,411.48 18.45221,-33.88907,381 18.45371,-33.89324,342.90000000000003 18.45245,-33.89669,320.04 18.44907,-33.89896,281.94 18.44547,-33.90036,236.22 18.4413,-33.90129,198.12 18.43775,-33.90111,152.4 18.43437,-33.90069,106.68 18.42777,-33.90074,38.1 18.42699,-33.90041,45.72 18.42828,-33.89832,91.44 18.4308,-33.89516,121.92 18.43349,-33.89136,137.16 18.43618,-33.88692,167.64000000000001 18.43601,-33.88257,198.12 18.43321,-33.87982,236.22 18.42962,-33.87881,274.32 18.42558,-33.87872,327.66 18.42127,-33.87867,381 18.41801,-33.87867,434.34000000000003 18.41429,-33.8789,502.92 18.40902,-33.87923,586.74 18.4026,-33.87987,685.8000000000001 18.39935,-33.88076,723.9000000000001 18.39627,-33.88188,754.38 18.3926,-33.88351,777.24 18.38887,-33.88541,784.86 18.38512,-33.88779,792.48 18.38127,-33.89054,792.48 18.37755,-33.89365,777.24 18.37413,-33.8969,769.62 18.37071,-33.90033,762 18.36685,-33.90455,754.38 18.36382,-33.90818,762 18.36124,-33.91177,762 18.35911,-33.91544,762 18.35681,-33.91992,754.38 18.3549,-33.92395,754.38 18.35278,-33.9283,746.76 18.35083,-33.93253,746.76 18.34877,-33.93691,746.76 18.34689,-33.94189,746.76 18.34534,-33.94608,762 18.34409,-33.95023,769.62 18.34282,-33.95483,762 18.34252,-33.96291,739.14 18.35653,-33.96922,731.52 18.36697,-33.96135,739.14 18.3683,-33.9554,731.52 18.36858,-33.94922,716.2800000000001 18.3688,-33.94296,708.6600000000001 18.36966,-33.93211,685.8000000000001 18.37116,-33.92619,670.5600000000001 18.37362,-33.9201,655.32 18.37687,-33.91424,640.08 18.38081,-33.90902,640.08 18.38562,-33.90431,640.08 18.39077,-33.89994,624.84 18.39598,-33.89618,609.6 18.40239,-33.89236,571.5 18.40879,-33.88905,525.78 18.41503,-33.88635,487.68 18.42211,-33.88426,441.96000000000004 18.42957,-33.88394,411.48 18.43624,-33.88564,365.76 18.44156,-33.88847,312.42 18.44421,-33.89254,251.46 18.44336,-33.8965,220.98000000000002 18.44038,-33.89877,152.4 18.4364,-33.89946,99.06 18.42911,-33.90032,38.1
        </coordinates>
      </LineString>
    </Placemark>
  </Document>
</kml>