<?xml version="1.0" encoding="UTF-8"?>
<kml xmlns="http://www.opengis.net/kml/2.2">
  <Document>
    <name>FR24 40f8dd63 - Optimised</name>
    <description><![CDATA[Optimised flight path with 287 points (decimated from 1432 original points). Source format: Standard KML]]></description>
    
    <Style id="flightPath">
      <LineStyle>
        <color>ffff0000</color>
        <width>3</width>
      </LineStyle>
    </Style>
    
    <Placemark>
      <name>Flight Path</name>
      <description><![CDATA[Optimized flight path]]></description>
      <styleUrl>#flightPath</styleUrl>
      <LineString>
        <extrude>1</extrude>
        <tessellate>1</tessellate>
        <altitudeMode>absolute</altitudeMode>
        <coordinates>
          18.59819,-33.97852,0 18.59565,-33.97522,0 18.5919,-33.97303,0 18.58824,-33.97103,0 18.58377,-33.96894,0 18.57885,-33.96726,0 18.57407,-33.96579,0 18.56936,-33.96423,0 18.56482,-33.96268,0 18.56049,-33.96121,0 18.55585,-33.9597,0 18.55126,-33.95819,0 18.54681,-33.95674,0 18.54258,-33.95534,0 18.53806,-33.95399,0 18.53376,-33.95283,0 18.52873,-33.95143,0 18.52421,-33.94989,0 18.52003,-33.94808,0 18.51603,-33.94603,0 18.51202,-33.94422,0 18.50798,-33.9424,0 18.50406,-33.94052,0 18.50023,-33.93863,0 18.49634,-33.93658,0 18.49206,-33.93393,0 18.48764,-33.93109,0 18.48175,-33.92693,0 18.47771,-33.92368,0 18.47363,-33.92052,0 18.46899,-33.91675,0 18.46505,-33.91333,0 18.46062,-33.90958,0 18.45652,-33.90604,0 18.45257,-33.90246,0 18.4477,-33.90018,0 18.44358,-33.89864,0 18.43853,-33.89886,0 18.4331,-33.89937,0 18.42968,-33.89999,0 18.42791,-33.9006,0 18.42721,-33.89978,0 18.42813,-33.89832,0 18.43001,-33.89575,0 18.43231,-33.89246,0 18.43426,-33.88961,0 18.43607,-33.88605,0 18.43512,-33.88323,0 18.43226,-33.8817,0 18.42871,-33.88128,0 18.42491,-33.88147,0 18.42076,-33.88197,0 18.4164,-33.88281,0 18.41191,-33.88408,0 18.40726,-33.8855,0 18.40227,-33.88724,0 18.3938,-33.8904,0 18.38871,-33.89305,0 18.38388,-33.8963,0 18.37933,-33.89994,0 18.37491,-33.90385,0 18.37069,-33.90828,0 18.36714,-33.91307,0 18.36404,-33.91809,0 18.36096,-33.92395,0 18.35838,-33.92986,0 18.35627,-33.93551,0 18.35421,-33.94194,0 18.34975,-33.95645,0 18.35798,-33.96405,0 18.3581,-33.95353,0 18.35776,-33.94666,0 18.35827,-33.93802,0 18.35995,-33.93233,0 18.36275,-33.92674,0 18.36583,-33.92194,0 18.36948,-33.91727,0 18.37337,-33.91298,0 18.3779,-33.90865,0 18.38287,-33.90427,0 18.38785,-33.90018,0 18.40176,-33.88952,0 18.40911,-33.88499,0 18.41566,-33.88263,0 18.4239,-33.883,0 18.431,-33.8857,0 18.43763,-33.88956,0 18.44335,-33.89397,0 18.44812,-33.899,0 18.4479,-33.90454,0 18.44296,-33.9052,0 18.43855,-33.90269,0 18.43483,-33.90005,0 18.43191,-33.89846,0 18.42945,-33.89925,0 18.42768,-33.89999,0 18.42699,-33.90083,0 18.42779,-33.89883,0 18.42957,-33.89644,0 18.43214,-33.89315,0 18.43461,-33.89021,0 18.43702,-33.88728,0 18.4373,-33.88449,0 18.435,-33.88261,0 18.43163,-33.88226,0 18.42749,-33.88234,0 18.4225,-33.88271,0 18.41774,-33.88326,0 18.41241,-33.88362,0 18.40737,-33.88408,0 18.40244,-33.8849,0 18.39778,-33.88623,0 18.39317,-33.88794,0 18.38848,-33.89045,0 18.38459,-33.89333,0 18.38053,-33.89701,0 18.37609,-33.90115,0 18.37097,-33.90646,0 18.36737,-33.91093,0 18.36348,-33.91631,0 18.36004,-33.92196,0 18.35712,-33.92778,0 18.35421,-33.93393,0 18.35175,-33.94007,0 18.34958,-33.9462,0 18.34757,-33.95259,0 18.34571,-33.9613,0 18.35386,-33.96721,0 18.35775,-33.9633,0 18.3601,-33.95758,0 18.36135,-33.95178,0 18.36191,-33.94565,0 18.3623,-33.93997,0 18.36365,-33.93411,0 18.36567,-33.9288,0 18.36852,-33.92336,0 18.37194,-33.91841,0 18.37592,-33.91324,0 18.38041,-33.90843,0 18.38517,-33.90404,0 18.3902,-33.90022,0 18.39563,-33.89636,0 18.40239,-33.8918,0 18.41171,-33.88649,0 18.41892,-33.88412,0 18.42682,-33.8844,0 18.43366,-33.88779,0 18.43932,-33.89204,0 18.4449,-33.89622,0 18.44823,-33.90102,0 18.44542,-33.90488,0 18.4409,-33.90311,0 18.43746,-33.90041,0 18.43483,-33.89877,0 18.43157,-33.89841,0 18.42911,-33.89948,0 18.4271,-33.90022,0 18.42705,-33.90036,0 18.42811,-33.89882,0 18.42979,-33.89664,0 18.43186,-33.89392,0 18.43394,-33.89113,0 18.43545,-33.88866,0 18.43539,-33.88582,0 18.4322,-33.88463,0 18.42867,-33.8844,0 18.4239,-33.88444,0 18.41869,-33.88467,0 18.41387,-33.88527,0 18.40905,-33.88582,0 18.40406,-33.88669,0 18.39918,-33.88807,0 18.39336,-33.8903,0 18.38803,-33.89314,0 18.38322,-33.89631,0 18.37873,-33.89978,0 18.37379,-33.90468,0 18.3696,-33.90972,0 18.36567,-33.91521,0 18.36225,-33.92088,0 18.35894,-33.92702,0 18.3563,-33.93343,0 18.35438,-33.9397,0 18.35417,-33.94666,0 18.35529,-33.95287,0 18.35653,-33.96098,0 18.35615,-33.96842,0 18.35311,-33.97806,0 18.34683,-33.98959,0 18.33904,-34.00378,0 18.33114,-34.0204,0 18.32983,-34.02731,0 18.32985,-34.03418,0 18.33172,-34.04114,0 18.33469,-34.04756,0 18.33736,-34.05437,0 18.33973,-34.06171,0 18.34162,-34.06856,0 18.34364,-34.07607,0 18.3461,-34.08243,0 18.34934,-34.08881,0 18.35375,-34.09593,0 18.35896,-34.10128,0 18.36576,-34.10561,0 18.37337,-34.10925,0 18.38127,-34.1125,0 18.38904,-34.11543,0 18.39616,-34.11777,0 18.40344,-34.11987,0 18.41063,-34.12214,0 18.41785,-34.12454,0 18.42779,-34.12805,0 18.43615,-34.13122,0 18.4437,-34.13322,0 18.45109,-34.13232,0 18.45715,-34.12898,0 18.46191,-34.12523,0 18.4667,-34.12098,0 18.47132,-34.11681,0 18.47547,-34.112,0 18.47734,-34.10636,0 18.47723,-34.10082,0 18.47665,-34.09511,0 18.4757,-34.08907,0 18.47403,-34.08359,0 18.472,-34.07808,0 18.46991,-34.07242,0 18.46768,-34.06586,0 18.46454,-34.05698,0 18.4628,-34.05103,0 18.46132,-34.04556,0 18.46006,-34.03967,0 18.45972,-34.03392,0 18.45978,-34.02824,0 18.45989,-34.02228,0 18.46058,-34.00134,0 18.46196,-33.99605,0 18.46493,-33.99016,0 18.46791,-33.98515,0 18.47132,-33.98026,0 18.4748,-33.97504,0 18.47749,-33.96996,0 18.47996,-33.96474,0 18.48181,-33.95944,0 18.48244,-33.9538,0 18.48164,-33.94839,0 18.4798,-33.94282,0 18.47872,-33.93736,0 18.4774,-33.93225,0 18.4748,-33.92757,0 18.47149,-33.92358,0 18.46718,-33.91901,0 18.46292,-33.91465,0 18.45384,-33.90555,0 18.44167,-33.89342,0 18.43901,-33.89189,0 18.44128,-33.89635,0 18.44442,-33.90198,0 18.43987,-33.90218,0 18.43456,-33.90038,0 18.43102,-33.90202,0 18.43382,-33.90202,0 18.43014,-33.90018,0 18.42749,-33.90005,0 18.42699,-33.90065,0 18.42894,-33.89827,0 18.4317,-33.89575,0 18.43489,-33.89287,0 18.43706,-33.88984,0 18.43769,-33.88669,0 18.43626,-33.88319,0 18.43327,-33.88051,0 18.42865,-33.87848,0 18.42367,-33.87765,0 18.41875,-33.87749,0 18.41211,-33.87788,0 18.40593,-33.87951,0 18.40033,-33.88151,0 18.39459,-33.88435,0 18.38921,-33.88751,0 18.3836,-33.89149,0 18.37858,-33.89576,0 18.37424,-33.90019,0 18.3702,-33.90477,0 18.42705,-33.90022,0 18.42831,-33.89874,0 18.43008,-33.89706,0
        </coordinates>
      </LineString>
    </Placemark>
  </Document>
</kml>