<?xml version="1.0" encoding="UTF-8"?>
<kml xmlns="http://www.opengis.net/kml/2.2">
  <Document>
    <name>FR24 ZTHOT 3ddb7e58 - Optimised</name>
    <description><![CDATA[Optimised flight path with 424 points (decimated from 2116 original points). Source format: Standard KML]]></description>
    
    <Style id="flightPath">
      <LineStyle>
        <color>ffff0000</color>
        <width>3</width>
      </LineStyle>
    </Style>
    
    <Placemark>
      <name>Flight Path</name>
      <description><![CDATA[Source: ADS-B
Start (SAST): 2026-01-11 11:03:09
End (SAST): 2026-01-11 17:34:04
Points: 2116]]></description>
      <styleUrl>#flightPath</styleUrl>
      <LineString>
        <extrude>1</extrude>
        <tessellate>1</tessellate>
        <altitudeMode>absolute</altitudeMode>
        <coordinates>
          18.42796,-33.89887,91.44 18.43136,-33.89232,182.88 18.43276,-33.88806,213.36 18.43242,-33.88367,274.32 18.42974,-33.87932,304.8 18.4259,-33.87555,335.28000000000003 18.42093,-33.87299,365.76 18.41533,-33.87254,396.24 18.40911,-33.87396,426.72 18.40401,-33.87579,487.68 18.39862,-33.87831,518.1600000000001 18.39403,-33.88118,579.12 18.38982,-33.88435,609.6 18.38556,-33.88826,640.08 18.38158,-33.89227,670.5600000000001 18.3779,-33.89636,701.0400000000001 18.37429,-33.90088,731.52 18.37097,-33.90567,731.52 18.36788,-33.91032,762 18.36027,-33.92303,762 18.35598,-33.93085,731.52 18.35294,-33.93713,731.52 18.34358,-33.95833,731.52 18.34521,-33.97224,822.96 18.34997,-33.96162,731.52 18.35199,-33.95508,701.0400000000001 18.35423,-33.94913,670.5600000000001 18.35658,-33.94308,640.08 18.36239,-33.92857,640.08 18.36494,-33.92216,640.08 18.36724,-33.91644,640.08 18.37,-33.91107,609.6 18.37334,-33.90578,609.6 18.37721,-33.90074,579.12 18.38209,-33.89603,579.12 18.38768,-33.89189,548.64 18.39386,-33.88861,548.64 18.40042,-33.88582,548.64 18.40725,-33.88374,518.1600000000001 18.41394,-33.88216,518.1600000000001 18.42116,-33.88129,518.1600000000001 18.42839,-33.88179,487.68 18.43517,-33.88365,426.72 18.44123,-33.88651,396.24 18.44537,-33.89021,365.76 18.4457,-33.89445,365.76 18.44212,-33.89648,335.28000000000003 18.43821,-33.89743,243.84 18.43443,-33.89841,182.88 18.42876,-33.90009,91.44 18.42794,-33.89882,91.44 18.42996,-33.89557,121.92 18.43186,-33.89214,182.88 18.43338,-33.88866,243.84 18.43391,-33.88454,274.32 18.43248,-33.88039,304.8 18.42912,-33.8768,365.76 18.42463,-33.87428,396.24 18.41925,-33.87305,457.20000000000005 18.41394,-33.87332,487.68 18.40885,-33.87476,548.64 18.40376,-33.87718,579.12 18.39907,-33.8801,579.12 18.3942,-33.88321,609.6 18.38938,-33.88673,640.08 18.38516,-33.89059,670.5600000000001 18.38121,-33.89455,701.0400000000001 18.37738,-33.89873,731.52 18.37355,-33.90339,731.52 18.36988,-33.90791,762 18.36662,-33.91265,762 18.36365,-33.9175,792.48 18.36101,-33.92244,822.96 18.35877,-33.9278,822.96 18.35636,-33.9332,792.48 18.35255,-33.94156,792.48 18.34818,-33.95265,762 18.34265,-33.97108,762 18.33309,-33.99752,731.52 18.33086,-34.00516,731.52 18.32979,-34.01115,731.52 18.33017,-34.01679,731.52 18.33218,-34.02247,731.52 18.3345,-34.02731,762 18.33657,-34.03253,762 18.33831,-34.03835,762 18.33876,-34.04453,762 18.33725,-34.05029,762 18.33579,-34.05556,792.48 18.34016,-34.0562,822.96 18.3411,-34.0511,792.48 18.33999,-34.04526,731.52 18.33893,-34.03903,701.0400000000001 18.33773,-34.03341,670.5600000000001 18.33601,-34.02736,670.5600000000001 18.33433,-34.02155,640.08 18.33309,-34.01563,640.08 18.33309,-34.00943,640.08 18.33416,-34.00351,609.6 18.33859,-33.98808,609.6 18.3433,-33.97467,609.6 18.34763,-33.95846,609.6 18.35197,-33.94631,609.6 18.35468,-33.94002,609.6 18.36057,-33.92789,640.08 18.36393,-33.92271,609.6 18.36752,-33.91772,609.6 18.37126,-33.91275,579.12 18.37497,-33.90761,548.64 18.37887,-33.90269,548.64 18.38333,-33.89762,548.64 18.3882,-33.89346,548.64 18.39386,-33.8898,518.1600000000001 18.39993,-33.88659,518.1600000000001 18.40588,-33.88416,518.1600000000001 18.41331,-33.88275,487.68 18.42098,-33.8823,487.68 18.42822,-33.88257,457.20000000000005 18.43534,-33.8838,457.20000000000005 18.44134,-33.88655,426.72 18.4453,-33.88998,426.72 18.44604,-33.89417,396.24 18.4425,-33.8965,335.28000000000003 18.43781,-33.89771,243.84 18.43299,-33.89896,152.4 18.42716,-33.90102,60.96 18.42854,-33.89757,91.44 18.43125,-33.89406,152.4 18.43343,-33.89012,182.88 18.43422,-33.88554,213.36 18.4326,-33.88118,243.84 18.429,-33.87744,274.32 18.42361,-33.87546,304.8 18.41784,-33.87523,335.28000000000003 18.41234,-33.87597,396.24 18.40776,-33.87712,457.20000000000005 18.40342,-33.8789,518.1600000000001 18.3989,-33.88132,548.64 18.39403,-33.88426,548.64 18.38934,-33.88742,579.12 18.38482,-33.89101,609.6 18.38047,-33.89482,640.08 18.37646,-33.8992,640.08 18.37278,-33.90381,640.08 18.36926,-33.90856,640.08 18.36516,-33.91452,670.5600000000001 18.36222,-33.91945,670.5600000000001 18.35947,-33.92453,670.5600000000001 18.35707,-33.9295,701.0400000000001 18.35457,-33.93512,701.0400000000001 18.35036,-33.94505,701.0400000000001 18.34207,-33.96689,701.0400000000001 18.34072,-33.97847,731.52 18.3479,-33.96671,670.5600000000001 18.35361,-33.95013,670.5600000000001 18.35638,-33.94245,640.08 18.35877,-33.93718,640.08 18.36163,-33.93164,640.08 18.36421,-33.92651,640.08 18.36695,-33.92125,609.6 18.3704,-33.916,609.6 18.37395,-33.91121,579.12 18.37777,-33.90642,548.64 18.38231,-33.90115,518.1600000000001 18.38691,-33.89667,518.1600000000001 18.39179,-33.89314,518.1600000000001 18.39756,-33.89008,518.1600000000001 18.40378,-33.88774,518.1600000000001 18.41028,-33.88591,487.68 18.41721,-33.88472,487.68 18.42407,-33.88431,487.68 18.4313,-33.88486,457.20000000000005 18.43775,-33.88687,457.20000000000005 18.44278,-33.88998,457.20000000000005 18.4452,-33.89374,396.24 18.44301,-33.89645,365.76 18.43924,-33.89757,304.8 18.43534,-33.8985,213.36 18.43142,-33.89928,152.4 18.4271,-33.90022,91.44 18.4271,-33.90074,91.44 18.42929,-33.89658,121.92 18.43128,-33.8932,182.88 18.43317,-33.88956,213.36 18.43371,-33.88513,243.84 18.43157,-33.88123,274.32 18.42768,-33.87778,304.8 18.42236,-33.87555,335.28000000000003 18.41675,-33.87537,365.76 18.41091,-33.87672,396.24 18.40593,-33.87872,457.20000000000005 18.40113,-33.88105,487.68 18.39638,-33.88371,518.1600000000001 18.39167,-33.88664,518.1600000000001 18.38722,-33.88966,548.64 18.38248,-33.89314,579.12 18.37811,-33.8969,579.12 18.37372,-33.9012,609.6 18.3697,-33.90564,609.6 18.36628,-33.91019,609.6 18.36319,-33.91484,609.6 18.36023,-33.91988,640.08 18.35743,-33.92519,640.08 18.3549,-33.93059,640.08 18.35129,-33.93872,609.6 18.34156,-33.96521,609.6 18.33192,-33.99174,670.5600000000001 18.32994,-34.00129,701.0400000000001 18.32929,-34.00653,731.52 18.32926,-34.01176,731.52 18.33063,-34.01738,731.52 18.33424,-34.02242,701.0400000000001 18.33824,-34.0274,701.0400000000001 18.34093,-34.03257,701.0400000000001 18.3424,-34.03839,670.5600000000001 18.34274,-34.04457,670.5600000000001 18.34173,-34.05119,670.5600000000001 18.33887,-34.05789,670.5600000000001 18.33714,-34.06352,701.0400000000001 18.34156,-34.0648,701.0400000000001 18.34316,-34.05957,670.5600000000001 18.3428,-34.05354,640.08 18.34212,-34.0475,609.6 18.34133,-34.04109,609.6 18.33967,-34.03434,609.6 18.33758,-34.0285,579.12 18.33601,-34.02292,579.12 18.33332,-34.0173,579.12 18.33092,-34.01009,609.6 18.33092,-34.00418,579.12 18.33338,-33.99467,579.12 18.34219,-33.97676,579.12 18.35311,-33.95384,640.08 18.3549,-33.94872,640.08 18.3569,-33.94342,640.08 18.3589,-33.93844,640.08 18.36102,-33.93281,640.08 18.36438,-33.92413,640.08 18.36668,-33.91912,640.08 18.36953,-33.91379,609.6 18.37278,-33.90871,609.6 18.37687,-33.90367,579.12 18.38121,-33.89934,548.64 18.38665,-33.89492,548.64 18.39254,-33.89147,487.68 18.39924,-33.88857,487.68 18.40559,-33.88663,548.64 18.4116,-33.88528,548.64 18.41791,-33.88458,548.64 18.4251,-33.88421,518.1600000000001 18.43164,-33.88449,518.1600000000001 18.43803,-33.88591,487.68 18.44352,-33.88879,457.20000000000005 18.44677,-33.89301,396.24 18.44459,-33.89594,365.76 18.44033,-33.89731,304.8 18.43586,-33.89836,213.36 18.43203,-33.89928,152.4 18.42739,-33.90009,91.44 18.42706,-33.90115,0 18.42842,-33.89855,91.44 18.43054,-33.8952,121.92 18.43243,-33.89161,182.88 18.43328,-33.88737,213.36 18.43287,-33.88316,274.32 18.43052,-33.87932,304.8 18.42619,-33.87676,365.76 18.4206,-33.87524,396.24 18.41469,-33.87527,426.72 18.40914,-33.87648,457.20000000000005 18.4041,-33.87816,487.68 18.39846,-33.88051,518.1600000000001 18.39323,-33.88295,548.64 18.38814,-33.88575,548.64 18.38343,-33.88911,579.12 18.37912,-33.89264,579.12 18.37469,-33.89667,609.6 18.37109,-33.90046,640.08 18.36774,-33.90454,670.5600000000001 18.36433,-33.90907,670.5600000000001 18.36159,-33.91368,670.5600000000001 18.35878,-33.9188,670.5600000000001 18.35552,-33.9255,670.5600000000001 18.34877,-33.9403,701.0400000000001 18.34431,-33.95146,731.52 18.33579,-33.97678,792.48 18.34532,-33.96794,731.52 18.35077,-33.95683,701.0400000000001 18.35328,-33.95073,670.5600000000001 18.35546,-33.94487,670.5600000000001 18.35776,-33.93901,670.5600000000001 18.36027,-33.93314,640.08 18.36267,-33.9276,640.08 18.36667,-33.91878,640.08 18.36931,-33.91374,670.5600000000001 18.37267,-33.90852,670.5600000000001 18.37646,-33.90358,640.08 18.38093,-33.89883,640.08 18.38511,-33.8951,640.08 18.39077,-33.89082,640.08 18.39644,-33.88747,640.08 18.40204,-33.88513,640.08 18.40855,-33.88321,609.6 18.41494,-33.88206,609.6 18.42207,-33.88156,609.6 18.42872,-33.88225,609.6 18.4346,-33.88403,579.12 18.43964,-33.88659,548.64 18.44341,-33.88989,518.1600000000001 18.44588,-33.89397,457.20000000000005 18.44431,-33.89745,396.24 18.44061,-33.89822,304.8 18.43618,-33.89845,243.84 18.43041,-33.89941,121.92 18.42688,-33.90036,91.44 18.4285,-33.89822,121.92 18.43046,-33.89548,182.88 18.43248,-33.89245,243.84 18.4346,-33.88882,304.8 18.43612,-33.88477,335.28000000000003 18.43534,-33.88037,365.76 18.43266,-33.87602,396.24 18.42839,-33.87263,426.72 18.4227,-33.87094,457.20000000000005 18.41656,-33.8709,487.68 18.41107,-33.87195,518.1600000000001 18.40462,-33.87383,579.12 18.39935,-33.87583,609.6 18.39425,-33.87808,640.08 18.38921,-33.8806,670.5600000000001 18.38493,-33.88365,701.0400000000001 18.3807,-33.88724,731.52 18.37671,-33.8909,762 18.37292,-33.89473,792.48 18.36959,-33.89841,822.96 18.36622,-33.90227,822.96 18.36285,-33.90641,822.96 18.3593,-33.91103,853.44 18.35615,-33.91545,853.44 18.35335,-33.9201,853.44 18.35169,-33.92592,822.96 18.351,-33.93155,822.96 18.34902,-33.94002,822.96 18.34728,-33.94542,822.96 18.34534,-33.9505,822.96 18.34302,-33.95549,822.96 18.33344,-33.97536,792.48 18.3276,-33.98979,822.96 18.32628,-33.99598,822.96 18.32564,-34.0015,822.96 18.32577,-34.00734,822.96 18.32671,-34.01312,822.96 18.32828,-34.01889,822.96 18.33006,-34.02447,822.96 18.33172,-34.03024,822.96 18.33557,-34.04645,792.48 18.33664,-34.05338,792.48 18.33721,-34.05939,762 18.33753,-34.06522,762 18.33841,-34.07991,731.52 18.33999,-34.08591,731.52 18.34288,-34.09095,731.52 18.34722,-34.09593,701.0400000000001 18.35209,-34.09975,701.0400000000001 18.35743,-34.10307,701.0400000000001 18.36269,-34.106,701.0400000000001 18.36836,-34.10889,701.0400000000001 18.3744,-34.11176,701.0400000000001 18.38607,-34.11708,701.0400000000001 18.39145,-34.11937,731.52 18.39769,-34.12158,701.0400000000001 18.40316,-34.12564,701.0400000000001 18.40794,-34.13038,670.5600000000001 18.41331,-34.1335,640.08 18.41978,-34.13587,640.08 18.42626,-34.13782,640.08 18.43282,-34.13924,640.08 18.4396,-34.1391,640.08 18.44599,-34.13694,640.08 18.45228,-34.13354,609.6 18.4581,-34.1299,609.6 18.46327,-34.12628,640.08 18.46779,-34.12242,640.08 18.47217,-34.11758,640.08 18.47519,-34.11186,670.5600000000001 18.4762,-34.10559,670.5600000000001 18.47506,-34.09891,640.08 18.47357,-34.09309,640.08 18.47217,-34.08673,579.12 18.47162,-34.08075,579.12 18.47145,-34.07428,548.64 18.47151,-34.06562,518.1600000000001 18.47219,-34.05152,518.1600000000001 18.47323,-34.04503,518.1600000000001 18.47435,-34.03889,518.1600000000001 18.47609,-34.02988,487.68 18.47866,-34.02349,487.68 18.48106,-34.01791,487.68 18.48366,-34.01161,487.68 18.48567,-34.00557,487.68 18.48764,-33.99952,487.68 18.48949,-33.9933,518.1600000000001 18.49083,-33.98712,518.1600000000001 18.49201,-33.9808,518.1600000000001 18.49234,-33.97417,518.1600000000001 18.49154,-33.96805,518.1600000000001 18.49016,-33.96158,518.1600000000001 18.48842,-33.95531,487.68 18.48604,-33.94892,487.68 18.48352,-33.94296,487.68 18.48041,-33.93677,457.20000000000005 18.47689,-33.93072,457.20000000000005 18.47306,-33.92528,457.20000000000005 18.4687,-33.92001,457.20000000000005 18.4639,-33.91465,426.72 18.45866,-33.90903,396.24 18.45417,-33.90381,396.24 18.44902,-33.89952,365.76 18.44416,-33.8985,365.76 18.43958,-33.89864,304.8 18.43546,-33.89901,243.84 18.43142,-33.89946,182.88 18.42785,-33.89999,121.92 18.42715,-33.90104,0
        </coordinates>
      </LineString>
    </Placemark>
  </Document>
</kml>