<?xml version="1.0" encoding="UTF-8"?>
<kml xmlns="http://www.opengis.net/kml/2.2">
  <Document>
    <name>FR24 41dc03d6 - Optimised</name>
    <description><![CDATA[Optimised flight path with 388 points (decimated from 1938 original points). Source format: Standard KML]]></description>
    
    <Style id="flightPath">
      <LineStyle>
        <color>ffff0000</color>
        <width>3</width>
      </LineStyle>
    </Style>
    
    <Placemark>
      <name>Flight Path</name>
      <description><![CDATA[Optimized flight path]]></description>
      <styleUrl>#flightPath</styleUrl>
      <LineString>
        <extrude>1</extrude>
        <tessellate>1</tessellate>
        <altitudeMode>absolute</altitudeMode>
        <coordinates>
          18.47769,-34.23898,0 18.48175,-34.23652,0 18.48135,-34.23088,0 18.47856,-34.22475,0 18.47553,-34.21829,0 18.47248,-34.21189,0 18.46858,-34.20387,0 18.46443,-34.19614,0 18.46039,-34.18977,0 18.45709,-34.18423,0 18.45434,-34.17902,0 18.45394,-34.17255,0 18.45451,-34.16566,0 18.4556,-34.15905,0 18.45732,-34.15202,0 18.45927,-34.145,0 18.46129,-34.13837,0 18.46348,-34.1321,0 18.46858,-34.11726,0 18.46991,-34.11036,0 18.47004,-34.10307,0 18.46836,-34.09607,0 18.46449,-34.08902,0 18.45984,-34.08313,0 18.45451,-34.07698,0 18.44994,-34.07144,0 18.44387,-34.06577,0 18.4368,-34.06169,0 18.4299,-34.05835,0 18.42256,-34.05551,0 18.416,-34.05282,0 18.41051,-34.04984,0 18.40628,-34.04621,0 18.40423,-34.0421,0 18.40602,-34.03944,0 18.4086,-34.03958,0 18.41034,-34.03981,0 18.41183,-34.03993,0 18.41079,-34.04137,0 18.41129,-34.0448,0 18.41303,-34.04728,0 18.41566,-34.04998,0 18.41903,-34.0529,0 18.42276,-34.05576,0 18.42676,-34.05853,0 18.43094,-34.06125,0 18.43467,-34.06389,0 18.43825,-34.06677,0 18.44179,-34.06984,0 18.44515,-34.07281,0 18.44801,-34.07561,0 18.45115,-34.07826,0 18.45412,-34.08115,0 18.45574,-34.08417,0 18.458,-34.0869,0 18.46028,-34.08929,0 18.46269,-34.09181,0 18.46437,-34.09406,0 18.46516,-34.09543,0 18.46533,-34.09712,0 18.46521,-34.10031,0 18.46505,-34.10417,0 18.46421,-34.10889,0 18.4632,-34.11346,0 18.46196,-34.11841,0 18.45972,-34.12514,0 18.45789,-34.13005,0 18.45617,-34.13508,0 18.45412,-34.13979,0 18.45177,-34.14458,0 18.44986,-34.14917,0 18.44896,-34.1543,0 18.44941,-34.15892,0 18.45053,-34.16318,0 18.45205,-34.1672,0 18.45372,-34.17123,0 18.45554,-34.17525,0 18.45742,-34.17883,0 18.45922,-34.18222,0 18.46079,-34.18552,0 18.46589,-34.19641,0 18.46825,-34.20235,0 18.46942,-34.20593,0 18.47214,-34.21417,0 18.47318,-34.21742,0 18.47413,-34.22067,0 18.475,-34.22381,0 18.4758,-34.22637,0 18.47626,-34.22856,0 18.47626,-34.23042,0 18.47609,-34.232,0 18.47557,-34.23391,0 18.4774,-34.24085,0 18.47883,-34.2401,0 18.4785,-34.23825,0 18.47592,-34.23573,0 18.47519,-34.23029,0 18.47437,-34.22539,0 18.47288,-34.2199,0 18.47105,-34.21422,0 18.46876,-34.20807,0 18.46355,-34.19574,0 18.46052,-34.19024,0 18.45759,-34.18456,0 18.45552,-34.17796,0 18.4544,-34.17097,0 18.45417,-34.16371,0 18.45462,-34.15659,0 18.45589,-34.15002,0 18.45776,-34.14336,0 18.45989,-34.13755,0 18.46258,-34.13145,0 18.46567,-34.1254,0 18.46863,-34.11909,0 18.47138,-34.11191,0 18.47177,-34.10399,0 18.46996,-34.09644,0 18.46601,-34.08992,0 18.4618,-34.08371,0 18.45549,-34.07805,0 18.44857,-34.07314,0 18.44181,-34.06851,0 18.435,-34.06376,0 18.42777,-34.05936,0 18.42037,-34.05528,0 18.41372,-34.05166,0 18.40736,-34.04784,0 18.40221,-34.04403,0 18.39874,-34.04031,0 18.39872,-34.03727,0 18.40073,-34.03658,0 18.40272,-34.03683,0 18.40439,-34.03727,0 18.40593,-34.03778,0 18.40748,-34.03837,0 18.40862,-34.03886,0 18.41022,-34.03955,0 18.41143,-34.03983,0 18.41259,-34.03987,0 18.40965,-34.03965,0 18.40971,-34.03509,0 18.41263,-34.03099,0 18.41646,-34.02675,0 18.42071,-34.02269,0 18.4251,-34.01833,0 18.42917,-34.01335,0 18.43304,-34.00804,0 18.43775,-34.00287,0 18.44204,-33.9977,0 18.44582,-33.99207,0 18.45039,-33.98658,0 18.45535,-33.98154,0 18.46067,-33.97618,0 18.4659,-33.9714,0 18.47127,-33.96611,0 18.47581,-33.95975,0 18.47832,-33.95222,0 18.4782,-33.94431,0 18.47591,-33.93644,0 18.47242,-33.92937,0 18.46762,-33.92253,0 18.46212,-33.91587,0 18.45658,-33.90944,0 18.44313,-33.8952,0 18.43729,-33.88984,0 18.43351,-33.89115,0 18.43388,-33.89392,0 18.43391,-33.89655,0 18.42796,-33.89925,0 18.43035,-33.9007,0 18.43517,-33.90129,0 18.43915,-33.90083,0 18.44302,-33.89758,0 18.44448,-33.89232,0 18.44173,-33.88678,0 18.43624,-33.88188,0 18.43168,-33.87667,0 18.43355,-33.87332,0 18.43399,-33.87369,0 18.42882,-33.87518,0 18.4211,-33.87634,0 18.41387,-33.87735,0 18.40288,-33.87895,0 18.39571,-33.88101,0 18.3894,-33.88323,0 18.38366,-33.88596,0 18.3785,-33.88911,0 18.37366,-33.89296,0 18.36943,-33.89711,0 18.36561,-33.90157,0 18.36219,-33.9061,0 18.35883,-33.91068,0 18.35406,-33.9174,0 18.35132,-33.92207,0 18.35266,-33.92476,0 18.35496,-33.92363,0 18.35495,-33.92075,0 18.35032,-33.92029,0 18.34588,-33.9245,0 18.34265,-33.9302,0 18.33977,-33.93553,0 18.33702,-33.94084,0 18.3252,-33.96524,0 18.31595,-33.98552,0 18.30912,-34.00306,0 18.30437,-34.01907,0 18.30322,-34.02517,0 18.30283,-34.03011,0 18.30362,-34.03624,0 18.30523,-34.04132,0 18.3072,-34.04553,0 18.30978,-34.04947,0 18.31266,-34.05329,0 18.31589,-34.05711,0 18.31902,-34.06069,0 18.32445,-34.06716,0 18.32966,-34.06916,0 18.33321,-34.07209,0 18.33572,-34.07461,0 18.3368,-34.07327,0 18.33495,-34.07098,0 18.33243,-34.06631,0 18.33178,-34.06055,0 18.33613,-34.05812,0 18.33887,-34.06233,0 18.33999,-34.06787,0 18.34106,-34.07323,0 18.34219,-34.07819,0 18.34362,-34.08285,0 18.3456,-34.08733,0 18.34846,-34.09085,0 18.3521,-34.0936,0 18.35672,-34.09598,0 18.36164,-34.09798,0 18.36679,-34.1001,0 18.37183,-34.10231,0 18.3794,-34.10587,0 18.38753,-34.1104,0 18.39212,-34.11282,0 18.39666,-34.11469,0 18.40126,-34.11653,0 18.4058,-34.11868,0 18.41085,-34.12088,0 18.41898,-34.12432,0 18.42888,-34.12796,0 18.43409,-34.12959,0 18.43926,-34.13113,0 18.44507,-34.13131,0 18.45092,-34.12958,0 18.4567,-34.12651,0 18.46241,-34.12221,0 18.46785,-34.11749,0 18.47295,-34.11259,0 18.47797,-34.10687,0 18.47968,-34.09996,0 18.47979,-34.09314,0 18.47969,-34.08583,0 18.48009,-34.07866,0 18.48125,-34.07217,0 18.48259,-34.06544,0 18.48495,-34.05227,0 18.48724,-34.03579,0 18.4878,-34.02704,0 18.48702,-34.01981,0 18.48724,-34.01307,0 18.48646,-34.00552,0 18.48579,-33.99802,0 18.48579,-33.99078,0 18.48629,-33.98373,0 18.48696,-33.97627,0 18.4869,-33.96922,0 18.48623,-33.96153,0 18.48528,-33.95361,0 18.48405,-33.94624,0 18.48186,-33.93867,0 18.47855,-33.93118,0 18.47374,-33.92468,0 18.46768,-33.91841,0 18.46144,-33.91214,0 18.45577,-33.906,0 18.4507,-33.89955,0 18.4461,-33.89333,0 18.43982,-33.88966,0 18.4342,-33.89077,0 18.43299,-33.89406,0 18.43248,-33.89699,0 18.43077,-33.89813,0 18.42762,-33.89962,0 18.42922,-33.9006,0 18.43454,-33.90013,0 18.43848,-33.89708,0 18.43992,-33.8917,0 18.43872,-33.88556,0 18.4364,-33.87955,0 18.43283,-33.87397,0 18.42923,-33.87502,0 18.42878,-33.8774,0 18.42239,-33.87721,0 18.41537,-33.87662,0 18.40821,-33.87634,0 18.40109,-33.87643,0 18.3938,-33.87755,0 18.38774,-33.87951,0 18.38164,-33.88261,0 18.37654,-33.88582,0 18.37194,-33.88925,0 18.36796,-33.89278,0 18.36415,-33.8969,0 18.36067,-33.90106,0 18.35718,-33.90572,0 18.35401,-33.91022,0 18.35227,-33.91283,0 18.35148,-33.91539,0 18.35283,-33.91731,0 18.35541,-33.91573,0 18.35764,-33.91745,0 18.35478,-33.92229,0 18.35049,-33.92755,0 18.34689,-33.93256,0 18.34351,-33.93779,0 18.34016,-33.94286,0 18.33652,-33.94803,0 18.33086,-33.95692,0 18.32308,-33.97382,0 18.32127,-33.9792,0 18.43145,-33.90129,0 18.43343,-33.90088,0 18.43612,-33.89836,0 18.4368,-33.89291,0 18.43649,-33.88654,0 18.43357,-33.88067,0 18.4276,-33.87579,0 18.41921,-33.87257,0 18.41196,-33.87154,0 18.40468,-33.8719,0 18.39838,-33.87318,0 18.39223,-33.87538,0 18.38629,-33.87822,0 18.3811,-33.88105,0 18.37604,-33.88426,0 18.3711,-33.88806,0 18.36679,-33.8917,0 18.36256,-33.89548,0 18.35771,-33.90028,0 18.35434,-33.90523,0 18.35148,-33.91022,0 18.34846,-33.91585,0 18.34562,-33.92145,0 18.34242,-33.92788,0 18.33725,-33.93819,0 18.32914,-33.95469,0 18.31415,-33.98085,0 18.31146,-33.98621,0 18.309,-33.99156,0 18.30643,-33.99715,0 18.30162,-34.00711,0 18.29661,-34.01797,0 18.29325,-34.02328,0 18.29145,-34.02832,0 18.29195,-34.03453,0 18.29706,-34.03271,0 18.30048,-34.02638,0 18.30356,-34.01967,0 18.30717,-34.01218,0 18.31297,-34.0014,0 18.3292,-33.97373,0 18.34268,-33.95027,0 18.34728,-33.94341,0 18.35569,-33.93105,0 18.36777,-33.91452,0 18.37337,-33.90786,0 18.37784,-33.9026,0 18.3845,-33.89474,0 18.39207,-33.88701,0 18.39735,-33.88286,0 18.40333,-33.87996,0 18.4096,-33.87835,0 18.41572,-33.87811,0 18.42149,-33.87881,0 18.42642,-33.88114,0 18.42882,-33.88444,0 18.43069,-33.8877,0 18.43214,-33.89073,0 18.43323,-33.89352,0 18.4336,-33.89607,0 18.43157,-33.89743,0 18.42836,-33.89906,0 18.42682,-33.90064,0
        </coordinates>
      </LineString>
    </Placemark>
  </Document>
</kml>