<?xml version="1.0" encoding="UTF-8"?>
<kml xmlns="http://www.opengis.net/kml/2.2">
  <Document>
    <name>FR24 3fe8a864 - Optimised</name>
    <description><![CDATA[Optimised flight path with 72 points (decimated from 359 original points). Source format: Standard KML]]></description>
    
    <Style id="flightPath">
      <LineStyle>
        <color>ffff0000</color>
        <width>3</width>
      </LineStyle>
    </Style>
    
    <Placemark>
      <name>Flight Path</name>
      <description><![CDATA[Optimized flight path]]></description>
      <styleUrl>#flightPath</styleUrl>
      <LineString>
        <extrude>1</extrude>
        <tessellate>1</tessellate>
        <altitudeMode>absolute</altitudeMode>
        <coordinates>
          18.43207,-33.88129,0 18.34881,-34.03067,0 18.34965,-34.03596,0 18.34989,-34.04195,0 18.34978,-34.04817,0 18.35059,-34.05492,0 18.34578,-34.06412,0 18.3541,-34.08631,0 18.35398,-34.09249,0 18.35398,-34.10037,0 18.35336,-34.10669,0 18.35258,-34.11329,0 18.35229,-34.12025,0 18.3507,-34.12666,0 18.34644,-34.1321,0 18.33865,-34.13411,0 18.32961,-34.13338,0 18.32167,-34.13008,0 18.31876,-34.12426,0 18.3221,-34.11884,0 18.33624,-34.11539,0 18.34913,-34.1163,0 18.35848,-34.11773,0 18.36648,-34.11895,0 18.38081,-34.1209,0 18.39494,-34.12139,0 18.4067,-34.12248,0 18.41526,-34.1245,0 18.42145,-34.12621,0 18.42639,-34.12801,0 18.43213,-34.1308,0 18.43828,-34.13421,0 18.44466,-34.13728,0 18.45336,-34.13867,0 18.46211,-34.13638,0 18.46914,-34.13093,0 18.47292,-34.12429,0 18.47506,-34.11618,0 18.47601,-34.10877,0 18.4767,-34.10162,0 18.47681,-34.09461,0 18.47577,-34.08714,0 18.47134,-34.081,0 18.46673,-34.07475,0 18.4622,-34.06768,0 18.4572,-34.06077,0 18.45258,-34.05497,0 18.44829,-34.04951,0 18.444,-34.04542,0 18.44003,-34.04237,0 18.43533,-34.04079,0 18.43034,-34.04037,0 18.42698,-34.04057,0 18.42268,-34.04134,0 18.421,-34.04186,0 18.42128,-34.04153,0 18.42643,-34.03545,0 18.43131,-34.03179,0 18.43529,-34.02833,0 18.43864,-34.02362,0 18.4395,-34.01854,0 18.43975,-34.01248,0 18.44237,-34.00664,0 18.44769,-34.00018,0 18.44773,-33.99239,0 18.46454,-33.98247,0 18.46994,-33.97582,0 18.47373,-33.96686,0 18.47675,-33.95864,0 18.4842,-33.95263,0 18.46914,-33.9348,0 18.47108,-33.92276,0
        </coordinates>
      </LineString>
    </Placemark>
  </Document>
</kml>