<?xml version="1.0" encoding="UTF-8"?>
<kml xmlns="http://www.opengis.net/kml/2.2">
  <Document>
    <name>FR24 3e8f3b77 - Optimised</name>
    <description><![CDATA[Optimised flight path with 443 points (decimated from 2213 original points). Source format: Standard KML]]></description>
    
    <Style id="flightPath">
      <LineStyle>
        <color>ffff0000</color>
        <width>3</width>
      </LineStyle>
    </Style>
    
    <Placemark>
      <name>Flight Path</name>
      <description><![CDATA[Optimized flight path]]></description>
      <styleUrl>#flightPath</styleUrl>
      <LineString>
        <extrude>1</extrude>
        <tessellate>1</tessellate>
        <altitudeMode>absolute</altitudeMode>
        <coordinates>
          18.4313,-33.89424,0 18.43579,-33.88628,0 18.43781,-33.88272,0 18.44111,-33.88078,0 18.44444,-33.8823,0 18.44363,-33.88518,0 18.43981,-33.88496,0 18.43523,-33.88271,0 18.43082,-33.88044,0 18.42539,-33.87825,0 18.41992,-33.8768,0 18.41434,-33.87583,0 18.40888,-33.87552,0 18.40344,-33.87589,0 18.3975,-33.87698,0 18.39139,-33.87863,0 18.38556,-33.88074,0 18.38013,-33.88323,0 18.37481,-33.88659,0 18.37,-33.8904,0 18.36582,-33.89426,0 18.36157,-33.89854,0 18.35815,-33.90257,0 18.35484,-33.9073,0 18.35197,-33.91182,0 18.34877,-33.91689,0 18.34522,-33.92303,0 18.3423,-33.92755,0 18.34122,-33.93151,0 18.34465,-33.9336,0 18.34879,-33.93182,0 18.35375,-33.93034,0 18.35684,-33.93365,0 18.4735,-34.07625,0 18.47367,-34.07021,0 18.47413,-34.06431,0 18.47441,-34.05163,0 18.47465,-34.03924,0 18.47535,-34.03323,0 18.47561,-34.02715,0 18.47559,-34.01879,0 18.47726,-34.00026,0 18.47877,-33.98288,0 18.47937,-33.977,0 18.48143,-33.97006,0 18.48125,-33.96382,0 18.48204,-33.95795,0 18.48198,-33.95213,0 18.48108,-33.94597,0 18.4798,-33.94026,0 18.47811,-33.93443,0 18.47569,-33.9289,0 18.47219,-33.92392,0 18.46802,-33.91928,0 18.46373,-33.91475,0 18.45782,-33.90825,0 18.45263,-33.90339,0 18.44818,-33.9006,0 18.44268,-33.89928,0 18.43781,-33.89914,0 18.43433,-33.89923,0 18.43203,-33.89934,0 18.43063,-33.89946,0 18.42816,-33.89978,0 18.42682,-33.90051,0 18.43391,-33.89068,0 18.43637,-33.88598,0 18.43764,-33.88197,0 18.4366,-33.87797,0 18.43343,-33.87529,0 18.42962,-33.87396,0 18.42556,-33.87364,0 18.42127,-33.87341,0 18.41634,-33.8735,0 18.4108,-33.87448,0 18.40406,-33.87584,0 18.39728,-33.87753,0 18.39083,-33.87968,0 18.38439,-33.88229,0 18.37811,-33.8855,0 18.37252,-33.88929,0 18.3676,-33.8932,0 18.36325,-33.89749,0 18.35984,-33.90189,0 18.35644,-33.90702,0 18.35346,-33.912,0 18.35083,-33.91698,0 18.34803,-33.92243,0 18.34259,-33.93481,0 18.33961,-33.94547,0 18.34324,-33.94872,0 18.349,-33.94668,0 18.353,-33.94198,0 18.35667,-33.93644,0 18.36034,-33.9305,0 18.36433,-33.92429,0 18.36977,-33.91629,0 18.37721,-33.90683,0 18.38161,-33.90218,0 18.38652,-33.89772,0 18.39223,-33.89342,0 18.39838,-33.8905,0 18.40518,-33.88866,0 18.41202,-33.88733,0 18.41903,-33.88632,0 18.42585,-33.8857,0 18.4327,-33.88577,0 18.43843,-33.88756,0 18.44234,-33.89117,0 18.44279,-33.89552,0 18.43977,-33.89827,0 18.43663,-33.89886,0 18.43454,-33.89911,0 18.43248,-33.89929,0 18.43054,-33.89943,0 18.42828,-33.89964,0 18.42705,-33.90018,0 18.42699,-33.90032,0 18.42836,-33.89859,0 18.4294,-33.89708,0 18.43035,-33.89566,0 18.43117,-33.89426,0 18.43287,-33.89145,0 18.43494,-33.88807,0 18.43691,-33.88431,0 18.43691,-33.88065,0 18.43489,-33.87765,0 18.43163,-33.8763,0 18.42796,-33.87597,0 18.42402,-33.87584,0 18.41961,-33.87597,0 18.41515,-33.87611,0 18.40989,-33.87634,0 18.40376,-33.87676,0 18.39784,-33.87749,0 18.39134,-33.879,0 18.38591,-33.88142,0 18.38076,-33.88467,0 18.37566,-33.88845,0 18.37099,-33.89214,0 18.36662,-33.89627,0 18.36285,-33.90032,0 18.3593,-33.90465,0 18.35604,-33.90916,0 18.353,-33.91402,0 18.35048,-33.91882,0 18.34795,-33.92372,0 18.34515,-33.9288,0 18.34263,-33.93352,0 18.34027,-33.93842,0 18.33818,-33.94333,0 18.33585,-33.94844,0 18.33557,-33.95334,0 18.33882,-33.95737,0 18.34465,-33.95893,0 18.35083,-33.95548,0 18.35409,-33.94962,0 18.35686,-33.94336,0 18.35944,-33.93732,0 18.36292,-33.92757,0 18.36544,-33.9218,0 18.36857,-33.91647,0 18.37229,-33.9114,0 18.37648,-33.90651,0 18.38086,-33.90175,0 18.385,-33.89758,0 18.39014,-33.89329,0 18.39621,-33.88984,0 18.40266,-33.88724,0 18.40984,-33.88472,0 18.41646,-33.88286,0 18.42368,-33.88257,0 18.43001,-33.88358,0 18.43596,-33.88564,0 18.44049,-33.8884,0 18.44336,-33.89222,0 18.44307,-33.89618,0 18.44004,-33.89855,0 18.43672,-33.89915,0 18.43483,-33.89937,0 18.43294,-33.89952,0 18.43108,-33.89964,0 18.42934,-33.89981,0 18.42785,-33.89994,0 18.42688,-33.90074,0 18.43511,-33.88893,0 18.43735,-33.88412,0 18.43626,-33.88072,0 18.43293,-33.87817,0 18.42813,-33.87681,0 18.42312,-33.87616,0 18.41749,-33.87579,0 18.4123,-33.87579,0 18.40658,-33.87616,0 18.40087,-33.87708,0 18.39532,-33.87849,0 18.38982,-33.8806,0 18.38465,-33.88333,0 18.38001,-33.88669,0 18.37547,-33.8904,0 18.37088,-33.89433,0 18.36695,-33.89827,0 18.36325,-33.90283,0 18.36016,-33.90702,0 18.3573,-33.91149,0 18.35461,-33.91638,0 18.35186,-33.92141,0 18.34528,-33.93509,0 18.3387,-33.95069,0 18.34022,-33.95586,0 18.34621,-33.95741,0 18.3518,-33.95409,0 18.35496,-33.94839,0 18.35752,-33.9424,0 18.36006,-33.93645,0 18.36398,-33.92583,0 18.36639,-33.92029,0 18.36954,-33.9147,0 18.37295,-33.90976,0 18.37715,-33.90483,0 18.38213,-33.90018,0 18.38747,-33.89598,0 18.39308,-33.89273,0 18.3997,-33.8904,0 18.40619,-33.88884,0 18.41314,-33.88752,0 18.42001,-33.88644,0 18.42676,-33.88564,0 18.43294,-33.88556,0 18.43878,-33.88672,0 18.44347,-33.88943,0 18.44504,-33.89337,0 18.44352,-33.89644,0 18.43981,-33.89804,0 18.43592,-33.89874,0 18.43357,-33.89906,0 18.43197,-33.89939,0 18.43046,-33.89964,0 18.42813,-33.89994,0 18.42699,-33.90028,0 18.4271,-33.90009,0 18.42856,-33.89822,0 18.42979,-33.89662,0 18.43181,-33.89365,0 18.43405,-33.8903,0 18.43637,-33.88635,0 18.43735,-33.88249,0 18.43562,-33.87904,0 18.4327,-33.87694,0 18.42854,-33.87592,0 18.42407,-33.87575,0 18.41955,-33.87602,0 18.41471,-33.87643,0 18.40874,-33.87704,0 18.40313,-33.87778,0 18.39739,-33.87918,0 18.39179,-33.88124,0 18.38705,-33.88365,0 18.38265,-33.88678,0 18.37818,-33.8904,0 18.37374,-33.89456,0 18.36964,-33.89886,0 18.3655,-33.90353,0 18.36193,-33.90795,0 18.35849,-33.91264,0 18.35535,-33.91745,0 18.35266,-33.92229,0 18.35019,-33.92715,0 18.34762,-33.93219,0 18.34504,-33.9375,0 18.34042,-33.94738,0 18.33864,-33.95455,0 18.34274,-33.95883,0 18.34923,-33.95842,0 18.35294,-33.95338,0 18.35496,-33.94762,0 18.35712,-33.94124,0 18.35967,-33.93507,0 18.36245,-33.92997,0 18.36536,-33.92471,0 18.3688,-33.91891,0 18.37223,-33.91391,0 18.37669,-33.90828,0 18.38127,-33.9033,0 18.38636,-33.89892,0 18.39207,-33.89511,0 18.39798,-33.8924,0 18.40456,-33.8905,0 18.4112,-33.88887,0 18.41802,-33.88751,0 18.42459,-33.88631,0 18.431,-33.88579,0 18.43706,-33.88705,0 18.44193,-33.89035,0 18.44301,-33.89482,0 18.44084,-33.89776,0 18.43719,-33.89868,0 18.43357,-33.89911,0 18.43209,-33.89932,0 18.43057,-33.89955,0 18.42928,-33.89976,0 18.42777,-33.89992,0 18.42688,-33.9006,0 18.42715,-33.9001,0 18.42833,-33.8985,0 18.42951,-33.89697,0 18.43142,-33.89452,0 18.43338,-33.89159,0 18.43534,-33.88806,0 18.437,-33.88398,0 18.43901,-33.8796,0 18.44313,-33.87681,0 18.44711,-33.87813,0 18.44661,-33.88152,0 18.44221,-33.88258,0 18.43678,-33.88188,0 18.43091,-33.88083,0 18.42533,-33.87993,0 18.41927,-33.87918,0 18.41291,-33.87867,0 18.40597,-33.8784,0 18.3993,-33.87872,0 18.39302,-33.87987,0 18.38685,-33.88197,0 18.38181,-33.88426,0 18.37688,-33.88715,0 18.37245,-33.89076,0 18.36823,-33.89468,0 18.36438,-33.89891,0 18.36113,-33.90288,0 18.35782,-33.90738,0 18.35171,-33.91626,0 18.34795,-33.92276,0 18.34543,-33.92752,0 18.34252,-33.93224,0 18.53122,-34.32367,0 18.50742,-34.36089,0 18.50389,-34.36328,0 18.49935,-34.3645,0 18.49453,-34.36487,0 18.48885,-34.36463,0 18.48347,-34.36403,0 18.47844,-34.36354,0 18.47345,-34.36253,0 18.46888,-34.36207,0 18.46859,-34.36435,0 18.47256,-34.36491,0 18.47749,-34.36523,0 18.48238,-34.36565,0 18.4881,-34.36621,0 18.49428,-34.36677,0 18.49972,-34.36663,0 18.50424,-34.36496,0 18.50697,-34.36139,0 18.50767,-34.35695,0 18.50613,-34.3522,0 18.50292,-34.34689,0 18.49909,-34.34135,0 18.49554,-34.33614,0 18.49279,-34.33095,0 18.49167,-34.32573,0 18.49044,-34.32065,0 18.48701,-34.31747,0 18.48186,-34.31696,0 18.47682,-34.31776,0 18.47443,-34.32031,0 18.47654,-34.32303,0 18.48013,-34.32161,0 18.47969,-34.31757,0 18.4782,-34.31273,0 18.47843,-34.30765,0 18.48001,-34.30202,0 18.48192,-34.29573,0 18.48338,-34.29025,0 18.48473,-34.28419,0 18.48564,-34.27772,0 18.48629,-34.27144,0 18.48713,-34.26279,0 18.48804,-34.25421,0 18.48879,-34.24527,0 18.48856,-34.23908,0 18.48741,-34.23294,0 18.48541,-34.22702,0 18.48281,-34.22108,0 18.47992,-34.21519,0 18.47631,-34.20891,0 18.47233,-34.20296,0 18.46825,-34.19737,0 18.46387,-34.19197,0 18.45967,-34.1868,0 18.4563,-34.18108,0 18.45583,-34.17447,0 18.45709,-34.16864,0 18.45899,-34.16277,0 18.46118,-34.15686,0 18.46359,-34.15036,0 18.46779,-34.13841,0 18.47413,-34.12083,0 18.4754,-34.11446,0 18.47597,-34.10826,0 18.47631,-34.10225,0 18.4753,-34.09612,0 18.47295,-34.09021,0 18.47042,-34.08401,0 18.46687,-34.07428,0 18.46498,-34.06744,0 18.46376,-34.06073,0 18.46304,-34.05441,0 18.46287,-34.04775,0 18.46321,-34.04114,0 18.46361,-34.03467,0 18.46441,-34.02419,0 18.46481,-34.01772,0 18.4651,-34.01167,0 18.46567,-34.00557,0 18.46729,-33.99394,0 18.46893,-33.98681,0 18.47076,-33.98001,0 18.47277,-33.9741,0 18.47414,-33.96814,0 18.47648,-33.96249,0 18.47895,-33.95659,0 18.48052,-33.9505,0 18.48078,-33.94445,0 18.48029,-33.93851,0 18.4785,-33.93269,0 18.47557,-33.92713,0 18.47211,-33.92166,0 18.46858,-33.91695,0 18.46521,-33.91209,0 18.4618,-33.90724,0 18.45823,-33.90274,0 18.45531,-33.89869,0 18.45194,-33.89618,0 18.45045,-33.89762,0 18.44868,-33.89939,0 18.44456,-33.89911,0 18.44055,-33.89874,0 18.43663,-33.89868,0 18.43382,-33.89886,0 18.43158,-33.89914,0 18.43008,-33.89943,0 18.42794,-33.90033,0
        </coordinates>
      </LineString>
    </Placemark>
  </Document>
</kml>