<?xml version="1.0" encoding="UTF-8"?>
<kml xmlns="http://www.opengis.net/kml/2.2">
  <Document>
    <name>FR24 41b7ec9a - Optimised</name>
    <description><![CDATA[Optimised flight path with 160 points (decimated from 796 original points). Source format: Standard KML]]></description>
    
    <Style id="flightPath">
      <LineStyle>
        <color>ffff0000</color>
        <width>3</width>
      </LineStyle>
    </Style>
    
    <Placemark>
      <name>Flight Path</name>
      <description><![CDATA[Optimized flight path]]></description>
      <styleUrl>#flightPath</styleUrl>
      <LineString>
        <extrude>1</extrude>
        <tessellate>1</tessellate>
        <altitudeMode>absolute</altitudeMode>
        <coordinates>
          18.43643,-33.88465,0 18.40664,-33.87074,0 18.39919,-33.87484,0 18.407,-33.87484,0 18.42092,-33.88256,0 18.4197,-33.8872,0 18.40219,-33.88682,0 18.39498,-33.88873,0 18.38993,-33.89162,0 18.38246,-33.8952,0 18.37529,-33.89996,0 18.36892,-33.90478,0 18.36354,-33.90956,0 18.35946,-33.91442,0 18.35559,-33.91923,0 18.35122,-33.92523,0 18.34882,-33.9378,0 18.35953,-33.95279,0 18.34813,-33.96363,0 18.34135,-34.00196,0 18.34177,-34.0108,0 18.34573,-34.01485,0 18.35033,-34.01978,0 18.35064,-34.02473,0 18.34993,-34.02944,0 18.3492,-34.03431,0 18.34759,-34.03891,0 18.3463,-34.0434,0 18.34433,-34.04875,0 18.34244,-34.05399,0 18.33971,-34.05949,0 18.33583,-34.06498,0 18.33134,-34.07118,0 18.32722,-34.07716,0 18.3235,-34.08246,0 18.3194,-34.08761,0 18.31843,-34.09376,0 18.32487,-34.09247,0 18.32729,-34.08714,0 18.32592,-34.08173,0 18.32184,-34.07667,0 18.31413,-34.07445,0 18.30532,-34.07831,0 18.30228,-34.08574,0 18.30147,-34.09196,0 18.30198,-34.09799,0 18.30469,-34.10256,0 18.30812,-34.10646,0 18.31264,-34.11042,0 18.31577,-34.11401,0 18.31986,-34.11718,0 18.32327,-34.12054,0 18.32676,-34.12459,0 18.33097,-34.12851,0 18.33456,-34.13272,0 18.33872,-34.13772,0 18.34231,-34.14156,0 18.34608,-34.14487,0 18.34896,-34.14838,0 18.35258,-34.15218,0 18.35598,-34.15546,0 18.35763,-34.15904,0 18.3612,-34.162,0 18.36427,-34.16528,0 18.39196,-34.15792,0 18.3818,-34.16887,0 18.37575,-34.17739,0 18.37749,-34.18314,0 18.3809,-34.18748,0 18.38536,-34.19062,0 18.38802,-34.19524,0 18.3903,-34.20015,0 18.39225,-34.20579,0 18.39293,-34.21154,0 18.39388,-34.21686,0 18.39595,-34.22204,0 18.39825,-34.22635,0 18.39994,-34.2309,0 18.40255,-34.23515,0 18.40409,-34.24006,0 18.40656,-34.24516,0 18.40997,-34.24871,0 18.41386,-34.25336,0 18.4175,-34.25808,0 18.42089,-34.26228,0 18.42442,-34.26653,0 18.42774,-34.27086,0 18.43025,-34.27569,0 18.43529,-34.28049,0 18.43574,-34.28961,0 18.44003,-34.2949,0 18.44576,-34.29829,0 18.44921,-34.30377,0 18.45224,-34.30804,0 18.45652,-34.31109,0 18.45981,-34.31567,0 18.46326,-34.31927,0 18.46871,-34.32316,0 18.47501,-34.32737,0 18.47937,-34.33134,0 18.48731,-34.33523,0 18.49125,-34.34112,0 18.49689,-34.34862,0 18.50493,-34.35006,0 18.50673,-34.354,0 18.49203,-34.3701,0 18.47951,-34.37487,0 18.46773,-34.37563,0 18.46496,-34.37281,0 18.47515,-34.37477,0 18.48424,-34.36797,0 18.48929,-34.36715,0 18.49551,-34.36373,0 18.48352,-34.32261,0 18.48846,-34.30553,0 18.51379,-34.26237,0 18.50869,-34.26672,0 18.48993,-34.2645,0 18.47916,-34.26462,0 18.49833,-34.20907,0 18.49756,-34.22343,0 18.46207,-34.16721,0 18.4619,-34.16037,0 18.46194,-34.15359,0 18.4624,-34.14726,0 18.46296,-34.14127,0 18.46382,-34.13563,0 18.46477,-34.12979,0 18.466,-34.12449,0 18.46794,-34.11846,0 18.46955,-34.11319,0 18.4715,-34.10733,0 18.47176,-34.10187,0 18.47228,-34.09567,0 18.4731,-34.08894,0 18.47384,-34.08229,0 18.47428,-34.07568,0 18.47412,-34.06935,0 18.47416,-34.06265,0 18.47517,-34.05587,0 18.47619,-34.04894,0 18.47615,-34.04224,0 18.47647,-34.03545,0 18.477,-34.0286,0 18.47692,-34.02183,0 18.47761,-34.01575,0 18.47834,-34.00857,0 18.47905,-34.00182,0 18.48048,-33.99471,0 18.4813,-33.98643,0 18.48294,-33.97929,0 18.48429,-33.97177,0 18.48372,-33.96423,0 18.47989,-33.9561,0 18.47683,-33.94685,0 18.47182,-33.93559,0 18.46647,-33.92684,0 18.46039,-33.91503,0 18.44659,-33.90698,0 18.43213,-33.89523,0
        </coordinates>
      </LineString>
    </Placemark>
  </Document>
</kml>