<?xml version="1.0" encoding="UTF-8"?>
<kml xmlns="http://www.opengis.net/kml/2.2">
  <Document>
    <name>FR24 3f6c4397 - Optimised</name>
    <description><![CDATA[Optimised flight path with 126 points (decimated from 628 original points). Source format: Standard KML]]></description>
    
    <Style id="flightPath">
      <LineStyle>
        <color>ffff0000</color>
        <width>3</width>
      </LineStyle>
    </Style>
    
    <Placemark>
      <name>Flight Path</name>
      <description><![CDATA[Optimized flight path]]></description>
      <styleUrl>#flightPath</styleUrl>
      <LineString>
        <extrude>1</extrude>
        <tessellate>1</tessellate>
        <altitudeMode>absolute</altitudeMode>
        <coordinates>
          18.4334,-33.88719,0 18.4331,-33.88289,0 18.42951,-33.88198,0 18.42567,-33.88226,0 18.42184,-33.883,0 18.41806,-33.88416,0 18.41423,-33.88542,0 18.40961,-33.88614,0 18.40548,-33.88663,0 18.40158,-33.88761,0 18.39746,-33.88942,0 18.39375,-33.89145,0 18.38977,-33.89369,0 18.3859,-33.8963,0 18.38226,-33.89905,0 18.37867,-33.90225,0 18.37538,-33.9053,0 18.37127,-33.90939,0 18.36735,-33.91374,0 18.36433,-33.91731,0 18.36073,-33.92183,0 18.35726,-33.92647,0 18.35432,-33.93011,0 18.35126,-33.93375,0 18.34391,-33.94287,0 18.3407,-33.9472,0 18.33562,-33.95439,0 18.32617,-33.96945,0 18.32038,-33.97879,0 18.31236,-33.9933,0 18.30866,-34.00148,0 18.30683,-34.00552,0 18.3021,-34.01811,0 18.30082,-34.022,0 18.29963,-34.02686,0 18.29913,-34.0313,0 18.29913,-34.03569,0 18.29975,-34.04036,0 18.30109,-34.0453,0 18.30289,-34.04965,0 18.30511,-34.05417,0 18.30763,-34.05883,0 18.31335,-34.06833,0 18.31644,-34.07242,0 18.31987,-34.07656,0 18.32323,-34.08018,0 18.32708,-34.08401,0 18.3308,-34.08746,0 18.33489,-34.09094,0 18.33887,-34.09402,0 18.34324,-34.09703,0 18.34762,-34.0995,0 18.35226,-34.1017,0 18.35735,-34.1038,0 18.36239,-34.10571,0 18.36679,-34.10756,0 18.37795,-34.11204,0 18.38219,-34.11385,0 18.38635,-34.11571,0 18.39061,-34.11758,0 18.39745,-34.12051,0 18.40328,-34.12303,0 18.40726,-34.12477,0 18.41143,-34.12661,0 18.4156,-34.12847,0 18.42321,-34.13177,0 18.43444,-34.13654,0 18.43898,-34.13777,0 18.4437,-34.13815,0 18.44816,-34.13731,0 18.45234,-34.13531,0 18.45617,-34.13285,0 18.45978,-34.13028,0 18.46325,-34.12761,0 18.46647,-34.12479,0 18.46959,-34.12161,0 18.47239,-34.11827,0 18.47483,-34.11478,0 18.47689,-34.11111,0 18.47861,-34.10706,0 18.47963,-34.10277,0 18.48032,-34.09835,0 18.48078,-34.09402,0 18.48135,-34.08751,0 18.48209,-34.08094,0 18.48293,-34.07597,0 18.48394,-34.07121,0 18.48593,-34.06283,0 18.48803,-34.05281,0 18.48859,-34.04828,0 18.48893,-34.04361,0 18.48909,-34.0388,0 18.48921,-34.02672,0 18.48949,-34.02228,0 18.48971,-34.01775,0 18.49028,-34.00273,0 18.49073,-33.99612,0 18.49072,-33.99152,0 18.49068,-33.98709,0 18.49039,-33.98174,0 18.4901,-33.9771,0 18.48976,-33.97261,0 18.4877,-33.95869,0 18.4864,-33.95352,0 18.48478,-33.94873,0 18.4833,-33.94445,0 18.48041,-33.93672,0 18.4778,-33.93109,0 18.47553,-33.92734,0 18.47306,-33.92381,0 18.47025,-33.92015,0 18.46757,-33.91695,0 18.46401,-33.91326,0 18.46062,-33.90985,0 18.4567,-33.90619,0 18.45294,-33.90312,0 18.44868,-33.90125,0 18.44616,-33.90111,0 18.44391,-33.90115,0 18.44167,-33.90106,0 18.43994,-33.90088,0 18.43763,-33.9006,0 18.43573,-33.90033,0 18.43357,-33.90009,0 18.43097,-33.89978,0 18.429,-33.8996,0
        </coordinates>
      </LineString>
    </Placemark>
  </Document>
</kml>