<?xml version="1.0" encoding="UTF-8"?>
<kml xmlns="http://www.opengis.net/kml/2.2">
  <Document>
    <name>FR24 ZSHIE 3e09f4e4 - Optimised</name>
    <description><![CDATA[Optimised flight path with 333 points (decimated from 1662 original points). Source format: Standard KML]]></description>
    
    <Style id="flightPath">
      <LineStyle>
        <color>ffff0000</color>
        <width>3</width>
      </LineStyle>
    </Style>
    
    <Placemark>
      <name>Flight Path</name>
      <description><![CDATA[Source: ADS-B
Start (SAST): 2026-01-24 10:07:24
End (SAST): 2026-01-24 13:20:14
Points: 1662]]></description>
      <styleUrl>#flightPath</styleUrl>
      <LineString>
        <extrude>1</extrude>
        <tessellate>1</tessellate>
        <altitudeMode>absolute</altitudeMode>
        <coordinates>
          18.42699,-33.89715,45.72 18.43041,-33.89255,91.44 18.43334,-33.88942,114.30000000000001 18.43569,-33.88542,152.4 18.43478,-33.88152,175.26000000000002 18.4317,-33.8779,198.12 18.42682,-33.87648,228.60000000000002 18.422,-33.87552,259.08000000000004 18.41675,-33.87713,289.56 18.41196,-33.87854,327.66 18.40731,-33.88042,358.14000000000004 18.4029,-33.88235,396.24 18.39849,-33.8844,419.1 18.39386,-33.88673,449.58000000000004 18.38945,-33.88924,487.68 18.38545,-33.89194,510.54 18.38127,-33.89492,525.78 18.37559,-33.89914,556.26 18.36514,-33.90758,601.98 18.36119,-33.91126,609.6 18.35731,-33.91502,617.22 18.35175,-33.92094,609.6 18.34831,-33.92517,617.22 18.34476,-33.92974,624.84 18.34117,-33.93475,640.08 18.34083,-33.93901,670.5600000000001 18.34526,-33.94075,670.5600000000001 18.3502,-33.93798,655.32 18.35451,-33.93411,640.08 18.35894,-33.93004,640.08 18.36359,-33.92578,632.46 18.36777,-33.92183,632.46 18.37206,-33.91754,624.84 18.37629,-33.91344,617.22 18.38093,-33.90916,609.6 18.38612,-33.90427,601.98 18.39071,-33.90041,609.6 18.3952,-33.89699,601.98 18.40042,-33.89397,563.88 18.40605,-33.8917,525.78 18.41166,-33.89003,495.3 18.41735,-33.88847,472.44 18.4229,-33.88715,457.20000000000005 18.42844,-33.88632,426.72 18.43397,-33.88602,419.1 18.43929,-33.88663,396.24 18.44421,-33.88794,358.14000000000004 18.44426,-33.88794,312.42 18.45331,-33.89776,213.36 18.44954,-33.90157,160.02 18.42825,-33.89955,0 18.40513,-33.87327,182.88 18.39041,-33.88393,487.68 18.38747,-33.88879,518.1600000000001 18.37721,-33.89655,579.12 18.36576,-33.9066,640.08 18.3614,-33.91104,647.7 18.35707,-33.91582,655.32 18.35386,-33.91959,662.94 18.34997,-33.92441,678.1800000000001 18.3387,-33.93821,701.0400000000001 18.33428,-33.94492,708.6600000000001 18.33172,-33.94948,723.9000000000001 18.3294,-33.9543,739.14 18.32766,-33.95888,754.38 18.32623,-33.96335,769.62 18.32452,-33.96991,792.48 18.32325,-33.97643,807.72 18.32245,-33.98178,822.96 18.32195,-33.98666,838.2 18.32178,-33.99179,853.44 18.32205,-33.99649,861.0600000000001 18.32291,-34.00175,868.6800000000001 18.32424,-34.00662,861.0600000000001 18.32594,-34.01111,861.0600000000001 18.32833,-34.01578,861.0600000000001 18.33125,-34.01994,853.44 18.33472,-34.02379,861.0600000000001 18.33858,-34.02591,891.5400000000001 18.34179,-34.02359,876.3000000000001 18.34053,-34.01949,853.44 18.33744,-34.0153,845.82 18.33481,-34.01148,822.96 18.33271,-34.00726,807.72 18.33164,-34.00255,784.86 18.3316,-33.99798,754.38 18.33315,-33.9917,708.6600000000001 18.34128,-33.97746,617.22 18.35468,-33.95705,563.88 18.35799,-33.95004,563.88 18.36404,-33.93663,556.26 18.36752,-33.9283,563.88 18.3702,-33.92354,571.5 18.37332,-33.91889,579.12 18.37675,-33.9147,586.74 18.38047,-33.91093,586.74 18.38433,-33.90724,579.12 18.38825,-33.90385,571.5 18.39386,-33.89934,556.26 18.39846,-33.89644,533.4 18.40328,-33.89406,502.92 18.40862,-33.89189,464.82000000000005 18.41377,-33.89012,434.34000000000003 18.41925,-33.88847,411.48 18.42464,-33.8871,396.24 18.42973,-33.88609,381 18.435,-33.88579,350.52000000000004 18.44033,-33.88646,312.42 18.4452,-33.88802,289.56 18.44862,-33.89091,259.08000000000004 18.44919,-33.89445,213.36 18.44661,-33.89777,152.4 18.44268,-33.89978,91.44 18.43838,-33.89999,45.72 18.43603,-33.89999,30.48 18.43388,-33.89992,22.86 18.43174,-33.89976,15.24 18.42991,-33.89962,7.62 18.42831,-33.89949,0 18.4271,-33.89818,38.1 18.42899,-33.89585,68.58 18.43409,-33.8891,160.02 18.43552,-33.88519,205.74 18.43186,-33.88046,243.84 18.42699,-33.87827,274.32 18.42138,-33.87708,312.42 18.41652,-33.8769,358.14000000000004 18.41125,-33.87741,396.24 18.40636,-33.87849,426.72 18.40176,-33.87996,464.82000000000005 18.39414,-33.88367,510.54 18.38938,-33.88632,525.78 18.37933,-33.89254,579.12 18.37275,-33.89711,601.98 18.36864,-33.90056,617.22 18.36443,-33.9045,617.22 18.36034,-33.90871,624.84 18.35625,-33.91319,632.46 18.34549,-33.92514,640.08 18.33635,-33.93556,670.5600000000001 18.332,-33.94044,685.8000000000001 18.32714,-33.94631,693.4200000000001 18.31472,-33.96368,708.6600000000001 18.3066,-33.97904,716.2800000000001 18.30151,-33.99226,723.9000000000001 18.29655,-34.00772,731.52 18.29498,-34.01498,739.14 18.29453,-34.02589,723.9000000000001 18.29475,-34.03146,716.2800000000001 18.2956,-34.03716,723.9000000000001 18.29678,-34.04242,723.9000000000001 18.29829,-34.04745,723.9000000000001 18.30036,-34.05278,731.52 18.30249,-34.05748,739.14 18.30494,-34.0625,746.76 18.30787,-34.06819,746.76 18.31032,-34.07237,739.14 18.31348,-34.0773,739.14 18.31656,-34.08164,739.14 18.32016,-34.08592,731.52 18.32413,-34.0898,731.52 18.32863,-34.09337,731.52 18.33304,-34.09648,731.52 18.33744,-34.09924,746.76 18.34196,-34.1018,746.76 18.34649,-34.10399,746.76 18.35077,-34.10598,739.14 18.36297,-34.11241,701.0400000000001 18.37262,-34.1174,670.5600000000001 18.37626,-34.11896,662.94 18.38036,-34.12046,655.32 18.3845,-34.12184,632.46 18.38876,-34.12308,617.22 18.39323,-34.12409,609.6 18.39775,-34.12516,601.98 18.40227,-34.12656,594.36 18.40673,-34.12814,586.74 18.41129,-34.1299,579.12 18.41606,-34.13177,579.12 18.42458,-34.13516,579.12 18.4294,-34.1369,579.12 18.43427,-34.13809,586.74 18.43969,-34.13801,586.74 18.44473,-34.13657,571.5 18.44988,-34.13406,563.88 18.45485,-34.13118,571.5 18.45909,-34.12814,571.5 18.46325,-34.125,579.12 18.46745,-34.12167,579.12 18.47149,-34.11768,571.5 18.47463,-34.11374,563.88 18.47749,-34.10916,556.26 18.47968,-34.10426,548.64 18.48078,-34.09937,533.4 18.48141,-34.09419,518.1600000000001 18.48186,-34.08899,502.92 18.48248,-34.08403,487.68 18.48349,-34.07877,472.44 18.48528,-34.07062,472.44 18.48685,-34.06398,472.44 18.48776,-34.05901,472.44 18.48842,-34.05386,480.06 18.48904,-34.04933,472.44 18.48976,-34.04412,464.82000000000005 18.4901,-34.03885,464.82000000000005 18.49016,-34.03386,457.20000000000005 18.49005,-34.02563,457.20000000000005 18.48959,-34.0092,457.20000000000005 18.4897,-33.99333,403.86 18.48937,-33.97513,381 18.48803,-33.96432,381 18.48713,-33.95975,396.24 18.48517,-33.95082,381 18.48388,-33.94633,381 18.48255,-33.94175,358.14000000000004 18.48102,-33.93718,342.90000000000003 18.47923,-33.93248,327.66 18.47671,-33.9267,304.8 18.47429,-33.92221,297.18 18.47179,-33.91792,274.32 18.46916,-33.91368,259.08000000000004 18.46617,-33.90981,228.60000000000002 18.46304,-33.9059,198.12 18.45955,-33.90262,160.02 18.45585,-33.90028,129.54000000000002 18.45119,-33.89911,99.06 18.44656,-33.89897,76.2 18.44118,-33.89892,60.96 18.43483,-33.89891,45.72 18.43283,-33.89925,30.48 18.43105,-33.89939,22.86 18.42922,-33.89943,7.62 18.42811,-33.8996,15.24 18.43117,-33.88026,236.22 18.39694,-33.88486,472.44 18.39128,-33.88789,502.92 18.38652,-33.89081,525.78 18.38207,-33.8938,541.02 18.37772,-33.89715,571.5 18.37355,-33.90069,594.36 18.36971,-33.90432,617.22 18.36611,-33.90816,632.46 18.36273,-33.91191,655.32 18.35775,-33.9175,685.8000000000001 18.34717,-33.93022,701.0400000000001 18.33761,-33.94245,723.9000000000001 18.32463,-33.95883,723.9000000000001 18.31494,-33.9722,723.9000000000001 18.30786,-33.98407,731.52 18.30249,-33.995,723.9000000000001 18.29891,-34.00438,723.9000000000001 18.29355,-34.02135,746.76 18.29263,-34.02635,746.76 18.29257,-34.03198,746.76 18.29361,-34.03732,746.76 18.29538,-34.04242,739.14 18.29762,-34.04759,739.14 18.30002,-34.0525,731.52 18.30368,-34.05948,731.52 18.31141,-34.07387,746.76 18.31541,-34.08024,754.38 18.31858,-34.08426,754.38 18.32228,-34.08825,746.76 18.3264,-34.09193,739.14 18.33125,-34.09515,746.76 18.33612,-34.0977,739.14 18.341,-34.10005,731.52 18.34591,-34.10226,731.52 18.3572,-34.10687,731.52 18.3702,-34.11292,701.0400000000001 18.37669,-34.11595,678.1800000000001 18.38091,-34.11758,670.5600000000001 18.38534,-34.11923,670.5600000000001 18.38954,-34.12093,670.5600000000001 18.39363,-34.12265,670.5600000000001 18.39773,-34.1245,655.32 18.4016,-34.12628,647.7 18.40965,-34.13005,647.7 18.41404,-34.13196,624.84 18.41808,-34.1337,609.6 18.42648,-34.13704,586.74 18.43142,-34.13814,586.74 18.43601,-34.13841,594.36 18.44112,-34.13797,594.36 18.44582,-34.13654,594.36 18.45074,-34.13443,594.36 18.45507,-34.132,594.36 18.45926,-34.12935,594.36 18.46367,-34.12605,601.98 18.46733,-34.12298,601.98 18.47105,-34.11948,609.6 18.47418,-34.11584,601.98 18.47677,-34.11176,594.36 18.47872,-34.10775,609.6 18.48026,-34.10352,601.98 18.48141,-34.09947,586.74 18.48227,-34.09514,571.5 18.48301,-34.09081,548.64 18.48536,-34.07745,502.92 18.48848,-34.05986,472.44 18.48999,-34.04924,472.44 18.49045,-34.04412,472.44 18.49073,-34.03932,480.06 18.49089,-34.02539,502.92 18.49085,-34.02061,495.3 18.49077,-34.01573,495.3 18.49049,-34.00388,472.44 18.49039,-33.99789,449.58000000000004 18.49005,-33.9803,419.1 18.48893,-33.9679,411.48 18.48804,-33.96279,396.24 18.48644,-33.95492,396.24 18.48536,-33.94938,403.86 18.48422,-33.94437,396.24 18.48272,-33.93942,381 18.48095,-33.93476,373.38 18.47889,-33.93018,365.76 18.47682,-33.92564,350.52000000000004 18.47446,-33.9212,350.52000000000004 18.47168,-33.91642,335.28000000000003 18.46875,-33.91237,350.52000000000004 18.466,-33.90848,342.90000000000003 18.46331,-33.90495,312.42 18.46079,-33.90143,281.94 18.45737,-33.89813,243.84 18.45255,-33.89594,198.12 18.44776,-33.89482,175.26000000000002 18.44436,-33.89626,144.78 18.44179,-33.89923,99.06 18.4341,-33.9006,45.72 18.43163,-33.89994,38.1 18.43001,-33.89964,22.86 18.42876,-33.89948,7.62
        </coordinates>
      </LineString>
    </Placemark>
  </Document>
</kml>