<?xml version="1.0" encoding="UTF-8"?>
<kml xmlns="http://www.opengis.net/kml/2.2">
  <Document>
    <name>FR24 ZSHGD 3dd54244 - Optimised</name>
    <description><![CDATA[Optimised flight path with 358 points (decimated from 1787 original points). Source format: Standard KML]]></description>
    
    <Style id="flightPath">
      <LineStyle>
        <color>ffff0000</color>
        <width>3</width>
      </LineStyle>
    </Style>
    
    <Placemark>
      <name>Flight Path</name>
      <description><![CDATA[Source: ADS-B
Start (SAST): 2026-01-09 13:07:58
End (SAST): 2026-01-09 15:35:28
Points: 1787]]></description>
      <styleUrl>#flightPath</styleUrl>
      <LineString>
        <extrude>1</extrude>
        <tessellate>1</tessellate>
        <altitudeMode>absolute</altitudeMode>
        <coordinates>
          18.43355,-33.90024,45.72 18.43758,-33.89762,91.44 18.44038,-33.89338,137.16 18.4421,-33.88849,190.5 18.44198,-33.88346,236.22 18.43975,-33.87923,274.32 18.43567,-33.87602,320.04 18.43041,-33.87346,358.14000000000004 18.42531,-33.87149,396.24 18.4197,-33.86948,426.72 18.4136,-33.86815,464.82000000000005 18.40805,-33.86755,487.68 18.40204,-33.86764,533.4 18.39706,-33.86824,586.74 18.39218,-33.86929,632.46 18.38792,-33.87076,693.4200000000001 18.38379,-33.87262,739.14 18.3799,-33.87481,762 18.37606,-33.87746,807.72 18.37217,-33.88021,845.82 18.3688,-33.88289,883.9200000000001 18.3655,-33.88586,914.4000000000001 18.36262,-33.88891,952.5 18.3601,-33.89203,990.6 18.35787,-33.89543,1028.7 18.35575,-33.89925,1051.56 18.35381,-33.9032,1074.42 18.35176,-33.90752,1097.28 18.35008,-33.91191,1097.28 18.34857,-33.91695,1112.52 18.3474,-33.9222,1112.52 18.3466,-33.92764,1112.52 18.34579,-33.93286,1120.14 18.34402,-33.94026,1127.76 18.34213,-33.94533,1143 18.34016,-33.95027,1150.6200000000001 18.33781,-33.95522,1150.6200000000001 18.33515,-33.95995,1158.24 18.33218,-33.96461,1158.24 18.32918,-33.96913,1165.8600000000001 18.32587,-33.97371,1150.6200000000001 18.32291,-33.97811,1150.6200000000001 18.31959,-33.983,1181.1000000000001 18.31593,-33.9883,1211.5800000000002 18.31303,-33.9922,1242.0600000000002 18.31026,-33.99659,1242.0600000000002 18.30787,-34.00104,1242.0600000000002 18.30545,-34.00608,1226.8200000000002 18.30356,-34.01097,1226.8200000000002 18.30191,-34.01656,1226.8200000000002 18.30128,-34.02159,1211.5800000000002 18.30139,-34.02703,1196.3400000000001 18.30208,-34.03178,1203.96 18.3035,-34.03638,1196.3400000000001 18.3054,-34.04039,1181.1000000000001 18.30759,-34.04425,1158.24 18.30984,-34.04846,1135.38 18.31198,-34.05273,1143 18.31371,-34.05702,1143 18.31512,-34.06148,1135.38 18.31662,-34.06549,1112.52 18.31808,-34.07007,1074.42 18.31948,-34.07483,1066.8 18.32094,-34.07964,1082.04 18.32268,-34.08392,1089.66 18.32458,-34.08774,1082.04 18.32617,-34.09165,1066.8 18.32777,-34.09518,1043.94 18.32996,-34.09937,998.22 18.33226,-34.10339,967.74 18.33428,-34.10774,929.6400000000001 18.33573,-34.11227,891.5400000000001 18.3371,-34.1166,868.6800000000001 18.33803,-34.12125,830.58 18.33809,-34.1255,792.48 18.33769,-34.13049,762 18.33747,-34.13535,731.52 18.33753,-34.14093,708.6600000000001 18.33807,-34.14597,693.4200000000001 18.33893,-34.15082,678.1800000000001 18.34036,-34.15528,670.5600000000001 18.34207,-34.15933,647.7 18.34409,-34.16304,624.84 18.34633,-34.16684,617.22 18.34837,-34.16995,609.6 18.35053,-34.17339,601.98 18.35238,-34.17641,594.36 18.35434,-34.17943,586.74 18.35653,-34.18259,579.12 18.35832,-34.18547,586.74 18.36012,-34.18849,586.74 18.3617,-34.19141,601.98 18.36313,-34.19444,609.6 18.36438,-34.19742,609.6 18.36571,-34.20105,594.36 18.36679,-34.20468,594.36 18.3678,-34.20836,586.74 18.36886,-34.21202,586.74 18.36998,-34.21591,579.12 18.37239,-34.22392,586.74 18.37413,-34.23102,609.6 18.37559,-34.23601,624.84 18.37699,-34.23958,640.08 18.3787,-34.24294,632.46 18.3808,-34.24658,624.84 18.38373,-34.25179,624.84 18.38668,-34.25583,617.22 18.3896,-34.25917,594.36 18.3926,-34.26254,586.74 18.39575,-34.26589,579.12 18.39849,-34.26934,579.12 18.40118,-34.27255,586.74 18.40401,-34.2756,586.74 18.40691,-34.27884,594.36 18.40978,-34.28197,586.74 18.41251,-34.28489,586.74 18.41658,-34.28935,594.36 18.42189,-34.29492,594.36 18.4251,-34.29782,579.12 18.42805,-34.30051,571.5 18.43147,-34.30357,548.64 18.43539,-34.30678,525.78 18.43906,-34.30951,518.1600000000001 18.44267,-34.3124,502.92 18.44582,-34.31506,495.3 18.44885,-34.3178,495.3 18.4524,-34.32082,495.3 18.45594,-34.32366,495.3 18.4609,-34.32733,480.06 18.46464,-34.32976,480.06 18.46858,-34.33218,480.06 18.47219,-34.33484,472.44 18.47553,-34.33745,464.82000000000005 18.479,-34.34006,457.20000000000005 18.48249,-34.34242,434.34000000000003 18.48607,-34.34473,419.1 18.48943,-34.34674,403.86 18.49274,-34.34894,388.62 18.49583,-34.35131,381 18.49771,-34.35429,381 18.49548,-34.35765,388.62 18.48965,-34.35955,403.86 18.48244,-34.36035,419.1 18.47665,-34.36189,457.20000000000005 18.47525,-34.36496,472.44 18.47822,-34.36592,472.44 18.48261,-34.36481,464.82000000000005 18.48702,-34.36345,457.20000000000005 18.49182,-34.36151,457.20000000000005 18.49537,-34.35832,480.06 18.49577,-34.35285,510.54 18.49194,-34.34745,495.3 18.4873,-34.3428,472.44 18.48237,-34.33676,472.44 18.47928,-34.33026,457.20000000000005 18.47766,-34.3233,457.20000000000005 18.47699,-34.31731,472.44 18.47666,-34.31063,472.44 18.47683,-34.3043,480.06 18.47749,-34.29803,480.06 18.47826,-34.29177,495.3 18.48026,-34.27469,548.64 18.48085,-34.2562,579.12 18.48024,-34.24667,601.98 18.47895,-34.24045,609.6 18.47682,-34.23376,594.36 18.47374,-34.22681,571.5 18.46987,-34.21976,541.02 18.46556,-34.21259,510.54 18.46098,-34.20598,487.68 18.45686,-34.1998,464.82000000000005 18.45322,-34.19284,441.96000000000004 18.45034,-34.18573,441.96000000000004 18.44784,-34.17851,419.1 18.44582,-34.17116,403.86 18.44416,-34.16413,411.48 18.44347,-34.15742,411.48 18.44504,-34.15041,403.86 18.4479,-34.14468,388.62 18.45131,-34.1391,411.48 18.45463,-34.13452,441.96000000000004 18.45821,-34.13036,457.20000000000005 18.46241,-34.12661,457.20000000000005 18.46678,-34.12299,464.82000000000005 18.47121,-34.11946,464.82000000000005 18.47575,-34.11507,464.82000000000005 18.47843,-34.10952,502.92 18.47844,-34.10422,541.02 18.47677,-34.09863,548.64 18.47424,-34.09286,548.64 18.47145,-34.08685,556.26 18.46908,-34.08051,548.64 18.46733,-34.07359,541.02 18.46645,-34.06696,525.78 18.46556,-34.06069,533.4 18.4646,-34.05432,533.4 18.46384,-34.04803,533.4 18.46327,-34.04184,533.4 18.46309,-34.0351,533.4 18.46325,-34.02855,525.78 18.46393,-34.02196,525.78 18.46493,-34.01567,518.1600000000001 18.46628,-34.00887,510.54 18.46746,-34.00227,510.54 18.46819,-33.99545,510.54 18.4691,-33.98867,510.54 18.46956,-33.98225,502.92 18.46979,-33.97531,502.92 18.46976,-33.96909,502.92 18.46991,-33.96233,495.3 18.46905,-33.95567,495.3 18.46673,-33.9494,502.92 18.4637,-33.94318,502.92 18.46001,-33.93677,472.44 18.45606,-33.93076,441.96000000000004 18.45199,-33.92422,419.1 18.44868,-33.91754,373.38 18.44702,-33.91019,335.28000000000003 18.44604,-33.90395,304.8 18.44453,-33.89507,312.42 18.44244,-33.88891,327.66 18.43895,-33.88412,320.04 18.4336,-33.88271,304.8 18.42957,-33.88533,243.84 18.42785,-33.88831,205.74 18.42687,-33.89095,160.02 18.42643,-33.89323,114.30000000000001 18.4263,-33.89506,76.2 18.42659,-33.89697,45.72 18.42722,-33.89897,7.62 18.42854,-33.90018,0 18.43025,-33.90051,22.86 18.43203,-33.9006,30.48 18.43483,-33.90033,60.96 18.43831,-33.89864,99.06 18.44106,-33.89429,137.16 18.44206,-33.8893,167.64000000000001 18.44101,-33.88407,205.74 18.43781,-33.87941,251.46 18.43334,-33.87643,281.94 18.42813,-33.87429,312.42 18.42264,-33.87267,342.90000000000003 18.41701,-33.87131,373.38 18.41137,-33.87034,403.86 18.40557,-33.87039,426.72 18.40003,-33.87135,457.20000000000005 18.39506,-33.87276,495.3 18.39031,-33.87457,541.02 18.38585,-33.87648,586.74 18.38144,-33.87839,632.46 18.37715,-33.88067,670.5600000000001 18.37334,-33.88326,693.4200000000001 18.37026,-33.88596,716.2800000000001 18.3672,-33.889,723.9000000000001 18.36405,-33.89231,716.2800000000001 18.36113,-33.89571,716.2800000000001 18.35804,-33.8996,716.2800000000001 18.35535,-33.90358,731.52 18.35278,-33.90776,754.38 18.35026,-33.91209,777.24 18.34857,-33.9164,800.1 18.34768,-33.9208,815.34 18.347,-33.92569,815.34 18.34644,-33.93054,822.96 18.34571,-33.93558,822.96 18.34505,-33.94086,815.34 18.34454,-33.94613,800.1 18.34784,-33.95023,769.62 18.35403,-33.9498,731.52 18.35884,-33.94575,693.4200000000001 18.36197,-33.94102,670.5600000000001 18.36494,-33.93626,655.32 18.37,-33.92783,640.08 18.3729,-33.92336,609.6 18.37643,-33.91864,586.74 18.3799,-33.91434,563.88 18.38343,-33.91054,556.26 18.38757,-33.90646,556.26 18.39151,-33.90257,556.26 18.39558,-33.89939,525.78 18.40025,-33.89658,502.92 18.4058,-33.89429,472.44 18.41118,-33.89287,426.72 18.41684,-33.89177,381 18.42155,-33.88961,373.38 18.42463,-33.88632,342.90000000000003 18.42733,-33.88463,289.56 18.42865,-33.88584,236.22 18.42772,-33.88797,198.12 18.42654,-33.89008,167.64000000000001 18.42625,-33.89194,129.54000000000002 18.42632,-33.8936,106.68 18.42642,-33.89524,83.82000000000001 18.42665,-33.89692,60.96 18.42682,-33.89827,38.1 18.42699,-33.89957,15.24 18.42721,-33.90079,0 18.42819,-33.90144,7.62 18.42973,-33.90129,30.48 18.43197,-33.90111,60.96 18.43478,-33.90065,83.82000000000001 18.43781,-33.89909,137.16 18.44022,-33.89575,175.26000000000002 18.44078,-33.89161,205.74 18.43924,-33.88617,243.84 18.43718,-33.88146,274.32 18.43409,-33.87704,320.04 18.42997,-33.87374,365.76 18.42542,-33.87154,411.48 18.42048,-33.87016,449.58000000000004 18.41522,-33.86948,495.3 18.40995,-33.86929,541.02 18.40462,-33.86929,579.12 18.39935,-33.86959,632.46 18.39466,-33.87034,670.5600000000001 18.38977,-33.87167,708.6600000000001 18.38545,-33.87341,754.38 18.38156,-33.87555,800.1 18.37807,-33.8783,822.96 18.37407,-33.8822,830.58 18.37026,-33.88614,845.82 18.36645,-33.89044,853.44 18.36325,-33.8947,853.44 18.36016,-33.8992,853.44 18.35707,-33.904,883.9200000000001 18.35429,-33.90871,906.7800000000001 18.35193,-33.91338,906.7800000000001 18.34969,-33.91861,922.0200000000001 18.34778,-33.92363,906.7800000000001 18.34616,-33.92944,899.1600000000001 18.34511,-33.9356,906.7800000000001 18.3461,-33.94112,922.0200000000001 18.35143,-33.94373,899.1600000000001 18.35815,-33.94194,838.2 18.3632,-33.93736,800.1 18.36724,-33.93219,792.48 18.37049,-33.92729,792.48 18.37391,-33.9223,784.86 18.37755,-33.91754,777.24 18.38179,-33.91247,762 18.38562,-33.90805,746.76 18.39025,-33.90343,708.6600000000001 18.39509,-33.89973,670.5600000000001 18.3997,-33.89711,632.46 18.40451,-33.89497,556.26 18.40919,-33.89333,480.06 18.41477,-33.89182,411.48 18.41897,-33.89017,403.86 18.42278,-33.88783,365.76 18.4263,-33.88672,304.8 18.42715,-33.8887,243.84 18.42676,-33.89081,190.5 18.42659,-33.89282,129.54000000000002 18.42654,-33.89484,91.44 18.42665,-33.89667,60.96 18.42671,-33.89813,30.48 18.42693,-33.89971,15.24 18.42727,-33.90102,0
        </coordinates>
      </LineString>
    </Placemark>
  </Document>
</kml>