<?xml version="1.0" encoding="UTF-8"?>
<kml xmlns="http://www.opengis.net/kml/2.2">
  <Document>
    <name>FR24 40d7fe3e - Optimised</name>
    <description><![CDATA[Optimised flight path with 70 points (decimated from 350 original points). Source format: Standard KML]]></description>
    
    <Style id="flightPath">
      <LineStyle>
        <color>ffff0000</color>
        <width>3</width>
      </LineStyle>
    </Style>
    
    <Placemark>
      <name>Flight Path</name>
      <description><![CDATA[Optimized flight path]]></description>
      <styleUrl>#flightPath</styleUrl>
      <LineString>
        <extrude>1</extrude>
        <tessellate>1</tessellate>
        <altitudeMode>absolute</altitudeMode>
        <coordinates>
          18.43055,-33.88225,0 18.40209,-33.87029,0 18.39898,-33.87871,0 18.39356,-33.88293,0 18.3841,-33.88583,0 18.37543,-33.89365,0 18.37221,-33.89862,0 18.36471,-33.90571,0 18.36385,-33.91256,0 18.29852,-34.00145,0 18.31015,-34.02918,0 18.32041,-34.0144,0 18.36891,-33.91526,0 18.36299,-33.90655,0 18.38583,-33.88486,0 18.44324,-33.90322,0 18.48787,-33.94228,0 18.48738,-33.94978,0 18.48439,-33.95639,0 18.48396,-33.96149,0 18.48365,-33.9683,0 18.4846,-33.9734,0 18.48359,-33.97922,0 18.48343,-33.98527,0 18.48324,-33.99209,0 18.4832,-34.00429,0 18.48202,-34.01087,0 18.48192,-34.01802,0 18.48142,-34.02517,0 18.48149,-34.03159,0 18.48114,-34.03806,0 18.47997,-34.04495,0 18.47885,-34.05247,0 18.47839,-34.0601,0 18.47886,-34.06625,0 18.47784,-34.07325,0 18.47733,-34.07981,0 18.47702,-34.08681,0 18.47641,-34.09366,0 18.47559,-34.1007,0 18.47475,-34.10709,0 18.47289,-34.11403,0 18.46877,-34.12108,0 18.46317,-34.12744,0 18.45748,-34.1326,0 18.44958,-34.13648,0 18.44121,-34.13712,0 18.43324,-34.13559,0 18.42424,-34.13327,0 18.41601,-34.13012,0 18.40975,-34.12729,0 18.40298,-34.12434,0 18.39642,-34.12173,0 18.38885,-34.11864,0 18.38118,-34.11565,0 18.3709,-34.11157,0 18.35834,-34.10608,0 18.31871,-34.0792,0 18.34305,-34.06818,0 18.34522,-34.06342,0 18.34602,-34.06039,0 18.3467,-34.05443,0 18.34653,-34.0481,0 18.34481,-34.04128,0 18.34187,-34.03482,0 18.33631,-34.02896,0 18.33041,-34.02395,0 18.32678,-34.00748,0 18.36219,-33.91293,0 18.36579,-33.90448,0
        </coordinates>
      </LineString>
    </Placemark>
  </Document>
</kml>