<?xml version="1.0" encoding="UTF-8"?>
<kml xmlns="http://www.opengis.net/kml/2.2">
  <Document>
    <name>FR24 41c7cf7f - Optimised</name>
    <description><![CDATA[Optimised flight path with 201 points (decimated from 1004 original points). Source format: Standard KML]]></description>
    
    <Style id="flightPath">
      <LineStyle>
        <color>ffff0000</color>
        <width>3</width>
      </LineStyle>
    </Style>
    
    <Placemark>
      <name>Flight Path</name>
      <description><![CDATA[Optimized flight path]]></description>
      <styleUrl>#flightPath</styleUrl>
      <LineString>
        <extrude>1</extrude>
        <tessellate>1</tessellate>
        <altitudeMode>absolute</altitudeMode>
        <coordinates>
          18.42705,-33.9012,0 18.42839,-33.89854,0 18.43114,-33.89529,0 18.43328,-33.89194,0 18.43523,-33.88788,0 18.43567,-33.88353,0 18.43369,-33.87955,0 18.4308,-33.87589,0 18.42728,-33.87243,0 18.42329,-33.87007,0 18.41818,-33.87076,0 18.41274,-33.87327,0 18.41006,-33.87703,0 18.41326,-33.88002,0 18.41774,-33.88106,0 18.42218,-33.88156,0 18.4231,-33.88039,0 18.41808,-33.88069,0 18.41171,-33.88091,0 18.4053,-33.88221,0 18.39941,-33.88435,0 18.39357,-33.8871,0 18.38803,-33.89021,0 18.38276,-33.89384,0 18.37755,-33.8979,0 18.37306,-33.90184,0 18.36909,-33.90642,0 18.36576,-33.91126,0 18.36285,-33.91624,0 18.36,-33.9218,0 18.35759,-33.92725,0 18.35541,-33.93267,0 18.35209,-33.94082,0 18.35244,-33.94762,0 18.35653,-33.94826,0 18.35873,-33.94524,0 18.3604,-33.94125,0 18.36164,-33.93714,0 18.35981,-33.9336,0 18.35495,-33.93258,0 18.34957,-33.93854,0 18.3474,-33.9458,0 18.34509,-33.96126,0 18.34156,-33.9782,0 18.33498,-34.00152,0 18.33366,-34.00879,0 18.33406,-34.01553,0 18.33736,-34.02223,0 18.34167,-34.02848,0 18.34571,-34.03487,0 18.34934,-34.04193,0 18.35216,-34.04855,0 18.35461,-34.05515,0 18.3573,-34.06199,0 18.36057,-34.06874,0 18.36462,-34.0754,0 18.36886,-34.0816,0 18.37309,-34.08825,0 18.38069,-34.09964,0 18.38719,-34.10738,0 18.39308,-34.11255,0 18.39975,-34.11699,0 18.4072,-34.12097,0 18.4151,-34.12482,0 18.42351,-34.12848,0 18.43158,-34.1315,0 18.44061,-34.13327,0 18.44834,-34.13219,0 18.45474,-34.1287,0 18.45995,-34.12514,0 18.46477,-34.12083,0 18.46893,-34.1165,0 18.47231,-34.11232,0 18.475,-34.10799,0 18.47689,-34.10329,0 18.47805,-34.09845,0 18.479,-34.0937,0 18.47969,-34.08839,0 18.48024,-34.08371,0 18.48095,-34.07898,0 18.48186,-34.07428,0 18.48304,-34.06947,0 18.48398,-34.06483,0 18.48473,-34.06022,0 18.48518,-34.05548,0 18.48579,-34.0508,0 18.48674,-34.04489,0 18.48713,-34.04039,0 18.48719,-34.035,0 18.48707,-34.03062,0 18.4869,-34.02629,0 18.48673,-34.02214,0 18.48652,-34.01788,0 18.48612,-34.01065,0 18.48584,-34.00063,0 18.48567,-33.99207,0 18.48576,-33.98783,0 18.48595,-33.98172,0 18.4859,-33.96918,0 18.4853,-33.96163,0 18.48472,-33.9576,0 18.48371,-33.95343,0 18.48259,-33.94917,0 18.48125,-33.94533,0 18.4798,-33.94156,0 18.47828,-33.938,0 18.47643,-33.93411,0 18.47431,-33.93048,0 18.47191,-33.92667,0 18.46925,-33.92281,0 18.4663,-33.91908,0 18.46361,-33.91563,0 18.46109,-33.91214,0 18.45875,-33.9086,0 18.45554,-33.90595,0 18.45194,-33.90395,0 18.44862,-33.90223,0 18.44492,-33.90088,0 18.44212,-33.90033,0 18.43924,-33.90009,0 18.4366,-33.90018,0 18.43437,-33.90027,0 18.43226,-33.90056,0 18.43031,-33.90078,0 18.42833,-33.90097,0 18.4271,-33.90074,0 18.42906,-33.89754,0 18.43164,-33.89406,0 18.43454,-33.88998,0 18.43596,-33.88554,0 18.43444,-33.88147,0 18.43065,-33.87881,0 18.42619,-33.87769,0 18.42178,-33.87755,0 18.41667,-33.87799,0 18.41166,-33.87886,0 18.40647,-33.88028,0 18.40171,-33.88202,0 18.39655,-33.88454,0 18.39157,-33.88756,0 18.38688,-33.89073,0 18.38198,-33.8942,0 18.37727,-33.89804,0 18.3736,-33.90167,0 18.36971,-33.90623,0 18.36651,-33.91074,0 18.36388,-33.91554,0 18.36174,-33.92024,0 18.35978,-33.92482,0 18.35776,-33.92972,0 18.35591,-33.9348,0 18.35415,-33.93937,0 18.35186,-33.94501,0 18.34946,-33.95041,0 18.34465,-33.96107,0 18.33467,-33.97856,0 18.32368,-33.99802,0 18.32205,-34.00488,0 18.32359,-34.012,0 18.32634,-34.01838,0 18.33,-34.02485,0 18.33389,-34.03104,0 18.33797,-34.0372,0 18.34122,-34.04384,0 18.3423,-34.0504,0 18.34403,-34.0556,0 18.34745,-34.05423,0 18.34678,-34.0486,0 18.3456,-34.0437,0 18.34392,-34.03899,0 18.34173,-34.0342,0 18.33881,-34.02987,0 18.33517,-34.02571,0 18.33215,-34.02191,0 18.32968,-34.01765,0 18.32857,-34.01251,0 18.32891,-34.00711,0 18.3304,-34.00208,0 18.3354,-33.98987,0 18.34829,-33.96332,0 18.35782,-33.94249,0 18.36771,-33.92187,0 18.37082,-33.91685,0 18.3743,-33.91191,0 18.37807,-33.90711,0 18.38247,-33.90232,0 18.38734,-33.89794,0 18.39285,-33.89397,0 18.39969,-33.89026,0 18.40633,-33.88737,0 18.4132,-33.88509,0 18.42099,-33.88376,0 18.42917,-33.88403,0 18.43646,-33.88628,0 18.44234,-33.89117,0 18.44358,-33.89631,0 18.44038,-33.89929,0 18.43609,-33.89981,0 18.4322,-33.89987,0 18.42888,-33.89981,0 18.42693,-33.90036,0
        </coordinates>
      </LineString>
    </Placemark>
  </Document>
</kml>