<?xml version="1.0" encoding="UTF-8"?>
<kml xmlns="http://www.opengis.net/kml/2.2">
  <Document>
    <name>FR24 40807c2b - Optimised</name>
    <description><![CDATA[Optimised flight path with 173 points (decimated from 863 original points). Source format: Standard KML]]></description>
    
    <Style id="flightPath">
      <LineStyle>
        <color>ffff0000</color>
        <width>3</width>
      </LineStyle>
    </Style>
    
    <Placemark>
      <name>Flight Path</name>
      <description><![CDATA[Optimized flight path]]></description>
      <styleUrl>#flightPath</styleUrl>
      <LineString>
        <extrude>1</extrude>
        <tessellate>1</tessellate>
        <altitudeMode>absolute</altitudeMode>
        <coordinates>
          18.43163,-33.89459,0 18.43837,-33.89594,0 18.4433,-33.8996,0 18.44759,-33.90334,0 18.45228,-33.90809,0 18.45652,-33.91307,0 18.46056,-33.91823,0 18.46471,-33.924,0 18.46824,-33.92944,0 18.47166,-33.93526,0 18.47463,-33.9413,0 18.47694,-33.94729,0 18.47855,-33.95357,0 18.47946,-33.96004,0 18.48013,-33.96671,0 18.48118,-33.97997,0 18.48324,-34.00287,0 18.4841,-34.01848,0 18.48461,-34.02759,0 18.48483,-34.03363,0 18.48506,-34.03954,0 18.48511,-34.05148,0 18.48461,-34.06991,0 18.48545,-34.08421,0 18.48667,-34.10463,0 18.4873,-34.11623,0 18.48753,-34.12237,0 18.48759,-34.12991,0 18.48747,-34.13599,0 18.48713,-34.14211,0 18.48684,-34.14756,0 18.48685,-34.15352,0 18.48713,-34.16418,0 18.48769,-34.17348,0 18.48845,-34.17931,0 18.48993,-34.18918,0 18.49257,-34.20309,0 18.49369,-34.20927,0 18.49531,-34.21492,0 18.49789,-34.22032,0 18.50058,-34.22577,0 18.50283,-34.23134,0 18.5047,-34.23689,0 18.50567,-34.24183,0 18.50597,-34.24658,0 18.50527,-34.25123,0 18.504,-34.25592,0 18.50193,-34.25949,0 18.49812,-34.25951,0 18.49554,-34.25789,0 18.49319,-34.25607,0 18.49055,-34.255,0 18.4885,-34.25341,0 18.48696,-34.25188,0 18.48558,-34.25043,0 18.48398,-34.24923,0 18.48293,-34.24777,0 18.48192,-34.24649,0 18.48095,-34.24517,0 18.47996,-34.24397,0 18.479,-34.2426,0 18.47828,-34.24132,0 18.4774,-34.23991,0 18.47659,-34.23853,0 18.47603,-34.23735,0 18.47542,-34.2361,0 18.47511,-34.23489,0 18.47694,-34.23247,0 18.47788,-34.23042,0 18.47849,-34.22786,0 18.479,-34.22502,0 18.47952,-34.22213,0 18.47992,-34.21883,0 18.48024,-34.21545,0 18.48175,-34.20415,0 18.48281,-34.19389,0 18.48341,-34.18987,0 18.48387,-34.18582,0 18.48421,-34.18145,0 18.48466,-34.1743,0 18.48501,-34.16902,0 18.48495,-34.16423,0 18.4849,-34.15998,0 18.48466,-34.15544,0 18.48427,-34.15068,0 18.48404,-34.14639,0 18.48343,-34.1418,0 18.48265,-34.13708,0 18.48181,-34.13271,0 18.48118,-34.1287,0 18.48063,-34.125,0 18.47979,-34.12148,0 18.47912,-34.11776,0 18.47872,-34.11432,0 18.47797,-34.11059,0 18.47666,-34.10701,0 18.47443,-34.10398,0 18.47161,-34.10129,0 18.46899,-34.09854,0 18.46624,-34.09556,0 18.46344,-34.09281,0 18.46006,-34.09012,0 18.45652,-34.08783,0 18.4526,-34.0854,0 18.4481,-34.08289,0 18.44347,-34.08055,0 18.43872,-34.07805,0 18.43472,-34.07547,0 18.43091,-34.0724,0 18.42779,-34.06921,0 18.42482,-34.06595,0 18.42218,-34.06274,0 18.41978,-34.05971,0 18.41763,-34.05666,0 18.4156,-34.05357,0 18.4136,-34.05059,0 18.41202,-34.04832,0 18.41097,-34.0464,0 18.41034,-34.04482,0 18.41045,-34.04323,0 18.41177,-34.0416,0 18.41281,-34.04027,0 18.41057,-34.03909,0 18.40885,-34.0376,0 18.40956,-34.03487,0 18.41275,-34.03221,0 18.41639,-34.02988,0 18.41995,-34.02717,0 18.42318,-34.02429,0 18.42654,-34.02141,0 18.43069,-34.01884,0 18.43551,-34.01711,0 18.44033,-34.01541,0 18.44532,-34.0134,0 18.4503,-34.01074,0 18.45486,-34.00809,0 18.45955,-34.00566,0 18.46437,-34.00282,0 18.46773,-33.99989,0 18.46998,-33.9966,0 18.47168,-33.99295,0 18.47362,-33.98859,0 18.47551,-33.98416,0 18.47738,-33.9787,0 18.47878,-33.97366,0 18.48009,-33.96889,0 18.48119,-33.96396,0 18.48169,-33.95906,0 18.48158,-33.95446,0 18.48118,-33.94957,0 18.48041,-33.94496,0 18.47929,-33.94059,0 18.47794,-33.93631,0 18.47649,-33.93211,0 18.47483,-33.92783,0 18.47282,-33.92411,0 18.46973,-33.92001,0 18.4663,-33.91666,0 18.46264,-33.91338,0 18.45915,-33.91037,0 18.4558,-33.90784,0 18.45371,-33.90497,0 18.45126,-33.9028,0 18.4473,-33.90423,0 18.44436,-33.90216,0 18.44118,-33.90134,0 18.43915,-33.90239,0 18.43708,-33.90317,0 18.43472,-33.90376,0 18.4331,-33.90358,0 18.4313,-33.90276,0 18.43002,-33.90204,0 18.42822,-33.90102,0
        </coordinates>
      </LineString>
    </Placemark>
  </Document>
</kml>