<?xml version="1.0" encoding="UTF-8"?>
<kml xmlns="http://www.opengis.net/kml/2.2">
  <Document>
    <name>FR24 3e77fdf1 - Optimised</name>
    <description><![CDATA[Optimised flight path with 235 points (decimated from 1172 original points). Source format: Standard KML]]></description>
    
    <Style id="flightPath">
      <LineStyle>
        <color>ffff0000</color>
        <width>3</width>
      </LineStyle>
    </Style>
    
    <Placemark>
      <name>Flight Path</name>
      <description><![CDATA[Optimized flight path]]></description>
      <styleUrl>#flightPath</styleUrl>
      <LineString>
        <extrude>1</extrude>
        <tessellate>1</tessellate>
        <altitudeMode>absolute</altitudeMode>
        <coordinates>
          18.43088,-33.89515,0 18.435,-33.88879,0 18.4366,-33.88472,0 18.43506,-33.88146,0 18.43248,-33.87844,0 18.42997,-33.87574,0 18.42828,-33.89763,0 18.43041,-33.89424,0 18.43334,-33.89101,0 18.43643,-33.88705,0 18.43718,-33.88346,0 18.43556,-33.88046,0 18.43355,-33.87758,0 18.43151,-33.87481,0 18.42839,-33.87323,0 18.42306,-33.87456,0 18.41858,-33.8757,0 18.41269,-33.87718,0 18.40804,-33.87836,0 18.40302,-33.87965,0 18.39758,-33.88067,0 18.39167,-33.88239,0 18.38545,-33.8849,0 18.3794,-33.88843,0 18.37446,-33.8925,0 18.36998,-33.89754,0 18.36599,-33.90292,0 18.36225,-33.90889,0 18.35843,-33.91502,0 18.34923,-33.93458,0 18.34831,-33.95064,0 18.3567,-33.95654,0 18.36033,-33.94575,0 18.36634,-33.92976,0 18.37704,-33.91608,0 18.38265,-33.91054,0 18.39277,-33.90078,0 18.39734,-33.89749,0 18.40296,-33.89478,0 18.40883,-33.89259,0 18.41482,-33.89049,0 18.4206,-33.88857,0 18.42722,-33.88714,0 18.43437,-33.88854,0 18.43999,-33.89259,0 18.44335,-33.89717,0 18.44204,-33.90115,0 18.43695,-33.90125,0 18.43175,-33.90147,0 18.42895,-33.89996,0 18.42819,-33.89855,0 18.42848,-33.89636,0 18.43191,-33.89291,0 18.435,-33.88939,0 18.43696,-33.88609,0 18.43652,-33.88261,0 18.43495,-33.87941,0 18.43304,-33.87648,0 18.42951,-33.8752,0 18.42476,-33.87611,0 18.4199,-33.87732,0 18.41544,-33.87845,0 18.40565,-33.88053,0 18.40078,-33.88169,0 18.39626,-33.883,0 18.39151,-33.88472,0 18.38699,-33.88672,0 18.38282,-33.88947,0 18.37889,-33.89282,0 18.37526,-33.89613,0 18.37189,-33.89943,0 18.36864,-33.90294,0 18.3623,-33.90976,0 18.35905,-33.91415,0 18.35581,-33.91903,0 18.35277,-33.92427,0 18.34969,-33.92999,0 18.34672,-33.93539,0 18.33977,-33.94986,0 18.3373,-33.95609,0 18.32626,-33.98126,0 18.32015,-34.00337,0 18.32576,-34.00914,0 18.33702,-33.99907,0 18.34528,-33.99002,0 18.35541,-33.9808,0 18.35989,-33.9678,0 18.36163,-33.95425,0 18.36527,-33.93448,0 18.36828,-33.92792,0 18.37121,-33.92308,0 18.37578,-33.91722,0 18.38053,-33.91256,0 18.3847,-33.908,0 18.38898,-33.90344,0 18.3938,-33.89937,0 18.39902,-33.89635,0 18.4045,-33.89384,0 18.41028,-33.89128,0 18.41978,-33.88719,0 18.42626,-33.88504,0 18.43287,-33.88399,0 18.4387,-33.88435,0 18.44427,-33.88672,0 18.44761,-33.89104,0 18.44753,-33.89566,0 18.44369,-33.89882,0 18.43872,-33.90036,0 18.43427,-33.90129,0 18.43091,-33.90106,0 18.429,-33.89987,0 18.42762,-33.89892,0 18.42727,-33.89726,0 18.43001,-33.89429,0 18.43311,-33.89161,0 18.43552,-33.88905,0 18.42945,-33.89671,0 18.43271,-33.8932,0 18.43563,-33.88929,0 18.43741,-33.88522,0 18.43713,-33.88193,0 18.4364,-33.879,0 18.43506,-33.87621,0 18.43128,-33.87579,0 18.42721,-33.87607,0 18.42299,-33.87658,0 18.41931,-33.8773,0 18.41526,-33.87807,0 18.41108,-33.87862,0 18.40656,-33.8789,0 18.4021,-33.87904,0 18.39739,-33.87968,0 18.39246,-33.88106,0 18.38837,-33.88361,0 18.38459,-33.8864,0 18.38058,-33.88924,0 18.37587,-33.89259,0 18.37206,-33.89552,0 18.36897,-33.89809,0 18.36651,-33.90088,0 18.36393,-33.9039,0 18.36118,-33.9072,0 18.35799,-33.91122,0 18.35449,-33.91582,0 18.351,-33.92066,0 18.34785,-33.92564,0 18.34482,-33.9309,0 18.33915,-33.94107,0 18.33086,-33.9581,0 18.3252,-33.97137,0 18.3153,-33.99449,0 18.30838,-34.00703,0 18.30288,-34.01572,0 18.29979,-34.02089,0 18.2965,-34.02681,0 18.29538,-34.03271,0 18.2965,-34.0378,0 18.29846,-34.04205,0 18.30145,-34.04589,0 18.30429,-34.04837,0 18.30711,-34.04882,0 18.30666,-34.04579,0 18.30496,-34.04169,0 18.3072,-34.03624,0 18.30984,-34.03079,0 18.3132,-34.02553,0 18.31791,-34.01999,0 18.32312,-34.01477,0 18.32788,-34.01051,0 18.33259,-34.00584,0 18.34039,-33.99463,0 18.35489,-33.97266,0 18.36168,-33.957,0 18.36405,-33.94631,0 18.36505,-33.94043,0 18.3672,-33.93067,0 18.36983,-33.92527,0 18.37257,-33.92052,0 18.37572,-33.9154,0 18.37904,-33.91084,0 18.38327,-33.90669,0 18.38762,-33.90269,0 18.39231,-33.89892,0 18.39746,-33.89576,0 18.40384,-33.89255,0 18.4109,-33.88998,0 18.41846,-33.88789,0 18.42613,-33.88631,0 18.43399,-33.88683,0 18.44067,-33.89008,0 18.44404,-33.89445,0 18.44223,-33.89868,0 18.43775,-33.8999,0 18.4334,-33.90009,0 18.4294,-33.90047,0 18.42773,-33.90069,0 18.42819,-33.89836,0 18.43147,-33.89429,0 18.43439,-33.8903,0 18.4368,-33.88628,0 18.4366,-33.88295,0 18.43495,-33.88033,0 18.43243,-33.87793,0 18.42934,-33.87723,0 18.42676,-33.87723,0 18.42368,-33.8773,0 18.42043,-33.87744,0 18.41488,-33.87762,0 18.41157,-33.87781,0 18.40771,-33.87793,0 18.40399,-33.87793,0 18.40059,-33.8784,0 18.39795,-33.87868,0 18.39489,-33.88053,0 18.39117,-33.88309,0 18.38705,-33.88584,0 18.38264,-33.88882,0 18.37818,-33.89212,0 18.37234,-33.89676,0 18.36554,-33.90279,0 18.36176,-33.90707,0 18.35855,-33.91127,0 18.35518,-33.91635,0 18.35209,-33.92187,0 18.34946,-33.92718,0 18.34705,-33.9323,0 18.34442,-33.9381,0 18.34351,-33.94357,0 18.34566,-33.94817,0 18.34947,-33.95174,0 18.35255,-33.95384,0 18.35546,-33.95169,0 18.35776,-33.94688,0 18.35981,-33.94198,0 18.36213,-33.93617,0
        </coordinates>
      </LineString>
    </Placemark>
  </Document>
</kml>