<?xml version="1.0" encoding="UTF-8"?>
<kml xmlns="http://www.opengis.net/kml/2.2">
  <Document>
    <name>FR24 ZSHGD 3e2c0df9 - Optimised</name>
    <description><![CDATA[Optimised flight path with 462 points (decimated from 2308 original points). Source format: Standard KML]]></description>
    
    <Style id="flightPath">
      <LineStyle>
        <color>ffff0000</color>
        <width>3</width>
      </LineStyle>
    </Style>
    
    <Placemark>
      <name>Flight Path</name>
      <description><![CDATA[Park boundary / NP17 restricted airspace. Red track segments show flight inside this area.]]></description>
      <styleUrl>#flightPath</styleUrl>
      <LineString>
        <extrude>1</extrude>
        <tessellate>1</tessellate>
        <altitudeMode>absolute</altitudeMode>
        <coordinates>
          18.42951,-33.8951,53.34 18.43472,-33.88719,144.78 18.43546,-33.88361,182.88 18.43276,-33.88051,213.36 18.42822,-33.879,251.46 18.42362,-33.87904,281.94 18.41909,-33.8797,312.42 18.41466,-33.88046,342.90000000000003 18.4086,-33.88156,381 18.4041,-33.88258,411.48 18.39947,-33.88367,434.34000000000003 18.39498,-33.88541,464.82000000000005 18.39117,-33.88742,495.3 18.38688,-33.88845,525.78 18.38533,-33.8857,541.02 18.38882,-33.88365,571.5 18.39186,-33.88551,594.36 18.39008,-33.88905,594.36 18.38636,-33.89208,594.36 18.38231,-33.89534,594.36 18.37515,-33.90148,624.84 18.37074,-33.90595,647.7 18.36737,-33.90977,670.5600000000001 18.36411,-33.91386,678.1800000000001 18.36096,-33.91805,693.4200000000001 18.35821,-33.92244,701.0400000000001 18.35552,-33.92725,701.0400000000001 18.35316,-33.93201,708.6600000000001 18.35087,-33.93732,716.2800000000001 18.34888,-33.94263,716.2800000000001 18.34711,-33.94775,731.52 18.34396,-33.95707,746.76 18.33781,-33.97614,792.48 18.33304,-33.99188,845.82 18.33181,-33.99829,853.44 18.33153,-34.00342,868.6800000000001 18.33192,-34.00877,868.6800000000001 18.33293,-34.01381,883.9200000000001 18.33458,-34.0187,891.5400000000001 18.33664,-34.02326,891.5400000000001 18.3387,-34.02773,876.3000000000001 18.34055,-34.03244,868.6800000000001 18.34151,-34.03738,853.44 18.34123,-34.04224,838.2 18.34024,-34.04696,845.82 18.33887,-34.05148,830.58 18.33755,-34.05627,822.96 18.33635,-34.06115,815.34 18.33545,-34.06641,807.72 18.33478,-34.07117,800.1 18.3345,-34.07625,784.86 18.33509,-34.08164,762 18.3363,-34.08652,746.76 18.33825,-34.09131,746.76 18.34027,-34.09511,739.14 18.34257,-34.0984,723.9000000000001 18.34515,-34.10124,701.0400000000001 18.34814,-34.10366,685.8000000000001 18.3512,-34.1055,662.94 18.35445,-34.10701,647.7 18.35821,-34.1085,617.22 18.36187,-34.1098,586.74 18.36565,-34.11101,563.88 18.36914,-34.11195,548.64 18.37263,-34.11287,533.4 18.37584,-34.1139,510.54 18.37867,-34.11475,502.92 18.38153,-34.11566,502.92 18.38465,-34.1165,502.92 18.38781,-34.11736,495.3 18.391,-34.11823,487.68 18.39415,-34.11906,480.06 18.39724,-34.12,464.82000000000005 18.4009,-34.12098,457.20000000000005 18.4044,-34.12198,449.58000000000004 18.40771,-34.12293,449.58000000000004 18.41108,-34.12419,441.96000000000004 18.41432,-34.12546,441.96000000000004 18.41801,-34.12693,441.96000000000004 18.42138,-34.12824,449.58000000000004 18.42573,-34.12987,464.82000000000005 18.42894,-34.13108,472.44 18.4322,-34.13243,472.44 18.43529,-34.13382,480.06 18.43849,-34.13485,487.68 18.44244,-34.13475,480.06 18.44621,-34.13351,480.06 18.44976,-34.13173,472.44 18.45333,-34.12944,480.06 18.45646,-34.12721,487.68 18.45955,-34.12473,480.06 18.46264,-34.12191,480.06 18.46544,-34.11883,464.82000000000005 18.46768,-34.11534,457.20000000000005 18.46933,-34.11153,457.20000000000005 18.47071,-34.10783,449.58000000000004 18.47237,-34.10375,441.96000000000004 18.47401,-34.09918,434.34000000000003 18.47502,-34.09515,419.1 18.47547,-34.09085,403.86 18.4757,-34.08559,388.62 18.47564,-34.08032,373.38 18.47558,-34.07506,350.52000000000004 18.47558,-34.06993,342.90000000000003 18.47547,-34.0638,335.28000000000003 18.47536,-34.05853,327.66 18.47477,-34.0437,327.66 18.47454,-34.03844,320.04 18.47448,-34.03308,312.42 18.47466,-34.0214,320.04 18.47414,-34.00245,312.42 18.47458,-33.99747,312.42 18.4754,-33.99202,304.8 18.47626,-33.98714,304.8 18.47727,-33.98135,297.18 18.47861,-33.97527,297.18 18.47973,-33.97018,297.18 18.48102,-33.96501,289.56 18.48265,-33.95796,297.18 18.48265,-33.95274,289.56 18.48169,-33.94775,281.94 18.48001,-33.94254,281.94 18.47826,-33.93793,274.32 18.47598,-33.93333,281.94 18.47294,-33.92876,266.7 18.46991,-33.9248,251.46 18.46662,-33.92093,251.46 18.4635,-33.91763,243.84 18.45989,-33.91401,243.84 18.45652,-33.91056,236.22 18.45316,-33.90706,236.22 18.44997,-33.90335,236.22 18.44705,-33.89973,236.22 18.44427,-33.89613,236.22 18.44141,-33.89287,228.60000000000002 18.43786,-33.89035,205.74 18.43293,-33.88948,160.02 18.42888,-33.89068,114.30000000000001 18.42626,-33.89328,68.58 18.42625,-33.89701,38.1 18.42722,-33.89897,7.62 18.43346,-33.89887,38.1 18.43674,-33.89699,68.58 18.43895,-33.89273,114.30000000000001 18.43906,-33.88868,160.02 18.43691,-33.88504,198.12 18.4334,-33.88211,236.22 18.429,-33.87996,259.08000000000004 18.4239,-33.87848,289.56 18.41824,-33.87767,320.04 18.41292,-33.8774,335.28000000000003 18.40748,-33.87737,365.76 18.40204,-33.87785,388.62 18.39666,-33.87909,411.48 18.39134,-33.88124,434.34000000000003 18.38654,-33.88403,457.20000000000005 18.38248,-33.88705,480.06 18.37835,-33.89045,518.1600000000001 18.37452,-33.89399,548.64 18.3712,-33.89743,556.26 18.36763,-33.90143,571.5 18.35747,-33.91359,647.7 18.35445,-33.91786,655.32 18.35152,-33.92234,662.94 18.34896,-33.92697,678.1800000000001 18.34661,-33.93159,685.8000000000001 18.3407,-33.94352,716.2800000000001 18.33406,-33.95865,777.24 18.33018,-33.96968,800.1 18.32648,-33.98557,830.58 18.32588,-33.99128,838.2 18.32587,-33.99646,845.82 18.32671,-34.00209,853.44 18.3284,-34.00711,861.0600000000001 18.33086,-34.0123,876.3000000000001 18.33418,-34.0174,891.5400000000001 18.33725,-34.02223,899.1600000000001 18.34039,-34.02727,899.1600000000001 18.34373,-34.0322,891.5400000000001 18.34672,-34.03647,891.5400000000001 18.3502,-34.04105,883.9200000000001 18.35356,-34.04517,876.3000000000001 18.35707,-34.04952,868.6800000000001 18.3601,-34.05441,868.6800000000001 18.35976,-34.05939,853.44 18.35495,-34.06288,838.2 18.34963,-34.06174,830.58 18.34871,-34.05766,807.72 18.3526,-34.05506,792.48 18.35731,-34.0567,792.48 18.35793,-34.0612,777.24 18.35466,-34.06604,739.14 18.351,-34.07088,708.6600000000001 18.34768,-34.07582,685.8000000000001 18.34487,-34.08124,655.32 18.3428,-34.08719,632.46 18.34105,-34.09235,617.22 18.33943,-34.0974,609.6 18.33769,-34.10207,609.6 18.33484,-34.11021,594.36 18.33292,-34.11492,601.98 18.33103,-34.11948,617.22 18.32985,-34.12408,624.84 18.32951,-34.12935,632.46 18.32977,-34.13415,632.46 18.33017,-34.13871,632.46 18.33035,-34.14331,640.08 18.33075,-34.14807,609.6 18.3316,-34.15351,594.36 18.33259,-34.15901,594.36 18.33366,-34.16404,594.36 18.33469,-34.16925,601.98 18.33573,-34.17389,609.6 18.33725,-34.17838,617.22 18.33949,-34.18286,617.22 18.34184,-34.18712,609.6 18.34403,-34.19151,609.6 18.34574,-34.19569,617.22 18.34768,-34.2003,632.46 18.34951,-34.20454,647.7 18.35148,-34.20891,662.94 18.35346,-34.21282,678.1800000000001 18.35563,-34.21692,693.4200000000001 18.35731,-34.22108,701.0400000000001 18.35896,-34.2252,708.6600000000001 18.36096,-34.23033,693.4200000000001 18.36281,-34.23523,693.4200000000001 18.36443,-34.2394,701.0400000000001 18.36611,-34.24425,701.0400000000001 18.36836,-34.25098,708.6600000000001 18.36937,-34.25486,716.2800000000001 18.37069,-34.25919,716.2800000000001 18.37211,-34.26338,708.6600000000001 18.37412,-34.26826,693.4200000000001 18.37618,-34.27287,678.1800000000001 18.37833,-34.27725,670.5600000000001 18.38076,-34.28195,662.94 18.38315,-34.28673,640.08 18.38511,-34.29089,632.46 18.38708,-34.29515,624.84 18.38926,-34.29927,617.22 18.39226,-34.30369,601.98 18.395,-34.30723,594.36 18.39792,-34.31114,579.12 18.4009,-34.31487,563.88 18.40897,-34.32157,518.1600000000001 18.41269,-34.32413,495.3 18.42076,-34.32953,457.20000000000005 18.4248,-34.332,434.34000000000003 18.42889,-34.33424,419.1 18.43317,-34.33642,403.86 18.43747,-34.33855,396.24 18.4419,-34.34079,388.62 18.44588,-34.34299,381 18.44954,-34.34554,373.38 18.45303,-34.34815,365.76 18.45612,-34.35048,365.76 18.45909,-34.35308,396.24 18.46201,-34.35541,411.48 18.46516,-34.35709,419.1 18.46931,-34.35873,434.34000000000003 18.47329,-34.36002,441.96000000000004 18.47749,-34.36089,434.34000000000003 18.48175,-34.36179,441.96000000000004 18.48562,-34.36267,464.82000000000005 18.48993,-34.36342,480.06 18.49391,-34.36345,510.54 18.49806,-34.3618,525.78 18.50109,-34.35807,563.88 18.5007,-34.35333,586.74 18.49683,-34.34935,601.98 18.49033,-34.34857,617.22 18.48576,-34.35141,640.08 18.48438,-34.3558,647.7 18.48438,-34.35956,662.94 18.48404,-34.36388,678.1800000000001 18.47895,-34.3662,685.8000000000001 18.47305,-34.36281,701.0400000000001 18.47174,-34.35755,716.2800000000001 18.4726,-34.3529,723.9000000000001 18.47446,-34.34853,716.2800000000001 18.4766,-34.3441,708.6600000000001 18.47856,-34.33969,701.0400000000001 18.47986,-34.33511,701.0400000000001 18.48078,-34.33041,716.2800000000001 18.4813,-34.3255,723.9000000000001 18.48164,-34.32096,731.52 18.48281,-34.31099,731.52 18.48375,-34.30621,731.52 18.48495,-34.30083,731.52 18.4877,-34.29136,693.4200000000001 18.48907,-34.286,685.8000000000001 18.48988,-34.28023,685.8000000000001 18.49022,-34.27483,670.5600000000001 18.49027,-34.26961,670.5600000000001 18.48999,-34.26411,662.94 18.48953,-34.2583,670.5600000000001 18.4889,-34.253,670.5600000000001 18.48787,-34.24755,662.94 18.4864,-34.24219,662.94 18.48466,-34.23669,662.94 18.48287,-34.23102,647.7 18.48024,-34.22397,609.6 18.47792,-34.21822,579.12 18.4753,-34.21239,548.64 18.46897,-34.19879,541.02 18.4618,-34.1825,556.26 18.45858,-34.17353,556.26 18.4577,-34.16808,563.88 18.45776,-34.16254,556.26 18.45866,-34.15718,541.02 18.45995,-34.1521,548.64 18.46124,-34.14743,556.26 18.46275,-34.14244,563.88 18.46436,-34.13769,548.64 18.46651,-34.13269,533.4 18.46891,-34.12802,533.4 18.47174,-34.12307,525.78 18.47547,-34.11859,518.1600000000001 18.48091,-34.11617,510.54 18.48595,-34.11255,495.3 18.48759,-34.10706,472.44 18.48816,-34.10128,457.20000000000005 18.4881,-34.09486,434.34000000000003 18.48793,-34.08876,411.48 18.4878,-34.07886,388.62 18.48736,-34.05952,396.24 18.48618,-34.03976,373.38 18.48607,-34.03043,365.76 18.48598,-34.02452,365.76 18.48573,-34.01843,358.14000000000004 18.48567,-34.01193,342.90000000000003 18.48598,-34.00343,320.04 18.48646,-33.98332,297.18 18.48742,-33.97066,281.94 18.48953,-33.96479,266.7 18.49022,-33.95879,251.46 18.49028,-33.95241,236.22 18.48936,-33.9465,236.22 18.48776,-33.94086,236.22 18.48576,-33.93509,236.22 18.48278,-33.92974,228.60000000000002 18.47912,-33.92509,228.60000000000002 18.47502,-33.92065,228.60000000000002 18.47104,-33.91644,220.98000000000002 18.46664,-33.91224,228.60000000000002 18.46224,-33.90809,228.60000000000002 18.45838,-33.90445,251.46 18.45344,-33.90083,228.60000000000002 18.44805,-33.90013,205.74 18.44227,-33.90083,167.64000000000001 18.43741,-33.90147,114.30000000000001 18.43332,-33.90184,68.58 18.43102,-33.90161,45.72 18.42957,-33.90092,22.86 18.42825,-33.90009,7.62 18.42962,-33.89708,15.24 18.43122,-33.89468,45.72 18.43369,-33.89073,99.06 18.43552,-33.88696,137.16 18.4359,-33.8828,175.26000000000002 18.43437,-33.87937,228.60000000000002 18.43085,-33.8768,259.08000000000004 18.42615,-33.87534,281.94 18.42116,-33.8752,312.42 18.41617,-33.8763,350.52000000000004 18.41166,-33.87797,381 18.40725,-33.87979,411.48 18.40283,-33.88161,434.34000000000003 18.39784,-33.8838,449.58000000000004 18.39296,-33.88632,464.82000000000005 18.38814,-33.88914,480.06 18.38377,-33.89227,502.92 18.37967,-33.89543,525.78 18.37595,-33.89855,548.64 18.37228,-33.90211,563.88 18.36869,-33.90591,563.88 18.36516,-33.9099,556.26 18.36187,-33.91391,571.5 18.35878,-33.91805,586.74 18.35604,-33.92225,594.36 18.35358,-33.92639,617.22 18.35123,-33.931,640.08 18.34906,-33.9357,655.32 18.34723,-33.93979,662.94 18.34534,-33.94477,678.1800000000001 18.34358,-33.94977,693.4200000000001 18.33853,-33.96437,693.4200000000001 18.33018,-33.9879,701.0400000000001 18.32863,-33.99808,708.6600000000001 18.32878,-34.0041,716.2800000000001 18.32996,-34.00969,731.52 18.33263,-34.0146,746.76 18.33674,-34.01839,762 18.34219,-34.02084,769.62 18.45698,-34.01962,381 18.46418,-34.01479,365.76 18.46803,-34.01059,350.52000000000004 18.47216,-34.00603,342.90000000000003 18.47599,-34.00074,335.28000000000003 18.47894,-33.99453,312.42 18.48057,-33.98827,312.42 18.48174,-33.98232,312.42 18.48266,-33.97563,297.18 18.48358,-33.96924,297.18 18.47709,-33.96142,304.8 18.48259,-33.95526,304.8 18.48227,-33.94985,297.18 18.48119,-33.94455,304.8 18.47945,-33.93924,312.42 18.47732,-33.93434,312.42 18.4746,-33.92946,304.8 18.47149,-33.92436,289.56 18.46651,-33.91672,266.7 18.4595,-33.90642,236.22 18.45497,-33.90223,220.98000000000002 18.44954,-33.89999,205.74 18.44419,-33.89946,175.26000000000002 18.43825,-33.90019,129.54000000000002 18.43317,-33.90171,76.2 18.42997,-33.90199,30.48 18.42819,-33.90083,7.62 18.42768,-33.8999,7.62 18.42844,-33.89854,15.24 18.43013,-33.89607,38.1 18.43214,-33.89301,68.58 18.4342,-33.88947,106.68 18.4354,-33.88551,144.78 18.43294,-33.88156,175.26000000000002 18.42836,-33.87904,213.36 18.42334,-33.87817,236.22 18.41818,-33.87807,274.32 18.41325,-33.87854,312.42 18.40849,-33.87941,350.52000000000004 18.40384,-33.88042,388.62 18.39913,-33.88174,411.48 18.39442,-33.88344,434.34000000000003 18.38968,-33.88547,457.20000000000005 18.38516,-33.88765,487.68 18.38063,-33.89026,518.1600000000001 18.37635,-33.89282,533.4 18.33727,-33.95515,662.94 18.33142,-33.97215,693.4200000000001 18.32755,-33.98447,701.0400000000001 18.47598,-33.98094,327.66 18.47899,-33.97348,304.8 18.48318,-33.9651,281.94 18.4772,-33.95282,251.46 18.48038,-33.94381,236.22 18.4794,-33.93533,220.98000000000002 18.47547,-33.92848,220.98000000000002 18.47197,-33.92401,213.36 18.46802,-33.91954,213.36 18.46393,-33.91544,198.12 18.45933,-33.91136,190.5 18.4544,-33.90738,182.88 18.44975,-33.90399,182.88 18.44431,-33.90179,160.02 18.43855,-33.90139,121.92 18.43334,-33.90157,76.2 18.43014,-33.90167,38.1 18.42808,-33.90139,7.62
        </coordinates>
      </LineString>
    </Placemark>
    <Placemark>
      <name>Entry 1</name>
      <description><![CDATA[Entry into TMNP (incursion 1) at 2026-02-03 14:58:09 SAST]]></description>
      <Style>
        <IconStyle>
          <color>ff00ff00</color>
          <scale>0.8</scale>
          <Icon><href>http://maps.google.com/mapfiles/kml/shapes/placemark_circle.png</href></Icon>
        </IconStyle>
      </Style>
      <Point>
        <coordinates>18.33698157036623,-34.02404141748642,891.3524123602733</coordinates>
      </Point>
    </Placemark>
    <Placemark>
      <name>Exit 1</name>
      <description><![CDATA[Exit from TMNP (incursion 1) at 2026-02-03 14:58:36 SAST]]></description>
      <Style>
        <IconStyle>
          <color>ff0000ff</color>
          <scale>0.8</scale>
          <Icon><href>http://maps.google.com/mapfiles/kml/shapes/placemark_circle.png</href></Icon>
        </IconStyle>
      </Style>
      <Point>
        <coordinates>18.341266730325895,-34.03515701679241,861.0600000000001</coordinates>
      </Point>
    </Placemark>
    <Placemark>
      <name>Entry 2</name>
      <description><![CDATA[Entry into TMNP (incursion 2) at 2026-02-03 14:59:23 SAST]]></description>
      <Style>
        <IconStyle>
          <color>ff00ff00</color>
          <scale>0.8</scale>
          <Icon><href>http://maps.google.com/mapfiles/kml/shapes/placemark_circle.png</href></Icon>
        </IconStyle>
      </Style>
      <Point>
        <coordinates>18.337772927382776,-34.055343993948476,822.96</coordinates>
      </Point>
    </Placemark>
    <Placemark>
      <name>Exit 2</name>
      <description><![CDATA[Exit from TMNP (incursion 2) at 2026-02-03 14:59:25 SAST]]></description>
      <Style>
        <IconStyle>
          <color>ff0000ff</color>
          <scale>0.8</scale>
          <Icon><href>http://maps.google.com/mapfiles/kml/shapes/placemark_circle.png</href></Icon>
        </IconStyle>
      </Style>
      <Point>
        <coordinates>18.337506259799042,-34.0564549017586,822.96</coordinates>
      </Point>
    </Placemark>
    <Placemark>
      <name>Entry 3</name>
      <description><![CDATA[Entry into TMNP (incursion 3) at 2026-02-03 14:59:31 SAST]]></description>
      <Style>
        <IconStyle>
          <color>ff00ff00</color>
          <scale>0.8</scale>
          <Icon><href>http://maps.google.com/mapfiles/kml/shapes/placemark_circle.png</href></Icon>
        </IconStyle>
      </Style>
      <Point>
        <coordinates>18.33691847465409,-34.05884823686792,822.96</coordinates>
      </Point>
    </Placemark>
    <Placemark>
      <name>Exit 3</name>
      <description><![CDATA[Exit from TMNP (incursion 3) at 2026-02-03 14:59:36 SAST]]></description>
      <Style>
        <IconStyle>
          <color>ff0000ff</color>
          <scale>0.8</scale>
          <Icon><href>http://maps.google.com/mapfiles/kml/shapes/placemark_circle.png</href></Icon>
        </IconStyle>
      </Style>
      <Point>
        <coordinates>18.33645980871912,-34.06073572165059,819.1433747259156</coordinates>
      </Point>
    </Placemark>
    <Placemark>
      <name>Entry 4</name>
      <description><![CDATA[Entry into TMNP (incursion 4) at 2026-02-03 15:01:52 SAST]]></description>
      <Style>
        <IconStyle>
          <color>ff00ff00</color>
          <scale>0.8</scale>
          <Icon><href>http://maps.google.com/mapfiles/kml/shapes/placemark_circle.png</href></Icon>
        </IconStyle>
      </Style>
      <Point>
        <coordinates>18.35290095538322,-34.10633103114273,655.32</coordinates>
      </Point>
    </Placemark>
    <Placemark>
      <name>Exit 4</name>
      <description><![CDATA[Exit from TMNP (incursion 4) at 2026-02-03 15:03:18 SAST]]></description>
      <Style>
        <IconStyle>
          <color>ff0000ff</color>
          <scale>0.8</scale>
          <Icon><href>http://maps.google.com/mapfiles/kml/shapes/placemark_circle.png</href></Icon>
        </IconStyle>
      </Style>
      <Point>
        <coordinates>18.37879869928021,-34.11478736430716,502.92</coordinates>
      </Point>
    </Placemark>
    <Placemark>
      <name>Entry 5</name>
      <description><![CDATA[Entry into TMNP (incursion 5) at 2026-02-03 15:04:43 SAST]]></description>
      <Style>
        <IconStyle>
          <color>ff00ff00</color>
          <scale>0.8</scale>
          <Icon><href>http://maps.google.com/mapfiles/kml/shapes/placemark_circle.png</href></Icon>
        </IconStyle>
      </Style>
      <Point>
        <coordinates>18.401805953544862,-34.12124214960672,455.59409998398274</coordinates>
      </Point>
    </Placemark>
    <Placemark>
      <name>Exit 5</name>
      <description><![CDATA[Exit from TMNP (incursion 5) at 2026-02-03 15:05:26 SAST]]></description>
      <Style>
        <IconStyle>
          <color>ff0000ff</color>
          <scale>0.8</scale>
          <Icon><href>http://maps.google.com/mapfiles/kml/shapes/placemark_circle.png</href></Icon>
        </IconStyle>
      </Style>
      <Point>
        <coordinates>18.41405120869707,-34.12533861037932,441.96000000000004</coordinates>
      </Point>
    </Placemark>
    <Placemark>
      <name>Entry 6</name>
      <description><![CDATA[Entry into TMNP (incursion 6) at 2026-02-03 16:08:57 SAST]]></description>
      <Style>
        <IconStyle>
          <color>ff00ff00</color>
          <scale>0.8</scale>
          <Icon><href>http://maps.google.com/mapfiles/kml/shapes/placemark_circle.png</href></Icon>
        </IconStyle>
      </Style>
      <Point>
        <coordinates>18.338646245799136,-34.024549350131025,899.1600000000001</coordinates>
      </Point>
    </Placemark>
    <Placemark>
      <name>Exit 6</name>
      <description><![CDATA[Exit from TMNP (incursion 6) at 2026-02-03 16:09:18 SAST]]></description>
      <Style>
        <IconStyle>
          <color>ff0000ff</color>
          <scale>0.8</scale>
          <Icon><href>http://maps.google.com/mapfiles/kml/shapes/placemark_circle.png</href></Icon>
        </IconStyle>
      </Style>
      <Point>
        <coordinates>18.344594549556227,-34.03338773327876,891.5400000000001</coordinates>
      </Point>
    </Placemark>
    <Placemark>
      <name>Entry 7</name>
      <description><![CDATA[Entry into TMNP (incursion 7) at 2026-02-03 16:14:46 SAST]]></description>
      <Style>
        <IconStyle>
          <color>ff00ff00</color>
          <scale>0.8</scale>
          <Icon><href>http://maps.google.com/mapfiles/kml/shapes/placemark_circle.png</href></Icon>
        </IconStyle>
      </Style>
      <Point>
        <coordinates>18.330484351078738,-34.145795641330686,627.3094980001822</coordinates>
      </Point>
    </Placemark>
    <Placemark>
      <name>Exit 7</name>
      <description><![CDATA[Exit from TMNP (incursion 7) at 2026-02-03 16:15:16 SAST]]></description>
      <Style>
        <IconStyle>
          <color>ff0000ff</color>
          <scale>0.8</scale>
          <Icon><href>http://maps.google.com/mapfiles/kml/shapes/placemark_circle.png</href></Icon>
        </IconStyle>
      </Style>
      <Point>
        <coordinates>18.33268782538334,-34.15940130153336,594.36</coordinates>
      </Point>
    </Placemark>
    <Placemark>
      <name>Entry 8</name>
      <description><![CDATA[Entry into TMNP (incursion 8) at 2026-02-03 16:27:48 SAST]]></description>
      <Style>
        <IconStyle>
          <color>ff00ff00</color>
          <scale>0.8</scale>
          <Icon><href>http://maps.google.com/mapfiles/kml/shapes/placemark_circle.png</href></Icon>
        </IconStyle>
      </Style>
      <Point>
        <coordinates>18.488729547051452,-34.349122678065285,624.84</coordinates>
      </Point>
    </Placemark>
    <Placemark>
      <name>Exit 8</name>
      <description><![CDATA[Exit from TMNP (incursion 8) at 2026-02-03 16:28:06 SAST]]></description>
      <Style>
        <IconStyle>
          <color>ff0000ff</color>
          <scale>0.8</scale>
          <Icon><href>http://maps.google.com/mapfiles/kml/shapes/placemark_circle.png</href></Icon>
        </IconStyle>
      </Style>
      <Point>
        <coordinates>18.484532036865932,-34.35464358471339,647.7</coordinates>
      </Point>
    </Placemark>
    <Placemark>
      <name>Entry 9</name>
      <description><![CDATA[Entry into TMNP (incursion 9) at 2026-02-03 16:29:16 SAST]]></description>
      <Style>
        <IconStyle>
          <color>ff00ff00</color>
          <scale>0.8</scale>
          <Icon><href>http://maps.google.com/mapfiles/kml/shapes/placemark_circle.png</href></Icon>
        </IconStyle>
      </Style>
      <Point>
        <coordinates>18.472220512164107,-34.3541420870671,716.2800000000001</coordinates>
      </Point>
    </Placemark>
    <Placemark>
      <name>Exit 9</name>
      <description><![CDATA[Exit from TMNP (incursion 9) at 2026-02-03 16:29:44 SAST]]></description>
      <Style>
        <IconStyle>
          <color>ff0000ff</color>
          <scale>0.8</scale>
          <Icon><href>http://maps.google.com/mapfiles/kml/shapes/placemark_circle.png</href></Icon>
        </IconStyle>
      </Style>
      <Point>
        <coordinates>18.476986799927595,-34.34327568317734,708.6600000000001</coordinates>
      </Point>
    </Placemark>
  </Document>
</kml>