<?xml version="1.0" encoding="UTF-8"?>
<kml xmlns="http://www.opengis.net/kml/2.2">
  <Document>
    <name>FR24 40a99abc - Optimised</name>
    <description><![CDATA[Optimised flight path with 96 points (decimated from 480 original points). Source format: Standard KML]]></description>
    
    <Style id="flightPath">
      <LineStyle>
        <color>ffff0000</color>
        <width>3</width>
      </LineStyle>
    </Style>
    
    <Placemark>
      <name>Flight Path</name>
      <description><![CDATA[Optimized flight path]]></description>
      <styleUrl>#flightPath</styleUrl>
      <LineString>
        <extrude>1</extrude>
        <tessellate>1</tessellate>
        <altitudeMode>absolute</altitudeMode>
        <coordinates>
          18.43601,-33.88889,0 18.43649,-33.88365,0 18.43283,-33.88072,0 18.42773,-33.8796,0 18.42233,-33.87923,0 18.41723,-33.87941,0 18.41146,-33.87973,0 18.40591,-33.88051,0 18.40004,-33.88235,0 18.39506,-33.88537,0 18.39025,-33.88896,0 18.38551,-33.89259,0 18.38087,-33.89641,0 18.37643,-33.90019,0 18.37189,-33.90445,0 18.36811,-33.90893,0 18.36466,-33.91402,0 18.36153,-33.91908,0 18.35884,-33.92462,0 18.35649,-33.92988,0 18.35375,-33.93556,0 18.34883,-33.94687,0 18.33447,-33.9749,0 18.32665,-33.99165,0 18.31604,-34.01493,0 18.30462,-34.02882,0 18.31467,-34.06227,0 18.328,-34.08087,0 18.33472,-34.09016,0 18.3391,-34.09518,0 18.34436,-34.09993,0 18.34991,-34.10394,0 18.35627,-34.10799,0 18.36273,-34.11139,0 18.36954,-34.11441,0 18.37643,-34.11736,0 18.39214,-34.12335,0 18.40513,-34.12838,0 18.42539,-34.13606,0 18.43283,-34.13815,0 18.44032,-34.13848,0 18.44677,-34.1364,0 18.45227,-34.13297,0 18.45675,-34.12917,0 18.46152,-34.125,0 18.46611,-34.12079,0 18.46987,-34.11635,0 18.4725,-34.11182,0 18.47483,-34.10706,0 18.47626,-34.10221,0 18.47723,-34.09672,0 18.47788,-34.09145,0 18.47867,-34.08586,0 18.47934,-34.08,0 18.4799,-34.07469,0 18.48063,-34.06961,0 18.48181,-34.06423,0 18.48312,-34.05911,0 18.48444,-34.0535,0 18.48661,-34.04519,0 18.48752,-34.04013,0 18.48845,-34.03481,0 18.48893,-34.03001,0 18.48959,-34.02485,0 18.49022,-34.01977,0 18.49033,-34.01472,0 18.49005,-34.00957,0 18.48993,-34.00441,0 18.48993,-33.99901,0 18.48977,-33.99326,0 18.48965,-33.98808,0 18.48954,-33.98323,0 18.48909,-33.97192,0 18.48827,-33.96763,0 18.48724,-33.96354,0 18.48607,-33.9597,0 18.4845,-33.95544,0 18.48259,-33.95137,0 18.48032,-33.9472,0 18.47844,-33.94281,0 18.47631,-33.93826,0 18.47379,-33.93388,0 18.47116,-33.92978,0 18.46819,-33.92555,0 18.46482,-33.92134,0 18.46115,-33.9174,0 18.45737,-33.91347,0 18.45388,-33.90972,0 18.44982,-33.90641,0 18.44536,-33.90353,0 18.44094,-33.9017,0 18.43859,-33.90115,0 18.43603,-33.90078,0 18.43366,-33.90051,0 18.43136,-33.90033,0 18.42861,-33.90038,0
        </coordinates>
      </LineString>
    </Placemark>
  </Document>
</kml>