<?xml version="1.0" encoding="UTF-8"?>
<kml xmlns="http://www.opengis.net/kml/2.2">
  <Document>
    <name>FR24 3ea5935c - Optimised</name>
    <description><![CDATA[Optimised flight path with 155 points (decimated from 773 original points). Source format: Standard KML]]></description>
    
    <Style id="flightPath">
      <LineStyle>
        <color>ffff0000</color>
        <width>3</width>
      </LineStyle>
    </Style>
    
    <Placemark>
      <name>Flight Path</name>
      <description><![CDATA[Optimized flight path]]></description>
      <styleUrl>#flightPath</styleUrl>
      <LineString>
        <extrude>1</extrude>
        <tessellate>1</tessellate>
        <altitudeMode>absolute</altitudeMode>
        <coordinates>
          18.43231,-33.89468,0 18.4364,-33.88962,0 18.43741,-33.88628,0 18.43632,-33.88226,0 18.43399,-33.87868,0 18.43041,-33.87566,0 18.42592,-33.8736,0 18.4207,-33.87243,0 18.4151,-33.87236,0 18.40902,-33.87341,0 18.40324,-33.87495,0 18.39745,-33.87726,0 18.39174,-33.88053,0 18.38625,-33.88426,0 18.38052,-33.88843,0 18.37503,-33.89268,0 18.36926,-33.8972,0 18.35529,-33.90809,0 18.35042,-33.91251,0 18.34631,-33.91726,0 18.34288,-33.92234,0 18.33999,-33.9277,0 18.33801,-33.93304,0 18.33601,-33.93919,0 18.3331,-33.9505,0 18.33568,-33.95654,0 18.341,-33.95847,0 18.34625,-33.95655,0 18.34941,-33.95229,0 18.35188,-33.94725,0 18.35438,-33.94194,0 18.35724,-33.93653,0 18.35989,-33.93155,0 18.36281,-33.9267,0 18.36572,-33.92189,0 18.37097,-33.91377,0 18.37435,-33.90958,0 18.37816,-33.90532,0 18.38242,-33.90157,0 18.38717,-33.8978,0 18.39203,-33.89445,0 18.39769,-33.89115,0 18.40339,-33.88852,0 18.40919,-33.88649,0 18.41533,-33.88481,0 18.42088,-33.88371,0 18.42598,-33.88348,0 18.43102,-33.88472,0 18.43579,-33.88728,0 18.43999,-33.8903,0 18.44296,-33.89333,0 18.44324,-33.89703,0 18.43994,-33.89873,0 18.43758,-33.89874,0 18.43562,-33.89877,0 18.43382,-33.89882,0 18.43198,-33.89896,0 18.43046,-33.89923,0 18.42816,-33.90015,0 18.47855,-33.97741,0 18.48164,-33.96323,0 18.48231,-33.95737,0 18.48261,-33.95152,0 18.48242,-33.94528,0 18.48124,-33.93914,0 18.47855,-33.9336,0 18.47425,-33.92844,0 18.46959,-33.92372,0 18.42687,-33.90097,0 18.42749,-33.89964,0 18.42917,-33.89864,0 18.43153,-33.8979,0 18.43363,-33.89753,0 18.43586,-33.89743,0 18.43798,-33.8978,0 18.44107,-33.89859,0 18.44547,-33.90013,0 18.44936,-33.90153,0 18.45371,-33.90306,0 18.45789,-33.90479,0 18.46241,-33.90693,0 18.46659,-33.90935,0 18.47037,-33.91168,0 18.47441,-33.91411,0 18.47816,-33.91658,0 18.48231,-33.91988,0 18.48612,-33.9234,0 18.48954,-33.92665,0 18.49509,-33.93196,0 18.50218,-33.93891,0 18.50591,-33.94286,0 18.51002,-33.9465,0 18.51511,-33.94934,0 18.52155,-33.95068,0 18.52799,-33.95155,0 18.53445,-33.95283,0 18.54049,-33.95393,0 18.55305,-33.9559,0 18.56577,-33.95856,0 18.57054,-33.96167,0 18.57396,-33.96579,0 18.57662,-33.97033,0 18.57923,-33.97449,0 18.58186,-33.97847,0 18.58423,-33.98164,0 18.58767,-33.98146,0 18.58624,-33.97871,0 18.58393,-33.98026,0 18.5873,-33.98039,0 18.58988,-33.97691,0 18.59196,-33.97201,0 18.5935,-33.96684,0 18.59516,-33.96214,0 18.59974,-33.95818,0 18.60585,-33.95718,0 18.61238,-33.95716,0 18.61852,-33.95746,0 18.6248,-33.95781,0 18.63107,-33.95792,0 18.64357,-33.958,0 18.64997,-33.95796,0 18.65679,-33.95795,0 18.66297,-33.9579,0 18.66981,-33.95782,0 18.67641,-33.95776,0 18.68326,-33.95769,0 18.68987,-33.95741,0 18.70125,-33.95665,0 18.72459,-33.95474,0 18.73769,-33.95284,0 18.74419,-33.9516,0 18.75338,-33.94962,0 18.77496,-33.94496,0 18.79663,-33.94054,0 18.80407,-33.93924,0 18.81386,-33.93727,0 18.82965,-33.93374,0 18.83561,-33.93182,0 18.84138,-33.93044,0 18.84768,-33.93202,0 18.85271,-33.9348,0 18.85918,-33.93621,0 18.86577,-33.93576,0 18.87233,-33.93425,0 18.87857,-33.93193,0 18.88407,-33.92965,0 18.89042,-33.92788,0 18.89711,-33.92764,0 18.90318,-33.92783,0 18.90994,-33.92825,0 18.92126,-33.92923,0 18.92401,-33.92844,0 18.92473,-33.92633,0 18.92401,-33.92466,0 18.92315,-33.92331,0
        </coordinates>
      </LineString>
    </Placemark>
  </Document>
</kml>