<?xml version="1.0" encoding="UTF-8"?>
<kml xmlns="http://www.opengis.net/kml/2.2">
  <Document>
    <name>FR24 ZSHBO 3ded9bc6 - Optimised</name>
    <description><![CDATA[Optimised flight path with 197 points (decimated from 984 original points). Source format: Standard KML]]></description>
    
    <Style id="flightPath">
      <LineStyle>
        <color>ffff0000</color>
        <width>3</width>
      </LineStyle>
    </Style>
    
    <Placemark>
      <name>Flight Path</name>
      <description><![CDATA[Source: ADS-B
Start (SAST): 2026-01-16 09:03:51
End (SAST): 2026-01-16 10:05:51
Points: 984]]></description>
      <styleUrl>#flightPath</styleUrl>
      <LineString>
        <extrude>1</extrude>
        <tessellate>1</tessellate>
        <altitudeMode>absolute</altitudeMode>
        <coordinates>
          18.43405,-33.90038,45.72 18.44278,-33.89864,182.88 18.44386,-33.89946,266.7 18.44179,-33.89905,320.04 18.47843,-33.93034,289.56 18.48164,-33.93807,289.56 18.48261,-33.94258,297.18 18.48293,-33.94684,304.8 18.48248,-33.95091,350.52000000000004 18.48147,-33.9548,381 18.48015,-33.95855,411.48 18.4782,-33.96228,426.72 18.47575,-33.96579,449.58000000000004 18.47288,-33.96954,487.68 18.47025,-33.97317,518.1600000000001 18.46634,-33.97829,548.64 18.46079,-33.98575,563.88 18.45787,-33.99028,563.88 18.45497,-33.99487,563.88 18.45245,-33.99966,571.5 18.45171,-34.00478,571.5 18.45227,-34.00974,571.5 18.45308,-34.01498,563.88 18.45383,-34.02019,563.88 18.45417,-34.02591,571.5 18.45485,-34.03075,563.88 18.45591,-34.03592,563.88 18.45703,-34.04076,556.26 18.45961,-34.05116,541.02 18.46353,-34.06906,541.02 18.46628,-34.07968,533.4 18.46756,-34.08411,533.4 18.46865,-34.08904,533.4 18.46931,-34.0936,533.4 18.46985,-34.09858,533.4 18.47013,-34.10375,541.02 18.46979,-34.10883,533.4 18.46785,-34.1136,541.02 18.46441,-34.11823,548.64 18.46029,-34.12228,563.88 18.45509,-34.12577,579.12 18.44822,-34.12759,579.12 18.44117,-34.1282,586.74 18.43323,-34.12805,609.6 18.42558,-34.12642,640.08 18.41796,-34.12354,655.32 18.41118,-34.12047,662.94 18.40417,-34.11713,655.32 18.39718,-34.11395,655.32 18.38977,-34.1109,662.94 18.38322,-34.10836,670.5600000000001 18.37578,-34.10561,678.1800000000001 18.3683,-34.10316,685.8000000000001 18.35277,-34.09822,670.5600000000001 18.34532,-34.09534,685.8000000000001 18.33786,-34.09181,708.6600000000001 18.33572,-34.08611,701.0400000000001 18.34002,-34.08578,678.1800000000001 18.34305,-34.08797,678.1800000000001 18.347,-34.08778,647.7 18.34879,-34.08202,617.22 18.34801,-34.07501,617.22 18.34661,-34.06915,594.36 18.34509,-34.06252,609.6 18.34437,-34.05602,601.98 18.34369,-34.05002,586.74 18.34282,-34.04323,594.36 18.34082,-34.03672,579.12 18.33781,-34.03061,594.36 18.33388,-34.02434,594.36 18.32909,-34.01879,601.98 18.32497,-34.01326,609.6 18.32199,-34.00697,609.6 18.3209,-34.00008,624.84 18.32508,-33.99545,647.7 18.33063,-33.99486,662.94 18.33544,-33.99012,624.84 18.34016,-33.97321,624.84 18.3461,-33.95911,655.32 18.35003,-33.95031,632.46 18.35215,-33.94417,609.6 18.3544,-33.93704,594.36 18.35322,-33.93159,640.08 18.35066,-33.93239,716.2800000000001 18.35098,-33.9343,754.38 18.35182,-33.93599,792.48 18.35429,-33.93796,792.48 18.35922,-33.93484,731.52 18.3625,-33.92895,693.4200000000001 18.3651,-33.92313,647.7 18.36852,-33.91722,609.6 18.37269,-33.91196,579.12 18.37761,-33.90665,548.64 18.38254,-33.90211,556.26 18.38808,-33.89748,548.64 18.39369,-33.8932,533.4 18.39912,-33.88956,510.54 18.4057,-33.8856,472.44 18.41258,-33.88257,419.1 18.41964,-33.88174,373.38 18.42592,-33.88298,373.38 18.43091,-33.88179,358.14000000000004 18.42819,-33.87811,342.90000000000003 18.4239,-33.87717,381 18.42058,-33.87713,419.1 18.41886,-33.87868,396.24 18.42201,-33.88188,297.18 18.4257,-33.88509,251.46 18.42871,-33.88849,213.36 18.43037,-33.89189,160.02 18.43077,-33.89478,91.44 18.42997,-33.89734,30.48 18.42836,-33.89813,0 18.42727,-33.89932,0 18.42693,-33.90074,0 18.42979,-33.90097,0 18.43181,-33.90051,7.62 18.43371,-33.90005,30.48 18.43786,-33.89873,91.44 18.44134,-33.89598,152.4 18.44341,-33.89067,182.88 18.44416,-33.88496,220.98000000000002 18.44257,-33.88156,320.04 18.44255,-33.88109,381 18.44479,-33.87709,342.90000000000003 18.44717,-33.87048,304.8 18.44942,-33.86377,289.56 18.45251,-33.85241,274.32 18.45406,-33.84535,289.56 18.45554,-33.83817,297.18 18.45804,-33.82809,281.94 18.46075,-33.82137,281.94 18.46458,-33.8155,289.56 18.46959,-33.80855,304.8 18.47514,-33.8036,304.8 18.48119,-33.8015,304.8 18.48782,-33.7999,289.56 18.49442,-33.79811,281.94 18.50098,-33.79623,274.32 18.50819,-33.79413,274.32 18.51797,-33.79129,259.08000000000004 18.52642,-33.78909,251.46 18.53331,-33.78748,251.46 18.54017,-33.78598,251.46 18.54705,-33.78461,236.22 18.55579,-33.78315,243.84 18.56266,-33.78194,259.08000000000004 18.57119,-33.78068,259.08000000000004 18.57868,-33.77984,259.08000000000004 18.58612,-33.77891,259.08000000000004 18.59528,-33.77761,274.32 18.6017,-33.7782,289.56 18.60854,-33.77765,297.18 18.62143,-33.77732,297.18 18.6281,-33.77769,289.56 18.6351,-33.77686,289.56 18.6422,-33.77565,289.56 18.64879,-33.77458,297.18 18.66257,-33.77258,327.66 18.67121,-33.7716,350.52000000000004 18.67715,-33.77092,396.24 18.68471,-33.76992,426.72 18.69095,-33.76923,464.82000000000005 18.69759,-33.76867,487.68 18.70382,-33.76857,510.54 18.70983,-33.76862,518.1600000000001 18.7195,-33.76895,548.64 18.74318,-33.76968,563.88 18.75978,-33.77002,579.12 18.76688,-33.76997,579.12 18.77418,-33.76987,563.88 18.78216,-33.76997,525.78 18.78976,-33.77037,480.06 18.79727,-33.77092,457.20000000000005 18.8054,-33.7717,434.34000000000003 18.81786,-33.77337,426.72 18.82804,-33.77518,411.48 18.85311,-33.7803,350.52000000000004 18.87294,-33.78497,388.62 18.87978,-33.78678,396.24 18.88628,-33.78873,388.62 18.89236,-33.79069,403.86 18.89975,-33.79283,388.62 18.90714,-33.79477,381 18.91537,-33.79683,365.76 18.92195,-33.79818,350.52000000000004 18.92824,-33.79995,335.28000000000003 18.93465,-33.8014,320.04 18.9402,-33.80273,327.66 18.9429,-33.80644,312.42 18.93991,-33.80931,266.7 18.93854,-33.81224,243.84 18.9418,-33.80935,182.88 18.93791,-33.80539,121.92 18.93677,-33.80191,198.12 18.941,-33.80297,205.74 18.93993,-33.80621,137.16
        </coordinates>
      </LineString>
    </Placemark>
  </Document>
</kml>