<?xml version="1.0" encoding="UTF-8"?>
<kml xmlns="http://www.opengis.net/kml/2.2">
  <Document>
    <name>FR24 3fec698d - Optimised</name>
    <description><![CDATA[Optimised flight path with 601 points (decimated from 3004 original points). Source format: Standard KML]]></description>
    
    <Style id="flightPath">
      <LineStyle>
        <color>ffff0000</color>
        <width>3</width>
      </LineStyle>
    </Style>
    
    <Placemark>
      <name>Flight Path</name>
      <description><![CDATA[Optimized flight path]]></description>
      <styleUrl>#flightPath</styleUrl>
      <LineString>
        <extrude>1</extrude>
        <tessellate>1</tessellate>
        <altitudeMode>absolute</altitudeMode>
        <coordinates>
          18.43663,-33.8968,0 18.43666,-33.88868,0 18.43528,-33.88248,0 18.43042,-33.87797,0 18.42373,-33.87592,0 18.41749,-33.87579,0 18.41174,-33.87657,0 18.40588,-33.87816,0 18.40098,-33.88005,0 18.39615,-33.88258,0 18.39128,-33.88584,0 18.38694,-33.88919,0 18.38276,-33.89282,0 18.37867,-33.8968,0 18.37469,-33.90111,0 18.37082,-33.90578,0 18.36712,-33.91026,0 18.36359,-33.91452,0 18.36023,-33.91859,0 18.35707,-33.92262,0 18.35406,-33.92693,0 18.35112,-33.93146,0 18.34866,-33.93588,0 18.34599,-33.94052,0 18.34282,-33.94571,0 18.33984,-33.9505,0 18.33685,-33.95503,0 18.33372,-33.95958,0 18.32422,-33.97596,0 18.31875,-33.98625,0 18.31615,-33.99044,0 18.31354,-33.99477,0 18.31141,-33.99893,0 18.30946,-34.00334,0 18.30754,-34.00818,0 18.30505,-34.01488,0 18.30238,-34.02228,0 18.30122,-34.02671,0 18.30065,-34.03108,0 18.30064,-34.03569,0 18.30098,-34.03981,0 18.30219,-34.04412,0 18.30391,-34.04821,0 18.30643,-34.05236,0 18.309,-34.05611,0 18.31146,-34.06004,0 18.31359,-34.0648,0 18.31539,-34.06975,0 18.31736,-34.07438,0 18.31816,-34.07936,0 18.31799,-34.08434,0 18.31776,-34.0896,0 18.31707,-34.10046,0 18.31598,-34.10552,0 18.31432,-34.1104,0 18.31295,-34.11567,0 18.31192,-34.12074,0 18.31124,-34.12578,0 18.31107,-34.13072,0 18.31118,-34.13576,0 18.31146,-34.14061,0 18.31192,-34.14537,0 18.31303,-34.15031,0 18.31505,-34.15535,0 18.3174,-34.15993,0 18.31993,-34.16409,0 18.32295,-34.16862,0 18.32777,-34.17545,0 18.33847,-34.18959,0 18.34257,-34.19559,0 18.34488,-34.19988,0 18.34683,-34.20474,0 18.34866,-34.20961,0 18.35048,-34.2144,0 18.35232,-34.21934,0 18.35412,-34.22429,0 18.35658,-34.23106,0 18.3614,-34.24278,0 18.36411,-34.24881,0 18.36943,-34.26105,0 18.37303,-34.26929,0 18.37629,-34.27604,0 18.38076,-34.28433,0 18.39031,-34.30099,0 18.39543,-34.30811,0 18.39952,-34.31254,0 18.40445,-34.31781,0 18.41286,-34.32674,0 18.41726,-34.33069,0 18.422,-34.33452,0 18.42665,-34.33804,0 18.43134,-34.3414,0 18.43601,-34.34468,0 18.44095,-34.3482,0 18.44543,-34.35146,0 18.45047,-34.35512,0 18.45566,-34.35867,0 18.46127,-34.3623,0 18.46607,-34.3657,0 18.47144,-34.3688,0 18.47699,-34.37096,0 18.48312,-34.37198,0 18.4889,-34.37226,0 18.49369,-34.37132,0 18.49852,-34.36919,0 18.50215,-34.36647,0 18.50492,-34.36374,0 18.50636,-34.3603,0 18.50618,-34.35672,0 18.50456,-34.35301,0 18.50154,-34.34779,0 18.4984,-34.34294,0 18.49313,-34.33736,0 18.48859,-34.33086,0 18.48719,-34.32431,0 18.48618,-34.31726,0 18.48562,-34.31058,0 18.48495,-34.30136,0 18.48352,-34.27865,0 18.48341,-34.27143,0 18.48349,-34.26031,0 18.48253,-34.24773,0 18.48146,-34.2408,0 18.47963,-34.23382,0 18.47712,-34.22716,0 18.47413,-34.22035,0 18.47008,-34.21152,0 18.46572,-34.20355,0 18.4623,-34.19737,0 18.45675,-34.19248,0 18.44971,-34.19234,0 18.44805,-34.19685,0 18.45325,-34.2003,0 18.45815,-34.20465,0 18.46146,-34.20946,0 18.46415,-34.21458,0 18.46695,-34.21971,0 18.47099,-34.22423,0 18.47586,-34.22804,0 18.47883,-34.23056,0 18.48035,-34.23225,0 18.4808,-34.23367,0 18.47962,-34.23427,0 18.47803,-34.234,0 18.47643,-34.23413,0 18.475,-34.23517,0 18.47755,-34.23605,0 18.47923,-34.23484,0 18.47996,-34.23248,0 18.47996,-34.22997,0 18.47917,-34.22543,0 18.47799,-34.21989,0 18.47631,-34.21436,0 18.47431,-34.20826,0 18.47267,-34.20255,0 18.47094,-34.19541,0 18.46987,-34.18895,0 18.46928,-34.18317,0 18.46897,-34.17622,0 18.46863,-34.17055,0 18.46802,-34.16061,0 18.46819,-34.1521,0 18.4687,-34.1463,0 18.46959,-34.14006,0 18.47042,-34.13406,0 18.47162,-34.12428,0 18.47357,-34.10119,0 18.47497,-34.07927,0 18.47525,-34.06458,0 18.47506,-34.05771,0 18.4748,-34.05157,0 18.4748,-34.0302,0 18.47563,-34.01991,0 18.47755,-33.99898,0 18.48046,-33.97339,0 18.48318,-33.95515,0 18.48265,-33.9478,0 18.48101,-33.94063,0 18.47856,-33.93439,0 18.47437,-33.92746,0 18.46936,-33.92152,0 18.46325,-33.91562,0 18.45703,-33.91031,0 18.45053,-33.90477,0 18.44403,-33.89864,0 18.43821,-33.89333,0 18.43151,-33.89073,0 18.42619,-33.89198,0 18.42567,-33.89389,0 18.42615,-33.89598,0 18.42648,-33.89743,0 18.42715,-33.89946,0 18.42756,-33.90064,0 18.42929,-33.90092,0 18.43174,-33.90115,0 18.43427,-33.90028,0 18.43586,-33.89813,0 18.4354,-33.89254,0 18.43483,-33.88705,0 18.43069,-33.88184,0 18.42469,-33.87914,0 18.41772,-33.87751,0 18.41107,-33.87653,0 18.40422,-33.87639,0 18.39781,-33.87741,0 18.39277,-33.87946,0 18.38797,-33.88252,0 18.38327,-33.88654,0 18.37901,-33.89026,0 18.37514,-33.8942,0 18.37166,-33.89897,0 18.36857,-33.904,0 18.36589,-33.90871,0 18.36348,-33.91386,0 18.3609,-33.91903,0 18.35724,-33.92616,0 18.35132,-33.93759,0 18.34431,-33.95251,0 18.34602,-33.95497,0 18.34883,-33.94989,0 18.35193,-33.9445,0 18.35558,-33.93924,0 18.35916,-33.93425,0 18.36308,-33.92908,0 18.36691,-33.92387,0 18.3706,-33.91891,0 18.37733,-33.91022,0 18.38136,-33.90541,0 18.38568,-33.90064,0 18.38977,-33.89589,0 18.3952,-33.89218,0 18.4013,-33.88914,0 18.4081,-33.88701,0 18.41482,-33.88586,0 18.42149,-33.88518,0 18.42854,-33.885,0 18.43214,-33.88069,0 18.42581,-33.87749,0 18.41891,-33.87648,0 18.41675,-33.88049,0 18.4192,-33.88454,0 18.4211,-33.88765,0 18.42236,-33.89012,0 18.42384,-33.89315,0 18.42458,-33.89461,0 18.42567,-33.89655,0 18.4267,-33.89836,0 18.42721,-33.89983,0 18.42802,-33.90074,0 18.42929,-33.90097,0 18.43151,-33.90115,0 18.433,-33.90092,0 18.43461,-33.89708,0 18.43523,-33.89161,0 18.43584,-33.88628,0 18.43315,-33.88037,0 18.42553,-33.87685,0 18.41835,-33.87584,0 18.4116,-33.87583,0 18.40535,-33.87657,0 18.39935,-33.87816,0 18.39403,-33.88033,0 18.38921,-33.88303,0 18.38482,-33.88659,0 18.3811,-33.89045,0 18.37744,-33.89455,0 18.37396,-33.899,0 18.37065,-33.90367,0 18.3676,-33.90842,0 18.36482,-33.91283,0 18.36164,-33.91782,0 18.35866,-33.9229,0 18.35592,-33.92797,0 18.35333,-33.93338,0 18.35129,-33.93849,0 18.34866,-33.94431,0 18.34515,-33.95146,0 18.34219,-33.9565,0 18.33685,-33.96497,0 18.33192,-33.9727,0 18.32811,-33.97902,0 18.3252,-33.98425,0 18.31998,-33.99445,0 18.31324,-34.01055,0 18.30911,-34.01999,0 18.30528,-34.0262,0 18.30173,-34.0315,0 18.30064,-34.0377,0 18.30397,-34.04198,0 18.32869,-34.00934,0 18.33406,-33.99626,0 18.33675,-33.99035,0 18.33921,-33.98467,0 18.3461,-33.96927,0 18.35322,-33.95512,0 18.3593,-33.94291,0 18.36714,-33.92504,0 18.3708,-33.91726,0 18.37395,-33.912,0 18.37767,-33.90665,0 18.38127,-33.9019,0 18.38551,-33.89687,0 18.39067,-33.89218,0 18.39712,-33.88873,0 18.40387,-33.8857,0 18.41079,-33.88394,0 18.41755,-33.883,0 18.42424,-33.88275,0 18.42894,-33.88486,0 18.43128,-33.88826,0 18.42693,-33.89085,0 18.42201,-33.89254,0 18.42295,-33.89456,0 18.42407,-33.89584,0 18.42527,-33.89711,0 18.42682,-33.89906,0 18.42682,-33.90051,0 18.42755,-33.90147,0 18.42899,-33.90181,0 18.4306,-33.90171,0 18.43248,-33.90129,0 18.43431,-33.90004,0 18.43426,-33.89631,0 18.43304,-33.89122,0 18.43147,-33.886,0 18.4271,-33.88069,0 18.42121,-33.87671,0 18.41376,-33.87479,0 18.40702,-33.87462,0 18.40031,-33.87575,0 18.39489,-33.87778,0 18.38997,-33.88091,0 18.38596,-33.88435,0 18.38237,-33.8882,0 18.37887,-33.89203,0 18.37532,-33.89627,0 18.37183,-33.90106,0 18.36852,-33.90587,0 18.36555,-33.91054,0 18.36241,-33.9153,0 18.35936,-33.92033,0 18.35412,-33.92976,0 18.35165,-33.93503,0 18.34935,-33.94089,0 18.34734,-33.94701,0 18.34368,-33.95781,0 18.33292,-33.98011,0 18.32428,-33.99463,0 18.32121,-33.99976,0 18.31763,-34.00502,0 18.31432,-34.00981,0 18.3086,-34.01842,0 18.30517,-34.02438,0 18.30317,-34.03015,0 18.4271,-33.90111,0 18.42912,-33.90129,0 18.43125,-33.90106,0 18.43355,-33.90056,0 18.43609,-33.89808,0 18.43678,-33.8932,0 18.43652,-33.88806,0 18.43489,-33.88266,0 18.42951,-33.87914,0 18.42327,-33.87723,0 18.41695,-33.87671,0 18.41079,-33.87712,0 18.40434,-33.87827,0 18.39818,-33.88023,0 18.39274,-33.8828,0 18.38774,-33.88598,0 18.3831,-33.88953,0 18.37887,-33.89329,0 18.37497,-33.89735,0 18.37088,-33.90198,0 18.36708,-33.90683,0 18.36365,-33.91187,0 18.36079,-33.91681,0 18.35799,-33.92212,0 18.35518,-33.92793,0 18.35098,-33.93782,0 18.34671,-33.94901,0 18.34504,-33.95503,0 18.35403,-33.9565,0 18.35781,-33.94808,0 18.36033,-33.94161,0 18.36468,-33.93072,0 18.36828,-33.92308,0 18.37183,-33.9175,0 18.37553,-33.91228,0 18.37912,-33.90715,0 18.3831,-33.90167,0 18.38785,-33.89655,0 18.3938,-33.89236,0 18.40143,-33.88948,0 18.40874,-33.88765,0 18.41681,-33.88612,0 18.4247,-33.88505,0 18.4313,-33.88531,0 18.43349,-33.88939,0 18.42839,-33.89209,0 18.42558,-33.89365,0 18.42522,-33.8958,0 18.42598,-33.89731,0 18.42699,-33.89906,0 18.42687,-33.90056,0 18.42884,-33.90147,0 18.43102,-33.90184,0 18.43254,-33.90176,0 18.43472,-33.90092,0 18.43719,-33.89877,0 18.43803,-33.89493,0 18.43746,-33.89115,0 18.43624,-33.8871,0 18.43265,-33.88376,0 18.42785,-33.8823,0 18.42258,-33.8816,0 18.41749,-33.88128,0 18.41171,-33.88123,0 18.40559,-33.88132,0 18.39993,-33.88188,0 18.39481,-33.8833,0 18.38911,-33.88598,0 18.38396,-33.88877,0 18.37904,-33.89166,0 18.37458,-33.89487,0 18.37069,-33.89822,0 18.36691,-33.90246,0 18.36387,-33.90674,0 18.36096,-33.91159,0 18.35793,-33.91722,0 18.35529,-33.92276,0 18.353,-33.92839,0 18.35098,-33.93402,0 18.34801,-33.94254,0 18.3447,-33.9613,0 18.35748,-33.95819,0 18.35827,-33.94981,0 18.35849,-33.94327,0 18.35913,-33.93742,0 18.3609,-33.9309,0 18.36376,-33.9248,0 18.36725,-33.9194,0 18.37114,-33.91419,0 18.37587,-33.9088,0 18.38063,-33.90376,0 18.38528,-33.89925,0 18.39031,-33.89464,0 18.39616,-33.8903,0 18.40233,-33.88644,0 18.40914,-33.88291,0 18.41639,-33.88106,0 18.4239,-33.88206,0 18.43042,-33.88449,0 18.43657,-33.88765,0 18.44117,-33.89168,0 18.441,-33.89571,0 18.4359,-33.89603,0 18.43035,-33.8947,0 18.42643,-33.89479,0 18.4259,-33.89682,0 18.42648,-33.89827,0 18.4271,-33.89967,0 18.42699,-33.90102,0 18.42882,-33.90148,0 18.43057,-33.90161,0 18.43294,-33.90148,0 18.43472,-33.90125,0 18.43735,-33.89952,0 18.43825,-33.89635,0 18.43792,-33.89246,0 18.43691,-33.88852,0 18.43377,-33.88531,0 18.42917,-33.88339,0 18.42435,-33.88248,0 18.41936,-33.88193,0 18.41438,-33.88161,0 18.40961,-33.88142,0 18.40462,-33.88188,0 18.39963,-33.88312,0 18.39448,-33.88527,0 18.38923,-33.88784,0 18.38408,-33.89063,0 18.37933,-33.89371,0 18.37509,-33.89687,0 18.37109,-33.90032,0 18.36691,-33.90446,0 18.36342,-33.90842,0 18.36033,-33.91261,0 18.35747,-33.91708,0 18.3553,-33.92175,0 18.35363,-33.92699,0 18.35238,-33.93279,0 18.3512,-33.93883,0 18.34902,-33.95288,0 18.34311,-33.97429,0 18.33142,-33.99989,0 18.32951,-34.0058,0 18.32945,-34.01225,0 18.33189,-34.01758,0 18.33557,-34.02274,0 18.33973,-34.02815,0 18.3428,-34.03304,0 18.34551,-34.03848,0 18.34843,-34.04384,0 18.35098,-34.04929,0 18.34722,-34.05286,0 18.34167,-34.05116,0 18.33898,-34.04576,0 18.33742,-34.03995,0 18.33579,-34.03423,0 18.33405,-34.02832,0 18.33212,-34.02145,0 18.33126,-34.01563,0 18.3313,-34.00919,0 18.33269,-34.00334,0 18.33595,-33.99361,0 18.3447,-33.96886,0 18.3482,-33.95222,0 18.35066,-33.94328,0 18.3535,-33.93759,0 18.35661,-33.93202,0 18.35993,-33.92667,0 18.36342,-33.9215,0 18.36868,-33.91428,0 18.37309,-33.9093,0 18.37788,-33.90427,0 18.38512,-33.89708,0 18.39151,-33.89145,0 18.39643,-33.88761,0 18.40279,-33.88398,0 18.40961,-33.88152,0 18.41663,-33.88118,0 18.42407,-33.88284,0 18.43057,-33.88495,0 18.43678,-33.88794,0 18.44167,-33.89214,0 18.4425,-33.89678,0 18.43752,-33.8979,0 18.43254,-33.89557,0 18.42788,-33.8941,0 18.42581,-33.89626,0 18.42721,-33.8979,0 18.42743,-33.89951,0 18.42687,-33.90083,0 18.42773,-33.89906,0 18.42854,-33.89771,0 18.43001,-33.89543,0 18.43134,-33.89352,0 18.43293,-33.89099,0 18.43495,-33.88733,0 18.43528,-33.88353,0 18.43197,-33.88109,0 18.42751,-33.88039,0 18.42213,-33.87993,0 18.41715,-33.87979,0 18.412,-33.88011,0 18.40681,-33.88106,0 18.4016,-33.88248,0 18.39672,-33.88399,0 18.39184,-33.88591,0 18.38699,-33.88821,0 18.38226,-33.8909,0 18.37733,-33.89397,0 18.37263,-33.89711,0 18.36852,-33.90033,0 18.36468,-33.90446,0 18.36152,-33.90921,0 18.35861,-33.91419,0 18.35615,-33.91922,0 18.35412,-33.92436,0 18.35238,-33.92953,0 18.35072,-33.93467,0 18.3456,-33.95201,0 18.34554,-33.96227,0 18.35615,-33.95739,0 18.35735,-33.94873,0 18.35798,-33.94203,0 18.359,-33.93567,0 18.36068,-33.92899,0 18.36342,-33.92294,0 18.36712,-33.91772,0 18.37166,-33.91232,0 18.37598,-33.90756,0 18.38119,-33.90257,0 18.38657,-33.89836,0 18.39203,-33.89482,0 18.39775,-33.89115,0 18.40956,-33.88362,0 18.41555,-33.88087,0 18.4223,-33.88067,0 18.42889,-33.88344,0 18.4345,-33.88701,0 18.44004,-33.8911,0 18.44403,-33.8952,0 18.44291,-33.90001,0 18.43849,-33.90241,0 18.43494,-33.90004,0 18.43225,-33.89836,0 18.43013,-33.89914,0 18.42836,-33.8999,0 18.42699,-33.90033,0
        </coordinates>
      </LineString>
    </Placemark>
  </Document>
</kml>