<?xml version="1.0" encoding="UTF-8"?>
<kml xmlns="http://www.opengis.net/kml/2.2">
  <Document>
    <name>FR24 41157efc - Optimised</name>
    <description><![CDATA[Optimised flight path with 969 points (decimated from 4844 original points). Source format: Standard KML]]></description>
    
    <Style id="flightPath">
      <LineStyle>
        <color>ffff0000</color>
        <width>3</width>
      </LineStyle>
    </Style>
    
    <Placemark>
      <name>Flight Path</name>
      <description><![CDATA[Optimized flight path]]></description>
      <styleUrl>#flightPath</styleUrl>
      <LineString>
        <extrude>1</extrude>
        <tessellate>1</tessellate>
        <altitudeMode>absolute</altitudeMode>
        <coordinates>
          18.43529,-33.89915,0 18.43724,-33.89397,0 18.43609,-33.88849,0 18.43311,-33.88323,0 18.4285,-33.87831,0 18.42189,-33.87529,0 18.41522,-33.87465,0 18.40832,-33.87529,0 18.4025,-33.87648,0 18.39577,-33.87863,0 18.39027,-33.88074,0 18.38493,-33.88351,0 18.38013,-33.88659,0 18.37584,-33.88989,0 18.37183,-33.8936,0 18.36824,-33.89758,0 18.36494,-33.9017,0 18.36185,-33.90578,0 18.35913,-33.90995,0 18.35675,-33.91429,0 18.35409,-33.91856,0 18.3512,-33.92271,0 18.34863,-33.92674,0 18.34616,-33.93082,0 18.34368,-33.93491,0 18.34134,-33.93933,0 18.33938,-33.94373,0 18.33773,-33.94803,0 18.33624,-33.95218,0 18.34257,-33.95517,0 18.34885,-33.94698,0 18.35199,-33.94148,0 18.3553,-33.93553,0 18.35843,-33.9299,0 18.36197,-33.92372,0 18.36554,-33.91759,0 18.36897,-33.91228,0 18.37256,-33.90688,0 18.37646,-33.90176,0 18.38093,-33.89692,0 18.38573,-33.89305,0 18.39077,-33.88984,0 18.39666,-33.88682,0 18.4025,-33.88407,0 18.40822,-33.88198,0 18.41423,-33.88095,0 18.41995,-33.88053,0 18.42475,-33.88097,0 18.42777,-33.88344,0 18.42912,-33.88614,0 18.42991,-33.88863,0 18.43013,-33.8909,0 18.42979,-33.89282,0 18.429,-33.89507,0 18.42825,-33.89659,0 18.4276,-33.89822,0 18.42716,-33.89981,0 18.42722,-33.90078,0 18.42865,-33.90092,0 18.43057,-33.90097,0 18.43225,-33.90078,0 18.43399,-33.90042,0 18.43713,-33.89731,0 18.43674,-33.89163,0 18.43461,-33.88545,0 18.43029,-33.88005,0 18.4235,-33.87667,0 18.41667,-33.8757,0 18.41063,-33.87606,0 18.40434,-33.8774,0 18.39838,-33.87923,0 18.39306,-33.88146,0 18.38802,-33.88421,0 18.38322,-33.88724,0 18.37822,-33.89085,0 18.374,-33.89445,0 18.36988,-33.89817,0 18.36605,-33.90237,0 18.36281,-33.90633,0 18.3595,-33.91031,0 18.3567,-33.91388,0 18.35409,-33.91754,0 18.35169,-33.92141,0 18.34934,-33.92517,0 18.34602,-33.93053,0 18.34385,-33.93449,0 18.34185,-33.93849,0 18.33949,-33.94272,0 18.33719,-33.94638,0 18.33484,-33.95013,0 18.33258,-33.9538,0 18.32424,-33.9673,0 18.3155,-33.98332,0 18.3081,-33.99966,0 18.30379,-34.00655,0 18.2995,-34.0154,0 18.29717,-34.02489,0 18.29627,-34.03125,0 18.29315,-34.03383,0 18.28882,-34.02576,0 18.2975,-34.00813,0 18.30448,-33.9984,0 18.316,-33.98232,0 18.32994,-33.96074,0 18.34259,-33.94357,0 18.3539,-33.92665,0 18.35832,-33.91997,0 18.36225,-33.91415,0 18.36583,-33.90907,0 18.3697,-33.90381,0 18.37372,-33.89887,0 18.37856,-33.89447,0 18.38425,-33.8905,0 18.38994,-33.88728,0 18.39575,-33.88458,0 18.40154,-33.88239,0 18.40765,-33.88053,0 18.4132,-33.87932,0 18.41942,-33.87881,0 18.42413,-33.88028,0 18.42642,-33.88356,0 18.42727,-33.88637,0 18.42785,-33.88882,0 18.428,-33.89085,0 18.42794,-33.89264,0 18.42785,-33.89436,0 18.42772,-33.89616,0 18.42768,-33.8978,0 18.42733,-33.89943,0 18.42693,-33.90074,0 18.42816,-33.90102,0 18.42974,-33.90148,0 18.43136,-33.90184,0 18.43321,-33.90179,0 18.43512,-33.90129,0 18.43763,-33.89939,0 18.43898,-33.89507,0 18.43832,-33.89022,0 18.43615,-33.88519,0 18.43293,-33.88124,0 18.42785,-33.87853,0 18.42207,-33.87741,0 18.41617,-33.87703,0 18.41045,-33.87708,0 18.40473,-33.87785,0 18.39896,-33.87927,0 18.39375,-33.8811,0 18.38893,-33.88348,0 18.38448,-33.88612,0 18.37961,-33.88929,0 18.37531,-33.89264,0 18.37091,-33.8965,0 18.36679,-33.90013,0 18.36286,-33.90353,0 18.3593,-33.90702,0 18.35619,-33.91026,0 18.35311,-33.91365,0 18.35014,-33.91717,0 18.34728,-33.9208,0 18.34414,-33.9248,0 18.33979,-33.92732,0 18.33383,-33.92702,0 18.32934,-33.92267,0 18.33046,-33.91698,0 18.33506,-33.91434,0 18.33916,-33.91498,0 18.34127,-33.91838,0 18.34087,-33.92225,0 18.33899,-33.92634,0 18.3363,-33.931,0 18.33355,-33.93542,0 18.33138,-33.93919,0 18.32794,-33.94417,0 18.3252,-33.94821,0 18.32228,-33.95293,0 18.31844,-33.96,0 18.31186,-33.97545,0 18.30391,-33.99435,0 18.30116,-34.00767,0 18.29704,-34.02573,0 18.29274,-34.03514,0 18.29189,-34.03955,0 18.29149,-34.04388,0 18.29138,-34.04817,0 18.29151,-34.0524,0 18.29201,-34.06,0 18.29292,-34.0659,0 18.29381,-34.07011,0 18.29493,-34.07414,0 18.29313,-34.07813,0 18.28719,-34.07858,0 18.28316,-34.07419,0 18.28489,-34.06805,0 18.28989,-34.06632,0 18.29381,-34.06888,0 18.29487,-34.07302,0 18.29533,-34.07735,0 18.29578,-34.08168,0 18.29613,-34.08601,0 18.29647,-34.09183,0 18.2975,-34.10582,0 18.29933,-34.11916,0 18.30042,-34.12614,0 18.30255,-34.13585,0 18.30373,-34.13942,0 18.3053,-34.14345,0 18.30715,-34.14784,0 18.31001,-34.15329,0 18.31219,-34.15691,0 18.3161,-34.1632,0 18.31884,-34.16827,0 18.32273,-34.17531,0 18.32857,-34.1862,0 18.33024,-34.18982,0 18.33321,-34.19623,0 18.33498,-34.20012,0 18.33675,-34.20393,0 18.33831,-34.20753,0 18.34185,-34.21524,0 18.34381,-34.21999,0 18.34539,-34.22409,0 18.34694,-34.22846,0 18.34846,-34.23248,0 18.35026,-34.23638,0 18.35227,-34.24049,0 18.35658,-34.24919,0 18.36415,-34.26274,0 18.37189,-34.27674,0 18.38405,-34.29382,0 18.38905,-34.30099,0 18.39184,-34.30476,0 18.39498,-34.30852,0 18.39806,-34.31204,0 18.40227,-34.31631,0 18.40602,-34.31969,0 18.41217,-34.32515,0 18.41938,-34.3313,0 18.42323,-34.33443,0 18.42699,-34.3374,0 18.431,-34.34047,0 18.43483,-34.34326,0 18.43881,-34.34596,0 18.44274,-34.34866,0 18.44655,-34.35146,0 18.44986,-34.35411,0 18.45316,-34.35704,0 18.45686,-34.36053,0 18.46064,-34.36333,0 18.46561,-34.36569,0 18.47161,-34.36734,0 18.47783,-34.36816,0 18.48381,-34.36826,0 18.48965,-34.36798,0 18.49604,-34.36716,0 18.50275,-34.36626,0 18.5079,-34.36817,0 18.50709,-34.37224,0 18.50029,-34.37422,0 18.49302,-34.3737,0 18.48579,-34.3726,0 18.47855,-34.37152,0 18.47157,-34.37105,0 18.46796,-34.37407,0 18.47194,-34.37654,0 18.47828,-34.37448,0 18.48472,-34.3716,0 18.49066,-34.36839,0 18.4966,-34.36441,0 18.50131,-34.35869,0 18.50277,-34.35182,0 18.50224,-34.34494,0 18.50115,-34.33758,0 18.49989,-34.33027,0 18.49909,-34.32334,0 18.49857,-34.31593,0 18.49823,-34.30893,0 18.49783,-34.30202,0 18.49739,-34.29515,0 18.49711,-34.28838,0 18.49683,-34.28091,0 18.49576,-34.25871,0 18.49391,-34.23642,0 18.49148,-34.21245,0 18.49005,-34.1933,0 18.48936,-34.18563,0 18.48769,-34.17865,0 18.48673,-34.17097,0 18.48635,-34.164,0 18.48621,-34.15705,0 18.48584,-34.14693,0 18.4841,-34.12326,0 18.48227,-34.10082,0 18.48169,-34.07838,0 18.48227,-34.07084,0 18.48295,-34.06302,0 18.48404,-34.04849,0 18.48478,-34.02956,0 18.4849,-34.00581,0 18.48595,-33.98405,0 18.48612,-33.97517,0 18.48581,-33.96805,0 18.48523,-33.9608,0 18.48455,-33.95302,0 18.48349,-33.94592,0 18.48209,-33.93835,0 18.48041,-33.93123,0 18.47839,-33.92477,0 18.47569,-33.91852,0 18.47245,-33.91273,0 18.46865,-33.90702,0 18.46443,-33.9012,0 18.46041,-33.8958,0 18.4558,-33.89035,0 18.45086,-33.88522,0 18.44513,-33.88105,0 18.43842,-33.87895,0 18.43151,-33.87793,0 18.42733,-33.87988,0 18.42659,-33.88253,0 18.42632,-33.88554,0 18.42602,-33.887,0 18.42527,-33.88887,0 18.42487,-33.89022,0 18.42482,-33.89147,0 18.42505,-33.8932,0 18.42558,-33.89507,0 18.42632,-33.89694,0 18.42688,-33.89836,0 18.4271,-33.89976,0 18.42705,-33.90088,0 18.42794,-33.90134,0 18.42973,-33.90152,0 18.43151,-33.90144,0 18.43304,-33.90134,0 18.43557,-33.90092,0 18.43906,-33.89925,0 18.44204,-33.89515,0 18.44227,-33.88975,0 18.43971,-33.88463,0 18.43546,-33.88011,0 18.43041,-33.87685,0 18.4247,-33.87434,0 18.41881,-33.87257,0 18.41286,-33.87201,0 18.40597,-33.87213,0 18.40014,-33.87254,0 18.39453,-33.87378,0 18.38904,-33.87579,0 18.38388,-33.87827,0 18.37967,-33.88081,0 18.37584,-33.88365,0 18.37183,-33.8871,0 18.36824,-33.89076,0 18.36456,-33.89445,0 18.36073,-33.89804,0 18.35724,-33.90125,0 18.35392,-33.9046,0 18.35072,-33.90818,0 18.34768,-33.91172,0 18.34465,-33.91549,0 18.34229,-33.91905,0 18.33984,-33.92289,0 18.33769,-33.92665,0 18.33551,-33.93063,0 18.33132,-33.9377,0 18.32685,-33.94496,0 18.32451,-33.9491,0 18.32228,-33.95325,0 18.31651,-33.96396,0 18.30687,-33.98259,0 18.30177,-33.99513,0 18.30535,-34.00031,0 18.31123,-33.99901,0 18.31644,-33.99361,0 18.32525,-33.97527,0 18.33561,-33.95842,0 18.34397,-33.94373,0 18.34969,-33.93448,0 18.35311,-33.92885,0 18.35655,-33.92341,0 18.3633,-33.91307,0 18.36948,-33.90482,0 18.3736,-33.90004,0 18.37778,-33.89557,0 18.38287,-33.8911,0 18.38831,-33.88733,0 18.39319,-33.88412,0 18.39832,-33.88095,0 18.4044,-33.8779,0 18.41039,-33.87607,0 18.41662,-33.87593,0 18.42121,-33.87774,0 18.42167,-33.88142,0 18.41806,-33.88449,0 18.41829,-33.88794,0 18.4229,-33.88637,0 18.42642,-33.88291,0 18.43013,-33.88239,0 18.43046,-33.88513,0 18.42777,-33.88737,0 18.42626,-33.88934,0 18.42596,-33.89119,0 18.42598,-33.89314,0 18.42632,-33.89461,0 18.42682,-33.89631,0 18.42716,-33.8978,0 18.42732,-33.89923,0 18.4271,-33.90038,0 18.42766,-33.90111,0 18.42979,-33.90102,0 18.4314,-33.90078,0 18.43306,-33.90032,0 18.43517,-33.89869,0 18.43609,-33.89641,0 18.435,-33.89072,0 18.43283,-33.88551,0 18.429,-33.88115,0 18.42316,-33.8783,0 18.41617,-33.87685,0 18.41005,-33.87676,0 18.403,-33.87822,0 18.3975,-33.87991,0 18.39163,-33.88244,0 18.38657,-33.88499,0 18.38192,-33.88783,0 18.37721,-33.89127,0 18.3734,-33.89461,0 18.36977,-33.89817,0 18.36651,-33.90176,0 18.36376,-33.90516,0 18.36027,-33.90888,0 18.35737,-33.91228,0 18.35462,-33.91562,0 18.3521,-33.91901,0 18.34935,-33.92294,0 18.34666,-33.92674,0 18.34409,-33.93086,0 18.33538,-33.94556,0 18.32677,-33.96162,0 18.31746,-33.98117,0 18.32183,-33.98318,0 18.32714,-33.96865,0 18.33447,-33.9519,0 18.34242,-33.93244,0 18.35032,-33.9161,0 18.35369,-33.91032,0 18.35741,-33.90497,0 18.36191,-33.89951,0 18.36714,-33.8945,0 18.3728,-33.89031,0 18.37884,-33.88683,0 18.38476,-33.88412,0 18.39061,-33.8822,0 18.39718,-33.88044,0 18.40353,-33.87914,0 18.40961,-33.87822,0 18.41533,-33.87753,0 18.42121,-33.87708,0 18.42625,-33.87727,0 18.4294,-33.87927,0 18.43014,-33.88244,0 18.42991,-33.88547,0 18.42945,-33.88854,0 18.42905,-33.8911,0 18.42854,-33.89352,0 18.42808,-33.8951,0 18.42768,-33.89673,0 18.42745,-33.89827,0 18.42722,-33.89962,0 18.42693,-33.90074,0 18.42945,-33.90115,0 18.43117,-33.90097,0 18.43334,-33.90041,0 18.43539,-33.89896,0 18.43655,-33.8965,0 18.4366,-33.89166,0 18.43472,-33.88631,0 18.43105,-33.88091,0 18.42648,-33.87672,0 18.42001,-33.87402,0 18.41337,-33.87346,0 18.40675,-33.87415,0 18.40233,-33.87667,0 18.40479,-33.87807,0 18.40857,-33.87662,0 18.40804,-33.87305,0 18.40266,-33.87346,0 18.39649,-33.87564,0 18.3914,-33.87807,0 18.38671,-33.881,0 18.38203,-33.88422,0 18.37755,-33.88806,0 18.37357,-33.89218,0 18.37011,-33.89627,0 18.36668,-33.9006,0 18.36365,-33.9044,0 18.36044,-33.90828,0 18.35771,-33.912,0 18.35524,-33.91591,0 18.35295,-33.91991,0 18.35031,-33.92422,0 18.34757,-33.92839,0 18.34526,-33.93201,0 18.35104,-33.93393,0 18.35363,-33.92937,0 18.35506,-33.92471,0 18.35215,-33.9202,0 18.34638,-33.92029,0 18.34248,-33.92355,0 18.33982,-33.92729,0 18.33727,-33.9316,0 18.3304,-33.94417,0 18.32318,-33.9581,0 18.3165,-33.97159,0 18.31141,-33.98137,0 18.30126,-33.99673,0 18.29418,-34.01027,0 18.29218,-34.02149,0 18.29281,-34.03211,0 18.29364,-34.03743,0 18.29802,-34.04849,0 18.30064,-34.05267,0 18.30391,-34.05664,0 18.30729,-34.06004,0 18.31057,-34.06306,0 18.42756,-33.90064,0 18.42899,-33.90078,0 18.43019,-33.90083,0 18.43214,-33.90078,0 18.43416,-33.90074,0 18.43632,-33.90046,0 18.43964,-33.89915,0 18.44244,-33.89538,0 18.44193,-33.89003,0 18.43865,-33.8855,0 18.43288,-33.88169,0 18.42642,-33.87946,0 18.42015,-33.87827,0 18.41349,-33.87788,0 18.40702,-33.87867,0 18.40092,-33.88005,0 18.39515,-33.88197,0 18.38974,-33.88454,0 18.38562,-33.88714,0 18.38144,-33.89012,0 18.37721,-33.89328,0 18.37323,-33.89653,0 18.3688,-33.90019,0 18.36479,-33.90362,0 18.36102,-33.90693,0 18.35775,-33.91032,0 18.35484,-33.91386,0 18.35249,-33.91708,0 18.35059,-33.9201,0 18.34843,-33.9235,0 18.34654,-33.92699,0 18.34528,-33.93072,0 18.34316,-33.93439,0 18.33725,-33.94212,0 18.33229,-33.94785,0 18.32914,-33.95124,0 18.32159,-33.96093,0 18.31471,-33.97174,0 18.30984,-33.98108,0 18.30519,-33.99078,0 18.30154,-34.00008,0 18.29693,-34.01446,0 18.29315,-34.03104,0 18.29384,-34.03718,0 18.2961,-34.04297,0 18.30036,-34.05008,0 18.30384,-34.05492,0 18.30711,-34.05883,0 18.30972,-34.06224,0 18.31249,-34.06577,0 18.31791,-34.07195,0 18.32116,-34.07529,0 18.32439,-34.07847,0 18.32772,-34.0816,0 18.33114,-34.08504,0 18.45441,-34.12805,0 18.46858,-34.11454,0 18.47276,-34.10923,0 18.47587,-34.10295,0 18.4774,-34.0964,0 18.47735,-34.09006,0 18.4781,-34.08315,0 18.47747,-34.07413,0 18.47904,-34.06042,0 18.47967,-34.05094,0 18.48048,-34.03725,0 18.48158,-34.01966,0 18.4834,-33.99662,0 18.48444,-33.97536,0 18.48394,-33.96831,0 18.48287,-33.96167,0 18.48136,-33.9549,0 18.4798,-33.94813,0 18.47855,-33.94156,0 18.47693,-33.93484,0 18.4746,-33.92844,0 18.47127,-33.9218,0 18.46734,-33.9158,0 18.46286,-33.91008,0 18.45846,-33.90455,0 18.45451,-33.89962,0 18.45053,-33.89456,0 18.44683,-33.89003,0 18.44251,-33.88683,0 18.4368,-33.8855,0 18.43265,-33.88605,0 18.43054,-33.88747,0 18.42934,-33.88925,0 18.42872,-33.89104,0 18.42856,-33.89296,0 18.42848,-33.89436,0 18.42819,-33.89608,0 18.428,-33.89749,0 18.42783,-33.89882,0 18.42749,-33.9001,0 18.42727,-33.90125,0 18.42854,-33.90162,0 18.43008,-33.90181,0 18.43214,-33.90181,0 18.43414,-33.90157,0 18.43678,-33.90083,0 18.44021,-33.8979,0 18.4417,-33.89273,0 18.4401,-33.88792,0 18.43666,-33.88309,0 18.433,-33.87853,0 18.4285,-33.87474,0 18.42273,-33.87245,0 18.41623,-33.87149,0 18.40948,-33.87173,0 18.40393,-33.8729,0 18.39827,-33.87462,0 18.39223,-33.87611,0 18.38702,-33.87785,0 18.38196,-33.88025,0 18.37761,-33.88281,0 18.37351,-33.88573,0 18.36943,-33.88882,0 18.36525,-33.8918,0 18.36135,-33.89507,0 18.35775,-33.89832,0 18.35489,-33.90171,0 18.35238,-33.90525,0 18.35008,-33.90866,0 18.3475,-33.91264,0 18.34521,-33.91635,0 18.34047,-33.92294,0 18.3336,-33.92244,0 18.33153,-33.91672,0 18.33529,-33.91187,0 18.33982,-33.90807,0 18.34498,-33.90367,0 18.34969,-33.89976,0 18.35479,-33.89575,0 18.35989,-33.89172,0 18.36522,-33.88756,0 18.37054,-33.88399,0 18.37641,-33.88081,0 18.38304,-33.8784,0 18.389,-33.8769,0 18.395,-33.87588,0 18.40053,-33.87552,0 18.40662,-33.87564,0 18.41219,-33.87653,0 18.41572,-33.879,0 18.41738,-33.88202,0 18.41875,-33.88371,0 18.42004,-33.88541,0 18.42121,-33.88737,0 18.42183,-33.8893,0 18.42276,-33.89091,0 18.4239,-33.89236,0 18.42464,-33.89371,0 18.42539,-33.89534,0 18.42648,-33.89703,0 18.42721,-33.89859,0 18.42733,-33.8999,0 18.428,-33.90083,0 18.42957,-33.90092,0 18.4313,-33.90092,0 18.43315,-33.90092,0 18.435,-33.90079,0 18.4374,-33.90069,0 18.44201,-33.90083,0 18.44633,-33.90162,0 18.45019,-33.90321,0 18.45331,-33.90511,0 18.45652,-33.9073,0 18.45961,-33.90939,0 18.46275,-33.91159,0 18.46544,-33.91374,0 18.46842,-33.91647,0 18.47076,-33.91945,0 18.47278,-33.92299,0 18.47437,-33.92643,0 18.47597,-33.92983,0 18.47729,-33.93341,0 18.47849,-33.93695,0 18.47952,-33.94054,0 18.48026,-33.9444,0 18.48078,-33.94831,0 18.48106,-33.95199,0 18.48141,-33.95576,0 18.4817,-33.95947,0 18.48237,-33.96744,0 18.48249,-33.97192,0 18.48267,-33.9761,0 18.4827,-33.98039,0 18.48244,-33.98453,0 18.48203,-33.98886,0 18.48175,-33.99348,0 18.48146,-33.99752,0 18.48106,-34.00581,0 18.48069,-34.01239,0 18.48007,-34.01674,0 18.47923,-34.02122,0 18.47906,-34.02526,0 18.47912,-34.02942,0 18.47923,-34.03358,0 18.47956,-34.03931,0 18.47963,-34.04365,0 18.47951,-34.04796,0 18.47958,-34.05198,0 18.47963,-34.05603,0 18.4794,-34.06531,0 18.47935,-34.06939,0 18.47929,-34.07535,0 18.47946,-34.08289,0 18.47975,-34.08699,0 18.48043,-34.09607,0 18.48038,-34.1004,0 18.47985,-34.10481,0 18.47946,-34.10873,0 18.47832,-34.1207,0 18.47712,-34.13415,0 18.47677,-34.14016,0 18.47654,-34.14528,0 18.47626,-34.15594,0 18.47614,-34.16245,0 18.47597,-34.16706,0 18.47574,-34.17186,0 18.47563,-34.17637,0 18.47536,-34.18039,0 18.47508,-34.18474,0 18.47502,-34.19041,0 18.4753,-34.19444,0 18.47547,-34.19824,0 18.47558,-34.2019,0 18.4758,-34.20575,0 18.47598,-34.20914,0 18.47609,-34.21143,0 18.47614,-34.21347,0 18.4762,-34.21496,0 18.47626,-34.21687,0 18.47631,-34.21829,0 18.47643,-34.22017,0 18.47649,-34.22171,0 18.47666,-34.22339,0 18.47676,-34.22493,0 18.47687,-34.22676,0 18.47677,-34.22907,0 18.47654,-34.2307,0 18.47626,-34.23225,0 18.47591,-34.23363,0 18.47536,-34.23482,0 18.47609,-34.236,0 18.47786,-34.23708,0 18.47928,-34.23756,0 18.48097,-34.2377,0 18.48343,-34.23697,0 18.48567,-34.23303,0 18.48495,-34.22763,0 18.48392,-34.22232,0 18.48307,-34.21692,0 18.48214,-34.21065,0 18.48141,-34.2043,0 18.47906,-34.1854,0 18.47586,-34.16385,0 18.47345,-34.1389,0 18.47301,-34.11539,0 18.47185,-34.09826,0 18.47121,-34.09099,0 18.4687,-34.08443,0 18.46398,-34.07877,0 18.45933,-34.07355,0 18.45686,-34.06735,0 18.4536,-34.06195,0 18.44822,-34.05887,0 18.4437,-34.05464,0 18.44179,-34.04915,0 18.43964,-34.04346,0 18.43592,-34.03881,0 18.43054,-34.03658,0 18.42505,-34.03364,0 18.42121,-34.02931,0 18.41723,-34.02704,0 18.41281,-34.02773,0 18.40948,-34.02852,0 18.40714,-34.02974,0 18.40548,-34.03117,0 18.40445,-34.03304,0 18.40433,-34.03471,0 18.40569,-34.03647,0 18.40748,-34.03752,0 18.40914,-34.03858,0 18.41045,-34.03923,0 18.41163,-34.03972,0 18.4128,-34.03993,0 18.41118,-34.04105,0 18.40804,-34.03958,0 18.40843,-34.03578,0 18.41137,-34.03229,0 18.41494,-34.02892,0 18.41892,-34.0255,0 18.42321,-34.02172,0 18.42783,-34.01756,0 18.43971,-34.0063,0 18.44481,-34.00081,0 18.44942,-33.9957,0 18.45348,-33.99068,0 18.4576,-33.98532,0 18.46167,-33.97983,0 18.46567,-33.97443,0 18.47059,-33.96782,0 18.47497,-33.96066,0 18.47729,-33.95432,0 18.4786,-33.94785,0 18.47866,-33.94101,0 18.47786,-33.93481,0 18.47586,-33.92857,0 18.47334,-33.92248,0 18.46981,-33.91663,0 18.46579,-33.91107,0 18.46149,-33.90586,0 18.45732,-33.90097,0 18.453,-33.89621,0 18.44828,-33.8918,0 18.44318,-33.88858,0 18.43941,-33.88728,0 18.43629,-33.88696,0 18.4338,-33.8871,0 18.43142,-33.88783,0 18.42968,-33.88929,0 18.42828,-33.89108,0 18.42745,-33.89278,0 18.4271,-33.89438,0 18.42704,-33.8958,0 18.42716,-33.89711,0 18.42743,-33.89841,0 18.42745,-33.89981,0 18.42796,-33.90088,0 18.43024,-33.90143,0 18.4318,-33.90171,0 18.43349,-33.90189,0 18.43562,-33.90161,0 18.43893,-33.89932,0 18.43988,-33.89397,0 18.43798,-33.88835,0 18.43427,-33.88326,0 18.42911,-33.87918,0 18.42299,-33.87611,0 18.41692,-33.87415,0 18.41011,-33.87309,0 18.40364,-33.87281,0 18.39724,-33.87327,0 18.39055,-33.87428,0 18.38448,-33.87616,0 18.37921,-33.87877,0 18.37475,-33.88151,0 18.37049,-33.88472,0 18.36623,-33.88802,0 18.36247,-33.89127,0 18.35878,-33.89468,0 18.35535,-33.8979,0 18.35154,-33.90147,0 18.34826,-33.90474,0 18.34504,-33.90816,0 18.34173,-33.91173,0 18.3387,-33.91587,0 18.33624,-33.91956,0 18.33338,-33.92378,0 18.33058,-33.92784,0 18.32811,-33.93174,0 18.32542,-33.93598,0 18.32113,-33.94291,0 18.31827,-33.94696,0 18.3157,-33.95082,0 18.30643,-33.96544,0 18.30002,-33.9768,0 18.29681,-33.98639,0 18.30703,-33.98442,0 18.31791,-33.97261,0 18.33704,-33.95222,0 18.34083,-33.94725,0 18.34453,-33.94203,0 18.35014,-33.93346,0 18.3539,-33.92816,0 18.35754,-33.92281,0 18.36118,-33.91736,0 18.36477,-33.91241,0 18.36852,-33.9072,0 18.37515,-33.89929,0 18.37951,-33.89507,0 18.38408,-33.89105,0 18.38915,-33.8871,0 18.39442,-33.88376,0 18.39991,-33.88142,0 18.40518,-33.8801,0 18.40956,-33.87932,0 18.41383,-33.87872,0 18.41778,-33.87941,0 18.41998,-33.88115,0 18.41949,-33.88388,0 18.42058,-33.88579,0 18.42201,-33.88728,0 18.42306,-33.88879,0 18.42407,-33.89045,0 18.42476,-33.89185,0 18.42531,-33.89342,0 18.42602,-33.89492,0 18.42676,-33.89653,0 18.42715,-33.89781,0 18.42733,-33.89911,0 18.42743,-33.90028,0 18.42882,-33.90102,0 18.43001,-33.90111,0 18.43157,-33.90115,0 18.43349,-33.90088,0 18.43557,-33.90027,0 18.43752,-33.89909,0 18.43954,-33.89502,0 18.43884,-33.89008,0 18.43618,-33.88445,0 18.43226,-33.88,0 18.42654,-33.87643,0 18.42047,-33.87429,0 18.41417,-33.87309,0 18.40742,-33.87273,0 18.40176,-33.87323,0 18.39598,-33.87467,0 18.39066,-33.87634,0 18.38523,-33.87872,0 18.38053,-33.88123,0 18.37587,-33.8839,0 18.37138,-33.88683,0 18.36735,-33.88989,0 18.36342,-33.89319,0 18.36006,-33.89612,0 18.3567,-33.89955,0 18.35339,-33.90294,0 18.35008,-33.90642,0 18.34661,-33.91008,0 18.34345,-33.9133,0 18.34024,-33.91703,0 18.33727,-33.92103,0 18.33439,-33.92491,0 18.33058,-33.93022,0 18.32766,-33.93402,0 18.32108,-33.94305,0 18.31753,-33.94836,0 18.31347,-33.95441,0 18.30535,-33.96776,0 18.29655,-33.98355,0 18.28342,-33.97843,0
        </coordinates>
      </LineString>
    </Placemark>
  </Document>
</kml>