<?xml version="1.0" encoding="UTF-8"?>
<kml xmlns="http://www.opengis.net/kml/2.2">
  <Document>
    <name>FR24 412ff220 - Optimised</name>
    <description><![CDATA[Optimised flight path with 62 points (decimated from 309 original points). Source format: Standard KML]]></description>
    
    <Style id="flightPath">
      <LineStyle>
        <color>ffff0000</color>
        <width>3</width>
      </LineStyle>
    </Style>
    
    <Placemark>
      <name>Flight Path</name>
      <description><![CDATA[Optimized flight path]]></description>
      <styleUrl>#flightPath</styleUrl>
      <LineString>
        <extrude>1</extrude>
        <tessellate>1</tessellate>
        <altitudeMode>absolute</altitudeMode>
        <coordinates>
          18.42747,-33.87502,0 18.44215,-33.88534,0 18.44313,-33.90182,0 18.45795,-33.91555,0 18.46163,-33.92313,0 18.46518,-33.93182,0 18.46683,-33.93972,0 18.46696,-33.94794,0 18.46925,-33.95478,0 18.4712,-33.96162,0 18.47316,-33.96856,0 18.46964,-33.9755,0 18.47101,-33.98209,0 18.47193,-33.98905,0 18.47175,-33.99512,0 18.47206,-34.00187,0 18.4732,-34.00909,0 18.47356,-34.0158,0 18.47421,-34.02265,0 18.47451,-34.03008,0 18.47439,-34.03667,0 18.47448,-34.04376,0 18.47467,-34.05062,0 18.47498,-34.05792,0 18.47617,-34.06442,0 18.47761,-34.07092,0 18.47894,-34.07713,0 18.47949,-34.08414,0 18.48086,-34.09074,0 18.48131,-34.09767,0 18.48162,-34.10416,0 18.4795,-34.1107,0 18.47527,-34.1165,0 18.46953,-34.12215,0 18.46388,-34.12755,0 18.45758,-34.13301,0 18.45114,-34.13696,0 18.44331,-34.1384,0 18.43476,-34.13708,0 18.42788,-34.13504,0 18.42075,-34.13294,0 18.41406,-34.13099,0 18.40691,-34.12913,0 18.40042,-34.12744,0 18.39366,-34.1259,0 18.38723,-34.1242,0 18.38057,-34.12172,0 18.37288,-34.11917,0 18.36624,-34.11644,0 18.35923,-34.11297,0 18.35367,-34.10962,0 18.34821,-34.10548,0 18.34981,-34.09842,0 18.34419,-34.04845,0 18.34222,-34.04288,0 18.33897,-34.03465,0 18.3348,-34.02895,0 18.32718,-34.0228,0 18.37267,-33.91863,0 18.37153,-33.91015,0 18.38943,-33.90279,0 18.39404,-33.89705,0
        </coordinates>
      </LineString>
    </Placemark>
  </Document>
</kml>