<?xml version="1.0" encoding="UTF-8"?>
<kml xmlns="http://www.opengis.net/kml/2.2">
  <Document>
    <name>FR24 41bbbd5b - Optimised</name>
    <description><![CDATA[Optimised flight path with 177 points (decimated from 884 original points). Source format: Standard KML]]></description>
    
    <Style id="flightPath">
      <LineStyle>
        <color>ffff0000</color>
        <width>3</width>
      </LineStyle>
    </Style>
    
    <Placemark>
      <name>Flight Path</name>
      <description><![CDATA[Optimized flight path]]></description>
      <styleUrl>#flightPath</styleUrl>
      <LineString>
        <extrude>1</extrude>
        <tessellate>1</tessellate>
        <altitudeMode>absolute</altitudeMode>
        <coordinates>
          18.43057,-33.89442,0 18.43327,-33.88866,0 18.43338,-33.88458,0 18.43142,-33.88055,0 18.42791,-33.87681,0 18.42264,-33.87406,0 18.41721,-33.8729,0 18.41118,-33.87296,0 18.40576,-33.87406,0 18.40031,-33.87611,0 18.39558,-33.87853,0 18.39089,-33.88138,0 18.38648,-33.88444,0 18.38224,-33.88784,0 18.3785,-33.89122,0 18.3748,-33.89488,0 18.37121,-33.89909,0 18.36791,-33.9034,0 18.36454,-33.90829,0 18.3613,-33.91344,0 18.35513,-33.92409,0 18.34851,-33.9375,0 18.34274,-33.9511,0 18.34299,-33.96772,0 18.35443,-33.95744,0 18.35712,-33.9512,0 18.35928,-33.94542,0 18.36267,-33.93602,0 18.36561,-33.92949,0 18.36841,-33.92381,0 18.37161,-33.9185,0 18.37555,-33.91344,0 18.3799,-33.90871,0 18.38489,-33.90417,0 18.39078,-33.89987,0 18.39701,-33.89613,0 18.40378,-33.89337,0 18.41079,-33.89108,0 18.41755,-33.88929,0 18.4243,-33.88756,0 18.43192,-33.88669,0 18.43941,-33.88891,0 18.4453,-33.89291,0 18.44736,-33.89832,0 18.44274,-33.90202,0 18.43729,-33.90022,0 18.4336,-33.89854,0 18.43168,-33.89878,0 18.42996,-33.89937,0 18.42805,-33.90024,0 18.42785,-33.89943,0 18.42951,-33.89855,0 18.43145,-33.89757,0 18.43489,-33.8947,0 18.43689,-33.89124,0 18.43769,-33.88742,0 18.43666,-33.88384,0 18.43327,-33.88074,0 18.42802,-33.87877,0 18.42239,-33.87817,0 18.41606,-33.87836,0 18.41,-33.87881,0 18.4041,-33.87946,0 18.39812,-33.88069,0 18.39191,-33.88253,0 18.38659,-33.885,0 18.38161,-33.88854,0 18.37699,-33.89246,0 18.37286,-33.89692,0 18.36943,-33.90134,0 18.36599,-33.90614,0 18.36292,-33.91109,0 18.35984,-33.91635,0 18.35655,-33.92248,0 18.34997,-33.93663,0 18.34218,-33.95659,0 18.33269,-33.98476,0 18.32851,-34.00334,0 18.32828,-34.00955,0 18.33006,-34.01558,0 18.33265,-34.02095,0 18.33555,-34.02652,0 18.33836,-34.03197,0 18.34059,-34.03774,0 18.34173,-34.04388,0 18.34218,-34.05002,0 18.34655,-34.05194,0 18.35026,-34.04686,0 18.34848,-34.04067,0 18.34487,-34.03537,0 18.34064,-34.03024,0 18.33742,-34.02507,0 18.33568,-34.01971,0 18.33456,-34.01395,0 18.33424,-34.00846,0 18.33487,-34.00236,0 18.33971,-33.98923,0 18.35148,-33.96469,0 18.35815,-33.94859,0 18.36153,-33.93835,0 18.36428,-33.93137,0 18.36668,-33.9262,0 18.3697,-33.92107,0 18.37312,-33.91612,0 18.37682,-33.91159,0 18.38058,-33.90729,0 18.38506,-33.90271,0 18.38968,-33.89846,0 18.39518,-33.89445,0 18.40096,-33.89133,0 18.40765,-33.88861,0 18.41432,-33.8866,0 18.42098,-33.88523,0 18.42833,-33.8844,0 18.43523,-33.88554,0 18.44139,-33.88834,0 18.44728,-33.89209,0 18.45159,-33.8974,0 18.4516,-33.90227,0 18.44761,-33.90459,0 18.44278,-33.90306,0 18.43837,-33.90138,0 18.43431,-33.90013,0 18.43214,-33.89983,0 18.42945,-33.89962,0 18.42794,-33.89973,0 18.42693,-33.90078,0 18.42794,-33.89983,0 18.42951,-33.89836,0 18.43097,-33.89731,0 18.43374,-33.89459,0 18.43563,-33.89119,0 18.43643,-33.887,0 18.43534,-33.88272,0 18.43248,-33.87835,0 18.42766,-33.87469,0 18.42194,-33.87328,0 18.41555,-33.87305,0 18.40894,-33.87396,0 18.40261,-33.8756,0 18.39689,-33.87783,0 18.39162,-33.88046,0 18.38665,-33.88351,0 18.38181,-33.88705,0 18.37727,-33.89166,0 18.37337,-33.89613,0 18.36966,-33.90074,0 18.36583,-33.90591,0 18.36219,-33.91109,0 18.35896,-33.9161,0 18.35087,-33.92981,0 18.34139,-33.94968,0 18.33388,-33.96959,0 18.34621,-33.97426,0 18.35793,-33.96268,0 18.36028,-33.95178,0 18.36297,-33.93777,0 18.36576,-33.92751,0 18.36828,-33.9221,0 18.37144,-33.91713,0 18.37532,-33.91224,0 18.3795,-33.90776,0 18.38419,-33.9033,0 18.38997,-33.89864,0 18.39581,-33.89482,0 18.40266,-33.89149,0 18.41023,-33.88902,0 18.41755,-33.88728,0 18.42516,-33.88593,0 18.43282,-33.88605,0 18.43893,-33.88916,0 18.44347,-33.89355,0 18.44336,-33.89897,0 18.43764,-33.90097,0 18.43265,-33.89937,0 18.43008,-33.89981,0 18.42836,-33.90046,0
        </coordinates>
      </LineString>
    </Placemark>
  </Document>
</kml>