<?xml version="1.0" encoding="UTF-8"?>
<kml xmlns="http://www.opengis.net/kml/2.2">
  <Document>
    <name>FR24 40832516 - Optimised</name>
    <description><![CDATA[Optimised flight path with 129 points (decimated from 643 original points). Source format: Standard KML]]></description>
    
    <Style id="flightPath">
      <LineStyle>
        <color>ffff0000</color>
        <width>3</width>
      </LineStyle>
    </Style>
    
    <Placemark>
      <name>Flight Path</name>
      <description><![CDATA[Optimized flight path]]></description>
      <styleUrl>#flightPath</styleUrl>
      <LineString>
        <extrude>1</extrude>
        <tessellate>1</tessellate>
        <altitudeMode>absolute</altitudeMode>
        <coordinates>
          18.43054,-33.89417,0 18.43534,-33.88719,0 18.43489,-33.88379,0 18.43203,-33.88165,0 18.42871,-33.88072,0 18.42536,-33.88042,0 18.42184,-33.88049,0 18.41366,-33.88226,0 18.40821,-33.8839,0 18.40429,-33.88541,0 18.40036,-33.88701,0 18.39565,-33.88911,0 18.3918,-33.89119,0 18.38842,-33.89361,0 18.38506,-33.89648,0 18.38156,-33.89939,0 18.37816,-33.90253,0 18.37492,-33.906,0 18.37149,-33.90968,0 18.36823,-33.91372,0 18.36531,-33.91801,0 18.3625,-33.92266,0 18.35993,-33.92718,0 18.3581,-33.93219,0 18.35681,-33.93755,0 18.35575,-33.9431,0 18.35466,-33.95097,0 18.3518,-33.96014,0 18.34265,-33.9742,0 18.33263,-33.9903,0 18.33012,-33.99529,0 18.32726,-34.00064,0 18.32435,-34.00639,0 18.32312,-34.0123,0 18.32319,-34.018,0 18.32391,-34.02406,0 18.32475,-34.0302,0 18.32592,-34.03633,0 18.32733,-34.04269,0 18.33091,-34.05867,0 18.33406,-34.07047,0 18.33635,-34.07648,0 18.3387,-34.08261,0 18.34122,-34.08844,0 18.34436,-34.09421,0 18.34806,-34.10023,0 18.35169,-34.10556,0 18.35712,-34.11031,0 18.36292,-34.11424,0 18.36874,-34.11786,0 18.37475,-34.12167,0 18.38242,-34.12549,0 18.389,-34.12801,0 18.39512,-34.13136,0 18.4005,-34.13494,0 18.40658,-34.13901,0 18.41257,-34.14248,0 18.41909,-34.14532,0 18.42615,-34.14674,0 18.43343,-34.14693,0 18.43988,-34.14546,0 18.44564,-34.1436,0 18.45131,-34.14118,0 18.4564,-34.13773,0 18.46023,-34.13374,0 18.46401,-34.13,0 18.46779,-34.1266,0 18.47162,-34.12326,0 18.47598,-34.11964,0 18.47968,-34.11617,0 18.48281,-34.11232,0 18.48501,-34.10831,0 18.48663,-34.10435,0 18.48793,-34.10003,0 18.48825,-34.09579,0 18.4877,-34.09165,0 18.4868,-34.08737,0 18.48534,-34.08302,0 18.48301,-34.07889,0 18.48038,-34.07526,0 18.47712,-34.07186,0 18.47397,-34.06939,0 18.47031,-34.06674,0 18.46659,-34.06418,0 18.46315,-34.06125,0 18.46034,-34.05743,0 18.45858,-34.05362,0 18.45737,-34.04984,0 18.45681,-34.04594,0 18.45646,-34.04179,0 18.45642,-34.03748,0 18.4568,-34.03299,0 18.45732,-34.02871,0 18.45787,-34.02425,0 18.45821,-34.01976,0 18.4584,-34.01572,0 18.45871,-34.01152,0 18.45858,-34.00757,0 18.45835,-34.00329,0 18.45926,-33.99873,0 18.46196,-33.99435,0 18.46555,-33.99014,0 18.4691,-33.98579,0 18.47242,-33.98132,0 18.47446,-33.97668,0 18.47454,-33.97178,0 18.47363,-33.96703,0 18.47278,-33.96245,0 18.47132,-33.95815,0 18.46981,-33.95435,0 18.46813,-33.9505,0 18.46619,-33.94701,0 18.46407,-33.9437,0 18.46185,-33.94043,0 18.45938,-33.93663,0 18.45703,-33.93288,0 18.4548,-33.92881,0 18.45249,-33.925,0 18.44959,-33.92168,0 18.44655,-33.91841,0 18.44484,-33.91461,0 18.44347,-33.91056,0 18.44083,-33.90706,0 18.43752,-33.90468,0 18.43546,-33.90348,0 18.43374,-33.90274,0 18.4322,-33.90223,0 18.43024,-33.9017,0 18.42825,-33.90125,0
        </coordinates>
      </LineString>
    </Placemark>
  </Document>
</kml>