<?xml version="1.0" encoding="UTF-8"?>
<kml xmlns="http://www.opengis.net/kml/2.2">
  <Document>
    <name>FR24 ZSHGD 3e369f60 - Optimised</name>
    <description><![CDATA[Optimised flight path with 629 points (decimated from 3142 original points). Source format: Standard KML]]></description>
    
    <Style id="flightPath">
      <LineStyle>
        <color>ffff0000</color>
        <width>3</width>
      </LineStyle>
    </Style>
    
    <Placemark>
      <name>Flight Path</name>
      <description><![CDATA[Park boundary / NP17 restricted airspace. Red track segments show flight inside this area.]]></description>
      <styleUrl>#flightPath</styleUrl>
      <LineString>
        <extrude>1</extrude>
        <tessellate>1</tessellate>
        <altitudeMode>absolute</altitudeMode>
        <coordinates>
          18.4294,-33.89648,53.34 18.43466,-33.88659,167.64000000000001 18.43506,-33.88211,198.12 18.43153,-33.87772,236.22 18.42619,-33.87588,266.7 18.42018,-33.87564,281.94 18.41537,-33.87592,304.8 18.41005,-33.87704,327.66 18.4053,-33.87872,342.90000000000003 18.4007,-33.88092,365.76 18.39621,-33.88337,373.38 18.39201,-33.88591,388.62 18.38786,-33.88861,411.48 18.38405,-33.89136,419.1 18.38041,-33.89424,441.96000000000004 18.37632,-33.89758,464.82000000000005 18.3729,-33.90074,480.06 18.36931,-33.90483,495.3 18.36634,-33.90884,510.54 18.36336,-33.9134,518.1600000000001 18.36073,-33.918,533.4 18.3581,-33.92285,541.02 18.35558,-33.92718,541.02 18.35283,-33.93188,556.26 18.35032,-33.93598,563.88 18.3442,-33.94606,556.26 18.34196,-33.94994,579.12 18.33961,-33.95395,571.5 18.33658,-33.95963,563.88 18.32867,-33.97527,571.5 18.32417,-33.9856,518.1600000000001 18.32234,-33.99417,487.68 18.32382,-34.00148,480.06 18.32508,-34.00475,472.44 18.32525,-34.00822,457.20000000000005 18.31382,-34.01495,350.52000000000004 18.30496,-34.02122,304.8 18.30109,-34.02713,266.7 18.30031,-34.03313,259.08000000000004 18.30132,-34.03912,266.7 18.31392,-34.06167,312.42 18.3178,-34.06668,320.04 18.32043,-34.06984,327.66 18.32413,-34.07437,320.04 18.32654,-34.07726,320.04 18.32923,-34.08023,320.04 18.33192,-34.08307,320.04 18.33607,-34.08722,312.42 18.34005,-34.09131,297.18 18.34265,-34.09421,297.18 18.34591,-34.09681,297.18 18.34951,-34.09909,304.8 18.35339,-34.10106,304.8 18.35715,-34.10275,312.42 18.36136,-34.1045,312.42 18.36595,-34.10614,304.8 18.36987,-34.1076,304.8 18.3757,-34.10985,297.18 18.38181,-34.11214,289.56 18.38619,-34.1139,297.18 18.39071,-34.11562,304.8 18.39649,-34.1179,312.42 18.40059,-34.11951,312.42 18.40473,-34.12111,304.8 18.41108,-34.12363,297.18 18.42333,-34.12852,304.8 18.43108,-34.13159,304.8 18.43926,-34.13429,312.42 18.4445,-34.13448,312.42 18.44969,-34.13292,312.42 18.45496,-34.12971,312.42 18.45967,-34.12596,312.42 18.46421,-34.1218,312.42 18.46836,-34.118,320.04 18.47256,-34.11411,320.04 18.47614,-34.10929,320.04 18.47895,-34.10431,327.66 18.48175,-34.10234,342.90000000000003 18.48203,-34.10555,274.32 18.48175,-34.10785,312.42 18.47839,-34.10477,251.46 18.47775,-34.09877,243.84 18.47757,-34.09309,251.46 18.47752,-34.08741,266.7 18.47738,-34.08156,274.32 18.4771,-34.07584,274.32 18.47677,-34.06953,274.32 18.47614,-34.06224,281.94 18.475,-34.05627,281.94 18.47334,-34.05057,281.94 18.47202,-34.045,289.56 18.47099,-34.03932,289.56 18.47048,-34.03392,289.56 18.47026,-34.02846,281.94 18.47013,-34.02308,274.32 18.47025,-34.01763,266.7 18.47043,-34.01244,266.7 18.47076,-34.00749,266.7 18.47151,-34.00119,281.94 18.47256,-33.99632,281.94 18.47385,-33.99147,274.32 18.47649,-33.98202,266.7 18.48007,-33.96959,266.7 18.48113,-33.96423,259.08000000000004 18.48175,-33.95921,259.08000000000004 18.48164,-33.95385,259.08000000000004 18.48085,-33.94908,259.08000000000004 18.4794,-33.94398,259.08000000000004 18.47723,-33.93835,251.46 18.47497,-33.9337,251.46 18.47211,-33.92926,243.84 18.46893,-33.92508,236.22 18.46527,-33.92052,220.98000000000002 18.46149,-33.91647,213.36 18.45715,-33.91182,205.74 18.45343,-33.90781,198.12 18.44946,-33.90312,198.12 18.44599,-33.89882,198.12 18.4421,-33.89408,182.88 18.43769,-33.89222,137.16 18.43382,-33.89337,106.68 18.43094,-33.89534,68.58 18.42934,-33.89729,53.34 18.42822,-33.89877,15.24 18.42794,-33.89992,0 18.43082,-33.90069,30.48 18.43449,-33.90027,83.82000000000001 18.43792,-33.89749,144.78 18.43912,-33.89296,190.5 18.43825,-33.8877,220.98000000000002 18.43523,-33.88344,259.08000000000004 18.43024,-33.88069,274.32 18.42459,-33.87951,304.8 18.41944,-33.87918,335.28000000000003 18.4144,-33.87918,350.52000000000004 18.40905,-33.87978,365.76 18.40422,-33.88095,381 18.39941,-33.88275,388.62 18.39504,-33.88504,396.24 18.39088,-33.88784,419.1 18.38674,-33.89081,441.96000000000004 18.38276,-33.89371,464.82000000000005 18.37927,-33.89645,472.44 18.37584,-33.89962,487.68 18.37256,-33.90294,495.3 18.36948,-33.90623,495.3 18.36634,-33.90994,495.3 18.36348,-33.91383,495.3 18.3609,-33.91759,502.92 18.35844,-33.92164,495.3 18.35621,-33.92559,495.3 18.35392,-33.92983,495.3 18.35171,-33.93411,480.06 18.34991,-33.93789,487.68 18.34784,-33.94171,480.06 18.34571,-33.94583,464.82000000000005 18.34257,-33.95151,457.20000000000005 18.33052,-33.97289,487.68 18.32306,-33.98776,472.44 18.31595,-34.00351,419.1 18.30837,-34.01614,388.62 18.30227,-34.0258,335.28000000000003 18.30059,-34.03171,320.04 18.30065,-34.03485,320.04 18.30614,-34.04915,327.66 18.31421,-34.05981,335.28000000000003 18.32159,-34.07028,335.28000000000003 18.32537,-34.07587,320.04 18.32737,-34.07866,327.66 18.32983,-34.08206,327.66 18.332,-34.08485,335.28000000000003 18.33422,-34.08792,335.28000000000003 18.33624,-34.09095,342.90000000000003 18.33859,-34.0941,342.90000000000003 18.34078,-34.0974,342.90000000000003 18.34291,-34.10078,342.90000000000003 18.34459,-34.10431,327.66 18.34528,-34.10803,327.66 18.34476,-34.11191,327.66 18.34319,-34.11548,312.42 18.34093,-34.11916,304.8 18.33847,-34.12246,297.18 18.33557,-34.12582,297.18 18.33125,-34.12953,297.18 18.32611,-34.13322,297.18 18.32138,-34.13708,289.56 18.3185,-34.14039,281.94 18.31758,-34.14402,274.32 18.31799,-34.14933,274.32 18.41774,-34.32394,236.22 18.42081,-34.32701,236.22 18.42493,-34.33014,236.22 18.42878,-34.3325,236.22 18.43283,-34.33488,228.60000000000002 18.43706,-34.33712,236.22 18.44083,-34.33919,236.22 18.44554,-34.34189,243.84 18.44925,-34.34415,251.46 18.45463,-34.34759,251.46 18.45789,-34.34996,259.08000000000004 18.46146,-34.35269,259.08000000000004 18.4647,-34.35518,266.7 18.46807,-34.35755,266.7 18.47242,-34.35955,266.7 18.47732,-34.36084,266.7 18.48248,-34.36166,274.32 18.48792,-34.36212,281.94 18.49319,-34.36235,289.56 18.49817,-34.36317,297.18 18.50298,-34.36249,320.04 18.50681,-34.36319,312.42 18.50765,-34.36656,297.18 18.50496,-34.36949,297.18 18.49986,-34.37123,304.8 18.49526,-34.37306,304.8 18.49159,-34.37064,320.04 18.49422,-34.36714,289.56 18.4984,-34.36491,281.94 18.50229,-34.36118,281.94 18.50299,-34.35562,281.94 18.50171,-34.34949,289.56 18.49969,-34.34377,297.18 18.49731,-34.338,304.8 18.49487,-34.33218,304.8 18.49257,-34.32619,304.8 18.49066,-34.32042,312.42 18.48902,-34.31426,320.04 18.48753,-34.30746,320.04 18.48673,-34.30183,320.04 18.48629,-34.2957,320.04 18.48616,-34.28963,327.66 18.48581,-34.27362,342.90000000000003 18.48573,-34.26128,342.90000000000003 18.48564,-34.25072,342.90000000000003 18.48513,-34.24485,342.90000000000003 18.48438,-34.2393,350.52000000000004 18.48315,-34.2317,358.14000000000004 18.48141,-34.22618,358.14000000000004 18.47878,-34.22018,358.14000000000004 18.47558,-34.21449,358.14000000000004 18.47219,-34.20938,358.14000000000004 18.46869,-34.20447,358.14000000000004 18.46482,-34.19966,350.52000000000004 18.46012,-34.19453,335.28000000000003 18.45356,-34.18753,320.04 18.45008,-34.18222,320.04 18.44782,-34.17665,320.04 18.4465,-34.17051,312.42 18.44616,-34.16413,297.18 18.44689,-34.15828,289.56 18.44851,-34.15233,281.94 18.45058,-34.14697,281.94 18.45325,-34.14076,289.56 18.45612,-34.13536,289.56 18.45943,-34.13005,297.18 18.46275,-34.12555,304.8 18.46639,-34.12115,304.8 18.47076,-34.1163,304.8 18.47477,-34.11171,304.8 18.4778,-34.10706,312.42 18.47906,-34.10152,304.8 18.47923,-34.09551,297.18 18.47912,-34.08929,289.56 18.47895,-34.0784,289.56 18.47855,-34.05715,289.56 18.47833,-34.04187,281.94 18.47803,-34.03606,289.56 18.47746,-34.03011,297.18 18.47643,-34.02163,312.42 18.47488,-34.00511,335.28000000000003 18.47506,-33.99938,342.90000000000003 18.47574,-33.99398,335.28000000000003 18.47665,-33.98854,335.28000000000003 18.47743,-33.98341,335.28000000000003 18.47855,-33.97801,327.66 18.4794,-33.97271,320.04 18.48003,-33.96735,312.42 18.48024,-33.96199,289.56 18.47979,-33.95663,281.94 18.4786,-33.95162,274.32 18.47665,-33.94661,266.7 18.47429,-33.94185,266.7 18.47155,-33.93736,259.08000000000004 18.46865,-33.93304,259.08000000000004 18.46584,-33.92876,243.84 18.46321,-33.92439,236.22 18.45812,-33.91573,213.36 18.45234,-33.90646,220.98000000000002 18.44431,-33.89415,236.22 18.44055,-33.88884,259.08000000000004 18.43735,-33.88467,274.32 18.43388,-33.88078,289.56 18.42979,-33.87653,304.8 18.42508,-33.87213,320.04 18.42041,-33.86782,320.04 18.41137,-33.85912,335.28000000000003 18.4044,-33.85149,358.14000000000004 18.3979,-33.84366,358.14000000000004 18.3942,-33.83821,358.14000000000004 18.39191,-33.83337,358.14000000000004 18.39003,-33.82821,350.52000000000004 18.38888,-33.82351,350.52000000000004 18.38797,-33.81857,342.90000000000003 18.38699,-33.81331,335.28000000000003 18.38568,-33.80814,327.66 18.38405,-33.80287,320.04 18.38173,-33.79758,312.42 18.37805,-33.79294,312.42 18.37326,-33.78924,320.04 18.3676,-33.78808,350.52000000000004 18.36309,-33.78955,342.90000000000003 18.3595,-33.79239,312.42 18.35686,-33.79623,304.8 18.35563,-33.79976,289.56 18.35678,-33.80893,266.7 18.35833,-33.81298,274.32 18.36057,-33.81628,266.7 18.36365,-33.81932,274.32 18.36656,-33.8221,281.94 18.36994,-33.82541,304.8 18.3728,-33.82849,320.04 18.37519,-33.83148,335.28000000000003 18.37749,-33.83454,342.90000000000003 18.38029,-33.83807,365.76 18.38751,-33.84729,381 18.39145,-33.85144,396.24 18.39432,-33.85456,396.24 18.39735,-33.85809,403.86 18.40015,-33.86135,403.86 18.40328,-33.86476,403.86 18.40639,-33.86764,411.48 18.41,-33.87062,396.24 18.41406,-33.87383,373.38 18.4183,-33.87662,342.90000000000003 18.42278,-33.87936,304.8 18.42743,-33.88225,259.08000000000004 18.43052,-33.88481,220.98000000000002 18.43248,-33.88817,167.64000000000001 18.43203,-33.8918,114.30000000000001 18.43018,-33.89488,76.2 18.42831,-33.89753,38.1 18.42766,-33.899,7.62 18.42922,-33.90046,15.24 18.43091,-33.9007,38.1 18.43403,-33.90027,76.2 18.43712,-33.8979,106.68 18.43848,-33.89369,129.54000000000002 18.43842,-33.88861,160.02 18.43674,-33.88417,198.12 18.43287,-33.88069,220.98000000000002 18.42755,-33.87964,251.46 18.42205,-33.87959,274.32 18.41673,-33.87987,289.56 18.41143,-33.88034,304.8 18.40656,-33.88123,335.28000000000003 18.4016,-33.88261,350.52000000000004 18.39701,-33.88463,365.76 18.39294,-33.8871,373.38 18.38882,-33.89017,388.62 18.38505,-33.8932,396.24 18.38121,-33.89641,411.48 18.37784,-33.89943,426.72 18.37424,-33.90289,441.96000000000004 18.37071,-33.9066,449.58000000000004 18.36735,-33.91054,457.20000000000005 18.36415,-33.91447,464.82000000000005 18.36124,-33.9185,480.06 18.35855,-33.92271,487.68 18.35575,-33.92718,502.92 18.35014,-33.93709,533.4 18.34806,-33.94089,548.64 18.3456,-33.94501,541.02 18.34302,-33.94908,541.02 18.34082,-33.95283,533.4 18.33484,-33.96318,510.54 18.32239,-33.98726,457.20000000000005 18.31083,-34.00543,411.48 18.30104,-34.02196,411.48 18.29893,-34.03038,388.62 18.29907,-34.03491,388.62 18.30109,-34.04219,358.14000000000004 18.31026,-34.05673,304.8 18.31791,-34.06668,304.8 18.32033,-34.07005,320.04 18.32262,-34.07317,342.90000000000003 18.32491,-34.07619,350.52000000000004 18.32721,-34.07909,358.14000000000004 18.33023,-34.08243,373.38 18.33321,-34.08564,388.62 18.33618,-34.08861,396.24 18.33961,-34.09155,396.24 18.34293,-34.09407,396.24 18.34648,-34.09639,396.24 18.35008,-34.0984,388.62 18.35415,-34.10026,388.62 18.35838,-34.10188,388.62 18.36247,-34.10335,381 18.36679,-34.10495,373.38 18.37099,-34.10664,365.76 18.37509,-34.10836,365.76 18.37904,-34.11018,350.52000000000004 18.38316,-34.11222,335.28000000000003 18.38728,-34.11404,327.66 18.39088,-34.11567,327.66 18.39481,-34.11745,335.28000000000003 18.39874,-34.11909,342.90000000000003 18.40316,-34.12093,342.90000000000003 18.40754,-34.12248,350.52000000000004 18.41166,-34.12395,350.52000000000004 18.41606,-34.12558,335.28000000000003 18.4203,-34.12735,327.66 18.42497,-34.12944,327.66 18.42945,-34.13145,320.04 18.43388,-34.13301,320.04 18.43876,-34.13402,327.66 18.44416,-34.13391,335.28000000000003 18.44919,-34.13243,342.90000000000003 18.45412,-34.12985,342.90000000000003 18.45871,-34.12637,335.28000000000003 18.4631,-34.12233,327.66 18.4674,-34.11813,312.42 18.47162,-34.11432,312.42 18.47519,-34.10971,320.04 18.47706,-34.10654,411.48 18.47832,-34.10906,335.28000000000003 18.47979,-34.11218,350.52000000000004 18.47749,-34.11205,342.90000000000003 18.477,-34.10678,304.8 18.47839,-34.10101,312.42 18.47872,-34.09463,327.66 18.47861,-34.08833,335.28000000000003 18.47849,-34.08238,342.90000000000003 18.47706,-34.0625,358.14000000000004 18.47517,-34.04933,381 18.47396,-34.04118,388.62 18.47185,-34.03522,396.24 18.46908,-34.02992,403.86 18.46619,-34.02401,403.86 18.46533,-34.01819,388.62 18.46858,-34.01303,373.38 18.47151,-34.00785,358.14000000000004 18.47408,-34.00254,358.14000000000004 18.47586,-33.99719,350.52000000000004 18.47694,-33.99161,342.90000000000003 18.4778,-33.98616,335.28000000000003 18.47866,-33.98085,335.28000000000003 18.4794,-33.97634,327.66 18.47872,-33.97169,297.18 18.47401,-33.9689,289.56 18.47065,-33.96772,327.66 18.47429,-33.96428,266.7 18.47855,-33.96074,259.08000000000004 18.48198,-33.95641,274.32 18.48276,-33.95142,274.32 18.48147,-33.94666,289.56 18.47883,-33.94203,297.18 18.4762,-33.93728,289.56 18.47059,-33.92792,274.32 18.46762,-33.92345,259.08000000000004 18.46395,-33.9188,243.84 18.46017,-33.91489,236.22 18.45594,-33.91056,220.98000000000002 18.45177,-33.90618,213.36 18.44201,-33.89594,190.5 18.43792,-33.89291,160.02 18.4334,-33.89208,129.54000000000002 18.43203,-33.8947,68.58 18.43197,-33.89757,45.72 18.43077,-33.89911,22.86 18.42884,-33.8996,7.62 18.42733,-33.89543,53.34 18.43063,-33.88889,137.16 18.43208,-33.88514,175.26000000000002 18.43102,-33.88124,220.98000000000002 18.42743,-33.87817,251.46 18.42264,-33.87713,289.56 18.41763,-33.87721,312.42 18.41263,-33.8782,335.28000000000003 18.40765,-33.87991,365.76 18.40324,-33.88179,381 18.39855,-33.88416,403.86 18.39426,-33.88682,426.72 18.39022,-33.8898,449.58000000000004 18.3864,-33.89301,457.20000000000005 18.38265,-33.89648,464.82000000000005 18.37881,-33.90036,472.44 18.37536,-33.90408,480.06 18.36863,-33.91158,502.92 18.36258,-33.9185,533.4 18.35924,-33.92303,533.4 18.35653,-33.92734,541.02 18.35403,-33.93183,548.64 18.35148,-33.93658,556.26 18.34795,-33.94308,563.88 18.34588,-33.94766,571.5 18.34368,-33.95255,571.5 18.34173,-33.95746,579.12 18.3391,-33.96748,594.36 18.33738,-33.9843,609.6 18.34044,-33.99623,617.22 18.34854,-34.00431,624.84 18.35277,-34.00735,617.22 18.3572,-34.01015,609.6 18.36176,-34.01279,617.22 18.36662,-34.01564,617.22 18.37099,-34.01834,617.22 18.37632,-34.02164,609.6 18.38495,-34.02708,563.88 18.38708,-34.03098,525.78 18.38877,-34.03476,487.68 18.39294,-34.03793,472.44 18.39643,-34.03937,472.44 18.40109,-34.03629,457.20000000000005 18.40588,-34.03345,472.44 18.4104,-34.02983,487.68 18.4146,-34.02603,495.3 18.41846,-34.02205,510.54 18.42184,-34.01814,518.1600000000001 18.42514,-34.01363,525.78 18.42839,-34.00891,525.78 18.43145,-34.00455,533.4 18.4359,-33.99797,541.02 18.44072,-33.99445,556.26 18.44513,-33.99063,556.26 18.44885,-33.98602,548.64 18.45232,-33.98131,541.02 18.45589,-33.97647,533.4 18.45944,-33.97169,533.4 18.46208,-33.96675,541.02 18.46353,-33.96172,548.64 18.46298,-33.95613,548.64 18.46118,-33.95132,548.64 18.45903,-33.94691,533.4 18.45625,-33.94176,510.54 18.45372,-33.93741,495.3 18.45092,-33.93274,480.06 18.44487,-33.92281,419.1 18.44307,-33.91819,396.24 18.44164,-33.91312,350.52000000000004 18.44067,-33.90856,281.94 18.43971,-33.90376,213.36 18.43924,-33.90022,182.88 18.43552,-33.90032,106.68 18.43163,-33.90041,53.34 18.42951,-33.90019,22.86 18.42796,-33.8999,0 18.42996,-33.8925,83.82000000000001 18.43168,-33.88933,121.92 18.43299,-33.88577,152.4 18.43209,-33.88216,190.5 18.42912,-33.87918,213.36 18.42486,-33.87726,251.46 18.41976,-33.87675,289.56 18.41499,-33.87753,320.04 18.4104,-33.87946,335.28000000000003 18.40599,-33.88184,358.14000000000004 18.40107,-33.88435,381 18.39649,-33.88659,403.86 18.39195,-33.88911,419.1 18.38775,-33.89182,441.96000000000004 18.3836,-33.89507,457.20000000000005 18.37979,-33.89854,472.44 18.37641,-33.90204,487.68 18.3729,-33.9061,487.68 18.36953,-33.91035,487.68 18.36628,-33.91442,487.68 18.36096,-33.92159,487.68 18.35737,-33.92674,487.68 18.35457,-33.9315,487.68 18.35199,-33.93626,487.68 18.34934,-33.94096,487.68 18.34642,-33.94636,487.68 18.3383,-33.96349,495.3 18.3373,-33.97559,487.68 18.33853,-33.98728,510.54 18.34139,-33.99724,533.4 18.34599,-34.00589,556.26 18.34911,-34.00906,571.5 18.35311,-34.01207,579.12 18.35787,-34.01535,594.36 18.36264,-34.01816,594.36 18.36763,-34.02077,594.36 18.37286,-34.02335,601.98 18.37716,-34.02699,601.98 18.38064,-34.03099,601.98 18.38422,-34.0345,579.12 18.38865,-34.03752,548.64 18.39329,-34.04044,548.64 18.39677,-34.04398,525.78 18.39801,-34.04791,571.5 18.39907,-34.04579,525.78 18.40249,-34.04196,525.78 18.40597,-34.0383,533.4 18.40965,-34.03444,548.64 18.41331,-34.03047,548.64 18.41987,-34.02278,548.64 18.42745,-34.0127,556.26 18.43041,-34.00832,556.26 18.433,-34.00413,556.26 18.43551,-33.99944,556.26 18.43821,-33.99459,556.26 18.44145,-33.98973,556.26 18.44459,-33.98547,563.88 18.44846,-33.98099,548.64 18.45222,-33.97676,548.64 18.456,-33.97256,556.26 18.45938,-33.96831,571.5 18.46196,-33.96373,586.74 18.46247,-33.95902,586.74 18.46107,-33.95439,571.5 18.45888,-33.94963,563.88 18.45675,-33.94501,548.64 18.4544,-33.94043,518.1600000000001 18.4521,-33.93594,495.3 18.44874,-33.92931,441.96000000000004 18.44461,-33.92168,419.1 18.44302,-33.91695,373.38 18.44291,-33.91214,327.66 18.44352,-33.90738,289.56 18.44215,-33.90362,259.08000000000004 18.43866,-33.90092,198.12 18.43523,-33.89934,137.16 18.43214,-33.89911,83.82000000000001 18.42951,-33.89948,30.48 18.42791,-33.89976,0 18.43198,-33.89909,30.48 18.43427,-33.89836,38.1 18.42745,-33.89994,22.86 18.4271,-33.90106,7.62
        </coordinates>
      </LineString>
    </Placemark>
    <Placemark>
      <name>Entry 1</name>
      <description><![CDATA[Entry into TMNP (incursion 1) at 2026-02-06 09:26:13 SAST]]></description>
      <Style>
        <IconStyle>
          <color>ff00ff00</color>
          <scale>0.8</scale>
          <Icon><href>http://maps.google.com/mapfiles/kml/shapes/placemark_circle.png</href></Icon>
        </IconStyle>
      </Style>
      <Point>
        <coordinates>18.352808786859697,-34.100795225124976,304.8</coordinates>
      </Point>
    </Placemark>
    <Placemark>
      <name>Exit 1</name>
      <description><![CDATA[Exit from TMNP (incursion 1) at 2026-02-06 09:26:31 SAST]]></description>
      <Style>
        <IconStyle>
          <color>ff0000ff</color>
          <scale>0.8</scale>
          <Icon><href>http://maps.google.com/mapfiles/kml/shapes/placemark_circle.png</href></Icon>
        </IconStyle>
      </Style>
      <Point>
        <coordinates>18.35874903137451,-34.10342849004468,312.42</coordinates>
      </Point>
    </Placemark>
    <Placemark>
      <name>Entry 2</name>
      <description><![CDATA[Entry into TMNP (incursion 2) at 2026-02-06 09:27:02 SAST]]></description>
      <Style>
        <IconStyle>
          <color>ff00ff00</color>
          <scale>0.8</scale>
          <Icon><href>http://maps.google.com/mapfiles/kml/shapes/placemark_circle.png</href></Icon>
        </IconStyle>
      </Style>
      <Point>
        <coordinates>18.369878885580224,-34.10760349076366,304.8</coordinates>
      </Point>
    </Placemark>
    <Placemark>
      <name>Exit 2</name>
      <description><![CDATA[Exit from TMNP (incursion 2) at 2026-02-06 09:27:23 SAST]]></description>
      <Style>
        <IconStyle>
          <color>ff0000ff</color>
          <scale>0.8</scale>
          <Icon><href>http://maps.google.com/mapfiles/kml/shapes/placemark_circle.png</href></Icon>
        </IconStyle>
      </Style>
      <Point>
        <coordinates>18.37777223039398,-34.11063472832568,297.18</coordinates>
      </Point>
    </Placemark>
    <Placemark>
      <name>Entry 3</name>
      <description><![CDATA[Entry into TMNP (incursion 3) at 2026-02-06 09:28:31 SAST]]></description>
      <Style>
        <IconStyle>
          <color>ff00ff00</color>
          <scale>0.8</scale>
          <Icon><href>http://maps.google.com/mapfiles/kml/shapes/placemark_circle.png</href></Icon>
        </IconStyle>
      </Style>
      <Point>
        <coordinates>18.401702748456987,-34.11995444864922,312.42</coordinates>
      </Point>
    </Placemark>
    <Placemark>
      <name>Exit 3</name>
      <description><![CDATA[Exit from TMNP (incursion 3) at 2026-02-06 09:29:07 SAST]]></description>
      <Style>
        <IconStyle>
          <color>ff0000ff</color>
          <scale>0.8</scale>
          <Icon><href>http://maps.google.com/mapfiles/kml/shapes/placemark_circle.png</href></Icon>
        </IconStyle>
      </Style>
      <Point>
        <coordinates>18.414817603765727,-34.125106368982756,292.86423146713526</coordinates>
      </Point>
    </Placemark>
    <Placemark>
      <name>Entry 4</name>
      <description><![CDATA[Entry into TMNP (incursion 4) at 2026-02-06 11:22:55 SAST]]></description>
      <Style>
        <IconStyle>
          <color>ff00ff00</color>
          <scale>0.8</scale>
          <Icon><href>http://maps.google.com/mapfiles/kml/shapes/placemark_circle.png</href></Icon>
        </IconStyle>
      </Style>
      <Point>
        <coordinates>18.352671435373107,-34.09963371740648,388.62</coordinates>
      </Point>
    </Placemark>
    <Placemark>
      <name>Exit 4</name>
      <description><![CDATA[Exit from TMNP (incursion 4) at 2026-02-06 11:23:13 SAST]]></description>
      <Style>
        <IconStyle>
          <color>ff0000ff</color>
          <scale>0.8</scale>
          <Icon><href>http://maps.google.com/mapfiles/kml/shapes/placemark_circle.png</href></Icon>
        </IconStyle>
      </Style>
      <Point>
        <coordinates>18.358987480823714,-34.102084625119566,388.62</coordinates>
      </Point>
    </Placemark>
    <Placemark>
      <name>Entry 5</name>
      <description><![CDATA[Entry into TMNP (incursion 5) at 2026-02-06 11:23:43 SAST]]></description>
      <Style>
        <IconStyle>
          <color>ff00ff00</color>
          <scale>0.8</scale>
          <Icon><href>http://maps.google.com/mapfiles/kml/shapes/placemark_circle.png</href></Icon>
        </IconStyle>
      </Style>
      <Point>
        <coordinates>18.37021751430342,-34.1063045938221,373.38</coordinates>
      </Point>
    </Placemark>
    <Placemark>
      <name>Exit 5</name>
      <description><![CDATA[Exit from TMNP (incursion 5) at 2026-02-06 11:24:06 SAST]]></description>
      <Style>
        <IconStyle>
          <color>ff0000ff</color>
          <scale>0.8</scale>
          <Icon><href>http://maps.google.com/mapfiles/kml/shapes/placemark_circle.png</href></Icon>
        </IconStyle>
      </Style>
      <Point>
        <coordinates>18.378114982643574,-34.10971888117492,354.5947670221701</coordinates>
      </Point>
    </Placemark>
    <Placemark>
      <name>Entry 6</name>
      <description><![CDATA[Entry into TMNP (incursion 6) at 2026-02-06 11:25:16 SAST]]></description>
      <Style>
        <IconStyle>
          <color>ff00ff00</color>
          <scale>0.8</scale>
          <Icon><href>http://maps.google.com/mapfiles/kml/shapes/placemark_circle.png</href></Icon>
        </IconStyle>
      </Style>
      <Point>
        <coordinates>18.40173469698034,-34.12035307379773,338.3470286946371</coordinates>
      </Point>
    </Placemark>
    <Placemark>
      <name>Exit 6</name>
      <description><![CDATA[Exit from TMNP (incursion 6) at 2026-02-06 11:25:50 SAST]]></description>
      <Style>
        <IconStyle>
          <color>ff0000ff</color>
          <scale>0.8</scale>
          <Icon><href>http://maps.google.com/mapfiles/kml/shapes/placemark_circle.png</href></Icon>
        </IconStyle>
      </Style>
      <Point>
        <coordinates>18.414271032295282,-34.124928412918116,342.90000000000003</coordinates>
      </Point>
    </Placemark>
    <Placemark>
      <name>Entry 7</name>
      <description><![CDATA[Entry into TMNP (incursion 7) at 2026-02-06 12:15:49 SAST]]></description>
      <Style>
        <IconStyle>
          <color>ff00ff00</color>
          <scale>0.8</scale>
          <Icon><href>http://maps.google.com/mapfiles/kml/shapes/placemark_circle.png</href></Icon>
        </IconStyle>
      </Style>
      <Point>
        <coordinates>18.34252478168599,-33.99875006984513,624.84</coordinates>
      </Point>
    </Placemark>
    <Placemark>
      <name>Exit 7</name>
      <description><![CDATA[Exit from TMNP (incursion 7) at 2026-02-06 12:16:25 SAST]]></description>
      <Style>
        <IconStyle>
          <color>ff0000ff</color>
          <scale>0.8</scale>
          <Icon><href>http://maps.google.com/mapfiles/kml/shapes/placemark_circle.png</href></Icon>
        </IconStyle>
      </Style>
      <Point>
        <coordinates>18.35516229234835,-34.0088732253154,617.22</coordinates>
      </Point>
    </Placemark>
    <Placemark>
      <name>Entry 8</name>
      <description><![CDATA[Entry into TMNP (incursion 8) at 2026-02-06 12:17:35 SAST]]></description>
      <Style>
        <IconStyle>
          <color>ff00ff00</color>
          <scale>0.8</scale>
          <Icon><href>http://maps.google.com/mapfiles/kml/shapes/placemark_circle.png</href></Icon>
        </IconStyle>
      </Style>
      <Point>
        <coordinates>18.383481300201936,-34.0260846947035,577.3698831100389</coordinates>
      </Point>
    </Placemark>
    <Placemark>
      <name>Exit 8</name>
      <description><![CDATA[Exit from TMNP (incursion 8) at 2026-02-06 12:18:43 SAST]]></description>
      <Style>
        <IconStyle>
          <color>ff0000ff</color>
          <scale>0.8</scale>
          <Icon><href>http://maps.google.com/mapfiles/kml/shapes/placemark_circle.png</href></Icon>
        </IconStyle>
      </Style>
      <Point>
        <coordinates>18.401021135894545,-34.036331318463276,457.20000000000005</coordinates>
      </Point>
    </Placemark>
    <Placemark>
      <name>Entry 9</name>
      <description><![CDATA[Entry into TMNP (incursion 9) at 2026-02-06 12:19:14 SAST]]></description>
      <Style>
        <IconStyle>
          <color>ff00ff00</color>
          <scale>0.8</scale>
          <Icon><href>http://maps.google.com/mapfiles/kml/shapes/placemark_circle.png</href></Icon>
        </IconStyle>
      </Style>
      <Point>
        <coordinates>18.413386696785484,-34.02718369926911,495.3</coordinates>
      </Point>
    </Placemark>
    <Placemark>
      <name>Exit 9</name>
      <description><![CDATA[Exit from TMNP (incursion 9) at 2026-02-06 12:19:18 SAST]]></description>
      <Style>
        <IconStyle>
          <color>ff0000ff</color>
          <scale>0.8</scale>
          <Icon><href>http://maps.google.com/mapfiles/kml/shapes/placemark_circle.png</href></Icon>
        </IconStyle>
      </Style>
      <Point>
        <coordinates>18.414601826324724,-34.02602814600369,495.3210857490823</coordinates>
      </Point>
    </Placemark>
    <Placemark>
      <name>Entry 10</name>
      <description><![CDATA[Entry into TMNP (incursion 10) at 2026-02-06 12:22:17 SAST]]></description>
      <Style>
        <IconStyle>
          <color>ff00ff00</color>
          <scale>0.8</scale>
          <Icon><href>http://maps.google.com/mapfiles/kml/shapes/placemark_circle.png</href></Icon>
        </IconStyle>
      </Style>
      <Point>
        <coordinates>18.462007246738654,-33.95330939217276,548.64</coordinates>
      </Point>
    </Placemark>
    <Placemark>
      <name>Exit 10</name>
      <description><![CDATA[Exit from TMNP (incursion 10) at 2026-02-06 12:22:47 SAST]]></description>
      <Style>
        <IconStyle>
          <color>ff0000ff</color>
          <scale>0.8</scale>
          <Icon><href>http://maps.google.com/mapfiles/kml/shapes/placemark_circle.png</href></Icon>
        </IconStyle>
      </Style>
      <Point>
        <coordinates>18.455436778799577,-33.940358717605825,505.37812205370517</coordinates>
      </Point>
    </Placemark>
    <Placemark>
      <name>Entry 11</name>
      <description><![CDATA[Entry into TMNP (incursion 11) at 2026-02-06 13:04:21 SAST]]></description>
      <Style>
        <IconStyle>
          <color>ff00ff00</color>
          <scale>0.8</scale>
          <Icon><href>http://maps.google.com/mapfiles/kml/shapes/placemark_circle.png</href></Icon>
        </IconStyle>
      </Style>
      <Point>
        <coordinates>18.342203193922305,-33.999101786085276,544.2711187507957</coordinates>
      </Point>
    </Placemark>
    <Placemark>
      <name>Exit 11</name>
      <description><![CDATA[Exit from TMNP (incursion 11) at 2026-02-06 13:04:40 SAST]]></description>
      <Style>
        <IconStyle>
          <color>ff0000ff</color>
          <scale>0.8</scale>
          <Icon><href>http://maps.google.com/mapfiles/kml/shapes/placemark_circle.png</href></Icon>
        </IconStyle>
      </Style>
      <Point>
        <coordinates>18.345917325985617,-34.005797138759405,556.26</coordinates>
      </Point>
    </Placemark>
    <Placemark>
      <name>Entry 12</name>
      <description><![CDATA[Entry into TMNP (incursion 12) at 2026-02-06 13:05:57 SAST]]></description>
      <Style>
        <IconStyle>
          <color>ff00ff00</color>
          <scale>0.8</scale>
          <Icon><href>http://maps.google.com/mapfiles/kml/shapes/placemark_circle.png</href></Icon>
        </IconStyle>
      </Style>
      <Point>
        <coordinates>18.375775358112136,-34.02551702996883,608.3260451963916</coordinates>
      </Point>
    </Placemark>
    <Placemark>
      <name>Exit 12</name>
      <description><![CDATA[Exit from TMNP (incursion 12) at 2026-02-06 13:07:34 SAST]]></description>
      <Style>
        <IconStyle>
          <color>ff0000ff</color>
          <scale>0.8</scale>
          <Icon><href>http://maps.google.com/mapfiles/kml/shapes/placemark_circle.png</href></Icon>
        </IconStyle>
      </Style>
      <Point>
        <coordinates>18.40311735394787,-34.041260727101545,527.2422403448447</coordinates>
      </Point>
    </Placemark>
    <Placemark>
      <name>Entry 13</name>
      <description><![CDATA[Entry into TMNP (incursion 13) at 2026-02-06 13:11:16 SAST]]></description>
      <Style>
        <IconStyle>
          <color>ff00ff00</color>
          <scale>0.8</scale>
          <Icon><href>http://maps.google.com/mapfiles/kml/shapes/placemark_circle.png</href></Icon>
        </IconStyle>
      </Style>
      <Point>
        <coordinates>18.460717576643805,-33.953570076273344,571.5</coordinates>
      </Point>
    </Placemark>
    <Placemark>
      <name>Exit 13</name>
      <description><![CDATA[Exit from TMNP (incursion 13) at 2026-02-06 13:11:48 SAST]]></description>
      <Style>
        <IconStyle>
          <color>ff0000ff</color>
          <scale>0.8</scale>
          <Icon><href>http://maps.google.com/mapfiles/kml/shapes/placemark_circle.png</href></Icon>
        </IconStyle>
      </Style>
      <Point>
        <coordinates>18.454307274322957,-33.94025150307169,518.1600000000001</coordinates>
      </Point>
    </Placemark>
  </Document>
</kml>