<?xml version="1.0" encoding="UTF-8"?>
<kml xmlns="http://www.opengis.net/kml/2.2">
  <Document>
    <name>FR24 ZSHGD 3e27f674 - Optimised</name>
    <description><![CDATA[Optimised flight path with 517 points (decimated from 2581 original points). Source format: Standard KML]]></description>
    
    <Style id="flightPath">
      <LineStyle>
        <color>ffff0000</color>
        <width>3</width>
      </LineStyle>
    </Style>
    
    <Placemark>
      <name>Flight Path</name>
      <description><![CDATA[Park boundary / NP17 restricted airspace. Red track segments show flight inside this area.]]></description>
      <styleUrl>#flightPath</styleUrl>
      <LineString>
        <extrude>1</extrude>
        <tessellate>1</tessellate>
        <altitudeMode>absolute</altitudeMode>
        <coordinates>
          18.42957,-33.89557,45.72 18.435,-33.88742,129.54000000000002 18.43579,-33.88344,160.02 18.43357,-33.88007,190.5 18.42878,-33.87808,213.36 18.42385,-33.87817,236.22 18.41863,-33.87914,251.46 18.41331,-33.8803,266.7 18.40805,-33.88169,289.56 18.403,-33.88335,312.42 18.3975,-33.88522,335.28000000000003 18.39291,-33.88747,358.14000000000004 18.38904,-33.89021,381 18.38511,-33.89338,403.86 18.3815,-33.8965,426.72 18.37761,-33.89987,449.58000000000004 18.37407,-33.90317,464.82000000000005 18.37074,-33.90679,487.68 18.36765,-33.91047,502.92 18.36451,-33.91447,510.54 18.36157,-33.91869,518.1600000000001 18.35873,-33.92299,533.4 18.35432,-33.92974,556.26 18.35238,-33.93463,563.88 18.35115,-33.93924,571.5 18.35019,-33.94409,571.5 18.34885,-33.95123,579.12 18.34494,-33.96763,571.5 18.34039,-33.97842,579.12 18.33464,-33.99366,525.78 18.33258,-34.00399,502.92 18.33263,-34.00864,502.92 18.33327,-34.01317,495.3 18.33572,-34.01921,495.3 18.3382,-34.02242,487.68 18.34078,-34.02548,480.06 18.34362,-34.0288,472.44 18.34593,-34.03217,472.44 18.3475,-34.03578,464.82000000000005 18.34866,-34.03965,457.20000000000005 18.34969,-34.04403,457.20000000000005 18.35026,-34.04765,457.20000000000005 18.35019,-34.05162,449.58000000000004 18.34837,-34.05771,449.58000000000004 18.34116,-34.08126,441.96000000000004 18.34127,-34.08587,434.34000000000003 18.34225,-34.0895,426.72 18.34431,-34.09323,426.72 18.34717,-34.09626,419.1 18.35132,-34.09868,419.1 18.35529,-34.1004,419.1 18.35993,-34.10226,434.34000000000003 18.36454,-34.10403,426.72 18.3696,-34.10603,419.1 18.38007,-34.11022,411.48 18.38379,-34.11194,411.48 18.38808,-34.1139,411.48 18.39249,-34.11585,419.1 18.40047,-34.11951,411.48 18.40656,-34.12195,388.62 18.41135,-34.12376,373.38 18.41645,-34.12587,358.14000000000004 18.42155,-34.12816,350.52000000000004 18.42642,-34.13038,335.28000000000003 18.43111,-34.13243,327.66 18.43603,-34.13424,320.04 18.44112,-34.13499,320.04 18.44656,-34.13415,312.42 18.45154,-34.13141,312.42 18.45572,-34.12777,304.8 18.45989,-34.124,297.18 18.46378,-34.12056,297.18 18.46807,-34.11662,297.18 18.47202,-34.11232,297.18 18.47443,-34.10729,289.56 18.47517,-34.10156,281.94 18.47511,-34.09575,274.32 18.4748,-34.08957,274.32 18.47424,-34.08083,274.32 18.47323,-34.06219,281.94 18.47219,-34.04179,289.56 18.47174,-34.02517,289.56 18.47155,-34.0085,297.18 18.47157,-34.00031,289.56 18.47149,-33.99536,289.56 18.47128,-33.99012,289.56 18.47088,-33.98202,281.94 18.47116,-33.97699,281.94 18.47127,-33.97224,289.56 18.47093,-33.96758,297.18 18.46979,-33.96298,304.8 18.46802,-33.95865,312.42 18.46584,-33.9539,312.42 18.46365,-33.94972,312.42 18.46138,-33.94561,320.04 18.45898,-33.9417,312.42 18.4563,-33.93782,297.18 18.45331,-33.93407,289.56 18.45057,-33.93053,274.32 18.44773,-33.9267,251.46 18.44588,-33.92253,228.60000000000002 18.44479,-33.91815,205.74 18.44398,-33.91349,182.88 18.44335,-33.90907,167.64000000000001 18.44307,-33.90446,152.4 18.44156,-33.90056,137.16 18.43809,-33.89836,99.06 18.43472,-33.89859,53.34 18.43231,-33.89932,22.86 18.43105,-33.89976,7.62 18.42916,-33.90004,0 18.42766,-33.89983,0 18.42682,-33.89832,7.62 18.42777,-33.89676,15.24 18.42968,-33.89456,45.72 18.43226,-33.89182,83.82000000000001 18.43444,-33.88879,121.92 18.43629,-33.8849,175.26000000000002 18.43506,-33.88069,220.98000000000002 18.43105,-33.87807,259.08000000000004 18.42573,-33.87741,304.8 18.42127,-33.87788,335.28000000000003 18.41656,-33.87849,365.76 18.41191,-33.87923,403.86 18.40771,-33.8803,434.34000000000003 18.40344,-33.88156,464.82000000000005 18.39907,-33.88342,487.68 18.39504,-33.88545,518.1600000000001 18.39128,-33.8876,541.02 18.3873,-33.89017,556.26 18.38366,-33.89287,571.5 18.38013,-33.89594,586.74 18.37709,-33.89887,601.98 18.37413,-33.90202,609.6 18.37116,-33.90536,617.22 18.36382,-33.91342,632.46 18.36016,-33.91759,647.7 18.35735,-33.92094,655.32 18.35472,-33.92457,655.32 18.35249,-33.92825,655.32 18.35054,-33.93239,655.32 18.34902,-33.9364,655.32 18.34767,-33.94038,655.32 18.34593,-33.9446,647.7 18.34419,-33.94854,647.7 18.34207,-33.95261,640.08 18.34039,-33.95654,640.08 18.34036,-33.9607,640.08 18.3407,-33.96158,640.08 18.35625,-33.95279,640.08 18.35987,-33.94147,594.36 18.3618,-33.93668,571.5 18.36399,-33.93211,556.26 18.36639,-33.92789,541.02 18.36897,-33.92382,525.78 18.37177,-33.92006,502.92 18.37492,-33.91629,487.68 18.37833,-33.91264,472.44 18.38419,-33.90646,457.20000000000005 18.39014,-33.90115,426.72 18.39392,-33.89832,411.48 18.39798,-33.89548,396.24 18.40239,-33.89287,388.62 18.40658,-33.89072,373.38 18.41108,-33.88891,365.76 18.416,-33.88733,342.90000000000003 18.42121,-33.88605,320.04 18.42613,-33.88533,281.94 18.43119,-33.88545,243.84 18.43562,-33.88683,205.74 18.43837,-33.89003,152.4 18.43949,-33.89355,114.30000000000001 18.43843,-33.89627,91.44 18.43534,-33.89813,53.34 18.43317,-33.89878,30.48 18.4314,-33.89925,15.24 18.43018,-33.89955,7.62 18.42844,-33.89983,0 18.42888,-33.90018,0 18.43029,-33.90047,22.86 18.43191,-33.90055,38.1 18.43512,-33.90004,76.2 18.43786,-33.89731,121.92 18.43901,-33.89329,152.4 18.43855,-33.88868,182.88 18.43618,-33.88412,220.98000000000002 18.4322,-33.88097,251.46 18.42722,-33.87932,281.94 18.42194,-33.8784,320.04 18.41645,-33.87827,342.90000000000003 18.41124,-33.87877,365.76 18.40622,-33.87983,396.24 18.40143,-33.88124,419.1 18.39701,-33.883,449.58000000000004 18.39237,-33.8857,472.44 18.38859,-33.88861,495.3 18.38517,-33.89159,510.54 18.3817,-33.89479,525.78 18.37824,-33.89827,533.4 18.36937,-33.90763,586.74 18.36187,-33.91638,632.46 18.35888,-33.92033,647.7 18.35636,-33.92432,655.32 18.35412,-33.92871,647.7 18.35209,-33.93314,647.7 18.35043,-33.93737,640.08 18.349,-33.94212,640.08 18.34834,-33.94698,624.84 18.35008,-33.95068,624.84 18.35473,-33.95142,609.6 18.35799,-33.94771,601.98 18.35913,-33.94291,586.74 18.36068,-33.93828,579.12 18.36264,-33.9337,556.26 18.36516,-33.92899,541.02 18.36782,-33.92462,525.78 18.37091,-33.92038,510.54 18.37435,-33.91649,487.68 18.37761,-33.91287,464.82000000000005 18.3811,-33.90888,434.34000000000003 18.38516,-33.9052,426.72 18.3894,-33.90195,411.48 18.39409,-33.89864,396.24 18.39884,-33.89561,381 18.40339,-33.89305,373.38 18.40742,-33.8909,350.52000000000004 18.41202,-33.88907,320.04 18.41735,-33.88742,297.18 18.42184,-33.88617,281.94 18.4267,-33.885,251.46 18.43035,-33.88664,205.74 18.43018,-33.89063,144.78 18.42848,-33.89403,91.44 18.42705,-33.89692,38.1 18.42727,-33.89909,0 18.42699,-33.89964,0 18.42653,-33.89799,15.24 18.42816,-33.89594,38.1 18.43008,-33.89389,53.34 18.43254,-33.89082,83.82000000000001 18.43523,-33.8871,114.30000000000001 18.43618,-33.88362,144.78 18.43399,-33.88023,175.26000000000002 18.42996,-33.87836,205.74 18.42527,-33.8782,243.84 18.42076,-33.87877,274.32 18.416,-33.87951,304.8 18.41129,-33.88042,327.66 18.4063,-33.88152,358.14000000000004 18.40154,-33.88289,381 18.39718,-33.88467,403.86 18.39352,-33.88678,419.1 18.3898,-33.88952,434.34000000000003 18.38612,-33.89268,457.20000000000005 18.38259,-33.89585,480.06 18.37612,-33.90176,502.92 18.36438,-33.91356,579.12 18.36146,-33.91713,601.98 18.35872,-33.92084,601.98 18.35598,-33.9249,609.6 18.35352,-33.92895,609.6 18.35115,-33.93324,617.22 18.34924,-33.93755,624.84 18.3475,-33.9418,624.84 18.34505,-33.94822,624.84 18.34019,-33.95944,617.22 18.33058,-33.98872,571.5 18.3284,-34.00045,579.12 18.32851,-34.00459,594.36 18.32932,-34.00822,594.36 18.33075,-34.01204,594.36 18.33231,-34.01541,571.5 18.33422,-34.01871,563.88 18.33664,-34.0221,548.64 18.33921,-34.02548,533.4 18.34139,-34.02855,525.78 18.34339,-34.03178,518.1600000000001 18.34476,-34.03499,502.92 18.34566,-34.03844,502.92 18.34605,-34.04173,487.68 18.34631,-34.04547,480.06 18.34625,-34.049,480.06 18.34597,-34.05301,480.06 18.34545,-34.05724,480.06 18.34059,-34.08089,457.20000000000005 18.34122,-34.08485,457.20000000000005 18.34259,-34.08844,457.20000000000005 18.34459,-34.09181,449.58000000000004 18.34751,-34.09514,434.34000000000003 18.35087,-34.09763,426.72 18.35457,-34.09964,426.72 18.35844,-34.1011,434.34000000000003 18.36325,-34.10258,441.96000000000004 18.36777,-34.10422,441.96000000000004 18.3724,-34.10608,434.34000000000003 18.37704,-34.10785,426.72 18.3813,-34.10944,426.72 18.3859,-34.11118,434.34000000000003 18.3901,-34.11287,441.96000000000004 18.39466,-34.11474,449.58000000000004 18.40399,-34.11874,434.34000000000003 18.40822,-34.1207,419.1 18.41331,-34.12294,411.48 18.42284,-34.1272,403.86 18.42732,-34.12939,411.48 18.43163,-34.13145,411.48 18.43579,-34.13333,411.48 18.44066,-34.13443,411.48 18.44537,-34.13406,426.72 18.45025,-34.13196,426.72 18.45469,-34.12898,426.72 18.45921,-34.12544,419.1 18.46315,-34.12204,426.72 18.46684,-34.11873,419.1 18.47099,-34.11475,403.86 18.47466,-34.11064,396.24 18.47755,-34.10596,381 18.47906,-34.10065,365.76 18.47968,-34.0947,358.14000000000004 18.47969,-34.08913,350.52000000000004 18.47923,-34.08341,342.90000000000003 18.47856,-34.07753,335.28000000000003 18.47766,-34.07071,335.28000000000003 18.47486,-34.05066,335.28000000000003 18.47374,-34.03262,312.42 18.47284,-34.02127,304.8 18.47211,-34.01285,297.18 18.47172,-34.00735,297.18 18.47157,-34.00217,304.8 18.47138,-33.98772,289.56 18.47183,-33.98094,289.56 18.47256,-33.97614,281.94 18.47177,-33.97188,289.56 18.46853,-33.97122,281.94 18.47025,-33.97238,266.7 18.47225,-33.96894,266.7 18.47214,-33.96432,266.7 18.47076,-33.95924,266.7 18.46886,-33.95439,274.32 18.46699,-33.94952,289.56 18.46481,-33.94477,304.8 18.4618,-33.94025,289.56 18.45863,-33.93635,274.32 18.45509,-33.93239,266.7 18.45159,-33.92876,259.08000000000004 18.44839,-33.92476,243.84 18.44621,-33.92079,220.98000000000002 18.44509,-33.91644,205.74 18.44442,-33.91241,190.5 18.44375,-33.90793,167.64000000000001 18.44279,-33.90399,129.54000000000002 18.43982,-33.90102,91.44 18.43546,-33.90046,68.58 18.43214,-33.9006,38.1 18.43007,-33.90065,22.86 18.42836,-33.90027,0 18.42844,-33.89946,0 18.42945,-33.89757,22.86 18.43013,-33.89607,38.1 18.43214,-33.89254,68.58 18.43427,-33.88889,91.44 18.43624,-33.88518,106.68 18.435,-33.88202,137.16 18.43134,-33.87988,160.02 18.42654,-33.8795,190.5 18.42183,-33.87987,220.98000000000002 18.41686,-33.88067,251.46 18.41202,-33.88161,281.94 18.4072,-33.88252,320.04 18.40025,-33.88403,365.76 18.39661,-33.88514,426.72 18.39294,-33.88696,449.58000000000004 18.38928,-33.88933,480.06 18.38562,-33.89227,502.92 18.38242,-33.89501,525.78 18.37906,-33.89799,541.02 18.37555,-33.90139,556.26 18.37217,-33.90479,571.5 18.36611,-33.91159,594.36 18.36348,-33.91507,601.98 18.3609,-33.91852,609.6 18.35604,-33.92517,609.6 18.35369,-33.92923,609.6 18.35169,-33.93341,601.98 18.35014,-33.93782,601.98 18.34857,-33.94267,601.98 18.34711,-33.94679,586.74 18.34509,-33.95302,571.5 18.34591,-33.96265,541.02 18.35406,-33.95183,518.1600000000001 18.35701,-33.94436,525.78 18.35964,-33.93979,518.1600000000001 18.36264,-33.9348,510.54 18.36802,-33.92606,487.68 18.37312,-33.91855,464.82000000000005 18.3783,-33.9141,434.34000000000003 18.38102,-33.90994,419.1 18.385,-33.90646,411.48 18.38938,-33.90317,411.48 18.39448,-33.89987,411.48 18.39969,-33.8969,411.48 18.40479,-33.89413,411.48 18.40977,-33.89138,388.62 18.41527,-33.88852,358.14000000000004 18.42071,-33.88646,342.90000000000003 18.42653,-33.88537,304.8 18.4318,-33.88584,281.94 18.43607,-33.8876,243.84 18.43932,-33.89012,236.22 18.44167,-33.89323,198.12 18.44173,-33.89667,137.16 18.43832,-33.89939,76.2 18.43377,-33.90147,38.1 18.4313,-33.90198,30.48 18.42928,-33.90144,15.24 18.42811,-33.90038,0 18.42929,-33.90019,7.62 18.43147,-33.90038,30.48 18.43346,-33.90013,45.72 18.43646,-33.8985,76.2 18.43803,-33.89456,106.68 18.43792,-33.89003,129.54000000000002 18.43666,-33.88533,160.02 18.43323,-33.88146,182.88 18.42828,-33.87918,198.12 18.42333,-33.8783,205.74 18.41829,-33.87816,220.98000000000002 18.4136,-33.87867,243.84 18.40928,-33.87968,274.32 18.40518,-33.88097,289.56 18.40148,-33.88257,312.42 18.39775,-33.88449,327.66 18.39403,-33.88687,358.14000000000004 18.39033,-33.8893,381 18.38699,-33.89166,396.24 18.38316,-33.89459,419.1 18.37828,-33.8985,426.72 18.37486,-33.90161,449.58000000000004 18.3716,-33.90493,472.44 18.36864,-33.90807,495.3 18.36348,-33.91351,518.1600000000001 18.36079,-33.91667,525.78 18.35844,-33.91973,525.78 18.35318,-33.92709,525.78 18.35104,-33.93031,525.78 18.34883,-33.93398,518.1600000000001 18.34711,-33.93742,502.92 18.34568,-33.94091,487.68 18.34459,-33.94473,480.06 18.34403,-33.94807,457.20000000000005 18.34487,-33.95132,449.58000000000004 18.34991,-33.95208,457.20000000000005 18.35375,-33.94943,457.20000000000005 18.35591,-33.94533,457.20000000000005 18.35776,-33.94121,449.58000000000004 18.36016,-33.93551,472.44 18.36187,-33.93118,480.06 18.36393,-33.92653,487.68 18.36628,-33.92229,480.06 18.36914,-33.91818,480.06 18.372,-33.91452,472.44 18.37531,-33.91081,480.06 18.37895,-33.90715,487.68 18.38321,-33.90376,472.44 18.38751,-33.90074,464.82000000000005 18.39163,-33.8978,449.58000000000004 18.39778,-33.89365,434.34000000000003 18.40256,-33.89077,411.48 18.40708,-33.88835,396.24 18.41143,-33.88598,365.76 18.41595,-33.88398,342.90000000000003 18.42093,-33.88284,327.66 18.42587,-33.88303,320.04 18.42996,-33.88449,312.42 18.43328,-33.88631,297.18 18.43596,-33.88829,281.94 18.43838,-33.89035,274.32 18.44084,-33.89254,274.32 18.44313,-33.89456,266.7 18.4453,-33.89669,251.46 18.44719,-33.89859,243.84 18.44913,-33.90055,236.22 18.45086,-33.90248,220.98000000000002 18.45271,-33.90422,205.74 18.45463,-33.90604,205.74 18.45709,-33.90758,198.12 18.46001,-33.9086,205.74 18.46309,-33.90889,205.74 18.46678,-33.90811,205.74 18.47025,-33.90618,213.36 18.47317,-33.90302,213.36 18.47581,-33.89983,213.36 18.47809,-33.89585,228.60000000000002 18.48024,-33.89438,213.36 18.47883,-33.8965,182.88 18.47654,-33.89873,182.88 18.47435,-33.9012,182.88 18.47185,-33.90367,190.5 18.46928,-33.90553,198.12 18.46544,-33.90678,205.74 18.46075,-33.90646,220.98000000000002 18.45572,-33.90418,228.60000000000002 18.45176,-33.90111,228.60000000000002 18.44851,-33.8972,236.22 18.44547,-33.89291,243.84 18.44238,-33.88835,251.46 18.43898,-33.88431,259.08000000000004 18.43443,-33.88286,251.46 18.43237,-33.88486,220.98000000000002 18.43265,-33.8877,182.88 18.43168,-33.89045,129.54000000000002 18.43025,-33.89254,91.44 18.42856,-33.89484,60.96 18.42788,-33.89676,30.48 18.4276,-33.89845,7.62 18.42715,-33.89996,0 18.42738,-33.90092,0
        </coordinates>
      </LineString>
    </Placemark>
    <Placemark>
      <name>Entry 1</name>
      <description><![CDATA[Entry into TMNP (incursion 1) at 2026-02-02 11:38:19 SAST]]></description>
      <Style>
        <IconStyle>
          <color>ff00ff00</color>
          <scale>0.8</scale>
          <Icon><href>http://maps.google.com/mapfiles/kml/shapes/placemark_circle.png</href></Icon>
        </IconStyle>
      </Style>
      <Point>
        <coordinates>18.352667825737466,-34.09930681143887,419.1</coordinates>
      </Point>
    </Placemark>
    <Placemark>
      <name>Exit 1</name>
      <description><![CDATA[Exit from TMNP (incursion 1) at 2026-02-02 11:38:37 SAST]]></description>
      <Style>
        <IconStyle>
          <color>ff0000ff</color>
          <scale>0.8</scale>
          <Icon><href>http://maps.google.com/mapfiles/kml/shapes/placemark_circle.png</href></Icon>
        </IconStyle>
      </Style>
      <Point>
        <coordinates>18.359018083088305,-34.10191215540482,427.1762815802917</coordinates>
      </Point>
    </Placemark>
    <Placemark>
      <name>Entry 2</name>
      <description><![CDATA[Entry into TMNP (incursion 2) at 2026-02-02 11:39:04 SAST]]></description>
      <Style>
        <IconStyle>
          <color>ff00ff00</color>
          <scale>0.8</scale>
          <Icon><href>http://maps.google.com/mapfiles/kml/shapes/placemark_circle.png</href></Icon>
        </IconStyle>
      </Style>
      <Point>
        <coordinates>18.370227596421277,-34.10626592128245,419.1</coordinates>
      </Point>
    </Placemark>
    <Placemark>
      <name>Exit 2</name>
      <description><![CDATA[Exit from TMNP (incursion 2) at 2026-02-02 11:39:22 SAST]]></description>
      <Style>
        <IconStyle>
          <color>ff0000ff</color>
          <scale>0.8</scale>
          <Icon><href>http://maps.google.com/mapfiles/kml/shapes/placemark_circle.png</href></Icon>
        </IconStyle>
      </Style>
      <Point>
        <coordinates>18.376987567519937,-34.10892045667011,411.48</coordinates>
      </Point>
    </Placemark>
    <Placemark>
      <name>Entry 3</name>
      <description><![CDATA[Entry into TMNP (incursion 3) at 2026-02-02 11:40:28 SAST]]></description>
      <Style>
        <IconStyle>
          <color>ff00ff00</color>
          <scale>0.8</scale>
          <Icon><href>http://maps.google.com/mapfiles/kml/shapes/placemark_circle.png</href></Icon>
        </IconStyle>
      </Style>
      <Point>
        <coordinates>18.401711054155992,-34.120058079754166,406.67957732554527</coordinates>
      </Point>
    </Placemark>
    <Placemark>
      <name>Exit 3</name>
      <description><![CDATA[Exit from TMNP (incursion 3) at 2026-02-02 11:40:57 SAST]]></description>
      <Style>
        <IconStyle>
          <color>ff0000ff</color>
          <scale>0.8</scale>
          <Icon><href>http://maps.google.com/mapfiles/kml/shapes/placemark_circle.png</href></Icon>
        </IconStyle>
      </Style>
      <Point>
        <coordinates>18.414251675840113,-34.124964529696925,365.76</coordinates>
      </Point>
    </Placemark>
    <Placemark>
      <name>Entry 4</name>
      <description><![CDATA[Entry into TMNP (incursion 4) at 2026-02-02 11:48:56 SAST]]></description>
      <Style>
        <IconStyle>
          <color>ff00ff00</color>
          <scale>0.8</scale>
          <Icon><href>http://maps.google.com/mapfiles/kml/shapes/placemark_circle.png</href></Icon>
        </IconStyle>
      </Style>
      <Point>
        <coordinates>18.46526597811278,-33.952711956225556,312.42</coordinates>
      </Point>
    </Placemark>
    <Placemark>
      <name>Exit 4</name>
      <description><![CDATA[Exit from TMNP (incursion 4) at 2026-02-02 11:49:20 SAST]]></description>
      <Style>
        <IconStyle>
          <color>ff0000ff</color>
          <scale>0.8</scale>
          <Icon><href>http://maps.google.com/mapfiles/kml/shapes/placemark_circle.png</href></Icon>
        </IconStyle>
      </Style>
      <Point>
        <coordinates>18.460142355997522,-33.94353682823619,313.6751054022834</coordinates>
      </Point>
    </Placemark>
    <Placemark>
      <name>Entry 5</name>
      <description><![CDATA[Entry into TMNP (incursion 5) at 2026-02-02 15:11:59 SAST]]></description>
      <Style>
        <IconStyle>
          <color>ff00ff00</color>
          <scale>0.8</scale>
          <Icon><href>http://maps.google.com/mapfiles/kml/shapes/placemark_circle.png</href></Icon>
        </IconStyle>
      </Style>
      <Point>
        <coordinates>18.338443224166667,-34.02448740333333,541.02</coordinates>
      </Point>
    </Placemark>
    <Placemark>
      <name>Exit 5</name>
      <description><![CDATA[Exit from TMNP (incursion 5) at 2026-02-02 15:12:24 SAST]]></description>
      <Style>
        <IconStyle>
          <color>ff0000ff</color>
          <scale>0.8</scale>
          <Icon><href>http://maps.google.com/mapfiles/kml/shapes/placemark_circle.png</href></Icon>
        </IconStyle>
      </Style>
      <Point>
        <coordinates>18.34315464461366,-34.031309289227316,518.1600000000001</coordinates>
      </Point>
    </Placemark>
    <Placemark>
      <name>Entry 6</name>
      <description><![CDATA[Entry into TMNP (incursion 6) at 2026-02-02 15:12:27 SAST]]></description>
      <Style>
        <IconStyle>
          <color>ff00ff00</color>
          <scale>0.8</scale>
          <Icon><href>http://maps.google.com/mapfiles/kml/shapes/placemark_circle.png</href></Icon>
        </IconStyle>
      </Style>
      <Point>
        <coordinates>18.343458990809655,-34.03192028131296,516.4076334347203</coordinates>
      </Point>
    </Placemark>
    <Placemark>
      <name>Exit 6</name>
      <description><![CDATA[Exit from TMNP (incursion 6) at 2026-02-02 15:12:34 SAST]]></description>
      <Style>
        <IconStyle>
          <color>ff0000ff</color>
          <scale>0.8</scale>
          <Icon><href>http://maps.google.com/mapfiles/kml/shapes/placemark_circle.png</href></Icon>
        </IconStyle>
      </Style>
      <Point>
        <coordinates>18.344435423591975,-34.034112645178716,510.54</coordinates>
      </Point>
    </Placemark>
    <Placemark>
      <name>Entry 7</name>
      <description><![CDATA[Entry into TMNP (incursion 7) at 2026-02-02 15:16:04 SAST]]></description>
      <Style>
        <IconStyle>
          <color>ff00ff00</color>
          <scale>0.8</scale>
          <Icon><href>http://maps.google.com/mapfiles/kml/shapes/placemark_circle.png</href></Icon>
        </IconStyle>
      </Style>
      <Point>
        <coordinates>18.35269723088758,-34.098701347939596,426.72</coordinates>
      </Point>
    </Placemark>
    <Placemark>
      <name>Exit 7</name>
      <description><![CDATA[Exit from TMNP (incursion 7) at 2026-02-02 15:16:23 SAST]]></description>
      <Style>
        <IconStyle>
          <color>ff0000ff</color>
          <scale>0.8</scale>
          <Icon><href>http://maps.google.com/mapfiles/kml/shapes/placemark_circle.png</href></Icon>
        </IconStyle>
      </Style>
      <Point>
        <coordinates>18.359128006823884,-34.10129264191069,434.34000000000003</coordinates>
      </Point>
    </Placemark>
    <Placemark>
      <name>Entry 8</name>
      <description><![CDATA[Entry into TMNP (incursion 8) at 2026-02-02 15:16:53 SAST]]></description>
      <Style>
        <IconStyle>
          <color>ff00ff00</color>
          <scale>0.8</scale>
          <Icon><href>http://maps.google.com/mapfiles/kml/shapes/placemark_circle.png</href></Icon>
        </IconStyle>
      </Style>
      <Point>
        <coordinates>18.370480833055712,-34.10529456750268,434.34000000000003</coordinates>
      </Point>
    </Placemark>
    <Placemark>
      <name>Exit 8</name>
      <description><![CDATA[Exit from TMNP (incursion 8) at 2026-02-02 15:16:58 SAST]]></description>
      <Style>
        <IconStyle>
          <color>ff0000ff</color>
          <scale>0.8</scale>
          <Icon><href>http://maps.google.com/mapfiles/kml/shapes/placemark_circle.png</href></Icon>
        </IconStyle>
      </Style>
      <Point>
        <coordinates>18.37233739691544,-34.10605208240824,434.34000000000003</coordinates>
      </Point>
    </Placemark>
    <Placemark>
      <name>Entry 9</name>
      <description><![CDATA[Entry into TMNP (incursion 9) at 2026-02-02 15:18:17 SAST]]></description>
      <Style>
        <IconStyle>
          <color>ff00ff00</color>
          <scale>0.8</scale>
          <Icon><href>http://maps.google.com/mapfiles/kml/shapes/placemark_circle.png</href></Icon>
        </IconStyle>
      </Style>
      <Point>
        <coordinates>18.40211155179171,-34.1179763725095,434.34000000000003</coordinates>
      </Point>
    </Placemark>
    <Placemark>
      <name>Exit 9</name>
      <description><![CDATA[Exit from TMNP (incursion 9) at 2026-02-02 15:19:09 SAST]]></description>
      <Style>
        <IconStyle>
          <color>ff0000ff</color>
          <scale>0.8</scale>
          <Icon><href>http://maps.google.com/mapfiles/kml/shapes/placemark_circle.png</href></Icon>
        </IconStyle>
      </Style>
      <Point>
        <coordinates>18.42108488952316,-34.126415446013006,403.86</coordinates>
      </Point>
    </Placemark>
    <Placemark>
      <name>Entry 10</name>
      <description><![CDATA[Entry into TMNP (incursion 10) at 2026-02-02 15:27:37 SAST]]></description>
      <Style>
        <IconStyle>
          <color>ff00ff00</color>
          <scale>0.8</scale>
          <Icon><href>http://maps.google.com/mapfiles/kml/shapes/placemark_circle.png</href></Icon>
        </IconStyle>
      </Style>
      <Point>
        <coordinates>18.46682837194031,-33.94910937736187,289.56</coordinates>
      </Point>
    </Placemark>
    <Placemark>
      <name>Exit 10</name>
      <description><![CDATA[Exit from TMNP (incursion 10) at 2026-02-02 15:27:50 SAST]]></description>
      <Style>
        <IconStyle>
          <color>ff0000ff</color>
          <scale>0.8</scale>
          <Icon><href>http://maps.google.com/mapfiles/kml/shapes/placemark_circle.png</href></Icon>
        </IconStyle>
      </Style>
      <Point>
        <coordinates>18.46417788128035,-33.943796233387296,304.8</coordinates>
      </Point>
    </Placemark>
  </Document>
</kml>