<?xml version="1.0" encoding="UTF-8"?>
<kml xmlns="http://www.opengis.net/kml/2.2">
  <Document>
    <name>FR24 3eb16d70 - Optimised</name>
    <description><![CDATA[Optimised flight path with 123 points (decimated from 611 original points). Source format: Standard KML]]></description>
    
    <Style id="flightPath">
      <LineStyle>
        <color>ffff0000</color>
        <width>3</width>
      </LineStyle>
    </Style>
    
    <Placemark>
      <name>Flight Path</name>
      <description><![CDATA[Optimized flight path]]></description>
      <styleUrl>#flightPath</styleUrl>
      <LineString>
        <extrude>1</extrude>
        <tessellate>1</tessellate>
        <altitudeMode>absolute</altitudeMode>
        <coordinates>
          18.47494,-34.23531,0 18.47805,-34.23697,0 18.48261,-34.23689,0 18.48031,-33.98485,0 18.48137,-33.97892,0 18.4825,-33.9735,0 18.48307,-33.96591,0 18.48352,-33.96074,0 18.48347,-33.9559,0 18.48289,-33.9505,0 18.48214,-33.94583,0 18.48063,-33.94057,0 18.4786,-33.93542,0 18.47575,-33.93077,0 18.47228,-33.9267,0 18.46842,-33.92276,0 18.46464,-33.91894,0 18.46084,-33.91534,0 18.45715,-33.91144,0 18.45394,-33.90767,0 18.45062,-33.90376,0 18.44736,-33.90036,0 18.44369,-33.89758,0 18.4396,-33.89708,0 18.43567,-33.89795,0 18.42844,-33.90015,0 18.42749,-33.89941,0 18.42899,-33.89659,0 18.43174,-33.8932,0 18.43454,-33.88975,0 18.42833,-33.89868,0 18.43151,-33.8965,0 18.43592,-33.89692,0 18.43949,-33.8996,0 18.44347,-33.9026,0 18.44845,-33.90623,0 18.45311,-33.90967,0 18.46275,-33.91676,0 18.46733,-33.92075,0 18.47151,-33.9248,0 18.47523,-33.92941,0 18.47833,-33.93466,0 18.48043,-33.93989,0 18.48146,-33.94543,0 18.48164,-33.95055,0 18.48091,-33.95549,0 18.47591,-34.23633,0 18.4785,-34.23875,0 18.44645,-33.90446,0 18.45232,-33.90807,0 18.45776,-33.91237,0 18.4631,-33.91642,0 18.46841,-33.91992,0 18.47435,-33.92345,0 18.48018,-33.92715,0 18.48545,-33.93063,0 18.49251,-33.93542,0 18.49829,-33.93886,0 18.5043,-33.94165,0 18.51036,-33.94408,0 18.51711,-33.9465,0 18.52368,-33.94867,0 18.53057,-33.95055,0 18.53786,-33.95224,0 18.54435,-33.95357,0 18.55047,-33.95471,0 18.55717,-33.95585,0 18.56375,-33.95627,0 18.57004,-33.95632,0 18.57682,-33.95609,0 18.58349,-33.95567,0 18.58988,-33.95508,0 18.59613,-33.95418,0 18.60226,-33.9527,0 18.60804,-33.95023,0 18.6137,-33.94725,0 18.61931,-33.94454,0 18.62513,-33.94185,0 18.64195,-33.93452,0 18.66146,-33.92596,0 18.66823,-33.92331,0 18.67504,-33.92099,0 18.68169,-33.91882,0 18.68803,-33.91661,0 18.70742,-33.90935,0 18.71355,-33.9073,0 18.71984,-33.90497,0 18.72765,-33.90179,0 18.73621,-33.89785,0 18.74884,-33.89214,0 18.75544,-33.88938,0 18.76225,-33.88719,0 18.76865,-33.88496,0 18.77524,-33.88371,0 18.78169,-33.88303,0 18.78822,-33.8823,0 18.79475,-33.8817,0 18.8019,-33.88207,0 18.80808,-33.88337,0 18.8138,-33.885,0 18.81958,-33.88696,0 18.82496,-33.88924,0 18.83045,-33.89157,0 18.83998,-33.89534,0 18.84514,-33.89763,0 18.85052,-33.89978,0 18.85654,-33.90157,0 18.86196,-33.9034,0 18.86936,-33.90609,0 18.8867,-33.91224,0 18.89294,-33.91424,0 18.89777,-33.91576,0 18.90439,-33.91805,0 18.90879,-33.91959,0 18.91302,-33.9212,0 18.91628,-33.92294,0 18.9196,-33.92397,0 18.92266,-33.92473,0 18.92586,-33.9256,0 18.9249,-33.92661,0 18.92367,-33.92532,0 18.92315,-33.92411,0 18.92301,-33.92277,0
        </coordinates>
      </LineString>
    </Placemark>
  </Document>
</kml>