<?xml version="1.0" encoding="UTF-8"?>
<kml xmlns="http://www.opengis.net/kml/2.2">
  <Document>
    <name>FR24 3f936909 - Optimised</name>
    <description><![CDATA[Optimised flight path with 492 points (decimated from 2456 original points). Source format: Standard KML]]></description>
    
    <Style id="flightPath">
      <LineStyle>
        <color>ffff0000</color>
        <width>3</width>
      </LineStyle>
    </Style>
    
    <Placemark>
      <name>Flight Path</name>
      <description><![CDATA[Optimized flight path]]></description>
      <styleUrl>#flightPath</styleUrl>
      <LineString>
        <extrude>1</extrude>
        <tessellate>1</tessellate>
        <altitudeMode>absolute</altitudeMode>
        <coordinates>
          18.38831,-34.19206,0 18.39586,-34.19816,0 18.39464,-34.20241,0 18.38803,-34.20369,0 18.3807,-34.20258,0 18.37263,-34.20025,0 18.36539,-34.19724,0 18.35827,-34.19353,0 18.35072,-34.18936,0 18.34373,-34.18563,0 18.3371,-34.182,0 18.33155,-34.17707,0 18.3262,-34.17183,0 18.32142,-34.16585,0 18.31736,-34.16026,0 18.31359,-34.15425,0 18.31073,-34.1478,0 18.3104,-34.14185,0 18.31203,-34.13601,0 18.31169,-34.12912,0 18.31085,-34.12289,0 18.30957,-34.11641,0 18.3062,-34.10119,0 18.30025,-34.07835,0 18.29647,-34.06343,0 18.29521,-34.05698,0 18.29442,-34.05025,0 18.2943,-34.04361,0 18.29504,-34.03685,0 18.29693,-34.03053,0 18.3003,-34.02512,0 18.30608,-34.01692,0 18.31494,-34.00479,0 18.31913,-33.99947,0 18.32592,-33.99133,0 18.34156,-33.98215,0 18.35541,-33.97449,0 18.35709,-33.95929,0 18.35793,-33.94981,0 18.35916,-33.94249,0 18.36068,-33.9364,0 18.3629,-33.93085,0 18.36572,-33.925,0 18.3688,-33.91912,0 18.372,-33.91365,0 18.37566,-33.90833,0 18.3795,-33.90353,0 18.38356,-33.89869,0 18.38797,-33.89413,0 18.39291,-33.89012,0 18.39857,-33.8866,0 18.40445,-33.88394,0 18.41045,-33.88229,0 18.41721,-33.88169,0 18.42367,-33.8823,0 18.42997,-33.88426,0 18.4358,-33.8871,0 18.44112,-33.88984,0 18.4456,-33.89355,0 18.44599,-33.89832,0 18.44049,-33.89976,0 18.43567,-33.89946,0 18.43142,-33.89941,0 18.42828,-33.89964,0 18.42766,-33.90051,0 18.43063,-33.90097,0 18.433,-33.90074,0 18.43809,-33.9006,0 18.44285,-33.90179,0 18.4475,-33.90376,0 18.45148,-33.90637,0 18.45612,-33.90953,0 18.46041,-33.91265,0 18.46477,-33.91603,0 18.46939,-33.91968,0 18.47334,-33.92378,0 18.47687,-33.92839,0 18.47996,-33.93311,0 18.48261,-33.9384,0 18.48375,-33.94366,0 18.48415,-33.94994,0 18.48382,-33.95572,0 18.48312,-33.9613,0 18.48272,-33.96684,0 18.48289,-33.9728,0 18.48341,-33.97839,0 18.48392,-33.98402,0 18.48478,-33.98923,0 18.4873,-33.99353,0 18.49268,-33.99586,0 18.49957,-33.9949,0 18.50578,-33.99603,0 18.50681,-34.00076,0 18.50098,-34.00346,0 18.4952,-33.99989,0 18.49588,-33.99399,0 18.50159,-33.99138,0 18.50585,-33.9933,0 18.5063,-33.99701,0 18.50243,-33.99916,0 18.49743,-33.99631,0 18.49896,-33.99129,0 18.50417,-33.98946,0 18.50877,-33.99147,0 18.50962,-33.99556,0 18.50658,-33.99826,0 18.50195,-33.99687,0 18.50143,-33.99258,0 18.50504,-33.99012,0 18.50996,-33.98904,0 18.51557,-33.98816,0 18.52177,-33.98753,0 18.52811,-33.98689,0 18.53468,-33.98635,0 18.55265,-33.9843,0 18.55916,-33.98355,0 18.56804,-33.9829,0 18.57725,-33.98248,0 18.58371,-33.98218,0 18.58915,-33.98262,0 18.59139,-33.98538,0 18.5873,-33.98616,0 18.58371,-33.98364,0 18.58365,-33.98016,0 18.58709,-33.97904,0 18.59058,-33.98039,0 18.59293,-33.98281,0 18.59021,-33.98213,0 18.58971,-33.97696,0 18.5896,-33.97078,0 18.58988,-33.96465,0 18.59299,-33.95883,0 18.59868,-33.95558,0 18.60535,-33.95376,0 18.61174,-33.95247,0 18.61841,-33.95151,0 18.62469,-33.95073,0 18.63152,-33.94986,0 18.63803,-33.94904,0 18.65904,-33.94588,0 18.66983,-33.94384,0 18.67928,-33.94235,0 18.68626,-33.94133,0 18.69716,-33.9402,0 18.70406,-33.93993,0 18.71073,-33.94093,0 18.71761,-33.94147,0 18.72446,-33.9407,0 18.73106,-33.9397,0 18.7383,-33.9386,0 18.74559,-33.93789,0 18.75326,-33.937,0 18.77087,-33.93471,0 18.78017,-33.93347,0 18.78799,-33.93262,0 18.79632,-33.93164,0 18.81056,-33.9294,0 18.81857,-33.9277,0 18.82919,-33.92569,0 18.83698,-33.92434,0 18.84459,-33.92341,0 18.85174,-33.9228,0 18.85943,-33.92235,0 18.86713,-33.92215,0 18.87428,-33.92201,0 18.88225,-33.92175,0 18.89694,-33.92117,0 18.91655,-33.91992,0 18.92332,-33.91917,0 18.92767,-33.92187,0 18.92601,-33.9255,0 18.92326,-33.92392,0 18.92283,-33.92267,0 18.9192,-33.92257,0 18.91554,-33.91974,0 18.91205,-33.91587,0 18.90844,-33.91149,0 18.90467,-33.90697,0 18.90114,-33.90175,0 18.89738,-33.89676,0 18.89288,-33.89124,0 18.88887,-33.88589,0 18.88303,-33.87804,0 18.8772,-33.87364,0 18.8702,-33.87181,0 18.86313,-33.87131,0 18.8558,-33.87229,0 18.84928,-33.87495,0 18.84295,-33.87827,0 18.83686,-33.88105,0 18.83012,-33.8839,0 18.82373,-33.88641,0 18.81672,-33.88847,0 18.80997,-33.89022,0 18.80333,-33.89191,0 18.79618,-33.89175,0 18.7896,-33.88984,0 18.78262,-33.88798,0 18.77558,-33.88646,0 18.76814,-33.885,0 18.76087,-33.88454,0 18.75321,-33.88504,0 18.74599,-33.88686,0 18.73931,-33.88879,0 18.73215,-33.89119,0 18.72423,-33.89397,0 18.71475,-33.89743,0 18.70565,-33.90088,0 18.69912,-33.90363,0 18.69329,-33.90587,0 18.67833,-33.91182,0 18.66319,-33.91786,0 18.65568,-33.91891,0 18.64855,-33.91824,0 18.64082,-33.91712,0 18.63316,-33.91587,0 18.61502,-33.91335,0 18.60775,-33.91242,0 18.60025,-33.91121,0 18.59287,-33.90995,0 18.58555,-33.90963,0 18.57833,-33.911,0 18.57166,-33.91338,0 18.56552,-33.91619,0 18.55961,-33.91933,0 18.55413,-33.92257,0 18.54692,-33.92704,0 18.53679,-33.93324,0 18.5269,-33.93951,0 18.51818,-33.94336,0 18.51122,-33.94333,0 18.50428,-33.94121,0 18.49784,-33.93764,0 18.49162,-33.93333,0 18.48545,-33.9288,0 18.47951,-33.92409,0 18.47424,-33.9191,0 18.46853,-33.91386,0 18.46281,-33.90991,0 18.45566,-33.90865,0 18.45068,-33.91107,0 18.44759,-33.91521,0 18.4452,-33.91891,0 18.44285,-33.9229,0 18.44195,-33.92665,0 18.4387,-33.92789,0 18.43683,-33.92471,0 18.43954,-33.9201,0 18.44352,-33.9153,0 18.44773,-33.91109,0 18.45003,-33.90614,0 18.44834,-33.90033,0 18.44532,-33.89474,0 18.44201,-33.88943,0 18.43758,-33.88467,0 18.4317,-33.88074,0 18.42503,-33.87827,0 18.41869,-33.87703,0 18.41177,-33.87751,0 18.40971,-33.88109,0 18.41303,-33.88351,0 18.41669,-33.885,0 18.41921,-33.887,0 18.41669,-33.88919,0 18.41062,-33.88824,0 18.40372,-33.88669,0 18.39695,-33.88575,0 18.38982,-33.88577,0 18.38236,-33.88789,0 18.37693,-33.89163,0 18.37273,-33.89539,0 18.36875,-33.89969,0 18.36491,-33.90455,0 18.36152,-33.90921,0 18.35429,-33.9196,0 18.34911,-33.92862,0 18.34705,-33.93398,0 18.3474,-33.93802,0 18.35019,-33.93851,0 18.3522,-33.93644,0 18.35434,-33.93407,0 18.35647,-33.93155,0 18.35896,-33.92932,0 18.36227,-33.93053,0 18.36308,-33.93425,0 18.36073,-33.93909,0 18.35731,-33.94359,0 18.3539,-33.94812,0 18.34986,-33.95348,0 18.34242,-33.96451,0 18.33618,-33.97689,0 18.33158,-33.98836,0 18.32857,-33.99487,0 18.32615,-33.99962,0 18.32445,-34.00413,0 18.32295,-34.00882,0 18.32296,-34.01302,0 18.32685,-34.01609,0 18.33237,-34.01852,0 18.33624,-34.02182,0 18.33921,-34.02521,0 18.34229,-34.02896,0 18.34465,-34.03336,0 18.34633,-34.03812,0 18.3482,-34.04309,0 18.34991,-34.04798,0 18.35197,-34.05403,0 18.35496,-34.06219,0 18.35737,-34.06682,0 18.36004,-34.07107,0 18.36309,-34.07542,0 18.36582,-34.08006,0 18.36808,-34.08476,0 18.36931,-34.08989,0 18.36925,-34.09621,0 18.36909,-34.10193,0 18.36892,-34.10847,0 18.37004,-34.11337,0 18.37133,-34.11859,0 18.37057,-34.12409,0 18.36892,-34.12999,0 18.36685,-34.13513,0 18.36073,-34.13809,0 18.35345,-34.13608,0 18.35077,-34.12977,0 18.35249,-34.12414,0 18.35827,-34.12239,0 18.36157,-34.12656,0 18.36273,-34.13177,0 18.36342,-34.13654,0 18.36421,-34.14153,0 18.36617,-34.1537,0 18.36735,-34.15924,0 18.36897,-34.16446,0 18.37063,-34.16948,0 18.37576,-34.18652,0 18.37727,-34.19173,0 18.37906,-34.19682,0 18.38093,-34.20179,0 18.38327,-34.20686,0 18.38562,-34.21208,0 18.38774,-34.21687,0 18.3898,-34.22157,0 18.39764,-34.23777,0 18.40059,-34.24352,0 18.40322,-34.24805,0 18.40574,-34.25253,0 18.40834,-34.25733,0 18.41084,-34.26187,0 18.41544,-34.27025,0 18.41881,-34.27581,0 18.42245,-34.28242,0 18.42659,-34.28949,0 18.42968,-34.29396,0 18.43346,-34.29801,0 18.43792,-34.30193,0 18.44261,-34.30555,0 18.45257,-34.31319,0 18.46084,-34.31895,0 18.47598,-34.33026,0 18.49352,-34.34253,0 18.50224,-34.34913,0 18.5067,-34.35387,0 18.50876,-34.35904,0 18.50676,-34.36403,0 18.5,-34.36761,0 18.49218,-34.36784,0 18.48438,-34.36674,0 18.47648,-34.36588,0 18.46897,-34.36478,0 18.46146,-34.36139,0 18.454,-34.3597,0 18.45016,-34.36617,0 18.45793,-34.36949,0 18.4647,-34.36938,0 18.47155,-34.3689,0 18.47867,-34.36867,0 18.48541,-34.36868,0 18.49176,-34.36882,0 18.49851,-34.3688,0 18.50518,-34.36748,0 18.51112,-34.36386,0 18.51442,-34.35862,0 18.51814,-34.35416,0 18.52261,-34.35635,0 18.51841,-34.36061,0 18.51122,-34.35844,0 18.50704,-34.35262,0 18.50361,-34.34596,0 18.50063,-34.33968,0 18.49795,-34.33342,0 18.49554,-34.32678,0 18.4933,-34.3201,0 18.48724,-34.30014,0 18.48541,-34.29308,0 18.48312,-34.28661,0 18.48013,-34.2805,0 18.47631,-34.2751,0 18.47256,-34.27071,0 18.46767,-34.26636,0 18.46213,-34.26224,0 18.456,-34.25821,0 18.44999,-34.25444,0 18.44117,-34.24901,0 18.43369,-34.24387,0 18.42773,-34.23945,0 18.42166,-34.23468,0 18.41612,-34.23005,0 18.41074,-34.22478,0 18.40591,-34.21884,0 18.40187,-34.21305,0 18.39812,-34.20685,0 18.39478,-34.20025,0 18.39201,-34.19371,0 18.38963,-34.18745,0 18.38768,-34.18,0 18.38943,-34.17439,0 18.39323,-34.1746,0 18.3934,-34.17744,0 18.39226,-34.18024,0 18.39095,-34.183,0 18.38659,-34.18261,0 18.38533,-34.17688,0 18.38831,-34.17074,0 18.39243,-34.16464,0 18.39701,-34.15873,0 18.40204,-34.15361,0 18.40748,-34.14867,0 18.41286,-34.14423,0 18.41869,-34.13979,0 18.42435,-34.13557,0 18.43008,-34.1315,0 18.43562,-34.1277,0 18.44118,-34.12409,0 18.45245,-34.11641,0 18.45933,-34.112,0 18.46521,-34.10883,0 18.47211,-34.10797,0 18.4778,-34.10515,0 18.47945,-34.09927,0 18.47743,-34.09273,0 18.47318,-34.08705,0 18.46891,-34.08211,0 18.46426,-34.07657,0 18.45955,-34.07167,0 18.45496,-34.06728,0 18.44959,-34.06255,0 18.44134,-34.05519,0 18.42682,-34.04256,0 18.42121,-34.03821,0 18.41819,-34.03322,0 18.41921,-34.02708,0 18.42299,-34.02205,0 18.42751,-34.0173,0 18.43185,-34.01255,0 18.43556,-34.00768,0 18.43832,-34.00217,0 18.44117,-33.99637,0 18.44513,-33.98877,0 18.45182,-33.97403,0 18.45417,-33.96812,0 18.45835,-33.96298,0 18.46465,-33.96249,0 18.46853,-33.96642,0 18.47048,-33.97112,0 18.47231,-33.97634,0 18.47413,-33.98122,0 18.4762,-33.98579,0 18.47923,-33.99046,0 18.48287,-33.9949,0 18.48713,-33.9978,0 18.49313,-33.99893,0 18.49977,-33.99766,0 18.50573,-33.99547,0 18.51202,-33.99314,0 18.52783,-33.98758,0 18.53502,-33.98504,0 18.54612,-33.98137,0 18.55196,-33.97978,0 18.55837,-33.97811,0 18.56455,-33.97657,0 18.57177,-33.97449,0 18.57725,-33.97266,0 18.58281,-33.97128,0 18.58818,-33.9708,0 18.59247,-33.97159,0 18.59516,-33.97364,0 18.59666,-33.97554,0 18.59778,-33.97728,0 18.59834,-33.97847,0 18.59728,-33.97871,0 18.59514,-33.98053,0
        </coordinates>
      </LineString>
    </Placemark>
  </Document>
</kml>