<?xml version="1.0" encoding="UTF-8"?>
<kml xmlns="http://www.opengis.net/kml/2.2">
  <Document>
    <name>FR24 3f97defe - Optimised</name>
    <description><![CDATA[Optimised flight path with 229 points (decimated from 1142 original points). Source format: Standard KML]]></description>
    
    <Style id="flightPath">
      <LineStyle>
        <color>ffff0000</color>
        <width>3</width>
      </LineStyle>
    </Style>
    
    <Placemark>
      <name>Flight Path</name>
      <description><![CDATA[Optimized flight path]]></description>
      <styleUrl>#flightPath</styleUrl>
      <LineString>
        <extrude>1</extrude>
        <tessellate>1</tessellate>
        <altitudeMode>absolute</altitudeMode>
        <coordinates>
          18.34919,-34.17732,0 18.35186,-34.18531,0 18.35423,-34.19069,0 18.35883,-34.20085,0 18.36216,-34.21003,0 18.36342,-34.21538,0 18.36454,-34.22131,0 18.36548,-34.22688,0 18.36724,-34.24329,0 18.36785,-34.25034,0 18.36864,-34.25583,0 18.36981,-34.26105,0 18.37206,-34.26724,0 18.37469,-34.27249,0 18.37749,-34.27739,0 18.38029,-34.28197,0 18.38614,-34.29233,0 18.38994,-34.3006,0 18.39246,-34.30573,0 18.39586,-34.30998,0 18.40019,-34.31447,0 18.40423,-34.31845,0 18.41023,-34.3239,0 18.4202,-34.332,0 18.42542,-34.33566,0 18.43041,-34.33878,0 18.44246,-34.34656,0 18.44742,-34.34969,0 18.45177,-34.35332,0 18.45566,-34.35714,0 18.46092,-34.361,0 18.46676,-34.36361,0 18.47328,-34.36547,0 18.48007,-34.36665,0 18.48657,-34.36674,0 18.49319,-34.36592,0 18.49909,-34.36309,0 18.50189,-34.35774,0 18.49918,-34.35196,0 18.49436,-34.34665,0 18.49669,-34.3427,0 18.50075,-34.345,0 18.50258,-34.34917,0 18.50378,-34.35392,0 18.50131,-34.35841,0 18.49666,-34.36148,0 18.4915,-34.36327,0 18.48593,-34.36337,0 18.48029,-34.36208,0 18.47385,-34.3597,0 18.46779,-34.35704,0 18.46359,-34.35352,0 18.46029,-34.34973,0 18.45698,-34.3456,0 18.45395,-34.34102,0 18.45177,-34.33623,0 18.44994,-34.33111,0 18.44795,-34.32564,0 18.44364,-34.31174,0 18.43998,-34.29866,0 18.43405,-34.27831,0 18.43002,-34.26571,0 18.42743,-34.25926,0 18.42475,-34.25308,0 18.42239,-34.24709,0 18.42018,-34.24085,0 18.41772,-34.23433,0 18.41566,-34.228,0 18.41394,-34.22116,0 18.41241,-34.21486,0 18.41011,-34.20712,0 18.40759,-34.20099,0 18.40485,-34.19425,0 18.4029,-34.18731,0 18.40182,-34.1808,0 18.40126,-34.1748,0 18.4016,-34.16798,0 18.40267,-34.16208,0 18.40501,-34.15572,0 18.40849,-34.15013,0 18.41303,-34.14504,0 18.41835,-34.14099,0 18.42453,-34.13718,0 18.43091,-34.13347,0 18.43741,-34.13008,0 18.4441,-34.12698,0 18.45091,-34.12358,0 18.46281,-34.11725,0 18.46956,-34.11464,0 18.47648,-34.11269,0 18.48018,-34.1082,0 18.47923,-34.10235,0 18.47951,-34.09639,0 18.48009,-34.09044,0 18.42816,-33.89877,0 18.43085,-33.89685,0 18.43483,-33.89594,0 18.43924,-33.89762,0 18.44307,-33.90022,0 18.44711,-33.90335,0 18.45075,-33.90665,0 18.45428,-33.91047,0 18.4576,-33.91428,0 18.46109,-33.91852,0 18.46393,-33.92285,0 18.46601,-33.92751,0 18.46796,-33.93219,0 18.46951,-33.93691,0 18.47082,-33.9418,0 18.47225,-33.94654,0 18.47368,-33.95123,0 18.47511,-33.95613,0 18.47564,-33.96107,0 18.47557,-33.96628,0 18.47506,-33.97131,0 18.47446,-33.97678,0 18.47408,-33.98202,0 18.47357,-33.9874,0 18.47346,-33.99271,0 18.47329,-33.99825,0 18.47294,-34.00329,0 18.47205,-34.01331,0 18.47071,-34.02149,0 18.46931,-34.02667,0 18.46746,-34.03157,0 18.46579,-34.0369,0 18.46441,-34.04226,0 18.46314,-34.04773,0 18.46149,-34.05291,0 18.4591,-34.05771,0 18.45658,-34.06215,0 18.45371,-34.06679,0 18.45008,-34.07199,0 18.44604,-34.07703,0 18.44141,-34.0815,0 18.43632,-34.08587,0 18.4317,-34.09048,0 18.42738,-34.09534,0 18.42287,-34.10017,0 18.41723,-34.10637,0 18.41377,-34.11157,0 18.41045,-34.11681,0 18.40765,-34.12186,0 18.40513,-34.12743,0 18.40322,-34.13292,0 18.40143,-34.13855,0 18.39829,-34.14995,0 18.39632,-34.1591,0 18.39512,-34.16515,0 18.39369,-34.17074,0 18.3922,-34.17665,0 18.39128,-34.18245,0 18.3901,-34.18794,0 18.38951,-34.19364,0 18.39061,-34.19989,0 18.39274,-34.20566,0 18.39861,-34.21701,0 18.40176,-34.22159,0 18.40518,-34.22557,0 18.40919,-34.2294,0 18.41393,-34.23312,0 18.41858,-34.23651,0 18.42356,-34.2402,0 18.42867,-34.2437,0 18.43388,-34.24644,0 18.44015,-34.24839,0 18.44582,-34.2503,0 18.45154,-34.25267,0 18.45772,-34.25533,0 18.46337,-34.25848,0 18.46847,-34.26169,0 18.47334,-34.26347,0 18.47811,-34.26274,0 18.48057,-34.25871,0 18.48046,-34.25427,0 18.48043,-34.2502,0 18.48043,-34.24559,0 18.48041,-34.24127,0 18.48052,-34.23766,0 18.48074,-34.23491,0 18.47906,-34.23354,0 18.47746,-34.23326,0 18.4762,-34.23363,0 18.47519,-34.23495,0 18.477,-34.23717,0 18.48009,-34.23712,0 18.47979,-34.23358,0 18.47809,-34.22972,0 18.47683,-34.22562,0 18.47597,-34.22111,0 18.4753,-34.21614,0 18.47488,-34.21073,0 18.47477,-34.20496,0 18.47469,-34.19934,0 18.4746,-34.19406,0 18.47452,-34.18794,0 18.47463,-34.17902,0 18.47441,-34.17284,0 18.47397,-34.16613,0 18.47318,-34.15411,0 18.47334,-34.14784,0 18.47374,-34.14151,0 18.47414,-34.13531,0 18.47448,-34.12624,0 18.47511,-34.12,0 18.4758,-34.11348,0 18.47626,-34.10659,0 18.47682,-34.09973,0 18.47654,-34.09044,0 18.47614,-34.08444,0 18.47626,-34.07801,0 18.47648,-34.07213,0 18.4774,-34.06544,0 18.47815,-34.05892,0 18.4786,-34.05254,0 18.479,-34.04654,0 18.47979,-34.04013,0 18.48052,-34.03418,0 18.48108,-34.02493,0 18.48146,-34.01907,0 18.48169,-34.01311,0 18.48225,-34.00749,0 18.48301,-34.0011,0 18.4833,-33.99491,0 18.48326,-33.98845,0 18.48298,-33.98209,0 18.48289,-33.97559,0 18.48315,-33.96959,0 18.48301,-33.96349,0
        </coordinates>
      </LineString>
    </Placemark>
  </Document>
</kml>