<?xml version="1.0" encoding="UTF-8"?>
<kml xmlns="http://www.opengis.net/kml/2.2">
  <Document>
    <name>FR24 40d850a4 - Optimised</name>
    <description><![CDATA[Optimised flight path with 138 points (decimated from 688 original points). Source format: Standard KML]]></description>
    
    <Style id="flightPath">
      <LineStyle>
        <color>ffff0000</color>
        <width>3</width>
      </LineStyle>
    </Style>
    
    <Placemark>
      <name>Flight Path</name>
      <description><![CDATA[Optimized flight path]]></description>
      <styleUrl>#flightPath</styleUrl>
      <LineString>
        <extrude>1</extrude>
        <tessellate>1</tessellate>
        <altitudeMode>absolute</altitudeMode>
        <coordinates>
          18.45189,-33.90508,0 18.48472,-33.95041,0 18.48548,-33.95675,0 18.48612,-33.96125,0 18.48559,-33.96647,0 18.48679,-33.97138,0 18.48498,-33.97772,0 18.48502,-33.98216,0 18.48554,-33.98696,0 18.48549,-33.99198,0 18.48473,-33.99685,0 18.48399,-34.00154,0 18.48425,-34.00706,0 18.48459,-34.01226,0 18.4845,-34.01756,0 18.48468,-34.02258,0 18.48446,-34.02824,0 18.48459,-34.03394,0 18.48425,-34.03895,0 18.4837,-34.04404,0 18.48378,-34.04928,0 18.48365,-34.05417,0 18.48265,-34.05947,0 18.48236,-34.06515,0 18.48214,-34.07056,0 18.48176,-34.07615,0 18.48091,-34.08188,0 18.48193,-34.08712,0 18.48101,-34.0929,0 18.47955,-34.09876,0 18.47783,-34.10392,0 18.47423,-34.10987,0 18.47071,-34.11587,0 18.4668,-34.12112,0 18.46339,-34.12616,0 18.46041,-34.13128,0 18.45729,-34.13651,0 18.45439,-34.14164,0 18.45153,-34.14676,0 18.4498,-34.15272,0 18.45014,-34.15763,0 18.4516,-34.16283,0 18.45396,-34.16849,0 18.45566,-34.17412,0 18.45784,-34.17898,0 18.46078,-34.18359,0 18.46379,-34.18836,0 18.46638,-34.19323,0 18.47019,-34.19875,0 18.47193,-34.20414,0 18.47451,-34.2095,0 18.47645,-34.21542,0 18.47839,-34.22071,0 18.48058,-34.22576,0 18.48333,-34.23038,0 18.4838,-34.23588,0 18.48438,-34.24134,0 18.48427,-34.24789,0 18.49042,-34.24983,0 18.49171,-34.24249,0 18.48939,-34.23773,0 18.48574,-34.23264,0 18.48314,-34.22605,0 18.47987,-34.22235,0 18.47691,-34.22339,0 18.47628,-34.22812,0 18.47618,-34.23054,0 18.47577,-34.23272,0 18.47401,-34.23531,0 18.47396,-34.236,0 18.47344,-34.23653,0 18.47421,-34.23627,0 18.47391,-34.23603,0 18.47401,-34.23593,0 18.47354,-34.23659,0 18.47434,-34.23597,0 18.47344,-34.23679,0 18.47329,-34.23687,0 18.4748,-34.23615,0 18.47673,-34.23708,0 18.47603,-34.24173,0 18.47574,-34.23866,0 18.47333,-34.2347,0 18.47583,-34.22818,0 18.47428,-34.22355,0 18.47174,-34.21801,0 18.46911,-34.21286,0 18.46699,-34.20598,0 18.46423,-34.20036,0 18.46232,-34.1941,0 18.4602,-34.18845,0 18.45906,-34.18054,0 18.4583,-34.17461,0 18.459,-34.16737,0 18.46058,-34.1599,0 18.46176,-34.15454,0 18.46331,-34.14774,0 18.46528,-34.14112,0 18.46743,-34.13423,0 18.46992,-34.12638,0 18.47295,-34.11603,0 18.47406,-34.11044,0 18.47447,-34.10374,0 18.4717,-34.09841,0 18.46801,-34.09304,0 18.46444,-34.08789,0 18.46069,-34.08331,0 18.45596,-34.07896,0 18.45012,-34.07552,0 18.44308,-34.07272,0 18.43632,-34.06843,0 18.43109,-34.06424,0 18.42552,-34.0604,0 18.41974,-34.05698,0 18.41426,-34.05346,0 18.40936,-34.05043,0 18.40514,-34.04652,0 18.40244,-34.0429,0 18.40283,-34.03907,0 18.40381,-34.037,0 18.40681,-34.0364,0 18.40728,-34.03832,0 18.40784,-34.04037,0 18.41101,-34.03994,0 18.40481,-34.04057,0 18.40419,-34.03464,0 18.47928,-33.99193,0 18.48119,-33.98531,0 18.48202,-33.9781,0 18.48349,-33.96976,0 18.48454,-33.96293,0 18.4836,-33.95568,0 18.48155,-33.94932,0 18.47971,-33.94154,0 18.47747,-33.93534,0 18.47464,-33.92828,0 18.47502,-33.92279,0 18.44205,-33.90536,0
        </coordinates>
      </LineString>
    </Placemark>
  </Document>
</kml>