<?xml version="1.0" encoding="UTF-8"?>
<kml xmlns="http://www.opengis.net/kml/2.2">
  <Document>
    <name>FR24 40e7d9cc - Optimised</name>
    <description><![CDATA[Optimised flight path with 313 points (decimated from 1563 original points). Source format: Standard KML]]></description>
    
    <Style id="flightPath">
      <LineStyle>
        <color>ffff0000</color>
        <width>3</width>
      </LineStyle>
    </Style>
    
    <Placemark>
      <name>Flight Path</name>
      <description><![CDATA[Optimized flight path]]></description>
      <styleUrl>#flightPath</styleUrl>
      <LineString>
        <extrude>1</extrude>
        <tessellate>1</tessellate>
        <altitudeMode>absolute</altitudeMode>
        <coordinates>
          18.38282,-34.19569,0 18.38803,-34.19939,0 18.39061,-34.20346,0 18.39218,-34.2079,0 18.39243,-34.21282,0 18.39201,-34.21857,0 18.39139,-34.22429,0 18.39016,-34.23079,0 18.38921,-34.23647,0 18.38982,-34.24278,0 18.39151,-34.24844,0 18.39409,-34.25439,0 18.39711,-34.25999,0 18.40061,-34.26612,0 18.40434,-34.27185,0 18.40922,-34.27798,0 18.41389,-34.28344,0 18.42379,-34.29382,0 18.42996,-34.29877,0 18.43691,-34.30371,0 18.44427,-34.30886,0 18.46269,-34.32111,0 18.46893,-34.32566,0 18.47414,-34.32981,0 18.48259,-34.33667,0 18.48848,-34.3412,0 18.49391,-34.34505,0 18.49941,-34.34875,0 18.50372,-34.35327,0 18.5055,-34.35904,0 18.50479,-34.36464,0 18.50182,-34.3705,0 18.49806,-34.37567,0 18.49195,-34.37892,0 18.48382,-34.37727,0 18.48018,-34.37215,0 18.48204,-34.36691,0 18.48719,-34.36449,0 18.49291,-34.36346,0 18.49868,-34.36235,0 18.50235,-34.35904,0 18.50161,-34.35378,0 18.49795,-34.3494,0 18.49251,-34.34596,0 18.49148,-34.34093,0 18.49655,-34.33882,0 18.5012,-34.34248,0 18.50218,-34.34885,0 18.50271,-34.35471,0 18.5008,-34.36044,0 18.49515,-34.36469,0 18.48831,-34.36707,0 18.48108,-34.36665,0 18.47511,-34.36295,0 18.47328,-34.35774,0 18.47597,-34.35262,0 18.47867,-34.3477,0 18.47805,-34.34175,0 18.47597,-34.33591,0 18.47408,-34.33009,0 18.47278,-34.32404,0 18.47205,-34.3179,0 18.47191,-34.31189,0 18.47202,-34.30644,0 18.47217,-34.30037,0 18.47289,-34.28769,0 18.4742,-34.28246,0 18.47519,-34.27652,0 18.47558,-34.26979,0 18.47471,-34.26347,0 18.47322,-34.25695,0 18.47225,-34.25076,0 18.47217,-34.24484,0 18.47189,-34.2388,0 18.47132,-34.2328,0 18.47065,-34.22672,0 18.47334,-34.22223,0 18.47839,-34.22031,0 18.48231,-34.22177,0 18.48321,-34.22566,0 18.48141,-34.22823,0 18.48001,-34.22951,0 18.47855,-34.23126,0 18.47712,-34.23289,0 18.47574,-34.23452,0 18.47536,-34.2356,0 18.47721,-34.23619,0 18.47889,-34.23596,0 18.48097,-34.23477,0 18.48209,-34.23265,0 18.48146,-34.22968,0 18.47928,-34.22562,0 18.47643,-34.2212,0 18.47334,-34.21673,0 18.47019,-34.21259,0 18.466,-34.20685,0 18.4623,-34.20154,0 18.45866,-34.19582,0 18.4556,-34.19048,0 18.45255,-34.1846,0 18.44999,-34.17856,0 18.44862,-34.17224,0 18.44801,-34.16675,0 18.44795,-34.16016,0 18.44851,-34.15379,0 18.44941,-34.14748,0 18.45091,-34.14146,0 18.45297,-34.13601,0 18.45594,-34.12987,0 18.45905,-34.12418,0 18.46201,-34.11869,0 18.46505,-34.11301,0 18.46701,-34.10696,0 18.46796,-34.10078,0 18.46875,-34.09401,0 18.46959,-34.08746,0 18.47088,-34.07451,0 18.47239,-34.05629,0 18.47379,-34.0437,0 18.4754,-34.02457,0 18.47665,-34.00342,0 18.47843,-33.99086,0 18.47996,-33.98447,0 18.48124,-33.97806,0 18.48335,-33.96619,0 18.48366,-33.9597,0 18.48301,-33.95334,0 18.48204,-33.94715,0 18.48057,-33.94093,0 18.47769,-33.93481,0 18.47408,-33.92927,0 18.46979,-33.92359,0 18.46521,-33.91833,0 18.46073,-33.91342,0 18.45642,-33.90866,0 18.45193,-33.90436,0 18.44753,-33.90102,0 18.44284,-33.89887,0 18.43949,-33.89818,0 18.43736,-33.89818,0 18.43506,-33.8985,0 18.43304,-33.89891,0 18.43105,-33.89943,0 18.42962,-33.89971,0 18.42791,-33.8999,0 18.42699,-33.90079,0 18.42722,-33.90022,0 18.42825,-33.89859,0 18.42945,-33.8969,0 18.43074,-33.89502,0 18.43338,-33.89085,0 18.43495,-33.88806,0 18.4359,-33.88559,0 18.43569,-33.88188,0 18.4326,-33.87727,0 18.42794,-33.87442,0 18.42224,-33.87341,0 18.41618,-33.87346,0 18.41039,-33.87419,0 18.40445,-33.87566,0 18.39868,-33.8779,0 18.39272,-33.88072,0 18.38717,-33.88393,0 18.3817,-33.88792,0 18.37692,-33.89217,0 18.37234,-33.89682,0 18.36817,-33.90171,0 18.36404,-33.90715,0 18.36067,-33.91233,0 18.3572,-33.91837,0 18.35417,-33.92445,0 18.35132,-33.93077,0 18.34911,-33.93644,0 18.34688,-33.94277,0 18.34492,-33.9489,0 18.34039,-33.96478,0 18.3371,-33.97899,0 18.3322,-34.00095,0 18.33172,-34.00748,0 18.33286,-34.01395,0 18.33512,-34.02008,0 18.33736,-34.02562,0 18.33966,-34.03143,0 18.3423,-34.03923,0 18.34328,-34.04533,0 18.34339,-34.05203,0 18.34311,-34.05832,0 18.33858,-34.064,0 18.33052,-34.06512,0 18.32318,-34.06215,0 18.3174,-34.05775,0 18.3127,-34.05244,0 18.30906,-34.04561,0 18.311,-34.03183,0 18.31438,-34.02654,0 18.31808,-34.02127,0 18.32335,-34.01358,0 18.33618,-33.99361,0 18.34593,-33.97339,0 18.35278,-33.95506,0 18.35591,-33.94601,0 18.36119,-33.9337,0 18.36491,-33.92662,0 18.36819,-33.92139,0 18.37166,-33.91642,0 18.37553,-33.91145,0 18.37934,-33.90701,0 18.38379,-33.90199,0 18.38802,-33.8979,0 18.39291,-33.89374,0 18.39874,-33.88948,0 18.40433,-33.88682,0 18.41137,-33.88505,0 18.41835,-33.88403,0 18.42503,-33.88353,0 18.43125,-33.88408,0 18.43723,-33.88602,0 18.4425,-33.8898,0 18.44661,-33.89429,0 18.44941,-33.89877,0 18.44908,-33.9033,0 18.44554,-33.905,0 18.44302,-33.90395,0 18.44083,-33.90234,0 18.43889,-33.90092,0 18.43685,-33.89983,0 18.435,-33.89934,0 18.43243,-33.89925,0 18.43037,-33.89948,0 18.42882,-33.89967,0 18.42738,-33.90001,0 18.4271,-33.90111,0 18.42643,-33.89809,0 18.42796,-33.89636,0 18.42922,-33.89496,0 18.431,-33.8932,0 18.43293,-33.89168,0 18.43539,-33.88985,0 18.43769,-33.88533,0 18.43597,-33.881,0 18.4306,-33.879,0 18.4247,-33.87848,0 18.41784,-33.87811,0 18.4118,-33.87776,0 18.40468,-33.87804,0 18.39834,-33.879,0 18.39156,-33.88087,0 18.38461,-33.88412,0 18.37841,-33.88794,0 18.37257,-33.89198,0 18.36674,-33.89669,0 18.3614,-33.90157,0 18.35649,-33.90693,0 18.35215,-33.91247,0 18.34848,-33.91796,0 18.34509,-33.92363,0 18.34213,-33.92895,0 18.33943,-33.93448,0 18.3367,-33.94021,0 18.33254,-33.94954,0 18.32525,-33.96777,0 18.31718,-33.98635,0 18.30734,-34.00767,0 18.30109,-34.01683,0 18.29504,-34.02113,0 18.28852,-34.0248,0 18.28354,-34.02861,0 18.28136,-34.03331,0 18.28348,-34.03727,0 18.2876,-34.03858,0 18.29224,-34.03748,0 18.29616,-34.03455,0 18.30064,-34.03171,0 18.30614,-34.02869,0 18.30969,-34.02396,0 18.31249,-34.01875,0 18.31539,-34.01294,0 18.31824,-34.00763,0 18.32166,-34.00182,0 18.3248,-33.99683,0 18.32906,-33.98982,0 18.34545,-33.96321,0 18.3507,-33.95256,0 18.35322,-33.94666,0 18.35591,-33.94093,0 18.35844,-33.93528,0 18.3609,-33.9299,0 18.36348,-33.9249,0 18.36662,-33.91954,0 18.37049,-33.9147,0 18.37475,-33.90985,0 18.37889,-33.90532,0 18.3836,-33.90102,0 18.38854,-33.89724,0 18.39403,-33.89413,0 18.40073,-33.89157,0 18.40805,-33.88961,0 18.41522,-33.88792,0 18.42527,-33.88584,0 18.43186,-33.8849,0 18.43792,-33.88477,0 18.4433,-33.88635,0 18.44722,-33.88962,0 18.4489,-33.89342,0 18.44742,-33.89576,0 18.44347,-33.89612,0 18.44061,-33.89676,0 18.43865,-33.89735,0 18.4364,-33.89813,0 18.43427,-33.89882,0 18.43209,-33.89932,0 18.43077,-33.89957,0 18.42876,-33.89971,0
        </coordinates>
      </LineString>
    </Placemark>
  </Document>
</kml>