<?xml version="1.0" encoding="UTF-8"?>
<kml xmlns="http://www.opengis.net/kml/2.2">
  <Document>
    <name>FR24 3e8bd959 - Optimised</name>
    <description><![CDATA[Optimised flight path with 74 points (decimated from 368 original points). Source format: Standard KML]]></description>
    
    <Style id="flightPath">
      <LineStyle>
        <color>ffff0000</color>
        <width>3</width>
      </LineStyle>
    </Style>
    
    <Placemark>
      <name>Flight Path</name>
      <description><![CDATA[Optimized flight path]]></description>
      <styleUrl>#flightPath</styleUrl>
      <LineString>
        <extrude>1</extrude>
        <tessellate>1</tessellate>
        <altitudeMode>absolute</altitudeMode>
        <coordinates>
          18.42699,-33.89923,0 18.43114,-33.8941,0 18.43431,-33.8898,0 18.43696,-33.88554,0 18.43825,-33.88046,0 18.43831,-33.87529,0 18.43646,-33.87035,0 18.4327,-33.86847,0 18.42867,-33.86838,0 18.42693,-33.87085,0 18.43248,-33.87429,0 18.43849,-33.87797,0 18.4441,-33.88207,0 18.44948,-33.8864,0 18.45473,-33.89136,0 18.45961,-33.89715,0 18.46381,-33.90239,0 18.46807,-33.90776,0 18.47194,-33.91296,0 18.47534,-33.9181,0 18.47844,-33.92358,0 18.48095,-33.92918,0 18.48253,-33.93475,0 18.4837,-33.94026,0 18.48461,-33.94547,0 18.48536,-33.95087,0 18.48579,-33.9559,0 18.48612,-33.9614,0 18.48545,-33.9668,0 18.48404,-33.9721,0 18.48304,-33.97728,0 18.48221,-33.98253,0 18.48153,-33.98827,0 18.48129,-33.99356,0 18.48136,-33.99875,0 18.48158,-34.0042,0 18.48278,-34.02037,0 18.48377,-34.03587,0 18.48387,-34.0437,0 18.48461,-34.06181,0 18.48478,-34.0795,0 18.48473,-34.0916,0 18.48405,-34.09827,0 18.42856,-33.89795,0 18.43489,-33.88905,0 18.43719,-33.88426,0 18.43683,-33.88044,0 18.43403,-33.87835,0 18.43091,-33.87776,0 18.42819,-33.87872,0 18.43057,-33.88184,0 18.43618,-33.88412,0 18.44318,-33.88779,0 18.44988,-33.89217,0 18.45602,-33.89676,0 18.46174,-33.90157,0 18.46722,-33.90665,0 18.47228,-33.91177,0 18.4758,-33.91712,0 18.47826,-33.92285,0 18.48029,-33.92867,0 18.48181,-33.93402,0 18.48298,-33.94029,0 18.48375,-33.94589,0 18.48416,-33.9516,0 18.48422,-33.95705,0 18.48427,-33.96231,0 18.48433,-33.96748,0 18.48433,-33.97256,0 18.48387,-33.98225,0 18.4831,-33.98753,0 18.48225,-33.99294,0 18.48175,-33.9985,0 18.48153,-34.00369,0
        </coordinates>
      </LineString>
    </Placemark>
  </Document>
</kml>