<?xml version="1.0" encoding="UTF-8"?>
<kml xmlns="http://www.opengis.net/kml/2.2">
  <Document>
    <name>FR24 405f3135 - Optimised</name>
    <description><![CDATA[Optimised flight path with 92 points (decimated from 456 original points). Source format: Standard KML]]></description>
    
    <Style id="flightPath">
      <LineStyle>
        <color>ffff0000</color>
        <width>3</width>
      </LineStyle>
    </Style>
    
    <Placemark>
      <name>Flight Path</name>
      <description><![CDATA[Optimized flight path]]></description>
      <styleUrl>#flightPath</styleUrl>
      <LineString>
        <extrude>1</extrude>
        <tessellate>1</tessellate>
        <altitudeMode>absolute</altitudeMode>
        <coordinates>
          18.36039,-33.94114,0 18.35025,-33.95851,0 18.3375,-33.98095,0 18.33366,-33.99207,0 18.33241,-34.0005,0 18.33299,-34.00529,0 18.33395,-34.01041,0 18.33441,-34.0154,0 18.33585,-34.02049,0 18.33807,-34.02582,0 18.34013,-34.03094,0 18.34156,-34.03642,0 18.3419,-34.04205,0 18.34196,-34.04765,0 18.34207,-34.05345,0 18.34196,-34.0592,0 18.34156,-34.06507,0 18.34105,-34.07074,0 18.34082,-34.07735,0 18.3405,-34.08316,0 18.33938,-34.09401,0 18.33847,-34.09951,0 18.33769,-34.1055,0 18.33674,-34.11086,0 18.33538,-34.11623,0 18.33142,-34.12161,0 18.32628,-34.12572,0 18.32071,-34.12953,0 18.31644,-34.13438,0 18.31449,-34.1396,0 18.31455,-34.1449,0 18.3161,-34.15021,0 18.31839,-34.15552,0 18.32062,-34.15985,0 18.32351,-34.16478,0 18.32693,-34.16895,0 18.33041,-34.17316,0 18.33481,-34.17847,0 18.3391,-34.18282,0 18.34324,-34.18694,0 18.3466,-34.19118,0 18.34951,-34.19616,0 18.35143,-34.20094,0 18.35335,-34.20635,0 18.35501,-34.21119,0 18.36051,-34.22795,0 18.36623,-34.24365,0 18.4753,-34.23454,0 18.47494,-34.23279,0 18.47414,-34.23074,0 18.47305,-34.22898,0 18.46662,-34.12522,0 18.46762,-34.11138,0 18.46797,-34.10546,0 18.4668,-34.10111,0 18.46718,-34.09575,0 18.46594,-34.08946,0 18.46574,-34.07841,0 18.46363,-34.07413,0 18.46306,-34.06926,0 18.46304,-34.06439,0 18.46262,-34.05948,0 18.46284,-34.05429,0 18.46339,-34.04921,0 18.46364,-34.04412,0 18.46329,-34.03896,0 18.46343,-34.03369,0 18.46395,-34.02861,0 18.46359,-34.01687,0 18.46377,-34.01222,0 18.46274,-34.00777,0 18.4634,-34.00258,0 18.46635,-33.99834,0 18.47065,-33.99517,0 18.47468,-33.99387,0 18.48081,-33.99437,0 18.48361,-33.99018,0 18.48397,-33.98487,0 18.48364,-33.97975,0 18.48261,-33.9743,0 18.48106,-33.96768,0 18.4794,-33.96312,0 18.47699,-33.95833,0 18.47575,-33.95334,0 18.47488,-33.94803,0 18.47351,-33.94291,0 18.46928,-33.93709,0 18.46522,-33.93233,0 18.46269,-33.92844,0 18.45921,-33.92466,0 18.45681,-33.92253,0 18.45468,-33.9207,0
        </coordinates>
      </LineString>
    </Placemark>
  </Document>
</kml>