<?xml version="1.0" encoding="UTF-8"?>
<kml xmlns="http://www.opengis.net/kml/2.2">
  <Document>
    <name>FR24 3e9ac744 - Optimised</name>
    <description><![CDATA[Optimised flight path with 55 points (decimated from 274 original points). Source format: Standard KML]]></description>
    
    <Style id="flightPath">
      <LineStyle>
        <color>ffff0000</color>
        <width>3</width>
      </LineStyle>
    </Style>
    
    <Placemark>
      <name>Flight Path</name>
      <description><![CDATA[Optimized flight path]]></description>
      <styleUrl>#flightPath</styleUrl>
      <LineString>
        <extrude>1</extrude>
        <tessellate>1</tessellate>
        <altitudeMode>absolute</altitudeMode>
        <coordinates>
          18.42749,-33.90074,0 18.42876,-33.89501,0 18.43031,-33.89138,0 18.43192,-33.88756,0 18.43125,-33.88358,0 18.4271,-33.88,0 18.42177,-33.87836,0 18.416,-33.8783,0 18.41006,-33.87968,0 18.40427,-33.88174,0 18.39878,-33.88421,0 18.39341,-33.88728,0 18.42772,-33.89914,0 18.42934,-33.89598,0 18.43077,-33.89273,0 18.43203,-33.88914,0 18.43242,-33.88545,0 18.43088,-33.88151,0 18.42794,-33.87785,0 18.42402,-33.87502,0 18.41908,-33.87337,0 18.41314,-33.87369,0 18.40771,-33.87575,0 18.4021,-33.87886,0 18.39683,-33.88239,0 18.39179,-33.88623,0 18.428,-33.89891,0 18.42951,-33.89552,0 18.431,-33.89203,0 18.43225,-33.8884,0 18.43192,-33.88477,0 18.42884,-33.88142,0 18.42453,-33.87862,0 18.41984,-33.8769,0 18.41377,-33.87672,0 18.40827,-33.87785,0 18.40272,-33.87991,0 18.39705,-33.88257,0 18.39186,-33.8856,0 18.38688,-33.8891,0 18.38184,-33.89347,0 18.37749,-33.89813,0 18.37349,-33.90311,0 18.36976,-33.9077,0 18.36611,-33.9126,0 18.36256,-33.91852,0 18.35953,-33.92448,0 18.35658,-33.93036,0 18.35373,-33.93663,0 18.35117,-33.94258,0 18.34127,-33.96363,0 18.33796,-33.98262,0 18.34648,-33.97475,0 18.35175,-33.96558,0 18.35541,-33.95892,0
        </coordinates>
      </LineString>
    </Placemark>
  </Document>
</kml>