<?xml version="1.0" encoding="UTF-8"?>
<kml xmlns="http://www.opengis.net/kml/2.2">
  <Document>
    <name>FR24 ZSHGD 3de67b03 - Optimised</name>
    <description><![CDATA[Optimised flight path with 510 points (decimated from 2547 original points). Source format: Standard KML]]></description>
    
    <Style id="flightPath">
      <LineStyle>
        <color>ffff0000</color>
        <width>3</width>
      </LineStyle>
    </Style>
    
    <Placemark>
      <name>Flight Path</name>
      <description><![CDATA[Source: ADS-B
Start (SAST): 2026-01-14 12:40:25
End (SAST): 2026-01-14 16:12:44
Points: 2547]]></description>
      <styleUrl>#flightPath</styleUrl>
      <LineString>
        <extrude>1</extrude>
        <tessellate>1</tessellate>
        <altitudeMode>absolute</altitudeMode>
        <coordinates>
          18.42751,-33.89952,45.72 18.43157,-33.89441,129.54000000000002 18.43472,-33.89099,182.88 18.43735,-33.88724,236.22 18.4382,-33.88344,281.94 18.43678,-33.88039,342.90000000000003 18.43456,-33.87827,388.62 18.43192,-33.8768,434.34000000000003 18.42888,-33.87597,487.68 18.42585,-33.87546,533.4 18.42273,-33.87511,563.88 18.41903,-33.87502,594.36 18.41497,-33.87513,617.22 18.41057,-33.87546,640.08 18.40597,-33.87616,647.7 18.40124,-33.87741,662.94 18.39661,-33.87914,670.5600000000001 18.39197,-33.88169,685.8000000000001 18.38786,-33.8849,701.0400000000001 18.38394,-33.88838,716.2800000000001 18.38035,-33.89177,731.52 18.37446,-33.89771,739.14 18.36544,-33.90779,754.38 18.36084,-33.91377,754.38 18.35793,-33.91856,746.76 18.35569,-33.92322,754.38 18.35401,-33.92894,754.38 18.35283,-33.93444,746.76 18.35226,-33.94068,723.9000000000001 18.35283,-33.94661,723.9000000000001 18.35429,-33.95311,723.9000000000001 18.35597,-33.95897,731.52 18.35432,-33.96689,731.52 18.34167,-33.98113,754.38 18.33544,-33.99012,777.24 18.33074,-33.99815,792.48 18.32856,-34.00328,800.1 18.32674,-34.00846,815.34 18.326,-34.01414,830.58 18.32733,-34.01935,845.82 18.33147,-34.02397,861.0600000000001 18.3373,-34.02773,868.6800000000001 18.34311,-34.03178,861.0600000000001 18.3475,-34.03711,845.82 18.34963,-34.04333,838.2 18.34848,-34.049,822.96 18.34739,-34.05519,807.72 18.34649,-34.06082,822.96 18.34345,-34.07684,822.96 18.34225,-34.08308,822.96 18.34139,-34.08946,830.58 18.34139,-34.09542,838.2 18.34299,-34.10161,845.82 18.34711,-34.10724,861.0600000000001 18.35305,-34.11063,868.6800000000001 18.36044,-34.11339,838.2 18.36754,-34.11599,815.34 18.37481,-34.11883,792.48 18.38237,-34.12152,777.24 18.40389,-34.12889,723.9000000000001 18.43157,-34.13797,662.94 18.4409,-34.13946,647.7 18.44874,-34.13896,647.7 18.45589,-34.13722,655.32 18.46189,-34.13433,640.08 18.4674,-34.13049,632.46 18.47194,-34.12619,632.46 18.47547,-34.12148,640.08 18.47721,-34.11671,662.94 18.47878,-34.11176,670.5600000000001 18.47958,-34.10678,685.8000000000001 18.47895,-34.1017,693.4200000000001 18.47771,-34.09676,678.1800000000001 18.47603,-34.09172,678.1800000000001 18.47362,-34.08669,655.32 18.47128,-34.0821,632.46 18.46875,-34.07712,617.22 18.46664,-34.07261,601.98 18.46504,-34.068,586.74 18.4643,-34.06311,579.12 18.4643,-34.05799,571.5 18.46441,-34.05301,571.5 18.4647,-34.04807,563.88 18.4655,-34.03723,556.26 18.466,-34.03098,563.88 18.46645,-34.02644,563.88 18.46718,-34.02122,563.88 18.46796,-34.0161,556.26 18.46886,-34.01161,563.88 18.47002,-34.00692,586.74 18.47122,-34.00208,601.98 18.47237,-33.99733,609.6 18.47328,-33.99231,601.98 18.47328,-33.98751,594.36 18.47305,-33.9823,609.6 18.47322,-33.97704,609.6 18.47294,-33.97163,609.6 18.47254,-33.9667,609.6 18.47168,-33.96228,609.6 18.47059,-33.95781,609.6 18.46922,-33.95362,601.98 18.46796,-33.94972,586.74 18.46594,-33.94583,571.5 18.46275,-33.94221,556.26 18.45903,-33.93914,548.64 18.45513,-33.93626,533.4 18.45085,-33.93314,533.4 18.44713,-33.93039,518.1600000000001 18.44347,-33.9272,487.68 18.44255,-33.92299,464.82000000000005 18.44279,-33.91809,434.34000000000003 18.44318,-33.91321,396.24 18.44403,-33.90829,342.90000000000003 18.4447,-33.90395,297.18 18.44375,-33.90001,251.46 18.44078,-33.89859,198.12 18.43746,-33.89911,152.4 18.43426,-33.8999,99.06 18.43122,-33.90069,68.58 18.42861,-33.90143,45.72 18.42728,-33.90139,30.48 18.4276,-33.89928,45.72 18.43013,-33.89594,99.06 18.43248,-33.89273,152.4 18.43663,-33.89095,213.36 18.44094,-33.89365,251.46 18.44479,-33.89711,281.94 18.44879,-33.90083,312.42 18.45815,-33.90907,350.52000000000004 18.46359,-33.91324,358.14000000000004 18.46908,-33.91713,358.14000000000004 18.4746,-33.92057,358.14000000000004 18.48015,-33.92392,342.90000000000003 18.48873,-33.92876,320.04 18.49453,-33.93256,320.04 18.50012,-33.93639,320.04 18.50765,-33.94148,342.90000000000003 18.51471,-33.94468,335.28000000000003 18.51706,-33.94226,342.90000000000003 18.51465,-33.9431,342.90000000000003 18.51723,-33.94711,342.90000000000003 18.52278,-33.94934,358.14000000000004 18.52907,-33.95152,350.52000000000004 18.53565,-33.95371,373.38 18.55075,-33.95837,335.28000000000003 18.56272,-33.96209,312.42 18.57244,-33.9667,289.56 18.57547,-33.97165,281.94 18.57771,-33.97657,289.56 18.5822,-33.98053,289.56 18.58864,-33.98401,274.32 18.59505,-33.98681,274.32 18.60165,-33.98946,266.7 18.60821,-33.99202,266.7 18.61499,-33.99435,266.7 18.62183,-33.99678,274.32 18.62795,-33.99929,289.56 18.63441,-34.00171,297.18 18.64094,-34.00431,297.18 18.64689,-34.00706,297.18 18.6531,-34.00987,289.56 18.66516,-34.01546,281.94 18.68085,-34.02264,281.94 18.68763,-34.02502,281.94 18.69453,-34.02722,281.94 18.70171,-34.02908,281.94 18.70863,-34.03117,281.94 18.71566,-34.03349,274.32 18.72242,-34.03574,266.7 18.72957,-34.03788,259.08000000000004 18.73672,-34.03974,251.46 18.74363,-34.04132,266.7 18.75064,-34.04269,289.56 18.75809,-34.04402,312.42 18.76498,-34.04521,320.04 18.77289,-34.047,312.42 18.7795,-34.04883,320.04 18.78657,-34.05116,320.04 18.79368,-34.05318,320.04 18.80125,-34.05441,312.42 18.80894,-34.05566,327.66 18.8154,-34.05692,381 18.82221,-34.05855,403.86 18.82845,-34.06046,434.34000000000003 18.83443,-34.06265,457.20000000000005 18.84012,-34.06502,472.44 18.84604,-34.06796,480.06 18.85209,-34.07149,487.68 18.85809,-34.07469,502.92 18.86403,-34.07771,502.92 18.8758,-34.08311,525.78 18.88258,-34.08591,541.02 18.88931,-34.08856,556.26 18.90551,-34.0946,563.88 18.91235,-34.09666,579.12 18.9193,-34.09891,601.98 18.92624,-34.10165,617.22 18.93259,-34.10329,640.08 18.9378,-34.1011,655.32 18.94346,-34.10115,678.1800000000001 18.94741,-34.10482,685.8000000000001 18.94609,-34.10921,678.1800000000001 18.94169,-34.11153,670.5600000000001 18.93625,-34.11073,662.94 18.93202,-34.10775,670.5600000000001 18.92979,-34.10333,678.1800000000001 18.9311,-34.09909,670.5600000000001 18.93385,-34.09523,632.46 18.9374,-34.09268,601.98 18.9402,-34.09424,571.5 18.94083,-34.09709,518.1600000000001 18.94121,-34.09964,480.06 18.94222,-34.1017,434.34000000000003 18.94203,-34.10315,396.24 18.94083,-34.1038,365.76 18.93869,-34.10156,365.76 18.93751,-34.09909,403.86 18.93617,-34.09657,441.96000000000004 18.9332,-34.09511,472.44 18.9295,-34.09428,502.92 18.92569,-34.0936,518.1600000000001 18.92171,-34.09309,525.78 18.91743,-34.09267,541.02 18.91228,-34.0923,556.26 18.90725,-34.09167,556.26 18.90289,-34.09072,571.5 18.8982,-34.08946,594.36 18.89374,-34.08847,609.6 18.88869,-34.08774,632.46 18.88372,-34.08681,624.84 18.878,-34.08541,617.22 18.87262,-34.08387,594.36 18.86784,-34.08224,571.5 18.85618,-34.07826,510.54 18.84968,-34.07573,480.06 18.8443,-34.07349,449.58000000000004 18.8397,-34.07162,434.34000000000003 18.83492,-34.06972,419.1 18.83017,-34.06815,388.62 18.82507,-34.06623,373.38 18.82072,-34.06432,358.14000000000004 18.81639,-34.06247,350.52000000000004 18.8119,-34.06041,335.28000000000003 18.80762,-34.05785,335.28000000000003 18.80299,-34.05524,342.90000000000003 18.79862,-34.05304,365.76 18.7944,-34.0511,373.38 18.78993,-34.05002,388.62 18.78477,-34.04997,388.62 18.77981,-34.04956,381 18.77495,-34.04868,373.38 18.76986,-34.04764,373.38 18.76482,-34.0464,373.38 18.76,-34.04517,381 18.75501,-34.04407,388.62 18.75029,-34.04295,381 18.74492,-34.04173,373.38 18.74015,-34.04063,373.38 18.73535,-34.03951,381 18.72934,-34.03839,396.24 18.72446,-34.0377,388.62 18.7195,-34.0369,381 18.71429,-34.03574,358.14000000000004 18.70921,-34.03441,358.14000000000004 18.70428,-34.03285,350.52000000000004 18.69968,-34.03125,358.14000000000004 18.69335,-34.02882,358.14000000000004 18.68887,-34.02649,342.90000000000003 18.685,-34.02405,342.90000000000003 18.68082,-34.02172,335.28000000000003 18.67682,-34.01972,342.90000000000003 18.67292,-34.01772,342.90000000000003 18.66897,-34.01559,342.90000000000003 18.66508,-34.01367,350.52000000000004 18.66073,-34.01175,342.90000000000003 18.65635,-34.01001,335.28000000000003 18.65209,-34.00836,342.90000000000003 18.647,-34.00622,342.90000000000003 18.64265,-34.00436,342.90000000000003 18.63909,-34.002,342.90000000000003 18.63623,-33.99907,342.90000000000003 18.63461,-33.99582,342.90000000000003 18.63332,-33.99266,342.90000000000003 18.63195,-33.9896,350.52000000000004 18.62972,-33.98742,342.90000000000003 18.62569,-33.98749,342.90000000000003 18.62165,-33.98825,358.14000000000004 18.61717,-33.98904,350.52000000000004 18.61233,-33.98984,342.90000000000003 18.60752,-33.99044,342.90000000000003 18.60294,-33.99016,342.90000000000003 18.59837,-33.98858,342.90000000000003 18.59408,-33.98643,342.90000000000003 18.59004,-33.98442,342.90000000000003 18.58309,-33.98094,335.28000000000003 18.57956,-33.97888,342.90000000000003 18.57609,-33.9771,342.90000000000003 18.5725,-33.97536,335.28000000000003 18.56869,-33.97348,327.66 18.56426,-33.97124,320.04 18.56039,-33.96927,335.28000000000003 18.55654,-33.96735,335.28000000000003 18.55196,-33.96512,335.28000000000003 18.54089,-33.95938,342.90000000000003 18.53662,-33.95749,350.52000000000004 18.53248,-33.95572,358.14000000000004 18.52764,-33.95376,365.76 18.52284,-33.95183,358.14000000000004 18.51835,-33.94981,365.76 18.51419,-33.94748,373.38 18.51007,-33.94505,373.38 18.50613,-33.94273,373.38 18.50204,-33.94038,373.38 18.49565,-33.93677,365.76 18.49182,-33.93463,365.76 18.48797,-33.93228,365.76 18.48307,-33.92904,358.14000000000004 18.47929,-33.92616,358.14000000000004 18.4757,-33.92336,365.76 18.47205,-33.92052,358.14000000000004 18.46841,-33.91772,358.14000000000004 18.46498,-33.91484,358.14000000000004 18.46201,-33.91182,373.38 18.45955,-33.90856,403.86 18.45715,-33.90525,426.72 18.45503,-33.9019,449.58000000000004 18.45311,-33.89827,464.82000000000005 18.45081,-33.89456,472.44 18.44833,-33.89124,487.68 18.44536,-33.88817,495.3 18.44221,-33.88523,518.1600000000001 18.43906,-33.88263,548.64 18.43573,-33.88055,579.12 18.43208,-33.8789,617.22 18.42813,-33.87746,624.84 18.42385,-33.8763,632.46 18.41897,-33.87584,632.46 18.41348,-33.87584,640.08 18.40827,-33.8763,647.7 18.40313,-33.87718,655.32 18.39849,-33.87862,670.5600000000001 18.39403,-33.88058,670.5600000000001 18.38943,-33.88316,670.5600000000001 18.38556,-33.88593,685.8000000000001 18.38202,-33.88938,708.6600000000001 18.37912,-33.89241,723.9000000000001 18.37589,-33.89599,739.14 18.37229,-33.90036,754.38 18.36954,-33.90409,762 18.36651,-33.90846,754.38 18.36376,-33.91269,762 18.36096,-33.91708,754.38 18.35838,-33.92139,754.38 18.35678,-33.92643,746.76 18.35625,-33.93214,723.9000000000001 18.35681,-33.938,723.9000000000001 18.3581,-33.944,716.2800000000001 18.35855,-33.95013,701.0400000000001 18.35754,-33.95567,693.4200000000001 18.34963,-33.9678,640.08 18.33938,-33.98099,563.88 18.33344,-33.99353,510.54 18.33017,-34.00404,480.06 18.32445,-34.01386,426.72 18.31335,-34.02326,342.90000000000003 18.30477,-34.03248,297.18 18.31129,-34.0592,358.14000000000004 18.31764,-34.06809,403.86 18.32136,-34.07247,426.72 18.32559,-34.07735,449.58000000000004 18.33865,-34.09277,426.72 18.34481,-34.09996,419.1 18.347,-34.10609,396.24 18.34711,-34.1125,373.38 18.34602,-34.11813,335.28000000000003 18.34476,-34.12637,312.42 18.34453,-34.13397,312.42 18.34442,-34.1418,312.42 18.36634,-34.20872,335.28000000000003 18.39896,-34.30838,251.46 18.42177,-34.33122,266.7 18.42974,-34.33646,281.94 18.43837,-34.34024,289.56 18.44666,-34.34184,304.8 18.45384,-34.34445,312.42 18.4595,-34.34821,312.42 18.4647,-34.35271,320.04 18.47002,-34.35769,320.04 18.47648,-34.36061,335.28000000000003 18.48307,-34.36193,350.52000000000004 18.48959,-34.36319,365.76 18.49644,-34.36459,381 18.50322,-34.36674,403.86 18.50899,-34.3678,441.96000000000004 18.51247,-34.36615,464.82000000000005 18.51236,-34.36436,487.68 18.51128,-34.36207,510.54 18.50994,-34.35956,525.78 18.50807,-34.35644,533.4 18.50567,-34.35346,533.4 18.50269,-34.35048,541.02 18.49974,-34.34761,548.64 18.49674,-34.34457,563.88 18.49436,-34.34097,571.5 18.4938,-34.33653,579.12 18.49468,-34.33172,579.12 18.49565,-34.3271,579.12 18.49674,-34.32269,571.5 18.5,-34.30858,556.26 18.50075,-34.30337,571.5 18.50114,-34.2989,571.5 18.50155,-34.29494,579.12 18.50201,-34.29075,586.74 18.50283,-34.28654,586.74 18.50356,-34.28229,586.74 18.50407,-34.278,571.5 18.50458,-34.27343,571.5 18.5055,-34.26883,571.5 18.50624,-34.26492,571.5 18.50676,-34.26072,571.5 18.50704,-34.25644,571.5 18.50664,-34.25207,571.5 18.50574,-34.24731,571.5 18.50445,-34.24269,586.74 18.50294,-34.23857,601.98 18.50126,-34.23473,617.22 18.49926,-34.23046,632.46 18.49503,-34.22153,617.22 18.49094,-34.21371,556.26 18.48862,-34.21008,525.78 18.48629,-34.20689,510.54 18.48394,-34.20374,495.3 18.48141,-34.20049,464.82000000000005 18.4786,-34.19746,464.82000000000005 18.47557,-34.19444,464.82000000000005 18.47265,-34.19164,457.20000000000005 18.46996,-34.18917,449.58000000000004 18.46693,-34.18643,441.96000000000004 18.46264,-34.18263,449.58000000000004 18.46006,-34.17902,441.96000000000004 18.45903,-34.17507,449.58000000000004 18.4581,-34.17101,434.34000000000003 18.45715,-34.16729,434.34000000000003 18.45594,-34.16371,441.96000000000004 18.45434,-34.16016,434.34000000000003 18.45266,-34.15677,426.72 18.4512,-34.15311,419.1 18.45148,-34.14904,419.1 18.45303,-34.14486,419.1 18.45589,-34.14057,434.34000000000003 18.45944,-34.13654,434.34000000000003 18.46353,-34.13255,449.58000000000004 18.46757,-34.12875,449.58000000000004 18.47157,-34.12489,449.58000000000004 18.47483,-34.12121,449.58000000000004 18.47766,-34.11731,457.20000000000005 18.48021,-34.11329,480.06 18.48164,-34.1092,480.06 18.48078,-34.10571,472.44 18.47917,-34.10234,480.06 18.47723,-34.099,480.06 18.47523,-34.09575,472.44 18.47305,-34.09253,472.44 18.47094,-34.08908,480.06 18.46897,-34.08549,487.68 18.46802,-34.08122,495.3 18.46807,-34.07605,502.92 18.46886,-34.07181,502.92 18.46987,-34.067,518.1600000000001 18.47088,-34.06247,518.1600000000001 18.47239,-34.05807,518.1600000000001 18.47443,-34.05333,502.92 18.47676,-34.04887,510.54 18.47928,-34.04425,502.92 18.48231,-34.03944,495.3 18.48524,-34.03462,480.06 18.48845,-34.0302,472.44 18.49148,-34.02559,472.44 18.49375,-34.02063,464.82000000000005 18.4936,-34.01595,464.82000000000005 18.49234,-34.01181,449.58000000000004 18.49089,-34.00777,434.34000000000003 18.48976,-34.0032,426.72 18.48907,-33.99845,441.96000000000004 18.48885,-33.99375,426.72 18.48902,-33.98863,434.34000000000003 18.48919,-33.98392,441.96000000000004 18.4889,-33.97885,434.34000000000003 18.48837,-33.97394,449.58000000000004 18.48736,-33.96602,472.44 18.48633,-33.96,457.20000000000005 18.48573,-33.95535,464.82000000000005 18.48501,-33.95087,472.44 18.48281,-33.94359,457.20000000000005 18.47895,-33.93612,426.72 18.47609,-33.93196,411.48 18.4734,-33.92825,403.86 18.47048,-33.92445,396.24 18.46762,-33.92088,373.38 18.46447,-33.91703,358.14000000000004 18.46107,-33.91296,327.66 18.45753,-33.90916,289.56 18.45406,-33.90582,259.08000000000004 18.44991,-33.90276,236.22 18.44542,-33.90064,198.12 18.4405,-33.89969,160.02 18.43637,-33.90004,129.54000000000002 18.4326,-33.9006,91.44 18.42928,-33.9012,53.34 18.42756,-33.90129,30.48
        </coordinates>
      </LineString>
    </Placemark>
  </Document>
</kml>