<?xml version="1.0" encoding="UTF-8"?>
<kml xmlns="http://www.opengis.net/kml/2.2">
  <Document>
    <name>FR24 40834005 - Optimised</name>
    <description><![CDATA[Optimised flight path with 140 points (decimated from 700 original points). Source format: Standard KML]]></description>
    
    <Style id="flightPath">
      <LineStyle>
        <color>ffff0000</color>
        <width>3</width>
      </LineStyle>
    </Style>
    
    <Placemark>
      <name>Flight Path</name>
      <description><![CDATA[Optimized flight path]]></description>
      <styleUrl>#flightPath</styleUrl>
      <LineString>
        <extrude>1</extrude>
        <tessellate>1</tessellate>
        <altitudeMode>absolute</altitudeMode>
        <coordinates>
          18.43243,-33.89212,0 18.43552,-33.88747,0 18.43563,-33.88407,0 18.43472,-33.88069,0 18.43304,-33.8773,0 18.43014,-33.87499,0 18.42609,-33.87424,0 18.4219,-33.87453,0 18.41721,-33.87532,0 18.41274,-33.87653,0 18.40787,-33.87831,0 18.40316,-33.8806,0 18.39804,-33.88346,0 18.39346,-33.88654,0 18.38877,-33.89022,0 18.38459,-33.89403,0 18.3803,-33.89836,0 18.37606,-33.9026,0 18.37082,-33.90807,0 18.36485,-33.91535,0 18.36124,-33.92038,0 18.35815,-33.92555,0 18.3526,-34.17749,0 18.34866,-34.17055,0 18.34946,-34.1666,0 18.35255,-34.16227,0 18.35731,-34.15833,0 18.36199,-34.1544,0 18.36634,-34.14944,0 18.37015,-34.14487,0 18.37379,-34.14075,0 18.3779,-34.13596,0 18.38371,-34.12921,0 18.38904,-34.12285,0 18.39263,-34.11832,0 18.39655,-34.11395,0 18.4007,-34.10962,0 18.40496,-34.1051,0 18.41171,-34.09789,0 18.41543,-34.09314,0 18.41841,-34.08829,0 18.4211,-34.08357,0 18.4234,-34.07817,0 18.42539,-34.07293,0 18.42773,-34.06776,0 18.43007,-34.06297,0 18.43248,-34.05794,0 18.43483,-34.05296,0 18.43926,-34.04333,0 18.44358,-34.03436,0 18.44487,-34.02969,0 18.44593,-34.02475,0 18.44705,-34.01962,0 18.44856,-34.01446,0 18.44976,-34.00953,0 18.45064,-34.00493,0 18.45204,-33.99971,0 18.45384,-33.99477,0 18.45577,-33.98956,0 18.45915,-33.98188,0 18.4614,-33.97701,0 18.46441,-33.97192,0 18.46701,-33.96689,0 18.46936,-33.96167,0 18.47132,-33.95673,0 18.47242,-33.95143,0 18.47261,-33.94638,0 18.47191,-33.94101,0 18.47043,-33.93585,0 18.46962,-33.93095,0 18.46847,-33.92578,0 18.46642,-33.9208,0 18.46292,-33.91585,0 18.45905,-33.91191,0 18.45463,-33.90884,0 18.44965,-33.90558,0 18.44672,-33.90353,0 18.44414,-33.90248,0 18.44135,-33.90213,0 18.4359,-33.90225,0 18.43327,-33.9017,0 18.43114,-33.90051,0 18.42889,-33.90047,0 18.42743,-33.90051,0 18.42755,-33.89896,0 18.42889,-33.89735,0 18.43046,-33.89566,0 18.43282,-33.89268,0 18.435,-33.88947,0 18.43592,-33.88547,0 18.43546,-33.88151,0 18.43351,-33.87802,0 18.42934,-33.87616,0 18.4247,-33.87592,0 18.41987,-33.87708,0 18.4151,-33.87863,0 18.41,-33.88025,0 18.40529,-33.87886,0 18.403,-33.8746,0 18.39827,-33.87592,0 18.39431,-33.87923,0 18.39054,-33.88277,0 18.38685,-33.88641,0 18.38362,-33.88975,0 18.38007,-33.89389,0 18.3766,-33.89827,0 18.37275,-33.9032,0 18.36908,-33.90823,0 18.36554,-33.91344,0 18.36197,-33.91896,0 18.35861,-33.92462,0 18.34963,-33.94057,0 18.34225,-33.95539,0 18.35148,-33.95856,0 18.35563,-33.95261,0 18.35894,-33.94753,0 18.3623,-33.94176,0 18.36468,-33.93639,0 18.36695,-33.93132,0 18.36981,-33.92596,0 18.37297,-33.92071,0 18.37646,-33.91596,0 18.38053,-33.9113,0 18.38467,-33.90665,0 18.3886,-33.90204,0 18.3933,-33.89726,0 18.39867,-33.89287,0 18.4049,-33.88879,0 18.41137,-33.88556,0 18.41846,-33.88384,0 18.42573,-33.88421,0 18.43282,-33.88582,0 18.43878,-33.88849,0 18.44212,-33.89268,0 18.44233,-33.89729,0 18.43872,-33.8992,0 18.43615,-33.89943,0 18.43388,-33.89964,0 18.43191,-33.89985,0 18.42991,-33.90018,0
        </coordinates>
      </LineString>
    </Placemark>
  </Document>
</kml>