<?xml version="1.0" encoding="UTF-8"?>
<kml xmlns="http://www.opengis.net/kml/2.2">
  <Document>
    <name>FR24 412ae1da - Optimised</name>
    <description><![CDATA[Optimised flight path with 108 points (decimated from 539 original points). Source format: Standard KML]]></description>
    
    <Style id="flightPath">
      <LineStyle>
        <color>ffff0000</color>
        <width>3</width>
      </LineStyle>
    </Style>
    
    <Placemark>
      <name>Flight Path</name>
      <description><![CDATA[Optimized flight path]]></description>
      <styleUrl>#flightPath</styleUrl>
      <LineString>
        <extrude>1</extrude>
        <tessellate>1</tessellate>
        <altitudeMode>absolute</altitudeMode>
        <coordinates>
          18.63837,-33.7635,0 18.70457,-33.77985,0 18.71338,-33.78903,0 18.77078,-33.80333,0 18.80223,-33.80795,0 18.8091,-33.81068,0 18.82402,-33.8136,0 18.83249,-33.81622,0 18.86377,-33.83472,0 18.71639,-33.77519,0 18.70721,-33.77079,0 18.69966,-33.78504,0 18.64281,-33.76421,0 18.6281,-33.75735,0 18.61704,-33.75566,0 18.46109,-33.93306,0 18.46412,-33.95115,0 18.47305,-33.96173,0 18.46431,-33.97353,0 18.46457,-33.98083,0 18.46551,-33.98754,0 18.46526,-33.99469,0 18.46579,-34.00183,0 18.46651,-34.009,0 18.46756,-34.01634,0 18.46762,-34.02385,0 18.46754,-34.03075,0 18.46757,-34.03797,0 18.46786,-34.04527,0 18.46862,-34.05289,0 18.46878,-34.05984,0 18.46907,-34.06618,0 18.46932,-34.07386,0 18.46964,-34.08071,0 18.47101,-34.08701,0 18.47169,-34.09467,0 18.47124,-34.10194,0 18.4715,-34.10838,0 18.47092,-34.11482,0 18.46795,-34.12178,0 18.46484,-34.12769,0 18.46115,-34.13412,0 18.45729,-34.14053,0 18.45405,-34.14605,0 18.45078,-34.15187,0 18.44765,-34.15761,0 18.44432,-34.16487,0 18.44231,-34.17088,0 18.43865,-34.17672,0 18.4332,-34.18138,0 18.43577,-34.18716,0 18.44316,-34.18982,0 18.44967,-34.19414,0 18.45576,-34.19962,0 18.46133,-34.20711,0 18.46514,-34.2126,0 18.46938,-34.21902,0 18.47373,-34.22505,0 18.47703,-34.23008,0 18.47889,-34.23719,0 18.48052,-34.24364,0 18.48306,-34.24957,0 18.48398,-34.25706,0 18.48521,-34.26368,0 18.48466,-34.27141,0 18.48582,-34.27729,0 18.48416,-34.28996,0 18.48575,-34.29737,0 18.48692,-34.30618,0 18.48706,-34.31364,0 18.48834,-34.32096,0 18.49145,-34.32652,0 18.49896,-34.33223,0 18.50027,-34.34438,0 18.51049,-34.35285,0 18.50343,-34.36087,0 18.48571,-34.36658,0 18.48339,-34.35929,0 18.4656,-34.36379,0 18.46256,-34.35733,0 18.47224,-34.36438,0 18.50326,-34.35817,0 18.61913,-33.75907,0 18.63294,-33.76176,0 18.64825,-33.76837,0 18.70395,-33.77184,0 18.76986,-33.80746,0 18.80244,-33.82578,0 18.81454,-33.83531,0 18.83507,-33.85083,0 18.92673,-33.89427,0 18.75848,-33.95216,0 18.73596,-33.968,0 18.69736,-33.9771,0 18.68686,-33.97704,0 18.67657,-33.97556,0 18.66902,-33.97441,0 18.66163,-33.97343,0 18.65506,-33.97242,0 18.64774,-33.97139,0 18.6412,-33.97057,0 18.63425,-33.97003,0 18.62757,-33.97022,0 18.622,-33.97077,0 18.61733,-33.97131,0 18.6138,-33.97183,0 18.61562,-33.97324,0 18.61093,-33.97662,0
        </coordinates>
      </LineString>
    </Placemark>
  </Document>
</kml>