<?xml version="1.0" encoding="UTF-8"?>
<kml xmlns="http://www.opengis.net/kml/2.2">
  <Document>
    <name>FR24 3f739721 - Optimised</name>
    <description><![CDATA[Optimised flight path with 212 points (decimated from 1056 original points). Source format: Standard KML]]></description>
    
    <Style id="flightPath">
      <LineStyle>
        <color>ffff0000</color>
        <width>3</width>
      </LineStyle>
    </Style>
    
    <Placemark>
      <name>Flight Path</name>
      <description><![CDATA[Optimized flight path]]></description>
      <styleUrl>#flightPath</styleUrl>
      <LineString>
        <extrude>1</extrude>
        <tessellate>1</tessellate>
        <altitudeMode>absolute</altitudeMode>
        <coordinates>
          18.43114,-33.89218,0 18.43237,-33.88686,0 18.43052,-33.88303,0 18.42659,-33.88044,0 18.42183,-33.87886,0 18.41663,-33.87862,0 18.41124,-33.87923,0 18.40622,-33.8803,0 18.40107,-33.88202,0 18.39582,-33.88431,0 18.39094,-33.88663,0 18.3864,-33.88939,0 18.38196,-33.89282,0 18.37761,-33.89676,0 18.37343,-33.90041,0 18.36976,-33.90463,0 18.36639,-33.90926,0 18.36337,-33.91402,0 18.36045,-33.91891,0 18.3572,-33.92445,0 18.35415,-33.92978,0 18.35137,-33.93517,0 18.34894,-33.94026,0 18.34265,-33.95436,0 18.34554,-33.95833,0 18.34974,-33.9559,0 18.35205,-33.95096,0 18.35449,-33.94552,0 18.35709,-33.94006,0 18.36034,-33.93311,0 18.36337,-33.92679,0 18.36594,-33.92164,0 18.36852,-33.91685,0 18.3711,-33.91237,0 18.37447,-33.90752,0 18.37828,-33.9028,0 18.38247,-33.89864,0 18.38797,-33.89478,0 18.39341,-33.89172,0 18.39912,-33.88924,0 18.40553,-33.88728,0 18.41191,-33.88591,0 18.41852,-33.88504,0 18.42463,-33.88458,0 18.43105,-33.88509,0 18.43626,-33.88691,0 18.44027,-33.8898,0 18.44251,-33.89319,0 18.44072,-33.89626,0 18.43668,-33.89758,0 18.43377,-33.89845,0 18.43197,-33.89906,0 18.42991,-33.89985,0 18.42842,-33.90046,0 18.4271,-33.90065,0 18.42766,-33.89905,0 18.42833,-33.89763,0 18.42911,-33.89599,0 18.43014,-33.89361,0 18.4313,-33.89085,0 18.43168,-33.8871,0 18.42945,-33.88385,0 18.42519,-33.88184,0 18.42035,-33.88114,0 18.41526,-33.881,0 18.41005,-33.88123,0 18.40524,-33.88174,0 18.3993,-33.88305,0 18.39453,-33.88531,0 18.3898,-33.88807,0 18.38506,-33.89117,0 18.38041,-33.89479,0 18.37615,-33.89832,0 18.37223,-33.90246,0 18.3683,-33.90747,0 18.36514,-33.91233,0 18.36199,-33.9175,0 18.35877,-33.92313,0 18.35581,-33.92876,0 18.35283,-33.93448,0 18.35008,-33.93979,0 18.34768,-33.94538,0 18.34562,-33.95087,0 18.34385,-33.95623,0 18.3419,-33.96326,0 18.34059,-33.96954,0 18.33568,-33.98799,0 18.31931,-34.15292,0 18.32059,-34.15825,0 18.32589,-34.16278,0 18.32935,-34.16695,0 18.33214,-34.17206,0 18.33825,-34.1786,0 18.34173,-34.18238,0 18.34538,-34.18629,0 18.34888,-34.19024,0 18.35278,-34.19527,0 18.35574,-34.19975,0 18.35833,-34.20412,0 18.3605,-34.20831,0 18.3625,-34.21268,0 18.36502,-34.21855,0 18.36662,-34.22324,0 18.36796,-34.22777,0 18.36914,-34.23225,0 18.37023,-34.2368,0 18.37161,-34.24159,0 18.37297,-34.24652,0 18.37423,-34.25142,0 18.37833,-34.26476,0 18.38046,-34.27029,0 18.38254,-34.27473,0 18.38476,-34.27939,0 18.38747,-34.28421,0 18.38988,-34.28792,0 18.39243,-34.2921,0 18.39767,-34.30087,0 18.40042,-34.30518,0 18.40339,-34.30907,0 18.40675,-34.31264,0 18.41039,-34.31602,0 18.41515,-34.32022,0 18.41898,-34.32348,0 18.42284,-34.32637,0 18.42693,-34.32925,0 18.431,-34.33213,0 18.43563,-34.33507,0 18.44164,-34.33902,0 18.44846,-34.34354,0 18.45217,-34.34657,0 18.45612,-34.34959,0 18.46011,-34.35283,0 18.46421,-34.35594,0 18.4683,-34.35896,0 18.47323,-34.3607,0 18.47895,-34.36147,0 18.48415,-34.36211,0 18.48949,-34.36313,0 18.4947,-34.36391,0 18.49946,-34.36368,0 18.50355,-34.36067,0 18.50428,-34.3558,0 18.5035,-34.35022,0 18.50249,-34.34404,0 18.50131,-34.33795,0 18.4998,-34.33131,0 18.49852,-34.32534,0 18.49705,-34.31685,0 18.49414,-34.29886,0 18.49216,-34.2847,0 18.48865,-34.26645,0 18.48394,-34.2475,0 18.48057,-34.23761,0 18.4778,-34.23126,0 18.4746,-34.22525,0 18.47128,-34.21929,0 18.46858,-34.21371,0 18.46579,-34.20761,0 18.46155,-34.19667,0 18.46024,-34.19057,0 18.45995,-34.1851,0 18.46012,-34.17926,0 18.46052,-34.17381,0 18.46132,-34.16478,0 18.46207,-34.15799,0 18.46298,-34.15189,0 18.46409,-34.14606,0 18.46561,-34.14011,0 18.46722,-34.13471,0 18.4691,-34.12884,0 18.47256,-34.11635,0 18.4739,-34.10921,0 18.47454,-34.10329,0 18.4748,-34.09735,0 18.475,-34.0889,0 18.47626,-34.0713,0 18.47694,-34.06558,0 18.47775,-34.05962,0 18.4785,-34.05359,0 18.47912,-34.04796,0 18.4798,-34.0423,0 18.48055,-34.03616,0 18.48147,-34.03029,0 18.48382,-34.01408,0 18.48518,-34.00822,0 18.48657,-34.00214,0 18.48719,-33.99659,0 18.48764,-33.99119,0 18.48825,-33.97961,0 18.48842,-33.96968,0 18.48758,-33.96382,0 18.48667,-33.9579,0 18.48534,-33.95009,0 18.4841,-33.94464,0 18.48255,-33.93896,0 18.48061,-33.93388,0 18.47832,-33.92913,0 18.47534,-33.92476,0 18.47155,-33.92056,0 18.46768,-33.91663,0 18.46342,-33.91251,0 18.45646,-33.90572,0 18.45294,-33.90216,0 18.44994,-33.89874,0 18.44638,-33.89671,0 18.44244,-33.89669,0 18.43837,-33.89767,0 18.43573,-33.89845,0 18.43357,-33.89906,0 18.43002,-33.89999,0 18.42842,-33.90041,0 18.4271,-33.9011,0
        </coordinates>
      </LineString>
    </Placemark>
  </Document>
</kml>