<?xml version="1.0" encoding="UTF-8"?>
<kml xmlns="http://www.opengis.net/kml/2.2">
  <Document>
    <name>FR24 408f34dd - Optimised</name>
    <description><![CDATA[Optimised flight path with 546 points (decimated from 2727 original points). Source format: Standard KML]]></description>
    
    <Style id="flightPath">
      <LineStyle>
        <color>ffff0000</color>
        <width>3</width>
      </LineStyle>
    </Style>
    
    <Placemark>
      <name>Flight Path</name>
      <description><![CDATA[Optimized flight path]]></description>
      <styleUrl>#flightPath</styleUrl>
      <LineString>
        <extrude>1</extrude>
        <tessellate>1</tessellate>
        <altitudeMode>absolute</altitudeMode>
        <coordinates>
          18.42615,-33.89461,0 18.4285,-33.89076,0 18.42766,-33.88715,0 18.42344,-33.8856,0 18.41846,-33.88505,0 18.41297,-33.88472,0 18.40771,-33.88499,0 18.40249,-33.886,0 18.397,-33.88802,0 18.39214,-33.89068,0 18.38791,-33.89361,0 18.38419,-33.89669,0 18.38029,-33.90024,0 18.37665,-33.90385,0 18.37312,-33.90784,0 18.37,-33.91182,0 18.36702,-33.916,0 18.36387,-33.92061,0 18.36113,-33.92537,0 18.35873,-33.93062,0 18.35468,-33.94102,0 18.35249,-33.94858,0 18.35873,-33.95111,0 18.36056,-33.94608,0 18.36096,-33.94006,0 18.36164,-33.9336,0 18.36296,-33.9276,0 18.36516,-33.92194,0 18.36805,-33.91684,0 18.37154,-33.91158,0 18.37561,-33.9066,0 18.37996,-33.90179,0 18.38425,-33.8972,0 18.38904,-33.89246,0 18.39397,-33.88824,0 18.39935,-33.88486,0 18.40535,-33.88206,0 18.41131,-33.87993,0 18.41751,-33.87918,0 18.42362,-33.87987,0 18.42894,-33.88151,0 18.43377,-33.88376,0 18.43848,-33.88701,0 18.44181,-33.89073,0 18.44313,-33.89501,0 18.44227,-33.89822,0 18.4409,-33.8999,0 18.43865,-33.90111,0 18.43573,-33.90157,0 18.43363,-33.90148,0 18.43145,-33.90129,0 18.42962,-33.90106,0 18.42839,-33.90088,0 18.42728,-33.90051,0 18.42704,-33.89813,0 18.42762,-33.89622,0 18.42833,-33.8947,0 18.42985,-33.89189,0 18.43231,-33.88834,0 18.43276,-33.88445,0 18.42861,-33.88206,0 18.42304,-33.88202,0 18.41835,-33.88249,0 18.4132,-33.8837,0 18.40782,-33.88519,0 18.40216,-33.8871,0 18.39621,-33.88953,0 18.39095,-33.8925,0 18.38612,-33.89612,0 18.38175,-33.90001,0 18.37811,-33.90413,0 18.37452,-33.90848,0 18.37099,-33.91287,0 18.36802,-33.91713,0 18.3651,-33.92203,0 18.3625,-33.92667,0 18.35995,-33.93105,0 18.35335,-33.94319,0 18.34517,-33.95469,0 18.33377,-33.96812,0 18.32761,-33.97989,0 18.32388,-33.99179,0 18.31844,-34.00431,0 18.32133,-34.01408,0 18.3272,-34.00101,0 18.32805,-33.98712,0 18.3359,-33.97458,0 18.34557,-33.96009,0 18.34963,-33.9511,0 18.35157,-33.94561,0 18.35438,-33.93867,0 18.35735,-33.93118,0 18.35978,-33.92542,0 18.36303,-33.92001,0 18.36697,-33.91503,0 18.37105,-33.91058,0 18.37624,-33.90544,0 18.38108,-33.90092,0 18.38624,-33.89648,0 18.39214,-33.89185,0 18.39724,-33.88779,0 18.40445,-33.88169,0 18.40636,-33.87666,0 18.40227,-33.87318,0 18.39621,-33.87447,0 18.39392,-33.87835,0 18.39792,-33.88156,0 18.40479,-33.88184,0 18.41177,-33.88137,0 18.41806,-33.88128,0 18.42476,-33.88174,0 18.43063,-33.88335,0 18.43624,-33.8855,0 18.44117,-33.88737,0 18.44582,-33.88998,0 18.44806,-33.89388,0 18.44816,-33.89817,0 18.44427,-33.90069,0 18.44195,-33.90028,0 18.43958,-33.8999,0 18.43736,-33.89973,0 18.43444,-33.89973,0 18.43174,-33.90022,0 18.42997,-33.90083,0 18.42779,-33.90074,0 18.42738,-33.89946,0 18.42785,-33.89799,0 18.42865,-33.89636,0 18.42945,-33.89493,0 18.43042,-33.8932,0 18.43197,-33.89059,0 18.43414,-33.88714,0 18.4338,-33.88365,0 18.42939,-33.88193,0 18.42447,-33.88216,0 18.41972,-33.88268,0 18.41477,-33.88316,0 18.41017,-33.88337,0 18.4067,-33.88065,0 18.40855,-33.87726,0 18.41206,-33.87616,0 18.41549,-33.8769,0 18.41446,-33.88002,0 18.40972,-33.88234,0 18.40427,-33.88407,0 18.39907,-33.88617,0 18.39369,-33.8891,0 18.38898,-33.89241,0 18.38465,-33.89618,0 18.38064,-33.90013,0 18.37692,-33.90423,0 18.37323,-33.90852,0 18.36943,-33.91298,0 18.36576,-33.91768,0 18.36258,-33.9223,0 18.35944,-33.92734,0 18.3567,-33.93214,0 18.3539,-33.9369,0 18.34385,-33.93691,0 18.34414,-33.92983,0 18.34728,-33.92569,0 18.35146,-33.92318,0 18.35558,-33.92485,0 18.35638,-33.92937,0 18.35501,-33.93457,0 18.35306,-33.93947,0 18.35087,-33.94482,0 18.34808,-33.95222,0 18.34368,-33.96521,0 18.42766,-33.90038,0 18.42856,-33.89827,0 18.42951,-33.89678,0 18.43105,-33.89455,0 18.43248,-33.89264,0 18.43609,-33.88696,0 18.43592,-33.88244,0 18.43334,-33.87835,0 18.42876,-33.87527,0 18.42295,-33.8741,0 18.41761,-33.87448,0 18.41108,-33.87602,0 18.40524,-33.87785,0 18.39981,-33.87993,0 18.3942,-33.88258,0 18.38934,-33.88547,0 18.38394,-33.88957,0 18.38007,-33.89375,0 18.37665,-33.89813,0 18.37334,-33.9028,0 18.36914,-33.90851,0 18.36491,-33.9134,0 18.36051,-33.91786,0 18.35667,-33.92318,0 18.35417,-33.92848,0 18.35244,-33.93439,0 18.35182,-33.93997,0 18.3516,-33.94588,0 18.35171,-33.95132,0 18.3502,-33.96204,0 18.34308,-33.98067,0 18.33824,-33.99664,0 18.33561,-34.0052,0 18.33527,-34.01181,0 18.33847,-34.0214,0 18.34042,-34.02638,0 18.34212,-34.03148,0 18.34302,-34.03683,0 18.34351,-34.0423,0 18.34539,-34.04765,0 18.35227,-34.04951,0 18.35675,-34.04507,0 18.35289,-34.03665,0 18.34734,-34.03127,0 18.34242,-34.02643,0 18.33859,-34.0209,0 18.33837,-34.00662,0 18.34381,-33.9944,0 18.35305,-33.97769,0 18.35855,-33.96295,0 18.3609,-33.95142,0 18.3629,-33.94054,0 18.36456,-33.93411,0 18.36667,-33.92862,0 18.36948,-33.92349,0 18.3728,-33.91856,0 18.37671,-33.91365,0 18.38114,-33.90875,0 18.38591,-33.90409,0 18.39095,-33.89978,0 18.39666,-33.89603,0 18.40372,-33.89273,0 18.41039,-33.89063,0 18.4178,-33.88879,0 18.42464,-33.8871,0 18.43164,-33.88628,0 18.43803,-33.88794,0 18.44335,-33.8925,0 18.44576,-33.89794,0 18.44358,-33.90283,0 18.43736,-33.9023,0 18.43346,-33.89999,0 18.43114,-33.8996,0 18.42822,-33.90005,0 18.42805,-33.899,0 18.42911,-33.89729,0 18.43029,-33.89534,0 18.43158,-33.89346,0 18.43517,-33.88747,0 18.43592,-33.88309,0 18.43369,-33.87872,0 18.42939,-33.87588,0 18.42339,-33.87518,0 18.41785,-33.87611,0 18.4128,-33.87755,0 18.40725,-33.87951,0 18.40158,-33.88188,0 18.3961,-33.88449,0 18.39078,-33.88728,0 18.3854,-33.89085,0 18.38093,-33.89473,0 18.37688,-33.89896,0 18.3732,-33.90358,0 18.36988,-33.90842,0 18.36685,-33.91302,0 18.36382,-33.91824,0 18.36124,-33.92345,0 18.35855,-33.92921,0 18.35564,-33.93458,0 18.35311,-33.93983,0 18.35054,-33.94552,0 18.34812,-33.95082,0 18.34599,-33.95631,0 18.33792,-33.97852,0 18.33506,-33.99403,0 18.33361,-34.00385,0 18.33395,-34.00967,0 18.3373,-34.01752,0 18.34013,-34.02238,0 18.34229,-34.02763,0 18.34364,-34.03294,0 18.34431,-34.03802,0 18.34654,-34.04272,0 18.3534,-34.04291,0 18.35564,-34.03695,0 18.35171,-34.03171,0 18.34599,-34.02782,0 18.34013,-34.02405,0 18.33573,-34.01917,0 18.334,-34.00932,0 18.33527,-34.00278,0 18.3411,-33.98667,0 18.3474,-33.96922,0 18.35558,-33.94752,0 18.36056,-33.93393,0 18.36471,-33.92303,0 18.3678,-33.91763,0 18.37194,-33.91251,0 18.37626,-33.90775,0 18.38099,-33.90302,0 18.38596,-33.89827,0 18.39324,-33.89104,0 18.39861,-33.88659,0 18.40485,-33.88271,0 18.41131,-33.88044,0 18.41801,-33.8796,0 18.42464,-33.88067,0 18.431,-33.88323,0 18.4364,-33.88655,0 18.44107,-33.88998,0 18.44481,-33.8947,0 18.44461,-33.90022,0 18.44124,-33.90265,0 18.43792,-33.90064,0 18.43603,-33.89948,0 18.43311,-33.89929,0 18.4314,-33.89957,0 18.42979,-33.89987,0 18.428,-33.90033,0 18.4267,-33.89883,0 18.42682,-33.89697,0 18.42768,-33.89482,0 18.42945,-33.89218,0 18.43203,-33.88896,0 18.43405,-33.88559,0 18.4327,-33.88239,0 18.42728,-33.88174,0 18.42218,-33.88239,0 18.41656,-33.88367,0 18.41108,-33.88505,0 18.40576,-33.88668,0 18.40019,-33.8887,0 18.3947,-33.89159,0 18.3898,-33.89464,0 18.38436,-33.89836,0 18.37945,-33.90198,0 18.37424,-33.90605,0 18.37015,-33.91049,0 18.3669,-33.91516,0 18.36393,-33.9201,0 18.36113,-33.92514,0 18.35771,-33.93127,0 18.35392,-33.93751,0 18.34997,-33.94375,0 18.34717,-33.94913,0 18.34127,-33.96163,0 18.33612,-33.98067,0 18.3482,-33.9572,0 18.35417,-33.94084,0 18.35647,-33.93471,0 18.35827,-33.92899,0 18.36056,-33.92359,0 18.36393,-33.91861,0 18.36802,-33.91379,0 18.3725,-33.90898,0 18.37699,-33.9044,0 18.38493,-33.89706,0 18.3902,-33.89287,0 18.39569,-33.88924,0 18.4013,-33.88612,0 18.40759,-33.88388,0 18.41389,-33.88286,0 18.41992,-33.88298,0 18.42598,-33.88399,0 18.43208,-33.88542,0 18.43763,-33.88719,0 18.44263,-33.88943,0 18.44656,-33.89305,0 18.44722,-33.89735,0 18.44369,-33.90079,0 18.44139,-33.90138,0 18.43637,-33.90167,0 18.43388,-33.90161,0 18.43125,-33.90129,0 18.42923,-33.90097,0 18.42783,-33.90079,0 18.42794,-33.89932,0 18.42889,-33.89781,0 18.43019,-33.8958,0 18.43153,-33.89374,0 18.43282,-33.89168,0 18.43456,-33.88824,0 18.43472,-33.88351,0 18.43203,-33.879,0 18.42825,-33.87537,0 18.42329,-33.87314,0 18.41679,-33.873,0 18.41124,-33.87424,0 18.40542,-33.87625,0 18.3998,-33.87868,0 18.39442,-33.88142,0 18.38905,-33.88482,0 18.38467,-33.88834,0 18.38013,-33.89282,0 18.37624,-33.89738,0 18.37234,-33.90221,0 18.36885,-33.90688,0 18.36522,-33.912,0 18.36168,-33.91708,0 18.35833,-33.92225,0 18.3553,-33.92743,0 18.35255,-33.93283,0 18.35003,-33.93854,0 18.34773,-33.94432,0 18.34219,-33.95762,0 18.35429,-33.96378,0 18.35872,-33.95183,0 18.359,-33.94487,0 18.36021,-33.93863,0 18.36174,-33.93237,0 18.36411,-33.92685,0 18.36742,-33.9215,0 18.37127,-33.91653,0 18.37542,-33.91164,0 18.37973,-33.90701,0 18.38472,-33.90248,0 18.38968,-33.8985,0 18.39558,-33.89482,0 18.4021,-33.89168,0 18.40961,-33.88934,0 18.41715,-33.88779,0 18.42458,-33.88651,0 18.43203,-33.88528,0 18.43921,-33.88651,0 18.4441,-33.89063,0 18.4465,-33.89599,0 18.44467,-33.90088,0 18.43935,-33.9019,0 18.4354,-33.89957,0 18.4322,-33.89928,0 18.43029,-33.89969,0 18.42848,-33.90022,0 18.42738,-33.90033,0 18.42811,-33.89854,0 18.4294,-33.89639,0 18.43031,-33.89492,0 18.43147,-33.89301,0 18.43374,-33.88933,0 18.43557,-33.88514,0 18.43416,-33.88074,0 18.43097,-33.87671,0 18.42632,-33.87383,0 18.4203,-33.87285,0 18.41443,-33.87341,0 18.40908,-33.8749,0 18.40372,-33.87694,0 18.39823,-33.87968,0 18.39336,-33.88252,0 18.38842,-33.88577,0 18.38411,-33.88916,0 18.37968,-33.89314,0 18.37521,-33.89757,0 18.37057,-33.90227,0 18.36657,-33.9067,0 18.36296,-33.91121,0 18.35944,-33.91608,0 18.35619,-33.92111,0 18.35367,-33.92592,0 18.35112,-33.93113,0 18.34871,-33.93663,0 18.34638,-33.94221,0 18.34419,-33.94757,0 18.34139,-33.95641,0 18.34874,-33.96373,0 18.35877,-33.9527,0 18.36028,-33.94652,0 18.36157,-33.94011,0 18.36314,-33.93361,0 18.36561,-33.92802,0 18.36858,-33.92267,0 18.37166,-33.91782,0 18.37561,-33.91261,0 18.37962,-33.90802,0 18.38385,-33.90367,0 18.3894,-33.89901,0 18.39495,-33.89548,0 18.40181,-33.89236,0 18.40883,-33.88985,0 18.41669,-33.88761,0 18.42373,-33.88607,0 18.43108,-33.88554,0 18.43842,-33.8882,0 18.44376,-33.8925,0 18.44599,-33.89813,0 18.44257,-33.90262,0 18.43635,-33.90189,0 18.43265,-33.89864,0 18.43074,-33.90097,0 18.42957,-33.90292,0 18.42859,-33.90167,0 18.42816,-33.90033,0 18.42796,-33.89911,0 18.42871,-33.89771,0 18.42962,-33.89603,0 18.43063,-33.89429,0 18.43168,-33.8924,0 18.43386,-33.88873,0 18.4354,-33.88491,0 18.43371,-33.88019,0 18.42928,-33.8762,0 18.42368,-33.87387,0 18.41735,-33.87332,0 18.41017,-33.87451,0 18.40429,-33.87634,0 18.39846,-33.87863,0 18.39243,-33.88156,0 18.38728,-33.88505,0 18.38259,-33.88887,0 18.37816,-33.89264,0 18.37355,-33.89706,0 18.36987,-33.90138,0 18.36611,-33.90651,0 18.36262,-33.91177,0 18.3595,-33.91695,0 18.35667,-33.92215,0 18.34871,-33.93714,0 18.34381,-33.94826,0 18.34151,-33.95416,0 18.34173,-33.96377,0 18.35602,-33.96007,0 18.35861,-33.95087,0 18.35967,-33.94469,0 18.36146,-33.93645,0 18.36365,-33.93059,0 18.36628,-33.92523,0 18.36976,-33.91965,0 18.37332,-33.91498,0 18.37761,-33.91009,0 18.38186,-33.90596,0 18.38708,-33.9017,0 18.3928,-33.89786,0 18.39901,-33.89464,0 18.40625,-33.89168,0 18.41309,-33.88961,0 18.42052,-33.88779,0 18.42751,-33.88635,0 18.43472,-33.88687,0 18.44078,-33.88976,0 18.44393,-33.89455,0 18.44341,-33.89983,0 18.43954,-33.90298,0 18.43472,-33.90001,0 18.43226,-33.89557,0 18.42899,-33.89585,0 18.42828,-33.89722,0 18.42783,-33.89859,0 18.42733,-33.90027,0
        </coordinates>
      </LineString>
    </Placemark>
  </Document>
</kml>