<?xml version="1.0" encoding="UTF-8"?>
<kml xmlns="http://www.opengis.net/kml/2.2">
  <Document>
    <name>FR24 ZSHGD 3e0681b7 - Optimised</name>
    <description><![CDATA[Optimised flight path with 317 points (decimated from 1584 original points). Source format: Standard KML]]></description>
    
    <Style id="flightPath">
      <LineStyle>
        <color>ffff0000</color>
        <width>3</width>
      </LineStyle>
    </Style>
    
    <Placemark>
      <name>Flight Path</name>
      <description><![CDATA[Source: ADS-B
Start (SAST): 2026-01-23 09:35:21
End (SAST): 2026-01-23 18:22:20
Points: 1584]]></description>
      <styleUrl>#flightPath</styleUrl>
      <LineString>
        <extrude>1</extrude>
        <tessellate>1</tessellate>
        <altitudeMode>absolute</altitudeMode>
        <coordinates>
          18.43237,-33.90193,53.34 18.43601,-33.90001,114.30000000000001 18.43912,-33.8979,160.02 18.44124,-33.89492,213.36 18.44152,-33.89124,251.46 18.44078,-33.88756,289.56 18.43887,-33.88376,312.42 18.43551,-33.88033,358.14000000000004 18.43085,-33.87749,403.86 18.42587,-33.87552,441.96000000000004 18.42054,-33.87424,480.06 18.41549,-33.8736,502.92 18.41051,-33.87336,525.78 18.40529,-33.87392,541.02 18.39998,-33.87523,556.26 18.3952,-33.87717,579.12 18.39078,-33.87955,594.36 18.38636,-33.8823,609.6 18.38237,-33.88522,640.08 18.37898,-33.88807,670.5600000000001 18.37549,-33.89138,701.0400000000001 18.37228,-33.89465,723.9000000000001 18.36914,-33.89827,731.52 18.36605,-33.90195,731.52 18.36157,-33.90779,739.14 18.35821,-33.91246,731.52 18.35518,-33.91713,723.9000000000001 18.35272,-33.92178,716.2800000000001 18.35076,-33.92688,731.52 18.34941,-33.93192,723.9000000000001 18.34851,-33.93677,723.9000000000001 18.34767,-33.94157,708.6600000000001 18.3466,-33.94729,693.4200000000001 18.3456,-33.95306,693.4200000000001 18.34471,-33.95818,693.4200000000001 18.34059,-33.97028,708.6600000000001 18.32945,-33.98854,685.8000000000001 18.3252,-33.9984,662.94 18.32419,-34.00356,647.7 18.32424,-34.00854,655.32 18.32565,-34.01321,662.94 18.32806,-34.01749,662.94 18.33108,-34.02145,670.5600000000001 18.33484,-34.02484,678.1800000000001 18.33848,-34.02832,685.8000000000001 18.34288,-34.03271,685.8000000000001 18.34649,-34.03661,678.1800000000001 18.3479,-34.04128,678.1800000000001 18.34762,-34.04626,678.1800000000001 18.34688,-34.05143,685.8000000000001 18.34574,-34.05659,685.8000000000001 18.34402,-34.06176,685.8000000000001 18.34201,-34.06659,678.1800000000001 18.34013,-34.07177,662.94 18.33876,-34.07666,670.5600000000001 18.33796,-34.08173,670.5600000000001 18.33775,-34.08714,670.5600000000001 18.33853,-34.09253,678.1800000000001 18.34059,-34.09798,662.94 18.34385,-34.10231,640.08 18.34906,-34.10608,632.46 18.35552,-34.10878,640.08 18.3617,-34.11101,624.84 18.36802,-34.11324,624.84 18.37374,-34.11539,609.6 18.38528,-34.11939,601.98 18.4029,-34.12521,571.5 18.40967,-34.12775,563.88 18.41499,-34.12981,556.26 18.43125,-34.13626,541.02 18.43718,-34.13787,533.4 18.44375,-34.13741,533.4 18.44918,-34.1347,525.78 18.45367,-34.13026,518.1600000000001 18.45815,-34.12592,502.92 18.46297,-34.1218,487.68 18.46865,-34.11809,472.44 18.47463,-34.11484,472.44 18.47866,-34.11041,495.3 18.47906,-34.10463,533.4 18.47732,-34.09973,548.64 18.47477,-34.09425,541.02 18.47205,-34.08907,541.02 18.46903,-34.08316,548.64 18.46447,-34.07498,571.5 18.46167,-34.06977,586.74 18.45892,-34.06455,594.36 18.45591,-34.05922,601.98 18.45126,-34.05185,594.36 18.44604,-34.04356,601.98 18.44427,-34.03811,609.6 18.44369,-34.03262,617.22 18.44442,-34.02667,632.46 18.44593,-34.02109,632.46 18.44759,-34.01567,624.84 18.44965,-34.01009,617.22 18.45204,-34.00443,632.46 18.45463,-33.99896,617.22 18.45782,-33.99403,601.98 18.46219,-33.98918,579.12 18.46678,-33.98474,556.26 18.47065,-33.98021,579.12 18.47363,-33.97527,586.74 18.47517,-33.9694,601.98 18.47519,-33.96355,594.36 18.47401,-33.95778,594.36 18.47189,-33.95201,579.12 18.46933,-33.94608,556.26 18.46561,-33.94107,541.02 18.46058,-33.93681,533.4 18.45589,-33.93286,525.78 18.45115,-33.92885,525.78 18.44363,-33.92285,495.3 18.4401,-33.91827,449.58000000000004 18.43969,-33.91275,419.1 18.44167,-33.9077,396.24 18.44364,-33.90302,388.62 18.44442,-33.89809,373.38 18.44369,-33.8931,373.38 18.44135,-33.88877,365.76 18.43775,-33.885,342.90000000000003 18.4336,-33.88225,342.90000000000003 18.42911,-33.88151,320.04 18.4271,-33.88348,289.56 18.42854,-33.88677,259.08000000000004 18.43063,-33.88962,243.84 18.43265,-33.89305,198.12 18.43422,-33.8963,144.78 18.43643,-33.89757,121.92 18.43534,-33.89618,83.82000000000001 18.43181,-33.89713,45.72 18.43031,-33.89776,22.86 18.42856,-33.89873,0 18.42693,-33.90036,0 18.42721,-33.90047,0 18.42779,-33.89925,0 18.42951,-33.89711,15.24 18.43085,-33.89502,45.72 18.43266,-33.89198,99.06 18.43431,-33.88849,121.92 18.43529,-33.88477,167.64000000000001 18.43456,-33.88142,213.36 18.43157,-33.87886,236.22 18.42682,-33.87753,259.08000000000004 18.42149,-33.87762,281.94 18.41681,-33.8783,312.42 18.41213,-33.87946,350.52000000000004 18.40765,-33.88086,388.62 18.4033,-33.88244,419.1 18.39896,-33.88426,449.58000000000004 18.39476,-33.88618,480.06 18.39077,-33.88826,502.92 18.38636,-33.89054,525.78 18.3822,-33.89305,533.4 18.37811,-33.89589,533.4 18.37379,-33.89905,541.02 18.37,-33.90246,556.26 18.36634,-33.90628,563.88 18.36297,-33.91003,563.88 18.35993,-33.91372,579.12 18.35675,-33.918,586.74 18.35406,-33.92175,594.36 18.34934,-33.92867,617.22 18.34562,-33.93388,632.46 18.33916,-33.943,655.32 18.3379,-33.94775,655.32 18.34042,-33.95185,647.7 18.34608,-33.95343,662.94 18.35137,-33.95187,678.1800000000001 18.35564,-33.94817,678.1800000000001 18.359,-33.94341,678.1800000000001 18.36152,-33.93855,670.5600000000001 18.36382,-33.93383,662.94 18.36651,-33.92848,655.32 18.36942,-33.92322,632.46 18.37263,-33.91805,624.84 18.37643,-33.91306,617.22 18.3803,-33.90856,617.22 18.38444,-33.90417,624.84 18.38877,-33.89999,617.22 18.39369,-33.89594,594.36 18.39895,-33.89231,579.12 18.40427,-33.88929,563.88 18.41023,-33.88628,541.02 18.41617,-33.8838,533.4 18.42323,-33.88239,502.92 18.43001,-33.8828,480.06 18.43663,-33.88412,464.82000000000005 18.44267,-33.88584,449.58000000000004 18.44829,-33.88788,441.96000000000004 18.4526,-33.89113,411.48 18.45384,-33.89561,358.14000000000004 18.45182,-33.89985,297.18 18.44666,-33.90202,213.36 18.441,-33.90134,144.78 18.43562,-33.90024,91.44 18.43158,-33.90001,45.72 18.43008,-33.90009,22.86 18.42794,-33.89996,0 18.42619,-33.89897,0 18.42613,-33.89738,15.24 18.4276,-33.8952,30.48 18.42968,-33.89296,53.34 18.43293,-33.8898,76.2 18.43597,-33.88621,99.06 18.43637,-33.88226,137.16 18.43338,-33.8795,167.64000000000001 18.42899,-33.87839,190.5 18.42424,-33.87849,220.98000000000002 18.41992,-33.87895,251.46 18.41532,-33.8796,266.7 18.41068,-33.88042,289.56 18.40576,-33.88146,304.8 18.40087,-33.88298,320.04 18.39616,-33.88472,342.90000000000003 18.39209,-33.88691,373.38 18.38853,-33.88943,411.48 18.38522,-33.89212,441.96000000000004 18.38207,-33.89478,472.44 18.3785,-33.89763,495.3 18.37503,-33.90027,518.1600000000001 18.37127,-33.90349,541.02 18.368,-33.90693,556.26 18.36508,-33.91074,571.5 18.36239,-33.91465,579.12 18.35956,-33.91859,601.98 18.35658,-33.92326,640.08 18.35438,-33.92732,647.7 18.3521,-33.93169,655.32 18.34812,-33.9397,670.5600000000001 18.34218,-33.95119,701.0400000000001 18.33383,-33.96574,723.9000000000001 18.32228,-33.98495,739.14 18.31415,-33.99728,739.14 18.31066,-34.00315,739.14 18.3081,-34.0074,746.76 18.30569,-34.01175,746.76 18.30379,-34.01586,746.76 18.3021,-34.02026,731.52 18.30059,-34.02461,723.9000000000001 18.29933,-34.02922,701.0400000000001 18.29905,-34.03411,693.4200000000001 18.2999,-34.03839,685.8000000000001 18.30185,-34.043,670.5600000000001 18.30451,-34.04736,655.32 18.30748,-34.05171,640.08 18.31051,-34.05597,632.46 18.31668,-34.06471,609.6 18.32049,-34.07021,601.98 18.32342,-34.07438,594.36 18.32637,-34.07835,579.12 18.32966,-34.08257,571.5 18.33298,-34.08652,563.88 18.3367,-34.09048,563.88 18.3405,-34.09392,563.88 18.34492,-34.09712,556.26 18.34951,-34.09966,556.26 18.3544,-34.10184,571.5 18.35939,-34.10394,579.12 18.36662,-34.10673,579.12 18.37612,-34.11041,563.88 18.39195,-34.1163,571.5 18.39729,-34.11827,594.36 18.40227,-34.12032,617.22 18.40726,-34.12244,617.22 18.41377,-34.12526,601.98 18.43046,-34.13297,556.26 18.43557,-34.13475,548.64 18.4413,-34.13573,548.64 18.4475,-34.13489,541.02 18.45268,-34.13256,541.02 18.45742,-34.12935,533.4 18.46235,-34.1254,525.78 18.46667,-34.12152,525.78 18.47121,-34.11717,518.1600000000001 18.47528,-34.11278,525.78 18.47832,-34.10817,525.78 18.47986,-34.1031,518.1600000000001 18.48057,-34.09763,510.54 18.48089,-34.09225,510.54 18.48113,-34.08678,502.92 18.48146,-34.076,472.44 18.48221,-34.05841,434.34000000000003 18.48248,-34.04846,441.96000000000004 18.48253,-34.04288,449.58000000000004 18.48248,-34.03752,457.20000000000005 18.48231,-34.02791,449.58000000000004 18.48214,-34.02315,449.58000000000004 18.48215,-34.01758,426.72 18.48203,-33.99664,411.48 18.48231,-33.98964,403.86 18.48276,-33.98419,381 18.48324,-33.97894,373.38 18.48366,-33.97357,342.90000000000003 18.48388,-33.96872,312.42 18.48381,-33.96028,297.18 18.48354,-33.95554,274.32 18.48284,-33.95059,274.32 18.48169,-33.94575,281.94 18.48003,-33.94068,289.56 18.47803,-33.93621,281.94 18.47546,-33.93216,274.32 18.47228,-33.92789,274.32 18.46869,-33.92377,266.7 18.4651,-33.91982,266.7 18.46146,-33.91589,274.32 18.45804,-33.91223,274.32 18.45513,-33.90907,266.7 18.45131,-33.90559,213.36 18.44742,-33.90283,175.26000000000002 18.44324,-33.9012,137.16 18.43853,-33.90079,99.06 18.43444,-33.9006,53.34 18.43208,-33.90041,30.48 18.43037,-33.90022,7.62 18.42854,-33.89994,0 18.42773,-33.90041,0
        </coordinates>
      </LineString>
    </Placemark>
  </Document>
</kml>