<?xml version="1.0" encoding="UTF-8"?>
<kml xmlns="http://www.opengis.net/kml/2.2">
  <Document>
    <name>FR24 401e0ccc - Optimised</name>
    <description><![CDATA[Optimised flight path with 180 points (decimated from 900 original points). Source format: Standard KML]]></description>
    
    <Style id="flightPath">
      <LineStyle>
        <color>ffff0000</color>
        <width>3</width>
      </LineStyle>
    </Style>
    
    <Placemark>
      <name>Flight Path</name>
      <description><![CDATA[Optimized flight path]]></description>
      <styleUrl>#flightPath</styleUrl>
      <LineString>
        <extrude>1</extrude>
        <tessellate>1</tessellate>
        <altitudeMode>absolute</altitudeMode>
        <coordinates>
          18.43007,-33.89461,0 18.43304,-33.88907,0 18.43231,-33.88509,0 18.42905,-33.88235,0 18.42447,-33.88033,0 18.41976,-33.87936,0 18.41432,-33.87904,0 18.40866,-33.87946,0 18.40353,-33.88053,0 18.39801,-33.88197,0 18.393,-33.88407,0 18.38865,-33.88691,0 18.38528,-33.8898,0 18.38214,-33.89282,0 18.37893,-33.89631,0 18.37595,-33.89976,0 18.37267,-33.90363,0 18.36903,-33.90833,0 18.36525,-33.91275,0 18.36208,-33.91704,0 18.35884,-33.92206,0 18.35933,-33.92734,0 18.36456,-33.92792,0 18.36679,-33.92457,0 18.36937,-33.9207,0 18.37263,-33.91661,0 18.37606,-33.9127,0 18.37955,-33.90865,0 18.38356,-33.90451,0 18.38802,-33.9006,0 18.39277,-33.89697,0 18.39829,-33.8941,0 18.40429,-33.89145,0 18.40982,-33.88919,0 18.416,-33.88737,0 18.42281,-33.88663,0 18.42934,-33.88807,0 18.43433,-33.892,0 18.43683,-33.89706,0 18.43797,-33.90312,0 18.43889,-33.90856,0 18.4401,-33.91466,0 18.44195,-33.92052,0 18.44473,-33.92587,0 18.44816,-33.93095,0 18.45025,-33.93613,0 18.45165,-33.94176,0 18.45316,-33.9472,0 18.42699,-33.90024,0 18.42738,-33.89891,0 18.42819,-33.89729,0 18.42912,-33.89561,0 18.43102,-33.89259,0 18.43315,-33.88957,0 18.43489,-33.88626,0 18.43294,-33.88272,0 18.42808,-33.88169,0 18.42281,-33.88216,0 18.41789,-33.88286,0 18.41286,-33.88361,0 18.40799,-33.88454,0 18.40311,-33.88614,0 18.39827,-33.8884,0 18.3938,-33.89101,0 18.38923,-33.89422,0 18.38472,-33.89786,0 18.38074,-33.90134,0 18.37665,-33.90536,0 18.37312,-33.90935,0 18.36943,-33.91377,0 18.36634,-33.91833,0 18.36376,-33.92336,0 18.3609,-33.92751,0 18.35587,-33.92797,0 18.35455,-33.92443,0 18.35855,-33.9212,0 18.36286,-33.91873,0 18.36757,-33.9158,0 18.37229,-33.91251,0 18.37699,-33.90889,0 18.38167,-33.90525,0 18.38671,-33.90181,0 18.39209,-33.89836,0 18.39997,-33.89346,0 18.40696,-33.88993,0 18.41286,-33.88802,0 18.41915,-33.88663,0 18.42553,-33.88669,0 18.43091,-33.88893,0 18.43489,-33.89342,0 18.4368,-33.89941,0 18.43809,-33.906,0 18.44032,-33.91224,0 18.44261,-33.91777,0 18.4452,-33.92363,0 18.44773,-33.92953,0 18.45011,-33.93528,0 18.4524,-33.94119,0 18.454,-33.9471,0 18.4549,-33.95334,0 18.45514,-33.95911,0 18.45524,-33.96497,0 18.4552,-33.97075,0 18.45537,-33.97624,0 18.45569,-33.98167,0 18.4563,-33.98749,0 18.45804,-33.99257,0 18.46269,-33.99577,0 18.46914,-33.99605,0 18.47452,-33.99399,0 18.47441,-33.98932,0 18.47134,-33.98518,0 18.46899,-33.98076,0 18.46727,-33.97596,0 18.46516,-33.97128,0 18.46264,-33.9662,0 18.46064,-33.96125,0 18.45827,-33.95618,0 18.45612,-33.9512,0 18.45285,-33.94412,0 18.45108,-33.93914,0 18.4498,-33.93439,0 18.44862,-33.92958,0 18.44745,-33.92459,0 18.44444,-33.91982,0 18.4429,-33.91484,0 18.44278,-33.90935,0 18.44285,-33.90445,0 18.4409,-33.90036,0 18.43663,-33.89996,0 18.43048,-33.89967,0 18.42766,-33.89992,0 18.42699,-33.90079,0 18.42688,-33.90097,0 18.42733,-33.89869,0 18.42842,-33.89636,0 18.4318,-33.89417,0 18.43562,-33.89516,0 18.43689,-33.89911,0 18.43652,-33.9039,0 18.43615,-33.90851,0 18.43752,-33.91279,0 18.43988,-33.91676,0 18.44229,-33.92102,0 18.44425,-33.92551,0 18.44655,-33.92999,0 18.44918,-33.93452,0 18.45222,-33.93975,0 18.4548,-33.94487,0 18.45772,-33.95073,0 18.46058,-33.95632,0 18.46367,-33.96209,0 18.46639,-33.96794,0 18.46936,-33.97408,0 18.47208,-33.97932,0 18.4754,-33.98486,0 18.47951,-33.9895,0 18.48267,-33.99407,0 18.48816,-33.99547,0 18.49463,-33.9944,0 18.50115,-33.99328,0 18.50796,-33.99189,0 18.51404,-33.99065,0 18.5202,-33.98964,0 18.52621,-33.98858,0 18.53203,-33.98689,0 18.53846,-33.98495,0 18.54464,-33.98277,0 18.55064,-33.98058,0 18.55625,-33.97773,0 18.56112,-33.9743,0 18.56598,-33.97122,0 18.57121,-33.96899,0 18.57674,-33.96777,0 18.58175,-33.96767,0 18.58629,-33.9684,0 18.59007,-33.97028,0 18.5923,-33.97261,0 18.59373,-33.97448,0 18.5947,-33.97606,0
        </coordinates>
      </LineString>
    </Placemark>
  </Document>
</kml>