<?xml version="1.0" encoding="UTF-8"?>
<kml xmlns="http://www.opengis.net/kml/2.2">
  <Document>
    <name>FR24 3ef84567 - Optimised</name>
    <description><![CDATA[Optimised flight path with 276 points (decimated from 1380 original points). Source format: Standard KML]]></description>
    
    <Style id="flightPath">
      <LineStyle>
        <color>ffff0000</color>
        <width>3</width>
      </LineStyle>
    </Style>
    
    <Placemark>
      <name>Flight Path</name>
      <description><![CDATA[Optimized flight path]]></description>
      <styleUrl>#flightPath</styleUrl>
      <LineString>
        <extrude>1</extrude>
        <tessellate>1</tessellate>
        <altitudeMode>absolute</altitudeMode>
        <coordinates>
          18.42968,-33.90246,0 18.43394,-33.90289,0 18.43689,-33.90111,0 18.43855,-33.89785,0 18.43865,-33.89346,0 18.43718,-33.88947,0 18.4341,-33.88623,0 18.42996,-33.88445,0 18.42531,-33.88358,0 18.42082,-33.88335,0 18.41623,-33.88346,0 18.41188,-33.88384,0 18.40759,-33.88449,0 18.4025,-33.88542,0 18.39834,-33.88669,0 18.39392,-33.88845,0 18.38954,-33.89076,0 18.38585,-33.89329,0 18.38219,-33.89603,0 18.37904,-33.89874,0 18.37587,-33.90147,0 18.37269,-33.90451,0 18.36948,-33.90784,0 18.36651,-33.91126,0 18.36416,-33.91484,0 18.3621,-33.91903,0 18.36045,-33.92308,0 18.35838,-33.92752,0 18.35658,-33.93192,0 18.35518,-33.93626,0 18.35401,-33.94048,0 18.35261,-33.94533,0 18.35066,-33.95162,0 18.34885,-33.95805,0 18.34517,-33.97852,0 18.34521,-33.989,0 18.34605,-33.99339,0 18.34706,-33.99815,0 18.34863,-34.00241,0 18.35042,-34.00635,0 18.35244,-34.01033,0 18.35541,-34.01474,0 18.35873,-34.01856,0 18.36241,-34.02187,0 18.36656,-34.0248,0 18.37088,-34.02745,0 18.37581,-34.02969,0 18.38114,-34.03189,0 18.38624,-34.03377,0 18.39146,-34.03588,0 18.39678,-34.03709,0 18.40267,-34.03574,0 18.40822,-34.03262,0 18.41234,-34.02838,0 18.41595,-34.02396,0 18.4197,-34.01985,0 18.42344,-34.01563,0 18.43472,-34.00254,0 18.43981,-33.99645,0 18.44319,-33.9917,0 18.44673,-33.98705,0 18.45075,-33.9825,0 18.45543,-33.97778,0 18.45995,-33.97355,0 18.46413,-33.96889,0 18.46723,-33.96327,0 18.46756,-33.95753,0 18.4663,-33.9512,0 18.46384,-33.94529,0 18.46092,-33.94017,0 18.45737,-33.93494,0 18.4536,-33.92992,0 18.44959,-33.92499,0 18.4461,-33.92001,0 18.44397,-33.91429,0 18.44307,-33.90834,0 18.44268,-33.90253,0 18.44218,-33.89717,0 18.44004,-33.89352,0 18.43624,-33.89195,0 18.43226,-33.89255,0 18.42985,-33.89431,0 18.42783,-33.89781,0 18.42715,-33.89973,0 18.42721,-33.90102,0 18.42878,-33.90207,0 18.43175,-33.90257,0 18.435,-33.90171,0 18.43746,-33.89925,0 18.43842,-33.89552,0 18.43763,-33.89157,0 18.43539,-33.88774,0 18.43145,-33.885,0 18.42665,-33.88403,0 18.42172,-33.88399,0 18.41618,-33.88416,0 18.41096,-33.88472,0 18.40553,-33.88556,0 18.39997,-33.88701,0 18.39526,-33.88875,0 18.39083,-33.89077,0 18.38671,-33.89338,0 18.38282,-33.89608,0 18.3787,-33.89878,0 18.37481,-33.90181,0 18.37138,-33.90518,0 18.36824,-33.90839,0 18.36519,-33.91172,0 18.36269,-33.91452,0 18.36034,-33.91736,0 18.35849,-33.92029,0 18.35675,-33.92381,0 18.35529,-33.92778,0 18.35412,-33.93224,0 18.3534,-33.93649,0 18.353,-33.94112,0 18.35311,-33.94588,0 18.35312,-33.95055,0 18.353,-33.95512,0 18.35535,-33.96716,0 18.36296,-33.97713,0 18.36382,-33.97429,0 18.36353,-33.97037,0 18.36292,-33.9651,0 18.36241,-33.96011,0 18.36153,-33.95022,0 18.36129,-33.94121,0 18.36185,-33.9353,0 18.36285,-33.9296,0 18.36451,-33.92382,0 18.36679,-33.91833,0 18.36981,-33.91342,0 18.37379,-33.90866,0 18.37818,-33.90479,0 18.38327,-33.90097,0 18.38854,-33.89753,0 18.3938,-33.89424,0 18.39941,-33.89105,0 18.40553,-33.88812,0 18.41163,-33.88632,0 18.41795,-33.88542,0 18.42419,-33.88496,0 18.43041,-33.88481,0 18.43569,-33.88575,0 18.43999,-33.88811,0 18.4421,-33.89189,0 18.44158,-33.89603,0 18.43865,-33.89891,0 18.43534,-33.90018,0 18.42979,-33.90018,0 18.42738,-33.90005,0 18.42732,-33.90138,0 18.43014,-33.90255,0 18.43371,-33.90266,0 18.43702,-33.90083,0 18.43872,-33.8972,0 18.4374,-33.89282,0 18.4341,-33.88911,0 18.42922,-33.88659,0 18.42333,-33.88547,0 18.41852,-33.88518,0 18.41452,-33.88523,0 18.41045,-33.88551,0 18.40642,-33.886,0 18.40004,-33.88752,0 18.39569,-33.8891,0 18.39195,-33.89104,0 18.38825,-33.89324,0 18.38456,-33.89575,0 18.38125,-33.89832,0 18.37788,-33.90097,0 18.37475,-33.90358,0 18.37166,-33.90637,0 18.36851,-33.9093,0 18.36542,-33.91247,0 18.36281,-33.91589,0 18.36033,-33.91978,0 18.3581,-33.92349,0 18.35644,-33.92732,0 18.35524,-33.93142,0 18.35421,-33.93565,0 18.35352,-33.94003,0 18.35272,-33.94463,0 18.35165,-33.94949,0 18.35032,-33.95399,0 18.34812,-33.9613,0 18.34488,-33.9775,0 18.34549,-33.98776,0 18.34665,-33.99295,0 18.34791,-33.99747,0 18.34963,-34.00166,0 18.35171,-34.00562,0 18.3534,-34.01004,0 18.35423,-34.0144,0 18.35495,-34.01865,0 18.35552,-34.02301,0 18.35609,-34.02731,0 18.3569,-34.03127,0 18.35748,-34.03537,0 18.3585,-34.03955,0 18.35872,-34.0437,0 18.35798,-34.04803,0 18.35754,-34.05212,0 18.35815,-34.05641,0 18.35924,-34.06055,0 18.36061,-34.06469,0 18.36286,-34.06902,0 18.36519,-34.07298,0 18.36737,-34.07693,0 18.36976,-34.08101,0 18.37206,-34.08485,0 18.37458,-34.08895,0 18.37727,-34.09273,0 18.38024,-34.0963,0 18.38321,-34.09937,0 18.38663,-34.10234,0 18.39033,-34.10532,0 18.39459,-34.10825,0 18.39907,-34.11064,0 18.40376,-34.11301,0 18.40868,-34.11539,0 18.4152,-34.11809,0 18.42087,-34.12004,0 18.42648,-34.12172,0 18.43203,-34.12302,0 18.43747,-34.12431,0 18.44285,-34.12532,0 18.4481,-34.1254,0 18.45367,-34.12413,0 18.45827,-34.12161,0 18.46132,-34.1179,0 18.46365,-34.11374,0 18.46527,-34.10915,0 18.46716,-34.10454,0 18.46712,-34.09987,0 18.46583,-34.09552,0 18.46426,-34.0909,0 18.46269,-34.08595,0 18.46073,-34.07964,0 18.45938,-34.07368,0 18.45863,-34.06814,0 18.45804,-34.06279,0 18.45753,-34.05693,0 18.45742,-34.05116,0 18.4572,-34.04558,0 18.4572,-34.03993,0 18.45737,-34.03441,0 18.45795,-34.02657,0 18.45967,-34.00813,0 18.46084,-33.99779,0 18.46144,-33.99212,0 18.46235,-33.98621,0 18.46355,-33.98099,0 18.46516,-33.97577,0 18.46701,-33.97073,0 18.46899,-33.96535,0 18.4697,-33.96043,0 18.46916,-33.9552,0 18.46716,-33.94985,0 18.4647,-33.94505,0 18.46189,-33.94021,0 18.45854,-33.93457,0 18.45423,-33.92766,0 18.44918,-33.91988,0 18.44633,-33.91442,0 18.44414,-33.90976,0 18.44221,-33.9046,0 18.44078,-33.89992,0 18.43924,-33.89506,0 18.43685,-33.89099,0 18.43243,-33.88896,0 18.42859,-33.89073,0 18.42772,-33.8936,0 18.42727,-33.89648,0 18.42715,-33.89873,0 18.4271,-33.90022,0
        </coordinates>
      </LineString>
    </Placemark>
  </Document>
</kml>