<?xml version="1.0" encoding="UTF-8"?>
<kml xmlns="http://www.opengis.net/kml/2.2">
  <Document>
    <name>FR24 41efe175 - Optimised</name>
    <description><![CDATA[Optimised flight path with 179 points (decimated from 894 original points). Source format: Standard KML]]></description>
    
    <Style id="flightPath">
      <LineStyle>
        <color>ffff0000</color>
        <width>3</width>
      </LineStyle>
    </Style>
    
    <Placemark>
      <name>Flight Path</name>
      <description><![CDATA[Optimized flight path]]></description>
      <styleUrl>#flightPath</styleUrl>
      <LineString>
        <extrude>1</extrude>
        <tessellate>1</tessellate>
        <altitudeMode>absolute</altitudeMode>
        <coordinates>
          18.43431,-33.89296,0 18.4368,-33.88879,0 18.43618,-33.88477,0 18.43293,-33.88188,0 18.42836,-33.88034,0 18.4235,-33.87955,0 18.41841,-33.87904,0 18.41286,-33.8783,0 18.40782,-33.87778,0 18.40311,-33.87776,0 18.39818,-33.87845,0 18.39346,-33.87979,0 18.3886,-33.88151,0 18.38411,-33.88316,0 18.37929,-33.88486,0 18.37515,-33.88668,0 18.3711,-33.88898,0 18.36754,-33.89128,0 18.36426,-33.89374,0 18.3609,-33.8965,0 18.35793,-33.89934,0 18.35496,-33.90248,0 18.35188,-33.90582,0 18.34661,-33.91232,0 18.34871,-33.91605,0 18.35415,-33.91558,0 18.35907,-33.91242,0 18.36365,-33.90884,0 18.3678,-33.90541,0 18.38332,-33.89365,0 18.39094,-33.88877,0 18.39552,-33.88635,0 18.40081,-33.88417,0 18.40647,-33.88234,0 18.41168,-33.88152,0 18.4174,-33.88129,0 18.42318,-33.88165,0 18.42861,-33.88261,0 18.43394,-33.88426,0 18.43865,-33.88614,0 18.44273,-33.8891,0 18.44532,-33.89323,0 18.4449,-33.89738,0 18.44313,-33.89955,0 18.44167,-33.90056,0 18.44022,-33.90102,0 18.43859,-33.90097,0 18.4368,-33.90074,0 18.43489,-33.9006,0 18.43343,-33.90056,0 18.43175,-33.9006,0 18.43008,-33.90064,0 18.42848,-33.90064,0 18.42719,-33.90102,0 18.42783,-33.89932,0 18.42951,-33.89777,0 18.43069,-33.89662,0 18.43311,-33.89422,0 18.43511,-33.89168,0 18.43655,-33.88826,0 18.43689,-33.88496,0 18.43523,-33.88151,0 18.43164,-33.87936,0 18.42688,-33.87807,0 18.42201,-33.87746,0 18.41686,-33.87727,0 18.41168,-33.87785,0 18.40696,-33.87909,0 18.40249,-33.88069,0 18.39798,-33.88277,0 18.39363,-33.88467,0 18.38934,-33.88682,0 18.38528,-33.88929,0 18.38133,-33.89208,0 18.37755,-33.89511,0 18.37413,-33.89822,0 18.37046,-33.90153,0 18.36634,-33.90474,0 18.36264,-33.90784,0 18.35939,-33.91095,0 18.35625,-33.91438,0 18.35335,-33.91815,0 18.35043,-33.92276,0 18.34784,-33.92757,0 18.34487,-33.93256,0 18.34196,-33.93741,0 18.33809,-33.94432,0 18.33389,-33.95301,0 18.33057,-33.96098,0 18.3288,-33.96647,0 18.32726,-33.97201,0 18.32605,-33.97727,0 18.32434,-33.98314,0 18.32346,-33.98827,0 18.32267,-33.99339,0 18.32205,-33.99836,0 18.32136,-34.00334,0 18.32088,-34.00928,0 18.32071,-34.01427,0 18.32206,-34.01917,0 18.32351,-34.02402,0 18.32508,-34.02871,0 18.3264,-34.0335,0 18.32714,-34.03867,0 18.32733,-34.04333,0 18.3271,-34.04782,0 18.32663,-34.05291,0 18.32628,-34.05859,0 18.32581,-34.06435,0 18.32598,-34.07016,0 18.32749,-34.07579,0 18.3294,-34.08151,0 18.33206,-34.08643,0 18.33573,-34.09081,0 18.33999,-34.09547,0 18.34505,-34.09975,0 18.35049,-34.10277,0 18.35712,-34.10496,0 18.36445,-34.10608,0 18.37133,-34.10774,0 18.37777,-34.11063,0 18.38259,-34.11273,0 18.38814,-34.11548,0 18.39346,-34.11827,0 18.39827,-34.12056,0 18.40339,-34.12317,0 18.40874,-34.12577,0 18.41393,-34.12834,0 18.41972,-34.13103,0 18.42522,-34.13331,0 18.43097,-34.13562,0 18.43723,-34.13731,0 18.44324,-34.13782,0 18.44851,-34.13713,0 18.45428,-34.13521,0 18.45932,-34.13187,0 18.46413,-34.12791,0 18.46886,-34.12358,0 18.47288,-34.11795,0 18.47723,-34.11306,0 18.47962,-34.10728,0 18.48001,-34.10101,0 18.4798,-34.09467,0 18.47968,-34.08797,0 18.48007,-34.0816,0 18.48074,-34.07556,0 18.48164,-34.06921,0 18.48318,-34.06311,0 18.48478,-34.05698,0 18.48567,-34.05093,0 18.48667,-34.04454,0 18.4873,-34.03858,0 18.48759,-34.03243,0 18.48803,-34.02686,0 18.4885,-34.02094,0 18.48873,-34.01525,0 18.48976,-34.00222,0 18.49016,-33.99619,0 18.49072,-33.98035,0 18.49033,-33.96637,0 18.48976,-33.95967,0 18.48865,-33.95316,0 18.48707,-33.94696,0 18.48495,-33.94084,0 18.48238,-33.93453,0 18.47946,-33.92895,0 18.47614,-33.92327,0 18.47228,-33.91768,0 18.46819,-33.91296,0 18.46348,-33.90848,0 18.45892,-33.90427,0 18.45468,-33.90015,0 18.45019,-33.89758,0 18.44501,-33.89682,0 18.43994,-33.89694,0 18.43506,-33.89808,0 18.43168,-33.89897,0 18.42968,-33.89919,0 18.42839,-33.90015,0
        </coordinates>
      </LineString>
    </Placemark>
  </Document>
</kml>