<?xml version="1.0" encoding="UTF-8"?>
<kml xmlns="http://www.opengis.net/kml/2.2">
  <Document>
    <name>FR24 ZSRTG 3e36d380 - Optimised</name>
    <description><![CDATA[Optimised flight path with 255 points (decimated from 1271 original points). Source format: Standard KML]]></description>
    
    <Style id="flightPath">
      <LineStyle>
        <color>ffff0000</color>
        <width>3</width>
      </LineStyle>
    </Style>
    
    <Placemark>
      <name>Flight Path</name>
      <description><![CDATA[Park boundary / NP17 restricted airspace. Red track segments show flight inside this area.]]></description>
      <styleUrl>#flightPath</styleUrl>
      <LineString>
        <extrude>1</extrude>
        <tessellate>1</tessellate>
        <altitudeMode>absolute</altitudeMode>
        <coordinates>
          18.43226,-33.90088,53.34 18.43781,-33.90079,121.92 18.44106,-33.90138,160.02 18.44425,-33.90253,182.88 18.44753,-33.90418,190.5 18.45092,-33.9061,205.74 18.45417,-33.90825,213.36 18.45765,-33.91045,243.84 18.46104,-33.9127,281.94 18.46424,-33.91489,304.8 18.46796,-33.91727,304.8 18.47225,-33.91973,312.42 18.47643,-33.92201,320.04 18.48066,-33.92434,327.66 18.48579,-33.92715,320.04 18.49051,-33.93007,327.66 18.49504,-33.93283,327.66 18.4992,-33.93537,335.28000000000003 18.50361,-33.93784,342.90000000000003 18.50847,-33.94068,335.28000000000003 18.5132,-33.94327,320.04 18.51831,-33.94598,320.04 18.52352,-33.94854,320.04 18.52901,-33.95087,327.66 18.53455,-33.95288,327.66 18.54038,-33.95471,320.04 18.54604,-33.95645,320.04 18.55232,-33.957,320.04 18.55877,-33.95677,320.04 18.56535,-33.9566,320.04 18.57698,-33.95609,335.28000000000003 18.58349,-33.95534,350.52000000000004 18.59032,-33.95494,342.90000000000003 18.59682,-33.9546,342.90000000000003 18.60608,-33.95421,342.90000000000003 18.61235,-33.95421,342.90000000000003 18.61913,-33.95421,342.90000000000003 18.62566,-33.95422,342.90000000000003 18.64054,-33.95418,350.52000000000004 18.65232,-33.95421,358.14000000000004 18.67082,-33.95471,350.52000000000004 18.6874,-33.95492,358.14000000000004 18.70068,-33.95515,350.52000000000004 18.70725,-33.95531,350.52000000000004 18.71384,-33.95544,358.14000000000004 18.72208,-33.95553,365.76 18.72861,-33.95508,373.38 18.73567,-33.95412,365.76 18.7429,-33.9532,358.14000000000004 18.7504,-33.95176,342.90000000000003 18.75731,-33.95023,350.52000000000004 18.76425,-33.94883,358.14000000000004 18.77507,-33.94666,358.14000000000004 18.79279,-33.9435,365.76 18.80024,-33.94198,373.38 18.80733,-33.94059,373.38 18.81381,-33.93924,373.38 18.8207,-33.93759,373.38 18.82743,-33.93622,381 18.83486,-33.93518,396.24 18.84218,-33.93435,396.24 18.84962,-33.93361,373.38 18.85697,-33.93274,373.38 18.86381,-33.93182,381 18.87096,-33.93085,403.86 18.87766,-33.92988,426.72 18.88415,-33.92885,441.96000000000004 18.89133,-33.92747,464.82000000000005 18.89906,-33.92578,487.68 18.90553,-33.92466,518.1600000000001 18.91173,-33.92299,518.1600000000001 18.91896,-33.92043,502.92 18.92561,-33.91824,502.92 18.93517,-33.91517,518.1600000000001 18.9533,-33.90977,510.54 18.96137,-33.90693,510.54 18.96739,-33.90472,510.54 18.97389,-33.90271,525.78 18.98008,-33.90078,533.4 18.98594,-33.89909,533.4 18.9996,-33.89585,541.02 19.00567,-33.89502,533.4 19.01201,-33.89436,518.1600000000001 19.01836,-33.89338,510.54 19.03819,-33.88989,480.06 19.04686,-33.88956,480.06 19.05377,-33.88962,480.06 19.06005,-33.88989,480.06 19.07428,-33.89085,426.72 19.08211,-33.89185,419.1 19.10601,-33.89406,480.06 19.09327,-33.89315,502.92 19.08663,-33.89273,518.1600000000001 19.08,-33.89214,518.1600000000001 19.0733,-33.89133,525.78 19.06621,-33.8903,541.02 19.05618,-33.88911,541.02 19.04932,-33.889,533.4 19.04261,-33.88911,548.64 19.03477,-33.88957,579.12 19.02763,-33.89008,579.12 19.01934,-33.89073,579.12 19.01173,-33.89096,571.5 19.00142,-33.89323,594.36 18.99592,-33.89626,617.22 18.99353,-33.90088,662.94 18.79766,-33.9411,365.76 18.77956,-33.9472,358.14000000000004 18.77468,-33.94922,358.14000000000004 18.76957,-33.95152,358.14000000000004 18.76644,-33.95508,358.14000000000004 18.76768,-33.95938,365.76 18.77317,-33.96062,381 18.77815,-33.95674,396.24 18.77661,-33.95181,381 18.771,-33.95041,365.76 18.76705,-33.95348,342.90000000000003 18.7674,-33.95762,350.52000000000004 18.77192,-33.96041,350.52000000000004 18.77798,-33.95958,358.14000000000004 18.78124,-33.95421,365.76 18.77832,-33.95027,365.76 18.77283,-33.95018,358.14000000000004 18.76717,-33.95119,342.90000000000003 18.76089,-33.95247,335.28000000000003 18.7554,-33.95343,335.28000000000003 18.74935,-33.95448,320.04 18.74374,-33.95531,312.42 18.73707,-33.95595,312.42 18.73096,-33.95631,304.8 18.72491,-33.95654,297.18 18.71813,-33.95655,289.56 18.71155,-33.9565,289.56 18.70239,-33.9565,289.56 18.69464,-33.95636,289.56 18.67721,-33.95595,312.42 18.66846,-33.95534,297.18 18.66228,-33.95488,289.56 18.65582,-33.95413,289.56 18.64957,-33.95343,274.32 18.6434,-33.95297,266.7 18.63651,-33.95251,251.46 18.63012,-33.95208,243.84 18.62334,-33.9516,243.84 18.60366,-33.94977,236.22 18.59768,-33.9491,251.46 18.59173,-33.94853,251.46 18.58539,-33.94839,259.08000000000004 18.57937,-33.94854,266.7 18.57323,-33.94876,259.08000000000004 18.56073,-33.94908,266.7 18.5396,-33.94908,274.32 18.52753,-33.9485,266.7 18.52049,-33.94715,266.7 18.51414,-33.94594,274.32 18.50759,-33.94441,281.94 18.5026,-33.94075,297.18 18.49778,-33.93686,304.8 18.49274,-33.93309,297.18 18.48691,-33.92908,289.56 18.48112,-33.9255,281.94 18.47491,-33.92166,274.32 18.46381,-33.91512,274.32 18.45852,-33.91107,281.94 18.45325,-33.90609,281.94 18.44851,-33.90092,266.7 18.44526,-33.89529,259.08000000000004 18.4449,-33.88938,259.08000000000004 18.44908,-33.88779,259.08000000000004 18.45064,-33.89003,297.18 18.44753,-33.8932,205.74 18.4429,-33.89594,175.26000000000002 18.43775,-33.89766,137.16 18.43351,-33.89855,99.06 18.42985,-33.89943,45.72 18.42836,-33.89976,22.86 18.42699,-33.90027,7.62 18.42779,-33.90129,22.86 18.42939,-33.90115,38.1 18.43283,-33.89981,68.58 18.43629,-33.89795,106.68 18.43881,-33.89511,137.16 18.43975,-33.89101,182.88 18.43848,-33.88678,213.36 18.43439,-33.88422,266.7 18.43153,-33.886,304.8 18.43181,-33.88907,320.04 18.42871,-33.8905,327.66 18.42459,-33.889,358.14000000000004 18.42048,-33.88765,381 18.41595,-33.88655,419.1 18.41131,-33.88579,457.20000000000005 18.4067,-33.88573,487.68 18.4021,-33.88626,518.1600000000001 18.39746,-33.88728,548.64 18.39323,-33.889,579.12 18.38905,-33.8911,601.98 18.38495,-33.89355,632.46 18.38114,-33.89616,647.7 18.37704,-33.89915,662.94 18.37269,-33.90255,678.1800000000001 18.36897,-33.90596,693.4200000000001 18.36559,-33.90963,716.2800000000001 18.36273,-33.91349,723.9000000000001 18.36023,-33.91759,731.52 18.35815,-33.92178,739.14 18.35649,-33.92653,746.76 18.35513,-33.93114,754.38 18.35384,-33.93599,762 18.35266,-33.9411,762 18.35092,-33.94835,777.24 18.34929,-33.95334,777.24 18.34717,-33.95837,777.24 18.34268,-33.96758,784.86 18.33971,-33.97481,784.86 18.33693,-33.98257,800.1 18.3359,-33.98807,792.48 18.3354,-33.99358,784.86 18.33527,-33.9992,784.86 18.33527,-34.00408,792.48 18.33567,-34.00939,792.48 18.33624,-34.0146,792.48 18.33742,-34.01971,769.62 18.33864,-34.02447,762 18.33956,-34.0295,739.14 18.33996,-34.03471,739.14 18.34011,-34.03999,723.9000000000001 18.34022,-34.04718,716.2800000000001 18.34082,-34.06115,670.5600000000001 18.34225,-34.0747,617.22 18.34364,-34.07964,609.6 18.34739,-34.13068,434.34000000000003 18.34689,-34.12202,464.82000000000005 18.34257,-34.11923,464.82000000000005 18.34072,-34.1228,449.58000000000004 18.34526,-34.12349,449.58000000000004 18.34851,-34.11868,449.58000000000004 18.34818,-34.11305,464.82000000000005 18.34678,-34.10733,464.82000000000005 18.34453,-34.10124,472.44 18.34179,-34.09528,480.06 18.33887,-34.08916,480.06 18.33478,-34.08078,480.06 18.33115,-34.07526,480.06 18.3264,-34.0693,480.06 18.32165,-34.06376,472.44 18.31701,-34.0589,472.44 18.31106,-34.0532,480.06 18.30299,-34.0362,464.82000000000005 18.30603,-34.03071,449.58000000000004 18.31312,-34.02247,434.34000000000003 18.32323,-34.01138,434.34000000000003 18.33006,-34.00203,419.1 18.34333,-33.98555,388.62 18.35318,-33.9748,396.24
        </coordinates>
      </LineString>
    </Placemark>
    <Placemark>
      <name>Entry 1</name>
      <description><![CDATA[Entry into TMNP (incursion 1) at 2026-02-06 17:11:18 SAST]]></description>
      <Style>
        <IconStyle>
          <color>ff00ff00</color>
          <scale>0.8</scale>
          <Icon><href>http://maps.google.com/mapfiles/kml/shapes/placemark_circle.png</href></Icon>
        </IconStyle>
      </Style>
      <Point>
        <coordinates>18.338655708259253,-34.024552237357256,761.2959003794566</coordinates>
      </Point>
    </Placemark>
    <Placemark>
      <name>Exit 1</name>
      <description><![CDATA[Exit from TMNP (incursion 1) at 2026-02-06 17:11:42 SAST]]></description>
      <Style>
        <IconStyle>
          <color>ff0000ff</color>
          <scale>0.8</scale>
          <Icon><href>http://maps.google.com/mapfiles/kml/shapes/placemark_circle.png</href></Icon>
        </IconStyle>
      </Style>
      <Point>
        <coordinates>18.339944780706873,-34.03559271900125,739.14</coordinates>
      </Point>
    </Placemark>
    <Placemark>
      <name>Entry 2</name>
      <description><![CDATA[Entry into TMNP (incursion 2) at 2026-02-06 17:12:27 SAST]]></description>
      <Style>
        <IconStyle>
          <color>ff00ff00</color>
          <scale>0.8</scale>
          <Icon><href>http://maps.google.com/mapfiles/kml/shapes/placemark_circle.png</href></Icon>
        </IconStyle>
      </Style>
      <Point>
        <coordinates>18.340566002129094,-34.05657003459776,689.7623188815638</coordinates>
      </Point>
    </Placemark>
    <Placemark>
      <name>Exit 2</name>
      <description><![CDATA[Exit from TMNP (incursion 2) at 2026-02-06 17:12:38 SAST]]></description>
      <Style>
        <IconStyle>
          <color>ff0000ff</color>
          <scale>0.8</scale>
          <Icon><href>http://maps.google.com/mapfiles/kml/shapes/placemark_circle.png</href></Icon>
        </IconStyle>
      </Style>
      <Point>
        <coordinates>18.34084640699271,-34.06150494104909,668.7845180783048</coordinates>
      </Point>
    </Placemark>
    <Placemark>
      <name>Entry 3</name>
      <description><![CDATA[Entry into TMNP (incursion 3) at 2026-02-06 18:17:49 SAST]]></description>
      <Style>
        <IconStyle>
          <color>ff00ff00</color>
          <scale>0.8</scale>
          <Icon><href>http://maps.google.com/mapfiles/kml/shapes/placemark_circle.png</href></Icon>
        </IconStyle>
      </Style>
      <Point>
        <coordinates>18.364458662124502,-34.182757016038614,367.29711062438787</coordinates>
      </Point>
    </Placemark>
    <Placemark>
      <name>Exit 3</name>
      <description><![CDATA[Exit from TMNP (incursion 3) at 2026-02-06 18:19:46 SAST]]></description>
      <Style>
        <IconStyle>
          <color>ff0000ff</color>
          <scale>0.8</scale>
          <Icon><href>http://maps.google.com/mapfiles/kml/shapes/placemark_circle.png</href></Icon>
        </IconStyle>
      </Style>
      <Point>
        <coordinates>18.346777241492514,-34.12462033045078,449.58000000000004</coordinates>
      </Point>
    </Placemark>
  </Document>
</kml>