<?xml version="1.0" encoding="UTF-8"?>
<kml xmlns="http://www.opengis.net/kml/2.2">
  <Document>
    <name>FR24 413ebe70 - Optimised</name>
    <description><![CDATA[Optimised flight path with 283 points (decimated from 1411 original points). Source format: Standard KML]]></description>
    
    <Style id="flightPath">
      <LineStyle>
        <color>ffff0000</color>
        <width>3</width>
      </LineStyle>
    </Style>
    
    <Placemark>
      <name>Flight Path</name>
      <description><![CDATA[Optimized flight path]]></description>
      <styleUrl>#flightPath</styleUrl>
      <LineString>
        <extrude>1</extrude>
        <tessellate>1</tessellate>
        <altitudeMode>absolute</altitudeMode>
        <coordinates>
          18.43338,-33.89204,0 18.43569,-33.88556,0 18.43388,-33.88152,0 18.42945,-33.87881,0 18.42368,-33.87762,0 18.41749,-33.87746,0 18.41194,-33.87811,0 18.40647,-33.87987,0 18.40081,-33.88142,0 18.39565,-33.88307,0 18.3905,-33.88522,0 18.38585,-33.88788,0 18.38167,-33.89073,0 18.37716,-33.89397,0 18.37309,-33.89724,0 18.36948,-33.9006,0 18.366,-33.90408,0 18.36279,-33.90786,0 18.35989,-33.91196,0 18.35735,-33.91661,0 18.35501,-33.92136,0 18.35289,-33.92638,0 18.35081,-33.93114,0 18.34633,-33.94167,0 18.34403,-33.94647,0 18.34145,-33.95183,0 18.33933,-33.95688,0 18.34951,-33.95515,0 18.35272,-33.94849,0 18.35821,-33.93714,0 18.3617,-33.93085,0 18.36794,-33.91936,0 18.37481,-33.90749,0 18.37881,-33.90185,0 18.38345,-33.89627,0 18.38898,-33.89104,0 18.39487,-33.88728,0 18.4021,-33.88421,0 18.40899,-33.88266,0 18.41695,-33.88197,0 18.42527,-33.88268,0 18.43158,-33.88486,0 18.43719,-33.88811,0 18.44158,-33.89175,0 18.4441,-33.89594,0 18.44167,-33.89873,0 18.43758,-33.89905,0 18.43431,-33.89939,0 18.43157,-33.89976,0 18.42968,-33.90009,0 18.42762,-33.90069,0 18.42766,-33.89951,0 18.42889,-33.89809,0 18.43002,-33.89655,0 18.43145,-33.89441,0 18.4334,-33.89115,0 18.43523,-33.88669,0 18.43461,-33.88211,0 18.43186,-33.87836,0 18.42727,-33.87524,0 18.42213,-33.87346,0 18.41628,-33.87296,0 18.40933,-33.87337,0 18.40319,-33.87406,0 18.39741,-33.87588,0 18.39191,-33.87858,0 18.3873,-33.88161,0 18.38254,-33.88513,0 18.37847,-33.88835,0 18.37446,-33.8918,0 18.37127,-33.8952,0 18.36819,-33.89905,0 18.36519,-33.90316,0 18.36269,-33.90715,0 18.3601,-33.91154,0 18.35758,-33.91638,0 18.35546,-33.92097,0 18.35358,-33.92634,0 18.35165,-33.93155,0 18.34952,-33.9369,0 18.34723,-33.94231,0 18.34492,-33.94785,0 18.33847,-33.96558,0 18.34851,-33.95847,0 18.35197,-33.95008,0 18.35472,-33.9438,0 18.35833,-33.93644,0 18.36205,-33.9296,0 18.36617,-33.92215,0 18.37071,-33.91479,0 18.37481,-33.9086,0 18.37927,-33.90297,0 18.3839,-33.89771,0 18.38943,-33.89227,0 18.39523,-33.88794,0 18.40176,-33.88445,0 18.40586,-33.87996,0 18.40359,-33.87462,0 18.40109,-33.86938,0 18.40552,-33.86595,0 18.41275,-33.86581,0 18.41915,-33.86838,0 18.42447,-33.87231,0 18.42922,-33.87713,0 18.4331,-33.88193,0 18.43683,-33.88654,0 18.44022,-33.89099,0 18.44229,-33.89516,0 18.44027,-33.89785,0 18.43666,-33.8985,0 18.43323,-33.89915,0 18.43088,-33.89976,0 18.42922,-33.90051,0 18.4276,-33.90051,0 18.42973,-33.89699,0 18.43108,-33.89484,0 18.43214,-33.89305,0 18.43346,-33.89059,0 18.43495,-33.886,0 18.43346,-33.88146,0 18.42951,-33.87755,0 18.42447,-33.87499,0 18.41869,-33.87373,0 18.41217,-33.87411,0 18.40611,-33.87569,0 18.39998,-33.8782,0 18.3942,-33.88114,0 18.38923,-33.88412,0 18.38367,-33.88789,0 18.37887,-33.89185,0 18.37463,-33.89589,0 18.37046,-33.90046,0 18.36662,-33.9052,0 18.36342,-33.90986,0 18.36028,-33.91498,0 18.35748,-33.9201,0 18.35461,-33.92504,0 18.35077,-33.93239,0 18.34866,-33.93728,0 18.34649,-33.94272,0 18.34448,-33.94817,0 18.34207,-33.95338,0 18.33738,-33.96344,0 18.34351,-33.96712,0 18.34951,-33.95497,0 18.35821,-33.93668,0 18.36908,-33.91689,0 18.37652,-33.90488,0 18.3803,-33.89994,0 18.38506,-33.89488,0 18.39044,-33.89044,0 18.39632,-33.88705,0 18.40296,-33.88444,0 18.41011,-33.88263,0 18.41662,-33.8817,0 18.42367,-33.8816,0 18.43008,-33.88305,0 18.43517,-33.88651,0 18.43912,-33.89045,0 18.44118,-33.89492,0 18.43825,-33.89795,0 18.43409,-33.89911,0 18.43088,-33.89976,0 18.42912,-33.90015,0 18.42756,-33.90046,0 18.4762,-34.23578,0 18.4776,-34.23596,0 18.48015,-34.23442,0 18.48119,-34.23065,0 18.48119,-34.22585,0 18.48112,-34.22064,0 18.48113,-34.21317,0 18.48101,-34.20789,0 18.48074,-34.20255,0 18.48052,-34.19719,0 18.48024,-34.19119,0 18.47929,-34.17288,0 18.47918,-34.15766,0 18.47951,-34.13736,0 18.48007,-34.1153,0 18.47996,-34.09314,0 18.48052,-34.06952,0 18.48204,-34.04929,0 18.48259,-34.04201,0 18.48341,-34.03327,0 18.4845,-34.01816,0 18.48444,-34.00362,0 18.48438,-33.9808,0 18.48421,-33.95921,0 18.48366,-33.94469,0 18.48255,-33.93844,0 18.48038,-33.93179,0 18.47712,-33.9255,0 18.47162,-33.92071,0 18.4659,-33.91661,0 18.45967,-33.91214,0 18.45378,-33.90724,0 18.44902,-33.90279,0 18.4437,-33.89864,0 18.43849,-33.89757,0 18.43409,-33.89855,0 18.43102,-33.89919,0 18.42923,-33.89969,0 18.42745,-33.90004,0 18.42693,-33.90106,0 18.42756,-33.89957,0 18.42895,-33.89827,0 18.43191,-33.89701,0 18.43489,-33.89678,0 18.43746,-33.89753,0 18.44111,-33.89992,0 18.44507,-33.90311,0 18.44873,-33.90628,0 18.45271,-33.90962,0 18.45664,-33.91306,0 18.45995,-33.91642,0 18.46365,-33.91997,0 18.46774,-33.92386,0 18.47139,-33.92764,0 18.47491,-33.9315,0 18.47799,-33.93594,0 18.48007,-33.9407,0 18.48141,-33.94542,0 18.48227,-33.95027,0 18.48272,-33.9553,0 18.48284,-33.96018,0 18.48295,-33.96535,0 18.48284,-33.97024,0 18.48259,-33.97517,0 18.48238,-33.97978,0 18.48203,-33.98479,0 18.48175,-33.9928,0 18.48158,-33.99878,0 18.48124,-34.00362,0 18.48066,-34.00967,0 18.48041,-34.01454,0 18.48021,-34.01935,0 18.47986,-34.02443,0 18.47951,-34.02933,0 18.479,-34.03656,0 18.4786,-34.04328,0 18.47786,-34.05185,0 18.47752,-34.05715,0 18.47712,-34.06246,0 18.47682,-34.0697,0 18.47637,-34.07615,0 18.47626,-34.08206,0 18.47637,-34.08728,0 18.47757,-34.10347,0 18.47805,-34.11136,0 18.47849,-34.11688,0 18.47895,-34.12181,0 18.47912,-34.12768,0 18.47934,-34.13301,0 18.47935,-34.13857,0 18.4794,-34.144,0 18.4794,-34.15393,0 18.47956,-34.15933,0 18.47928,-34.16487,0 18.47918,-34.17069,0 18.47895,-34.17618,0 18.47872,-34.18214,0 18.47878,-34.18736,0 18.47889,-34.19336,0 18.47855,-34.19881,0 18.47788,-34.20442,0 18.47687,-34.20978,0 18.47603,-34.21463,0 18.4757,-34.2193,0 18.47575,-34.22365,0 18.47574,-34.22725,0 18.47574,-34.23019,0 18.47574,-34.23214,0 18.47553,-34.23372,0 18.47514,-34.23491,0 18.4762,-34.23573,0 18.47811,-34.23578,0 18.47973,-34.23518,0 18.48118,-34.23396,0 18.48214,-34.23221,0 18.33988,-34.09254,0 18.42979,-33.89994,0 18.43164,-33.90047,0
        </coordinates>
      </LineString>
    </Placemark>
  </Document>
</kml>