<?xml version="1.0" encoding="UTF-8"?>
<kml xmlns="http://www.opengis.net/kml/2.2">
  <Document>
    <name>FR24 41b7ef74 - Optimised</name>
    <description><![CDATA[Optimised flight path with 198 points (decimated from 986 original points). Source format: Standard KML]]></description>
    
    <Style id="flightPath">
      <LineStyle>
        <color>ffff0000</color>
        <width>3</width>
      </LineStyle>
    </Style>
    
    <Placemark>
      <name>Flight Path</name>
      <description><![CDATA[Optimized flight path]]></description>
      <styleUrl>#flightPath</styleUrl>
      <LineString>
        <extrude>1</extrude>
        <tessellate>1</tessellate>
        <altitudeMode>absolute</altitudeMode>
        <coordinates>
          18.4341,-33.90033,0 18.43786,-33.89626,0 18.43803,-33.8911,0 18.43596,-33.88527,0 18.43192,-33.87955,0 18.42636,-33.87462,0 18.41841,-33.87146,0 18.41118,-33.87131,0 18.40479,-33.87252,0 18.39878,-33.87453,0 18.39319,-33.87703,0 18.38764,-33.88023,0 18.38282,-33.88351,0 18.3779,-33.88728,0 18.37372,-33.8911,0 18.36869,-33.89612,0 18.36432,-33.90092,0 18.3604,-33.90573,0 18.35718,-33.91023,0 18.35378,-33.91525,0 18.3494,-33.92238,0 18.34672,-33.92743,0 18.34291,-33.93558,0 18.33675,-33.95111,0 18.33378,-33.95897,0 18.33198,-33.96437,0 18.33069,-33.9694,0 18.3296,-33.9748,0 18.32834,-33.98202,0 18.32731,-33.99189,0 18.3271,-33.99738,0 18.32744,-34.00282,0 18.32806,-34.00767,0 18.32945,-34.01253,0 18.33147,-34.01688,0 18.33321,-34.02109,0 18.33504,-34.02517,0 18.33704,-34.02936,0 18.3382,-34.03391,0 18.33904,-34.03825,0 18.34179,-34.03886,0 18.34064,-34.0349,0 18.33693,-34.02992,0 18.33355,-34.02489,0 18.33024,-34.01939,0 18.32744,-34.01413,0 18.32491,-34.00827,0 18.32359,-34.00236,0 18.32314,-33.99687,0 18.32342,-33.99114,0 18.32457,-33.98583,0 18.32634,-33.98025,0 18.32806,-33.9748,0 18.33041,-33.96735,0 18.33567,-33.95306,0 18.33792,-33.94812,0 18.34336,-33.93732,0 18.34957,-33.92611,0 18.35249,-33.92148,0 18.35558,-33.91695,0 18.35877,-33.91246,0 18.3623,-33.90807,0 18.36634,-33.90372,0 18.37065,-33.89969,0 18.37508,-33.89639,0 18.38001,-33.89329,0 18.38493,-33.89063,0 18.38991,-33.88817,0 18.39492,-33.88591,0 18.40003,-33.8839,0 18.40569,-33.88206,0 18.41084,-33.88078,0 18.41606,-33.87991,0 18.4211,-33.87988,0 18.42581,-33.88092,0 18.429,-33.88326,0 18.43031,-33.88631,0 18.43082,-33.88947,0 18.4306,-33.89264,0 18.43007,-33.89484,0 18.42951,-33.89622,0 18.42871,-33.89776,0 18.42772,-33.89932,0 18.42699,-33.90083,0 18.43449,-33.89753,0 18.43584,-33.89342,0 18.43437,-33.88719,0 18.43025,-33.88198,0 18.42396,-33.87794,0 18.41686,-33.87579,0 18.40988,-33.87523,0 18.40153,-33.87579,0 18.39442,-33.87694,0 18.38768,-33.87886,0 18.38186,-33.88124,0 18.37606,-33.88444,0 18.37137,-33.8877,0 18.36634,-33.89147,0 18.36119,-33.89529,0 18.35653,-33.89919,0 18.35244,-33.9034,0 18.34894,-33.90846,0 18.34557,-33.91424,0 18.34263,-33.91974,0 18.33742,-33.93027,0 18.32789,-33.9494,0 18.32079,-33.96428,0 18.32245,-33.96218,0 18.32468,-33.95813,0 18.32726,-33.95353,0 18.3303,-33.94835,0 18.33377,-33.94373,0 18.33803,-33.9397,0 18.34257,-33.93581,0 18.34655,-33.9315,0 18.3502,-33.92709,0 18.3539,-33.92226,0 18.35731,-33.91772,0 18.36468,-33.90823,0 18.36864,-33.90376,0 18.37269,-33.89962,0 18.37693,-33.89584,0 18.38209,-33.89195,0 18.38717,-33.88873,0 18.39263,-33.886,0 18.39832,-33.88384,0 18.40417,-33.8822,0 18.40972,-33.88106,0 18.41499,-33.88051,0 18.42037,-33.88051,0 18.4251,-33.88193,0 18.42739,-33.88486,0 18.42859,-33.88779,0 18.42934,-33.89081,0 18.42979,-33.89413,0 18.42968,-33.89557,0 18.42912,-33.8974,0 18.42831,-33.89887,0 18.42716,-33.90022,0 18.43197,-33.9012,0 18.43388,-33.90083,0 18.4368,-33.89822,0 18.43786,-33.89319,0 18.43586,-33.88714,0 18.43197,-33.88202,0 18.42682,-33.87723,0 18.42007,-33.87383,0 18.41292,-33.87286,0 18.40439,-33.8735,0 18.39781,-33.87509,0 18.39184,-33.87762,0 18.38573,-33.881,0 18.38081,-33.8844,0 18.37584,-33.88831,0 18.37097,-33.89245,0 18.36662,-33.89676,0 18.36227,-33.90125,0 18.35844,-33.90553,0 18.35466,-33.90972,0 18.3512,-33.91393,0 18.34784,-33.91869,0 18.34487,-33.92322,0 18.33939,-33.93197,0 18.33263,-33.94384,0 18.32957,-33.9494,0 18.32514,-33.95758,0 18.32419,-33.96281,0 18.32749,-33.96368,0 18.33046,-33.95986,0 18.33326,-33.95506,0 18.33601,-33.95031,0 18.3415,-33.94054,0 18.34391,-33.93565,0 18.34649,-33.93036,0 18.35098,-33.92203,0 18.35844,-33.90898,0 18.36187,-33.90427,0 18.36617,-33.89948,0 18.3706,-33.89561,0 18.37553,-33.89223,0 18.38046,-33.88934,0 18.38551,-33.88686,0 18.39111,-33.88467,0 18.39655,-33.88307,0 18.40239,-33.88174,0 18.40788,-33.88072,0 18.41309,-33.88007,0 18.41864,-33.87979,0 18.42333,-33.8803,0 18.42745,-33.88202,0 18.42934,-33.88518,0 18.42962,-33.8887,0 18.42922,-33.89212,0 18.42867,-33.89474,0 18.42828,-33.89626,0 18.42766,-33.89827,0 18.4271,-33.9001,0 18.42749,-33.90074,0
        </coordinates>
      </LineString>
    </Placemark>
  </Document>
</kml>