<?xml version="1.0" encoding="UTF-8"?>
<kml xmlns="http://www.opengis.net/kml/2.2">
  <Document>
    <name>FR24 N 3dbd78be - Optimised</name>
    <description><![CDATA[Optimised flight path with 41 points (decimated from 202 original points). Source format: Standard KML]]></description>
    
    <Style id="flightPath">
      <LineStyle>
        <color>ffff0000</color>
        <width>3</width>
      </LineStyle>
    </Style>
    
    <Placemark>
      <name>Flight Path</name>
      <description><![CDATA[Source: ADS-B
Start (SAST): 2026-01-02 10:05:29
End (SAST): 2026-01-02 10:48:02
Points: 202]]></description>
      <styleUrl>#flightPath</styleUrl>
      <LineString>
        <extrude>1</extrude>
        <tessellate>1</tessellate>
        <altitudeMode>absolute</altitudeMode>
        <coordinates>
          18.38387,-33.89318,579.12 18.37628,-33.90217,624.84 18.36987,-33.90777,640.08 18.35377,-33.91576,647.7 18.36382,-33.9158,662.94 18.33535,-33.90168,647.7 18.37291,-33.89693,632.46 18.43112,-33.88237,426.72 18.40841,-33.87662,396.24 18.40184,-33.88003,449.58000000000004 18.39212,-33.8839,502.92 18.38893,-33.88679,556.26 18.37584,-33.89404,655.32 18.37552,-33.89818,693.4200000000001 18.3726,-33.9031,731.52 18.36857,-33.90732,746.76 18.36448,-33.91203,754.38 18.36192,-33.91668,762 18.34244,-33.99892,845.82 18.33362,-34.00449,815.34 18.33348,-34.01113,800.1 18.33419,-34.01762,777.24 18.33761,-34.02417,762 18.33953,-34.03006,746.76 18.34136,-34.03694,716.2800000000001 18.34324,-34.04368,716.2800000000001 18.34289,-34.04972,716.2800000000001 18.34202,-34.05577,723.9000000000001 18.34268,-34.06088,769.62 18.34769,-34.05529,731.52 18.34644,-34.04894,693.4200000000001 18.3445,-34.04209,670.5600000000001 18.34089,-34.03241,655.32 18.33806,-34.02637,655.32 18.33486,-34.02101,662.94 18.3437,-34.02056,662.94 18.33861,-34.00771,678.1800000000001 18.36559,-33.90881,510.54 18.37999,-33.89866,510.54 18.4032,-33.88387,518.1600000000001 18.4481,-33.89254,304.8
        </coordinates>
      </LineString>
    </Placemark>
  </Document>
</kml>