<?xml version="1.0" encoding="UTF-8"?>
<kml xmlns="http://www.opengis.net/kml/2.2">
  <Document>
    <name>FR24 ZSRTG 3e02a898 - Optimised</name>
    <description><![CDATA[Optimised flight path with 855 points (decimated from 4272 original points). Source format: Standard KML]]></description>
    
    <Style id="flightPath">
      <LineStyle>
        <color>ffff0000</color>
        <width>3</width>
      </LineStyle>
    </Style>
    
    <Placemark>
      <name>Flight Path</name>
      <description><![CDATA[Source: ADS-B
Start (SAST): 2026-01-22 09:11:05
End (SAST): 2026-01-22 17:51:27
Points: 4272]]></description>
      <styleUrl>#flightPath</styleUrl>
      <LineString>
        <extrude>1</extrude>
        <tessellate>1</tessellate>
        <altitudeMode>absolute</altitudeMode>
        <coordinates>
          18.42808,-33.89864,45.72 18.43157,-33.89403,144.78 18.43346,-33.89124,198.12 18.43467,-33.88792,251.46 18.43399,-33.88422,289.56 18.43237,-33.88065,335.28000000000003 18.42979,-33.8769,388.62 18.42653,-33.87369,434.34000000000003 18.42166,-33.87213,480.06 18.41673,-33.87209,541.02 18.41188,-33.87304,594.36 18.40698,-33.87474,640.08 18.40255,-33.87694,685.8000000000001 18.39798,-33.87965,716.2800000000001 18.39375,-33.88253,746.76 18.3896,-33.88591,777.24 18.38591,-33.88905,807.72 18.3817,-33.89241,822.96 18.37761,-33.89594,845.82 18.37362,-33.89955,845.82 18.36954,-33.90362,853.44 18.36159,-33.912,845.82 18.35743,-33.91722,838.2 18.35417,-33.92198,845.82 18.35106,-33.9269,838.2 18.34808,-33.93206,822.96 18.34557,-33.93705,815.34 18.3428,-33.94295,807.72 18.34016,-33.94821,792.48 18.33725,-33.95375,777.24 18.33467,-33.95924,754.38 18.33192,-33.96716,708.6600000000001 18.33035,-33.9808,640.08 18.42693,-33.90074,22.86 18.4276,-33.89914,30.48 18.42928,-33.89682,68.58 18.43142,-33.89392,114.30000000000001 18.43355,-33.89058,167.64000000000001 18.435,-33.88691,213.36 18.43399,-33.88321,251.46 18.43168,-33.87923,289.56 18.42772,-33.87621,320.04 18.42278,-33.87524,365.76 18.41735,-33.87575,403.86 18.41236,-33.87703,434.34000000000003 18.40742,-33.87895,472.44 18.40255,-33.88124,502.92 18.39806,-33.88362,548.64 18.39375,-33.88605,586.74 18.38904,-33.88898,624.84 18.38459,-33.89203,647.7 18.38018,-33.8952,670.5600000000001 18.37566,-33.89901,678.1800000000001 18.37149,-33.9028,701.0400000000001 18.36742,-33.90688,716.2800000000001 18.36353,-33.91145,746.76 18.36016,-33.91549,762 18.35664,-33.91983,777.24 18.35356,-33.92404,777.24 18.35032,-33.92876,784.86 18.34706,-33.93311,784.86 18.34305,-33.93854,777.24 18.3354,-33.94899,792.48 18.33538,-33.95143,861.0600000000001 18.34134,-33.95105,838.2 18.34762,-33.94844,822.96 18.35305,-33.94391,815.34 18.35782,-33.93878,792.48 18.36256,-33.933,762 18.36701,-33.92757,723.9000000000001 18.37144,-33.92221,685.8000000000001 18.37635,-33.91661,647.7 18.38086,-33.91159,609.6 18.38556,-33.90674,594.36 18.39117,-33.90204,563.88 18.39643,-33.89757,533.4 18.40238,-33.89328,518.1600000000001 18.40839,-33.88993,510.54 18.41516,-33.88765,464.82000000000005 18.42222,-33.88651,449.58000000000004 18.42905,-33.88696,411.48 18.43506,-33.88875,358.14000000000004 18.43966,-33.89168,297.18 18.44212,-33.89571,220.98000000000002 18.44095,-33.89971,167.64000000000001 18.43758,-33.90047,121.92 18.4334,-33.89999,76.2 18.42882,-33.90051,30.48 18.4271,-33.90088,15.24 18.42756,-33.8992,22.86 18.42917,-33.89726,60.96 18.43145,-33.89459,99.06 18.4338,-33.89152,152.4 18.43556,-33.8882,198.12 18.43483,-33.8843,243.84 18.43231,-33.88042,281.94 18.42839,-33.87781,342.90000000000003 18.42385,-33.87698,403.86 18.41938,-33.87746,449.58000000000004 18.41412,-33.87867,495.3 18.40916,-33.87982,525.78 18.40433,-33.88137,556.26 18.39935,-33.88374,571.5 18.39453,-33.88646,586.74 18.38985,-33.88952,624.84 18.38562,-33.89254,655.32 18.38125,-33.89594,685.8000000000001 18.37727,-33.89925,708.6600000000001 18.37263,-33.90325,739.14 18.36937,-33.90656,769.62 18.366,-33.91031,800.1 18.36292,-33.9142,807.72 18.35976,-33.91833,815.34 18.3567,-33.92267,822.96 18.35386,-33.92709,815.34 18.35064,-33.93182,822.96 18.34763,-33.93658,815.34 18.34492,-33.94125,822.96 18.34253,-33.94636,815.34 18.34053,-33.95157,815.34 18.33842,-33.95663,815.34 18.33618,-33.96186,822.96 18.33422,-33.96735,838.2 18.33271,-33.97289,845.82 18.33175,-33.97861,830.58 18.33125,-33.9841,822.96 18.33075,-33.98946,830.58 18.33069,-33.99463,822.96 18.33114,-33.99985,807.72 18.33243,-34.00594,792.48 18.334,-34.01147,769.62 18.3363,-34.01684,731.52 18.33893,-34.02205,716.2800000000001 18.34116,-34.02731,708.6600000000001 18.34299,-34.03262,701.0400000000001 18.34339,-34.03811,701.0400000000001 18.34608,-34.04216,731.52 18.35059,-34.03944,784.86 18.3486,-34.03429,777.24 18.34408,-34.02945,792.48 18.33961,-34.02494,769.62 18.33509,-34.01931,784.86 18.33183,-34.01339,777.24 18.33126,-34.00716,777.24 18.33299,-34.00026,754.38 18.34078,-33.98405,678.1800000000001 18.35501,-33.95801,685.8000000000001 18.36241,-33.9445,693.4200000000001 18.36571,-33.93896,693.4200000000001 18.36863,-33.93356,678.1800000000001 18.37138,-33.92761,655.32 18.37418,-33.92178,632.46 18.37749,-33.91617,624.84 18.38184,-33.91088,594.36 18.38614,-33.9066,563.88 18.39111,-33.90208,525.78 18.39615,-33.89785,518.1600000000001 18.40141,-33.89347,495.3 18.40799,-33.88975,495.3 18.41505,-33.88756,480.06 18.42172,-33.88678,464.82000000000005 18.42756,-33.88668,426.72 18.43349,-33.88779,373.38 18.43826,-33.88984,312.42 18.44141,-33.89278,236.22 18.4419,-33.89653,190.5 18.43895,-33.89846,144.78 18.43528,-33.89886,106.68 18.43181,-33.89941,60.96 18.42922,-33.90004,30.48 18.42722,-33.90078,7.62 18.42648,-33.89941,30.48 18.42732,-33.89658,38.1 18.43031,-33.89287,99.06 18.43366,-33.88916,137.16 18.43573,-33.88454,167.64000000000001 18.43489,-33.87946,198.12 18.43259,-33.87451,220.98000000000002 18.42856,-33.87163,320.04 18.42653,-33.87374,373.38 18.42811,-33.87648,419.1 18.42865,-33.87988,449.58000000000004 18.42424,-33.88146,449.58000000000004 18.41931,-33.88211,495.3 18.41409,-33.88298,525.78 18.40897,-33.88403,556.26 18.4035,-33.88536,579.12 18.39834,-33.88701,609.6 18.3933,-33.8893,617.22 18.38837,-33.89189,624.84 18.38383,-33.89465,647.7 18.37961,-33.8979,662.94 18.37581,-33.90102,678.1800000000001 18.37149,-33.90483,708.6600000000001 18.36774,-33.90825,731.52 18.36611,-33.91196,807.72 18.36836,-33.91498,853.44 18.37309,-33.91461,899.1600000000001 18.37525,-33.91081,922.0200000000001 18.37229,-33.90749,952.5 18.36774,-33.90852,937.26 18.36416,-33.91228,944.88 18.36222,-33.9167,937.26 18.3614,-33.92166,929.6400000000001 18.36107,-33.92725,914.4000000000001 18.3601,-33.93197,891.5400000000001 18.35815,-33.93709,876.3000000000001 18.35591,-33.94212,861.0600000000001 18.35361,-33.9473,845.82 18.35165,-33.95242,845.82 18.35014,-33.95767,845.82 18.34935,-33.96194,853.44 18.34843,-33.96898,853.44 18.34801,-33.97449,853.44 18.34785,-33.97969,853.44 18.34751,-33.98495,853.44 18.34778,-33.99028,845.82 18.34863,-33.996,830.58 18.3498,-34.00159,807.72 18.35135,-34.00692,800.1 18.35323,-34.01283,769.62 18.35485,-34.0183,746.76 18.35726,-34.02841,716.2800000000001 18.35815,-34.03358,701.0400000000001 18.35855,-34.03913,701.0400000000001 18.3589,-34.04458,693.4200000000001 18.3595,-34.04988,693.4200000000001 18.39627,-33.88651,518.1600000000001 18.39191,-33.88924,548.64 18.38808,-33.89198,579.12 18.38413,-33.8951,609.6 18.38046,-33.89813,624.84 18.37658,-33.90185,655.32 18.3732,-33.90493,693.4200000000001 18.36983,-33.90795,731.52 18.36667,-33.91113,769.62 18.36337,-33.91425,792.48 18.36,-33.91754,807.72 18.35642,-33.92139,815.34 18.35305,-33.92532,815.34 18.34997,-33.92908,815.34 18.34621,-33.93338,807.72 18.34257,-33.93782,800.1 18.33961,-33.94207,792.48 18.33764,-33.94533,876.3000000000001 18.34145,-33.94538,845.82 18.3475,-33.94258,807.72 18.35375,-33.93858,769.62 18.35936,-33.93314,739.14 18.36485,-33.92713,708.6600000000001 18.36937,-33.92192,701.0400000000001 18.37413,-33.91663,678.1800000000001 18.38405,-33.9061,640.08 18.39254,-33.89757,579.12 18.39821,-33.89291,518.1600000000001 18.4049,-33.88891,487.68 18.41188,-33.88635,449.58000000000004 18.41961,-33.88472,419.1 18.42693,-33.88458,381 18.43409,-33.88621,342.90000000000003 18.43966,-33.88916,281.94 18.44238,-33.89343,205.74 18.44049,-33.89692,152.4 18.43655,-33.89785,114.30000000000001 18.4334,-33.89874,76.2 18.43042,-33.89967,45.72 18.42831,-33.90036,22.86 18.42688,-33.90102,0 18.42648,-33.89845,38.1 18.42819,-33.89506,76.2 18.43108,-33.89172,129.54000000000002 18.43449,-33.88733,175.26000000000002 18.43466,-33.88281,213.36 18.43186,-33.87891,259.08000000000004 18.42751,-33.87653,274.32 18.42207,-33.87579,312.42 18.41723,-33.8763,350.52000000000004 18.41297,-33.87788,381 18.40888,-33.87968,426.72 18.4049,-33.8816,457.20000000000005 18.40081,-33.88385,487.68 18.39666,-33.88637,518.1600000000001 18.39266,-33.889,563.88 18.38876,-33.89159,609.6 18.38499,-33.89436,647.7 18.38116,-33.89748,678.1800000000001 18.37761,-33.90046,708.6600000000001 18.37391,-33.90385,723.9000000000001 18.36998,-33.90765,746.76 18.36651,-33.9114,784.86 18.3633,-33.91531,792.48 18.36028,-33.91942,807.72 18.3572,-33.92372,815.34 18.3539,-33.92821,845.82 18.35117,-33.93206,861.0600000000001 18.34826,-33.93663,868.6800000000001 18.34566,-33.9408,868.6800000000001 18.34288,-33.94547,868.6800000000001 18.34042,-33.95004,861.0600000000001 18.33792,-33.95499,853.44 18.33573,-33.96002,853.44 18.33405,-33.96414,853.44 18.33189,-33.9701,876.3000000000001 18.3299,-33.97604,876.3000000000001 18.32833,-33.98286,883.9200000000001 18.32777,-33.98781,883.9200000000001 18.32772,-33.99261,876.3000000000001 18.32829,-33.99812,861.0600000000001 18.32932,-34.00371,845.82 18.33097,-34.00953,838.2 18.33292,-34.01474,807.72 18.33555,-34.02005,800.1 18.42715,-33.90001,15.24 18.42854,-33.89817,22.86 18.42968,-33.89667,38.1 18.43175,-33.8936,68.58 18.43399,-33.88953,114.30000000000001 18.43377,-33.88531,144.78 18.43197,-33.88151,190.5 18.42912,-33.87845,228.60000000000002 18.42533,-33.87681,274.32 18.42144,-33.87625,320.04 18.41749,-33.87634,342.90000000000003 18.4146,-33.87758,396.24 18.41538,-33.87959,472.44 18.41891,-33.88046,525.78 18.42284,-33.87973,586.74 18.42346,-33.87675,624.84 18.41967,-33.87439,640.08 18.41432,-33.87405,655.32 18.40939,-33.87479,662.94 18.4045,-33.87611,670.5600000000001 18.39924,-33.87817,678.1800000000001 18.39443,-33.88076,685.8000000000001 18.38982,-33.88385,701.0400000000001 18.38533,-33.8871,693.4200000000001 18.38121,-33.89031,693.4200000000001 18.37738,-33.89366,693.4200000000001 18.37337,-33.8978,678.1800000000001 18.37017,-33.90153,662.94 18.36725,-33.90567,655.32 18.36456,-33.91009,647.7 18.36222,-33.91438,632.46 18.35995,-33.9191,632.46 18.35793,-33.92355,632.46 18.35243,-33.93709,609.6 18.35087,-33.94514,632.46 18.35518,-33.94661,716.2800000000001 18.35861,-33.94254,708.6600000000001 18.3609,-33.93723,701.0400000000001 18.36292,-33.93141,693.4200000000001 18.36227,-33.92667,716.2800000000001 18.35855,-33.92615,708.6600000000001 18.35692,-33.93008,678.1800000000001 18.35604,-33.93481,662.94 18.35512,-33.94021,640.08 18.35249,-33.95576,640.08 18.34785,-33.97294,632.46 18.34229,-33.98396,640.08 18.33916,-33.99798,678.1800000000001 18.33954,-34.00369,693.4200000000001 18.34078,-34.00873,701.0400000000001 18.34242,-34.014,685.8000000000001 18.34436,-34.01977,662.94 18.34941,-34.03477,670.5600000000001 18.35154,-34.04027,662.94 18.35501,-34.04993,640.08 18.35804,-34.05858,624.84 18.36017,-34.06439,624.84 18.36227,-34.06968,632.46 18.36454,-34.07451,647.7 18.36634,-34.07986,647.7 18.36634,-34.08564,647.7 18.36488,-34.09076,647.7 18.36258,-34.0963,624.84 18.3605,-34.10101,609.6 18.35815,-34.1064,594.36 18.35216,-34.12111,563.88 18.34739,-34.13585,624.84 18.34655,-34.14056,655.32 18.34605,-34.14523,678.1800000000001 18.34543,-34.15027,716.2800000000001 18.34402,-34.15933,754.38 18.34481,-34.16451,754.38 18.34803,-34.16892,754.38 18.3526,-34.17344,754.38 18.35686,-34.17778,746.76 18.36119,-34.18238,739.14 18.36536,-34.18801,731.52 18.36875,-34.19284,716.2800000000001 18.37229,-34.1982,716.2800000000001 18.38367,-34.21441,678.1800000000001 18.39823,-34.23463,662.94 18.40193,-34.23991,662.94 18.40879,-34.2503,647.7 18.42127,-34.26706,617.22 18.4342,-34.28409,563.88 18.44879,-34.30211,533.4 18.4576,-34.31203,541.02 18.4628,-34.3168,533.4 18.4683,-34.32101,533.4 18.4738,-34.32492,533.4 18.48225,-34.33058,518.1600000000001 18.49733,-34.34097,480.06 18.50264,-34.34587,464.82000000000005 18.50693,-34.35094,457.20000000000005 18.5086,-34.3564,464.82000000000005 18.50658,-34.36142,457.20000000000005 18.50195,-34.3643,464.82000000000005 18.49565,-34.36505,457.20000000000005 18.48954,-34.36523,441.96000000000004 18.48318,-34.36533,426.72 18.47699,-34.36514,411.48 18.47099,-34.36365,419.1 18.46596,-34.36128,434.34000000000003 18.46298,-34.36388,480.06 18.46919,-34.36629,457.20000000000005 18.47687,-34.36629,434.34000000000003 18.48507,-34.36593,441.96000000000004 18.4924,-34.36569,457.20000000000005 18.49974,-34.36469,480.06 18.50518,-34.36098,502.92 18.5075,-34.35522,495.3 18.50804,-34.3493,495.3 18.50801,-34.34368,495.3 18.5077,-34.33736,487.68 18.50716,-34.32939,480.06 18.50475,-34.30867,480.06 18.50304,-34.28852,472.44 18.50154,-34.27913,464.82000000000005 18.50002,-34.27336,457.20000000000005 18.49857,-34.2678,457.20000000000005 18.49672,-34.26187,449.58000000000004 18.49481,-34.25624,441.96000000000004 18.49324,-34.25079,449.58000000000004 18.49173,-34.2453,434.34000000000003 18.49005,-34.24001,419.1 18.48859,-34.23482,411.48 18.48685,-34.22942,411.48 18.48472,-34.22379,426.72 18.48238,-34.21822,419.1 18.47958,-34.21305,411.48 18.47631,-34.20794,426.72 18.47284,-34.20319,441.96000000000004 18.46931,-34.19847,434.34000000000003 18.46706,-34.19321,434.34000000000003 18.46645,-34.18707,426.72 18.46642,-34.18121,434.34000000000003 18.46378,-34.17661,457.20000000000005 18.45849,-34.17531,464.82000000000005 18.4544,-34.1781,472.44 18.45417,-34.18294,434.34000000000003 18.45537,-34.18764,434.34000000000003 18.45268,-34.18866,449.58000000000004 18.45388,-34.18428,396.24 18.45652,-34.17958,396.24 18.45858,-34.17442,381 18.46075,-34.16916,381 18.46292,-34.16391,388.62 18.46498,-34.15859,403.86 18.46722,-34.15291,411.48 18.47166,-34.14084,457.20000000000005 18.47508,-34.12907,464.82000000000005 18.47603,-34.12308,472.44 18.47676,-34.11736,472.44 18.47799,-34.10655,480.06 18.47878,-34.09621,464.82000000000005 18.47889,-34.08847,472.44 18.47918,-34.0828,464.82000000000005 18.47962,-34.07469,441.96000000000004 18.48021,-34.06865,419.1 18.48083,-34.06269,403.86 18.48153,-34.05707,403.86 18.48253,-34.05121,419.1 18.4833,-34.04533,419.1 18.4837,-34.03983,434.34000000000003 18.48405,-34.03386,449.58000000000004 18.48478,-34.02786,464.82000000000005 18.48524,-34.0221,457.20000000000005 18.48547,-34.01661,457.20000000000005 18.48601,-33.99806,411.48 18.48657,-33.9792,396.24 18.4859,-33.96565,388.62 18.4841,-33.94794,342.90000000000003 18.4827,-33.94199,327.66 18.48089,-33.93612,320.04 18.47855,-33.9303,320.04 18.47551,-33.92513,304.8 18.472,-33.92043,289.56 18.46779,-33.91594,259.08000000000004 18.46338,-33.91177,243.84 18.45938,-33.90781,243.84 18.45552,-33.90395,236.22 18.45057,-33.89897,228.60000000000002 18.4465,-33.89655,213.36 18.44238,-33.89673,182.88 18.43837,-33.89754,137.16 18.43454,-33.89841,83.82000000000001 18.4317,-33.89919,53.34 18.42985,-33.89973,30.48 18.42783,-33.90038,0 18.42777,-33.89932,22.86 18.42871,-33.89766,30.48 18.43031,-33.8951,53.34 18.4326,-33.89143,106.68 18.43433,-33.88765,144.78 18.43443,-33.88361,175.26000000000002 18.43243,-33.88002,198.12 18.42939,-33.87709,228.60000000000002 18.42562,-33.87532,243.84 18.4203,-33.87444,274.32 18.41572,-33.87448,289.56 18.41097,-33.8749,320.04 18.40614,-33.87575,350.52000000000004 18.40115,-33.87703,381 18.39823,-33.87955,434.34000000000003 18.3984,-33.88312,480.06 18.40204,-33.88505,533.4 18.40731,-33.8844,579.12 18.41219,-33.88261,617.22 18.41537,-33.87895,662.94 18.41183,-33.8762,647.7 18.40731,-33.87704,647.7 18.40305,-33.87918,647.7 18.39827,-33.88198,640.08 18.39397,-33.88491,617.22 18.38951,-33.88835,594.36 18.38545,-33.89182,563.88 18.38108,-33.89566,556.26 18.3771,-33.89946,541.02 18.37312,-33.90395,518.1600000000001 18.36925,-33.9088,495.3 18.36567,-33.91347,480.06 18.36163,-33.91942,464.82000000000005 18.35861,-33.92415,449.58000000000004 18.3534,-33.93323,434.34000000000003 18.35152,-33.94003,464.82000000000005 18.35619,-33.9429,541.02 18.3614,-33.94057,586.74 18.36314,-33.9353,632.46 18.36113,-33.93123,678.1800000000001 18.35655,-33.9316,693.4200000000001 18.35415,-33.93649,647.7 18.35238,-33.94212,609.6 18.35066,-33.94813,556.26 18.3466,-33.96214,457.20000000000005 18.34019,-33.9802,396.24 18.33512,-33.99426,403.86 18.33183,-34.00459,411.48 18.33069,-34.01409,419.1 18.33263,-34.01958,426.72 18.33669,-34.02393,426.72 18.34083,-34.02827,411.48 18.34409,-34.03299,403.86 18.34677,-34.03853,388.62 18.3482,-34.04393,373.38 18.34924,-34.04961,365.76 18.34991,-34.05675,342.90000000000003 18.34379,-34.08815,205.74 18.34734,-34.08867,190.5 18.36319,-34.0275,449.58000000000004 18.36863,-34.02326,472.44 18.3748,-34.02081,487.68 18.38125,-34.01884,487.68 18.38785,-34.01679,487.68 18.397,-34.0139,495.3 18.40496,-34.01181,502.92 18.41188,-34.01069,510.54 18.41869,-34.01175,510.54 18.42525,-34.01225,518.1600000000001 18.4308,-34.00969,510.54 18.4354,-34.00469,487.68 18.43884,-33.99985,487.68 18.44184,-33.99449,502.92 18.44481,-33.98982,518.1600000000001 18.44935,-33.9857,548.64 18.45469,-33.98611,579.12 18.4549,-33.99042,548.64 18.45074,-33.99221,548.64 18.44745,-33.9884,556.26 18.44879,-33.98355,563.88 18.45234,-33.97824,548.64 18.45606,-33.97289,541.02 18.45829,-33.96745,548.64 18.46,-33.96208,548.64 18.46095,-33.95645,541.02 18.46135,-33.951,548.64 18.46062,-33.94588,525.78 18.4586,-33.93947,510.54 18.45546,-33.93411,487.68 18.4516,-33.92941,472.44 18.44765,-33.92517,464.82000000000005 18.44599,-33.91959,434.34000000000003 18.44473,-33.91419,396.24 18.44358,-33.90875,342.90000000000003 18.44318,-33.90325,289.56 18.44341,-33.89841,243.84 18.44134,-33.89594,198.12 18.43747,-33.89731,121.92 18.43403,-33.89841,76.2 18.43105,-33.89929,45.72 18.42884,-33.90019,15.24 18.42733,-33.90027,7.62 18.42749,-33.89891,15.24 18.42861,-33.89708,30.48 18.43018,-33.89429,60.96 18.43191,-33.8904,114.30000000000001 18.43248,-33.88614,152.4 18.43019,-33.88202,175.26000000000002 18.42648,-33.87918,205.74 18.42161,-33.87762,243.84 18.41684,-33.87744,274.32 18.41202,-33.87813,297.18 18.40702,-33.87946,327.66 18.40199,-33.88123,335.28000000000003 18.39734,-33.8833,350.52000000000004 18.39266,-33.8857,365.76 18.38825,-33.88834,381 18.38394,-33.89136,403.86 18.3803,-33.89426,419.1 18.37658,-33.8979,411.48 18.37346,-33.9017,396.24 18.37015,-33.90637,381 18.36729,-33.91086,358.14000000000004 18.36466,-33.91576,335.28000000000003 18.36269,-33.92052,312.42 18.36084,-33.92555,289.56 18.3581,-33.93402,266.7 18.35193,-33.95586,236.22 18.36164,-33.95446,266.7 18.36264,-33.94464,304.8 18.36365,-33.93333,342.90000000000003 18.36525,-33.9276,358.14000000000004 18.36752,-33.92152,381 18.36988,-33.9161,396.24 18.37273,-33.91109,403.86 18.37632,-33.90596,403.86 18.38041,-33.90097,411.48 18.38499,-33.89645,411.48 18.39083,-33.89212,403.86 18.39701,-33.8891,403.86 18.40322,-33.88701,403.86 18.41056,-33.88536,388.62 18.41774,-33.88435,373.38 18.42497,-33.88408,350.52000000000004 18.43214,-33.88467,320.04 18.43855,-33.88705,281.94 18.44255,-33.89077,259.08000000000004 18.44273,-33.8951,243.84 18.43977,-33.89685,205.74 18.43683,-33.89776,144.78 18.43386,-33.89869,91.44 18.43108,-33.89969,45.72 18.42899,-33.90036,15.24 18.42755,-33.90074,0 18.42743,-33.89905,22.86 18.42861,-33.89786,38.1 18.43122,-33.89622,68.58 18.43517,-33.89571,106.68 18.43971,-33.8974,137.16 18.44376,-33.89971,160.02 18.44773,-33.90244,190.5 18.452,-33.90525,220.98000000000002 18.4567,-33.90848,243.84 18.46124,-33.91196,259.08000000000004 18.46594,-33.91534,266.7 18.47082,-33.91889,274.32 18.47536,-33.92226,289.56 18.48484,-33.92885,297.18 18.49714,-33.93691,335.28000000000003 18.50201,-33.93993,327.66 18.50716,-33.94296,320.04 18.51225,-33.94529,312.42 18.51786,-33.94748,297.18 18.52467,-33.94994,281.94 18.53926,-33.95471,281.94 18.54997,-33.95815,289.56 18.56083,-33.96228,297.18 18.56592,-33.96474,297.18 18.5709,-33.96777,304.8 18.57571,-33.97103,312.42 18.57983,-33.9742,327.66 18.5836,-33.97731,342.90000000000003 18.58692,-33.98071,350.52000000000004 18.58789,-33.98458,373.38 18.58446,-33.98616,388.62 18.5812,-33.98351,403.86 18.58242,-33.97893,381 18.58718,-33.97874,365.76 18.58801,-33.98202,350.52000000000004 18.58475,-33.98351,350.52000000000004 18.58281,-33.97975,358.14000000000004 18.58635,-33.97705,381 18.5906,-33.97522,358.14000000000004 18.59041,-33.96968,312.42 18.58858,-33.96507,327.66 18.58679,-33.96112,350.52000000000004 18.58702,-33.95746,373.38 18.59213,-33.95539,281.94 18.59905,-33.95474,274.32 18.60619,-33.95485,281.94 18.61314,-33.95499,312.42 18.61948,-33.95488,342.90000000000003 18.63192,-33.95384,358.14000000000004 18.64072,-33.9537,327.66 18.64809,-33.95353,327.66 18.65467,-33.95362,320.04 18.67384,-33.95403,274.32 18.69447,-33.9538,266.7 18.70305,-33.95329,281.94 18.71006,-33.95246,304.8 18.71678,-33.95229,312.42 18.72271,-33.95259,327.66 18.72923,-33.95297,335.28000000000003 18.73589,-33.95316,342.90000000000003 18.74256,-33.95334,350.52000000000004 18.74935,-33.95316,358.14000000000004 18.75613,-33.95247,350.52000000000004 18.76341,-33.95155,350.52000000000004 18.77037,-33.95069,342.90000000000003 18.78004,-33.9498,312.42 18.78736,-33.94948,320.04 18.79715,-33.9491,327.66 18.8054,-33.94917,320.04 18.81235,-33.94963,320.04 18.81981,-33.95023,312.42 18.82839,-33.95111,304.8 18.83528,-33.95293,320.04 18.84094,-33.95572,320.04 18.8455,-33.95972,312.42 18.84899,-33.96381,320.04 18.85265,-33.96803,320.04 18.85624,-33.97215,327.66 18.85988,-33.97604,342.90000000000003 18.8647,-33.98035,327.66 18.8685,-33.98407,327.66 18.87182,-33.98821,327.66 18.87423,-33.99207,327.66 18.87548,-33.99603,327.66 18.87411,-33.99957,320.04 18.87014,-34.00072,297.18 18.86756,-34.00008,289.56 18.86776,-33.99803,251.46 18.86959,-33.99645,228.60000000000002 18.87125,-33.99617,220.98000000000002 18.8693,-33.99678,213.36 18.86805,-33.99901,251.46 18.86473,-33.99966,274.32 18.86009,-33.99873,289.56 18.85489,-33.99925,289.56 18.84867,-33.99998,289.56 18.83749,-34.00087,281.94 18.83148,-34.00092,266.7 18.82484,-34.00031,266.7 18.81812,-33.9987,259.08000000000004 18.81207,-33.99554,259.08000000000004 18.80682,-33.99216,259.08000000000004 18.80114,-33.989,281.94 18.79641,-33.98639,289.56 18.79111,-33.98378,297.18 18.785,-33.98163,289.56 18.78136,-33.97783,304.8 18.7813,-33.97205,304.8 18.78399,-33.96616,297.18 18.78786,-33.96021,304.8 18.79189,-33.95389,304.8 18.79464,-33.94766,312.42 18.79675,-33.94142,327.66 18.79873,-33.9353,335.28000000000003 18.80159,-33.925,335.28000000000003 18.80164,-33.91914,335.28000000000003 18.80098,-33.91335,342.90000000000003 18.79984,-33.90749,358.14000000000004 18.79794,-33.90193,381 18.79548,-33.89699,396.24 18.79229,-33.89133,388.62 18.78841,-33.88573,365.76 18.78421,-33.88,342.90000000000003 18.77339,-33.86572,327.66 18.75767,-33.84557,289.56 18.75029,-33.83561,281.94 18.74251,-33.82581,281.94 18.7383,-33.8205,281.94 18.72934,-33.81015,274.32 18.72379,-33.80666,274.32 18.71812,-33.80397,266.7 18.71224,-33.8015,259.08000000000004 18.70646,-33.79902,266.7 18.70064,-33.7961,274.32 18.69486,-33.79326,281.94 18.68909,-33.79097,297.18 18.68416,-33.78708,320.04 18.67916,-33.78384,335.28000000000003 18.67317,-33.78369,342.90000000000003 18.66762,-33.78378,350.52000000000004 18.66131,-33.7837,350.52000000000004 18.65519,-33.78431,342.90000000000003 18.64843,-33.78538,342.90000000000003 18.64254,-33.78636,342.90000000000003 18.63702,-33.78717,350.52000000000004 18.63074,-33.7868,358.14000000000004 18.62457,-33.78706,381 18.61841,-33.78722,396.24 18.61213,-33.78658,373.38 18.60552,-33.78426,350.52000000000004 18.59912,-33.78278,335.28000000000003 18.59356,-33.77951,335.28000000000003 18.58775,-33.77719,312.42 18.58136,-33.77856,312.42 18.57479,-33.78021,297.18 18.56846,-33.78168,289.56 18.56226,-33.78324,266.7 18.55641,-33.78506,266.7 18.5491,-33.7871,251.46 18.54173,-33.78873,259.08000000000004 18.53605,-33.79004,251.46 18.53056,-33.79152,251.46 18.52386,-33.79329,243.84 18.51763,-33.7952,236.22 18.51231,-33.79692,236.22 18.50243,-33.8004,228.60000000000002 18.49616,-33.80228,236.22 18.49045,-33.80419,251.46 18.4857,-33.80642,251.46 18.47962,-33.81024,266.7 18.47563,-33.81396,266.7 18.47346,-33.81825,274.32 18.47448,-33.82314,266.7 18.47766,-33.82814,243.84 18.48055,-33.83333,251.46 18.48265,-33.83803,243.84 18.4845,-33.8427,236.22 18.48584,-33.84778,220.98000000000002 18.48573,-33.85272,228.60000000000002 18.48633,-33.85726,228.60000000000002 18.48338,-33.8611,228.60000000000002 18.47693,-33.86165,228.60000000000002 18.47042,-33.86177,243.84 18.46447,-33.86275,251.46 18.45916,-33.86485,251.46 18.45535,-33.86861,251.46 18.45257,-33.87327,251.46 18.44994,-33.87774,236.22 18.44806,-33.88225,236.22 18.44782,-33.88696,213.36 18.44679,-33.8917,190.5 18.44492,-33.89598,182.88 18.44147,-33.89915,167.64000000000001 18.43741,-33.89772,152.4 18.43444,-33.8952,129.54000000000002 18.43125,-33.89447,114.30000000000001 18.43035,-33.89671,68.58 18.42825,-33.8985,38.1 18.42727,-33.89996,15.24 18.42732,-33.90079,7.62
        </coordinates>
      </LineString>
    </Placemark>
  </Document>
</kml>