<?xml version="1.0" encoding="UTF-8"?>
<kml xmlns="http://www.opengis.net/kml/2.2">
  <Document>
    <name>FR24 40f89f18 - Optimised</name>
    <description><![CDATA[Optimised flight path with 264 points (decimated from 1316 original points). Source format: Standard KML]]></description>
    
    <Style id="flightPath">
      <LineStyle>
        <color>ffff0000</color>
        <width>3</width>
      </LineStyle>
    </Style>
    
    <Placemark>
      <name>Flight Path</name>
      <description><![CDATA[Optimized flight path]]></description>
      <styleUrl>#flightPath</styleUrl>
      <LineString>
        <extrude>1</extrude>
        <tessellate>1</tessellate>
        <altitudeMode>absolute</altitudeMode>
        <coordinates>
          18.43163,-33.89408,0 18.43657,-33.88779,0 18.43672,-33.88435,0 18.43456,-33.88097,0 18.43122,-33.87844,0 18.42682,-33.877,0 18.42233,-33.87648,0 18.41795,-33.87643,0 18.41326,-33.87704,0 18.40845,-33.87807,0 18.40387,-33.87941,0 18.39861,-33.88137,0 18.3938,-33.8833,0 18.38917,-33.88607,0 18.38505,-33.88929,0 18.3811,-33.89273,0 18.37709,-33.89682,0 18.37349,-33.90069,0 18.36959,-33.90514,0 18.36118,-33.91498,0 18.35775,-33.92001,0 18.35485,-33.92509,0 18.35289,-33.93027,0 18.35064,-33.9353,0 18.34803,-33.94068,0 18.34515,-33.94647,0 18.34196,-33.95279,0 18.33887,-33.95832,0 18.33406,-33.96619,0 18.32914,-33.97368,0 18.32525,-33.97939,0 18.32176,-33.985,0 18.31858,-33.9906,0 18.31575,-33.9958,0 18.31284,-34.00106,0 18.31012,-34.00726,0 18.31026,-34.01255,0 18.31404,-34.01715,0 18.31875,-34.01775,0 18.32291,-34.01511,0 18.3262,-34.0112,0 18.32914,-34.00729,0 18.33218,-34.00311,0 18.33669,-33.99605,0 18.3433,-33.98653,0 18.35087,-33.97751,0 18.35535,-33.96796,0 18.35849,-33.95837,0 18.36101,-33.95192,0 18.36253,-33.94753,0 18.36416,-33.94305,0 18.36555,-33.93832,0 18.3669,-33.93356,0 18.36891,-33.92913,0 18.3716,-33.92485,0 18.37547,-33.9207,0 18.37933,-33.91666,0 18.38332,-33.91228,0 18.38688,-33.90809,0 18.39044,-33.90413,0 18.39431,-33.90083,0 18.3997,-33.89822,0 18.40496,-33.89627,0 18.41045,-33.89403,0 18.41566,-33.89143,0 18.42048,-33.88898,0 18.42579,-33.88668,0 18.43163,-33.88482,0 18.43763,-33.88342,0 18.44375,-33.88275,0 18.44952,-33.88403,0 18.45245,-33.88724,0 18.45182,-33.89054,0 18.44965,-33.89287,0 18.4469,-33.89468,0 18.44416,-33.89585,0 18.44112,-33.89678,0 18.43792,-33.89763,0 18.43517,-33.89841,0 18.4331,-33.89896,0 18.43013,-33.89978,0 18.42859,-33.90027,0 18.42749,-33.90042,0 18.42791,-33.89892,0 18.42934,-33.89697,0 18.43111,-33.89492,0 18.43422,-33.89127,0 18.43624,-33.8877,0 18.43713,-33.88367,0 18.43575,-33.88021,0 18.43317,-33.877,0 18.42929,-33.87515,0 18.42469,-33.87488,0 18.41908,-33.87579,0 18.41398,-33.87753,0 18.40868,-33.87951,0 18.40359,-33.8816,0 18.39857,-33.88403,0 18.39392,-33.88649,0 18.38938,-33.88902,0 18.385,-33.89127,0 18.38076,-33.89394,0 18.37704,-33.8974,0 18.3736,-33.9019,0 18.37049,-33.90642,0 18.36712,-33.91141,0 18.35905,-33.9229,0 18.35574,-33.92784,0 18.35081,-33.93539,0 18.34666,-33.9424,0 18.34339,-33.94775,0 18.34019,-33.95292,0 18.33663,-33.95819,0 18.32811,-33.97145,0 18.31701,-33.99152,0 18.30671,-34.01176,0 18.30283,-34.01857,0 18.30036,-34.02424,0 18.29885,-34.03061,0 18.29846,-34.03679,0 18.29859,-34.04346,0 18.30002,-34.05008,0 18.30156,-34.05641,0 18.30552,-34.06133,0 18.30963,-34.06623,0 18.31343,-34.07135,0 18.31757,-34.07648,0 18.32615,-34.08723,0 18.33142,-34.09346,0 18.3368,-34.09818,0 18.34263,-34.10211,0 18.34818,-34.10527,0 18.35398,-34.10757,0 18.3604,-34.11003,0 18.36674,-34.11241,0 18.37374,-34.1152,0 18.38029,-34.11754,0 18.38636,-34.11963,0 18.39369,-34.12234,0 18.39912,-34.12465,0 18.40473,-34.12715,0 18.4104,-34.12968,0 18.41589,-34.13173,0 18.42189,-34.13406,0 18.42811,-34.13599,0 18.43416,-34.13722,0 18.44084,-34.13755,0 18.44667,-34.13638,0 18.45217,-34.13368,0 18.4572,-34.13036,0 18.46185,-34.12697,0 18.46584,-34.12358,0 18.46931,-34.11974,0 18.47225,-34.11534,0 18.47414,-34.11092,0 18.47486,-34.10651,0 18.47536,-34.10229,0 18.47546,-34.09728,0 18.47534,-34.09258,0 18.4754,-34.08774,0 18.47546,-34.08168,0 18.47506,-34.07461,0 18.47448,-34.06735,0 18.47403,-34.05561,0 18.47385,-34.04645,0 18.47408,-34.04132,0 18.47431,-34.03662,0 18.47458,-34.03084,0 18.47488,-34.02177,0 18.47564,-34.01207,0 18.47598,-34.00658,0 18.47654,-34.00143,0 18.47721,-33.99463,0 18.47769,-33.98923,0 18.47738,-33.98488,0 18.47715,-33.98067,0 18.47715,-33.97646,0 18.47699,-33.97234,0 18.47757,-33.96838,0 18.47872,-33.9647,0 18.47946,-33.96079,0 18.48015,-33.95632,0 18.48032,-33.95218,0 18.47968,-33.94771,0 18.47878,-33.94361,0 18.47727,-33.93924,0 18.47528,-33.93514,0 18.47318,-33.93105,0 18.4706,-33.92711,0 18.46751,-33.92317,0 18.46418,-33.91936,0 18.46029,-33.91517,0 18.45669,-33.91126,0 18.45297,-33.90753,0 18.44874,-33.90399,0 18.44448,-33.90129,0 18.44015,-33.89929,0 18.43556,-33.89882,0 18.43332,-33.899,0 18.43119,-33.89951,0 18.42957,-33.90013,0 18.42805,-33.90056,0 18.42738,-33.89978,0 18.42802,-33.89832,0 18.42912,-33.89667,0 18.43029,-33.89497,0 18.433,-33.89133,0 18.43573,-33.8877,0 18.43635,-33.88353,0 18.43414,-33.8796,0 18.43052,-33.87685,0 18.42581,-33.8757,0 18.4206,-33.87634,0 18.41544,-33.87794,0 18.41017,-33.88005,0 18.4049,-33.88235,0 18.39935,-33.88504,0 18.3947,-33.88788,0 18.38994,-33.8909,0 18.38516,-33.89366,0 18.38018,-33.89659,0 18.37469,-33.90018,0 18.37026,-33.90404,0 18.36594,-33.90879,0 18.36213,-33.91383,0 18.35855,-33.91924,0 18.35552,-33.92466,0 18.35277,-33.93077,0 18.35025,-33.93649,0 18.34599,-33.94533,0 18.34579,-33.95087,0 18.3498,-33.95302,0 18.35346,-33.95087,0 18.35638,-33.94771,0 18.35944,-33.944,0 18.3623,-33.94006,0 18.36508,-33.93616,0 18.36774,-33.93242,0 18.37189,-33.92633,0 18.37491,-33.92235,0 18.37852,-33.91805,0 18.38219,-33.91405,0 18.38579,-33.9104,0 18.39464,-33.90198,0 18.39947,-33.89846,0 18.4044,-33.89571,0 18.40925,-33.89347,0 18.41443,-33.8914,0 18.41944,-33.88975,0 18.42407,-33.88834,0 18.42916,-33.88696,0 18.43444,-33.8866,0 18.43981,-33.88672,0 18.4449,-33.88798,0 18.44765,-33.89073,0 18.44707,-33.89389,0 18.44444,-33.89594,0 18.44033,-33.8974,0 18.43652,-33.89832,0 18.43472,-33.89869,0 18.43225,-33.89925,0 18.43014,-33.89971,0 18.42878,-33.90005,0 18.42743,-33.90056,0
        </coordinates>
      </LineString>
    </Placemark>
  </Document>
</kml>