<?xml version="1.0" encoding="UTF-8"?>
<kml xmlns="http://www.opengis.net/kml/2.2">
  <Document>
    <name>FR24 3ff0e221 - Optimised</name>
    <description><![CDATA[Optimised flight path with 61 points (decimated from 302 original points). Source format: Standard KML]]></description>
    
    <Style id="flightPath">
      <LineStyle>
        <color>ffff0000</color>
        <width>3</width>
      </LineStyle>
    </Style>
    
    <Placemark>
      <name>Flight Path</name>
      <description><![CDATA[Optimized flight path]]></description>
      <styleUrl>#flightPath</styleUrl>
      <LineString>
        <extrude>1</extrude>
        <tessellate>1</tessellate>
        <altitudeMode>absolute</altitudeMode>
        <coordinates>
          18.43404,-33.88045,0 18.48408,-33.94212,0 18.48228,-33.94872,0 18.47899,-33.95686,0 18.48417,-33.96229,0 18.48362,-33.96801,0 18.48283,-33.97323,0 18.48067,-33.97879,0 18.48037,-33.98333,0 18.47979,-33.98824,0 18.47869,-33.99269,0 18.47517,-33.99673,0 18.46902,-34.00028,0 18.46163,-34.00395,0 18.4553,-34.00682,0 18.44866,-34.00964,0 18.44267,-34.01266,0 18.43714,-34.01649,0 18.43273,-34.02083,0 18.42794,-34.02517,0 18.42185,-34.02898,0 18.41484,-34.03321,0 18.4093,-34.03745,0 18.40644,-34.04258,0 18.40905,-34.0487,0 18.41776,-34.05258,0 18.42332,-34.05772,0 18.4267,-34.06338,0 18.42881,-34.07021,0 18.43514,-34.07382,0 18.44248,-34.07705,0 18.4496,-34.0799,0 18.45764,-34.08268,0 18.46564,-34.08501,0 18.46967,-34.08999,0 18.47132,-34.09641,0 18.47213,-34.10188,0 18.47396,-34.10727,0 18.47443,-34.11239,0 18.46984,-34.11744,0 18.46459,-34.12245,0 18.46035,-34.12686,0 18.45592,-34.13153,0 18.4507,-34.13589,0 18.44287,-34.13744,0 18.43443,-34.13596,0 18.42611,-34.13311,0 18.41808,-34.13054,0 18.40911,-34.12757,0 18.39937,-34.12402,0 18.38993,-34.12043,0 18.38135,-34.11707,0 18.37239,-34.11339,0 18.36452,-34.11055,0 18.35489,-34.10683,0 18.31065,-34.07193,0 18.30582,-34.05764,0 18.29855,-34.0275,0 18.36974,-33.91237,0 18.38563,-33.89543,0 18.43011,-33.89697,0
        </coordinates>
      </LineString>
    </Placemark>
  </Document>
</kml>