<?xml version="1.0" encoding="UTF-8"?>
<kml xmlns="http://www.opengis.net/kml/2.2">
  <Document>
    <name>FR24 ZSHGD 3ddbc6ef - Optimised</name>
    <description><![CDATA[Optimised flight path with 203 points (decimated from 1015 original points). Source format: Standard KML]]></description>
    
    <Style id="flightPath">
      <LineStyle>
        <color>ffff0000</color>
        <width>3</width>
      </LineStyle>
    </Style>
    
    <Placemark>
      <name>Flight Path</name>
      <description><![CDATA[Source: ADS-B
Start (SAST): 2026-01-11 13:34:12
End (SAST): 2026-01-11 14:55:59
Points: 1015]]></description>
      <styleUrl>#flightPath</styleUrl>
      <LineString>
        <extrude>1</extrude>
        <tessellate>1</tessellate>
        <altitudeMode>absolute</altitudeMode>
        <coordinates>
          18.42745,-33.89985,38.1 18.42704,-33.89809,45.72 18.42951,-33.8951,91.44 18.4322,-33.89185,121.92 18.43472,-33.88854,152.4 18.43663,-33.88467,182.88 18.43584,-33.88097,213.36 18.43225,-33.87839,236.22 18.42766,-33.8774,251.46 18.42301,-33.8774,281.94 18.41824,-33.8779,312.42 18.41343,-33.87858,342.90000000000003 18.40862,-33.8797,381 18.40378,-33.88138,411.48 18.39935,-33.88342,441.96000000000004 18.39546,-33.88575,472.44 18.39151,-33.88845,502.92 18.38786,-33.89099,533.4 18.38007,-33.89667,601.98 18.37648,-33.89955,632.46 18.37312,-33.90257,670.5600000000001 18.36998,-33.90587,701.0400000000001 18.36697,-33.90949,723.9000000000001 18.36399,-33.91349,739.14 18.36118,-33.9174,746.76 18.35678,-33.92429,769.62 18.35461,-33.92867,784.86 18.35272,-33.93328,800.1 18.35112,-33.93807,807.72 18.34963,-33.94308,815.34 18.34831,-33.94813,822.96 18.34774,-33.95334,830.58 18.35109,-33.95627,861.0600000000001 18.35457,-33.95343,838.2 18.35615,-33.94873,800.1 18.35765,-33.94354,746.76 18.35984,-33.93741,693.4200000000001 18.36205,-33.93258,655.32 18.36482,-33.92747,632.46 18.36754,-33.92322,632.46 18.3711,-33.9185,632.46 18.37508,-33.91438,632.46 18.37915,-33.91047,632.46 18.38373,-33.9066,632.46 18.38877,-33.90316,632.46 18.39414,-33.90001,624.84 18.3998,-33.89703,609.6 18.40541,-33.89424,579.12 18.41423,-33.89026,518.1600000000001 18.42007,-33.88803,472.44 18.42527,-33.88635,426.72 18.42957,-33.88326,403.86 18.42957,-33.87909,373.38 18.42607,-33.87606,358.14000000000004 18.4203,-33.87541,342.90000000000003 18.41488,-33.87703,350.52000000000004 18.40984,-33.87909,381 18.40485,-33.88118,411.48 18.39846,-33.88399,441.96000000000004 18.39403,-33.88646,472.44 18.38982,-33.88921,495.3 18.38579,-33.89227,518.1600000000001 18.38144,-33.89576,533.4 18.37407,-33.90207,579.12 18.36966,-33.90637,609.6 18.36628,-33.90994,640.08 18.3632,-33.91356,670.5600000000001 18.36028,-33.91727,708.6600000000001 18.35775,-33.92108,731.52 18.35552,-33.92509,762 18.35345,-33.92999,777.24 18.35199,-33.93439,800.1 18.35053,-33.93951,800.1 18.34906,-33.94463,807.72 18.34745,-33.95008,815.34 18.34582,-33.95563,822.96 18.34229,-33.9662,830.58 18.33461,-33.98767,883.9200000000001 18.33338,-33.99339,899.1600000000001 18.33282,-33.99875,914.4000000000001 18.33269,-34.00413,922.0200000000001 18.33327,-34.00964,922.0200000000001 18.33458,-34.01498,922.0200000000001 18.3367,-34.02028,922.0200000000001 18.33915,-34.02521,922.0200000000001 18.34173,-34.02983,922.0200000000001 18.34551,-34.03662,914.4000000000001 18.35485,-34.0546,899.1600000000001 18.36107,-34.06499,906.7800000000001 18.36954,-34.07735,914.4000000000001 18.37648,-34.08632,914.4000000000001 18.38053,-34.09081,906.7800000000001 18.38453,-34.09486,906.7800000000001 18.38877,-34.09863,883.9200000000001 18.3938,-34.10254,861.0600000000001 18.39815,-34.10585,845.82 18.40249,-34.10916,807.72 18.40639,-34.11236,769.62 18.42183,-34.1245,678.1800000000001 18.43377,-34.13264,632.46 18.43861,-34.1348,609.6 18.44393,-34.13559,594.36 18.45019,-34.1347,579.12 18.45554,-34.13275,571.5 18.46081,-34.12991,579.12 18.46516,-34.12684,579.12 18.46959,-34.1228,586.74 18.47295,-34.11836,579.12 18.47564,-34.11351,571.5 18.47752,-34.10794,586.74 18.47867,-34.10339,594.36 18.47928,-34.09882,579.12 18.47968,-34.09401,556.26 18.47996,-34.08847,533.4 18.47969,-34.07312,502.92 18.47969,-34.06539,510.54 18.47979,-34.05354,487.68 18.47895,-34.03662,472.44 18.47805,-34.0177,472.44 18.47786,-34.00389,464.82000000000005 18.47811,-33.99857,464.82000000000005 18.47844,-33.99326,472.44 18.47958,-33.98053,457.20000000000005 18.48052,-33.97499,441.96000000000004 18.48141,-33.9695,441.96000000000004 18.48225,-33.964,426.72 18.48265,-33.95869,419.1 18.48238,-33.95301,411.48 18.48124,-33.94771,411.48 18.47951,-33.94254,403.86 18.47746,-33.93789,396.24 18.47474,-33.93311,381 18.47177,-33.92889,350.52000000000004 18.46842,-33.92457,335.28000000000003 18.46482,-33.92065,327.66 18.46115,-33.91666,304.8 18.4577,-33.91283,320.04 18.4544,-33.9093,304.8 18.45085,-33.906,281.94 18.44696,-33.9033,251.46 18.44268,-33.90193,205.74 18.43842,-33.90143,160.02 18.43444,-33.90097,106.68 18.43108,-33.90033,76.2 18.42871,-33.89994,45.72 18.42755,-33.89983,38.1 18.42613,-33.89817,60.96 18.42788,-33.89543,91.44 18.43077,-33.89254,121.92 18.43377,-33.88934,152.4 18.43612,-33.8855,198.12 18.435,-33.88174,243.84 18.43091,-33.87941,274.32 18.42581,-33.8784,312.42 18.42099,-33.87827,342.90000000000003 18.416,-33.87859,373.38 18.4109,-33.87955,411.48 18.40656,-33.88081,441.96000000000004 18.4017,-33.88268,472.44 18.397,-33.88472,495.3 18.39209,-33.88705,518.1600000000001 18.38725,-33.8898,533.4 18.38293,-33.89273,541.02 18.3787,-33.89627,556.26 18.37515,-33.89962,571.5 18.37166,-33.90302,594.36 18.36662,-33.90833,632.46 18.36273,-33.91289,647.7 18.35956,-33.91718,670.5600000000001 18.35664,-33.9212,693.4200000000001 18.35395,-33.92542,701.0400000000001 18.35176,-33.93008,716.2800000000001 18.35025,-33.93498,723.9000000000001 18.34935,-33.93983,739.14 18.34883,-33.94501,746.76 18.35049,-33.94966,762 18.35552,-33.94954,746.76 18.35787,-33.94552,716.2800000000001 18.35967,-33.94093,685.8000000000001 18.36185,-33.93613,662.94 18.36456,-33.93165,632.46 18.368,-33.92732,609.6 18.37127,-33.92349,594.36 18.37481,-33.91936,579.12 18.38371,-33.91008,541.02 18.38837,-33.90577,525.78 18.393,-33.90204,502.92 18.3975,-33.89891,487.68 18.40204,-33.89612,464.82000000000005 18.40708,-33.89347,449.58000000000004 18.41217,-33.8911,426.72 18.41743,-33.88887,396.24 18.42287,-33.88691,365.76 18.42839,-33.88577,350.52000000000004 18.43357,-33.88626,342.90000000000003 18.43792,-33.88811,327.66 18.44141,-33.8911,289.56 18.44302,-33.8947,251.46 18.44134,-33.89864,198.12 18.43723,-33.90078,152.4 18.43374,-33.90088,121.92 18.4308,-33.90065,76.2 18.42859,-33.90032,45.72
        </coordinates>
      </LineString>
    </Placemark>
  </Document>
</kml>