<?xml version="1.0" encoding="UTF-8"?>
<kml xmlns="http://www.opengis.net/kml/2.2">
  <Document>
    <name>FR24 40fcbfbb - Optimised</name>
    <description><![CDATA[Optimised flight path with 181 points (decimated from 905 original points). Source format: Standard KML]]></description>
    
    <Style id="flightPath">
      <LineStyle>
        <color>ffff0000</color>
        <width>3</width>
      </LineStyle>
    </Style>
    
    <Placemark>
      <name>Flight Path</name>
      <description><![CDATA[Optimized flight path]]></description>
      <styleUrl>#flightPath</styleUrl>
      <LineString>
        <extrude>1</extrude>
        <tessellate>1</tessellate>
        <altitudeMode>absolute</altitudeMode>
        <coordinates>
          18.43185,-33.90088,0 18.43741,-33.90019,0 18.44044,-33.89731,0 18.4409,-33.89352,0 18.43821,-33.89022,0 18.43371,-33.88783,0 18.42912,-33.88596,0 18.42396,-33.88458,0 18.41881,-33.88365,0 18.41314,-33.88309,0 18.40765,-33.88339,0 18.40199,-33.88477,0 18.39649,-33.88481,0 18.39718,-33.881,0 18.403,-33.88193,0 18.40828,-33.88403,0 18.40742,-33.88831,0 18.40239,-33.89096,0 18.39729,-33.89361,0 18.39283,-33.89627,0 18.38825,-33.89955,0 18.38448,-33.90325,0 18.38099,-33.90753,0 18.37755,-33.91283,0 18.37531,-33.918,0 18.37424,-33.9245,0 18.37391,-33.93082,0 18.37383,-33.93728,0 18.37329,-33.944,0 18.37284,-33.95018,0 18.37234,-33.957,0 18.37126,-33.9633,0 18.36937,-33.96954,0 18.36617,-33.9762,0 18.3625,-33.98155,0 18.35793,-33.98737,0 18.419,-34.07319,0 18.41637,-34.06677,0 18.41517,-34.06129,0 18.41491,-34.05609,0 18.41509,-34.05089,0 18.41475,-34.04558,0 18.41413,-34.04042,0 18.41626,-34.03493,0 18.41938,-34.02997,0 18.42321,-34.0252,0 18.42782,-34.02171,0 18.43403,-34.01891,0 18.44048,-34.01643,0 18.44674,-34.01356,0 18.45161,-34.01028,0 18.45601,-34.00627,0 18.46022,-34.00212,0 18.4641,-33.99722,0 18.46622,-33.99256,0 18.46777,-33.98777,0 18.47042,-33.98254,0 18.47174,-33.97772,0 18.47384,-33.97264,0 18.47424,-33.96675,0 18.46981,-33.96323,0 18.46527,-33.95961,0 18.46107,-33.9565,0 18.45664,-33.95325,0 18.4535,-33.94954,0 18.45182,-33.94478,0 18.45036,-33.93919,0 18.44907,-33.93388,0 18.44673,-33.92653,0 18.44519,-33.92089,0 18.44627,-33.91512,0 18.44481,-33.90903,0 18.44206,-33.90312,0 18.44015,-33.89711,0 18.43814,-33.89168,0 18.43444,-33.88678,0 18.42822,-33.88582,0 18.42351,-33.88925,0 18.42357,-33.89333,0 18.42579,-33.89664,0 18.42705,-33.8992,0 18.42716,-33.90055,0 18.42831,-33.90064,0 18.43013,-33.90038,0 18.43338,-33.9001,0 18.4368,-33.89827,0 18.43769,-33.89433,0 18.43729,-33.89073,0 18.43632,-33.88747,0 18.43343,-33.88449,0 18.42842,-33.88323,0 18.42334,-33.88321,0 18.41824,-33.8837,0 18.4132,-33.88472,0 18.40822,-33.88644,0 18.40367,-33.88857,0 18.39952,-33.8909,0 18.39546,-33.89371,0 18.391,-33.89692,0 18.38696,-33.9001,0 18.38299,-33.90363,0 18.37929,-33.90747,0 18.37543,-33.91182,0 18.37177,-33.91666,0 18.36903,-33.92159,0 18.36707,-33.92683,0 18.36576,-33.93314,0 18.36496,-33.93877,0 18.36432,-33.94533,0 18.36611,-33.95128,0 18.37011,-33.95632,0 18.37054,-33.96323,0 18.36931,-33.97073,0 18.37183,-33.97531,0 18.37337,-33.97247,0 18.37275,-33.96484,0 18.3725,-33.95892,0 18.37194,-33.95343,0 18.37143,-33.94831,0 18.37099,-33.94276,0 18.37088,-33.9369,0 18.37149,-33.93123,0 18.37318,-33.92574,0 18.37532,-33.92075,0 18.37824,-33.91573,0 18.38147,-33.91045,0 18.38591,-33.90353,0 18.38999,-33.89841,0 18.39512,-33.89417,0 18.40047,-33.89099,0 18.40748,-33.88797,0 18.41393,-33.88609,0 18.42127,-33.88477,0 18.42974,-33.88454,0 18.43736,-33.88628,0 18.4396,-33.89113,0 18.43495,-33.89374,0 18.42923,-33.89305,0 18.42613,-33.89571,0 18.42699,-33.89855,0 18.4271,-33.90018,0 18.42794,-33.9007,0 18.42968,-33.90036,0 18.43414,-33.89943,0 18.43798,-33.89724,0 18.43932,-33.89323,0 18.43926,-33.88943,0 18.43786,-33.88607,0 18.43431,-33.88291,0 18.4306,-33.88067,0 18.42596,-33.87904,0 18.4243,-33.87566,0 18.42859,-33.87397,0 18.43311,-33.87564,0 18.437,-33.87778,0 18.43713,-33.88174,0 18.43265,-33.88339,0 18.42682,-33.88388,0 18.42088,-33.88426,0 18.41509,-33.88486,0 18.40925,-33.88668,0 18.40389,-33.88953,0 18.39867,-33.89324,0 18.39357,-33.89697,0 18.389,-33.90088,0 18.38522,-33.90567,0 18.38139,-33.91042,0 18.37733,-33.91516,0 18.37234,-33.92079,0 18.36834,-33.92536,0 18.36508,-33.93076,0 18.36119,-33.93542,0 18.35587,-33.93542,0 18.35507,-33.93196,0 18.35873,-33.92932,0 18.36415,-33.92899,0 18.36875,-33.93228,0 18.36983,-33.93779,0 18.37006,-33.94328,0 18.37009,-33.94908,0 18.3704,-33.95478,0
        </coordinates>
      </LineString>
    </Placemark>
  </Document>
</kml>