<?xml version="1.0" encoding="UTF-8"?>
<kml xmlns="http://www.opengis.net/kml/2.2">
  <Document>
    <name>FR24 3f0e533b - Optimised</name>
    <description><![CDATA[Optimised flight path with 155 points (decimated from 771 original points). Source format: Standard KML]]></description>
    
    <Style id="flightPath">
      <LineStyle>
        <color>ffff0000</color>
        <width>3</width>
      </LineStyle>
    </Style>
    
    <Placemark>
      <name>Flight Path</name>
      <description><![CDATA[Optimized flight path]]></description>
      <styleUrl>#flightPath</styleUrl>
      <LineString>
        <extrude>1</extrude>
        <tessellate>1</tessellate>
        <altitudeMode>absolute</altitudeMode>
        <coordinates>
          18.4285,-33.89822,0 18.4338,-33.88989,0 18.43887,-33.89749,0 18.43511,-33.89836,0 18.42906,-33.90005,0 18.42766,-33.89937,0 18.42854,-33.89771,0 18.43057,-33.89429,0 18.43294,-33.89077,0 18.43563,-33.887,0 18.43489,-33.88303,0 18.43111,-33.88053,0 18.42665,-33.87927,0 18.42228,-33.87849,0 18.41784,-33.87816,0 18.41309,-33.87816,0 18.40857,-33.87872,0 18.40405,-33.88007,0 18.39997,-33.88193,0 18.39599,-33.88458,0 18.39207,-33.8877,0 18.38825,-33.89085,0 18.3783,-33.89952,0 18.37447,-33.90344,0 18.37127,-33.90688,0 18.36796,-33.91077,0 18.36502,-33.91521,0 18.36258,-33.91969,0 18.36004,-33.92448,0 18.35758,-33.92941,0 18.35501,-33.93407,0 18.35215,-33.93951,0 18.3512,-33.94643,0 18.35036,-33.95197,0 18.34498,-33.96135,0 18.34333,-33.97159,0 18.35484,-33.96651,0 18.35849,-33.9575,0 18.35981,-33.95181,0 18.36101,-33.94583,0 18.36233,-33.93998,0 18.36398,-33.93439,0 18.36544,-33.9283,0 18.36748,-33.92285,0 18.37127,-33.91805,0 18.37578,-33.91359,0 18.38035,-33.90866,0 18.3845,-33.90413,0 18.38905,-33.89971,0 18.39449,-33.8958,0 18.40075,-33.89264,0 18.40719,-33.8905,0 18.41372,-33.88877,0 18.42026,-33.88737,0 18.42648,-33.88687,0 18.43214,-33.88812,0 18.43646,-33.89058,0 18.43966,-33.89365,0 18.43958,-33.89687,0 18.43609,-33.89836,0 18.43192,-33.89932,0 18.42819,-33.90036,0 18.42755,-33.89914,0 18.42906,-33.89667,0 18.4314,-33.89333,0 18.43426,-33.89022,0 18.43655,-33.88682,0 18.43649,-33.88263,0 18.43363,-33.8797,0 18.42997,-33.88151,0 18.43226,-33.88454,0 18.43382,-33.88751,0 18.43088,-33.88868,0 18.4775,-34.00106,0 18.47852,-33.98654,0 18.48043,-33.96735,0 18.48158,-33.95906,0 18.48225,-33.95352,0 18.48238,-33.94766,0 18.48146,-33.94221,0 18.47986,-33.93677,0 18.4774,-33.93244,0 18.47357,-33.92806,0 18.46985,-33.92434,0 18.46573,-33.92038,0 18.46172,-33.91666,0 18.45778,-33.91265,0 18.45434,-33.9087,0 18.45148,-33.90477,0 18.44834,-33.90125,0 18.44507,-33.89869,0 18.44101,-33.89753,0 18.43736,-33.89799,0 18.43403,-33.89883,0 18.42916,-33.90041,0 18.42739,-33.90032,0 18.42779,-33.89855,0 18.42945,-33.89613,0 18.43186,-33.89301,0 18.43454,-33.88956,0 18.43672,-33.88575,0 18.43597,-33.88202,0 18.4326,-33.87955,0 18.42794,-33.87891,0 18.42333,-33.87904,0 18.41858,-33.87955,0 18.41417,-33.88025,0 18.40944,-33.8811,0 18.40479,-33.88197,0 18.39963,-33.88339,0 18.39476,-33.88541,0 18.3898,-33.88812,0 18.38539,-33.89105,0 18.38099,-33.89413,0 18.37687,-33.89724,0 18.37278,-33.90074,0 18.36864,-33.90454,0 18.36514,-33.90842,0 18.36157,-33.91264,0 18.35844,-33.91717,0 18.35485,-33.92171,0 18.35238,-33.92656,0 18.35053,-33.93182,0 18.34934,-33.93732,0 18.35066,-33.94347,0 18.35152,-33.94943,0 18.35089,-33.95595,0 18.3427,-33.96735,0 18.34689,-33.97577,0 18.35849,-33.96291,0 18.36079,-33.95558,0 18.36079,-33.94977,0 18.36113,-33.94423,0 18.36205,-33.93863,0 18.36416,-33.9329,0 18.36589,-33.92743,0 18.36858,-33.9223,0 18.37262,-33.91736,0 18.37676,-33.91269,0 18.38385,-33.90511,0 18.38951,-33.89962,0 18.39487,-33.89607,0 18.40141,-33.89296,0 18.40794,-33.89063,0 18.41406,-33.88905,0 18.41995,-33.88798,0 18.42567,-33.88752,0 18.43077,-33.88863,0 18.43511,-33.89081,0 18.43797,-33.89374,0 18.43912,-33.89697,0 18.43678,-33.89901,0 18.43332,-33.89937,0 18.43014,-33.90009,0 18.42755,-33.90075,0
        </coordinates>
      </LineString>
    </Placemark>
  </Document>
</kml>