<?xml version="1.0" encoding="UTF-8"?>
<kml xmlns="http://www.opengis.net/kml/2.2">
  <Document>
    <name>FR24 41dc3253 - Optimised</name>
    <description><![CDATA[Optimised flight path with 238 points (decimated from 1186 original points). Source format: Standard KML]]></description>
    
    <Style id="flightPath">
      <LineStyle>
        <color>ffff0000</color>
        <width>3</width>
      </LineStyle>
    </Style>
    
    <Placemark>
      <name>Flight Path</name>
      <description><![CDATA[Optimized flight path]]></description>
      <styleUrl>#flightPath</styleUrl>
      <LineString>
        <extrude>1</extrude>
        <tessellate>1</tessellate>
        <altitudeMode>absolute</altitudeMode>
        <coordinates>
          18.43826,-33.90199,0 18.44427,-33.90316,0 18.44806,-33.90463,0 18.45165,-33.90646,0 18.45513,-33.90848,0 18.45852,-33.91088,0 18.46172,-33.91335,0 18.46494,-33.91612,0 18.46779,-33.91885,0 18.47076,-33.92203,0 18.47322,-33.92517,0 18.47563,-33.92862,0 18.47749,-33.93201,0 18.47895,-33.93549,0 18.48041,-33.93887,0 18.48153,-33.94249,0 18.4822,-33.94601,0 18.48265,-33.94977,0 18.48287,-33.9538,0 18.4831,-33.95728,0 18.48335,-33.96074,0 18.48349,-33.96465,0 18.48352,-33.96819,0 18.48354,-33.97215,0 18.4836,-33.97646,0 18.48375,-33.98532,0 18.48352,-33.9998,0 18.48272,-34.01293,0 18.48204,-34.02298,0 18.48125,-34.03102,0 18.47996,-34.04301,0 18.479,-34.05739,0 18.47794,-34.0719,0 18.47677,-34.08331,0 18.47626,-34.08751,0 18.47563,-34.09193,0 18.47497,-34.09616,0 18.47397,-34.10049,0 18.47239,-34.10518,0 18.47065,-34.10948,0 18.46869,-34.1136,0 18.46573,-34.11795,0 18.46213,-34.12189,0 18.45793,-34.12578,0 18.45314,-34.12954,0 18.44736,-34.13331,0 18.43998,-34.13429,0 18.43157,-34.13196,0 18.42407,-34.12912,0 18.41595,-34.12568,0 18.40319,-34.12028,0 18.37996,-34.11081,0 18.37166,-34.10789,0 18.36353,-34.10515,0 18.35552,-34.10216,0 18.3484,-34.0984,0 18.34208,-34.09346,0 18.33719,-34.08751,0 18.33258,-34.0815,0 18.32665,-34.08018,0 18.32668,-34.08276,0 18.33007,-34.08476,0 18.33424,-34.08564,0 18.33561,-34.08136,0 18.32985,-34.07629,0 18.32319,-34.07149,0 18.31611,-34.06659,0 18.30944,-34.06165,0 18.30317,-34.05606,0 18.29807,-34.05006,0 18.29375,-34.03931,0 18.2959,-34.02852,0 18.30482,-34.01418,0 18.31449,-34.0015,0 18.32342,-33.98606,0 18.33893,-33.95975,0 18.35295,-33.93533,0 18.35564,-33.92913,0 18.35417,-33.92413,0 18.35014,-33.92536,0 18.34963,-33.92967,0 18.3498,-33.93398,0 18.35529,-33.93598,0 18.35866,-33.93068,0 18.36176,-33.92504,0 18.36533,-33.91928,0 18.3692,-33.91363,0 18.37306,-33.90857,0 18.37738,-33.90358,0 18.38179,-33.89897,0 18.38654,-33.89496,0 18.39195,-33.89127,0 18.39746,-33.88845,0 18.40284,-33.88635,0 18.40602,-33.88234,0 18.40143,-33.88028,0 18.39649,-33.88211,0 18.39341,-33.88545,0 18.39773,-33.88573,0 18.40307,-33.88421,0 18.40911,-33.88307,0 18.4152,-33.88249,0 18.42047,-33.88263,0 18.42493,-33.88435,0 18.42688,-33.88784,0 18.42755,-33.89127,0 18.42768,-33.89329,0 18.42768,-33.89478,0 18.4276,-33.8963,0 18.42755,-33.89749,0 18.42733,-33.89892,0 18.42687,-33.9006,0 18.42905,-33.90102,0 18.4314,-33.90125,0 18.43363,-33.90139,0 18.43562,-33.90143,0 18.43815,-33.90167,0 18.44123,-33.90234,0 18.44519,-33.90385,0 18.44885,-33.90573,0 18.45232,-33.90775,0 18.45619,-33.91026,0 18.45978,-33.91312,0 18.46281,-33.9161,0 18.46577,-33.91924,0 18.46848,-33.92248,0 18.4711,-33.92578,0 18.47357,-33.92899,0 18.47563,-33.93221,0 18.47763,-33.93575,0 18.47917,-33.93938,0 18.48055,-33.94352,0 18.48141,-33.9473,0 18.48186,-33.95128,0 18.48221,-33.95511,0 18.48227,-33.95916,0 18.48203,-33.96281,0 18.48169,-33.96679,0 18.48141,-33.97069,0 18.48113,-33.9749,0 18.48083,-33.97894,0 18.48069,-33.98332,0 18.48063,-33.98749,0 18.48035,-33.99202,0 18.48007,-33.99619,0 18.47975,-34.00022,0 18.4794,-34.0045,0 18.479,-34.0086,0 18.47866,-34.01609,0 18.47826,-34.02349,0 18.47794,-34.0274,0 18.4778,-34.03173,0 18.47752,-34.04356,0 18.47717,-34.05557,0 18.47672,-34.06986,0 18.47637,-34.07638,0 18.47626,-34.08075,0 18.47609,-34.08517,0 18.47564,-34.09222,0 18.47514,-34.09978,0 18.4746,-34.10408,0 18.47379,-34.10843,0 18.47208,-34.11274,0 18.46939,-34.11679,0 18.46572,-34.12093,0 18.46146,-34.12495,0 18.45697,-34.12875,0 18.45165,-34.13246,0 18.44564,-34.13522,0 18.4373,-34.13599,0 18.42916,-34.13452,0 18.42075,-34.13201,0 18.41223,-34.12917,0 18.40294,-34.12614,0 18.39415,-34.12293,0 18.37822,-34.11671,0 18.35793,-34.10783,0 18.35094,-34.10398,0 18.34505,-34.09942,0 18.3396,-34.09369,0 18.33561,-34.08769,0 18.33467,-34.08179,0 18.33097,-34.07877,0 18.3308,-34.08089,0 18.33401,-34.0822,0 18.33669,-34.0795,0 18.332,-34.07442,0 18.32565,-34.07061,0 18.31827,-34.06581,0 18.31157,-34.06091,0 18.30507,-34.05579,0 18.29835,-34.048,0 18.29647,-34.03509,0 18.30216,-34.02164,0 18.31135,-34.0085,0 18.32245,-33.99049,0 18.33243,-33.97197,0 18.34224,-33.95641,0 18.35143,-33.94254,0 18.35815,-33.93277,0 18.36073,-33.92761,0 18.35905,-33.92294,0 18.35644,-33.92434,0 18.35563,-33.9283,0 18.35434,-33.93297,0 18.353,-33.93736,0 18.35451,-33.9402,0 18.3572,-33.93617,0 18.35939,-33.92953,0 18.36216,-33.92308,0 18.36516,-33.91731,0 18.36852,-33.91205,0 18.37297,-33.9067,0 18.37744,-33.90189,0 18.38299,-33.89711,0 18.38842,-33.89333,0 18.39448,-33.89017,0 18.4005,-33.88756,0 18.40611,-33.88579,0 18.41124,-33.88403,0 18.41068,-33.87993,0 18.40569,-33.87973,0 18.4009,-33.88095,0 18.39827,-33.88337,0 18.40204,-33.88393,0 18.40799,-33.88293,0 18.41417,-33.88184,0 18.42012,-33.88156,0 18.42447,-33.8822,0 18.42659,-33.8844,0 18.42715,-33.88765,0 18.42745,-33.89082,0 18.42755,-33.89346,0 18.42762,-33.89492,0 18.42756,-33.89641,0 18.42749,-33.89832,0 18.42728,-33.89985,0 18.42705,-33.90115,0
        </coordinates>
      </LineString>
    </Placemark>
  </Document>
</kml>