<?xml version="1.0" encoding="UTF-8"?>
<kml xmlns="http://www.opengis.net/kml/2.2">
  <Document>
    <name>FR24 ZSHIE 3e1dcd0e - Optimised</name>
    <description><![CDATA[Optimised flight path with 299 points (decimated from 1495 original points). Source format: Standard KML]]></description>
    
    <Style id="flightPath">
      <LineStyle>
        <color>ffff0000</color>
        <width>3</width>
      </LineStyle>
    </Style>
    
    <Placemark>
      <name>Flight Path</name>
      <description><![CDATA[Park boundary / NP17 restricted airspace. Red track segments show flight inside this area.]]></description>
      <styleUrl>#flightPath</styleUrl>
      <LineString>
        <extrude>1</extrude>
        <tessellate>1</tessellate>
        <altitudeMode>absolute</altitudeMode>
        <coordinates>
          18.42916,-33.89776,60.96 18.43225,-33.89366,106.68 18.43374,-33.89054,144.78 18.43456,-33.88737,175.26000000000002 18.4341,-33.88426,205.74 18.43254,-33.88092,243.84 18.43046,-33.87817,274.32 18.42727,-33.87602,312.42 18.42224,-33.87532,358.14000000000004 18.4183,-33.87611,388.62 18.41449,-33.8773,419.1 18.41051,-33.8789,457.20000000000005 18.40685,-33.88058,487.68 18.40344,-33.88225,510.54 18.3998,-33.88431,533.4 18.39633,-33.88623,563.88 18.39117,-33.88911,601.98 18.38751,-33.8917,617.22 18.38396,-33.89441,640.08 18.37984,-33.89771,678.1800000000001 18.37598,-33.9012,701.0400000000001 18.37256,-33.90454,716.2800000000001 18.36908,-33.90814,723.9000000000001 18.36544,-33.91187,731.52 18.36174,-33.91566,739.14 18.3581,-33.91964,746.76 18.35468,-33.92368,746.76 18.34577,-33.93489,769.62 18.34347,-33.93896,784.86 18.34442,-33.94324,800.1 18.34871,-33.94566,815.34 18.35352,-33.94431,792.48 18.35804,-33.94012,777.24 18.36164,-33.93518,762 18.36499,-33.93018,739.14 18.36851,-33.92471,716.2800000000001 18.37222,-33.91928,685.8000000000001 18.37604,-33.91434,655.32 18.38001,-33.90985,640.08 18.38428,-33.90523,624.84 18.39067,-33.89896,609.6 18.39598,-33.89478,563.88 18.40244,-33.89166,533.4 18.40888,-33.88943,518.1600000000001 18.41544,-33.8876,487.68 18.42167,-33.88631,472.44 18.42805,-33.88596,449.58000000000004 18.43377,-33.88701,396.24 18.43843,-33.88919,342.90000000000003 18.44193,-33.89227,297.18 18.44274,-33.89607,236.22 18.44072,-33.89869,182.88 18.43712,-33.89897,121.92 18.43355,-33.89937,83.82000000000001 18.43071,-33.90036,45.72 18.42842,-33.90036,22.86 18.42772,-33.89989,0 18.42867,-33.89786,45.72 18.43057,-33.89534,91.44 18.43248,-33.89268,121.92 18.4342,-33.88998,152.4 18.43512,-33.88677,190.5 18.43427,-33.88353,213.36 18.43209,-33.88115,236.22 18.42833,-33.87973,281.94 18.42447,-33.87973,312.42 18.42087,-33.88025,335.28000000000003 18.41695,-33.88106,358.14000000000004 18.41303,-33.88198,396.24 18.40914,-33.88333,426.72 18.40546,-33.88472,457.20000000000005 18.40187,-33.88646,480.06 18.39832,-33.88835,495.3 18.39448,-33.89085,518.1600000000001 18.39071,-33.8931,548.64 18.38719,-33.89543,571.5 18.38377,-33.89813,586.74 18.38024,-33.90097,601.98 18.37682,-33.9039,624.84 18.37355,-33.90702,640.08 18.37034,-33.91037,662.94 18.36695,-33.91383,678.1800000000001 18.36353,-33.91736,708.6600000000001 18.36057,-33.9207,723.9000000000001 18.35741,-33.92439,731.52 18.35255,-33.93027,754.38 18.34694,-33.93579,762 18.34242,-33.93877,731.52 18.33747,-33.94139,701.0400000000001 18.33172,-33.94296,678.1800000000001 18.32794,-33.94052,708.6600000000001 18.3292,-33.93649,708.6600000000001 18.33292,-33.93351,723.9000000000001 18.33744,-33.93127,739.14 18.34253,-33.92908,731.52 18.3484,-33.92642,708.6600000000001 18.35403,-33.92336,685.8000000000001 18.35993,-33.9202,678.1800000000001 18.36583,-33.91713,662.94 18.37138,-33.91393,647.7 18.37709,-33.91028,624.84 18.38243,-33.90628,609.6 18.38808,-33.90204,586.74 18.39363,-33.89795,563.88 18.39941,-33.89417,541.02 18.40473,-33.89085,510.54 18.41143,-33.88849,480.06 18.41858,-33.88733,441.96000000000004 18.42553,-33.88765,388.62 18.4317,-33.88985,320.04 18.43629,-33.89241,266.7 18.43878,-33.89599,198.12 18.43769,-33.89934,137.16 18.43391,-33.8999,76.2 18.42957,-33.90005,38.1 18.41914,-33.88065,358.14000000000004 18.41177,-33.88202,419.1 18.40759,-33.88319,457.20000000000005 18.40333,-33.88458,487.68 18.3993,-33.88609,510.54 18.39518,-33.88779,541.02 18.38932,-33.89104,571.5 18.38408,-33.8945,594.36 18.38046,-33.89713,617.22 18.37598,-33.90051,640.08 18.37212,-33.90381,655.32 18.36868,-33.90693,670.5600000000001 18.36536,-33.91028,693.4200000000001 18.36208,-33.91388,716.2800000000001 18.35866,-33.91768,731.52 18.35552,-33.92136,746.76 18.35019,-33.92789,754.38 18.33971,-33.94107,807.72 18.33635,-33.94589,822.96 18.33309,-33.95069,830.58 18.32996,-33.95572,830.58 18.32733,-33.96089,830.58 18.32485,-33.96605,830.58 18.3217,-33.97643,815.34 18.32079,-33.98378,815.34 18.32082,-33.98909,838.2 18.32096,-33.99445,853.44 18.3229,-34.00465,861.0600000000001 18.32497,-34.01028,861.0600000000001 18.43349,-33.89168,106.68 18.43632,-33.88705,167.64000000000001 18.43477,-33.87862,243.84 18.43334,-33.87481,266.7 18.43185,-33.87141,281.94 18.43019,-33.86801,304.8 18.42833,-33.86449,320.04 18.42312,-33.8551,335.28000000000003 18.41572,-33.84148,350.52000000000004 18.41303,-33.83757,350.52000000000004 18.41,-33.8335,342.90000000000003 18.40703,-33.8297,342.90000000000003 18.4037,-33.82532,342.90000000000003 18.40075,-33.82173,342.90000000000003 18.39781,-33.81727,350.52000000000004 18.39442,-33.81573,381 18.3938,-33.81871,403.86 18.39762,-33.81844,403.86 18.39745,-33.81487,388.62 18.39437,-33.81159,373.38 18.39123,-33.80791,365.76 18.38775,-33.80347,358.14000000000004 18.38493,-33.79897,350.52000000000004 18.38147,-33.79431,342.90000000000003 18.37727,-33.79069,342.90000000000003 18.37177,-33.78822,342.90000000000003 18.36651,-33.78772,342.90000000000003 18.36113,-33.78983,342.90000000000003 18.35759,-33.79344,335.28000000000003 18.35552,-33.79804,342.90000000000003 18.35501,-33.80241,350.52000000000004 18.35529,-33.80745,350.52000000000004 18.35672,-33.81345,335.28000000000003 18.35821,-33.8183,335.28000000000003 18.35995,-33.82356,335.28000000000003 18.3655,-33.83913,350.52000000000004 18.37093,-33.85593,403.86 18.37346,-33.8632,434.34000000000003 18.37463,-33.86765,449.58000000000004 18.37572,-33.87239,464.82000000000005 18.37637,-33.87657,487.68 18.37658,-33.88086,510.54 18.37635,-33.88505,533.4 18.37547,-33.88898,548.64 18.37391,-33.89273,563.88 18.372,-33.89644,579.12 18.36539,-33.89798,594.36 18.36133,-33.90651,594.36 18.35703,-33.9223,601.98 18.35495,-33.9269,594.36 18.3522,-33.93304,601.98 18.35417,-33.93764,609.6 18.35939,-33.93759,617.22 18.36281,-33.93375,601.98 18.36514,-33.92908,601.98 18.36768,-33.92473,594.36 18.37077,-33.9201,594.36 18.37402,-33.91589,594.36 18.37761,-33.91159,594.36 18.38114,-33.90752,586.74 18.38482,-33.90316,563.88 18.38887,-33.89923,533.4 18.39392,-33.89543,502.92 18.39924,-33.89273,480.06 18.40518,-33.89081,472.44 18.41137,-33.88933,441.96000000000004 18.41695,-33.88824,419.1 18.42236,-33.88724,373.38 18.42751,-33.88691,335.28000000000003 18.43208,-33.88775,297.18 18.43603,-33.88947,259.08000000000004 18.4396,-33.89337,205.74 18.43929,-33.89618,175.26000000000002 18.43287,-33.89845,76.2 18.42762,-33.8999,15.24 18.42676,-33.90102,7.62 18.42699,-33.90091,0 18.42791,-33.89994,0 18.43114,-33.89905,53.34 18.43444,-33.89822,91.44 18.43712,-33.89636,129.54000000000002 18.4387,-33.89323,167.64000000000001 18.43906,-33.88989,198.12 18.43814,-33.88651,228.60000000000002 18.43528,-33.88371,259.08000000000004 18.42544,-33.87941,289.56 18.42075,-33.8796,373.38 18.41623,-33.87978,403.86 18.41168,-33.88065,426.72 18.40748,-33.88184,457.20000000000005 18.40347,-33.88351,480.06 18.39958,-33.8856,510.54 18.39116,-33.88942,556.26 18.38814,-33.89346,586.74 18.38419,-33.89641,609.6 18.38041,-33.89934,632.46 18.37681,-33.90218,655.32 18.37183,-33.90641,685.8000000000001 18.36858,-33.90958,708.6600000000001 18.36571,-33.91321,739.14 18.3632,-33.91718,762 18.36124,-33.92159,769.62 18.35976,-33.92634,769.62 18.35855,-33.93118,769.62 18.3573,-33.93579,784.86 18.35592,-33.94072,784.86 18.35473,-33.94606,784.86 18.35328,-33.95123,792.48 18.35135,-33.95641,792.48 18.34888,-33.96167,792.48 18.34582,-33.9673,792.48 18.3419,-33.98689,777.24 18.34482,-34.00185,777.24 18.34579,-34.0072,777.24 18.34627,-34.01253,777.24 18.34577,-34.01724,777.24 18.34414,-34.02242,777.24 18.34285,-34.02731,792.48 18.34368,-34.03229,792.48 18.34834,-34.03528,777.24 18.35367,-34.03386,777.24 18.3553,-34.02901,777.24 18.35367,-34.02388,754.38 18.3514,-34.01875,739.14 18.34907,-34.01367,716.2800000000001 18.34648,-34.00804,685.8000000000001 18.34442,-34.00227,678.1800000000001 18.34774,-33.9884,647.7 18.35421,-33.97606,640.08 18.35855,-33.96316,640.08 18.35995,-33.95403,640.08 18.36067,-33.94845,640.08 18.36176,-33.943,640.08 18.36313,-33.93774,632.46 18.36468,-33.93239,632.46 18.36634,-33.92769,632.46 18.36863,-33.92276,624.84 18.37177,-33.91829,624.84 18.37559,-33.91397,617.22 18.37915,-33.90977,609.6 18.38293,-33.90544,594.36 18.38657,-33.90111,571.5 18.3906,-33.8972,541.02 18.39603,-33.89375,510.54 18.40153,-33.89138,480.06 18.40742,-33.88971,457.20000000000005 18.41297,-33.88817,434.34000000000003 18.41863,-33.88687,411.48 18.42362,-33.88632,381 18.42867,-33.88669,342.90000000000003 18.43306,-33.88765,320.04 18.43637,-33.8891,281.94 18.43821,-33.89059,243.84 18.43809,-33.89408,205.74 18.43624,-33.89621,160.02
        </coordinates>
      </LineString>
    </Placemark>
    <Placemark>
      <name>Entry 1</name>
      <description><![CDATA[Entry into TMNP (incursion 1) at 2026-01-30 12:41:07 SAST]]></description>
      <Style>
        <IconStyle>
          <color>ff00ff00</color>
          <scale>0.8</scale>
          <Icon><href>http://maps.google.com/mapfiles/kml/shapes/placemark_circle.png</href></Icon>
        </IconStyle>
      </Style>
      <Point>
        <coordinates>18.343994959780648,-33.997951205776204,777.24</coordinates>
      </Point>
    </Placemark>
    <Placemark>
      <name>Exit 1</name>
      <description><![CDATA[Exit from TMNP (incursion 1) at 2026-01-30 12:41:23 SAST]]></description>
      <Style>
        <IconStyle>
          <color>ff0000ff</color>
          <scale>0.8</scale>
          <Icon><href>http://maps.google.com/mapfiles/kml/shapes/placemark_circle.png</href></Icon>
        </IconStyle>
      </Style>
      <Point>
        <coordinates>18.345589375820904,-34.00593836317168,777.24</coordinates>
      </Point>
    </Placemark>
    <Placemark>
      <name>Entry 2</name>
      <description><![CDATA[Entry into TMNP (incursion 2) at 2026-01-30 12:41:35 SAST]]></description>
      <Style>
        <IconStyle>
          <color>ff00ff00</color>
          <scale>0.8</scale>
          <Icon><href>http://maps.google.com/mapfiles/kml/shapes/placemark_circle.png</href></Icon>
        </IconStyle>
      </Style>
      <Point>
        <coordinates>18.346205604989436,-34.01087970030254,773.4654616884515</coordinates>
      </Point>
    </Placemark>
    <Placemark>
      <name>Exit 2</name>
      <description><![CDATA[Exit from TMNP (incursion 2) at 2026-01-30 12:41:52 SAST]]></description>
      <Style>
        <IconStyle>
          <color>ff0000ff</color>
          <scale>0.8</scale>
          <Icon><href>http://maps.google.com/mapfiles/kml/shapes/placemark_circle.png</href></Icon>
        </IconStyle>
      </Style>
      <Point>
        <coordinates>18.34523908844255,-34.01916531063547,777.24</coordinates>
      </Point>
    </Placemark>
    <Placemark>
      <name>Entry 3</name>
      <description><![CDATA[Entry into TMNP (incursion 3) at 2026-01-30 12:42:11 SAST]]></description>
      <Style>
        <IconStyle>
          <color>ff00ff00</color>
          <scale>0.8</scale>
          <Icon><href>http://maps.google.com/mapfiles/kml/shapes/placemark_circle.png</href></Icon>
        </IconStyle>
      </Style>
      <Point>
        <coordinates>18.34283063909432,-34.02800053896928,792.48</coordinates>
      </Point>
    </Placemark>
    <Placemark>
      <name>Exit 3</name>
      <description><![CDATA[Exit from TMNP (incursion 3) at 2026-01-30 12:42:18 SAST]]></description>
      <Style>
        <IconStyle>
          <color>ff0000ff</color>
          <scale>0.8</scale>
          <Icon><href>http://maps.google.com/mapfiles/kml/shapes/placemark_circle.png</href></Icon>
        </IconStyle>
      </Style>
      <Point>
        <coordinates>18.34323950431425,-34.03119846788041,792.48</coordinates>
      </Point>
    </Placemark>
    <Placemark>
      <name>Entry 4</name>
      <description><![CDATA[Entry into TMNP (incursion 4) at 2026-01-30 12:42:20 SAST]]></description>
      <Style>
        <IconStyle>
          <color>ff00ff00</color>
          <scale>0.8</scale>
          <Icon><href>http://maps.google.com/mapfiles/kml/shapes/placemark_circle.png</href></Icon>
        </IconStyle>
      </Style>
      <Point>
        <coordinates>18.343547392574177,-34.03196149524057,792.48</coordinates>
      </Point>
    </Placemark>
    <Placemark>
      <name>Exit 4</name>
      <description><![CDATA[Exit from TMNP (incursion 4) at 2026-01-30 12:42:24 SAST]]></description>
      <Style>
        <IconStyle>
          <color>ff0000ff</color>
          <scale>0.8</scale>
          <Icon><href>http://maps.google.com/mapfiles/kml/shapes/placemark_circle.png</href></Icon>
        </IconStyle>
      </Style>
      <Point>
        <coordinates>18.34459258801069,-34.033376358778554,784.86</coordinates>
      </Point>
    </Placemark>
    <Placemark>
      <name>Entry 5</name>
      <description><![CDATA[Entry into TMNP (incursion 5) at 2026-01-30 12:43:25 SAST]]></description>
      <Style>
        <IconStyle>
          <color>ff00ff00</color>
          <scale>0.8</scale>
          <Icon><href>http://maps.google.com/mapfiles/kml/shapes/placemark_circle.png</href></Icon>
        </IconStyle>
      </Style>
      <Point>
        <coordinates>18.34914578739878,-34.01384386520896,716.2800000000001</coordinates>
      </Point>
    </Placemark>
    <Placemark>
      <name>Exit 5</name>
      <description><![CDATA[Exit from TMNP (incursion 5) at 2026-01-30 12:43:32 SAST]]></description>
      <Style>
        <IconStyle>
          <color>ff0000ff</color>
          <scale>0.8</scale>
          <Icon><href>http://maps.google.com/mapfiles/kml/shapes/placemark_circle.png</href></Icon>
        </IconStyle>
      </Style>
      <Point>
        <coordinates>18.347469337509384,-34.01027895137972,693.4200000000001</coordinates>
      </Point>
    </Placemark>
    <Placemark>
      <name>Entry 6</name>
      <description><![CDATA[Entry into TMNP (incursion 6) at 2026-01-30 12:43:40 SAST]]></description>
      <Style>
        <IconStyle>
          <color>ff00ff00</color>
          <scale>0.8</scale>
          <Icon><href>http://maps.google.com/mapfiles/kml/shapes/placemark_circle.png</href></Icon>
        </IconStyle>
      </Style>
      <Point>
        <coordinates>18.34561587849766,-34.005928703838045,678.4320711503551</coordinates>
      </Point>
    </Placemark>
    <Placemark>
      <name>Exit 6</name>
      <description><![CDATA[Exit from TMNP (incursion 6) at 2026-01-30 12:44:15 SAST]]></description>
      <Style>
        <IconStyle>
          <color>ff0000ff</color>
          <scale>0.8</scale>
          <Icon><href>http://maps.google.com/mapfiles/kml/shapes/placemark_circle.png</href></Icon>
        </IconStyle>
      </Style>
      <Point>
        <coordinates>18.347475999998004,-33.988961000004245,649.1791764817759</coordinates>
      </Point>
    </Placemark>
  </Document>
</kml>