<?xml version="1.0" encoding="UTF-8"?>
<kml xmlns="http://www.opengis.net/kml/2.2">
  <Document>
    <name>FR24 ZSHMB 3dbd70c0 - Optimised</name>
    <description><![CDATA[Optimised flight path with 1129 points (decimated from 5643 original points). Source format: Standard KML]]></description>
    
    <Style id="flightPath">
      <LineStyle>
        <color>ffff0000</color>
        <width>3</width>
      </LineStyle>
    </Style>
    
    <Placemark>
      <name>Flight Path</name>
      <description><![CDATA[Source: ADS-B
Start (SAST): 2026-01-02 09:45:08
End (SAST): 2026-01-02 17:09:48
Points: 5643]]></description>
      <styleUrl>#flightPath</styleUrl>
      <LineString>
        <extrude>1</extrude>
        <tessellate>1</tessellate>
        <altitudeMode>absolute</altitudeMode>
        <coordinates>
          18.4271,-33.90157,0 18.42715,-33.89992,15.24 18.42808,-33.89846,22.86 18.43008,-33.89585,60.96 18.43225,-33.89245,99.06 18.43437,-33.88868,137.16 18.43489,-33.88495,182.88 18.43259,-33.88197,213.36 18.42906,-33.88,259.08000000000004 18.42508,-33.87904,312.42 18.42098,-33.87858,365.76 18.41707,-33.87849,411.48 18.41297,-33.87858,449.58000000000004 18.40908,-33.8789,472.44 18.40502,-33.87951,495.3 18.40044,-33.88063,525.78 18.3961,-33.88234,548.64 18.39226,-33.8844,571.5 18.38853,-33.88696,579.12 18.3847,-33.89022,579.12 18.3813,-33.89351,571.5 18.37767,-33.89738,563.88 18.37424,-33.90143,548.64 18.37143,-33.90539,533.4 18.36858,-33.90994,525.78 18.36617,-33.91425,533.4 18.36387,-33.91878,533.4 18.36164,-33.92308,541.02 18.35878,-33.92895,563.88 18.35709,-33.9332,579.12 18.35513,-33.938,601.98 18.3521,-33.94496,640.08 18.34648,-33.95837,716.2800000000001 18.33994,-33.97829,754.38 18.33299,-33.99779,754.38 18.33178,-34.00203,754.38 18.33155,-34.00669,762 18.332,-34.01139,777.24 18.33355,-34.01558,784.86 18.33584,-34.01995,792.48 18.33854,-34.02406,792.48 18.34116,-34.02819,784.86 18.34362,-34.03257,800.1 18.34602,-34.03737,807.72 18.34851,-34.04173,807.72 18.3518,-34.04631,815.34 18.35535,-34.04979,815.34 18.35758,-34.05436,807.72 18.35455,-34.05817,815.34 18.34919,-34.0573,815.34 18.34762,-34.05327,838.2 18.3518,-34.05073,853.44 18.35598,-34.05362,830.58 18.35552,-34.0585,792.48 18.35312,-34.06339,777.24 18.35037,-34.06809,769.62 18.3478,-34.07302,762 18.34585,-34.07843,746.76 18.34488,-34.08359,731.52 18.34505,-34.08908,716.2800000000001 18.34683,-34.0941,716.2800000000001 18.35076,-34.09831,716.2800000000001 18.35546,-34.10156,723.9000000000001 18.3601,-34.10454,739.14 18.36667,-34.10875,754.38 18.37446,-34.11301,777.24 18.37973,-34.11543,784.86 18.38495,-34.11772,792.48 18.40084,-34.12414,792.48 18.42052,-34.13285,784.86 18.42654,-34.13507,769.62 18.4326,-34.13662,754.38 18.43878,-34.13699,739.14 18.44616,-34.13585,708.6600000000001 18.45227,-34.13347,678.1800000000001 18.45812,-34.13019,640.08 18.46381,-34.12651,624.84 18.46876,-34.12223,601.98 18.4726,-34.11725,571.5 18.47525,-34.112,548.64 18.477,-34.10659,548.64 18.47822,-34.10124,541.02 18.4786,-34.09588,525.78 18.47878,-34.09076,510.54 18.479,-34.08448,510.54 18.48041,-34.06911,495.3 18.48091,-34.06046,457.20000000000005 18.48113,-34.05437,441.96000000000004 18.48164,-34.04677,419.1 18.48242,-34.04031,419.1 18.48281,-34.03523,411.48 18.48307,-34.02992,411.48 18.4833,-34.02182,396.24 18.48321,-34.01294,403.86 18.48352,-34.0025,396.24 18.48438,-33.98534,434.34000000000003 18.48523,-33.97046,411.48 18.48513,-33.96419,396.24 18.48473,-33.95916,411.48 18.48119,-33.95567,449.58000000000004 18.47654,-33.95705,449.58000000000004 18.47786,-33.96083,434.34000000000003 18.4831,-33.9603,411.48 18.48581,-33.95567,419.1 18.48547,-33.95069,419.1 18.48421,-33.94594,419.1 18.48227,-33.94059,426.72 18.48007,-33.9359,419.1 18.47763,-33.93137,411.48 18.47446,-33.92665,388.62 18.47065,-33.92187,350.52000000000004 18.46662,-33.91708,327.66 18.46069,-33.91014,289.56 18.45612,-33.90604,251.46 18.45051,-33.90306,220.98000000000002 18.44515,-33.90134,182.88 18.43971,-33.9001,144.78 18.43523,-33.90064,91.44 18.43192,-33.90125,53.34 18.4285,-33.90134,7.62 18.42704,-33.90079,7.62 18.42688,-33.89943,38.1 18.42848,-33.89682,76.2 18.43046,-33.89392,129.54000000000002 18.43231,-33.89059,175.26000000000002 18.43355,-33.88705,213.36 18.43282,-33.88367,251.46 18.43018,-33.88097,281.94 18.42632,-33.87941,312.42 18.42245,-33.87891,335.28000000000003 18.41681,-33.87923,373.38 18.41251,-33.87979,396.24 18.40821,-33.88051,419.1 18.40417,-33.88156,441.96000000000004 18.40021,-33.88291,464.82000000000005 18.39633,-33.88463,495.3 18.39252,-33.88655,510.54 18.38893,-33.8887,525.78 18.38545,-33.89101,548.64 18.3819,-33.89357,579.12 18.37884,-33.89607,609.6 18.37549,-33.89874,640.08 18.36937,-33.90409,685.8000000000001 18.36628,-33.90738,701.0400000000001 18.36337,-33.91081,708.6600000000001 18.36073,-33.91447,723.9000000000001 18.35838,-33.91824,731.52 18.35614,-33.92276,746.76 18.35455,-33.92709,754.38 18.3534,-33.93183,754.38 18.35277,-33.93663,754.38 18.35197,-33.94161,746.76 18.35094,-33.94659,746.76 18.34946,-33.95157,746.76 18.34638,-33.95906,754.38 18.33755,-33.97815,792.48 18.33361,-33.98923,800.1 18.33254,-33.99399,800.1 18.332,-33.99929,784.86 18.33203,-34.00452,769.62 18.33265,-34.00941,762 18.33429,-34.01498,754.38 18.33635,-34.01968,739.14 18.33882,-34.02434,723.9000000000001 18.3415,-34.02899,716.2800000000001 18.34408,-34.03345,708.6600000000001 18.35216,-34.04855,716.2800000000001 18.35987,-34.06306,731.52 18.36302,-34.06823,746.76 18.36554,-34.07209,762 18.36828,-34.07633,784.86 18.37097,-34.08006,777.24 18.37372,-34.08438,762 18.37654,-34.08893,754.38 18.37945,-34.09309,746.76 18.38299,-34.09753,731.52 18.38668,-34.10138,716.2800000000001 18.391,-34.10533,701.0400000000001 18.39518,-34.10896,693.4200000000001 18.4005,-34.11334,670.5600000000001 18.40513,-34.11662,655.32 18.40994,-34.11981,647.7 18.41488,-34.12294,640.08 18.42463,-34.12894,624.84 18.43472,-34.13429,617.22 18.44032,-34.13592,609.6 18.44627,-34.13576,609.6 18.45165,-34.13373,601.98 18.45703,-34.1304,586.74 18.46189,-34.12666,579.12 18.46589,-34.1228,586.74 18.46956,-34.11865,586.74 18.47273,-34.11429,579.12 18.47466,-34.10966,586.74 18.47574,-34.10496,586.74 18.47643,-34.10037,586.74 18.47671,-34.09543,586.74 18.47682,-34.09067,586.74 18.47694,-34.07759,579.12 18.477,-34.0653,571.5 18.47672,-34.06083,571.5 18.47614,-34.04961,586.74 18.47603,-34.03192,609.6 18.47677,-34.01591,571.5 18.47832,-33.99952,563.88 18.48061,-33.98402,548.64 18.48192,-33.97623,510.54 18.48278,-33.96865,480.06 18.48392,-33.95469,426.72 18.48335,-33.95013,411.48 18.48192,-33.94574,396.24 18.4799,-33.94148,388.62 18.47752,-33.93751,381 18.47508,-33.93393,365.76 18.47205,-33.93013,342.90000000000003 18.46928,-33.92676,327.66 18.4659,-33.92289,312.42 18.45709,-33.91306,259.08000000000004 18.454,-33.90962,243.84 18.45062,-33.90646,220.98000000000002 18.44696,-33.9039,190.5 18.44319,-33.90225,175.26000000000002 18.43964,-33.90162,144.78 18.43666,-33.90148,106.68 18.4345,-33.90138,83.82000000000001 18.43254,-33.90129,53.34 18.43091,-33.90111,38.1 18.42912,-33.90092,15.24 18.42768,-33.90083,0 18.42676,-33.89934,30.48 18.42861,-33.89671,68.58 18.43114,-33.89369,106.68 18.43409,-33.88975,152.4 18.43592,-33.88607,190.5 18.43454,-33.88216,220.98000000000002 18.43119,-33.88023,266.7 18.42659,-33.88002,304.8 18.41457,-33.88146,403.86 18.40862,-33.8823,441.96000000000004 18.4045,-33.88305,464.82000000000005 18.40015,-33.88421,487.68 18.39615,-33.88579,510.54 18.39252,-33.88765,541.02 18.38894,-33.88993,563.88 18.38551,-33.8925,594.36 18.38237,-33.89511,617.22 18.37884,-33.89818,640.08 18.37553,-33.90106,670.5600000000001 18.37177,-33.90472,701.0400000000001 18.36903,-33.90776,716.2800000000001 18.36595,-33.91132,731.52 18.36303,-33.91512,731.52 18.36044,-33.91922,746.76 18.35821,-33.92317,746.76 18.35591,-33.92775,754.38 18.35392,-33.93216,762 18.35014,-33.94034,769.62 18.34414,-33.95436,784.86 18.3368,-33.97531,784.86 18.33452,-33.98709,769.62 18.33372,-33.99254,754.38 18.33304,-33.99811,754.38 18.33282,-34.00351,746.76 18.33315,-34.00854,739.14 18.33418,-34.01376,739.14 18.33578,-34.01865,731.52 18.33761,-34.02326,723.9000000000001 18.33984,-34.02824,708.6600000000001 18.34225,-34.03294,693.4200000000001 18.34448,-34.03734,670.5600000000001 18.35076,-34.04855,662.94 18.35944,-34.06219,701.0400000000001 18.36819,-34.07483,739.14 18.37318,-34.0811,723.9000000000001 18.37721,-34.08564,716.2800000000001 18.38339,-34.09225,701.0400000000001 18.39089,-34.09991,678.1800000000001 18.39512,-34.10361,655.32 18.39935,-34.10706,640.08 18.40591,-34.11214,632.46 18.4225,-34.12573,601.98 18.42916,-34.13112,586.74 18.4345,-34.13416,579.12 18.44032,-34.13545,579.12 18.44679,-34.1349,579.12 18.45266,-34.13319,579.12 18.45789,-34.13047,579.12 18.46275,-34.12712,594.36 18.46695,-34.12381,609.6 18.47071,-34.12047,609.6 18.47446,-34.11607,617.22 18.4776,-34.112,617.22 18.479,-34.10719,609.6 18.47906,-34.10262,601.98 18.47855,-34.09816,586.74 18.47799,-34.09328,579.12 18.47788,-34.08852,548.64 18.47788,-34.08366,525.78 18.47815,-34.07182,487.68 18.47822,-34.0556,457.20000000000005 18.47889,-34.04184,426.72 18.47934,-34.02612,495.3 18.47986,-34.0099,518.1600000000001 18.48072,-33.99314,495.3 18.48146,-33.98523,518.1600000000001 18.48295,-33.97019,480.06 18.48405,-33.95682,434.34000000000003 18.48388,-33.95238,419.1 18.48287,-33.94798,403.86 18.48147,-33.94386,396.24 18.47968,-33.93983,373.38 18.47717,-33.93565,358.14000000000004 18.47458,-33.93196,342.90000000000003 18.47208,-33.92853,327.66 18.46893,-33.92499,320.04 18.46561,-33.92166,304.8 18.46264,-33.91866,289.56 18.45215,-33.90829,236.22 18.44767,-33.90436,190.5 18.44387,-33.90265,160.02 18.44066,-33.90207,121.92 18.43708,-33.9017,83.82000000000001 18.43416,-33.90147,60.96 18.42939,-33.90102,15.24 18.42779,-33.90083,0 18.42648,-33.90022,22.86 18.42682,-33.8985,38.1 18.42951,-33.89529,83.82000000000001 18.43203,-33.89227,137.16 18.43439,-33.88921,167.64000000000001 18.43624,-33.88605,198.12 18.43615,-33.88226,228.60000000000002 18.4336,-33.87927,251.46 18.42997,-33.87778,281.94 18.42613,-33.87723,304.8 18.42213,-33.87718,327.66 18.41457,-33.8789,381 18.40894,-33.88078,411.48 18.40524,-33.88225,419.1 18.40164,-33.88374,434.34000000000003 18.39773,-33.88545,449.58000000000004 18.39409,-33.88747,472.44 18.39067,-33.8898,502.92 18.38757,-33.89227,518.1600000000001 18.38433,-33.89516,533.4 18.3813,-33.89795,548.64 18.37824,-33.90111,548.64 18.37458,-33.90488,548.64 18.3712,-33.90828,548.64 18.36834,-33.91135,548.64 18.36527,-33.91489,541.02 18.36253,-33.91823,541.02 18.35972,-33.92203,548.64 18.3569,-33.92625,548.64 18.35472,-33.93034,548.64 18.35294,-33.93475,556.26 18.3516,-33.9391,556.26 18.35054,-33.9437,563.88 18.35003,-33.94862,563.88 18.35209,-33.95548,563.88 18.35877,-33.95645,548.64 18.36213,-33.95274,548.64 18.36302,-33.94771,525.78 18.36376,-33.94244,510.54 18.36531,-33.93732,495.3 18.36754,-33.93216,480.06 18.37004,-33.92734,472.44 18.37278,-33.92267,472.44 18.37589,-33.91838,464.82000000000005 18.3795,-33.91405,464.82000000000005 18.38356,-33.90963,457.20000000000005 18.38769,-33.90559,449.58000000000004 18.39235,-33.90179,441.96000000000004 18.39728,-33.89822,441.96000000000004 18.40277,-33.89479,426.72 18.40845,-33.89185,419.1 18.4152,-33.88905,403.86 18.42177,-33.88696,388.62 18.42859,-33.8857,373.38 18.435,-33.88582,350.52000000000004 18.4409,-33.88756,320.04 18.44553,-33.89073,281.94 18.4477,-33.8945,243.84 18.44711,-33.8979,205.74 18.4433,-33.90018,152.4 18.43971,-33.90097,121.92 18.43652,-33.90138,99.06 18.43371,-33.90161,68.58 18.43108,-33.90166,38.1 18.42854,-33.90144,7.62 18.42733,-33.90129,0 18.42715,-33.8996,22.86 18.42811,-33.89786,38.1 18.43013,-33.89516,91.44 18.43225,-33.89245,129.54000000000002 18.43454,-33.88942,160.02 18.43646,-33.88591,190.5 18.43584,-33.88252,220.98000000000002 18.4334,-33.88039,251.46 18.43031,-33.87941,281.94 18.42705,-33.87923,312.42 18.42373,-33.87928,342.90000000000003 18.42052,-33.87951,365.76 18.41623,-33.88019,396.24 18.41269,-33.88086,411.48 18.40899,-33.88165,434.34000000000003 18.40513,-33.88272,449.58000000000004 18.40132,-33.88403,464.82000000000005 18.39784,-33.88568,472.44 18.39431,-33.88765,480.06 18.39027,-33.8904,487.68 18.38696,-33.89305,487.68 18.38339,-33.89603,495.3 18.37996,-33.8992,495.3 18.37704,-33.90248,502.92 18.3744,-33.90567,510.54 18.37189,-33.90884,518.1600000000001 18.36571,-33.91745,525.78 18.36337,-33.92125,525.78 18.36129,-33.92528,518.1600000000001 18.35953,-33.92946,518.1600000000001 18.35787,-33.93425,510.54 18.35636,-33.93974,502.92 18.3553,-33.94446,495.3 18.35429,-33.94876,487.68 18.35171,-33.95627,472.44 18.34373,-33.97755,449.58000000000004 18.33585,-34.00104,441.96000000000004 18.33495,-34.01619,434.34000000000003 18.33687,-34.02084,426.72 18.34076,-34.02438,434.34000000000003 18.34745,-34.02507,426.72 18.35335,-34.02331,434.34000000000003 18.35905,-34.02141,449.58000000000004 18.36454,-34.01976,464.82000000000005 18.3702,-34.01816,480.06 18.37794,-34.01546,487.68 18.38362,-34.0133,495.3 18.38921,-34.01143,510.54 18.39523,-34.01032,533.4 18.40141,-34.0099,548.64 18.40696,-34.00967,563.88 18.41309,-34.01001,556.26 18.41863,-34.01239,556.26 18.42293,-34.016,556.26 18.42653,-34.01991,563.88 18.42945,-34.02382,563.88 18.43254,-34.02823,556.26 18.43763,-34.03611,533.4 18.44061,-34.04025,518.1600000000001 18.44358,-34.04454,487.68 18.44621,-34.04869,480.06 18.44862,-34.0532,464.82000000000005 18.45092,-34.05798,449.58000000000004 18.45316,-34.06233,441.96000000000004 18.45612,-34.0667,441.96000000000004 18.45933,-34.07076,434.34000000000003 18.46281,-34.07503,434.34000000000003 18.46645,-34.08,426.72 18.46953,-34.08449,411.48 18.47242,-34.08908,426.72 18.47454,-34.09374,426.72 18.4757,-34.09877,426.72 18.47861,-34.10262,434.34000000000003 18.4837,-34.10258,426.72 18.48646,-34.099,426.72 18.4857,-34.09476,419.1 18.48444,-34.09034,419.1 18.48364,-34.08564,419.1 18.48307,-34.08117,419.1 18.48267,-34.0767,426.72 18.48198,-34.06628,426.72 18.48102,-34.05368,434.34000000000003 18.47968,-34.03899,495.3 18.47811,-34.02347,525.78 18.47687,-34.01601,533.4 18.47609,-34.01138,525.78 18.47598,-34.00667,533.4 18.47609,-34.00172,533.4 18.47648,-33.99696,541.02 18.4771,-33.99202,541.02 18.47799,-33.98666,548.64 18.47912,-33.98204,541.02 18.48026,-33.97736,533.4 18.48119,-33.97256,533.4 18.48175,-33.96796,510.54 18.4822,-33.96346,510.54 18.48267,-33.95911,480.06 18.48284,-33.95432,464.82000000000005 18.48232,-33.94999,434.34000000000003 18.48049,-33.94515,411.48 18.47811,-33.94052,388.62 18.47574,-33.93644,373.38 18.47322,-33.93258,358.14000000000004 18.47065,-33.92899,327.66 18.46802,-33.92532,312.42 18.46504,-33.92131,297.18 18.46213,-33.91791,289.56 18.45909,-33.9147,274.32 18.45297,-33.90823,243.84 18.44834,-33.90408,213.36 18.44479,-33.90241,175.26000000000002 18.44111,-33.90161,137.16 18.43809,-33.90111,99.06 18.43517,-33.9007,68.58 18.43259,-33.90065,45.72 18.42973,-33.90097,22.86 18.42816,-33.9012,0 18.42659,-33.90015,22.86 18.42687,-33.89896,38.1 18.42888,-33.89641,68.58 18.43174,-33.89296,106.68 18.43444,-33.88948,137.16 18.43646,-33.88586,167.64000000000001 18.43596,-33.88216,205.74 18.43321,-33.87973,228.60000000000002 18.42962,-33.87859,251.46 18.4257,-33.87831,274.32 18.42173,-33.87844,304.8 18.41286,-33.87983,342.90000000000003 18.40828,-33.88091,358.14000000000004 18.40356,-33.88202,381 18.3993,-33.88335,388.62 18.39518,-33.88505,403.86 18.39145,-33.88705,419.1 18.38803,-33.88953,419.1 18.38493,-33.89227,426.72 18.3815,-33.8958,434.34000000000003 18.37835,-33.89929,434.34000000000003 18.36976,-33.90948,434.34000000000003 18.36611,-33.91447,441.96000000000004 18.36388,-33.91805,434.34000000000003 18.36152,-33.92216,426.72 18.3595,-33.92619,434.34000000000003 18.3577,-33.93053,441.96000000000004 18.36056,-33.93905,449.58000000000004 18.36522,-33.93576,434.34000000000003 18.3674,-33.93118,434.34000000000003 18.36977,-33.9268,426.72 18.37447,-33.91864,441.96000000000004 18.37812,-33.91377,449.58000000000004 18.3817,-33.90994,449.58000000000004 18.38539,-33.90628,449.58000000000004 18.38977,-33.90234,441.96000000000004 18.39403,-33.89886,434.34000000000003 18.39896,-33.89552,434.34000000000003 18.40445,-33.8925,426.72 18.41034,-33.89003,419.1 18.41629,-33.88807,411.48 18.42327,-33.88663,403.86 18.43031,-33.88691,403.86 18.43663,-33.88898,388.62 18.44204,-33.89212,388.62 18.44633,-33.89561,381 18.45058,-33.89932,381 18.45474,-33.90292,388.62 18.45932,-33.90656,396.24 18.46376,-33.91026,403.86 18.46768,-33.91379,403.86 18.47162,-33.91777,403.86 18.47523,-33.9221,403.86 18.47809,-33.92634,419.1 18.48038,-33.93067,419.1 18.48253,-33.93553,419.1 18.48405,-33.9402,411.48 18.485,-33.94501,411.48 18.48539,-33.95009,419.1 18.48511,-33.9549,419.1 18.48461,-33.95976,426.72 18.48415,-33.96461,441.96000000000004 18.4836,-33.96945,449.58000000000004 18.4831,-33.97421,441.96000000000004 18.48272,-33.97908,434.34000000000003 18.48181,-33.98346,434.34000000000003 18.47815,-33.98709,434.34000000000003 18.47312,-33.98927,441.96000000000004 18.4674,-33.98955,449.58000000000004 18.46241,-33.98802,457.20000000000005 18.45967,-33.98428,495.3 18.46056,-33.98007,495.3 18.46527,-33.9771,495.3 18.47059,-33.97471,510.54 18.47116,-33.9711,533.4 18.46745,-33.96922,548.64 18.46286,-33.97119,541.02 18.4623,-33.97583,525.78 18.46573,-33.9796,525.78 18.47076,-33.98048,525.78 18.47494,-33.97787,495.3 18.47715,-33.97366,472.44 18.47906,-33.96895,457.20000000000005 18.48046,-33.96428,441.96000000000004 18.48049,-33.95911,419.1 18.47935,-33.95432,396.24 18.47895,-33.94976,358.14000000000004 18.47849,-33.94501,327.66 18.47734,-33.94059,320.04 18.47581,-33.93681,304.8 18.47368,-33.93315,304.8 18.47094,-33.92932,289.56 18.46836,-33.92625,289.56 18.46533,-33.92276,274.32 18.4552,-33.91149,243.84 18.44919,-33.90562,228.60000000000002 18.44507,-33.90353,175.26000000000002 18.44078,-33.90211,121.92 18.43652,-33.90125,76.2 18.43294,-33.90074,45.72 18.42922,-33.90064,15.24 18.42777,-33.90083,7.62 18.42643,-33.90005,30.48 18.42653,-33.89776,60.96 18.42888,-33.89441,99.06 18.43185,-33.89101,137.16 18.43483,-33.8871,175.26000000000002 18.43884,-33.88454,220.98000000000002 18.44393,-33.88528,251.46 18.44672,-33.88884,274.32 18.44856,-33.89291,281.94 18.45051,-33.89701,281.94 18.45291,-33.90102,281.94 18.45625,-33.90504,289.56 18.46017,-33.90889,289.56 18.46381,-33.91264,289.56 18.46739,-33.91666,297.18 18.47099,-33.92097,297.18 18.47441,-33.92578,304.8 18.47717,-33.93044,320.04 18.48009,-33.93556,320.04 18.48231,-33.94043,327.66 18.4837,-33.9451,342.90000000000003 18.48415,-33.9498,358.14000000000004 18.48427,-33.95467,365.76 18.4845,-33.96,373.38 18.48556,-33.97614,373.38 18.48553,-33.99235,373.38 18.48478,-33.99887,365.76 18.48375,-34.00338,358.14000000000004 18.48255,-34.00818,358.14000000000004 18.48049,-34.01814,365.76 18.47985,-34.02301,365.76 18.47912,-34.02768,358.14000000000004 18.47822,-34.03217,350.52000000000004 18.47694,-34.03699,342.90000000000003 18.47626,-34.04146,342.90000000000003 18.47614,-34.04585,335.28000000000003 18.47626,-34.05063,335.28000000000003 18.47626,-34.05585,327.66 18.47631,-34.06022,342.90000000000003 18.47723,-34.06488,335.28000000000003 18.47844,-34.06938,335.28000000000003 18.47962,-34.07401,335.28000000000003 18.48158,-34.07858,342.90000000000003 18.4841,-34.08261,358.14000000000004 18.48644,-34.0869,365.76 18.4882,-34.09154,373.38 18.48825,-34.09557,396.24 18.48814,-34.09991,403.86 18.48827,-34.10435,381 18.48524,-34.10631,373.38 18.48175,-34.10361,358.14000000000004 18.48095,-34.09947,365.76 18.48091,-34.09465,358.14000000000004 18.48091,-34.09007,350.52000000000004 18.48021,-34.08108,373.38 18.47912,-34.07577,381 18.47769,-34.07149,388.62 18.47581,-34.06746,381 18.47357,-34.06297,381 18.47166,-34.05876,403.86 18.46891,-34.05222,411.48 18.46533,-34.04375,434.34000000000003 18.45886,-34.02834,441.96000000000004 18.45765,-34.02365,449.58000000000004 18.45669,-34.01954,449.58000000000004 18.45546,-34.01303,457.20000000000005 18.45434,-34.00026,464.82000000000005 18.45617,-33.99547,457.20000000000005 18.45815,-33.99097,449.58000000000004 18.46035,-33.98635,449.58000000000004 18.46269,-33.98195,449.58000000000004 18.46544,-33.97755,449.58000000000004 18.46888,-33.97308,441.96000000000004 18.47214,-33.96898,434.34000000000003 18.475,-33.96474,419.1 18.47734,-33.9606,411.48 18.479,-33.95613,411.48 18.47906,-33.95101,419.1 18.47828,-33.94611,419.1 18.47706,-33.94101,411.48 18.47551,-33.93635,403.86 18.47379,-33.93146,388.62 18.47222,-33.92619,373.38 18.47139,-33.92141,358.14000000000004 18.47128,-33.91661,350.52000000000004 18.47205,-33.91182,342.90000000000003 18.47401,-33.90724,335.28000000000003 18.47648,-33.90253,327.66 18.47906,-33.89785,320.04 18.48158,-33.89301,304.8 18.48364,-33.88807,304.8 18.4853,-33.88328,304.8 18.4868,-33.87827,297.18 18.4878,-33.87337,297.18 18.48825,-33.86847,297.18 18.48827,-33.86326,297.18 18.48797,-33.85844,289.56 18.48724,-33.85309,281.94 18.48621,-33.84799,266.7 18.48478,-33.84293,266.7 18.48237,-33.83702,274.32 18.4799,-33.83249,281.94 18.47755,-33.82823,281.94 18.47523,-33.8236,281.94 18.46991,-33.81443,297.18 18.46527,-33.80791,312.42 18.45926,-33.8006,312.42 18.45457,-33.79152,365.76 18.45204,-33.79294,365.76 18.45406,-33.79697,365.76 18.45591,-33.80132,358.14000000000004 18.46058,-33.80656,358.14000000000004 18.46464,-33.8108,350.52000000000004 18.46968,-33.81685,350.52000000000004 18.47277,-33.82099,342.90000000000003 18.47558,-33.82535,327.66 18.47837,-33.8297,320.04 18.48097,-33.83455,289.56 18.48293,-33.83913,281.94 18.48461,-33.84389,274.32 18.48545,-33.84874,251.46 18.48618,-33.85345,243.84 18.48685,-33.85799,236.22 18.48752,-33.86435,228.60000000000002 18.4873,-33.86929,220.98000000000002 18.48629,-33.87314,220.98000000000002 18.48541,-33.87816,213.36 18.48455,-33.88284,205.74 18.48318,-33.887,198.12 18.48124,-33.89152,190.5 18.47917,-33.89566,190.5 18.47687,-33.89946,198.12 18.4742,-33.90316,205.74 18.47104,-33.9066,205.74 18.46699,-33.90865,198.12 18.46196,-33.9088,182.88 18.45703,-33.90772,167.64000000000001 18.45251,-33.90632,144.78 18.44801,-33.90477,129.54000000000002 18.44381,-33.90343,114.30000000000001 18.43937,-33.90234,83.82000000000001 18.43562,-33.90189,68.58 18.43248,-33.90171,45.72 18.43057,-33.90157,30.48 18.42911,-33.90139,15.24 18.42783,-33.90125,0 18.42861,-33.90202,15.24 18.43088,-33.90162,38.1 18.43443,-33.89943,76.2 18.43769,-33.89659,121.92 18.43981,-33.8931,160.02 18.4405,-33.88921,220.98000000000002 18.43994,-33.88559,266.7 18.43702,-33.88266,281.94 18.43248,-33.8811,297.18 18.42813,-33.88011,312.42 18.42276,-33.87932,327.66 18.41778,-33.87909,350.52000000000004 18.4132,-33.87918,358.14000000000004 18.40628,-33.87983,381 18.40199,-33.88078,388.62 18.39795,-33.88202,403.86 18.39425,-33.88344,411.48 18.3905,-33.88518,434.34000000000003 18.38688,-33.8871,449.58000000000004 18.38355,-33.88916,457.20000000000005 18.38047,-33.89143,464.82000000000005 18.37766,-33.89383,464.82000000000005 18.37503,-33.89631,472.44 18.37262,-33.89891,480.06 18.37049,-33.90147,495.3 18.36813,-33.90445,502.92 18.36589,-33.90742,502.92 18.36348,-33.91056,510.54 18.35844,-33.91703,518.1600000000001 18.35485,-33.92244,541.02 18.35305,-33.92583,556.26 18.35157,-33.92904,563.88 18.35014,-33.93248,563.88 18.34801,-33.93869,556.26 18.34554,-33.94716,541.02 18.34751,-33.95218,525.78 18.35507,-33.95357,518.1600000000001 18.36079,-33.94977,525.78 18.36342,-33.94482,541.02 18.36508,-33.93942,548.64 18.36651,-33.93379,541.02 18.3683,-33.92793,533.4 18.37032,-33.92258,525.78 18.37278,-33.91708,525.78 18.37587,-33.91168,518.1600000000001 18.3799,-33.90701,502.92 18.38488,-33.90292,502.92 18.38974,-33.89925,502.92 18.39442,-33.89571,495.3 18.40656,-33.88724,487.68 18.41253,-33.88472,472.44 18.41818,-33.88244,472.44 18.42476,-33.88044,457.20000000000005 18.43025,-33.88216,434.34000000000003 18.43357,-33.88542,388.62 18.43652,-33.88852,312.42 18.43792,-33.89172,243.84 18.43431,-33.89408,160.02 18.43042,-33.89566,106.68 18.42794,-33.89841,45.72 18.42715,-33.9007,15.24 18.42822,-33.90184,15.24 18.4299,-33.90166,30.48 18.43283,-33.90069,53.34 18.43672,-33.89878,99.06 18.44027,-33.89607,144.78 18.44162,-33.89218,167.64000000000001 18.44038,-33.88807,205.74 18.43764,-33.88463,228.60000000000002 18.43422,-33.88225,251.46 18.42973,-33.88037,281.94 18.42519,-33.87955,297.18 18.41729,-33.87978,350.52000000000004 18.41354,-33.88058,373.38 18.4095,-33.88184,396.24 18.40542,-33.88333,411.48 18.4013,-33.88491,419.1 18.39711,-33.88646,434.34000000000003 18.3882,-33.89003,441.96000000000004 18.38419,-33.89198,441.96000000000004 18.38058,-33.89417,449.58000000000004 18.37704,-33.89664,457.20000000000005 18.37368,-33.89937,480.06 18.37097,-33.90218,487.68 18.36828,-33.90544,502.92 18.36599,-33.90823,525.78 18.36359,-33.91154,548.64 18.36152,-33.91461,563.88 18.35928,-33.918,571.5 18.35698,-33.92175,571.5 18.35449,-33.9262,579.12 18.35255,-33.92995,571.5 18.35072,-33.93383,571.5 18.34599,-33.94382,571.5 18.34311,-33.94943,579.12 18.3391,-33.95686,563.88 18.33063,-33.97094,594.36 18.32565,-33.98337,586.74 18.32301,-33.99074,586.74 18.32108,-33.99487,594.36 18.31948,-33.99902,609.6 18.31827,-34.00306,624.84 18.3169,-34.00735,647.7 18.31512,-34.01148,662.94 18.31292,-34.01596,662.94 18.3109,-34.02003,662.94 18.30952,-34.02419,662.94 18.3086,-34.02873,662.94 18.30793,-34.03308,655.32 18.30774,-34.03793,647.7 18.30984,-34.04361,632.46 18.31232,-34.04789,624.84 18.31527,-34.0524,632.46 18.31853,-34.05693,632.46 18.32161,-34.06082,624.84 18.32508,-34.0652,624.84 18.32833,-34.06979,617.22 18.33725,-34.08289,640.08 18.33984,-34.08732,632.46 18.3424,-34.09167,624.84 18.34566,-34.09616,609.6 18.34934,-34.10054,601.98 18.3534,-34.10496,594.36 18.35787,-34.10889,571.5 18.36353,-34.11176,563.88 18.3692,-34.11415,563.88 18.37519,-34.11649,563.88 18.38167,-34.11874,563.88 18.38774,-34.12093,571.5 18.39815,-34.12456,594.36 18.40427,-34.1267,594.36 18.41006,-34.12862,586.74 18.41583,-34.13024,579.12 18.42241,-34.13173,571.5 18.42916,-34.13303,563.88 18.43579,-34.13361,548.64 18.44257,-34.13297,533.4 18.44982,-34.13089,510.54 18.45629,-34.12782,487.68 18.46195,-34.124,464.82000000000005 18.46773,-34.11888,449.58000000000004 18.47174,-34.11348,441.96000000000004 18.47407,-34.10751,449.58000000000004 18.47528,-34.1017,457.20000000000005 18.47586,-34.09589,449.58000000000004 18.47626,-34.09071,449.58000000000004 18.4766,-34.08508,449.58000000000004 18.47689,-34.07735,441.96000000000004 18.47717,-34.05869,457.20000000000005 18.47833,-34.04008,396.24 18.48003,-34.0173,373.38 18.48074,-33.99985,373.38 18.48124,-33.99398,373.38 18.48147,-33.98795,373.38 18.48276,-33.96854,365.76 18.48276,-33.96199,358.14000000000004 18.48214,-33.95631,350.52000000000004 18.48108,-33.95068,335.28000000000003 18.47912,-33.94464,342.90000000000003 18.47659,-33.93896,342.90000000000003 18.47374,-33.93356,335.28000000000003 18.47065,-33.92821,320.04 18.46727,-33.92285,289.56 18.46401,-33.91773,274.32 18.46073,-33.91301,274.32 18.45686,-33.90781,274.32 18.45308,-33.90325,274.32 18.44959,-33.89943,251.46 18.4449,-33.89655,220.98000000000002 18.43975,-33.89492,175.26000000000002 18.43489,-33.89506,137.16 18.43248,-33.89804,91.44 18.42939,-33.90046,38.1 18.42802,-33.90069,15.24 18.42739,-33.89994,15.24 18.42867,-33.89845,22.86 18.42996,-33.89694,38.1 18.43209,-33.89447,60.96 18.43512,-33.89077,91.44 18.43713,-33.8871,129.54000000000002 18.43689,-33.88314,167.64000000000001 18.43439,-33.88046,213.36 18.43088,-33.87932,236.22 18.42625,-33.87923,274.32 18.42178,-33.87979,312.42 18.41778,-33.88058,335.28000000000003 18.41326,-33.88184,365.76 18.40919,-33.88305,388.62 18.40518,-33.88426,403.86 18.4007,-33.88559,426.72 18.39661,-33.88691,449.58000000000004 18.39266,-33.88845,464.82000000000005 18.38882,-33.89026,472.44 18.385,-33.8925,487.68 18.38147,-33.89534,480.06 18.37864,-33.8979,487.68 18.37589,-33.90046,510.54 18.37093,-33.90536,541.02 18.36863,-33.90809,548.64 18.36639,-33.91104,556.26 18.36445,-33.91382,571.5 18.3621,-33.91693,594.36 18.35976,-33.91996,601.98 18.35712,-33.92369,617.22 18.35506,-33.92694,632.46 18.35316,-33.93013,647.7 18.35132,-33.93356,655.32 18.3474,-33.94175,670.5600000000001 18.34242,-33.9539,701.0400000000001 18.3391,-33.96497,708.6600000000001 18.33512,-33.98332,708.6600000000001 18.33489,-33.99541,708.6600000000001 18.33652,-34.00575,701.0400000000001 18.33747,-34.01093,708.6600000000001 18.33842,-34.01523,708.6600000000001 18.34042,-34.01917,723.9000000000001 18.34257,-34.02324,739.14 18.34459,-34.02754,746.76 18.34614,-34.03164,746.76 18.34711,-34.03647,716.2800000000001 18.34739,-34.04128,685.8000000000001 18.34952,-34.04594,685.8000000000001 18.35438,-34.04821,708.6600000000001 18.35989,-34.04686,731.52 18.36353,-34.04323,731.52 18.3641,-34.03784,731.52 18.36171,-34.03453,723.9000000000001 18.35316,-34.03807,701.0400000000001 18.35003,-34.04188,701.0400000000001 18.34784,-34.04594,685.8000000000001 18.34621,-34.05006,685.8000000000001 18.34471,-34.0545,678.1800000000001 18.34324,-34.05867,655.32 18.33944,-34.07051,601.98 18.33807,-34.07629,579.12 18.33736,-34.0806,563.88 18.33685,-34.0843,563.88 18.33663,-34.0881,563.88 18.33646,-34.09181,563.88 18.33635,-34.103,548.64 18.33618,-34.1112,556.26 18.3359,-34.12041,556.26 18.33561,-34.12432,556.26 18.33523,-34.12784,556.26 18.33467,-34.1321,579.12 18.33456,-34.13544,586.74 18.33464,-34.1389,586.74 18.33489,-34.14249,579.12 18.33527,-34.14611,571.5 18.33561,-34.14933,571.5 18.3359,-34.15263,571.5 18.33618,-34.15631,563.88 18.33647,-34.15966,571.5 18.33702,-34.16277,579.12 18.33792,-34.1657,586.74 18.33921,-34.16911,601.98 18.34083,-34.17261,601.98 18.34259,-34.176,601.98 18.34487,-34.17943,594.36 18.34768,-34.18266,594.36 18.35076,-34.18593,579.12 18.35443,-34.18936,563.88 18.35827,-34.19302,548.64 18.3613,-34.19699,548.64 18.36404,-34.20126,541.02 18.36639,-34.2057,533.4 18.36823,-34.20956,525.78 18.37177,-34.21651,502.92 18.37463,-34.22227,487.68 18.37641,-34.22609,472.44 18.37856,-34.22987,457.20000000000005 18.38047,-34.2341,464.82000000000005 18.38207,-34.23815,457.20000000000005 18.38367,-34.24215,457.20000000000005 18.38499,-34.24643,449.58000000000004 18.38607,-34.25075,441.96000000000004 18.38708,-34.25505,434.34000000000003 18.38865,-34.25984,426.72 18.41667,-34.2973,495.3 18.42768,-34.30821,525.78 18.43775,-34.3177,518.1600000000001 18.44924,-34.32898,502.92 18.45285,-34.3326,495.3 18.458,-34.33758,495.3 18.46236,-34.34102,487.68 18.46636,-34.34391,480.06 18.47088,-34.3472,472.44 18.48129,-34.35518,464.82000000000005 18.48558,-34.35825,472.44 18.49016,-34.361,472.44 18.49616,-34.36185,472.44 18.50187,-34.35905,480.06 18.50333,-34.35466,510.54 18.50047,-34.35091,533.4 18.49442,-34.34976,541.02 18.49068,-34.35229,525.78 18.48904,-34.35645,510.54 18.48896,-34.36081,502.92 18.48943,-34.3651,541.02 18.4869,-34.36602,594.36 18.48324,-34.36361,617.22 18.47969,-34.36039,617.22 18.47665,-34.35626,609.6 18.47357,-34.35108,594.36 18.47277,-34.34494,571.5 18.47334,-34.339,563.88 18.47448,-34.3327,541.02 18.4758,-34.32687,525.78 18.47689,-34.32092,510.54 18.47755,-34.31488,502.92 18.47805,-34.30888,495.3 18.47934,-34.29689,472.44 18.48038,-34.29042,464.82000000000005 18.48125,-34.28416,464.82000000000005 18.48192,-34.27627,480.06 18.48215,-34.27073,495.3 18.4822,-34.26343,533.4 18.48198,-34.25719,541.02 18.48146,-34.25183,556.26 18.48091,-34.24686,563.88 18.48021,-34.24164,571.5 18.47906,-34.23642,586.74 18.47734,-34.23135,601.98 18.47586,-34.22632,624.84 18.47443,-34.22157,647.7 18.47271,-34.2165,632.46 18.47105,-34.21166,655.32 18.46928,-34.20649,640.08 18.46779,-34.20131,632.46 18.46656,-34.19595,624.84 18.46566,-34.19032,632.46 18.46488,-34.18547,647.7 18.46413,-34.17972,640.08 18.46275,-34.16377,624.84 18.4628,-34.15562,617.22 18.46353,-34.15009,609.6 18.46464,-34.14476,609.6 18.46607,-34.13904,601.98 18.46933,-34.1226,579.12 18.47211,-34.1082,563.88 18.47294,-34.10226,548.64 18.47437,-34.08601,518.1600000000001 18.47452,-34.07607,510.54 18.47437,-34.07042,502.92 18.47418,-34.06499,495.3 18.47413,-34.05634,495.3 18.47413,-34.05061,487.68 18.47408,-34.04519,480.06 18.47397,-34.04002,472.44 18.47403,-34.03141,457.20000000000005 18.47458,-34.02562,449.58000000000004 18.47542,-34.02017,441.96000000000004 18.47631,-34.0146,426.72 18.47832,-33.9985,381 18.4808,-33.97879,327.66 18.48153,-33.97115,327.66 18.48175,-33.96561,327.66 18.48141,-33.96004,327.66 18.48043,-33.95464,342.90000000000003 18.47895,-33.94908,342.90000000000003 18.4771,-33.94368,335.28000000000003 18.47517,-33.93854,342.90000000000003 18.47301,-33.93311,342.90000000000003 18.47032,-33.92789,342.90000000000003 18.46727,-33.92299,335.28000000000003 18.46384,-33.91777,335.28000000000003 18.46041,-33.91307,320.04 18.45507,-33.9066,320.04 18.45008,-33.90276,274.32 18.44442,-33.90092,205.74 18.43798,-33.90097,129.54000000000002 18.43321,-33.90157,76.2 18.42811,-33.90134,15.24
        </coordinates>
      </LineString>
    </Placemark>
  </Document>
</kml>