<?xml version="1.0" encoding="UTF-8"?>
<kml xmlns="http://www.opengis.net/kml/2.2">
  <Document>
    <name>FR24 3f60f19b - Optimised</name>
    <description><![CDATA[Optimised flight path with 114 points (decimated from 566 original points). Source format: Standard KML]]></description>
    
    <Style id="flightPath">
      <LineStyle>
        <color>ffff0000</color>
        <width>3</width>
      </LineStyle>
    </Style>
    
    <Placemark>
      <name>Flight Path</name>
      <description><![CDATA[Optimized flight path]]></description>
      <styleUrl>#flightPath</styleUrl>
      <LineString>
        <extrude>1</extrude>
        <tessellate>1</tessellate>
        <altitudeMode>absolute</altitudeMode>
        <coordinates>
          18.40199,-33.8837,0 18.3914,-33.88952,0 18.38465,-33.89399,0 18.38102,-33.8968,0 18.37733,-33.89978,0 18.3734,-33.90321,0 18.37004,-33.90665,0 18.36639,-33.91086,0 18.3629,-33.91498,0 18.3597,-33.91885,0 18.35524,-33.92443,0 18.35059,-33.93031,0 18.34705,-33.93528,0 18.34442,-33.93942,0 18.34156,-33.94426,0 18.36937,-33.90794,0 18.36135,-33.91809,0 18.35586,-33.92665,0 18.35266,-33.93246,0 18.34997,-33.93765,0 18.3478,-33.94231,0 18.34476,-33.94896,0 18.3391,-33.96354,0 18.33315,-33.98411,0 18.34431,-34.18446,0 18.35563,-34.19934,0 18.36107,-34.20775,0 18.36365,-34.21264,0 18.36576,-34.21724,0 18.36785,-34.22237,0 18.37023,-34.22898,0 18.37183,-34.2341,0 18.37312,-34.23912,0 18.37481,-34.24662,0 18.37559,-34.25203,0 18.37637,-34.25697,0 18.37744,-34.26256,0 18.37858,-34.2678,0 18.38046,-34.27299,0 18.39849,-34.30253,0 18.40384,-34.31012,0 18.40754,-34.31447,0 18.41114,-34.3184,0 18.41566,-34.32292,0 18.41998,-34.32642,0 18.42508,-34.33003,0 18.43046,-34.33347,0 18.43758,-34.33786,0 18.453,-34.34747,0 18.45978,-34.35183,0 18.47197,-34.3597,0 18.47805,-34.36203,0 18.48484,-34.36337,0 18.49139,-34.3634,0 18.49829,-34.36132,0 18.50206,-34.35737,0 18.50255,-34.35228,0 18.50165,-34.34729,0 18.5007,-34.34221,0 18.49863,-34.33228,0 18.4975,-34.32719,0 18.49644,-34.32234,0 18.49431,-34.31071,0 18.49178,-34.29401,0 18.48971,-34.28371,0 18.48696,-34.26929,0 18.48598,-34.26422,0 18.48495,-34.25826,0 18.48332,-34.24915,0 18.48113,-34.23779,0 18.47969,-34.23256,0 18.47815,-34.22716,0 18.47693,-34.22186,0 18.47586,-34.21651,0 18.47483,-34.21026,0 18.47403,-34.20528,0 18.47311,-34.19937,0 18.47219,-34.18736,0 18.47222,-34.18002,0 18.47231,-34.16539,0 18.47289,-34.15068,0 18.47396,-34.14308,0 18.47466,-34.13792,0 18.4753,-34.13008,0 18.47598,-34.12449,0 18.4783,-34.10806,0 18.47809,-34.09961,0 18.47978,-34.07999,0 18.47998,-34.06156,0 18.48143,-34.0425,0 18.48231,-34.02735,0 18.48288,-34.02076,0 18.48261,-34.01548,0 18.48262,-34.01011,0 18.48247,-34.00426,0 18.48301,-33.99849,0 18.48757,-33.97764,0 18.48472,-33.96785,0 18.48467,-33.95939,0 18.48358,-33.9472,0 18.48209,-33.94175,0 18.48029,-33.93636,0 18.47912,-33.93091,0 18.47671,-33.92633,0 18.47177,-33.92088,0 18.46745,-33.91708,0 18.46275,-33.91333,0 18.45806,-33.90958,0 18.44719,-33.9012,0 18.44234,-33.89832,0 18.43837,-33.89726,0 18.43609,-33.89706,0 18.42751,-33.89981,0 18.42704,-33.90111,0
        </coordinates>
      </LineString>
    </Placemark>
  </Document>
</kml>