<?xml version="1.0" encoding="UTF-8"?>
<kml xmlns="http://www.opengis.net/kml/2.2">
  <Document>
    <name>FR24 ZSRTG 3dedc499 - Optimised</name>
    <description><![CDATA[Optimised flight path with 898 points (decimated from 4489 original points). Source format: Standard KML]]></description>
    
    <Style id="flightPath">
      <LineStyle>
        <color>ffff0000</color>
        <width>3</width>
      </LineStyle>
    </Style>
    
    <Placemark>
      <name>Flight Path</name>
      <description><![CDATA[Source: ADS-B
Start (SAST): 2026-01-16 10:26:34
End (SAST): 2026-01-16 17:54:28
Points: 4489]]></description>
      <styleUrl>#flightPath</styleUrl>
      <LineString>
        <extrude>1</extrude>
        <tessellate>1</tessellate>
        <altitudeMode>absolute</altitudeMode>
        <coordinates>
          18.94009,-33.80595,182.88 18.93951,-33.81089,266.7 18.93421,-33.80919,281.94 18.92887,-33.80749,320.04 18.92338,-33.80568,358.14000000000004 18.91777,-33.80386,411.48 18.91151,-33.80219,419.1 18.90534,-33.80054,434.34000000000003 18.89574,-33.79804,472.44 18.87928,-33.79294,518.1600000000001 18.87342,-33.79078,556.26 18.86762,-33.78877,594.36 18.86162,-33.78703,617.22 18.8559,-33.78561,632.46 18.84939,-33.78412,624.84 18.84307,-33.78278,647.7 18.83651,-33.78094,632.46 18.82971,-33.77937,640.08 18.82307,-33.77868,655.32 18.81678,-33.77806,678.1800000000001 18.8015,-33.77635,678.1800000000001 18.78479,-33.7743,647.7 18.77815,-33.77351,655.32 18.77177,-33.77307,655.32 18.76487,-33.77275,655.32 18.7582,-33.77225,632.46 18.74088,-33.77042,670.5600000000001 18.73455,-33.7696,693.4200000000001 18.72872,-33.76872,708.6600000000001 18.72305,-33.76736,708.6600000000001 18.71721,-33.76527,708.6600000000001 18.71089,-33.76341,716.2800000000001 18.70456,-33.76263,708.6600000000001 18.69793,-33.76234,693.4200000000001 18.69156,-33.76222,670.5600000000001 18.68444,-33.76273,609.6 18.67726,-33.76373,533.4 18.67041,-33.7648,502.92 18.66388,-33.76569,502.92 18.65764,-33.7662,472.44 18.65058,-33.76671,457.20000000000005 18.64025,-33.76792,441.96000000000004 18.63377,-33.76909,441.96000000000004 18.62755,-33.77048,441.96000000000004 18.62154,-33.77202,441.96000000000004 18.61555,-33.77348,449.58000000000004 18.60961,-33.77477,464.82000000000005 18.60374,-33.77597,472.44 18.59745,-33.77723,464.82000000000005 18.5911,-33.77886,457.20000000000005 18.58528,-33.78049,518.1600000000001 18.57928,-33.782,464.82000000000005 18.57244,-33.78383,472.44 18.56627,-33.78501,510.54 18.5606,-33.78594,533.4 18.55456,-33.78708,533.4 18.54851,-33.78822,533.4 18.54229,-33.78934,533.4 18.53618,-33.79033,541.02 18.52976,-33.79152,541.02 18.52329,-33.79269,533.4 18.51665,-33.79399,533.4 18.50681,-33.79595,548.64 18.49634,-33.79813,556.26 18.49016,-33.79963,563.88 18.48398,-33.8014,556.26 18.47755,-33.80379,556.26 18.47194,-33.80635,556.26 18.46622,-33.80997,533.4 18.46167,-33.81401,533.4 18.458,-33.81815,533.4 18.45434,-33.82251,533.4 18.45079,-33.82714,525.78 18.44694,-33.8324,518.1600000000001 18.44397,-33.83757,502.92 18.44139,-33.84247,487.68 18.43872,-33.8472,464.82000000000005 18.43592,-33.85167,480.06 18.43338,-33.85634,472.44 18.43214,-33.86092,457.20000000000005 18.4317,-33.86581,441.96000000000004 18.43119,-33.8708,441.96000000000004 18.4308,-33.87529,419.1 18.43048,-33.87918,388.62 18.42951,-33.88339,327.66 18.42816,-33.88705,304.8 18.42682,-33.89063,228.60000000000002 18.42497,-33.89392,160.02 18.42402,-33.89639,106.68 18.42636,-33.89724,38.1 18.42721,-33.89882,0 18.42842,-33.89957,0 18.43048,-33.90064,7.62 18.43237,-33.90129,15.24 18.43512,-33.90097,45.72 18.43924,-33.89785,91.44 18.44084,-33.89236,129.54000000000002 18.43918,-33.88654,144.78 18.4362,-33.8816,175.26000000000002 18.43299,-33.87675,205.74 18.42962,-33.87227,251.46 18.42545,-33.86848,281.94 18.41944,-33.8668,297.18 18.4137,-33.86723,358.14000000000004 18.40879,-33.86787,403.86 18.40384,-33.8687,441.96000000000004 18.39901,-33.86973,487.68 18.39437,-33.87085,533.4 18.39014,-33.8721,579.12 18.38596,-33.87373,617.22 18.38243,-33.8763,662.94 18.37921,-33.87914,701.0400000000001 18.37578,-33.88226,723.9000000000001 18.368,-33.88952,723.9000000000001 18.3641,-33.89388,716.2800000000001 18.36045,-33.89877,731.52 18.35737,-33.90321,739.14 18.35421,-33.90753,746.76 18.35098,-33.91168,754.38 18.34549,-33.91905,731.52 18.34156,-33.92522,731.52 18.33841,-33.93058,723.9000000000001 18.33624,-33.93466,708.6600000000001 18.33424,-33.93867,693.4200000000001 18.33309,-33.9431,670.5600000000001 18.33478,-33.94684,632.46 18.33927,-33.94901,571.5 18.34362,-33.95064,548.64 18.34778,-33.95068,525.78 18.35092,-33.94524,457.20000000000005 18.35468,-33.93979,441.96000000000004 18.35987,-33.93272,449.58000000000004 18.36594,-33.92471,449.58000000000004 18.37023,-33.91982,441.96000000000004 18.37481,-33.91526,434.34000000000003 18.37904,-33.91103,426.72 18.38343,-33.9066,419.1 18.38797,-33.90241,403.86 18.39291,-33.89868,396.24 18.39844,-33.89515,426.72 18.40405,-33.89231,426.72 18.40965,-33.88966,426.72 18.4151,-33.88696,419.1 18.42613,-33.88221,419.1 18.42939,-33.88365,396.24 18.42749,-33.88609,373.38 18.42493,-33.88821,335.28000000000003 18.42273,-33.8903,274.32 18.42236,-33.89268,205.74 18.42453,-33.89468,129.54000000000002 18.42615,-33.89653,83.82000000000001 18.42693,-33.89832,38.1 18.42732,-33.8996,7.62 18.42783,-33.90088,0 18.43025,-33.90195,7.62 18.43214,-33.9023,30.48 18.43534,-33.90185,53.34 18.43929,-33.89836,91.44 18.44022,-33.89255,121.92 18.43832,-33.88659,137.16 18.43523,-33.88105,167.64000000000001 18.43122,-33.87579,220.98000000000002 18.42693,-33.87201,266.7 18.42071,-33.87021,304.8 18.41466,-33.8703,350.52000000000004 18.40908,-33.87076,381 18.40361,-33.87149,411.48 18.39829,-33.87259,457.20000000000005 18.39317,-33.87378,502.92 18.3882,-33.87523,525.78 18.38315,-33.87717,556.26 18.37889,-33.87982,594.36 18.37491,-33.88326,632.46 18.3716,-33.88649,678.1800000000001 18.36845,-33.89008,708.6600000000001 18.36533,-33.89461,723.9000000000001 18.36239,-33.89901,739.14 18.35958,-33.9033,739.14 18.35661,-33.908,731.52 18.3522,-33.91489,723.9000000000001 18.34517,-33.92671,708.6600000000001 18.34293,-33.93132,708.6600000000001 18.34099,-33.93593,670.5600000000001 18.34145,-33.94002,655.32 18.34539,-33.94254,640.08 18.35089,-33.94319,594.36 18.35546,-33.939,525.78 18.35956,-33.93343,533.4 18.36296,-33.92853,525.78 18.36875,-33.92065,525.78 18.37503,-33.91307,518.1600000000001 18.37968,-33.9082,533.4 18.38402,-33.90409,541.02 18.38887,-33.90015,533.4 18.39455,-33.89655,510.54 18.40061,-33.89361,518.1600000000001 18.4067,-33.8909,510.54 18.41732,-33.8864,487.68 18.42665,-33.88426,434.34000000000003 18.42917,-33.88692,381 18.42704,-33.88925,350.52000000000004 18.42407,-33.89082,312.42 18.42278,-33.89259,266.7 18.42464,-33.89403,182.88 18.42716,-33.89529,114.30000000000001 18.42642,-33.89766,38.1 18.4271,-33.89923,0 18.42756,-33.90046,0 18.42895,-33.90134,0 18.43094,-33.90171,15.24 18.4336,-33.90134,38.1 18.43792,-33.89794,68.58 18.43926,-33.89246,91.44 18.43769,-33.88573,114.30000000000001 18.43472,-33.87941,144.78 18.43088,-33.87429,205.74 18.42491,-33.8714,243.84 18.41858,-33.87204,304.8 18.41331,-33.87318,365.76 18.40862,-33.87439,434.34000000000003 18.40148,-33.87616,510.54 18.39173,-33.879,571.5 18.38674,-33.88124,601.98 18.3819,-33.88398,632.46 18.37721,-33.88714,655.32 18.37292,-33.89105,662.94 18.3692,-33.89516,678.1800000000001 18.3655,-33.89983,701.0400000000001 18.36199,-33.90423,716.2800000000001 18.35238,-33.91703,716.2800000000001 18.3494,-33.92164,693.4200000000001 18.34386,-33.931,716.2800000000001 18.33999,-33.93787,701.0400000000001 18.3387,-33.94249,678.1800000000001 18.34013,-33.94636,632.46 18.34425,-33.94936,601.98 18.34854,-33.95036,601.98 18.3522,-33.94552,518.1600000000001 18.35524,-33.93966,525.78 18.35896,-33.93411,541.02 18.36264,-33.92921,548.64 18.36611,-33.92427,556.26 18.36959,-33.91937,571.5 18.37318,-33.91443,556.26 18.37688,-33.90976,541.02 18.3811,-33.90516,541.02 18.38568,-33.9007,541.02 18.39033,-33.8969,563.88 18.39609,-33.89352,579.12 18.40165,-33.89058,601.98 18.40714,-33.88807,579.12 18.41264,-33.88582,571.5 18.41858,-33.88362,541.02 18.42469,-33.88248,495.3 18.42922,-33.8843,449.58000000000004 18.42876,-33.88733,396.24 18.42452,-33.88847,335.28000000000003 18.4211,-33.88998,274.32 18.42172,-33.89255,160.02 18.42396,-33.89524,83.82000000000001 18.42609,-33.89767,38.1 18.42766,-33.89905,0 18.42917,-33.90028,15.24 18.43111,-33.90171,22.86 18.43317,-33.90213,30.48 18.43607,-33.90125,45.72 18.43912,-33.89669,68.58 18.43909,-33.89076,83.82000000000001 18.43719,-33.88481,129.54000000000002 18.43489,-33.87982,182.88 18.4322,-33.8752,236.22 18.42928,-33.8708,289.56 18.42487,-33.8681,342.90000000000003 18.41955,-33.8681,396.24 18.4144,-33.86861,480.06 18.4096,-33.86931,548.64 18.40462,-33.87029,617.22 18.40042,-33.87131,678.1800000000001 18.39643,-33.87215,723.9000000000001 18.39191,-33.87341,754.38 18.38705,-33.87527,746.76 18.38144,-33.87825,739.14 18.37721,-33.88174,754.38 18.37351,-33.88582,769.62 18.36948,-33.89035,777.24 18.36404,-33.89644,777.24 18.35984,-33.90166,777.24 18.35627,-33.90628,762 18.35289,-33.91116,762 18.34986,-33.91571,762 18.34717,-33.91992,769.62 18.34431,-33.9245,769.62 18.34173,-33.92871,762 18.33944,-33.93286,769.62 18.33736,-33.937,777.24 18.33517,-33.94121,777.24 18.33355,-33.94556,746.76 18.33529,-33.94922,701.0400000000001 18.33915,-33.95192,647.7 18.34351,-33.95399,647.7 18.34785,-33.95278,609.6 18.35129,-33.94748,563.88 18.35489,-33.94175,563.88 18.35838,-33.9364,556.26 18.36241,-33.93059,548.64 18.36617,-33.92541,541.02 18.37508,-33.91402,502.92 18.38282,-33.9053,502.92 18.38758,-33.90088,487.68 18.39317,-33.89724,480.06 18.39924,-33.89447,457.20000000000005 18.40582,-33.89147,434.34000000000003 18.41234,-33.88849,426.72 18.42497,-33.88303,472.44 18.42962,-33.88333,472.44 18.42951,-33.88598,441.96000000000004 18.42573,-33.88761,365.76 18.42189,-33.8887,297.18 18.41987,-33.8909,205.74 18.42194,-33.89369,114.30000000000001 18.42447,-33.89607,60.96 18.42607,-33.89785,30.48 18.42733,-33.89901,0 18.42859,-33.89952,0 18.42979,-33.90083,30.48 18.43164,-33.9017,38.1 18.43439,-33.9017,45.72 18.43859,-33.8985,68.58 18.43937,-33.89278,91.44 18.43838,-33.88733,137.16 18.43624,-33.88234,198.12 18.43323,-33.87793,251.46 18.43007,-33.87392,281.94 18.42648,-33.87029,327.66 18.42138,-33.86838,350.52000000000004 18.41578,-33.86806,388.62 18.41073,-33.86838,449.58000000000004 18.4057,-33.86903,502.92 18.40092,-33.87003,541.02 18.39632,-33.87127,609.6 18.39214,-33.87252,662.94 18.38842,-33.87387,716.2800000000001 18.38493,-33.8755,762 18.38167,-33.87732,792.48 18.37861,-33.87946,838.2 18.37538,-33.88165,861.0600000000001 18.37234,-33.88412,906.7800000000001 18.36926,-33.88686,952.5 18.36606,-33.88989,960.12 18.36079,-33.89529,944.88 18.35678,-33.90013,929.6400000000001 18.35363,-33.90469,922.0200000000001 18.3506,-33.90963,914.4000000000001 18.34757,-33.91433,914.4000000000001 18.34487,-33.91846,914.4000000000001 18.34208,-33.92285,922.0200000000001 18.33926,-33.92752,906.7800000000001 18.33579,-33.93411,891.5400000000001 18.33332,-33.93909,914.4000000000001 18.33097,-33.94341,899.1600000000001 18.32651,-33.95213,922.0200000000001 18.32435,-33.95695,952.5 18.32284,-33.96107,960.12 18.32138,-33.96597,952.5 18.32027,-33.97098,944.88 18.31959,-33.97573,982.98 18.3193,-33.98025,1028.7 18.31924,-33.98434,1066.8 18.31903,-33.98877,1089.66 18.31869,-33.99335,1104.9 18.3185,-33.99775,1120.14 18.31864,-34.00186,1143 18.31942,-34.00644,1143 18.32082,-34.0107,1135.38 18.32284,-34.01482,1135.38 18.32542,-34.01848,1127.76 18.32834,-34.02163,1120.14 18.33164,-34.02438,1097.28 18.33568,-34.02754,1074.42 18.33939,-34.0302,1066.8 18.3442,-34.03185,1051.56 18.34877,-34.03308,1059.18 18.35333,-34.0329,1066.8 18.35541,-34.02903,1043.94 18.35339,-34.02278,967.74 18.35209,-34.01577,929.6400000000001 18.35083,-34.00972,906.7800000000001 18.34625,-34.00464,899.1600000000001 18.34145,-33.99989,876.3000000000001 18.34061,-33.99344,830.58 18.34409,-33.98268,739.14 18.35328,-33.96034,693.4200000000001 18.3573,-33.95022,609.6 18.35922,-33.94427,541.02 18.36136,-33.93751,495.3 18.36342,-33.93164,487.68 18.36662,-33.92574,480.06 18.37054,-33.92056,464.82000000000005 18.37486,-33.91525,449.58000000000004 18.37906,-33.91045,426.72 18.38385,-33.90562,426.72 18.38859,-33.90147,434.34000000000003 18.39432,-33.89724,434.34000000000003 18.40014,-33.89406,419.1 18.40628,-33.89138,419.1 18.41251,-33.88919,381 18.41841,-33.88742,365.76 18.42374,-33.88683,365.76 18.42407,-33.88933,335.28000000000003 18.42133,-33.89122,297.18 18.42161,-33.89296,220.98000000000002 18.42413,-33.89461,144.78 18.4247,-33.89706,76.2 18.42613,-33.89836,22.86 18.42755,-33.89919,0 18.42882,-33.89981,22.86 18.43108,-33.90161,30.48 18.4338,-33.90157,45.72 18.43797,-33.89781,76.2 18.43906,-33.8924,114.30000000000001 18.43775,-33.88692,144.78 18.43494,-33.88128,167.64000000000001 18.43102,-33.87657,220.98000000000002 18.42682,-33.8722,289.56 18.42217,-33.8687,327.66 18.41662,-33.86769,373.38 18.4112,-33.86852,419.1 18.40546,-33.8698,464.82000000000005 18.40038,-33.87122,518.1600000000001 18.39546,-33.87294,571.5 18.39055,-33.87474,624.84 18.38551,-33.87657,670.5600000000001 18.38058,-33.87877,708.6600000000001 18.37624,-33.88123,739.14 18.37211,-33.88454,777.24 18.3688,-33.88803,807.72 18.36567,-33.89154,845.82 18.36269,-33.89516,876.3000000000001 18.35972,-33.89873,914.4000000000001 18.35681,-33.90271,922.0200000000001 18.35417,-33.90665,937.26 18.35154,-33.91095,960.12 18.34907,-33.91521,990.6 18.34711,-33.91894,1021.08 18.34532,-33.92326,1066.8 18.34386,-33.92729,1104.9 18.34248,-33.93165,1112.52 18.34123,-33.93613,1135.38 18.34007,-33.94068,1165.8600000000001 18.33865,-33.9456,1173.48 18.3373,-33.95041,1181.1000000000001 18.33557,-33.95787,1188.72 18.33506,-33.96268,1181.1000000000001 18.33573,-33.96767,1181.1000000000001 18.33691,-33.97243,1203.96 18.33487,-33.97713,1188.72 18.3312,-33.98183,1173.48 18.3284,-33.98667,1173.48 18.32553,-33.99193,1158.24 18.32268,-33.99687,1143 18.31993,-34.00159,1135.38 18.31824,-34.00676,1127.76 18.3192,-34.01138,1120.14 18.32278,-34.015,1104.9 18.32657,-34.01833,1112.52 18.33103,-34.02163,1120.14 18.33489,-34.02425,1112.52 18.33938,-34.02667,1112.52 18.34419,-34.0289,1127.76 18.34834,-34.03088,1135.38 18.3512,-34.03413,1120.14 18.35003,-34.0388,1089.66 18.34929,-34.04328,1082.04 18.35009,-34.04775,1104.9 18.35169,-34.05203,1127.76 18.35369,-34.05618,1135.38 18.3563,-34.06027,1112.52 18.35905,-34.06398,1112.52 18.3621,-34.06749,1127.76 18.3651,-34.07057,1143 18.3678,-34.0741,1135.38 18.36994,-34.07768,1120.14 18.37222,-34.08147,1089.66 18.37447,-34.08563,1059.18 18.37549,-34.09016,1036.3200000000002 18.37368,-34.09474,1021.08 18.37292,-34.09905,1013.46 18.37643,-34.10243,975.36 18.38226,-34.1049,952.5 18.38808,-34.10729,937.26 18.39357,-34.10966,922.0200000000001 18.39851,-34.11205,899.1600000000001 18.40412,-34.11456,891.5400000000001 18.40908,-34.11725,861.0600000000001 18.41412,-34.12009,845.82 18.41903,-34.12299,830.58 18.42373,-34.12572,807.72 18.42872,-34.12871,769.62 18.43523,-34.13251,708.6600000000001 18.44009,-34.1349,647.7 18.44666,-34.13539,617.22 18.45305,-34.13324,579.12 18.45932,-34.12922,548.64 18.4655,-34.12498,525.78 18.47132,-34.12083,510.54 18.47783,-34.11708,495.3 18.48352,-34.11343,518.1600000000001 18.48398,-34.10706,533.4 18.479,-34.10257,518.1600000000001 18.47357,-34.0974,502.92 18.47208,-34.09007,472.44 18.47317,-34.08345,464.82000000000005 18.47454,-34.07615,449.58000000000004 18.47491,-34.06879,449.58000000000004 18.47469,-34.0621,449.58000000000004 18.47446,-34.05547,449.58000000000004 18.47429,-34.03839,449.58000000000004 18.47346,-34.01761,457.20000000000005 18.47351,-34.00948,457.20000000000005 18.47385,-34.00287,472.44 18.47448,-33.99645,495.3 18.47553,-33.99014,495.3 18.47693,-33.98337,472.44 18.47912,-33.97461,426.72 18.48318,-33.95832,388.62 18.48415,-33.95162,373.38 18.48295,-33.9445,335.28000000000003 18.48024,-33.9381,320.04 18.4771,-33.93205,304.8 18.47273,-33.92564,281.94 18.46813,-33.91982,266.7 18.46321,-33.91433,266.7 18.45815,-33.9088,259.08000000000004 18.44363,-33.89429,220.98000000000002 18.43809,-33.89031,205.74 18.43248,-33.88911,175.26000000000002 18.42794,-33.89085,121.92 18.42592,-33.89433,76.2 18.42603,-33.89708,38.1 18.42705,-33.89855,7.62 18.42836,-33.89952,0 18.43046,-33.90047,7.62 18.43214,-33.90102,22.86 18.43456,-33.90157,53.34 18.43881,-33.90074,99.06 18.44184,-33.89671,137.16 18.44195,-33.89145,182.88 18.43975,-33.88705,213.36 18.4358,-33.88244,259.08000000000004 18.43111,-33.87904,289.56 18.42642,-33.87727,304.8 18.41978,-33.87616,335.28000000000003 18.41365,-33.87625,358.14000000000004 18.40849,-33.87694,373.38 18.40311,-33.87827,411.48 18.39787,-33.88021,434.34000000000003 18.39334,-33.88277,457.20000000000005 18.389,-33.88607,495.3 18.38522,-33.8897,525.78 18.38181,-33.89378,556.26 18.37852,-33.8978,571.5 18.3725,-33.90518,579.12 18.36645,-33.91251,594.36 18.36342,-33.91635,594.36 18.35936,-33.92215,571.5 18.35707,-33.92587,594.36 18.35461,-33.93002,586.74 18.35216,-33.93448,594.36 18.34986,-33.93869,586.74 18.3478,-33.94305,586.74 18.3456,-33.94766,579.12 18.34319,-33.95229,586.74 18.34236,-33.95804,640.08 18.34888,-33.95935,662.94 18.35421,-33.95478,609.6 18.3572,-33.94812,601.98 18.35907,-33.94114,601.98 18.36073,-33.93398,601.98 18.36281,-33.92752,601.98 18.36589,-33.92157,586.74 18.36998,-33.91589,586.74 18.37424,-33.91109,571.5 18.37917,-33.90628,556.26 18.38367,-33.90223,541.02 18.38938,-33.89781,502.92 18.39506,-33.89417,464.82000000000005 18.40193,-33.89095,449.58000000000004 18.40855,-33.88843,411.48 18.41566,-33.88596,388.62 18.42273,-33.88385,365.76 18.42888,-33.88305,335.28000000000003 18.43323,-33.88491,281.94 18.43427,-33.88866,236.22 18.43147,-33.89122,213.36 18.42687,-33.89259,167.64000000000001 18.42553,-33.89502,91.44 18.42665,-33.89731,38.1 18.42773,-33.89878,7.62 18.42973,-33.90028,0 18.43105,-33.90078,30.48 18.43382,-33.90143,76.2 18.43729,-33.90153,121.92 18.44112,-33.8985,175.26000000000002 18.44173,-33.89374,220.98000000000002 18.44044,-33.88884,266.7 18.43769,-33.88403,304.8 18.43416,-33.8801,342.90000000000003 18.42899,-33.87727,388.62 18.42281,-33.87588,403.86 18.41679,-33.87602,449.58000000000004 18.41063,-33.87718,480.06 18.4058,-33.87872,518.1600000000001 18.40084,-33.88072,556.26 18.39603,-33.88323,579.12 18.3914,-33.88621,617.22 18.3873,-33.88948,632.46 18.3831,-33.89347,647.7 18.37951,-33.89717,670.5600000000001 18.37587,-33.90129,678.1800000000001 18.37267,-33.90559,670.5600000000001 18.36981,-33.91026,678.1800000000001 18.36691,-33.91489,693.4200000000001 18.3641,-33.91924,678.1800000000001 18.36124,-33.92404,685.8000000000001 18.359,-33.9283,678.1800000000001 18.3558,-33.93498,678.1800000000001 18.35412,-33.93956,670.5600000000001 18.35249,-33.94431,678.1800000000001 18.3507,-33.94872,678.1800000000001 18.34868,-33.95334,685.8000000000001 18.34637,-33.95832,670.5600000000001 18.34379,-33.96493,723.9000000000001 18.34024,-33.97643,716.2800000000001 18.33663,-33.99088,685.8000000000001 18.33441,-34.00399,678.1800000000001 18.33405,-34.00932,655.32 18.33422,-34.01399,662.94 18.33487,-34.01842,655.32 18.33578,-34.02289,640.08 18.33685,-34.02718,632.46 18.33801,-34.03197,655.32 18.33865,-34.03647,655.32 18.33996,-34.04128,617.22 18.34185,-34.04602,617.22 18.34248,-34.05147,617.22 18.34288,-34.05678,617.22 18.34285,-34.06192,617.22 18.34265,-34.06697,609.6 18.34225,-34.07251,594.36 18.34201,-34.07771,594.36 18.34207,-34.08279,601.98 18.34248,-34.08741,594.36 18.34381,-34.09218,579.12 18.34633,-34.09653,586.74 18.35032,-34.09998,609.6 18.35507,-34.10294,632.46 18.36027,-34.10556,632.46 18.36533,-34.10788,647.7 18.37043,-34.10985,708.6600000000001 18.37542,-34.11136,754.38 18.38081,-34.11283,777.24 18.38717,-34.11455,769.62 18.41,-34.12042,701.0400000000001 18.41566,-34.12246,678.1800000000001 18.42093,-34.12493,662.94 18.42607,-34.12726,655.32 18.4318,-34.12945,655.32 18.43741,-34.131,647.7 18.44363,-34.13058,662.94 18.44982,-34.12772,662.94 18.45557,-34.12418,655.32 18.46152,-34.12051,624.84 18.46651,-34.1163,624.84 18.47008,-34.11041,655.32 18.47157,-34.10412,678.1800000000001 18.47197,-34.09747,701.0400000000001 18.472,-34.09113,731.52 18.47155,-34.0849,739.14 18.46973,-34.07824,754.38 18.46662,-34.07185,784.86 18.46378,-34.06618,800.1 18.46118,-34.06027,815.34 18.45881,-34.05413,815.34 18.45686,-34.04737,830.58 18.45535,-34.04054,853.44 18.45328,-34.03496,861.0600000000001 18.45081,-34.02878,861.0600000000001 18.4484,-34.02269,861.0600000000001 18.44543,-34.01669,861.0600000000001 18.44158,-34.01102,853.44 18.44162,-34.00433,777.24 18.44576,-33.99808,708.6600000000001 18.45058,-33.99248,662.94 18.45606,-33.98732,624.84 18.46185,-33.98241,571.5 18.46791,-33.97714,518.1600000000001 18.47334,-33.97188,480.06 18.47833,-33.96574,434.34000000000003 18.48097,-33.95924,403.86 18.4813,-33.95183,381 18.47946,-33.94468,350.52000000000004 18.47649,-33.93784,335.28000000000003 18.47294,-33.93058,304.8 18.46936,-33.92413,289.56 18.4655,-33.91819,281.94 18.46028,-33.91187,251.46 18.45468,-33.90642,228.60000000000002 18.4489,-33.90106,213.36 18.43878,-33.8924,190.5 18.43355,-33.88966,236.22 18.42962,-33.89008,198.12 18.42768,-33.89203,152.4 18.4271,-33.89468,91.44 18.42715,-33.8968,53.34 18.42749,-33.89841,22.86 18.42836,-33.89967,7.62 18.43002,-33.9006,38.1 18.43334,-33.90041,53.34 18.43724,-33.8979,83.82000000000001 18.43887,-33.89282,114.30000000000001 18.43842,-33.88705,144.78 18.43646,-33.88152,182.88 18.43311,-33.87602,243.84 18.42968,-33.87149,281.94 18.42613,-33.86722,327.66 18.42201,-33.86433,358.14000000000004 18.41623,-33.86366,396.24 18.41112,-33.86449,434.34000000000003 18.4063,-33.86545,480.06 18.40141,-33.86661,533.4 18.39672,-33.86801,579.12 18.39212,-33.86975,632.46 18.38802,-33.87197,662.94 18.38388,-33.87469,693.4200000000001 18.37979,-33.87744,731.52 18.37604,-33.88037,769.62 18.37228,-33.88358,807.72 18.36845,-33.88719,845.82 18.36508,-33.89068,883.9200000000001 18.36163,-33.89447,922.0200000000001 18.35844,-33.89846,960.12 18.3553,-33.9023,990.6 18.35243,-33.90628,1028.7 18.3498,-33.91028,1074.42 18.34728,-33.91438,1097.28 18.34504,-33.9185,1127.76 18.34341,-33.9234,1165.8600000000001 18.34201,-33.92825,1181.1000000000001 18.34078,-33.93324,1173.48 18.33939,-33.93877,1158.24 18.33738,-33.94654,1158.24 18.33428,-33.9603,1188.72 18.33349,-33.96538,1173.48 18.33252,-33.97178,1150.6200000000001 18.3312,-33.97881,1127.76 18.32962,-33.9841,1135.38 18.32755,-33.98909,1135.38 18.32514,-33.99339,1127.76 18.32262,-33.99803,1120.14 18.32121,-34.00237,1104.9 18.32222,-34.00678,1074.42 18.32435,-34.01079,1059.18 18.32677,-34.01468,1051.56 18.32926,-34.01828,1043.94 18.33203,-34.02155,1043.94 18.33549,-34.02433,1021.08 18.33915,-34.02713,1021.08 18.34259,-34.02969,1021.08 18.34608,-34.03285,1021.08 18.34767,-34.03651,1021.08 18.34907,-34.0405,998.22 18.35032,-34.0444,982.98 18.35152,-34.04803,982.98 18.35295,-34.05166,982.98 18.35423,-34.05524,960.12 18.35604,-34.05864,952.5 18.35827,-34.06229,967.74 18.36079,-34.06567,960.12 18.36308,-34.0686,975.36 18.36571,-34.0714,967.74 18.3684,-34.07438,967.74 18.37032,-34.07744,967.74 18.37177,-34.08073,952.5 18.3732,-34.08443,944.88 18.37458,-34.08847,944.88 18.37643,-34.0925,944.88 18.37873,-34.09625,937.26 18.3819,-34.10021,914.4000000000001 18.38585,-34.10398,906.7800000000001 18.39054,-34.10706,876.3000000000001 18.39552,-34.10976,861.0600000000001 18.40084,-34.11269,815.34 18.40827,-34.11676,762 18.41348,-34.11969,746.76 18.41852,-34.12246,731.52 18.42333,-34.12503,731.52 18.42802,-34.12759,708.6600000000001 18.4354,-34.13163,685.8000000000001 18.44095,-34.1341,640.08 18.44793,-34.13471,632.46 18.45389,-34.13177,609.6 18.45967,-34.1277,579.12 18.46561,-34.12358,563.88 18.47755,-34.1158,548.64 18.48175,-34.11069,571.5 18.47968,-34.10463,563.88 18.47443,-34.09933,556.26 18.4706,-34.09319,556.26 18.46964,-34.08614,533.4 18.46959,-34.07927,525.78 18.46973,-34.07196,525.78 18.4706,-34.05093,518.1600000000001 18.4725,-34.03368,533.4 18.47306,-34.02759,556.26 18.47329,-34.0204,556.26 18.47301,-34.01381,556.26 18.47288,-34.00729,541.02 18.47301,-34.00099,525.78 18.47418,-33.9938,495.3 18.47591,-33.987,480.06 18.47803,-33.9802,464.82000000000005 18.48186,-33.96679,419.1 18.48513,-33.95181,365.76 18.48354,-33.94492,342.90000000000003 18.48038,-33.93849,327.66 18.47648,-33.93237,335.28000000000003 18.47265,-33.92694,342.90000000000003 18.46848,-33.92159,365.76 18.46224,-33.91401,358.14000000000004 18.44799,-33.89794,342.90000000000003 18.44279,-33.89319,342.90000000000003 18.43702,-33.88948,327.66 18.4314,-33.88882,274.32 18.42772,-33.89012,213.36 18.42536,-33.89296,129.54000000000002 18.42575,-33.89607,68.58 18.42665,-33.89795,30.48 18.4271,-33.89946,7.62 18.42739,-33.90064,0 18.42979,-33.90134,38.1 18.4336,-33.90111,76.2 18.4373,-33.89882,99.06 18.43893,-33.89406,137.16 18.4382,-33.88847,175.26000000000002 18.43603,-33.88305,228.60000000000002 18.4326,-33.87807,274.32 18.42878,-33.87383,304.8 18.4231,-33.87173,342.90000000000003 18.41701,-33.87195,388.62 18.41125,-33.8729,434.34000000000003 18.40546,-33.87424,487.68 18.4007,-33.87552,541.02 18.39598,-33.87704,594.36 18.39167,-33.87891,632.46 18.3873,-33.88142,678.1800000000001 18.38305,-33.88407,739.14 18.37921,-33.88672,800.1 18.37547,-33.88989,853.44 18.37137,-33.89361,845.82 18.36725,-33.89766,838.2 18.36182,-33.90339,830.58 18.3581,-33.90775,800.1 18.35443,-33.91261,777.24 18.35129,-33.91726,762 18.34874,-33.92175,746.76 18.34644,-33.92606,746.76 18.34375,-33.93114,746.76 18.34202,-33.93556,762 18.34162,-33.93933,769.62 18.3424,-33.94263,769.62 18.34437,-33.94569,777.24 18.34774,-33.94743,784.86 18.35221,-33.94492,754.38 18.35558,-33.93989,701.0400000000001 18.35953,-33.93435,640.08 18.36303,-33.92935,594.36 18.36673,-33.92422,556.26 18.37063,-33.91903,533.4 18.37481,-33.91396,510.54 18.37917,-33.90894,518.1600000000001 18.38338,-33.90445,541.02 18.38809,-33.90005,533.4 18.39291,-33.89671,518.1600000000001 18.39798,-33.89384,480.06 18.40294,-33.8914,441.96000000000004 18.40805,-33.88919,419.1 18.4132,-33.88696,411.48 18.41897,-33.88504,411.48 18.42299,-33.88607,403.86 18.4239,-33.88863,388.62 18.42264,-33.89068,365.76 18.42133,-33.89259,312.42 18.42267,-33.89415,243.84 18.42603,-33.89346,182.88 18.42755,-33.89484,129.54000000000002 18.42728,-33.89724,76.2 18.42715,-33.89891,38.1 18.42699,-33.90038,7.62
        </coordinates>
      </LineString>
    </Placemark>
  </Document>
</kml>