<?xml version="1.0" encoding="UTF-8"?>
<kml xmlns="http://www.opengis.net/kml/2.2">
  <Document>
    <name>FR24 3e6a5564 - Optimised</name>
    <description><![CDATA[Optimised flight path with 224 points (decimated from 1118 original points). Source format: Standard KML]]></description>
    
    <Style id="flightPath">
      <LineStyle>
        <color>ffff0000</color>
        <width>3</width>
      </LineStyle>
    </Style>
    
    <Placemark>
      <name>Flight Path</name>
      <description><![CDATA[Optimized flight path]]></description>
      <styleUrl>#flightPath</styleUrl>
      <LineString>
        <extrude>1</extrude>
        <tessellate>1</tessellate>
        <altitudeMode>absolute</altitudeMode>
        <coordinates>
          18.42687,-33.90102,0 18.4276,-33.89937,0 18.42934,-33.89687,0 18.43157,-33.89366,0 18.43377,-33.89008,0 18.4358,-33.88612,0 18.43769,-33.88211,0 18.4401,-33.87836,0 18.44444,-33.877,0 18.44736,-33.87928,0 18.44484,-33.88179,0 18.43982,-33.88211,0 18.43374,-33.88109,0 18.42796,-33.88011,0 18.42183,-33.87936,0 18.41543,-33.87867,0 18.40855,-33.87836,0 18.40193,-33.87863,0 18.39537,-33.8795,0 18.38905,-33.88105,0 18.38322,-33.88346,0 18.37738,-33.88646,0 18.3725,-33.88971,0 18.36763,-33.89406,0 18.3633,-33.89836,0 18.35907,-33.90297,0 18.35552,-33.90738,0 18.3518,-33.91251,0 18.34831,-33.9174,0 18.3427,-33.92546,0 18.33725,-33.93338,0 18.33767,-33.93826,0 18.34145,-33.94006,0 18.34442,-33.93756,0 18.34812,-33.93535,0 18.35188,-33.93874,0 18.35054,-33.94384,0 18.34745,-33.94931,0 18.34408,-33.95515,0 18.33887,-33.96526,0 18.33579,-33.97229,0 18.33175,-33.983,0 18.33012,-33.9884,0 18.32886,-33.99435,0 18.32839,-34.00026,0 18.32891,-34.00618,0 18.33023,-34.012,0 18.33206,-34.01758,0 18.46854,-34.05928,0 18.46682,-34.03772,0 18.46642,-34.01499,0 18.46705,-33.99228,0 18.4643,-33.97457,0 18.46314,-33.96844,0 18.45921,-33.94854,0 18.45776,-33.94249,0 18.45434,-33.92876,0 18.45305,-33.92308,0 18.45232,-33.91736,0 18.45204,-33.91196,0 18.45176,-33.90633,0 18.4498,-33.90143,0 18.44576,-33.89864,0 18.44141,-33.89836,0 18.43655,-33.89887,0 18.43271,-33.89939,0 18.42699,-33.90092,0 18.42833,-33.89845,0 18.43031,-33.89561,0 18.43231,-33.89223,0 18.43427,-33.88889,0 18.43601,-33.88486,0 18.43562,-33.88101,0 18.43254,-33.87778,0 18.42794,-33.87593,0 18.42276,-33.87518,0 18.41712,-33.87534,0 18.41118,-33.87611,0 18.40536,-33.87732,0 18.39947,-33.8789,0 18.39358,-33.88083,0 18.38696,-33.88371,0 18.3819,-33.88644,0 18.37688,-33.88971,0 18.3725,-33.8931,0 18.36768,-33.89722,0 18.36308,-33.90162,0 18.35907,-33.90614,0 18.35546,-33.91077,0 18.35216,-33.91599,0 18.34935,-33.92139,0 18.34678,-33.92647,0 18.34352,-33.93356,0 18.33635,-33.94963,0 18.326,-33.97308,0 18.31881,-33.99147,0 18.31135,-34.01046,0 18.36286,-33.92935,0 18.36679,-33.92143,0 18.36966,-33.91619,0 18.37275,-33.91107,0 18.37671,-33.90642,0 18.38121,-33.90213,0 18.38614,-33.89827,0 18.39151,-33.89502,0 18.39798,-33.89194,0 18.40462,-33.8898,0 18.41154,-33.88835,0 18.41869,-33.88728,0 18.42602,-33.8864,0 18.43351,-33.8864,0 18.43969,-33.88817,0 18.44391,-33.89154,0 18.44427,-33.89589,0 18.44072,-33.89836,0 18.43663,-33.89914,0 18.43271,-33.89957,0 18.42996,-33.89978,0 18.4276,-33.89996,0 18.42699,-33.90028,0 18.42934,-33.89655,0 18.43214,-33.8936,0 18.4342,-33.89008,0 18.43597,-33.88584,0 18.43567,-33.8817,0 18.43288,-33.87853,0 18.42813,-33.87606,0 18.4227,-33.87485,0 18.41746,-33.87451,0 18.41143,-33.87471,0 18.4049,-33.87555,0 18.39857,-33.87689,0 18.39296,-33.87845,0 18.38657,-33.88087,0 18.38142,-33.88358,0 18.37609,-33.88724,0 18.3712,-33.89101,0 18.36645,-33.89543,0 18.36241,-33.8996,0 18.35821,-33.90483,0 18.35473,-33.9099,0 18.35137,-33.91576,0 18.34829,-33.92139,0 18.34268,-33.93182,0 18.33286,-33.9532,0 18.32926,-33.97429,0 18.34299,-33.97052,0 18.34913,-33.9592,0 18.35186,-33.95301,0 18.35658,-33.94203,0 18.36359,-33.92546,0 18.36748,-33.91717,0 18.37057,-33.91209,0 18.37389,-33.9073,0 18.37777,-33.90266,0 18.38243,-33.89813,0 18.38719,-33.89442,0 18.39257,-33.89159,0 18.39913,-33.88943,0 18.40569,-33.88788,0 18.41274,-33.88654,0 18.41921,-33.8857,0 18.42636,-33.88519,0 18.43293,-33.88618,0 18.43861,-33.8891,0 18.44167,-33.89314,0 18.44111,-33.89713,0 18.43781,-33.89878,0 18.43431,-33.89929,0 18.43082,-33.89967,0 18.42833,-33.89992,0 18.42697,-33.90089,0 18.42802,-33.89878,0 18.42974,-33.89608,0 18.43315,-33.89026,0 18.43528,-33.88664,0 18.4358,-33.88235,0 18.433,-33.8783,0 18.42816,-33.87611,0 18.42304,-33.87541,0 18.41703,-33.87541,0 18.41108,-33.87602,0 18.40496,-33.87685,0 18.39855,-33.8783,0 18.39257,-33.8801,0 18.38657,-33.88248,0 18.38099,-33.88537,0 18.37572,-33.88891,0 18.37037,-33.89346,0 18.36567,-33.89795,0 18.36107,-33.90288,0 18.35731,-33.90775,0 18.35361,-33.91324,0 18.35031,-33.91887,0 18.34728,-33.92439,0 18.34437,-33.93036,0 18.34167,-33.93593,0 18.33584,-33.94878,0 18.32906,-33.96446,0 18.33708,-33.97394,0 18.3474,-33.96135,0 18.35064,-33.95485,0 18.35718,-33.9411,0 18.36634,-33.92198,0 18.37234,-33.91177,0 18.37637,-33.90701,0 18.38087,-33.90279,0 18.38568,-33.89874,0 18.39128,-33.89515,0 18.39798,-33.8925,0 18.40457,-33.89067,0 18.41148,-33.8891,0 18.41829,-33.88765,0 18.42922,-33.88598,0 18.43552,-33.88691,0 18.44072,-33.88993,0 18.44263,-33.8941,0 18.44134,-33.89754,0 18.43798,-33.89887,0 18.43517,-33.89928,0 18.43254,-33.89951,0 18.43052,-33.89973,0 18.42822,-33.89976,0 18.4268,-33.90059,0
        </coordinates>
      </LineString>
    </Placemark>
  </Document>
</kml>