<?xml version="1.0" encoding="UTF-8"?>
<kml xmlns="http://www.opengis.net/kml/2.2">
  <Document>
    <name>FR24 ZTREG 3e0cfe05 - Optimised</name>
    <description><![CDATA[Optimised flight path with 204 points (decimated from 1019 original points). Source format: Standard KML]]></description>
    
    <Style id="flightPath">
      <LineStyle>
        <color>ffff0000</color>
        <width>3</width>
      </LineStyle>
    </Style>
    
    <Placemark>
      <name>Flight Path</name>
      <description><![CDATA[Source: ADS-B
Start (SAST): 2026-01-25 12:06:02
End (SAST): 2026-01-25 17:03:13
Points: 1019]]></description>
      <styleUrl>#flightPath</styleUrl>
      <LineString>
        <extrude>1</extrude>
        <tessellate>1</tessellate>
        <altitudeMode>absolute</altitudeMode>
        <coordinates>
          18.38987,-33.88365,304.8 18.36707,-33.90613,426.72 18.33257,-34.01623,701.0400000000001 18.33539,-34.02244,701.0400000000001 18.33773,-34.02836,701.0400000000001 18.34011,-34.0345,701.0400000000001 18.34275,-34.04247,731.52 18.34411,-34.0487,731.52 18.34726,-34.05536,731.52 18.35065,-34.06127,762 18.35617,-34.06799,762 18.3625,-34.07366,792.48 18.36649,-34.07841,822.96 18.37126,-34.08358,822.96 18.37556,-34.08844,822.96 18.38006,-34.09367,822.96 18.38486,-34.09862,792.48 18.38968,-34.10343,762 18.39598,-34.10845,701.0400000000001 18.40097,-34.11244,670.5600000000001 18.40717,-34.11658,640.08 18.41338,-34.12039,579.12 18.41919,-34.1239,548.64 18.42548,-34.12789,548.64 18.43147,-34.13157,518.1600000000001 18.43785,-34.13483,548.64 18.44522,-34.13641,548.64 18.45485,-34.13411,548.64 18.46188,-34.12946,548.64 18.4674,-34.12343,548.64 18.47183,-34.11657,548.64 18.47478,-34.10987,548.64 18.47643,-34.10331,548.64 18.47722,-34.09686,579.12 18.47748,-34.09037,579.12 18.4775,-34.08445,579.12 18.47709,-34.07753,579.12 18.47707,-34.07119,579.12 18.47792,-34.0644,609.6 18.47844,-34.05744,579.12 18.4788,-34.05071,579.12 18.47938,-34.04364,579.12 18.4797,-34.03724,579.12 18.48013,-34.03012,579.12 18.48063,-34.02314,579.12 18.48104,-34.01623,579.12 18.48101,-34.00942,579.12 18.48233,-34.00218,548.64 18.4829,-33.99587,548.64 18.48272,-33.98909,487.68 18.4834,-33.98246,457.20000000000005 18.48321,-33.97521,426.72 18.48496,-33.96724,426.72 18.48363,-33.96043,396.24 18.48293,-33.95416,365.76 18.48289,-33.94621,365.76 18.48042,-33.93496,365.76 18.4752,-33.92828,304.8 18.46279,-33.91532,213.36 18.4371,-33.89864,152.4 18.41044,-33.871,274.32 18.35733,-33.91494,518.1600000000001 18.29308,-34.00351,792.48 18.33936,-34.01595,822.96 18.34063,-34.02209,792.48 18.34248,-34.02783,762 18.34477,-34.03424,762 18.34623,-34.04054,762 18.34839,-34.04677,731.52 18.34978,-34.05309,701.0400000000001 18.34871,-34.06001,701.0400000000001 18.32776,-34.07235,670.5600000000001 18.31282,-34.06321,609.6 18.30192,-34.02768,640.08 18.33443,-34.01246,670.5600000000001 18.36572,-33.91402,640.08 18.36874,-33.90644,609.6 18.3862,-33.89645,609.6 18.40323,-33.88765,518.1600000000001 18.42262,-33.87352,243.84 18.35268,-33.91696,579.12 18.33852,-34.0016,822.96 18.33834,-34.00949,822.96 18.33918,-34.01712,822.96 18.34012,-34.02284,792.48 18.34235,-34.02911,792.48 18.34485,-34.03583,792.48 18.34643,-34.04215,762 18.34821,-34.04849,762 18.34896,-34.0541,731.52 18.34323,-34.06421,701.0400000000001 18.33968,-34.0669,670.5600000000001 18.32656,-34.06892,640.08 18.31429,-34.06477,609.6 18.30389,-34.0551,579.12 18.30229,-34.02756,609.6 18.36834,-33.92216,609.6 18.36923,-33.90942,579.12 18.37058,-33.897,518.1600000000001 18.38951,-33.88146,365.76 18.37578,-33.89689,457.20000000000005 18.35386,-33.90969,548.64 18.37133,-33.90973,609.6 18.37287,-33.90306,609.6 18.40252,-33.88891,487.68 18.39048,-33.88303,304.8 18.36179,-33.90201,457.20000000000005 18.32053,-33.99265,731.52 18.33258,-34.01085,762 18.33571,-34.01733,762 18.33823,-34.0236,731.52 18.34031,-34.02912,701.0400000000001 18.34239,-34.03474,701.0400000000001 18.34528,-34.04212,701.0400000000001 18.34663,-34.04803,701.0400000000001 18.34832,-34.05396,670.5600000000001 18.34145,-34.06382,670.5600000000001 18.33475,-34.0695,670.5600000000001 18.32384,-34.06798,640.08 18.31375,-34.06293,640.08 18.30361,-34.0565,640.08 18.29566,-34.04756,640.08 18.35958,-33.92024,579.12 18.37536,-33.9104,579.12 18.39066,-33.89917,548.64 18.39602,-33.88779,457.20000000000005 18.41514,-33.87101,243.84 18.36526,-33.90775,426.72 18.31746,-33.99196,762 18.33189,-34.00789,762 18.3325,-34.01516,762 18.33499,-34.02153,792.48 18.337,-34.02748,792.48 18.33884,-34.03365,792.48 18.34074,-34.03963,822.96 18.34318,-34.04577,822.96 18.34601,-34.05198,822.96 18.3497,-34.05796,822.96 18.35329,-34.0636,853.44 18.35802,-34.06941,883.9200000000001 18.36197,-34.07411,914.4000000000001 18.36614,-34.0788,914.4000000000001 18.37146,-34.08408,914.4000000000001 18.3762,-34.08869,883.9200000000001 18.38132,-34.09335,914.4000000000001 18.38617,-34.09748,883.9200000000001 18.39091,-34.10165,853.44 18.3959,-34.10553,792.48 18.40151,-34.10917,762 18.40653,-34.11258,701.0400000000001 18.41206,-34.11632,670.5600000000001 18.4175,-34.12008,609.6 18.42297,-34.12381,579.12 18.4287,-34.12812,548.64 18.43418,-34.13158,548.64 18.44207,-34.13452,548.64 18.45142,-34.1341,548.64 18.45954,-34.13056,548.64 18.46554,-34.12564,548.64 18.47174,-34.11727,548.64 18.47529,-34.10986,579.12 18.47675,-34.10302,548.64 18.47711,-34.09502,548.64 18.47695,-34.08789,548.64 18.47725,-34.08021,548.64 18.47685,-34.07317,548.64 18.47687,-34.0659,579.12 18.47695,-34.05949,579.12 18.47764,-34.05253,579.12 18.47737,-34.04627,548.64 18.47688,-34.03912,548.64 18.47759,-34.03146,548.64 18.47825,-34.02443,548.64 18.47938,-34.01702,548.64 18.47981,-34.01031,548.64 18.48022,-34.00383,548.64 18.48076,-33.99692,518.1600000000001 18.48088,-33.9894,457.20000000000005 18.48173,-33.98161,426.72 18.48099,-33.97478,396.24 18.48133,-33.96606,365.76 18.4827,-33.95878,335.28000000000003 18.48236,-33.95082,335.28000000000003 18.48359,-33.93926,335.28000000000003 18.47237,-33.92226,243.84 18.40017,-33.86983,213.36 18.3869,-33.88865,426.72 18.36742,-33.90125,487.68 18.34915,-33.9089,518.1600000000001 18.36785,-33.91273,579.12 18.3853,-33.89767,487.68 18.40412,-33.88671,365.76 18.39816,-33.88215,335.28000000000003 18.3787,-33.89102,426.72 18.36591,-33.91533,548.64 18.36931,-33.90871,548.64 18.38311,-33.90363,518.1600000000001 18.3963,-33.89232,487.68 18.40645,-33.88941,426.72 18.36007,-33.90651,609.6 18.35589,-33.91582,640.08 18.36874,-33.91016,579.12 18.38828,-33.90244,518.1600000000001 18.39639,-33.88712,365.76
        </coordinates>
      </LineString>
    </Placemark>
  </Document>
</kml>