<?xml version="1.0" encoding="UTF-8"?>
<kml xmlns="http://www.opengis.net/kml/2.2">
  <Document>
    <name>FR24 ZSHMB 3de6221c - Optimised</name>
    <description><![CDATA[Optimised flight path with 530 points (decimated from 2650 original points). Source format: Standard KML]]></description>
    
    <Style id="flightPath">
      <LineStyle>
        <color>ffff0000</color>
        <width>3</width>
      </LineStyle>
    </Style>
    
    <Placemark>
      <name>Flight Path</name>
      <description><![CDATA[Source: ADS-B
Start (SAST): 2026-01-14 09:38:20
End (SAST): 2026-01-14 16:28:12
Points: 2650]]></description>
      <styleUrl>#flightPath</styleUrl>
      <LineString>
        <extrude>1</extrude>
        <tessellate>1</tessellate>
        <altitudeMode>absolute</altitudeMode>
        <coordinates>
          18.42745,-33.90097,38.1 18.42738,-33.89932,76.2 18.42917,-33.89621,106.68 18.4314,-33.89278,137.16 18.43414,-33.88877,167.64000000000001 18.43624,-33.88435,182.88 18.43426,-33.88044,205.74 18.43013,-33.8795,243.84 18.42318,-33.88055,342.90000000000003 18.41875,-33.88146,403.86 18.41251,-33.88305,472.44 18.40794,-33.88454,525.78 18.40399,-33.88607,579.12 18.40031,-33.88765,632.46 18.39672,-33.88933,670.5600000000001 18.39341,-33.89117,716.2800000000001 18.38994,-33.89328,746.76 18.38631,-33.89576,769.62 18.38276,-33.89855,777.24 18.37912,-33.90189,792.48 18.37606,-33.90548,807.72 18.37303,-33.90972,807.72 18.37034,-33.91368,807.72 18.36531,-33.92164,792.48 18.35698,-33.93613,800.1 18.35215,-33.9464,800.1 18.35019,-33.95164,800.1 18.34539,-33.96684,800.1 18.3363,-33.99058,784.86 18.33275,-34.00096,784.86 18.33158,-34.00594,784.86 18.33158,-34.01166,769.62 18.33286,-34.01693,777.24 18.33458,-34.02191,777.24 18.3368,-34.02699,777.24 18.33921,-34.03211,762 18.34185,-34.03751,746.76 18.34551,-34.04551,746.76 18.347,-34.05101,739.14 18.34784,-34.05611,754.38 18.34829,-34.06187,754.38 18.34834,-34.0675,762 18.34823,-34.07336,739.14 18.3478,-34.08639,701.0400000000001 18.34866,-34.09221,670.5600000000001 18.35087,-34.09772,655.32 18.35501,-34.10249,632.46 18.36039,-34.10645,632.46 18.366,-34.10944,632.46 18.37149,-34.11168,640.08 18.37744,-34.11374,640.08 18.38299,-34.11572,647.7 18.38876,-34.11795,647.7 18.39432,-34.12018,647.7 18.41406,-34.12786,662.94 18.43035,-34.13457,678.1800000000001 18.43615,-34.13601,662.94 18.44246,-34.13608,655.32 18.44822,-34.1349,662.94 18.45344,-34.13264,670.5600000000001 18.4584,-34.12949,662.94 18.46258,-34.12596,640.08 18.46622,-34.12198,632.46 18.46916,-34.11753,632.46 18.47116,-34.11287,617.22 18.47197,-34.10808,609.6 18.47161,-34.10321,601.98 18.4706,-34.0984,586.74 18.46914,-34.09369,586.74 18.46729,-34.08897,571.5 18.46471,-34.08389,541.02 18.46236,-34.07904,518.1600000000001 18.45967,-34.07414,480.06 18.45698,-34.06902,480.06 18.45468,-34.06416,457.20000000000005 18.4516,-34.05971,457.20000000000005 18.44627,-34.05738,457.20000000000005 18.44022,-34.05766,449.58000000000004 18.43399,-34.05986,449.58000000000004 18.43265,-34.06453,472.44 18.43752,-34.06563,480.06 18.44164,-34.06269,480.06 18.44404,-34.0585,487.68 18.44548,-34.05418,495.3 18.44655,-34.04974,510.54 18.4475,-34.04521,502.92 18.4484,-34.04077,510.54 18.45053,-34.02965,525.78 18.45143,-34.02521,533.4 18.45463,-34.0112,533.4 18.45642,-34.0041,518.1600000000001 18.46146,-33.98685,464.82000000000005 18.46338,-33.98206,457.20000000000005 18.46718,-33.9733,441.96000000000004 18.46991,-33.96745,457.20000000000005 18.47155,-33.96291,464.82000000000005 18.47278,-33.95847,472.44 18.47368,-33.95412,480.06 18.47391,-33.9498,472.44 18.4734,-33.94519,464.82000000000005 18.47219,-33.94086,457.20000000000005 18.47054,-33.93672,449.58000000000004 18.46863,-33.93256,441.96000000000004 18.46647,-33.9282,426.72 18.46415,-33.92358,411.48 18.46172,-33.91912,396.24 18.45921,-33.91479,373.38 18.45629,-33.91032,342.90000000000003 18.45325,-33.90618,320.04 18.45005,-33.90199,289.56 18.44543,-33.89671,274.32 18.44072,-33.8978,220.98000000000002 18.43736,-33.90038,144.78 18.43287,-33.90198,83.82000000000001 18.42861,-33.90157,53.34 18.42728,-33.90097,38.1 18.42813,-33.8985,76.2 18.43037,-33.89589,121.92 18.43254,-33.8931,160.02 18.43466,-33.89026,205.74 18.43655,-33.88714,243.84 18.43683,-33.88384,289.56 18.43517,-33.88129,327.66 18.4322,-33.87974,358.14000000000004 18.42871,-33.879,381 18.4248,-33.87868,403.86 18.4207,-33.87862,434.34000000000003 18.41656,-33.87881,464.82000000000005 18.41257,-33.87937,495.3 18.40759,-33.88055,525.78 18.40359,-33.88193,541.02 18.39958,-33.88362,556.26 18.3952,-33.88573,571.5 18.39106,-33.88812,594.36 18.38676,-33.89119,609.6 18.38315,-33.89452,632.46 18.3799,-33.89804,647.7 18.3771,-33.90161,670.5600000000001 18.37396,-33.90564,685.8000000000001 18.37057,-33.91051,708.6600000000001 18.36794,-33.9147,716.2800000000001 18.36443,-33.92061,723.9000000000001 18.35944,-33.93022,739.14 18.3573,-33.93514,746.76 18.35529,-33.9403,762 18.349,-33.95925,792.48 18.34127,-33.98346,853.44 18.33504,-34.00231,876.3000000000001 18.3322,-34.01015,876.3000000000001 18.33206,-34.01567,891.5400000000001 18.33372,-34.02107,899.1600000000001 18.33613,-34.0264,899.1600000000001 18.33841,-34.03206,891.5400000000001 18.34024,-34.03765,868.6800000000001 18.34185,-34.04346,845.82 18.34299,-34.04924,822.96 18.34368,-34.05524,807.72 18.34391,-34.06097,800.1 18.34379,-34.06637,792.48 18.34358,-34.07739,769.62 18.34459,-34.08842,762 18.34711,-34.09419,746.76 18.35129,-34.09909,754.38 18.35667,-34.1031,762 18.36225,-34.10637,762 18.36836,-34.10953,762 18.37419,-34.11237,762 18.39128,-34.12033,739.14 18.41454,-34.12981,716.2800000000001 18.42374,-34.13274,708.6600000000001 18.43111,-34.13429,716.2800000000001 18.43752,-34.13499,716.2800000000001 18.44464,-34.13498,708.6600000000001 18.45177,-34.13373,708.6600000000001 18.45726,-34.13177,716.2800000000001 18.46297,-34.13136,716.2800000000001 18.46579,-34.13517,731.52 18.46264,-34.13828,716.2800000000001 18.45899,-34.13631,693.4200000000001 18.45989,-34.13196,662.94 18.46269,-34.12798,647.7 18.46622,-34.12376,647.7 18.46964,-34.11996,640.08 18.47429,-34.11397,632.46 18.4766,-34.10943,617.22 18.4778,-34.10482,601.98 18.47777,-34.10014,579.12 18.47712,-34.09556,579.12 18.47631,-34.09076,563.88 18.47511,-34.08406,548.64 18.47385,-34.07363,518.1600000000001 18.47379,-34.0687,518.1600000000001 18.4739,-34.06416,518.1600000000001 18.47424,-34.05547,510.54 18.47414,-34.04956,510.54 18.4738,-34.04523,518.1600000000001 18.47334,-34.04105,525.78 18.47205,-34.02676,533.4 18.47172,-34.01601,541.02 18.47179,-34.01162,548.64 18.47172,-34.00662,586.74 18.47174,-33.99724,586.74 18.4725,-33.99239,586.74 18.47362,-33.9873,594.36 18.4758,-33.97848,571.5 18.4774,-33.96987,556.26 18.47752,-33.96544,548.64 18.47717,-33.96125,541.02 18.4762,-33.95723,556.26 18.47454,-33.95325,571.5 18.4726,-33.94943,563.88 18.47082,-33.94556,541.02 18.46886,-33.94162,518.1600000000001 18.46605,-33.938,518.1600000000001 18.46275,-33.93486,487.68 18.45921,-33.93188,457.20000000000005 18.45541,-33.9288,434.34000000000003 18.45177,-33.92546,403.86 18.44896,-33.92194,381 18.44679,-33.91777,350.52000000000004 18.44587,-33.91335,327.66 18.44633,-33.90875,312.42 18.44722,-33.9044,289.56 18.44616,-33.90097,259.08000000000004 18.44307,-33.89873,213.36 18.43881,-33.89978,160.02 18.435,-33.90148,114.30000000000001 18.42839,-33.9007,53.34 18.42704,-33.90051,53.34 18.42791,-33.89846,91.44 18.42997,-33.89566,137.16 18.43242,-33.89264,160.02 18.43534,-33.88873,190.5 18.43712,-33.88454,220.98000000000002 18.43609,-33.88081,259.08000000000004 18.43276,-33.87836,304.8 18.42929,-33.87698,350.52000000000004 18.42547,-33.87625,403.86 18.42183,-33.87589,457.20000000000005 18.41875,-33.87602,502.92 18.41544,-33.87643,548.64 18.412,-33.87704,586.74 18.40866,-33.8779,640.08 18.40546,-33.87895,678.1800000000001 18.40227,-33.88023,723.9000000000001 18.39918,-33.88169,754.38 18.39565,-33.88344,784.86 18.39209,-33.88575,807.72 18.38893,-33.8887,815.34 18.38568,-33.89222,807.72 18.38271,-33.89594,807.72 18.3799,-33.89973,815.34 18.3771,-33.90349,807.72 18.36909,-33.91466,792.48 18.36153,-33.92616,762 18.35907,-33.93076,769.62 18.35678,-33.93546,762 18.353,-33.94417,754.38 18.34625,-33.95897,754.38 18.3363,-33.98053,723.9000000000001 18.32906,-33.995,685.8000000000001 18.32671,-34.00145,655.32 18.32542,-34.00745,640.08 18.32703,-34.01405,594.36 18.33114,-34.01976,541.02 18.33742,-34.02415,472.44 18.34499,-34.02503,441.96000000000004 18.35146,-34.02876,434.34000000000003 18.35352,-34.03374,449.58000000000004 18.35146,-34.04319,487.68 18.34785,-34.04761,502.92 18.30754,-34.04599,548.64 18.30202,-34.03672,594.36 18.30294,-34.0312,609.6 18.30619,-34.02585,617.22 18.31107,-34.02054,624.84 18.31633,-34.01549,617.22 18.3215,-34.01042,601.98 18.32615,-34.00534,601.98 18.33046,-34.00012,594.36 18.34173,-33.98783,579.12 18.35615,-33.97126,571.5 18.3623,-33.96053,586.74 18.36471,-33.95311,586.74 18.36605,-33.94729,601.98 18.36695,-33.94167,601.98 18.36782,-33.93533,586.74 18.36802,-33.92949,556.26 18.36852,-33.92372,548.64 18.37063,-33.91838,556.26 18.37458,-33.91338,571.5 18.37967,-33.90898,571.5 18.38556,-33.90474,571.5 18.391,-33.90097,579.12 18.39705,-33.89735,579.12 18.40333,-33.89401,563.88 18.40967,-33.89104,556.26 18.41566,-33.88852,533.4 18.42228,-33.88614,502.92 18.42934,-33.88509,449.58000000000004 18.43712,-33.88621,396.24 18.44267,-33.88966,327.66 18.44509,-33.89456,259.08000000000004 18.4433,-33.89897,182.88 18.43954,-33.90147,129.54000000000002 18.43489,-33.90184,91.44 18.4313,-33.90143,68.58 18.42831,-33.9012,45.72 18.4271,-33.90032,60.96 18.42825,-33.89804,99.06 18.43024,-33.89516,137.16 18.4326,-33.89203,160.02 18.43517,-33.88847,175.26000000000002 18.43624,-33.88486,213.36 18.43416,-33.88257,266.7 18.43071,-33.88188,327.66 18.42738,-33.88174,388.62 18.42413,-33.88179,434.34000000000003 18.42081,-33.88221,495.3 18.4174,-33.88289,556.26 18.41409,-33.88376,624.84 18.41051,-33.88496,678.1800000000001 18.40731,-33.88621,739.14 18.40393,-33.88789,777.24 18.40019,-33.88998,807.72 18.39633,-33.89232,822.96 18.3924,-33.89474,838.2 18.38663,-33.89854,845.82 18.38242,-33.90171,838.2 18.37839,-33.90536,822.96 18.37492,-33.90949,807.72 18.37161,-33.91411,792.48 18.36852,-33.91882,777.24 18.36567,-33.92372,762 18.36325,-33.9282,762 18.35686,-33.94084,777.24 18.34946,-33.95609,815.34 18.36348,-33.96614,792.48 18.3697,-33.95979,769.62 18.37063,-33.95399,769.62 18.37006,-33.94868,739.14 18.36891,-33.94319,693.4200000000001 18.36805,-33.9377,655.32 18.36811,-33.93206,624.84 18.36925,-33.9267,617.22 18.37149,-33.92152,579.12 18.3748,-33.91635,548.64 18.37887,-33.91177,510.54 18.38343,-33.90733,518.1600000000001 18.38877,-33.90269,525.78 18.39357,-33.89901,533.4 18.39895,-33.89557,548.64 18.4045,-33.89254,548.64 18.41097,-33.88938,556.26 18.41746,-33.88683,533.4 18.42505,-33.88509,495.3 18.43276,-33.88518,441.96000000000004 18.44022,-33.88742,373.38 18.44504,-33.89191,304.8 18.44524,-33.89729,243.84 18.44195,-33.90092,167.64000000000001 18.43758,-33.90218,106.68 18.43357,-33.90227,83.82000000000001 18.42951,-33.90181,60.96 18.42756,-33.9012,38.1 18.42739,-33.89957,91.44 18.42872,-33.89726,129.54000000000002 18.43035,-33.89456,144.78 18.43294,-33.89105,152.4 18.4354,-33.88756,160.02 18.43612,-33.88394,175.26000000000002 18.43357,-33.88179,220.98000000000002 18.43007,-33.8817,266.7 18.42613,-33.88253,327.66 18.42087,-33.88403,381 18.41656,-33.88522,434.34000000000003 18.40602,-33.88866,594.36 18.40221,-33.89035,655.32 18.39941,-33.89208,685.8000000000001 18.39621,-33.89426,701.0400000000001 18.39302,-33.89662,723.9000000000001 18.3898,-33.89911,754.38 18.38663,-33.9017,769.62 18.38333,-33.90479,769.62 18.38007,-33.908,762 18.37664,-33.91163,746.76 18.37318,-33.91566,731.52 18.37023,-33.92006,723.9000000000001 18.36788,-33.92415,723.9000000000001 18.3655,-33.92862,723.9000000000001 18.36325,-33.93379,693.4200000000001 18.3617,-33.93872,678.1800000000001 18.3604,-33.94359,678.1800000000001 18.35896,-33.94845,670.5600000000001 18.35718,-33.95334,662.94 18.35484,-33.95963,640.08 18.34767,-33.97385,640.08 18.33545,-33.99243,586.74 18.3276,-34.00599,533.4 18.32268,-34.01316,525.78 18.30969,-34.0295,403.86 18.30603,-34.03532,381 18.3153,-34.06306,426.72 18.32553,-34.07497,419.1 18.33562,-34.08499,419.1 18.34784,-34.09579,457.20000000000005 18.35333,-34.09982,472.44 18.35967,-34.10413,472.44 18.36589,-34.10774,464.82000000000005 18.37252,-34.11097,457.20000000000005 18.37927,-34.1138,457.20000000000005 18.38625,-34.11637,464.82000000000005 18.39263,-34.11864,480.06 18.40805,-34.12437,487.68 18.43065,-34.13294,487.68 18.44066,-34.13553,487.68 18.44816,-34.13503,502.92 18.45434,-34.13289,495.3 18.45927,-34.12971,487.68 18.46384,-34.12563,464.82000000000005 18.46796,-34.12144,441.96000000000004 18.47122,-34.11697,434.34000000000003 18.47284,-34.11259,434.34000000000003 18.47294,-34.1085,449.58000000000004 18.47228,-34.10458,441.96000000000004 18.47132,-34.10056,434.34000000000003 18.47032,-34.09676,411.48 18.46905,-34.09286,426.72 18.46785,-34.08881,449.58000000000004 18.46659,-34.08494,464.82000000000005 18.46533,-34.08075,472.44 18.46424,-34.07615,487.68 18.4637,-34.07153,480.06 18.46361,-34.06679,480.06 18.4639,-34.06199,472.44 18.46393,-34.05693,464.82000000000005 18.46387,-34.05231,457.20000000000005 18.46426,-34.04745,464.82000000000005 18.46505,-34.04297,464.82000000000005 18.466,-34.03816,457.20000000000005 18.46722,-34.03327,449.58000000000004 18.46836,-34.02866,441.96000000000004 18.4691,-34.02415,441.96000000000004 18.46933,-34.01935,434.34000000000003 18.46936,-34.01454,434.34000000000003 18.46942,-34.00703,426.72 18.46939,-34.00273,434.34000000000003 18.46945,-33.99673,449.58000000000004 18.46936,-33.99184,434.34000000000003 18.46956,-33.98728,434.34000000000003 18.47026,-33.98222,441.96000000000004 18.47121,-33.97742,434.34000000000003 18.47239,-33.97289,419.1 18.47345,-33.96805,426.72 18.47396,-33.96327,426.72 18.47397,-33.95855,411.48 18.4734,-33.95389,426.72 18.47254,-33.94957,419.1 18.47138,-33.94542,403.86 18.46976,-33.9407,396.24 18.46807,-33.93649,403.86 18.46622,-33.93224,396.24 18.46069,-33.92103,381 18.45877,-33.91704,373.38 18.45686,-33.91256,358.14000000000004 18.45497,-33.90795,335.28000000000003 18.4524,-33.90372,281.94 18.44812,-33.90074,228.60000000000002 18.44233,-33.89999,182.88 18.43786,-33.9006,137.16 18.43437,-33.90125,99.06 18.43111,-33.90167,76.2 18.42802,-33.90176,45.72 18.42715,-33.9001,76.2 18.42833,-33.89754,121.92 18.43046,-33.89484,152.4 18.43315,-33.89182,167.64000000000001 18.4366,-33.88491,220.98000000000002 18.43041,-33.88266,342.90000000000003 18.42648,-33.88293,388.62 18.42262,-33.88339,419.1 18.41897,-33.88376,457.20000000000005 18.41499,-33.8844,502.92 18.412,-33.88686,525.78 18.40845,-33.88854,548.64 18.40479,-33.88939,601.98 18.4013,-33.89008,640.08 18.397,-33.8914,647.7 18.39291,-33.8936,662.94 18.38963,-33.89636,662.94 18.38596,-33.89976,624.84 18.38231,-33.90312,556.26 18.3757,-33.90994,495.3 18.37234,-33.91405,487.68 18.36988,-33.91796,502.92 18.36791,-33.92276,533.4 18.36673,-33.92743,487.68 18.36555,-33.93301,434.34000000000003 18.36286,-33.94336,373.38 18.35759,-33.9592,320.04 18.34917,-33.97587,266.7 18.34027,-33.98795,259.08000000000004 18.32989,-34.00431,266.7 18.31816,-34.02191,274.32 18.30193,-34.02686,297.18 18.31306,-34.01595,327.66 18.3271,-33.99925,327.66 18.33977,-33.98167,320.04 18.35462,-33.95851,289.56 18.36061,-33.94519,266.7 18.36428,-33.9323,251.46 18.36948,-33.91708,274.32 18.36488,-33.91992,312.42 18.37366,-33.91722,358.14000000000004 18.37795,-33.91312,403.86 18.38198,-33.9093,426.72 18.38648,-33.9053,434.34000000000003 18.39334,-33.89957,441.96000000000004 18.39924,-33.89571,441.96000000000004 18.40552,-33.89209,441.96000000000004 18.41196,-33.88889,426.72 18.41852,-33.88632,411.48 18.42575,-33.88495,403.86 18.43374,-33.88533,381 18.44067,-33.88812,342.90000000000003 18.44444,-33.89236,281.94 18.44421,-33.89697,213.36 18.44094,-33.9001,160.02 18.43567,-33.90157,114.30000000000001 18.43088,-33.90153,68.58
        </coordinates>
      </LineString>
    </Placemark>
  </Document>
</kml>