<?xml version="1.0" encoding="UTF-8"?>
<kml xmlns="http://www.opengis.net/kml/2.2">
  <Document>
    <name>FR24 41d40e98 - Optimised</name>
    <description><![CDATA[Optimised flight path with 337 points (decimated from 1681 original points). Source format: Standard KML]]></description>
    
    <Style id="flightPath">
      <LineStyle>
        <color>ffff0000</color>
        <width>3</width>
      </LineStyle>
    </Style>
    
    <Placemark>
      <name>Flight Path</name>
      <description><![CDATA[Optimized flight path]]></description>
      <styleUrl>#flightPath</styleUrl>
      <LineString>
        <extrude>1</extrude>
        <tessellate>1</tessellate>
        <altitudeMode>absolute</altitudeMode>
        <coordinates>
          18.43203,-33.89108,0 18.43666,-33.88319,0 18.43456,-33.87964,0 18.43037,-33.87793,0 18.42525,-33.87808,0 18.42009,-33.87914,0 18.41452,-33.8803,0 18.40591,-33.88248,0 18.39815,-33.88477,0 18.39212,-33.88724,0 18.38708,-33.89017,0 18.38226,-33.89342,0 18.37738,-33.89699,0 18.37295,-33.90056,0 18.36897,-33.90472,0 18.36502,-33.9093,0 18.36159,-33.91396,0 18.35827,-33.91931,0 18.35506,-33.9249,0 18.34991,-33.93444,0 18.34678,-33.94098,0 18.34402,-33.94631,0 18.34095,-33.95132,0 18.3375,-33.9566,0 18.33303,-33.96321,0 18.32155,-33.98122,0 18.31768,-33.989,0 18.31083,-34.00101,0 18.30261,-34.01587,0 18.30042,-34.02196,0 18.29899,-34.02848,0 18.29863,-34.03477,0 18.29986,-34.04169,0 18.30233,-34.04878,0 18.30534,-34.05538,0 18.30883,-34.06176,0 18.31253,-34.06778,0 18.31651,-34.07368,0 18.32417,-34.08536,0 18.33158,-34.09502,0 18.33691,-34.10051,0 18.34313,-34.1055,0 18.34917,-34.10901,0 18.35592,-34.11222,0 18.36302,-34.11525,0 18.3702,-34.11768,0 18.3771,-34.11964,0 18.38456,-34.12152,0 18.39386,-34.12349,0 18.40047,-34.12527,0 18.40788,-34.12763,0 18.41417,-34.12977,0 18.4207,-34.13243,0 18.42728,-34.1348,0 18.43391,-34.13685,0 18.44173,-34.13805,0 18.44879,-34.13759,0 18.45541,-34.13484,0 18.46051,-34.13109,0 18.4655,-34.12624,0 18.46953,-34.12175,0 18.47284,-34.11671,0 18.47494,-34.11166,0 18.4762,-34.10617,0 18.47546,-34.10096,0 18.47311,-34.09533,0 18.47138,-34.08961,0 18.47026,-34.08389,0 18.46987,-34.07744,0 18.46973,-34.07196,0 18.46968,-34.06577,0 18.46936,-34.05991,0 18.46919,-34.0535,0 18.46931,-34.04796,0 18.46939,-34.04235,0 18.46942,-34.03267,0 18.46933,-34.02452,0 18.46919,-34.01912,0 18.46897,-34.00978,0 18.46919,-34.00424,0 18.46991,-33.99854,0 18.4706,-33.99344,0 18.47144,-33.9884,0 18.47278,-33.98351,0 18.47437,-33.97866,0 18.47586,-33.97334,0 18.47693,-33.96886,0 18.47839,-33.96483,0 18.47975,-33.96023,0 18.48018,-33.95554,0 18.48024,-33.951,0 18.47923,-33.9465,0 18.47769,-33.94226,0 18.4754,-33.93761,0 18.47278,-33.93375,0 18.46962,-33.92974,0 18.46607,-33.92569,0 18.46146,-33.92203,0 18.45698,-33.91869,0 18.45217,-33.91535,0 18.44788,-33.91242,0 18.44387,-33.90958,0 18.4405,-33.90646,0 18.43712,-33.90362,0 18.43456,-33.90179,0 18.43299,-33.90088,0 18.43153,-33.90028,0 18.43001,-33.90019,0 18.42833,-33.90042,0 18.42682,-33.90097,0 18.42699,-33.89934,0 18.42939,-33.89678,0 18.43266,-33.89333,0 18.43592,-33.889,0 18.43702,-33.88463,0 18.43437,-33.88137,0 18.42934,-33.87946,0 18.42361,-33.87965,0 18.41757,-33.88106,0 18.41202,-33.88284,0 18.40656,-33.88486,0 18.40004,-33.88705,0 18.3942,-33.88947,0 18.38848,-33.89268,0 18.38332,-33.89635,0 18.37818,-33.90036,0 18.37351,-33.90445,0 18.36942,-33.9082,0 18.36561,-33.91251,0 18.36222,-33.91698,0 18.3593,-33.92173,0 18.35664,-33.92683,0 18.35412,-33.93201,0 18.34947,-33.94226,0 18.34638,-33.94835,0 18.34328,-33.95409,0 18.34007,-33.9593,0 18.33063,-33.97119,0 18.31651,-33.99088,0 18.30545,-34.01014,0 18.29967,-34.0228,0 18.29818,-34.02892,0 18.29784,-34.03542,0 18.29882,-34.04198,0 18.3012,-34.04906,0 18.3042,-34.05538,0 18.30782,-34.0616,0 18.31157,-34.06718,0 18.31524,-34.07228,0 18.31993,-34.07787,0 18.32407,-34.08339,0 18.32833,-34.08893,0 18.33248,-34.09433,0 18.33687,-34.09961,0 18.34219,-34.10445,0 18.3484,-34.10857,0 18.35429,-34.11159,0 18.3613,-34.11464,0 18.36817,-34.11697,0 18.37564,-34.11882,0 18.38299,-34.12046,0 18.39037,-34.12251,0 18.39739,-34.12463,0 18.4128,-34.12954,0 18.42856,-34.1353,0 18.43472,-34.13704,0 18.44173,-34.13818,0 18.44816,-34.13773,0 18.45451,-34.13573,0 18.46001,-34.13247,0 18.46454,-34.12848,0 18.46813,-34.12418,0 18.47144,-34.11969,0 18.47466,-34.11492,0 18.47609,-34.11027,0 18.47694,-34.10519,0 18.47727,-34.10033,0 18.47694,-34.09556,0 18.47643,-34.09044,0 18.47598,-34.0854,0 18.47553,-34.07932,0 18.47523,-34.07419,0 18.47497,-34.06883,0 18.47474,-34.0621,0 18.47458,-34.05698,0 18.47446,-34.03922,0 18.47368,-34.02945,0 18.47323,-34.02402,0 18.47284,-34.01825,0 18.47256,-34.01262,0 18.47231,-34.00627,0 18.47245,-34.00122,0 18.47267,-33.99614,0 18.47254,-33.99091,0 18.47233,-33.98602,0 18.47254,-33.98118,0 18.47277,-33.97638,0 18.47289,-33.97192,0 18.47328,-33.96549,0 18.47403,-33.96107,0 18.47458,-33.9565,0 18.47443,-33.95171,0 18.47351,-33.94706,0 18.472,-33.9429,0 18.46973,-33.93835,0 18.46757,-33.93407,0 18.46516,-33.92995,0 18.46201,-33.92578,0 18.45888,-33.92216,0 18.4552,-33.91856,0 18.45098,-33.91493,0 18.44655,-33.91154,0 18.44218,-33.9082,0 18.43809,-33.90527,0 18.43443,-33.9025,0 18.43185,-33.90115,0 18.43031,-33.90102,0 18.42856,-33.90106,0 18.42721,-33.90097,0 18.42721,-33.89951,0 18.42808,-33.89836,0 18.43057,-33.89575,0 18.43377,-33.89214,0 18.4362,-33.88784,0 18.43607,-33.88348,0 18.43231,-33.88083,0 18.42699,-33.88025,0 18.42133,-33.88028,0 18.41555,-33.88081,0 18.4096,-33.88174,0 18.40328,-33.88307,0 18.39689,-33.88477,0 18.39066,-33.88737,0 18.38528,-33.89068,0 18.38018,-33.89445,0 18.37543,-33.89832,0 18.3708,-33.9026,0 18.36651,-33.90724,0 18.36292,-33.91205,0 18.35936,-33.91745,0 18.35636,-33.92294,0 18.35328,-33.92848,0 18.34963,-33.93503,0 18.34465,-33.94552,0 18.34808,-33.95064,0 18.35395,-33.94986,0 18.35737,-33.94588,0 18.36039,-33.94138,0 18.36336,-33.93644,0 18.36576,-33.93151,0 18.3683,-33.92651,0 18.37071,-33.92203,0 18.37385,-33.91791,0 18.37761,-33.9137,0 18.38156,-33.90981,0 18.38579,-33.90623,0 18.38963,-33.90311,0 18.39472,-33.89952,0 18.39986,-33.89662,0 18.40541,-33.89392,0 18.41112,-33.89154,0 18.41669,-33.88938,0 18.42267,-33.88742,0 18.428,-33.88596,0 18.4338,-33.88542,0 18.43952,-33.88659,0 18.44439,-33.88961,0 18.44742,-33.89371,0 18.44673,-33.89799,0 18.44391,-33.89996,0 18.4409,-33.90069,0 18.43792,-33.90111,0 18.4354,-33.90115,0 18.43327,-33.90102,0 18.43168,-33.90088,0 18.42991,-33.90069,0 18.42844,-33.90065,0 18.42704,-33.90092,0 18.42756,-33.89939,0 18.42917,-33.89749,0 18.43042,-33.89613,0 18.43369,-33.8924,0 18.4366,-33.88812,0 18.43723,-33.88379,0 18.43523,-33.88019,0 18.43057,-33.87822,0 18.42564,-33.87767,0 18.41981,-33.87758,0 18.4137,-33.87794,0 18.40754,-33.87891,0 18.40096,-33.88063,0 18.39509,-33.88271,0 18.38921,-33.88522,0 18.38356,-33.88821,0 18.37822,-33.89149,0 18.37368,-33.89502,0 18.36897,-33.89976,0 18.36531,-33.90395,0 18.36157,-33.90866,0 18.35793,-33.91379,0 18.35489,-33.9187,0 18.35154,-33.92326,0 18.3484,-33.92839,0 18.34551,-33.93374,0 18.34302,-33.93929,0 18.34167,-33.94565,0 18.34504,-33.94995,0 18.35148,-33.95,0 18.35552,-33.94645,0 18.35896,-33.94138,0 18.36197,-33.93626,0 18.36462,-33.93137,0 18.36897,-33.92729,0 18.37127,-33.92262,0 18.37441,-33.91782,0 18.37801,-33.9133,0 18.38231,-33.90884,0 18.38676,-33.90483,0 18.39095,-33.90125,0 18.39627,-33.89713,0 18.40221,-33.89355,0 18.40834,-33.89054,0 18.41438,-33.88838,0 18.42052,-33.88682,0 18.42705,-33.88551,0 18.43371,-33.88481,0 18.44009,-33.8857,0 18.4457,-33.88826,0 18.44936,-33.89268,0 18.44924,-33.8969,0 18.44576,-33.89946,0 18.44147,-33.9006,0 18.43786,-33.9012,0 18.43478,-33.90152,0 18.43192,-33.90111,0 18.42985,-33.9001,0 18.42865,-33.89962,0
        </coordinates>
      </LineString>
    </Placemark>
  </Document>
</kml>