<?xml version="1.0" encoding="UTF-8"?>
<kml xmlns="http://www.opengis.net/kml/2.2">
  <Document>
    <name>FR24 406ea246 - Optimised</name>
    <description><![CDATA[Optimised flight path with 230 points (decimated from 1147 original points). Source format: Standard KML]]></description>
    
    <Style id="flightPath">
      <LineStyle>
        <color>ffff0000</color>
        <width>3</width>
      </LineStyle>
    </Style>
    
    <Placemark>
      <name>Flight Path</name>
      <description><![CDATA[Optimized flight path]]></description>
      <styleUrl>#flightPath</styleUrl>
      <LineString>
        <extrude>1</extrude>
        <tessellate>1</tessellate>
        <altitudeMode>absolute</altitudeMode>
        <coordinates>
          18.42951,-33.89264,0 18.43248,-33.88663,0 18.43002,-33.8837,0 18.42475,-33.88353,0 18.41959,-33.88394,0 18.4144,-33.88458,0 18.40933,-33.88536,0 18.40427,-33.88654,0 18.39941,-33.88815,0 18.39476,-33.89035,0 18.39014,-33.89329,0 18.38533,-33.89678,0 18.3807,-33.90013,0 18.37543,-33.90404,0 18.37138,-33.90752,0 18.36748,-33.91154,0 18.3641,-33.91594,0 18.36101,-33.92047,0 18.35798,-33.92527,0 18.35243,-33.93398,0 18.34436,-33.94785,0 18.34208,-33.95311,0 18.33999,-33.95952,0 18.38438,-34.09467,0 18.39477,-34.10627,0 18.39925,-34.11037,0 18.40418,-34.11436,0 18.4093,-34.11806,0 18.41426,-34.1216,0 18.42194,-34.12712,0 18.42684,-34.12993,0 18.43205,-34.13223,0 18.43777,-34.13403,0 18.44415,-34.1339,0 18.44949,-34.13132,0 18.45401,-34.1278,0 18.45899,-34.12428,0 18.46367,-34.12052,0 18.46781,-34.11665,0 18.47157,-34.11205,0 18.47245,-34.10632,0 18.47109,-34.10027,0 18.46928,-34.09435,0 18.46676,-34.08874,0 18.46443,-34.08311,0 18.46306,-34.07783,0 18.46314,-34.07204,0 18.46315,-34.06631,0 18.46324,-34.06072,0 18.46402,-34.05481,0 18.46474,-34.04917,0 18.46724,-34.0432,0 18.46864,-34.03752,0 18.46974,-34.03223,0 18.47391,-34.02269,0 18.47784,-34.01099,0 18.47937,-34.00519,0 18.48061,-33.99926,0 18.48195,-33.99327,0 18.48374,-33.98192,0 18.48441,-33.96927,0 18.48384,-33.96278,0 18.48309,-33.95635,0 18.48226,-33.95053,0 18.47872,-33.94282,0 18.47637,-33.93718,0 18.47396,-33.93182,0 18.47019,-33.92453,0 18.4667,-33.91945,0 18.46304,-33.91494,0 18.45972,-33.91023,0 18.45652,-33.90558,0 18.45182,-33.90255,0 18.44728,-33.9017,0 18.44273,-33.90115,0 18.43563,-33.90083,0 18.43288,-33.90074,0 18.43111,-33.90069,0 18.42794,-33.90074,0 18.42665,-33.90115,0 18.42716,-33.89994,0 18.42816,-33.8985,0 18.42912,-33.89694,0 18.43008,-33.89529,0 18.43119,-33.89323,0 18.43403,-33.88626,0 18.43157,-33.88295,0 18.42654,-33.88142,0 18.41998,-33.88115,0 18.41544,-33.88051,0 18.41503,-33.87727,0 18.41909,-33.87648,0 18.42276,-33.87695,0 18.42304,-33.88002,0 18.41881,-33.88156,0 18.41337,-33.88234,0 18.40832,-33.8833,0 18.40288,-33.8849,0 18.39787,-33.88686,0 18.39283,-33.88938,0 18.38831,-33.89195,0 18.38356,-33.89506,0 18.37944,-33.89822,0 18.37559,-33.90157,0 18.37183,-33.90497,0 18.36805,-33.90842,0 18.36462,-33.91191,0 18.3614,-33.91553,0 18.35821,-33.91889,0 18.35345,-33.9196,0 18.35112,-33.91605,0 18.35294,-33.912,0 18.35518,-33.9087,0 18.35429,-33.90527,0 18.35037,-33.90637,0 18.34778,-33.91049,0 18.34554,-33.91502,0 18.34328,-33.91987,0 18.33996,-33.92806,0 18.33698,-33.93602,0 18.33515,-33.94221,0 18.33406,-33.94794,0 18.33332,-33.95409,0 18.33276,-33.95998,0 18.33293,-33.97183,0 18.3359,-33.98602,0 18.34134,-33.9982,0 18.34509,-34.00507,0 18.34762,-34.01015,0 18.3493,-34.01518,0 18.35031,-34.02022,0 18.35115,-34.02498,0 18.35238,-34.03113,0 18.35489,-34.04193,0 18.35614,-34.04681,0 18.35758,-34.0517,0 18.35939,-34.05707,0 18.36174,-34.06238,0 18.36438,-34.0676,0 18.36708,-34.07228,0 18.37015,-34.07767,0 18.37332,-34.08308,0 18.37716,-34.08801,0 18.38144,-34.09281,0 18.38585,-34.09753,0 18.39072,-34.10211,0 18.39621,-34.10619,0 18.40141,-34.10966,0 18.40719,-34.11371,0 18.41995,-34.1227,0 18.43209,-34.13109,0 18.43803,-34.13359,0 18.44391,-34.13292,0 18.44908,-34.12945,0 18.45406,-34.12596,0 18.45898,-34.12223,0 18.46373,-34.11809,0 18.46751,-34.11342,0 18.47013,-34.1078,0 18.47168,-34.10212,0 18.47295,-34.09634,0 18.47413,-34.09044,0 18.47693,-34.07675,0 18.47794,-34.07117,0 18.47861,-34.06526,0 18.47906,-34.05922,0 18.47935,-34.05324,0 18.47979,-34.0464,0 18.48147,-34.02644,0 18.48289,-34.00702,0 18.48377,-34.00104,0 18.48433,-33.99536,0 18.48461,-33.989,0 18.48473,-33.98299,0 18.48455,-33.97382,0 18.48377,-33.96519,0 18.48237,-33.95943,0 18.48055,-33.95311,0 18.47861,-33.9473,0 18.47683,-33.94063,0 18.47523,-33.93458,0 18.47288,-33.92844,0 18.46962,-33.92285,0 18.4651,-33.91777,0 18.46058,-33.91317,0 18.45675,-33.90828,0 18.45294,-33.90404,0 18.44834,-33.90198,0 18.4449,-33.90125,0 18.44263,-33.90097,0 18.44055,-33.90088,0 18.43632,-33.90064,0 18.43433,-33.90042,0 18.4326,-33.90022,0 18.4308,-33.90001,0 18.429,-33.89978,0 18.43283,-33.88835,0 18.43181,-33.88564,0 18.42796,-33.88454,0 18.4235,-33.88374,0 18.41915,-33.88319,0 18.41578,-33.88146,0 18.41715,-33.87853,0 18.42041,-33.87797,0 18.42155,-33.88023,0 18.41723,-33.8817,0 18.41177,-33.88272,0 18.4063,-33.8838,0 18.40115,-33.88531,0 18.39689,-33.88719,0 18.39249,-33.88956,0 18.38825,-33.89232,0 18.38396,-33.89534,0 18.3799,-33.89846,0 18.37526,-33.90218,0 18.37144,-33.90559,0 18.36757,-33.90939,0 18.36388,-33.9133,0 18.35698,-33.92097,0 18.3521,-33.92404,0 18.34711,-33.92162,0 18.34683,-33.91718,0 18.34975,-33.91374,0 18.35478,-33.9134,0 18.35658,-33.918,0 18.35524,-33.92341,0 18.35363,-33.92848,0 18.35186,-33.93425,0 18.34593,-33.95375,0 18.34167,-33.9714,0
        </coordinates>
      </LineString>
    </Placemark>
  </Document>
</kml>