<?xml version="1.0" encoding="UTF-8"?>
<kml xmlns="http://www.opengis.net/kml/2.2">
  <Document>
    <name>FR24 40e7c19b - Optimised</name>
    <description><![CDATA[Optimised flight path with 177 points (decimated from 884 original points). Source format: Standard KML]]></description>
    
    <Style id="flightPath">
      <LineStyle>
        <color>ffff0000</color>
        <width>3</width>
      </LineStyle>
    </Style>
    
    <Placemark>
      <name>Flight Path</name>
      <description><![CDATA[Optimized flight path]]></description>
      <styleUrl>#flightPath</styleUrl>
      <LineString>
        <extrude>1</extrude>
        <tessellate>1</tessellate>
        <altitudeMode>absolute</altitudeMode>
        <coordinates>
          18.43612,-33.88815,0 18.4362,-33.88319,0 18.43346,-33.87941,0 18.42905,-33.87672,0 18.42407,-33.87537,0 18.41841,-33.87499,0 18.41194,-33.87523,0 18.40608,-33.87611,0 18.40019,-33.87753,0 18.39453,-33.8795,0 18.38921,-33.88206,0 18.38394,-33.88499,0 18.37923,-33.88843,0 18.37486,-33.89246,0 18.37063,-33.89645,0 18.36605,-33.90027,0 18.3617,-33.90451,0 18.35799,-33.90839,0 18.3544,-33.91264,0 18.35132,-33.91722,0 18.34837,-33.92187,0 18.34242,-33.93127,0 18.33715,-33.94077,0 18.33412,-33.94594,0 18.33102,-33.95096,0 18.32468,-33.96153,0 18.31432,-33.98215,0 18.31186,-33.98807,0 18.30517,-34.00539,0 18.30626,-34.01078,0 18.31157,-34.01349,0 18.31729,-34.01189,0 18.32116,-34.00813,0 18.32447,-34.00392,0 18.32817,-33.99915,0 18.33532,-33.98872,0 18.35042,-33.96671,0 18.35737,-33.95512,0 18.35958,-33.95022,0 18.36163,-33.94519,0 18.3637,-33.94021,0 18.3655,-33.93526,0 18.36735,-33.93031,0 18.36943,-33.92601,0 18.37223,-33.92154,0 18.37559,-33.91718,0 18.37945,-33.91306,0 18.38472,-33.90994,0 18.3887,-33.90596,0 18.39249,-33.90218,0 18.39677,-33.89896,0 18.40199,-33.8972,0 18.4072,-33.89516,0 18.41236,-33.89273,0 18.4178,-33.88985,0 18.42267,-33.8876,0 18.42825,-33.88644,0 18.43346,-33.88742,0 18.43865,-33.88889,0 18.44198,-33.89175,0 18.44218,-33.89575,0 18.43878,-33.89859,0 18.43551,-33.89905,0 18.43315,-33.89923,0 18.43065,-33.89934,0 18.42895,-33.8996,0 18.42756,-33.90004,0 18.42755,-33.89964,0 18.42871,-33.8978,0 18.4299,-33.89603,0 18.43105,-33.89445,0 18.4326,-33.8924,0 18.4345,-33.88989,0 18.43652,-33.88614,0 18.43551,-33.88229,0 18.433,-33.87904,0 18.42912,-33.87662,0 18.4243,-33.87537,0 18.41949,-33.87518,0 18.41381,-33.8763,0 18.4086,-33.87804,0 18.4033,-33.88011,0 18.39861,-33.88202,0 18.3934,-33.88444,0 18.3882,-33.88715,0 18.38316,-33.89031,0 18.37867,-33.89351,0 18.37407,-33.8974,0 18.3697,-33.90147,0 18.36514,-33.90558,0 18.36051,-33.91003,0 18.35658,-33.91438,0 18.35238,-33.91956,0 18.3484,-33.92519,0 18.34505,-33.93048,0 18.34213,-33.93579,0 18.33954,-33.94112,0 18.33693,-33.94659,0 18.33366,-33.95242,0 18.33018,-33.95824,0 18.32148,-33.97368,0 18.31495,-33.98872,0 18.31295,-33.99421,0 18.31055,-34.00096,0 18.30826,-34.00645,0 18.3054,-34.01171,0 18.30221,-34.01729,0 18.29939,-34.02233,0 18.29683,-34.02782,0 18.29527,-34.03364,0 18.29498,-34.03918,0 18.29554,-34.04466,0 18.29723,-34.05006,0 18.29969,-34.05505,0 18.30322,-34.06036,0 18.307,-34.06493,0 18.31106,-34.06926,0 18.3155,-34.07368,0 18.31993,-34.07847,0 18.32468,-34.08336,0 18.33263,-34.09132,0 18.33773,-34.0957,0 18.34336,-34.09973,0 18.34888,-34.10287,0 18.35495,-34.10585,0 18.36113,-34.10873,0 18.37816,-34.11603,0 18.38871,-34.12023,0 18.39489,-34.12228,0 18.40081,-34.1244,0 18.4132,-34.12921,0 18.42184,-34.13313,0 18.42739,-34.13554,0 18.43357,-34.13727,0 18.43975,-34.13824,0 18.44604,-34.13741,0 18.45125,-34.13475,0 18.45563,-34.13118,0 18.46012,-34.12717,0 18.46424,-34.12321,0 18.46842,-34.11893,0 18.47194,-34.1142,0 18.47437,-34.10906,0 18.47528,-34.10329,0 18.47546,-34.09709,0 18.47528,-34.09076,0 18.475,-34.08457,0 18.47429,-34.07121,0 18.47379,-34.06233,0 18.47362,-34.05698,0 18.47379,-34.04713,0 18.47401,-34.02974,0 18.47458,-34.01056,0 18.47631,-33.99058,0 18.47699,-33.98474,0 18.47743,-33.97916,0 18.47738,-33.97339,0 18.47729,-33.96763,0 18.47743,-33.96204,0 18.47771,-33.95659,0 18.47752,-33.95157,0 18.47676,-33.94638,0 18.47574,-33.94133,0 18.47396,-33.93668,0 18.47149,-33.93182,0 18.46807,-33.92704,0 18.46449,-33.92226,0 18.46087,-33.91773,0 18.45664,-33.91315,0 18.45227,-33.90848,0 18.44799,-33.90409,0 18.4433,-33.90078,0 18.43792,-33.89909,0 18.43545,-33.89896,0 18.43323,-33.89915,0 18.43094,-33.89934,0 18.42951,-33.89946,0
        </coordinates>
      </LineString>
    </Placemark>
  </Document>
</kml>