<?xml version="1.0" encoding="UTF-8"?>
<kml xmlns="http://www.opengis.net/kml/2.2">
  <Document>
    <name>FR24 40c1eab8 - Optimised</name>
    <description><![CDATA[Optimised flight path with 222 points (decimated from 1107 original points). Source format: Standard KML]]></description>
    
    <Style id="flightPath">
      <LineStyle>
        <color>ffff0000</color>
        <width>3</width>
      </LineStyle>
    </Style>
    
    <Placemark>
      <name>Flight Path</name>
      <description><![CDATA[Optimized flight path]]></description>
      <styleUrl>#flightPath</styleUrl>
      <LineString>
        <extrude>1</extrude>
        <tessellate>1</tessellate>
        <altitudeMode>absolute</altitudeMode>
        <coordinates>
          18.43181,-33.89539,0 18.43489,-33.89127,0 18.4359,-33.88792,0 18.43552,-33.88435,0 18.43327,-33.88101,0 18.42934,-33.87909,0 18.42436,-33.87886,0 18.41891,-33.87941,0 18.41398,-33.88023,0 18.40905,-33.88142,0 18.40395,-33.88307,0 18.3989,-33.88509,0 18.39459,-33.88733,0 18.38982,-33.89008,0 18.38495,-33.89328,0 18.38035,-33.89703,0 18.37578,-33.90102,0 18.37127,-33.905,0 18.36724,-33.90912,0 18.36296,-33.91368,0 18.35518,-33.92258,0 18.34299,-33.93723,0 18.33887,-33.94198,0 18.33478,-33.94688,0 18.33092,-33.95134,0 18.32727,-33.9559,0 18.3234,-33.96094,0 18.31017,-33.97952,0 18.2998,-33.99861,0 18.29418,-34.01223,0 18.29184,-34.02675,0 18.29268,-34.03473,0 18.29515,-34.04118,0 18.29819,-34.04747,0 18.30238,-34.05359,0 18.30723,-34.05883,0 18.31225,-34.0643,0 18.31661,-34.06995,0 18.32026,-34.07616,0 18.32159,-34.08224,0 18.32153,-34.08844,0 18.32056,-34.09435,0 18.31942,-34.10054,0 18.31819,-34.1066,0 18.31634,-34.1125,0 18.31461,-34.11818,0 18.31292,-34.12431,0 18.3118,-34.13168,0 18.31152,-34.13857,0 18.31255,-34.14486,0 18.31539,-34.15182,0 18.31897,-34.15814,0 18.36421,-34.22388,0 18.4306,-34.336,0 18.43489,-34.339,0 18.43946,-34.34261,0 18.44391,-34.34656,0 18.4477,-34.35089,0 18.45075,-34.35558,0 18.454,-34.3603,0 18.45832,-34.36436,0 18.46338,-34.36812,0 18.4688,-34.37137,0 18.47471,-34.37529,0 18.48009,-34.37859,0 18.48598,-34.37869,0 18.49136,-34.37711,0 18.49773,-34.37398,0 18.50275,-34.37054,0 18.50552,-34.36656,0 18.5072,-34.36235,0 18.50847,-34.35751,0 18.50893,-34.35294,0 18.50933,-34.34797,0 18.50996,-34.34289,0 18.51059,-34.33772,0 18.51107,-34.33241,0 18.51163,-34.32715,0 18.51196,-34.32213,0 18.51208,-34.31602,0 18.51208,-34.31072,0 18.51156,-34.29433,0 18.51179,-34.28321,0 18.5114,-34.27835,0 18.51067,-34.27318,0 18.51011,-34.26846,0 18.50927,-34.26357,0 18.50801,-34.25867,0 18.5067,-34.25374,0 18.50475,-34.24727,0 18.50246,-34.23982,0 18.50109,-34.23479,0 18.49991,-34.22992,0 18.49863,-34.22493,0 18.49672,-34.21724,0 18.49576,-34.21216,0 18.49474,-34.20724,0 18.49397,-34.20241,0 18.49313,-34.19728,0 18.49262,-34.19243,0 18.49128,-34.18776,0 18.48719,-34.18424,0 18.48287,-34.18158,0 18.47788,-34.17929,0 18.47231,-34.17809,0 18.46642,-34.17656,0 18.46275,-34.17284,0 18.46208,-34.16748,0 18.46325,-34.16208,0 18.4647,-34.15752,0 18.46634,-34.15306,0 18.47082,-34.14132,0 18.47277,-34.13657,0 18.47454,-34.13168,0 18.4762,-34.12675,0 18.47769,-34.122,0 18.47928,-34.11653,0 18.48049,-34.11134,0 18.48066,-34.10598,0 18.48038,-34.10082,0 18.48003,-34.09514,0 18.4799,-34.08563,0 18.48015,-34.08024,0 18.48158,-34.06375,0 18.48244,-34.0504,0 18.48318,-34.04519,0 18.48377,-34.04013,0 18.48438,-34.03477,0 18.48461,-34.02946,0 18.48484,-34.02401,0 18.4853,-34.01335,0 18.48551,-34.00562,0 18.48579,-33.99742,0 18.48576,-33.99268,0 18.48579,-33.98795,0 18.48587,-33.98272,0 18.4859,-33.97806,0 18.48633,-33.97331,0 18.48684,-33.96898,0 18.48708,-33.96483,0 18.48679,-33.96056,0 18.48623,-33.95631,0 18.48553,-33.9525,0 18.48388,-33.94862,0 18.48192,-33.94477,0 18.47975,-33.94049,0 18.47775,-33.93649,0 18.47592,-33.93228,0 18.47486,-33.92899,0 18.47301,-33.92574,0 18.47002,-33.92248,0 18.46706,-33.9191,0 18.46342,-33.91585,0 18.45949,-33.91256,0 18.45557,-33.90921,0 18.45222,-33.90562,0 18.44822,-33.90241,0 18.4437,-33.89985,0 18.43889,-33.89962,0 18.43575,-33.89994,0 18.43343,-33.9001,0 18.43158,-33.90015,0 18.42968,-33.90027,0 18.42762,-33.90078,0 18.42732,-33.9001,0 18.42882,-33.89822,0 18.43052,-33.89644,0 18.43271,-33.8938,0 18.43472,-33.8905,0 18.43575,-33.88719,0 18.43467,-33.88371,0 18.43122,-33.88114,0 18.42648,-33.88021,0 18.42082,-33.88028,0 18.41515,-33.88109,0 18.40995,-33.88261,0 18.40405,-33.88472,0 18.39913,-33.88705,0 18.39386,-33.88994,0 18.38871,-33.89315,0 18.38377,-33.89658,0 18.37933,-33.90009,0 18.37497,-33.9039,0 18.37023,-33.90809,0 18.36582,-33.91275,0 18.36153,-33.91722,0 18.35724,-33.9222,0 18.35339,-33.9272,0 18.34934,-33.93202,0 18.34179,-33.94072,0 18.33624,-33.94654,0 18.33487,-33.95181,0 18.34019,-33.95562,0 18.34705,-33.95432,0 18.35077,-33.95064,0 18.35421,-33.94659,0 18.35815,-33.94198,0 18.36382,-33.93388,0 18.36752,-33.92899,0 18.37093,-33.92468,0 18.374,-33.92052,0 18.37716,-33.91626,0 18.38052,-33.91187,0 18.38385,-33.90711,0 18.38781,-33.90312,0 18.39235,-33.89932,0 18.39683,-33.89557,0 18.40193,-33.89189,0 18.40731,-33.88925,0 18.4128,-33.88742,0 18.41824,-33.88644,0 18.42413,-33.88626,0 18.42912,-33.88705,0 18.43409,-33.88905,0 18.43814,-33.89159,0 18.43992,-33.89543,0 18.43838,-33.89864,0 18.43427,-33.89914,0 18.43145,-33.89925,0 18.43018,-33.89969,0 18.42884,-33.90015,0 18.42738,-33.9007,0
        </coordinates>
      </LineString>
    </Placemark>
  </Document>
</kml>