<?xml version="1.0" encoding="UTF-8"?>
<kml xmlns="http://www.opengis.net/kml/2.2">
  <Document>
    <name>FR24 41a3e0ea - Optimised</name>
    <description><![CDATA[Optimised flight path with 222 points (decimated from 1110 original points). Source format: Standard KML]]></description>
    
    <Style id="flightPath">
      <LineStyle>
        <color>ffff0000</color>
        <width>3</width>
      </LineStyle>
    </Style>
    
    <Placemark>
      <name>Flight Path</name>
      <description><![CDATA[Optimized flight path]]></description>
      <styleUrl>#flightPath</styleUrl>
      <LineString>
        <extrude>1</extrude>
        <tessellate>1</tessellate>
        <altitudeMode>absolute</altitudeMode>
        <coordinates>
          18.43168,-33.90046,0 18.43746,-33.89994,0 18.44021,-33.89743,0 18.44158,-33.89464,0 18.44128,-33.89145,0 18.43969,-33.88826,0 18.43736,-33.88518,0 18.43382,-33.88293,0 18.42974,-33.88211,0 18.42458,-33.88225,0 18.41914,-33.88257,0 18.4137,-33.88303,0 18.40822,-33.88374,0 18.40307,-33.88463,0 18.39798,-33.88612,0 18.39266,-33.88821,0 18.38745,-33.89077,0 18.38271,-33.89333,0 18.37812,-33.89613,0 18.37343,-33.89981,0 18.36976,-33.90372,0 18.366,-33.90811,0 18.36157,-33.91379,0 18.35827,-33.91859,0 18.35591,-33.92468,0 18.35445,-33.93077,0 18.35363,-33.93705,0 18.35358,-33.94347,0 18.35426,-33.94999,0 18.35587,-33.95585,0 18.35913,-33.96107,0 18.36275,-33.96684,0 18.36416,-33.97345,0 18.36146,-33.97925,0 18.35655,-33.98369,0 18.35054,-33.98798,0 18.34476,-33.99161,0 18.33943,-33.99619,0 18.33481,-34.0011,0 18.3299,-34.00616,0 18.32411,-34.01107,0 18.31821,-34.01502,0 18.31226,-34.01898,0 18.30648,-34.02368,0 18.3021,-34.02992,0 18.29996,-34.03667,0 18.30059,-34.0443,0 18.30272,-34.05185,0 18.30675,-34.05853,0 18.31331,-34.06448,0 18.32096,-34.06986,0 18.32794,-34.07469,0 18.33406,-34.08122,0 18.33781,-34.08838,0 18.34145,-34.09529,0 18.34492,-34.10229,0 18.34392,-34.10999,0 18.34128,-34.11671,0 18.33742,-34.12262,0 18.33115,-34.1267,0 18.32407,-34.12971,0 18.31696,-34.13429,0 18.31208,-34.13969,0 18.3098,-34.1463,0 18.31152,-34.15314,0 18.31432,-34.15929,0 18.31763,-34.16556,0 18.3217,-34.17139,0 18.3276,-34.17707,0 18.33444,-34.18222,0 18.34134,-34.18707,0 18.35003,-34.19336,0 18.35558,-34.19856,0 18.36017,-34.20474,0 18.3629,-34.21161,0 18.36404,-34.21829,0 18.3646,-34.22479,0 18.36477,-34.2318,0 18.36471,-34.2388,0 18.36742,-34.24466,0 18.37234,-34.25016,0 18.374,-34.25635,0 18.37412,-34.26357,0 18.37521,-34.27101,0 18.37805,-34.27785,0 18.38116,-34.28437,0 18.384,-34.29071,0 18.39083,-34.30467,0 18.39724,-34.31603,0 18.40227,-34.32241,0 18.40782,-34.32822,0 18.41354,-34.33335,0 18.41992,-34.33763,0 18.4267,-34.34056,0 18.4342,-34.3434,0 18.43998,-34.34759,0 18.4441,-34.35318,0 18.44818,-34.35896,0 18.45249,-34.36386,0 18.45866,-34.36807,0 18.46487,-34.37101,0 18.47166,-34.37389,0 18.4782,-34.37617,0 18.48513,-34.37743,0 18.49262,-34.3779,0 18.49974,-34.37764,0 18.50664,-34.37654,0 18.51202,-34.37411,0 18.51511,-34.36905,0 18.51476,-34.36404,0 18.51185,-34.36039,0 18.50781,-34.35658,0 18.50327,-34.35257,0 18.498,-34.34908,0 18.49347,-34.34528,0 18.48919,-34.3413,0 18.48536,-34.33777,0 18.48232,-34.33302,0 18.48175,-34.32784,0 18.48136,-34.32294,0 18.4794,-34.31854,0 18.47687,-34.31424,0 18.47631,-34.30946,0 18.47771,-34.30518,0 18.47986,-34.30071,0 18.48204,-34.29568,0 18.48388,-34.29094,0 18.48444,-34.28618,0 18.48506,-34.28069,0 18.48629,-34.2756,0 18.48769,-34.27039,0 18.48879,-34.26524,0 18.48902,-34.26068,0 18.48959,-34.25574,0 18.49005,-34.25089,0 18.48971,-34.24539,0 18.48893,-34.23981,0 18.48696,-34.23468,0 18.48422,-34.22964,0 18.48238,-34.22451,0 18.48072,-34.21952,0 18.47906,-34.21399,0 18.47715,-34.20877,0 18.47474,-34.20406,0 18.47155,-34.20007,0 18.46746,-34.19614,0 18.46331,-34.19257,0 18.45875,-34.18941,0 18.45412,-34.18625,0 18.44971,-34.18335,0 18.44507,-34.18052,0 18.44335,-34.17558,0 18.44479,-34.17023,0 18.44661,-34.16496,0 18.44816,-34.15966,0 18.44965,-34.15468,0 18.45266,-34.14967,0 18.4572,-34.14487,0 18.46146,-34.14029,0 18.46589,-34.13557,0 18.46998,-34.13132,0 18.4738,-34.12693,0 18.47757,-34.12223,0 18.48095,-34.11767,0 18.48438,-34.11264,0 18.4873,-34.10728,0 18.48879,-34.10198,0 18.48879,-34.09677,0 18.48713,-34.09151,0 18.48518,-34.08648,0 18.48307,-34.08126,0 18.47799,-34.06897,0 18.47403,-34.06497,0 18.46951,-34.06162,0 18.46458,-34.05817,0 18.45995,-34.05464,0 18.45569,-34.05103,0 18.45205,-34.04714,0 18.44931,-34.04295,0 18.44644,-34.03857,0 18.44416,-34.0342,0 18.44358,-34.02855,0 18.44404,-34.02298,0 18.44536,-34.01767,0 18.44645,-34.01218,0 18.44816,-34.00711,0 18.45348,-34.00329,0 18.45829,-33.99957,0 18.46264,-33.99533,0 18.4655,-33.99092,0 18.46842,-33.98616,0 18.47183,-33.98145,0 18.47463,-33.97696,0 18.47704,-33.97238,0 18.47912,-33.96803,0 18.48136,-33.96355,0 18.48364,-33.9593,0 18.48579,-33.95439,0 18.48657,-33.94972,0 18.48644,-33.94459,0 18.48547,-33.93984,0 18.48388,-33.93526,0 18.48129,-33.93085,0 18.4785,-33.92665,0 18.47514,-33.92226,0 18.47138,-33.91795,0 18.46779,-33.91414,0 18.46421,-33.91049,0 18.46034,-33.9066,0 18.45686,-33.90292,0 18.45277,-33.89919,0 18.44879,-33.89608,0 18.44442,-33.89282,0 18.44027,-33.89003,0 18.43563,-33.88752,0 18.43065,-33.88565,0 18.42533,-33.88617,0 18.42447,-33.89063,0 18.42957,-33.89441,0 18.43422,-33.89726,0 18.43294,-33.89915,0 18.42962,-33.89929,0
        </coordinates>
      </LineString>
    </Placemark>
  </Document>
</kml>