<?xml version="1.0" encoding="UTF-8"?>
<kml xmlns="http://www.opengis.net/kml/2.2">
  <Document>
    <name>FR24 40935965 - Optimised</name>
    <description><![CDATA[Optimised flight path with 459 points (decimated from 2291 original points). Source format: Standard KML]]></description>
    
    <Style id="flightPath">
      <LineStyle>
        <color>ffff0000</color>
        <width>3</width>
      </LineStyle>
    </Style>
    
    <Placemark>
      <name>Flight Path</name>
      <description><![CDATA[Optimized flight path]]></description>
      <styleUrl>#flightPath</styleUrl>
      <LineString>
        <extrude>1</extrude>
        <tessellate>1</tessellate>
        <altitudeMode>absolute</altitudeMode>
        <coordinates>
          18.43596,-33.8936,0 18.43489,-33.88393,0 18.43031,-33.88058,0 18.42545,-33.87941,0 18.41931,-33.87918,0 18.41394,-33.87993,0 18.40851,-33.88137,0 18.40288,-33.88367,0 18.39781,-33.88663,0 18.39291,-33.89035,0 18.38831,-33.89442,0 18.38402,-33.89855,0 18.37923,-33.90344,0 18.372,-33.91149,0 18.36874,-33.91573,0 18.36542,-33.92066,0 18.36236,-33.92537,0 18.35913,-33.93058,0 18.35546,-33.93686,0 18.35238,-33.94217,0 18.34963,-33.94715,0 18.34655,-33.9527,0 18.34375,-33.95782,0 18.3345,-33.97504,0 18.32391,-33.99582,0 18.3181,-34.00566,0 18.31505,-34.01047,0 18.31181,-34.01521,0 18.30866,-34.02005,0 18.30597,-34.02507,0 18.30402,-34.03038,0 18.30259,-34.0363,0 18.30179,-34.04151,0 18.30225,-34.04663,0 18.30317,-34.05144,0 18.3044,-34.05638,0 18.30591,-34.06096,0 18.30763,-34.06558,0 18.3094,-34.07042,0 18.31106,-34.07535,0 18.31272,-34.07996,0 18.31467,-34.0848,0 18.31633,-34.08997,0 18.3178,-34.09515,0 18.31903,-34.10037,0 18.32116,-34.11021,0 18.32216,-34.11525,0 18.31999,-34.1207,0 18.31701,-34.12596,0 18.31472,-34.13089,0 18.31281,-34.13631,0 18.31215,-34.14146,0 18.31295,-34.14681,0 18.3145,-34.15137,0 18.31679,-34.15553,0 18.31953,-34.15919,0 18.32279,-34.16264,0 18.32668,-34.16604,0 18.33041,-34.16931,0 18.33372,-34.17288,0 18.36514,-34.20584,0 18.36485,-34.21035,0 18.36494,-34.215,0 18.36542,-34.21962,0 18.366,-34.22415,0 18.36684,-34.23056,0 18.36885,-34.24718,0 18.37166,-34.26077,0 18.37278,-34.26517,0 18.37418,-34.26952,0 18.37595,-34.27385,0 18.37805,-34.27812,0 18.3906,-34.29797,0 18.39312,-34.3022,0 18.39609,-34.30597,0 18.39935,-34.30951,0 18.40302,-34.31324,0 18.40636,-34.31694,0 18.40961,-34.32051,0 18.41314,-34.32426,0 18.41718,-34.32793,0 18.42138,-34.33118,0 18.42516,-34.33377,0 18.42923,-34.3364,0 18.43317,-34.33921,0 18.437,-34.34205,0 18.44072,-34.34505,0 18.44439,-34.34797,0 18.44851,-34.35114,0 18.45271,-34.35406,0 18.45703,-34.3569,0 18.46098,-34.35988,0 18.4646,-34.36263,0 18.46922,-34.36496,0 18.47454,-34.3664,0 18.48018,-34.36725,0 18.48623,-34.36729,0 18.49279,-34.36612,0 18.49846,-34.36398,0 18.50155,-34.36086,0 18.50058,-34.3558,0 18.49731,-34.3508,0 18.49194,-34.34657,0 18.48827,-34.3414,0 18.48661,-34.3353,0 18.4857,-34.32953,0 18.48467,-34.32325,0 18.48366,-34.31612,0 18.48318,-34.31063,0 18.48301,-34.30476,0 18.48304,-34.29195,0 18.48278,-34.27208,0 18.48231,-34.26563,0 18.48164,-34.25849,0 18.48118,-34.25258,0 18.48124,-34.24657,0 18.48164,-34.24077,0 18.48237,-34.23491,0 18.48153,-34.23042,0 18.47946,-34.22926,0 18.47755,-34.22992,0 18.47654,-34.23129,0 18.47614,-34.23275,0 18.47564,-34.23427,0 18.47525,-34.23495,0 18.47525,-34.23276,0 18.4738,-34.23,0 18.46485,-34.16333,0 18.46535,-34.1557,0 18.46592,-34.15027,0 18.46681,-34.14434,0 18.46822,-34.13812,0 18.46935,-34.13239,0 18.47149,-34.12057,0 18.47304,-34.10774,0 18.47454,-34.085,0 18.47617,-34.07648,0 18.47912,-34.07125,0 18.47784,-34.06482,0 18.47772,-34.05812,0 18.47844,-34.05168,0 18.47809,-34.04375,0 18.47791,-34.03445,0 18.47888,-34.02254,0 18.4793,-34.01651,0 18.47981,-34.0099,0 18.48011,-34.00354,0 18.48319,-33.99627,0 18.48501,-33.98894,0 18.4855,-33.98204,0 18.48574,-33.97527,0 18.4857,-33.96745,0 18.48579,-33.96053,0 18.48528,-33.95403,0 18.4841,-33.94785,0 18.48204,-33.94165,0 18.47929,-33.93533,0 18.4754,-33.9289,0 18.47121,-33.92336,0 18.46611,-33.91727,0 18.46075,-33.91149,0 18.45509,-33.90609,0 18.44941,-33.90125,0 18.4441,-33.89659,0 18.43758,-33.89282,0 18.43334,-33.89496,0 18.43185,-33.89645,0 18.43046,-33.89804,0 18.429,-33.89969,0 18.42756,-33.90069,0 18.42939,-33.90083,0 18.43164,-33.9006,0 18.43363,-33.90018,0 18.43557,-33.89929,0 18.43712,-33.89757,0 18.43758,-33.89422,0 18.43781,-33.88993,0 18.43769,-33.88545,0 18.43563,-33.88109,0 18.43151,-33.87839,0 18.42585,-33.87751,0 18.42012,-33.8776,0 18.41477,-33.87849,0 18.40928,-33.87991,0 18.40364,-33.88165,0 18.39857,-33.8844,0 18.39403,-33.8876,0 18.38982,-33.89108,0 18.38511,-33.89534,0 18.37841,-33.90167,0 18.3728,-33.90763,0 18.36908,-33.91214,0 18.36554,-33.91689,0 18.36222,-33.92187,0 18.3589,-33.92741,0 18.35598,-33.93239,0 18.35272,-33.93736,0 18.34891,-33.94299,0 18.34526,-33.94862,0 18.33472,-33.96487,0 18.32335,-33.98392,0 18.31354,-34.00072,0 18.30804,-34.01175,0 18.30569,-34.01688,0 18.30356,-34.02182,0 18.30199,-34.0269,0 18.30149,-34.03217,0 18.30289,-34.03683,0 18.30675,-34.03908,0 18.31163,-34.03643,0 18.31544,-34.03166,0 18.31896,-34.02699,0 18.32228,-34.02214,0 18.32851,-34.01283,0 18.33103,-34.00771,0 18.33315,-34.00186,0 18.33549,-33.99552,0 18.33854,-33.98703,0 18.34756,-33.96753,0 18.35675,-33.94656,0 18.36227,-33.93546,0 18.3655,-33.93004,0 18.36897,-33.92482,0 18.37301,-33.91951,0 18.3766,-33.91466,0 18.38063,-33.90926,0 18.38803,-33.89983,0 18.39266,-33.89473,0 18.39823,-33.89049,0 18.40423,-33.8877,0 18.41118,-33.88573,0 18.41819,-33.88467,0 18.42602,-33.88426,0 18.4334,-33.88496,0 18.44022,-33.88806,0 18.44227,-33.89338,0 18.43689,-33.89552,0 18.43409,-33.89641,0 18.4318,-33.89766,0 18.42928,-33.89948,0 18.42772,-33.9006,0 18.42922,-33.90115,0 18.43094,-33.9012,0 18.43346,-33.90078,0 18.43573,-33.89973,0 18.43691,-33.89818,0 18.43769,-33.89571,0 18.43815,-33.89157,0 18.43769,-33.8871,0 18.43472,-33.88281,0 18.42985,-33.88049,0 18.42442,-33.87974,0 18.41886,-33.87973,0 18.41281,-33.88065,0 18.40708,-33.88263,0 18.4025,-33.88496,0 18.39861,-33.88747,0 18.39432,-33.89022,0 18.39005,-33.89314,0 18.38596,-33.89622,0 18.38198,-33.89951,0 18.37794,-33.90331,0 18.37406,-33.90725,0 18.37032,-33.91141,0 18.36691,-33.91573,0 18.36342,-33.92052,0 18.35867,-33.92755,0 18.34785,-33.94315,0 18.3478,-33.9479,0 18.353,-33.94771,0 18.35649,-33.94263,0 18.36023,-33.9369,0 18.36679,-33.92667,0 18.37383,-33.91647,0 18.37744,-33.91182,0 18.38158,-33.90665,0 18.38579,-33.9017,0 18.391,-33.8968,0 18.39722,-33.89314,0 18.40395,-33.8903,0 18.41152,-33.88815,0 18.4192,-33.88655,0 18.42705,-33.88551,0 18.43374,-33.88733,0 18.43752,-33.89227,0 18.43706,-33.89669,0 18.43517,-33.8979,0 18.4326,-33.89878,0 18.43031,-33.89957,0 18.42856,-33.90028,0 18.4271,-33.90038,0 18.42794,-33.899,0 18.4294,-33.89717,0 18.43071,-33.89538,0 18.4318,-33.89384,0 18.43517,-33.88884,0 18.43629,-33.88435,0 18.43226,-33.88087,0 18.42727,-33.87946,0 18.4211,-33.87881,0 18.41463,-33.87918,0 18.40885,-33.88021,0 18.40319,-33.88169,0 18.39689,-33.88412,0 18.39134,-33.88696,0 18.38612,-33.89021,0 18.38104,-33.89403,0 18.37664,-33.89804,0 18.37269,-33.90218,0 18.36908,-33.90656,0 18.36565,-33.9113,0 18.36256,-33.916,0 18.35978,-33.9207,0 18.35712,-33.92546,0 18.35438,-33.93048,0 18.35182,-33.93581,0 18.34907,-33.94139,0 18.34694,-33.94748,0 18.35077,-33.9505,0 18.35423,-33.94611,0 18.35776,-33.94029,0 18.36107,-33.93452,0 18.36426,-33.92894,0 18.36771,-33.92336,0 18.37177,-33.91796,0 18.37606,-33.91275,0 18.38076,-33.90763,0 18.38556,-33.90262,0 18.39201,-33.89685,0 18.39812,-33.89323,0 18.40508,-33.89022,0 18.41281,-33.88747,0 18.41981,-33.88568,0 18.42727,-33.88481,0 18.43409,-33.88537,0 18.43946,-33.88835,0 18.43915,-33.89168,0 18.43569,-33.89389,0 18.43369,-33.89529,0 18.43158,-33.89676,0 18.42973,-33.89822,0 18.428,-33.90005,0 18.42768,-33.8999,0 18.42884,-33.89827,0 18.43024,-33.89644,0 18.43151,-33.89455,0 18.43248,-33.89287,0 18.43357,-33.89077,0 18.43512,-33.88714,0 18.43517,-33.88309,0 18.43287,-33.87909,0 18.42768,-33.87807,0 18.42491,-33.88106,0 18.42755,-33.88435,0 18.43283,-33.88342,0 18.43382,-33.87881,0 18.42888,-33.87564,0 18.42228,-33.87602,0 18.416,-33.87751,0 18.41051,-33.87941,0 18.40501,-33.88156,0 18.39975,-33.88385,0 18.39518,-33.88607,0 18.39037,-33.88887,0 18.38545,-33.89231,0 18.38116,-33.89589,0 18.37676,-33.90019,0 18.37295,-33.90491,0 18.36948,-33.90972,0 18.36628,-33.91452,0 18.36281,-33.91969,0 18.35649,-33.92992,0 18.3534,-33.93616,0 18.35083,-33.94207,0 18.3479,-33.94739,0 18.34517,-33.95264,0 18.34252,-33.9581,0 18.33691,-33.97229,0 18.33304,-33.98827,0 18.33263,-33.99459,0 18.33271,-34.00012,0 18.33332,-34.00681,0 18.33429,-34.01204,0 18.33585,-34.01674,0 18.33796,-34.022,0 18.34007,-34.02726,0 18.3424,-34.03262,0 18.34538,-34.03853,0 18.34801,-34.04333,0 18.3514,-34.04905,0 18.35529,-34.05561,0 18.3577,-34.06013,0 18.36021,-34.06483,0 18.36331,-34.0697,0 18.36611,-34.07391,0 18.36891,-34.07759,0 18.37143,-34.08126,0 18.37229,-34.0855,0 18.37346,-34.09007,0 18.37561,-34.09449,0 18.37839,-34.09891,0 18.38147,-34.10266,0 18.38528,-34.10605,0 18.38934,-34.10892,0 18.39386,-34.11168,0 18.39838,-34.11432,0 18.40273,-34.11683,0 18.40731,-34.11921,0 18.41202,-34.12157,0 18.41915,-34.12479,0 18.43394,-34.13182,0 18.43981,-34.1335,0 18.44588,-34.13388,0 18.45243,-34.13319,0 18.45899,-34.13049,0 18.46393,-34.12569,0 18.46807,-34.11995,0 18.47219,-34.11376,0 18.47523,-34.10748,0 18.47648,-34.10023,0 18.47626,-34.09304,0 18.47523,-34.0855,0 18.47301,-34.07835,0 18.47076,-34.07112,0 18.46899,-34.06418,0 18.46751,-34.05693,0 18.46601,-34.04817,0 18.46555,-34.04141,0 18.46572,-34.03432,0 18.46642,-34.02713,0 18.46733,-34.0201,0 18.46869,-34.01221,0 18.47208,-33.99286,0 18.47553,-33.97998,0 18.4778,-33.97331,0 18.48007,-33.96675,0 18.48209,-33.96023,0 18.48338,-33.95329,0 18.48371,-33.94588,0 18.48209,-33.9386,0 18.47843,-33.9316,0 18.47429,-33.92487,0 18.46979,-33.91894,0 18.46447,-33.91275,0 18.45955,-33.90724,0 18.4549,-33.90175,0 18.44991,-33.89648,0 18.44386,-33.89296,0 18.43861,-33.89459,0 18.44055,-33.89864,0 18.44507,-33.89631,0 18.44162,-33.89246,0 18.43876,-33.89525,0 18.43769,-33.8985,0 18.43405,-33.8996,0 18.4322,-33.89962,0 18.4306,-33.89976,0 18.42889,-33.90024,0 18.42755,-33.90074,0
        </coordinates>
      </LineString>
    </Placemark>
  </Document>
</kml>