<?xml version="1.0" encoding="UTF-8"?>
<kml xmlns="http://www.opengis.net/kml/2.2">
  <Document>
    <name>FR24 3f5f836e - Optimised</name>
    <description><![CDATA[Optimised flight path with 78 points (decimated from 386 original points). Source format: Standard KML]]></description>
    
    <Style id="flightPath">
      <LineStyle>
        <color>ffff0000</color>
        <width>3</width>
      </LineStyle>
    </Style>
    
    <Placemark>
      <name>Flight Path</name>
      <description><![CDATA[Optimized flight path]]></description>
      <styleUrl>#flightPath</styleUrl>
      <LineString>
        <extrude>1</extrude>
        <tessellate>1</tessellate>
        <altitudeMode>absolute</altitudeMode>
        <coordinates>
          18.42705,-33.90115,0 18.43426,-33.90125,0 18.43706,-33.89952,0 18.43803,-33.89576,0 18.43695,-33.89152,0 18.43454,-33.88742,0 18.43085,-33.88303,0 18.42654,-33.87964,0 18.42088,-33.87698,0 18.41452,-33.87579,0 18.40857,-33.87611,0 18.40256,-33.87769,0 18.39678,-33.88016,0 18.39089,-33.88344,0 18.38545,-33.88728,0 18.38081,-33.89124,0 18.3762,-33.89566,0 18.37194,-33.90004,0 18.36802,-33.90454,0 18.36426,-33.90948,0 18.36129,-33.91457,0 18.35867,-33.91982,0 18.35636,-33.92537,0 18.35361,-33.93205,0 18.3486,-33.94477,0 18.34087,-33.96875,0 18.43209,-33.90161,0 18.43603,-33.90106,0 18.43853,-33.89809,0 18.43929,-33.89403,0 18.43838,-33.88952,0 18.43618,-33.88504,0 18.43276,-33.88074,0 18.4285,-33.87721,0 18.42295,-33.87488,0 18.41656,-33.87419,0 18.41073,-33.87506,0 18.4049,-33.8768,0 18.39935,-33.87918,0 18.39392,-33.88211,0 18.389,-33.88519,0 18.38448,-33.88849,0 18.37921,-33.89287,0 18.37486,-33.89678,0 18.3708,-33.90097,0 18.36702,-33.90553,0 18.36348,-33.91051,0 18.36057,-33.9153,0 18.3577,-33.92071,0 18.35513,-33.92615,0 18.35266,-33.93169,0 18.35032,-33.93719,0 18.34408,-33.95334,0 18.34285,-33.97307,0 18.34917,-33.96316,0 18.35205,-33.95425,0 18.35619,-33.94299,0 18.35956,-33.93384,0 18.36353,-33.92453,0 18.36724,-33.91708,0 18.3704,-33.91205,0 18.37423,-33.9067,0 18.37839,-33.90179,0 18.38276,-33.89772,0 18.38753,-33.89392,0 18.39285,-33.89058,0 18.39912,-33.8877,0 18.40546,-33.88545,0 18.41157,-33.8839,0 18.4183,-33.88252,0 18.42447,-33.8828,0 18.42825,-33.88528,0 18.43008,-33.88849,0 18.43088,-33.8917,0 18.43057,-33.89452,0 18.42876,-33.89743,0 18.42721,-33.89973,0 18.42712,-33.90108,0
        </coordinates>
      </LineString>
    </Placemark>
  </Document>
</kml>