<?xml version="1.0" encoding="UTF-8"?>
<kml xmlns="http://www.opengis.net/kml/2.2">
  <Document>
    <name>FR24 4039f947</name>
    <Placemark>
      <name>FR24 4039f947</name>
      <Style><LineStyle><color>ff0000ff</color><width>4</width></LineStyle></Style>
      <LineString>
        <tessellate>1</tessellate>
        <coordinates>18.43575,-33.88779,0 18.43635,-33.88605,0 18.43646,-33.88522,0 18.43635,-33.88417,0 18.43592,-33.88323,0 18.43546,-33.88277,0 18.43489,-33.88225,0 18.43394,-33.8817,0 18.43315,-33.88133,0 18.43214,-33.88086,0 18.43142,-33.88065,0 18.43054,-33.8803,0 18.4294,-33.87996,0 18.42856,-33.87968,0 18.42755,-33.87941,0 18.42665,-33.87914,0 18.42579,-33.8789,0 18.42493,-33.87872,0 18.42373,-33.87853,0 18.42299,-33.87844,0 18.4219,-33.87839,0 18.42105,-33.87836,0 18.41981,-33.8784,0 18.41903,-33.8784,0 18.41784,-33.87853,0 18.41692,-33.87862,0 18.41566,-33.87877,0 18.41469,-33.87895,0 18.41354,-33.87914,0 18.41253,-33.87936,0 18.41166,-33.87955,0 18.41068,-33.87978,0 18.40971,-33.87997,0 18.40877,-33.88023,0 18.40776,-33.88046,0 18.40681,-33.88065,0 18.40591,-33.88087,0 18.40496,-33.88118,0 18.40384,-33.88147,0 18.40284,-33.88174,0 18.40181,-33.88211,0 18.4009,-33.88239,0 18.39998,-33.88272,0 18.39895,-33.88314,0 18.39792,-33.88356,0 18.39684,-33.88398,0 18.39598,-33.88435,0 18.395,-33.88477,0 18.39408,-33.88513,0 18.39312,-33.88556,0 18.39212,-33.88596,0 18.39128,-33.88632,0 18.39016,-33.88683,0 18.3894,-33.88719,0 18.38842,-33.88765,0 18.38753,-33.88815,0 18.38665,-33.88863,0 18.38579,-33.88916,0 18.38488,-33.8897,0 18.384,-33.89026,0 18.38322,-33.89082,0 18.38248,-33.89131,0 18.38161,-33.89194,0 18.38081,-33.89254,0 18.38007,-33.89315,0 18.37912,-33.89397,0 18.37839,-33.89456,0 18.37772,-33.89515,0 18.37688,-33.89594,0 18.37624,-33.89655,0 18.37542,-33.8974,0 18.3748,-33.89804,0 18.37413,-33.89873,0 18.37337,-33.89952,0 18.37275,-33.90018,0 18.37194,-33.90102,0 18.37127,-33.90166,0 18.37065,-33.90234,0 18.36994,-33.90306,0 18.36937,-33.90367,0 18.36869,-33.9044,0 18.36794,-33.9052,0 18.3674,-33.90582,0 18.36662,-33.90678,0 18.36599,-33.90749,0 18.36544,-33.9082,0 18.36488,-33.90889,0 18.36428,-33.90963,0 18.36365,-33.91049,0 18.36308,-33.91121,0 18.3625,-33.91196,0 18.36199,-33.9127,0 18.36153,-33.9133,0 18.36096,-33.91406,0 18.36028,-33.91498,0 18.35978,-33.91571,0 18.35924,-33.91647,0 18.35877,-33.91722,0 18.35821,-33.91805,0 18.35771,-33.91882,0 18.3572,-33.91956,0 18.35667,-33.92043,0 18.3563,-33.92107,0 18.35581,-33.92196,0 18.35524,-33.92289,0 18.35489,-33.92359,0 18.35443,-33.92448,0 18.35398,-33.9255,0 18.35361,-33.9261,0 18.35283,-33.92752,0 18.35244,-33.92839,0 18.35199,-33.92926,0 18.35157,-33.93007,0 18.35106,-33.93123,0 18.35064,-33.93214,0 18.35025,-33.93301,0 18.34986,-33.93407,0 18.34947,-33.93503,0 18.34902,-33.93608,0 18.34871,-33.93691,0 18.34837,-33.93784,0 18.34795,-33.93887,0 18.3475,-33.93983,0 18.34705,-33.94072,0 18.34648,-33.94161,0 18.34599,-33.94249,0 18.34549,-33.94331,0 18.34476,-33.94431,0 18.34425,-33.9451,0 18.34368,-33.94594,0 18.34313,-33.9467,0 18.34252,-33.94766,0 18.34201,-33.94849,0 18.34128,-33.94958,0 18.34078,-33.95027,0 18.34016,-33.95123,0 18.33961,-33.95204,0 18.33719,-33.95563,0 18.33521,-33.95842,0 18.33349,-33.96083,0 18.33102,-33.96455,0 18.32703,-33.97075,0 18.32502,-33.97415,0 18.32329,-33.97714,0 18.32245,-33.97848,0 18.31864,-33.98438,0 18.31678,-33.98723,0 18.31426,-33.99092,0 18.31247,-33.99362,0 18.31006,-33.99724,0 18.30922,-33.99834,0 18.30866,-33.9991,0 18.30814,-33.9998,0 18.3074,-34.00073,0 18.30681,-34.00145,0 18.30625,-34.00218,0 18.30545,-34.00311,0 18.30474,-34.00392,0 18.30412,-34.00465,0 18.30339,-34.00548,0 18.30288,-34.00608,0 18.30202,-34.00702,0 18.30126,-34.00786,0 18.30065,-34.00864,0 18.30003,-34.00937,0 18.29935,-34.01028,0 18.29846,-34.01143,0 18.29802,-34.012,0 18.29727,-34.01307,0 18.2967,-34.01386,0 18.29605,-34.01491,0 18.29543,-34.01601,0 18.29487,-34.01707,0 18.29431,-34.01816,0 18.29386,-34.01903,0 18.29355,-34.01986,0 18.29315,-34.02084,0 18.29274,-34.02177,0 18.29241,-34.0227,0 18.29206,-34.02387,0 18.29179,-34.02484,0 18.29156,-34.02576,0 18.2914,-34.02667,0 18.29126,-34.02768,0 18.29117,-34.02882,0 18.29115,-34.02973,0 18.29128,-34.03093,0 18.29132,-34.03188,0 18.29144,-34.03276,0 18.29161,-34.03387,0 18.29173,-34.03477,0 18.29189,-34.03579,0 18.29212,-34.03681,0 18.29235,-34.03774,0 18.29269,-34.03886,0 18.29292,-34.0397,0 18.2933,-34.04082,0 18.29364,-34.04173,0 18.29407,-34.04286,0 18.29441,-34.04361,0 18.29487,-34.04467,0 18.29543,-34.04581,0 18.29594,-34.04672,0 18.2965,-34.04768,0 18.29699,-34.04854,0 18.2975,-34.04942,0 18.29818,-34.05057,0 18.29882,-34.05161,0 18.29939,-34.05254,0 18.29997,-34.05345,0 18.30053,-34.05437,0 18.30115,-34.05533,0 18.30173,-34.05618,0 18.30238,-34.05711,0 18.30305,-34.05813,0 18.30379,-34.05915,0 18.30465,-34.06027,0 18.30534,-34.06111,0 18.30626,-34.06223,0 18.30692,-34.06302,0 18.30771,-34.06398,0 18.30844,-34.06476,0 18.30935,-34.06581,0 18.31012,-34.06673,0 18.31079,-34.06755,0 18.31152,-34.06842,0 18.31215,-34.06921,0 18.31303,-34.07025,0 18.31376,-34.07117,0 18.31432,-34.07186,0 18.31512,-34.07293,0 18.31578,-34.07378,0 18.31668,-34.07483,0 18.31753,-34.07582,0 18.31824,-34.07666,0 18.31902,-34.07759,0 18.31965,-34.07831,0 18.32049,-34.07927,0 18.32116,-34.08,0 18.32182,-34.08084,0 18.32268,-34.08187,0 18.32335,-34.0827,0 18.32402,-34.08348,0 18.3248,-34.0844,0 18.32548,-34.08513,0 18.32628,-34.08611,0 18.32716,-34.08705,0 18.32789,-34.08788,0 18.32863,-34.08867,0 18.32926,-34.08937,0 18.33023,-34.09034,0 18.33097,-34.09117,0 18.33259,-34.09282,0 18.33349,-34.09373,0 18.33418,-34.09444,0 18.33492,-34.09518,0 18.3359,-34.09612,0 18.3367,-34.09686,0 18.3375,-34.09756,0 18.33836,-34.09821,0 18.33943,-34.099,0 18.34036,-34.09966,0 18.34123,-34.10019,0 18.34236,-34.10091,0 18.34356,-34.10165,0 18.3447,-34.10234,0 18.34568,-34.10296,0 18.34666,-34.10353,0 18.34773,-34.10413,0 18.34868,-34.10463,0 18.34991,-34.10532,0 18.35094,-34.10585,0 18.35192,-34.1064,0 18.35295,-34.10682,0 18.35409,-34.10743,0 18.35512,-34.10789,0 18.35609,-34.10836,0 18.3573,-34.10887,0 18.35827,-34.1093,0 18.35941,-34.10985,0 18.3605,-34.11031,0 18.36152,-34.11076,0 18.36247,-34.11122,0 18.36365,-34.11177,0 18.36456,-34.11222,0 18.36576,-34.11274,0 18.36685,-34.11325,0 18.37004,-34.11465,0 18.37447,-34.11658,0 18.37564,-34.11713,0 18.37772,-34.118,0 18.37873,-34.11841,0 18.37978,-34.11879,0 18.38097,-34.11928,0 18.38198,-34.11964,0 18.38316,-34.12004,0 18.38422,-34.12042,0 18.38533,-34.12079,0 18.38631,-34.12111,0 18.38757,-34.12158,0 18.38848,-34.12189,0 18.38951,-34.12223,0 18.39066,-34.12265,0 18.39184,-34.12308,0 18.39285,-34.1234,0 18.39403,-34.12372,0 18.3952,-34.12399,0 18.39638,-34.12428,0 18.39756,-34.12459,0 18.39857,-34.12486,0 18.39963,-34.12509,0 18.40047,-34.12532,0 18.40193,-34.12573,0 18.403,-34.12601,0 18.40423,-34.12637,0 18.40536,-34.1267,0 18.40653,-34.12701,0 18.40794,-34.12745,0 18.40879,-34.12768,0 18.41011,-34.12802,0 18.41114,-34.12833,0 18.41241,-34.12875,0 18.41342,-34.12907,0 18.41469,-34.12959,0 18.41578,-34.13,0 18.41663,-34.13038,0 18.4178,-34.13086,0 18.41869,-34.13126,0 18.41987,-34.13177,0 18.42082,-34.13219,0 18.42184,-34.13266,0 18.42284,-34.1331,0 18.42407,-34.13364,0 18.42491,-34.13397,0 18.4259,-34.13438,0 18.42704,-34.1348,0 18.42825,-34.13522,0 18.42951,-34.13557,0 18.43042,-34.13587,0 18.43168,-34.1362,0 18.43276,-34.13649,0 18.4338,-34.1368,0 18.43478,-34.13704,0 18.43586,-34.13736,0 18.43689,-34.13759,0 18.4382,-34.13791,0 18.43918,-34.13811,0 18.44061,-34.13834,0 18.4417,-34.13852,0 18.44307,-34.13862,0 18.44425,-34.13864,0 18.44536,-34.13862,0 18.44656,-34.13852,0 18.44759,-34.13834,0 18.44862,-34.13811,0 18.44994,-34.13764,0 18.45085,-34.13722,0 18.45182,-34.13676,0 18.45288,-34.13612,0 18.45372,-34.13553,0 18.45474,-34.1348,0 18.45552,-34.1342,0 18.45653,-34.13347,0 18.45726,-34.13292,0 18.45827,-34.13205,0 18.45888,-34.1315,0 18.45962,-34.13092,0 18.46035,-34.1302,0 18.46123,-34.12932,0 18.46195,-34.12851,0 18.46272,-34.12773,0 18.46342,-34.12691,0 18.46415,-34.12604,0 18.46491,-34.12525,0 18.46573,-34.12439,0 18.46655,-34.12344,0 18.46725,-34.12263,0 18.46799,-34.12181,0 18.46879,-34.12093,0 18.46941,-34.12011,0 18.47016,-34.11927,0 18.47083,-34.1184,0 18.4715,-34.11751,0 18.47207,-34.11655,0 18.4726,-34.11568,0 18.4732,-34.11465,0 18.47376,-34.11369,0 18.47432,-34.11281,0 18.47475,-34.11192,0 18.47519,-34.11082,0 18.47557,-34.10986,0 18.47599,-34.1088,0 18.47633,-34.10775,0 18.47666,-34.10661,0 18.47708,-34.10548,0 18.47738,-34.10455,0 18.47767,-34.10353,0 18.47793,-34.10231,0 18.47762,-34.10117,0 18.47754,-34.10037,0 18.47844,-34.09898,0 18.47852,-34.09812,0 18.47887,-34.0969,0 18.47901,-34.09609,0 18.47907,-34.09512,0 18.47811,-34.09419,0 18.47912,-34.09299,0 18.4809,-34.0913,0 18.48125,-34.09028,0 18.48125,-34.08924,0 18.48126,-34.0882,0 18.48091,-34.08737,0 18.48128,-34.08622,0 18.48188,-34.08506,0 18.482,-34.08304,0 18.48217,-34.08194,0 18.48249,-34.08073,0 18.48305,-34.07963,0 18.48301,-34.0786,0 18.48291,-34.07565,0 18.48253,-34.07191,0 18.48311,-34.06871,0 18.48438,-34.0654,0 18.48516,-34.06123,0 18.48556,-34.06006,0 18.48585,-34.05911,0 18.48606,-34.05813,0 18.48594,-34.05731,0 18.48625,-34.05619,0 18.48649,-34.05514,0 18.48693,-34.05085,0 18.48776,-34.04762,0 18.48826,-34.04541,0 18.48883,-34.04235,0 18.48902,-34.0413,0 18.48902,-34.04029,0 18.48909,-34.03924,0 18.48931,-34.03812,0 18.48951,-34.03703,0 18.4897,-34.03617,0 18.48999,-34.03513,0 18.49025,-34.03411,0 18.49058,-34.03295,0 18.49064,-34.03198,0 18.49074,-34.0309,0 18.49084,-34.02979,0 18.49096,-34.0288,0 18.49129,-34.02768,0 18.49147,-34.02547,0 18.49155,-34.02457,0 18.49169,-34.02336,0 18.49172,-34.02238,0 18.49182,-34.02117,0 18.49176,-34.02005,0 18.49202,-34.019,0 18.49283,-34.01483,0 18.49298,-34.01373,0 18.49281,-34.01267,0 18.49285,-34.01151,0 18.49298,-34.01049,0 18.49303,-34.00948,0 18.49311,-34.00833,0 18.49301,-34.00731,0 18.49318,-34.006,0 18.49343,-34.00493,0 18.49347,-34.00373,0 18.49336,-34.00269,0 18.4932,-34.00181,0 18.49396,-33.99726,0 18.49356,-33.99615,0 18.49297,-33.99514,0 18.49312,-33.99393,0 18.49339,-33.99277,0 18.49373,-33.9917,0 18.49368,-33.99055,0 18.49361,-33.98941,0 18.49358,-33.98815,0 18.49359,-33.98707,0 18.49354,-33.98603,0 18.49357,-33.98494,0 18.49359,-33.98378,0 18.49331,-33.98281,0 18.49294,-33.98167,0 18.49265,-33.98067,0 18.49243,-33.9796,0 18.49219,-33.97856,0 18.49206,-33.97729,0 18.49202,-33.9762,0 18.4921,-33.9745,0 18.4921,-33.97348,0 18.49208,-33.97271,0 18.49228,-33.97148,0 18.49179,-33.9679,0 18.49124,-33.96712,0 18.49055,-33.96636,0 18.49017,-33.96537,0 18.4896,-33.96444,0 18.48935,-33.96323,0 18.48887,-33.96195,0 18.48867,-33.96126,0 18.48858,-33.96009,0 18.48839,-33.95925,0 18.48815,-33.95817,0 18.48781,-33.95704,0 18.4875,-33.9556,0 18.48699,-33.95477,0 18.4863,-33.95395,0 18.48603,-33.95293,0 18.48568,-33.95177,0 18.48558,-33.95078,0 18.48473,-33.94803,0 18.48444,-33.94715,0 18.4841,-33.94601,0 18.48381,-33.94515,0 18.48335,-33.94408,0 18.48304,-33.94322,0 18.48261,-33.94226,0 18.48214,-33.94125,0 18.48158,-33.94006,0 18.48095,-33.93886,0 18.48029,-33.93773,0 18.47975,-33.93668,0 18.47918,-33.9357,0 18.47861,-33.93471,0 18.47794,-33.93361,0 18.47734,-33.93267,0 18.47659,-33.93141,0 18.47603,-33.93044,0 18.47528,-33.92932,0 18.47463,-33.92839,0 18.47374,-33.92722,0 18.473,-33.92625,0 18.47211,-33.92519,0 18.47127,-33.92418,0 18.47048,-33.92326,0 18.4697,-33.92239,0 18.46882,-33.9215,0 18.46785,-33.92052,0 18.46695,-33.91965,0 18.46613,-33.91889,0 18.46504,-33.91792,0 18.46415,-33.91708,0 18.46325,-33.91631,0 18.46236,-33.91553,0 18.46127,-33.91461,0 18.46039,-33.91383,0 18.45932,-33.91289,0 18.45846,-33.91209,0 18.45748,-33.91118,0 18.45658,-33.9104,0 18.45566,-33.90958,0 18.45479,-33.90884,0 18.45377,-33.908,0 18.453,-33.90733,0 18.45215,-33.90665,0 18.45109,-33.90582,0 18.45025,-33.90523,0 18.44913,-33.90454,0 18.44805,-33.90395,0 18.44707,-33.90343,0 18.44633,-33.90306,0 18.44515,-33.90262,0 18.44397,-33.90225,0 18.4429,-33.90195,0 18.44184,-33.9017,0 18.44145,-33.90161,0 18.44084,-33.90153,0 18.44027,-33.90143,0 18.43977,-33.90134,0 18.43918,-33.90125,0 18.43859,-33.90115,0 18.43792,-33.90106,0 18.43735,-33.90102,0 18.43683,-33.90097,0 18.43607,-33.90088,0 18.43563,-33.90088,0 18.43511,-33.90083,0 18.43439,-33.90079,0 18.43394,-33.90074,0 18.43369,-33.90074,0 18.43287,-33.9007,0 18.43231,-33.90069,0 18.43203,-33.90069,0 18.43111,-33.90069,0 18.43069,-33.90065,0 18.42968,-33.90064,0 18.42912,-33.90056,0 18.42882,-33.9006,0 18.42848,-33.90064,0 18.42828,-33.9006,0 18.42785,-33.90069,0 18.42762,-33.90069,0</coordinates>
      </LineString>
    </Placemark>
  </Document>
</kml>
