<?xml version="1.0" encoding="UTF-8"?>
<kml xmlns="http://www.opengis.net/kml/2.2">
  <Document>
    <name>FR24 41608fb5</name>
    <Placemark>
      <name>FR24 41608fb5</name>
      <Style><LineStyle><color>ff0000ff</color><width>4</width></LineStyle></Style>
      <LineString>
        <tessellate>1</tessellate>
        <coordinates>18.43203,-33.89259,0 18.43343,-33.8903,0 18.43472,-33.88821,0 18.43511,-33.88737,0 18.43534,-33.88677,0 18.43557,-33.88593,0 18.43567,-33.88518,0 18.43556,-33.88426,0 18.43534,-33.88344,0 18.43506,-33.8828,0 18.43454,-33.88202,0 18.43405,-33.88147,0 18.4334,-33.88091,0 18.43248,-33.88034,0 18.43164,-33.87991,0 18.43097,-33.87968,0 18.4299,-33.87941,0 18.42905,-33.87928,0 18.42811,-33.87918,0 18.4271,-33.87914,0 18.4262,-33.87914,0 18.42531,-33.87918,0 18.42402,-33.87923,0 18.4231,-33.87928,0 18.42218,-33.87937,0 18.42093,-33.87951,0 18.42004,-33.87959,0 18.4192,-33.87973,0 18.41819,-33.87987,0 18.41735,-33.88,0 18.41635,-33.88021,0 18.4155,-33.88042,0 18.4146,-33.8806,0 18.41381,-33.88083,0 18.41292,-33.88106,0 18.41191,-33.88138,0 18.41112,-33.88161,0 18.41011,-33.88193,0 18.40933,-33.8822,0 18.40855,-33.88252,0 18.40782,-33.88281,0 18.40686,-33.88326,0 18.40591,-33.88371,0 18.40507,-33.88412,0 18.4041,-33.88458,0 18.40339,-33.88495,0 18.40256,-33.88537,0 18.40154,-33.88586,0 18.40067,-33.88635,0 18.39993,-33.88672,0 18.39902,-33.88719,0 18.39827,-33.88761,0 18.39735,-33.88812,0 18.39655,-33.88857,0 18.3956,-33.88916,0 18.39466,-33.8897,0 18.39397,-33.89017,0 18.39319,-33.89072,0 18.39249,-33.89119,0 18.39162,-33.89177,0 18.39083,-33.89236,0 18.39003,-33.89301,0 18.38938,-33.89351,0 18.38865,-33.89413,0 18.38774,-33.89487,0 18.38682,-33.89561,0 18.38619,-33.89622,0 18.38534,-33.89699,0 18.38478,-33.89754,0 18.38411,-33.89813,0 18.38327,-33.89896,0 18.38259,-33.8996,0 18.38198,-33.90024,0 18.38121,-33.90102,0 18.38047,-33.90181,0 18.37968,-33.90262,0 18.37927,-33.90316,0 18.37828,-33.90431,0 18.37772,-33.90502,0 18.37704,-33.90587,0 18.37652,-33.90656,0 18.37581,-33.90752,0 18.37503,-33.90856,0 18.37446,-33.90939,0 18.37395,-33.91019,0 18.37323,-33.91118,0 18.37273,-33.912,0 18.37212,-33.91284,0 18.37154,-33.91372,0 18.37082,-33.91489,0 18.37029,-33.91568,0 18.36966,-33.9167,0 18.36909,-33.91759,0 18.36863,-33.91843,0 18.36791,-33.91956,0 18.36737,-33.92048,0 18.36679,-33.92154,0 18.36617,-33.92267,0 18.36567,-33.92354,0 18.36514,-33.92457,0 18.36454,-33.92555,0 18.36405,-33.92653,0 18.36359,-33.92741,0 18.36302,-33.92848,0 18.36245,-33.92969,0 18.36152,-33.93159,0 18.36101,-33.93265,0 18.36057,-33.93356,0 18.35905,-33.93695,0 18.35752,-33.94044,0 18.35604,-33.94398,0 18.35445,-33.94794,0 18.35318,-33.95124,0 18.3518,-33.95502,0 18.35048,-33.95865,0 18.34812,-33.96419,0 18.34654,-33.96791,0 18.3447,-33.97234,0 18.34302,-33.97623,0 18.3405,-33.98163,0 18.33758,-33.98694,0 18.33674,-33.98831,0 18.33607,-33.98951,0 18.33287,-33.99527,0 18.33175,-33.99815,0 18.33119,-34.00053,0 18.33097,-34.00161,0 18.33063,-34.00351,0 18.33052,-34.00459,0 18.33041,-34.00607,0 18.3304,-34.00729,0 18.33041,-34.00841,0 18.33052,-34.0096,0 18.33069,-34.01074,0 18.33092,-34.012,0 18.33126,-34.01363,0 18.3316,-34.01493,0 18.33198,-34.01628,0 18.33235,-34.01735,0 18.33282,-34.01857,0 18.33327,-34.01971,0 18.33389,-34.02126,0 18.33444,-34.02242,0 18.33498,-34.02349,0 18.33567,-34.0248,0 18.33624,-34.02587,0 18.33708,-34.02722,0 18.33778,-34.02829,0 18.3387,-34.02969,0 18.33943,-34.03075,0 18.34027,-34.03198,0 18.34095,-34.03299,0 18.34184,-34.03436,0 18.34246,-34.03542,0 18.34322,-34.03662,0 18.34379,-34.03769,0 18.34448,-34.03872,0 18.34554,-34.04008,0 18.34648,-34.041,0 18.34756,-34.04178,0 18.34863,-34.04242,0 18.35003,-34.04292,0 18.35137,-34.0432,0 18.35277,-34.04315,0 18.35445,-34.04274,0 18.35535,-34.04219,0 18.35608,-34.0415,0 18.35655,-34.04058,0 18.35672,-34.0397,0 18.35661,-34.03876,0 18.35619,-34.0377,0 18.35563,-34.03688,0 18.35473,-34.03592,0 18.35373,-34.035,0 18.35272,-34.03423,0 18.35165,-34.03345,0 18.35076,-34.03285,0 18.34963,-34.03206,0 18.34879,-34.03148,0 18.34756,-34.03065,0 18.34665,-34.03006,0 18.34551,-34.02927,0 18.34459,-34.02864,0 18.34362,-34.02796,0 18.34276,-34.02731,0 18.34184,-34.02663,0 18.34083,-34.02576,0 18.33996,-34.02489,0 18.33939,-34.02433,0 18.33865,-34.02338,0 18.33797,-34.02242,0 18.33747,-34.02164,0 18.33702,-34.02072,0 18.33664,-34.01972,0 18.33635,-34.01856,0 18.33618,-34.0177,0 18.33618,-34.01619,0 18.33624,-34.01516,0 18.33641,-34.01399,0 18.33657,-34.0128,0 18.33674,-34.01184,0 18.33702,-34.01042,0 18.33719,-34.0096,0 18.33747,-34.00841,0 18.33773,-34.00729,0 18.33801,-34.00641,0 18.33836,-34.00529,0 18.33859,-34.00447,0 18.33899,-34.00338,0 18.33939,-34.00236,0 18.3399,-34.00115,0 18.34242,-33.99552,0 18.34351,-33.99328,0 18.34481,-33.99083,0 18.34614,-33.98853,0 18.34888,-33.98365,0 18.35146,-33.9789,0 18.35395,-33.97408,0 18.35649,-33.96898,0 18.3589,-33.96405,0 18.36113,-33.95911,0 18.36213,-33.95631,0 18.36275,-33.95476,0 18.3632,-33.95352,0 18.36365,-33.95232,0 18.36499,-33.94839,0 18.36539,-33.9472,0 18.36628,-33.94445,0 18.36757,-33.94034,0 18.36875,-33.93649,0 18.36983,-33.93309,0 18.37103,-33.92965,0 18.37267,-33.92546,0 18.37312,-33.9245,0 18.37346,-33.92381,0 18.37395,-33.92285,0 18.37475,-33.9215,0 18.37526,-33.92066,0 18.37595,-33.91964,0 18.37652,-33.91875,0 18.37716,-33.91786,0 18.37794,-33.91681,0 18.37887,-33.91573,0 18.37968,-33.91475,0 18.38053,-33.91372,0 18.38127,-33.91293,0 18.38236,-33.91182,0 18.38345,-33.9107,0 18.38433,-33.90981,0 18.38533,-33.90884,0 18.3864,-33.90775,0 18.38736,-33.90692,0 18.38814,-33.90614,0 18.38923,-33.90516,0 18.3901,-33.90431,0 18.39094,-33.90358,0 18.39209,-33.9025,0 18.39283,-33.9019,0 18.39392,-33.90092,0 18.39504,-33.90005,0 18.39626,-33.89915,0 18.39728,-33.89841,0 18.39834,-33.89772,0 18.39981,-33.89682,0 18.40113,-33.89608,0 18.40227,-33.89552,0 18.40364,-33.89482,0 18.40518,-33.89415,0 18.40645,-33.89361,0 18.40816,-33.89287,0 18.40937,-33.8924,0 18.41074,-33.89189,0 18.4118,-33.89154,0 18.41337,-33.89101,0 18.41499,-33.89049,0 18.41618,-33.89012,0 18.41774,-33.88962,0 18.41938,-33.88914,0 18.42093,-33.88873,0 18.42228,-33.88834,0 18.42321,-33.88807,0 18.42486,-33.88765,0 18.42615,-33.88728,0 18.42788,-33.88696,0 18.42962,-33.88668,0 18.43091,-33.8866,0 18.4327,-33.88651,0 18.43439,-33.88655,0 18.4359,-33.88673,0 18.43735,-33.88696,0 18.43884,-33.88733,0 18.44015,-33.8877,0 18.44151,-33.8882,0 18.4433,-33.88907,0 18.44436,-33.88976,0 18.44542,-33.89059,0 18.4465,-33.89161,0 18.44725,-33.8925,0 18.44778,-33.89333,0 18.4484,-33.89452,0 18.44873,-33.89538,0 18.44896,-33.89662,0 18.44896,-33.89754,0 18.44879,-33.89841,0 18.44851,-33.89915,0 18.4479,-33.90015,0 18.44722,-33.90088,0 18.44656,-33.90134,0 18.44559,-33.90181,0 18.44487,-33.90198,0 18.44376,-33.90213,0 18.44307,-33.90208,0 18.4421,-33.9019,0 18.44128,-33.90161,0 18.44066,-33.90134,0 18.43987,-33.90102,0 18.43901,-33.90064,0 18.43826,-33.90036,0 18.43746,-33.90009,0 18.43685,-33.89983,0 18.43601,-33.8996,0 18.43552,-33.89952,0 18.43477,-33.89939,0 18.43409,-33.89934,0 18.4334,-33.89934,0 18.43283,-33.89934,0 18.43208,-33.89939,0 18.43157,-33.89939,0 18.431,-33.89948,0 18.43057,-33.89955,0 18.43025,-33.89957,0 18.43002,-33.89962,0 18.42957,-33.89969,0 18.42917,-33.89978,0 18.42878,-33.89992,0 18.42856,-33.89996,0 18.42825,-33.90009,0 18.42783,-33.90028,0 18.42755,-33.90047,0 18.4276,-33.90024,0 18.42833,-33.89941,0 18.42856,-33.89909,0 18.4294,-33.89786,0 18.42974,-33.89734,0 18.43008,-33.89682,0 18.43025,-33.89655,0 18.43046,-33.89626,0 18.43077,-33.89576,0 18.43094,-33.89548,0 18.43111,-33.8952,0 18.43128,-33.89492,0 18.43153,-33.89456,0 18.43174,-33.89426,0 18.43191,-33.89394,0 18.43208,-33.89366,0 18.43271,-33.89268,0 18.43317,-33.89189,0 18.43394,-33.89063,0 18.43443,-33.88989,0 18.43489,-33.8891,0 18.43528,-33.88847,0 18.43567,-33.88783,0 18.43601,-33.88705,0 18.43635,-33.88618,0 18.43649,-33.88533,0 18.4366,-33.88449,0 18.43655,-33.88398,0 18.43637,-33.88314,0 18.43612,-33.88239,0 18.43562,-33.88161,0 18.43511,-33.88097,0 18.43443,-33.88034,0 18.43371,-33.87978,0 18.43306,-33.87937,0 18.4322,-33.87886,0 18.43153,-33.87854,0 18.43063,-33.87822,0 18.4299,-33.87799,0 18.42912,-33.87785,0 18.42822,-33.87772,0 18.42721,-33.87762,0 18.42626,-33.87762,0 18.42539,-33.87769,0 18.42469,-33.87776,0 18.42368,-33.87785,0 18.42264,-33.87802,0 18.42166,-33.87817,0 18.42064,-33.87839,0 18.41995,-33.87853,0 18.41898,-33.87877,0 18.41789,-33.879,0 18.41712,-33.87918,0 18.41623,-33.87941,0 18.4152,-33.87965,0 18.41443,-33.87987,0 18.41349,-33.88011,0 18.41241,-33.88037,0 18.41148,-33.88063,0 18.41051,-33.88092,0 18.40944,-33.8812,0 18.40866,-33.88147,0 18.40782,-33.88174,0 18.40681,-33.88206,0 18.40586,-33.88239,0 18.4049,-33.88272,0 18.40393,-33.88305,0 18.40288,-33.88344,0 18.40193,-33.88376,0 18.40107,-33.88407,0 18.39998,-33.88449,0 18.39918,-33.88482,0 18.39823,-33.88522,0 18.39756,-33.8855,0 18.39655,-33.88598,0 18.39554,-33.88646,0 18.39483,-33.88686,0 18.39403,-33.88728,0 18.393,-33.88789,0 18.39218,-33.88838,0 18.3914,-33.88887,0 18.39055,-33.88943,0 18.38966,-33.89012,0 18.38888,-33.89073,0 18.38814,-33.89138,0 18.38719,-33.89214,0 18.38659,-33.89273,0 18.38573,-33.89347,0 18.38522,-33.89394,0 18.38442,-33.89473,0 18.38366,-33.89548,0 18.38282,-33.89635,0 18.38207,-33.89715,0 18.38139,-33.89785,0 18.38076,-33.89859,0 18.3799,-33.89946,0 18.37912,-33.90042,0 18.37839,-33.90125,0 18.37777,-33.90198,0 18.37727,-33.90265,0 18.37648,-33.90363,0 18.37572,-33.9046,0 18.37508,-33.90541,0 18.37447,-33.90623,0 18.37378,-33.90725,0 18.3732,-33.90805,0 18.37263,-33.90884,0 18.372,-33.90971,0 18.37132,-33.9107,0 18.37065,-33.91177,0 18.37009,-33.9126,0 18.36954,-33.91349,0 18.36891,-33.91452,0 18.36841,-33.91539,0 18.36777,-33.91647,0 18.36714,-33.91754,0 18.36662,-33.91855,0 18.36599,-33.91964,0 18.36561,-33.92038,0 18.36502,-33.92145,0 18.36456,-33.92234,0 18.36398,-33.92354,0 18.36342,-33.92466,0 18.36292,-33.92574,0 18.3625,-33.92662,0 18.36202,-33.9277,0 18.36159,-33.92867,0 18.36119,-33.92965,0 18.36085,-33.9305,0 18.36039,-33.93165,0 18.35995,-33.9326,0 18.35958,-33.9336,0 18.35924,-33.93453,0 18.35877,-33.93567,0 18.35754,-33.93887,0 18.35632,-33.94198,0 18.35501,-33.94537,0 18.35373,-33.94862,0 18.35249,-33.95187,0 18.35112,-33.95534,0 18.34894,-33.96083,0 18.34717,-33.96535,0 18.34621,-33.96776,0 18.34268,-33.97664,0 18.3407,-33.98141,0 18.3387,-33.98607,0 18.33585,-33.99385,0 18.33384,-33.99985,0 18.33355,-34.00099,0 18.33332,-34.00223,0 18.33304,-34.00392,0 18.33298,-34.00501,0 18.33286,-34.0065,0 18.33287,-34.00772,0 18.33286,-34.00916,0 18.33292,-34.01032,0 18.33309,-34.01181,0 18.33321,-34.01297,0 18.33344,-34.01432,0 18.33378,-34.01581,0 18.33412,-34.01721,0 18.33444,-34.0182,0 18.33478,-34.01935,0 18.33517,-34.02058,0 18.33562,-34.02205,0 18.33607,-34.02319,0 18.33658,-34.02457,0 18.33697,-34.02576,0 18.33738,-34.02694,0 18.33784,-34.02806,0 18.33831,-34.02933,0 18.33887,-34.03071,0 18.33943,-34.03189,0 18.33988,-34.03285,0 18.34042,-34.03387,0 18.34116,-34.0355,0 18.34156,-34.03639,0 18.34207,-34.03752,0 18.34263,-34.03885,0 18.34322,-34.04025,0 18.34373,-34.04146,0 18.34425,-34.04265,0 18.34476,-34.04379,0 18.34521,-34.04485,0 18.34571,-34.04608,0 18.34616,-34.04709,0 18.34785,-34.0511,0 18.34848,-34.0524,0 18.34913,-34.05354,0 18.3498,-34.0545,0 18.35089,-34.05557,0 18.3522,-34.0565,0 18.3534,-34.05701,0 18.35472,-34.05729,0 18.35602,-34.05734,0 18.35743,-34.05711,0 18.35861,-34.05664,0 18.35944,-34.05606,0 18.36044,-34.05487,0 18.36085,-34.05382,0 18.3609,-34.05287,0 18.36068,-34.05153,0 18.36034,-34.05066,0 18.35989,-34.04979,0 18.35933,-34.04874,0 18.35866,-34.04773,0 18.35798,-34.04677,0 18.35731,-34.04581,0 18.35658,-34.0448,0 18.35604,-34.04403,0 18.35529,-34.04309,0 18.35461,-34.04221,0 18.35386,-34.04128,0 18.353,-34.0403,0 18.35221,-34.03931,0 18.35148,-34.03848,0 18.35092,-34.03784,0 18.35003,-34.03683,0 18.34923,-34.03592,0 18.34851,-34.0351,0 18.34756,-34.03409,0 18.34689,-34.03326,0 18.34591,-34.0322,0 18.34454,-34.03071,0 18.34364,-34.02969,0 18.34288,-34.0289,0 18.34208,-34.02801,0 18.34133,-34.02717,0 18.34067,-34.0264,0 18.33996,-34.02554,0 18.33938,-34.0248,0 18.33865,-34.02379,0 18.33818,-34.02303,0 18.33769,-34.02219,0 18.33721,-34.02126,0 18.33674,-34.02022,0 18.33635,-34.01921,0 18.33607,-34.01814,0 18.33584,-34.01721,0 18.33568,-34.01642,0 18.33549,-34.0154,0 18.33538,-34.01442,0 18.33529,-34.01335,0 18.33529,-34.01257,0 18.33527,-34.01195,0 18.33532,-34.01078,0 18.33544,-34.00967,0 18.33562,-34.00873,0 18.33584,-34.0078,0 18.33613,-34.00662,0 18.33652,-34.00552,0 18.33698,-34.00422,0 18.33736,-34.00333,0 18.33773,-34.00241,0 18.33807,-34.00161,0 18.33858,-34.00045,0 18.34061,-33.99619,0 18.34179,-33.99366,0 18.34409,-33.98891,0 18.34534,-33.98672,0 18.34678,-33.98438,0 18.34818,-33.98222,0 18.3498,-33.9798,0 18.35123,-33.97755,0 18.35266,-33.97508,0 18.35395,-33.97275,0 18.35535,-33.97005,0 18.35644,-33.96782,0 18.35765,-33.96506,0 18.35867,-33.9627,0 18.35972,-33.96021,0 18.36197,-33.95476,0 18.36303,-33.95183,0 18.36415,-33.94853,0 18.36462,-33.94701,0 18.36488,-33.94597,0 18.36519,-33.94473,0 18.36548,-33.94361,0 18.36583,-33.9424,0 18.36611,-33.94119,0 18.36639,-33.93998,0 18.36662,-33.93919,0 18.36684,-33.93823,0 18.3672,-33.93668,0 18.36746,-33.93571,0 18.36774,-33.93448,0 18.36802,-33.93356,0 18.36851,-33.93202,0 18.3688,-33.93109,0 18.36925,-33.92972,0 18.36964,-33.92876,0 18.36992,-33.92802,0 18.3704,-33.92685,0 18.37099,-33.92569,0 18.37149,-33.92473,0 18.37194,-33.92382,0 18.37263,-33.92276,0 18.37318,-33.9218,0 18.37406,-33.92052,0 18.37469,-33.91954,0 18.37536,-33.91859,0 18.37606,-33.91768,0 18.37693,-33.91653,0 18.37761,-33.91566,0 18.37833,-33.91484,0 18.37906,-33.91397,0 18.38001,-33.91292,0 18.38074,-33.91209,0 18.3817,-33.91109,0 18.38248,-33.91026,0 18.3835,-33.90921,0 18.3845,-33.90825,0 18.38545,-33.90733,0 18.38636,-33.90651,0 18.3873,-33.90569,0 18.3882,-33.90488,0 18.38926,-33.90404,0 18.39016,-33.90326,0 18.39145,-33.90225,0 18.39246,-33.90143,0 18.39334,-33.90074,0 18.39518,-33.89948,0 18.3961,-33.89882,0 18.39745,-33.89795,0 18.39885,-33.89708,0 18.40014,-33.89639,0 18.40115,-33.89584,0 18.40238,-33.89525,0 18.40378,-33.89456,0 18.40513,-33.89399,0 18.40645,-33.89338,0 18.40765,-33.89291,0 18.40902,-33.89236,0 18.41022,-33.89189,0 18.4118,-33.89136,0 18.41326,-33.89087,0 18.4148,-33.89035,0 18.41612,-33.88993,0 18.41715,-33.88961,0 18.41909,-33.889,0 18.42076,-33.88852,0 18.42201,-33.88817,0 18.42413,-33.8876,0 18.42603,-33.8871,0 18.42766,-33.88678,0 18.42951,-33.88651,0 18.431,-33.88635,0 18.43304,-33.88637,0 18.43461,-33.88651,0 18.43655,-33.88686,0 18.43797,-33.88724,0 18.43924,-33.8877,0 18.44055,-33.88829,0 18.4421,-33.8891,0 18.44302,-33.88971,0 18.44416,-33.89054,0 18.44537,-33.89159,0 18.44644,-33.89268,0 18.44717,-33.89365,0 18.44799,-33.89487,0 18.44845,-33.89603,0 18.44868,-33.89713,0 18.44874,-33.89813,0 18.44846,-33.89928,0 18.44784,-33.90033,0 18.44707,-33.90102,0 18.44627,-33.90157,0 18.4453,-33.90204,0 18.4441,-33.90232,0 18.44313,-33.90239,0 18.44221,-33.90232,0 18.44124,-33.90213,0 18.44055,-33.9019,0 18.43958,-33.90148,0 18.43889,-33.9012,0 18.43814,-33.90083,0 18.43758,-33.9006,0 18.43672,-33.90032,0 18.43607,-33.90019,0 18.43546,-33.90009,0 18.43449,-33.89999,0 18.43382,-33.89992,0 18.4331,-33.89992,0 18.43243,-33.8999,0 18.43186,-33.89992,0 18.43125,-33.89992,0 18.43077,-33.89994,0 18.43054,-33.89994,0 18.43013,-33.90001,0 18.42979,-33.90005,0 18.42957,-33.90009,0 18.42934,-33.9001,0 18.42888,-33.90013,0 18.42859,-33.90018,0 18.42831,-33.90022,0 18.428,-33.90028,0 18.42772,-33.90042,0 18.42743,-33.90051,0</coordinates>
      </LineString>
    </Placemark>
  </Document>
</kml>
