<?xml version="1.0" encoding="UTF-8"?>
<kml xmlns="http://www.opengis.net/kml/2.2">
  <Document>
    <name>FR24 418fdda9</name>
    <Placemark>
      <name>FR24 418fdda9</name>
      <Style><LineStyle><color>ff0000ff</color><width>4</width></LineStyle></Style>
      <LineString>
        <tessellate>1</tessellate>
        <coordinates>18.4331,-33.89255,0 18.4346,-33.89022,0 18.43567,-33.88843,0 18.4362,-33.88742,0 18.43655,-33.88663,0 18.43685,-33.88545,0 18.43685,-33.88449,0 18.43666,-33.88351,0 18.43646,-33.8828,0 18.43597,-33.88188,0 18.43551,-33.8811,0 18.43483,-33.88014,0 18.43422,-33.8795,0 18.4336,-33.87881,0 18.43271,-33.87797,0 18.43208,-33.87737,0 18.43122,-33.87658,0 18.43042,-33.87592,0 18.42951,-33.87524,0 18.42854,-33.87457,0 18.42755,-33.87396,0 18.42665,-33.8735,0 18.42579,-33.87313,0 18.42487,-33.87285,0 18.42368,-33.87259,0 18.42264,-33.87248,0 18.42144,-33.87252,0 18.4202,-33.87268,0 18.41904,-33.8729,0 18.41774,-33.87323,0 18.41675,-33.87355,0 18.41544,-33.87392,0 18.41449,-33.87424,0 18.41325,-33.87469,0 18.41206,-33.87513,0 18.41108,-33.87555,0 18.41011,-33.87598,0 18.40899,-33.87648,0 18.40804,-33.87689,0 18.40719,-33.87732,0 18.40605,-33.87797,0 18.40496,-33.87853,0 18.40393,-33.87909,0 18.40296,-33.87965,0 18.40204,-33.88019,0 18.40115,-33.88069,0 18.40008,-33.88129,0 18.39924,-33.88184,0 18.39821,-33.88249,0 18.39724,-33.88309,0 18.39615,-33.88379,0 18.3952,-33.88435,0 18.39414,-33.88499,0 18.393,-33.88565,0 18.39174,-33.8864,0 18.39072,-33.88701,0 18.38994,-33.88747,0 18.38881,-33.88815,0 18.38797,-33.88866,0 18.38699,-33.88929,0 18.38614,-33.8898,0 18.385,-33.89053,0 18.38439,-33.89095,0 18.38321,-33.89182,0 18.38243,-33.89241,0 18.38156,-33.8931,0 18.38063,-33.89388,0 18.3799,-33.89452,0 18.37912,-33.8952,0 18.37822,-33.89603,0 18.37749,-33.89673,0 18.37671,-33.89749,0 18.37601,-33.89817,0 18.37509,-33.89906,0 18.37435,-33.89985,0 18.37346,-33.90079,0 18.37273,-33.90161,0 18.37211,-33.90239,0 18.37132,-33.90334,0 18.37065,-33.90417,0 18.36994,-33.90511,0 18.36953,-33.90573,0 18.3688,-33.90679,0 18.36813,-33.90765,0 18.36724,-33.90894,0 18.36662,-33.90981,0 18.36606,-33.91054,0 18.36531,-33.91163,0 18.36479,-33.91237,0 18.36399,-33.91354,0 18.36331,-33.91447,0 18.36275,-33.91534,0 18.3621,-33.91629,0 18.36135,-33.91745,0 18.36061,-33.91861,0 18.36004,-33.91954,0 18.35947,-33.92048,0 18.35884,-33.92164,0 18.3581,-33.92294,0 18.35754,-33.92395,0 18.35709,-33.92482,0 18.35642,-33.92606,0 18.35587,-33.92709,0 18.35524,-33.92816,0 18.35472,-33.92913,0 18.353,-33.93237,0 18.35197,-33.93435,0 18.351,-33.93658,0 18.35049,-33.93789,0 18.35003,-33.93915,0 18.34974,-33.94012,0 18.34934,-33.94114,0 18.34885,-33.94244,0 18.34826,-33.94375,0 18.34778,-33.94501,0 18.34745,-33.94585,0 18.34722,-33.94688,0 18.34711,-33.94813,0 18.34722,-33.94936,0 18.34773,-33.95059,0 18.34823,-33.95128,0 18.34969,-33.95251,0 18.35076,-33.95306,0 18.3522,-33.95348,0 18.35386,-33.95362,0 18.35524,-33.95339,0 18.35627,-33.95297,0 18.3573,-33.95218,0 18.35793,-33.95142,0 18.35838,-33.9505,0 18.3586,-33.94958,0 18.35884,-33.94845,0 18.35913,-33.94752,0 18.35961,-33.94647,0 18.36,-33.94565,0 18.36056,-33.94468,0 18.36113,-33.94368,0 18.36164,-33.94277,0 18.36219,-33.94189,0 18.36267,-33.94101,0 18.36303,-33.94043,0 18.36365,-33.93947,0 18.36415,-33.9386,0 18.36477,-33.93764,0 18.36519,-33.93686,0 18.36561,-33.93581,0 18.36594,-33.93481,0 18.36622,-33.93379,0 18.36651,-33.93281,0 18.36679,-33.93197,0 18.36718,-33.93091,0 18.36742,-33.9302,0 18.3678,-33.92921,0 18.36813,-33.9283,0 18.36851,-33.92732,0 18.36891,-33.92634,0 18.36943,-33.92522,0 18.36976,-33.92455,0 18.37034,-33.92336,0 18.37074,-33.92262,0 18.37138,-33.92162,0 18.37183,-33.92085,0 18.37257,-33.91978,0 18.37318,-33.91891,0 18.37372,-33.9181,0 18.37446,-33.91722,0 18.37508,-33.9164,0 18.37595,-33.91549,0 18.37648,-33.91489,0 18.37727,-33.91411,0 18.37812,-33.91326,0 18.37898,-33.91242,0 18.37967,-33.91172,0 18.38058,-33.91086,0 18.38114,-33.91031,0 18.38207,-33.90939,0 18.38293,-33.90856,0 18.38367,-33.90791,0 18.38453,-33.90711,0 18.38545,-33.90628,0 18.38619,-33.90558,0 18.38702,-33.90486,0 18.38792,-33.90408,0 18.38881,-33.90326,0 18.38977,-33.90244,0 18.39067,-33.90166,0 18.39146,-33.90097,0 18.39235,-33.90019,0 18.39329,-33.89939,0 18.39426,-33.89859,0 18.39512,-33.89799,0 18.39599,-33.89735,0 18.39689,-33.89673,0 18.39801,-33.89603,0 18.3989,-33.89548,0 18.39986,-33.89493,0 18.40098,-33.89433,0 18.40255,-33.89351,0 18.40347,-33.89305,0 18.40445,-33.8925,0 18.40574,-33.89186,0 18.40653,-33.89149,0 18.40782,-33.89082,0 18.40885,-33.89035,0 18.41011,-33.8898,0 18.41118,-33.88934,0 18.41196,-33.88902,0 18.41353,-33.88838,0 18.41477,-33.88788,0 18.41583,-33.88747,0 18.41715,-33.887,0 18.41852,-33.88651,0 18.41948,-33.88618,0 18.42081,-33.88575,0 18.42224,-33.88533,0 18.4234,-33.88504,0 18.4247,-33.88472,0 18.42579,-33.88444,0 18.42682,-33.88426,0 18.428,-33.88403,0 18.42939,-33.88374,0 18.43054,-33.88356,0 18.43231,-33.88335,0 18.43349,-33.88321,0 18.43478,-33.88312,0 18.43607,-33.88303,0 18.43712,-33.883,0 18.43849,-33.883,0 18.43988,-33.88307,0 18.44112,-33.88323,0 18.44244,-33.88351,0 18.44352,-33.88385,0 18.44456,-33.88426,0 18.44548,-33.88477,0 18.4465,-33.88551,0 18.44722,-33.88614,0 18.44778,-33.88678,0 18.44846,-33.88779,0 18.44896,-33.88882,0 18.44931,-33.8897,0 18.44959,-33.89082,0 18.44965,-33.89185,0 18.44965,-33.89287,0 18.44948,-33.89366,0 18.44913,-33.89464,0 18.44874,-33.89534,0 18.44816,-33.89618,0 18.44759,-33.89673,0 18.44672,-33.89745,0 18.44582,-33.8979,0 18.44467,-33.89832,0 18.44381,-33.89859,0 18.44296,-33.89874,0 18.44181,-33.89897,0 18.44095,-33.89906,0 18.43988,-33.89914,0 18.43906,-33.8992,0 18.43825,-33.89928,0 18.43746,-33.89939,0 18.43668,-33.89951,0 18.43603,-33.89962,0 18.43545,-33.89969,0 18.43495,-33.89978,0 18.43466,-33.89981,0 18.43437,-33.89981,0 18.4341,-33.89987,0 18.43382,-33.89987,0 18.43343,-33.89996,0 18.43315,-33.90001,0 18.43271,-33.90004,0 18.43248,-33.90013,0 18.4322,-33.90018,0 18.43185,-33.90022,0 18.43158,-33.90028,0 18.431,-33.90032,0 18.43077,-33.90036,0 18.43054,-33.90036,0 18.43007,-33.90038,0 18.42985,-33.90042,0 18.42962,-33.90041,0 18.42934,-33.90047,0 18.42882,-33.90051,0 18.42861,-33.90056,0 18.42836,-33.9006,0 18.42816,-33.9006,0 18.42788,-33.90065,0 18.42768,-33.90069,0 18.42743,-33.90065,0 18.42739,-33.90027,0 18.42745,-33.89981,0 18.42756,-33.89952,0 18.42762,-33.89929,0 18.42794,-33.89868,0 18.42819,-33.89832,0 18.42831,-33.89804,0 18.42854,-33.89776,0 18.42878,-33.89735,0 18.429,-33.89708,0 18.42923,-33.89676,0 18.42951,-33.89635,0 18.42968,-33.89612,0 18.42997,-33.89576,0 18.43025,-33.89534,0 18.43057,-33.89493,0 18.43077,-33.89464,0 18.43111,-33.89413,0 18.43136,-33.89383,0 18.4317,-33.89337,0 18.4322,-33.89273,0 18.43254,-33.89227,0 18.4331,-33.89154,0 18.43369,-33.89077,0 18.43483,-33.88916,0 18.4354,-33.8884,0 18.43597,-33.88737,0 18.43635,-33.88646,0 18.43655,-33.8857,0 18.4366,-33.88477,0 18.43655,-33.88403,0 18.43624,-33.88307,0 18.43584,-33.88234,0 18.43545,-33.88161,0 18.435,-33.88081,0 18.4346,-33.88016,0 18.43409,-33.87937,0 18.43357,-33.87877,0 18.43311,-33.87811,0 18.43248,-33.87749,0 18.43185,-33.8769,0 18.43111,-33.87643,0 18.43007,-33.87598,0 18.42912,-33.87566,0 18.42819,-33.87546,0 18.42738,-33.87529,0 18.42653,-33.87523,0 18.42542,-33.87515,0 18.4243,-33.8752,0 18.42306,-33.87534,0 18.42233,-33.87543,0 18.42115,-33.87564,0 18.42001,-33.87592,0 18.41898,-33.87616,0 18.41791,-33.87653,0 18.41679,-33.87685,0 18.41583,-33.87718,0 18.41477,-33.87758,0 18.41398,-33.8779,0 18.41286,-33.87835,0 18.41188,-33.87877,0 18.41074,-33.87928,0 18.40988,-33.8797,0 18.40902,-33.88011,0 18.40788,-33.88072,0 18.40698,-33.8812,0 18.40574,-33.88184,0 18.40462,-33.88248,0 18.40359,-33.88309,0 18.40255,-33.88362,0 18.40154,-33.88422,0 18.40067,-33.88467,0 18.3997,-33.88519,0 18.39874,-33.88573,0 18.39767,-33.88632,0 18.39649,-33.88691,0 18.3954,-33.88737,0 18.39408,-33.88783,0 18.39312,-33.88817,0 18.39203,-33.88849,0 18.39071,-33.88891,0 18.38943,-33.88939,0 18.3882,-33.88985,0 18.3873,-33.89026,0 18.38619,-33.89077,0 18.38505,-33.89138,0 18.38405,-33.89191,0 18.38299,-33.89254,0 18.38179,-33.89324,0 18.38087,-33.8938,0 18.3799,-33.89442,0 18.37878,-33.89525,0 18.37767,-33.89603,0 18.37688,-33.89667,0 18.37576,-33.89763,0 18.37475,-33.8985,0 18.37395,-33.89934,0 18.37309,-33.90027,0 18.37234,-33.90111,0 18.37166,-33.90185,0 18.37086,-33.90283,0 18.36998,-33.90385,0 18.36937,-33.90465,0 18.36857,-33.90562,0 18.36788,-33.90656,0 18.36712,-33.90761,0 18.36651,-33.90842,0 18.36572,-33.90953,0 18.3651,-33.91049,0 18.36432,-33.91159,0 18.36359,-33.91261,0 18.3629,-33.91354,0 18.36225,-33.91443,0 18.36146,-33.91553,0 18.36073,-33.91647,0 18.36017,-33.91727,0 18.3595,-33.91832,0 18.35878,-33.91936,0 18.35827,-33.92024,0 18.35775,-33.92117,0 18.3572,-33.92212,0 18.35664,-33.92317,0 18.35608,-33.92422,0 18.35558,-33.92509,0 18.35495,-33.92643,0 18.35457,-33.9272,0 18.35403,-33.92844,0 18.35363,-33.92932,0 18.35318,-33.93044,0 18.35289,-33.93142,0 18.35243,-33.93286,0 18.35216,-33.93388,0 18.35186,-33.935,0 18.35152,-33.93616,0 18.3512,-33.93723,0 18.35087,-33.93842,0 18.35054,-33.93942,0 18.35019,-33.94066,0 18.34974,-33.94189,0 18.34929,-33.94315,0 18.34868,-33.94432,0 18.3482,-33.94515,0 18.34763,-33.94613,0 18.347,-33.94716,0 18.34621,-33.94839,0 18.34549,-33.94949,0 18.34481,-33.95041,0 18.34425,-33.9512,0 18.34358,-33.9521,0 18.34282,-33.9532,0 18.34219,-33.95409,0 18.34145,-33.95506,0 18.34072,-33.95613,0 18.34011,-33.95709,0 18.3391,-33.95851,0 18.33831,-33.95966,0 18.33753,-33.96085,0 18.33607,-33.96302,0 18.33103,-33.97033,0 18.32721,-33.97554,0 18.32577,-33.97773,0 18.32391,-33.98085,0 18.32239,-33.98378,0 18.32088,-33.98662,0 18.31993,-33.98831,0 18.3193,-33.9896,0 18.31776,-33.9924,0 18.31701,-33.99375,0 18.31627,-33.995,0 18.31558,-33.99617,0 18.31472,-33.99743,0 18.31409,-33.99845,0 18.31331,-33.99962,0 18.31238,-34.00096,0 18.31169,-34.00194,0 18.31118,-34.00273,0 18.31029,-34.00397,0 18.30969,-34.00483,0 18.30877,-34.00608,0 18.30799,-34.00726,0 18.30729,-34.00827,0 18.30659,-34.00941,0 18.30608,-34.01014,0 18.30523,-34.01153,0 18.30384,-34.01381,0 18.30311,-34.01495,0 18.30248,-34.01604,0 18.30173,-34.0173,0 18.30099,-34.01865,0 18.30036,-34.01995,0 18.29992,-34.021,0 18.29935,-34.02246,0 18.29893,-34.02377,0 18.29846,-34.02521,0 18.29813,-34.0262,0 18.29779,-34.02745,0 18.29739,-34.02892,0 18.29706,-34.03043,0 18.29683,-34.03143,0 18.29659,-34.03285,0 18.29641,-34.03402,0 18.29618,-34.03537,0 18.29601,-34.03685,0 18.2959,-34.03797,0 18.29571,-34.0394,0 18.29566,-34.04059,0 18.29554,-34.04205,0 18.2955,-34.04319,0 18.29543,-34.04439,0 18.29538,-34.0459,0 18.29533,-34.04724,0 18.29532,-34.04855,0 18.29538,-34.04975,0 18.29544,-34.05124,0 18.2955,-34.05236,0 18.29561,-34.05385,0 18.29571,-34.05524,0 18.29584,-34.05641,0 18.2959,-34.05753,0 18.29607,-34.05887,0 18.29616,-34.06027,0 18.2963,-34.06144,0 18.29644,-34.06274,0 18.2965,-34.06375,0 18.29664,-34.06516,0 18.29681,-34.0687,0 18.29689,-34.06979,0 18.29695,-34.07117,0 18.29706,-34.07254,0 18.29716,-34.07377,0 18.29721,-34.07517,0 18.29733,-34.07642,0 18.29734,-34.07753,0 18.29744,-34.07894,0 18.2975,-34.08028,0 18.29756,-34.08155,0 18.29762,-34.08284,0 18.29767,-34.08406,0 18.2979,-34.08899,0 18.29807,-34.09378,0 18.29813,-34.09774,0 18.29812,-34.10188,0 18.29807,-34.10603,0 18.2979,-34.10873,0 18.29762,-34.11237,0 18.29739,-34.11649,0 18.29716,-34.12037,0 18.2971,-34.12177,0 18.29716,-34.12312,0 18.29716,-34.12423,0 18.29723,-34.12564,0 18.29734,-34.12692,0 18.29745,-34.12839,0 18.2975,-34.12945,0 18.29762,-34.13086,0 18.29779,-34.13224,0 18.29796,-34.13359,0 18.29818,-34.13507,0 18.29836,-34.13625,0 18.29857,-34.13731,0 18.29882,-34.13866,0 18.29907,-34.13983,0 18.29933,-34.14122,0 18.29958,-34.1424,0 18.29986,-34.14359,0 18.30019,-34.14495,0 18.30048,-34.14606,0 18.30087,-34.14743,0 18.30122,-34.14858,0 18.30156,-34.14965,0 18.30199,-34.15105,0 18.30233,-34.15215,0 18.30276,-34.15351,0 18.30317,-34.15457,0 18.30367,-34.15599,0 18.30408,-34.1571,0 18.30451,-34.1581,0 18.305,-34.15933,0 18.3054,-34.1604,0 18.30602,-34.1618,0 18.30647,-34.16281,0 18.30692,-34.16386,0 18.30748,-34.16515,0 18.30799,-34.16615,0 18.3086,-34.16743,0 18.30906,-34.16841,0 18.30972,-34.16968,0 18.31023,-34.17068,0 18.3109,-34.17188,0 18.31141,-34.17279,0 18.31219,-34.17426,0 18.31284,-34.1753,0 18.31343,-34.17636,0 18.3141,-34.17755,0 18.31478,-34.17884,0 18.31541,-34.17996,0 18.31617,-34.1813,0 18.31673,-34.18229,0 18.31729,-34.18332,0 18.31953,-34.18726,0 18.32195,-34.19151,0 18.32385,-34.19495,0 18.32605,-34.19876,0 18.32771,-34.20188,0 18.32949,-34.20538,0 18.33007,-34.20667,0 18.33058,-34.20767,0 18.33102,-34.20872,0 18.33248,-34.21198,0 18.334,-34.21536,0 18.33624,-34.22013,0 18.33842,-34.22502,0 18.34007,-34.2286,0 18.34201,-34.23276,0 18.34341,-34.23605,0 18.34425,-34.23819,0 18.34459,-34.23907,0 18.34504,-34.24017,0 18.34557,-34.24145,0 18.34599,-34.24237,0 18.3466,-34.2436,0 18.34717,-34.24484,0 18.34763,-34.24583,0 18.34814,-34.24704,0 18.3486,-34.24806,0 18.34911,-34.24923,0 18.34963,-34.25047,0 18.35019,-34.25171,0 18.35064,-34.25285,0 18.35123,-34.25412,0 18.35175,-34.25528,0 18.35221,-34.25633,0 18.35283,-34.25779,0 18.35429,-34.26105,0 18.35535,-34.26329,0 18.35581,-34.26426,0 18.35649,-34.26552,0 18.35703,-34.26654,0 18.35754,-34.26741,0 18.35804,-34.26841,0 18.3589,-34.26985,0 18.3595,-34.27094,0 18.36023,-34.27208,0 18.36096,-34.27318,0 18.36163,-34.27419,0 18.36227,-34.27515,0 18.36269,-34.27583,0 18.36359,-34.27716,0 18.36432,-34.27821,0 18.36508,-34.27939,0 18.36572,-34.28036,0 18.36645,-34.28151,0 18.36708,-34.28251,0 18.36765,-34.28344,0 18.36847,-34.28462,0 18.36903,-34.28545,0 18.36992,-34.28673,0 18.37063,-34.28777,0 18.37114,-34.28847,0 18.37194,-34.28959,0 18.37295,-34.29089,0 18.37366,-34.29182,0 18.37497,-34.29346,0 18.37581,-34.29456,0 18.37652,-34.29555,0 18.37716,-34.29648,0 18.3779,-34.29759,0 18.37867,-34.29886,0 18.37929,-34.29996,0 18.38001,-34.30119,0 18.38058,-34.30225,0 18.38139,-34.30374,0 18.38207,-34.30509,0 18.38264,-34.30616,0 18.38332,-34.30737,0 18.38408,-34.30849,0 18.38495,-34.30957,0 18.38573,-34.31049,0 18.38674,-34.31149,0 18.38774,-34.31249,0 18.38865,-34.31337,0 18.38951,-34.31426,0 18.3905,-34.31525,0 18.39145,-34.31616,0 18.39254,-34.31715,0 18.39352,-34.31803,0 18.39509,-34.31955,0 18.39588,-34.32028,0 18.39695,-34.32133,0 18.39784,-34.3222,0 18.40078,-34.32487,0 18.4021,-34.32604,0 18.4053,-34.32869,0 18.40642,-34.32953,0 18.40754,-34.33035,0 18.40838,-34.33099,0 18.40982,-34.33209,0 18.41096,-34.33296,0 18.41194,-34.33372,0 18.41303,-34.33456,0 18.41389,-34.33525,0 18.41494,-34.33598,0 18.41611,-34.33685,0 18.41715,-34.33758,0 18.41841,-34.33851,0 18.41936,-34.33923,0 18.42065,-34.34015,0 18.42166,-34.34088,0 18.42284,-34.3418,0 18.42385,-34.34253,0 18.42536,-34.34358,0 18.42648,-34.34441,0 18.42783,-34.34532,0 18.42916,-34.34633,0 18.43254,-34.34871,0 18.43723,-34.35211,0 18.43826,-34.3529,0 18.43954,-34.35384,0 18.44055,-34.35461,0 18.44167,-34.35544,0 18.44273,-34.3562,0 18.44404,-34.35718,0 18.44507,-34.35788,0 18.44604,-34.35855,0 18.44705,-34.35928,0 18.44822,-34.36007,0 18.44958,-34.36098,0 18.45081,-34.3618,0 18.45215,-34.36263,0 18.45339,-34.3634,0 18.45445,-34.364,0 18.45574,-34.36473,0 18.45692,-34.36542,0 18.45843,-34.3662,0 18.45967,-34.36684,0 18.46095,-34.36748,0 18.46201,-34.36798,0 18.46315,-34.36849,0 18.46464,-34.3691,0 18.46561,-34.36947,0 18.46716,-34.37003,0 18.4683,-34.37041,0 18.46939,-34.37077,0 18.47093,-34.37123,0 18.47208,-34.37152,0 18.47368,-34.37194,0 18.47494,-34.37222,0 18.4762,-34.3725,0 18.47777,-34.37279,0 18.47895,-34.37296,0 18.48055,-34.3731,0 18.48175,-34.37315,0 18.48318,-34.3732,0 18.48483,-34.3732,0 18.48633,-34.3732,0 18.48769,-34.37311,0 18.48915,-34.37297,0 18.49033,-34.37278,0 18.49182,-34.3725,0 18.49285,-34.37228,0 18.49431,-34.37187,0 18.49532,-34.37151,0 18.4966,-34.37091,0 18.49766,-34.37026,0 18.49846,-34.36967,0 18.49915,-34.369,0 18.49997,-34.36812,0 18.50063,-34.36733,0 18.50132,-34.36631,0 18.50182,-34.36546,0 18.50221,-34.36446,0 18.50264,-34.36337,0 18.50294,-34.3623,0 18.50309,-34.36147,0 18.50321,-34.36007,0 18.50316,-34.35915,0 18.50298,-34.3582,0 18.5026,-34.35722,0 18.50212,-34.35639,0 18.50154,-34.35539,0 18.50103,-34.35457,0 18.50058,-34.35387,0 18.49986,-34.35274,0 18.49946,-34.3521,0 18.49885,-34.35114,0 18.49834,-34.35034,0 18.49778,-34.34935,0 18.4972,-34.34834,0 18.4968,-34.3475,0 18.49634,-34.34643,0 18.4961,-34.3456,0 18.49571,-34.34431,0 18.49548,-34.34335,0 18.49532,-34.34253,0 18.49508,-34.34154,0 18.49481,-34.34042,0 18.49464,-34.33946,0 18.49436,-34.33836,0 18.49419,-34.33749,0 18.49394,-34.33661,0 18.49363,-34.33557,0 18.49341,-34.33475,0 18.49319,-34.33395,0 18.49291,-34.3327,0 18.49274,-34.33182,0 18.49262,-34.3309,0 18.49257,-34.33014,0 18.4924,-34.32912,0 18.49228,-34.32855,0 18.49206,-34.32751,0 18.49184,-34.32678,0 18.49165,-34.32608,0 18.49136,-34.3252,0 18.49108,-34.32446,0 18.49062,-34.32334,0 18.49033,-34.32262,0 18.48999,-34.32175,0 18.4896,-34.32079,0 18.48926,-34.32001,0 18.48873,-34.31892,0 18.48837,-34.31818,0 18.48786,-34.31703,0 18.48741,-34.31616,0 18.48696,-34.31524,0 18.48657,-34.31447,0 18.48621,-34.31366,0 18.48584,-34.31277,0 18.48545,-34.31168,0 18.48523,-34.31085,0 18.4849,-34.30979,0 18.48466,-34.30879,0 18.4845,-34.30792,0 18.48427,-34.30705,0 18.48405,-34.30591,0 18.48388,-34.30504,0 18.48364,-34.30374,0 18.48349,-34.30266,0 18.48338,-34.30179,0 18.48324,-34.30067,0 18.48321,-34.29964,0 18.48318,-34.29881,0 18.48321,-34.29781,0 18.48332,-34.29675,0 18.48338,-34.29588,0 18.48349,-34.29492,0 18.4836,-34.29396,0 18.48371,-34.29314,0 18.48382,-34.29208,0 18.48392,-34.2914,0 18.4841,-34.29057,0 18.48433,-34.28945,0 18.4845,-34.28874,0 18.48478,-34.28772,0 18.48507,-34.2867,0 18.48539,-34.2854,0 18.4857,-34.28437,0 18.48595,-34.28348,0 18.48621,-34.2826,0 18.4865,-34.28158,0 18.48674,-34.2805,0 18.48696,-34.27936,0 18.48719,-34.27812,0 18.48724,-34.27739,0 18.48747,-34.2762,0 18.48759,-34.2752,0 18.48769,-34.27432,0 18.48782,-34.2732,0 18.48792,-34.27235,0 18.48804,-34.27124,0 18.4882,-34.27011,0 18.48827,-34.2692,0 18.48839,-34.26808,0 18.48845,-34.26733,0 18.48856,-34.26617,0 18.48865,-34.26498,0 18.48865,-34.26407,0 18.4887,-34.26288,0 18.4887,-34.26196,0 18.4887,-34.26041,0 18.48867,-34.25924,0 18.48867,-34.2583,0 18.48859,-34.25706,0 18.48856,-34.25611,0 18.4885,-34.25509,0 18.4885,-34.25421,0 18.48845,-34.25328,0 18.48842,-34.25235,0 18.48839,-34.25048,0 18.48842,-34.24965,0 18.48845,-34.24876,0 18.48848,-34.24763,0 18.48848,-34.24649,0 18.4885,-34.2448,0 18.48845,-34.24392,0 18.48837,-34.24297,0 18.48825,-34.24182,0 18.48816,-34.24099,0 18.48804,-34.2401,0 18.48792,-34.23894,0 18.4877,-34.23801,0 18.48752,-34.23711,0 18.48724,-34.236,0 18.48696,-34.23509,0 18.48663,-34.23404,0 18.48635,-34.23317,0 18.48601,-34.23221,0 18.48547,-34.23098,0 18.48513,-34.23023,0 18.48461,-34.22911,0 18.48416,-34.22813,0 18.4836,-34.22699,0 18.48321,-34.22612,0 18.48287,-34.22543,0 18.48227,-34.22432,0 18.48181,-34.22342,0 18.48135,-34.2226,0 18.48078,-34.22157,0 18.48013,-34.22049,0 18.47946,-34.21948,0 18.47895,-34.21869,0 18.47833,-34.21783,0 18.47766,-34.21687,0 18.4771,-34.21609,0 18.47643,-34.2151,0 18.47586,-34.21436,0 18.47519,-34.21344,0 18.47454,-34.21254,0 18.47368,-34.21147,0 18.47311,-34.21068,0 18.47245,-34.20978,0 18.47177,-34.20882,0 18.4711,-34.20795,0 18.47054,-34.20717,0 18.46985,-34.20621,0 18.46908,-34.2052,0 18.46848,-34.2044,0 18.4679,-34.20351,0 18.46727,-34.20263,0 18.46662,-34.20168,0 18.46607,-34.20095,0 18.4655,-34.20007,0 18.4647,-34.19886,0 18.46409,-34.19801,0 18.46338,-34.19699,0 18.46286,-34.19623,0 18.46202,-34.19499,0 18.46149,-34.19416,0 18.46081,-34.19313,0 18.46023,-34.1922,0 18.45966,-34.19131,0 18.45909,-34.19043,0 18.45846,-34.1895,0 18.45776,-34.18845,0 18.45709,-34.1874,0 18.45514,-34.18447,0 18.45451,-34.1834,0 18.454,-34.18245,0 18.45354,-34.18149,0 18.45314,-34.18056,0 18.45271,-34.17924,0 18.45243,-34.17819,0 18.45221,-34.17709,0 18.45215,-34.17613,0 18.45211,-34.17516,0 18.45215,-34.17407,0 18.45228,-34.17274,0 18.45243,-34.1716,0 18.4526,-34.17064,0 18.45274,-34.16953,0 18.45291,-34.16864,0 18.45311,-34.16757,0 18.45328,-34.16661,0 18.4535,-34.16556,0 18.45372,-34.16469,0 18.454,-34.16368,0 18.4544,-34.16259,0 18.45485,-34.16158,0 18.45518,-34.16084,0 18.4556,-34.15985,0 18.45602,-34.15901,0 18.45646,-34.15817,0 18.45686,-34.15746,0 18.45737,-34.15645,0 18.45778,-34.15575,0 18.45818,-34.155,0 18.45881,-34.15398,0 18.45922,-34.15324,0 18.45983,-34.15219,0 18.46028,-34.15141,0 18.46079,-34.15059,0 18.46132,-34.14965,0 18.46184,-34.14872,0 18.46235,-34.1477,0 18.46286,-34.14684,0 18.46327,-34.14602,0 18.46384,-34.145,0 18.46441,-34.14383,0 18.46487,-34.14295,0 18.46533,-34.14197,0 18.46579,-34.14109,0 18.46639,-34.14001,0 18.46682,-34.13918,0 18.4674,-34.13814,0 18.46802,-34.13704,0 18.46842,-34.13629,0 18.46916,-34.13494,0 18.4697,-34.13379,0 18.47026,-34.13269,0 18.47082,-34.13145,0 18.47132,-34.13031,0 18.47183,-34.12917,0 18.47222,-34.12834,0 18.47271,-34.1273,0 18.47322,-34.12619,0 18.47374,-34.12512,0 18.47425,-34.12405,0 18.47469,-34.12312,0 18.47508,-34.12225,0 18.47546,-34.1214,0 18.47597,-34.12018,0 18.47631,-34.11923,0 18.47665,-34.11823,0 18.477,-34.11716,0 18.47727,-34.11607,0 18.47755,-34.11511,0 18.4778,-34.11395,0 18.47797,-34.11297,0 18.47822,-34.11168,0 18.47832,-34.11069,0 18.4785,-34.10957,0 18.47861,-34.10861,0 18.47872,-34.10738,0 18.47878,-34.1064,0 18.47889,-34.10515,0 18.479,-34.10403,0 18.47912,-34.10305,0 18.47918,-34.10217,0 18.47929,-34.10082,0 18.4794,-34.09979,0 18.47952,-34.09877,0 18.47958,-34.09756,0 18.47968,-34.09625,0 18.47975,-34.09495,0 18.47986,-34.09374,0 18.47998,-34.09039,0 18.48015,-34.0869,0 18.48024,-34.08334,0 18.48018,-34.08092,0 18.48021,-34.07936,0 18.48024,-34.07831,0 18.48029,-34.0773,0 18.48032,-34.07605,0 18.48038,-34.07494,0 18.48041,-34.07382,0 18.48041,-34.07281,0 18.48046,-34.07153,0 18.48049,-34.07061,0 18.48049,-34.06949,0 18.48055,-34.0686,0 18.48063,-34.0676,0 18.48069,-34.06636,0 18.48083,-34.06353,0 18.48089,-34.05999,0 18.48074,-34.05927,0 18.48057,-34.05803,0 18.48035,-34.05707,0 18.48013,-34.05592,0 18.4799,-34.05492,0 18.47975,-34.05399,0 18.47945,-34.05263,0 18.47928,-34.05185,0 18.479,-34.05052,0 18.47884,-34.04956,0 18.47866,-34.04854,0 18.47839,-34.04736,0 18.4782,-34.04631,0 18.47797,-34.04538,0 18.47777,-34.04411,0 18.47763,-34.043,0 18.47749,-34.04201,0 18.47729,-34.04081,0 18.47721,-34.03986,0 18.47704,-34.03867,0 18.47694,-34.03774,0 18.47687,-34.03661,0 18.47677,-34.0356,0 18.47672,-34.03448,0 18.47665,-34.0334,0 18.4766,-34.03252,0 18.47654,-34.03175,0 18.47643,-34.03062,0 18.47643,-34.02969,0 18.47631,-34.02838,0 18.47626,-34.02745,0 18.4762,-34.02647,0 18.47614,-34.02562,0 18.47603,-34.02443,0 18.47598,-34.02351,0 18.47591,-34.02256,0 18.47575,-34.0204,0 18.47569,-34.01926,0 18.47564,-34.01839,0 18.47558,-34.01747,0 18.47547,-34.01642,0 18.4754,-34.01544,0 18.47534,-34.01432,0 18.4753,-34.01317,0 18.47528,-34.01232,0 18.47525,-34.01115,0 18.47525,-34.00969,0 18.47523,-34.00874,0 18.47525,-34.00763,0 18.4753,-34.0063,0 18.47536,-34.00511,0 18.47542,-34.00433,0 18.47547,-34.00301,0 18.47547,-34.00214,0 18.47551,-34.00129,0 18.47553,-34.00017,0 18.47564,-33.9993,0 18.47586,-33.99808,0 18.47614,-33.99696,0 18.47631,-33.99612,0 18.47649,-33.99491,0 18.47654,-33.99379,0 18.47654,-33.9928,0 18.47654,-33.99188,0 18.47648,-33.99074,0 18.47643,-33.98969,0 18.47637,-33.98849,0 18.47637,-33.9877,0 18.47631,-33.98653,0 18.47631,-33.98555,0 18.47626,-33.9847,0 18.47614,-33.98374,0 18.47603,-33.98253,0 18.47592,-33.98167,0 18.4758,-33.98057,0 18.4757,-33.97971,0 18.47558,-33.97833,0 18.47547,-33.97728,0 18.47542,-33.97623,0 18.47542,-33.97508,0 18.47546,-33.97396,0 18.47557,-33.97317,0 18.47581,-33.97197,0 18.47603,-33.97122,0 18.47637,-33.97037,0 18.47682,-33.96941,0 18.47723,-33.96861,0 18.47775,-33.96759,0 18.47815,-33.96684,0 18.47855,-33.96591,0 18.479,-33.96493,0 18.47935,-33.96419,0 18.4798,-33.96326,0 18.48013,-33.96245,0 18.48041,-33.96176,0 18.48078,-33.96083,0 18.48112,-33.95981,0 18.48125,-33.9592,0 18.48136,-33.95815,0 18.48136,-33.95718,0 18.48118,-33.95632,0 18.48091,-33.95544,0 18.48063,-33.95471,0 18.48026,-33.95399,0 18.47992,-33.9532,0 18.47958,-33.95246,0 18.47923,-33.95169,0 18.47895,-33.951,0 18.47872,-33.95032,0 18.47837,-33.94948,0 18.47805,-33.94872,0 18.47771,-33.94789,0 18.47746,-33.94729,0 18.4771,-33.94643,0 18.47666,-33.94543,0 18.47631,-33.94469,0 18.47598,-33.94395,0 18.47564,-33.94327,0 18.47523,-33.94245,0 18.47483,-33.9418,0 18.47441,-33.94093,0 18.47413,-33.94038,0 18.47374,-33.93965,0 18.47329,-33.93874,0 18.47295,-33.9381,0 18.47265,-33.93742,0 18.47222,-33.93658,0 18.47191,-33.93593,0 18.47149,-33.93526,0 18.47111,-33.93467,0 18.47048,-33.93379,0 18.47008,-33.93318,0 18.46959,-33.93246,0 18.46905,-33.93174,0 18.46842,-33.93095,0 18.46796,-33.9304,0 18.46722,-33.92941,0 18.46662,-33.92862,0 18.46619,-33.92802,0 18.46555,-33.92725,0 18.46493,-33.92648,0 18.46449,-33.92587,0 18.46387,-33.92509,0 18.46338,-33.92443,0 18.46269,-33.92354,0 18.46213,-33.92276,0 18.46149,-33.92192,0 18.46095,-33.92125,0 18.46045,-33.92056,0 18.45983,-33.91974,0 18.45926,-33.91903,0 18.45869,-33.91824,0 18.45812,-33.9175,0 18.45749,-33.91661,0 18.45709,-33.9161,0 18.4564,-33.91521,0 18.4558,-33.91443,0 18.45526,-33.91372,0 18.45468,-33.91292,0 18.45417,-33.91224,0 18.45366,-33.91144,0 18.45305,-33.91068,0 18.4526,-33.91003,0 18.4521,-33.90926,0 18.45171,-33.90865,0 18.45119,-33.90786,0 18.45079,-33.90721,0 18.45047,-33.90669,0 18.44991,-33.90582,0 18.44954,-33.9053,0 18.44885,-33.9044,0 18.44834,-33.90381,0 18.44773,-33.90303,0 18.44725,-33.90246,0 18.44661,-33.90166,0 18.44616,-33.90111,0 18.44565,-33.90028,0 18.44519,-33.89952,0 18.44479,-33.89878,0 18.44425,-33.89781,0 18.44364,-33.89669,0 18.4433,-33.89608,0 18.44284,-33.89524,0 18.44251,-33.89456,0 18.44218,-33.89388,0 18.44181,-33.8931,0 18.44152,-33.8925,0 18.44112,-33.89175,0 18.44078,-33.89104,0 18.44044,-33.8904,0 18.43999,-33.88957,0 18.43966,-33.88884,0 18.43929,-33.88821,0 18.43893,-33.88765,0 18.43848,-33.88678,0 18.43809,-33.88617,0 18.43775,-33.88547,0 18.4373,-33.88454,0 18.43691,-33.8838,0 18.4366,-33.88319,0 18.43624,-33.88252,0 18.4359,-33.88179,0 18.43551,-33.88106,0 18.43512,-33.88034,0 18.43467,-33.8795,0 18.43426,-33.87881,0 18.43382,-33.87794,0 18.43355,-33.8774,0 18.43321,-33.87662,0 18.43277,-33.87579,0 18.43248,-33.87513,0 18.43208,-33.87425,0 18.4317,-33.8735,0 18.43136,-33.87286,0 18.43105,-33.87215,0 18.43063,-33.87131,0 18.43037,-33.87066,0 18.42996,-33.86984,0 18.42968,-33.86929,0 18.42928,-33.86852,0 18.42894,-33.86782,0 18.42844,-33.86696,0 18.42802,-33.86643,0 18.42756,-33.86591,0 18.42699,-33.86554,0 18.42607,-33.86531,0 18.42542,-33.8654,0 18.42476,-33.86573,0 18.42435,-33.86618,0 18.42407,-33.86696,0 18.42396,-33.86765,0 18.42396,-33.86824,0 18.42402,-33.86884,0 18.42419,-33.86945,0 18.42436,-33.86996,0 18.42463,-33.87062,0 18.42482,-33.87108,0 18.4251,-33.87159,0 18.42539,-33.87229,0 18.42573,-33.87294,0 18.42598,-33.87346,0 18.4263,-33.87397,0 18.42671,-33.87465,0 18.42705,-33.87532,0 18.42733,-33.87579,0 18.42762,-33.8763,0 18.42791,-33.8769,0 18.42819,-33.87751,0 18.42842,-33.87797,0 18.42872,-33.87859,0 18.42889,-33.87904,0 18.42916,-33.87965,0 18.42945,-33.88021,0 18.42974,-33.88081,0 18.42991,-33.88118,0 18.43025,-33.88179,0 18.43054,-33.88221,0 18.43085,-33.88266,0 18.4314,-33.88319,0 18.43191,-33.88351,0 18.43237,-33.88376,0 18.4331,-33.88408,0 18.4338,-33.8844,0 18.43437,-33.88463,0 18.43506,-33.88496,0 18.43586,-33.88528,0 18.43649,-33.8856,0 18.43708,-33.88591,0 18.43792,-33.88631,0 18.43865,-33.88673,0 18.43954,-33.88724,0 18.44038,-33.88779,0 18.44111,-33.88824,0 18.44184,-33.88884,0 18.44244,-33.88938,0 18.44285,-33.88994,0 18.44324,-33.89068,0 18.44341,-33.89133,0 18.44352,-33.89204,0 18.44352,-33.89287,0 18.44341,-33.89351,0 18.44313,-33.89431,0 18.44291,-33.89479,0 18.44261,-33.89538,0 18.44234,-33.89584,0 18.44218,-33.89626,0 18.44195,-33.89667,0 18.44179,-33.89703,0 18.44158,-33.89762,0 18.44147,-33.89804,0 18.4413,-33.89846,0 18.44111,-33.89886,0 18.4409,-33.89915,0 18.44061,-33.89962,0 18.44032,-33.8999,0 18.43988,-33.90028,0 18.43949,-33.90051,0 18.43904,-33.9007,0 18.43866,-33.90078,0 18.43815,-33.90092,0 18.43769,-33.90102,0 18.43719,-33.90111,0 18.43668,-33.90115,0 18.4362,-33.9012,0 18.43557,-33.90125,0 18.43523,-33.90125,0 18.43472,-33.90125,0 18.43426,-33.90125,0 18.43399,-33.90125,0 18.4336,-33.9012,0 18.43321,-33.90115,0 18.43287,-33.90115,0 18.43248,-33.90111,0 18.4322,-33.90106,0 18.43191,-33.90102,0 18.4317,-33.90097,0 18.4314,-33.90092,0 18.43108,-33.90092,0 18.43071,-33.90088,0 18.43025,-33.90083,0 18.42991,-33.90074,0 18.42968,-33.9007,0 18.42945,-33.9007,0 18.42923,-33.90065,0 18.429,-33.9006,0 18.42878,-33.90056,0 18.4285,-33.9006,0 18.42828,-33.9006,0 18.42794,-33.90065,0 18.42773,-33.90069,0 18.42749,-33.9007,0 18.42756,-33.89994,0 18.4276,-33.89964,0 18.42772,-33.89928,0 18.42783,-33.89882,0 18.42822,-33.8979,0 18.42831,-33.89762,0 18.42848,-33.89734,0 18.42859,-33.89706,0 18.42876,-33.89678,0 18.42894,-33.8965,0 18.42917,-33.89607,0 18.42951,-33.89543,0 18.42968,-33.89516,0 18.42985,-33.89484,0 18.43008,-33.8945,0 18.43031,-33.89417,0 18.43085,-33.89333,0 18.4313,-33.89273,0 18.43208,-33.8918,0 18.43254,-33.89128,0 18.43328,-33.89054,0 18.43394,-33.8898,0 18.43456,-33.88907,0 18.43511,-33.88838,0 18.43551,-33.88783,0 18.43612,-33.88692,0 18.43666,-33.88602,0 18.43696,-33.88518,0 18.43713,-33.88431,0 18.43719,-33.88339,0 18.43696,-33.88239,0 18.4368,-33.88174,0 18.43649,-33.88095,0 18.43609,-33.88016,0 18.43573,-33.8795,0 18.43529,-33.87881,0 18.43477,-33.87816,0 18.4341,-33.87744,0 18.43355,-33.87703,0 18.43288,-33.87662,0 18.43226,-33.87634,0 18.4313,-33.87611,0 18.43057,-33.87602,0 18.42968,-33.87602,0 18.42912,-33.87602,0 18.42811,-33.87621,0 18.42733,-33.87634,0 18.4267,-33.87648,0 18.42564,-33.87666,0 18.42487,-33.87676,0 18.4239,-33.87695,0 18.42306,-33.87708,0 18.42201,-33.87723,0 18.42116,-33.87735,0 18.42026,-33.87749,0 18.41927,-33.8776,0 18.41841,-33.87774,0 18.41735,-33.8779,0 18.41634,-33.87808,0 18.41561,-33.87822,0 18.41438,-33.8784,0 18.41348,-33.87859,0 18.41246,-33.87877,0 18.41131,-33.879,0 18.41017,-33.87923,0 18.40925,-33.87946,0 18.40822,-33.8797,0 18.40731,-33.87997,0 18.40645,-33.88021,0 18.40529,-33.88055,0 18.40412,-33.88092,0 18.40313,-33.88123,0 18.40227,-33.88147,0 18.40109,-33.88188,0 18.39993,-33.88226,0 18.39902,-33.88252,0 18.39806,-33.88284,0 18.39705,-33.88321,0 18.39621,-33.88353,0 18.39492,-33.88408,0 18.3938,-33.88458,0 18.393,-33.885,0 18.39191,-33.88556,0 18.391,-33.88609,0 18.39016,-33.8866,0 18.38904,-33.88733,0 18.3882,-33.88788,0 18.38719,-33.88852,0 18.38619,-33.88924,0 18.38533,-33.8898,0 18.3843,-33.8905,0 18.38332,-33.89113,0 18.3823,-33.89189,0 18.38147,-33.89255,0 18.38058,-33.89324,0 18.37978,-33.89389,0 18.37906,-33.89452,0 18.37816,-33.89534,0 18.37699,-33.89635,0 18.37626,-33.89703,0 18.37538,-33.8979,0 18.37463,-33.89868,0 18.37395,-33.89934,0 18.37306,-33.90028,0 18.37234,-33.90111,0 18.37149,-33.90207,0 18.37069,-33.90297,0 18.37011,-33.90362,0 18.36914,-33.90482,0 18.36845,-33.90558,0 18.36774,-33.90646,0 18.3669,-33.90756,0 18.36606,-33.90866,0 18.36559,-33.9093,0 18.36468,-33.91061,0 18.36393,-33.91159,0 18.36325,-33.91246,0 18.36262,-33.91335,0 18.36182,-33.91442,0 18.36113,-33.9154,0 18.36045,-33.9164,0 18.35984,-33.91731,0 18.35907,-33.91843,0 18.35838,-33.91956,0 18.35775,-33.92061,0 18.35726,-33.92148,0 18.35678,-33.92229,0 18.35619,-33.92345,0 18.35564,-33.92466,0 18.35524,-33.92541,0 18.35461,-33.92676,0 18.35421,-33.92774,0 18.35375,-33.9289,0 18.35335,-33.92997,0 18.35295,-33.931,0 18.35249,-33.93233,0 18.35216,-33.93347,0 18.35193,-33.93416,0 18.35157,-33.93565,0 18.35129,-33.93663,0 18.35098,-33.93791,0 18.3507,-33.93901,0 18.35042,-33.94011,0 18.35009,-33.94128,0 18.34975,-33.94249,0 18.34934,-33.94366,0 18.34896,-33.94455,0 18.34843,-33.9458,0 18.34795,-33.9467,0 18.3474,-33.9478,0 18.34677,-33.94883,0 18.34621,-33.94972,0 18.34551,-33.95078,0 18.34492,-33.95164,0 18.34409,-33.95284,0 18.34336,-33.95389,0 18.34276,-33.95469,0 18.34212,-33.95558,0 18.34128,-33.95673,0 18.34047,-33.95781,0 18.33973,-33.95893,0 18.33904,-33.9599,0 18.33786,-33.96172,0 18.33719,-33.96263,0 18.3345,-33.96666,0 18.33138,-33.97136,0 18.32788,-33.97643,0 18.3243,-33.98145,0 18.32176,-33.98513,0 18.31919,-33.98904,0 18.3169,-33.99258,0 18.31501,-33.99547,0 18.31312,-33.99854,0 18.31118,-34.00182,0 18.30929,-34.00525,0 18.30759,-34.00822,0 18.30642,-34.01024,0 18.30557,-34.01153,0 18.30477,-34.01274,0 18.30412,-34.01367,0 18.30339,-34.01469,0 18.30255,-34.01591,0 18.30193,-34.01692,0 18.30128,-34.01786,0 18.30059,-34.01898,0 18.2999,-34.02014,0 18.2993,-34.02132,0 18.29885,-34.02237,0 18.29847,-34.02322,0 18.29795,-34.02466,0 18.29756,-34.02585,0 18.29721,-34.02694,0 18.29687,-34.02796,0 18.2965,-34.02937,0 18.29618,-34.03048,0 18.29594,-34.03148,0 18.29566,-34.03276,0 18.29538,-34.03381,0 18.29521,-34.03491,0 18.29498,-34.03601,0 18.29475,-34.0376,0 18.29458,-34.0389,0 18.29447,-34.03988,0 18.29435,-34.04128,0 18.2943,-34.04272,0 18.29424,-34.04379,0 18.2942,-34.04507,0 18.2942,-34.0464,0 18.29418,-34.04756,0 18.29424,-34.04887,0 18.29431,-34.05006,0 18.29441,-34.05119,0 18.29458,-34.05231,0 18.29475,-34.05362,0 18.29498,-34.05478,0 18.29521,-34.05603,0 18.29544,-34.05711,0 18.29571,-34.05821,0 18.29601,-34.05976,0 18.29627,-34.06096,0 18.29653,-34.06227,0 18.29676,-34.06339,0 18.29699,-34.06446,0 18.29723,-34.06572,0 18.2975,-34.06683,0 18.29773,-34.06786,0 18.29807,-34.06935,0 18.29859,-34.07158,0 18.29879,-34.07263,0 18.29899,-34.07382,0 18.2991,-34.07507,0 18.29924,-34.07639,0 18.29927,-34.0775,0 18.29935,-34.07858,0 18.29945,-34.07982,0 18.29952,-34.08119,0 18.29956,-34.08243,0 18.29962,-34.08387,0 18.29969,-34.08499,0 18.29973,-34.08639,0 18.29973,-34.08769,0 18.29979,-34.08876,0 18.30003,-34.09282,0 18.30008,-34.09542,0 18.30008,-34.09676,0 18.30008,-34.09818,0 18.30008,-34.09896,0 18.29997,-34.10275,0 18.29996,-34.10394,0 18.2999,-34.10529,0 18.29986,-34.1066,0 18.29975,-34.10788,0 18.29962,-34.10929,0 18.29956,-34.11059,0 18.29945,-34.11185,0 18.29939,-34.11292,0 18.2993,-34.11447,0 18.29922,-34.11548,0 18.29922,-34.11665,0 18.29919,-34.118,0 18.29924,-34.11932,0 18.29933,-34.1206,0 18.29941,-34.12175,0 18.2995,-34.12288,0 18.29958,-34.12418,0 18.29969,-34.1256,0 18.29979,-34.12675,0 18.29985,-34.12796,0 18.29997,-34.12921,0 18.30013,-34.13047,0 18.3003,-34.13177,0 18.30042,-34.13297,0 18.30059,-34.13406,0 18.30081,-34.13525,0 18.30109,-34.13663,0 18.30128,-34.13764,0 18.30151,-34.1389,0 18.30182,-34.14056,0 18.30205,-34.1418,0 18.30221,-34.14262,0 18.30244,-34.14377,0 18.30272,-34.145,0 18.30362,-34.14949,0 18.30425,-34.1517,0 18.30462,-34.15297,0 18.30502,-34.15416,0 18.30534,-34.15519,0 18.30568,-34.15617,0 18.30608,-34.15718,0 18.30653,-34.15833,0 18.30694,-34.15933,0 18.30748,-34.16071,0 18.30787,-34.16162,0 18.30821,-34.16235,0 18.30883,-34.16373,0 18.30917,-34.1645,0 18.30975,-34.16566,0 18.3104,-34.16689,0 18.31085,-34.1678,0 18.31141,-34.16892,0 18.31202,-34.17009,0 18.31255,-34.17107,0 18.31306,-34.172,0 18.31369,-34.17311,0 18.31432,-34.1743,0 18.31484,-34.1753,0 18.3153,-34.17619,0 18.31593,-34.1773,0 18.31758,-34.18047,0 18.3201,-34.18501,0 18.32195,-34.18822,0 18.32413,-34.19179,0 18.32554,-34.19406,0 18.32708,-34.19672,0 18.32878,-34.19966,0 18.33029,-34.20221,0 18.33206,-34.20528,0 18.33252,-34.20617,0 18.33315,-34.20731,0 18.33372,-34.2084,0 18.33416,-34.20937,0 18.33475,-34.21054,0 18.33532,-34.21166,0 18.33579,-34.2128,0 18.3363,-34.21389,0 18.33669,-34.21481,0 18.33721,-34.21603,0 18.33769,-34.21715,0 18.33813,-34.21817,0 18.33859,-34.21921,0 18.33904,-34.22032,0 18.34055,-34.22374,0 18.34212,-34.22713,0 18.34356,-34.23014,0 18.34517,-34.23354,0 18.34717,-34.2374,0 18.3486,-34.2401,0 18.35026,-34.24299,0 18.35205,-34.24612,0 18.35305,-34.24786,0 18.35541,-34.25151,0 18.35759,-34.25482,0 18.35924,-34.25742,0 18.36146,-34.26077,0 18.36359,-34.26398,0 18.36426,-34.26489,0 18.36491,-34.26575,0 18.3655,-34.26649,0 18.36628,-34.26741,0 18.3669,-34.2681,0 18.36763,-34.26892,0 18.3683,-34.26961,0 18.36903,-34.27036,0 18.36971,-34.27111,0 18.37029,-34.27166,0 18.37093,-34.27235,0 18.37222,-34.27368,0 18.37343,-34.27492,0 18.40027,-34.29201,0 18.4041,-34.29364,0 18.40703,-34.29492,0 18.41177,-34.29704,0 18.41538,-34.29877,0 18.41998,-34.30096,0 18.42127,-34.30155,0 18.42233,-34.30202,0 18.4234,-34.30247,0 18.42447,-34.30293,0 18.42579,-34.3035,0 18.4271,-34.30403,0 18.42848,-34.30462,0 18.42957,-34.30504,0 18.43074,-34.30554,0 18.43185,-34.30593,0 18.43338,-34.3065,0 18.43489,-34.30709,0 18.43607,-34.30751,0 18.43719,-34.30792,0 18.43861,-34.3084,0 18.43982,-34.30879,0 18.44101,-34.30919,0 18.44246,-34.30971,0 18.44376,-34.31016,0 18.4452,-34.31067,0 18.44672,-34.31122,0 18.44805,-34.3117,0 18.44941,-34.31223,0 18.45062,-34.31268,0 18.45188,-34.31324,0 18.45303,-34.31379,0 18.45428,-34.31447,0 18.45566,-34.31524,0 18.45692,-34.31603,0 18.45798,-34.31667,0 18.45905,-34.31731,0 18.46006,-34.31799,0 18.46104,-34.31868,0 18.46196,-34.31937,0 18.46292,-34.32005,0 18.46418,-34.32106,0 18.46499,-34.32175,0 18.46601,-34.32259,0 18.46699,-34.32338,0 18.4679,-34.32418,0 18.46903,-34.32509,0 18.46992,-34.32591,0 18.47071,-34.32664,0 18.47157,-34.32743,0 18.47261,-34.32838,0 18.47334,-34.32906,0 18.47425,-34.32995,0 18.47514,-34.3309,0 18.47586,-34.33163,0 18.47666,-34.3326,0 18.47732,-34.33333,0 18.47805,-34.3342,0 18.47883,-34.33507,0 18.47962,-34.33585,0 18.48052,-34.33676,0 18.48119,-34.3374,0 18.48186,-34.33818,0 18.48267,-34.33902,0 18.48352,-34.34,0 18.48421,-34.34079,0 18.4849,-34.34159,0 18.48562,-34.34225,0 18.48633,-34.34284,0 18.48747,-34.34349,0 18.48862,-34.34382,0 18.4896,-34.34386,0 18.49055,-34.34372,0 18.49133,-34.34344,0 18.49222,-34.3428,0 18.49262,-34.34224,0 18.49296,-34.34143,0 18.49307,-34.3407,0 18.49319,-34.33992,0 18.49325,-34.33912,0 18.49325,-34.33828,0 18.49319,-34.33758,0 18.49319,-34.33667,0 18.49313,-34.33575,0 18.49302,-34.33498,0 18.4929,-34.33424,0 18.49285,-34.33337,0 18.49274,-34.33264,0 18.49262,-34.33168,0 18.49251,-34.33095,0 18.4924,-34.3299,0 18.49229,-34.32875,0 18.49216,-34.32804,0 18.49211,-34.32725,0 18.49201,-34.32614,0 18.49182,-34.32334,0 18.49173,-34.32024,0 18.49173,-34.31946,0 18.49171,-34.31799,0 18.49171,-34.3171,0 18.49171,-34.31607,0 18.49167,-34.31291,0 18.49156,-34.3103,0 18.49131,-34.30751,0 18.49125,-34.30625,0 18.49117,-34.3054,0 18.49113,-34.30453,0 18.49111,-34.30376,0 18.49108,-34.30276,0 18.49108,-34.30183,0 18.49102,-34.30118,0 18.49102,-34.30011,0 18.491,-34.29932,0 18.491,-34.29822,0 18.49102,-34.29718,0 18.49102,-34.29634,0 18.49111,-34.29501,0 18.49113,-34.2942,0 18.49128,-34.29144,0 18.49136,-34.29038,0 18.49145,-34.28943,0 18.4915,-34.28856,0 18.49156,-34.28741,0 18.49184,-34.28444,0 18.49201,-34.28156,0 18.49216,-34.27739,0 18.49228,-34.27432,0 18.49234,-34.27329,0 18.49246,-34.27226,0 18.49257,-34.27144,0 18.49268,-34.27031,0 18.49279,-34.26948,0 18.49285,-34.26864,0 18.49297,-34.26752,0 18.49307,-34.26645,0 18.49313,-34.26549,0 18.49313,-34.2648,0 18.49313,-34.2637,0 18.49313,-34.26292,0 18.49307,-34.26178,0 18.49302,-34.26072,0 18.49296,-34.25981,0 18.49285,-34.25886,0 18.49279,-34.2578,0 18.49268,-34.25695,0 18.49257,-34.2557,0 18.49245,-34.25481,0 18.49228,-34.25397,0 18.49211,-34.25304,0 18.49188,-34.25193,0 18.49167,-34.25098,0 18.49148,-34.25006,0 18.49128,-34.24915,0 18.49108,-34.2482,0 18.49089,-34.24727,0 18.49066,-34.24626,0 18.49051,-34.24546,0 18.49022,-34.2442,0 18.48999,-34.24336,0 18.48977,-34.24251,0 18.48954,-34.24168,0 18.48926,-34.24086,0 18.4889,-34.23973,0 18.48856,-34.23875,0 18.48822,-34.23773,0 18.48787,-34.2368,0 18.48764,-34.236,0 18.4873,-34.23507,0 18.48708,-34.23413,0 18.48674,-34.23299,0 18.4865,-34.23205,0 18.48621,-34.23088,0 18.48598,-34.23005,0 18.4857,-34.22921,0 18.48534,-34.22836,0 18.48484,-34.22725,0 18.48444,-34.22646,0 18.48388,-34.22552,0 18.48343,-34.22479,0 18.48289,-34.22385,0 18.48232,-34.22306,0 18.48181,-34.22232,0 18.48113,-34.22141,0 18.48057,-34.22067,0 18.48009,-34.22004,0 18.4794,-34.21916,0 18.47878,-34.21836,0 18.47803,-34.21743,0 18.47752,-34.21673,0 18.47683,-34.2158,0 18.47631,-34.21513,0 18.47563,-34.21422,0 18.475,-34.21338,0 18.47443,-34.21254,0 18.47385,-34.2117,0 18.47329,-34.21092,0 18.47273,-34.21005,0 18.47104,-34.20753,0 18.47009,-34.20602,0 18.46903,-34.20428,0 18.46859,-34.20361,0 18.46785,-34.20245,0 18.4663,-34.19993,0 18.46561,-34.19881,0 18.46407,-34.19625,0 18.46252,-34.19345,0 18.46095,-34.19096,0 18.46039,-34.19019,0 18.45972,-34.18918,0 18.45903,-34.1882,0 18.45858,-34.18755,0 18.45782,-34.18652,0 18.45726,-34.1857,0 18.45664,-34.18474,0 18.45606,-34.18368,0 18.45557,-34.18277,0 18.45518,-34.18185,0 18.45474,-34.18061,0 18.4544,-34.17968,0 18.45406,-34.17851,0 18.45377,-34.17735,0 18.4535,-34.17613,0 18.45333,-34.17485,0 18.4532,-34.17405,0 18.45305,-34.1727,0 18.45297,-34.17134,0 18.45288,-34.17032,0 18.4528,-34.16911,0 18.45271,-34.16812,0 18.45266,-34.16707,0 18.45257,-34.1659,0 18.45255,-34.16469,0 18.45245,-34.16352,0 18.45243,-34.16254,0 18.4524,-34.16138,0 18.45234,-34.16045,0 18.45227,-34.15947,0 18.45217,-34.15826,0 18.452,-34.15715,0 18.45182,-34.15626,0 18.45148,-34.15512,0 18.45119,-34.15417,0 18.45079,-34.15319,0 18.45045,-34.15231,0 18.44999,-34.15137,0 18.44942,-34.15026,0 18.44891,-34.14937,0 18.44829,-34.14835,0 18.44784,-34.14766,0 18.44713,-34.14667,0 18.44655,-34.14592,0 18.44576,-34.14495,0 18.44513,-34.14416,0 18.4445,-34.14323,0 18.4438,-34.14212,0 18.44336,-34.14141,0 18.44285,-34.1407,0 18.44198,-34.13987,0 18.44135,-34.13946,0 18.44038,-34.13892,0 18.43966,-34.1386,0 18.43853,-34.13818,0 18.43769,-34.13786,0 18.43683,-34.13759,0 18.43551,-34.13727,0 18.4346,-34.13708,0 18.43357,-34.13685,0 18.43237,-34.13663,0 18.43117,-34.13634,0 18.42996,-34.13603,0 18.42882,-34.13573,0 18.42755,-34.13539,0 18.42659,-34.13516,0 18.42519,-34.1348,0 18.42407,-34.13452,0 18.42321,-34.13429,0 18.42161,-34.13387,0 18.42076,-34.13365,0 18.41898,-34.13317,0 18.41789,-34.13289,0 18.4164,-34.13252,0 18.41417,-34.13201,0 18.41034,-34.13113,0 18.40642,-34.13013,0 18.40519,-34.12977,0 18.40417,-34.12944,0 18.40279,-34.12898,0 18.40164,-34.12856,0 18.40044,-34.12819,0 18.39935,-34.12782,0 18.39804,-34.1274,0 18.39661,-34.12693,0 18.39575,-34.1267,0 18.39431,-34.12624,0 18.39313,-34.12587,0 18.3919,-34.1255,0 18.38957,-34.12474,0 18.38865,-34.12436,0 18.38753,-34.12395,0 18.38624,-34.12349,0 18.385,-34.12312,0 18.38379,-34.12275,0 18.38253,-34.12237,0 18.38142,-34.12207,0 18.38035,-34.1218,0 18.37933,-34.12158,0 18.37818,-34.1213,0 18.37721,-34.12111,0 18.37615,-34.12093,0 18.37519,-34.1207,0 18.37385,-34.12042,0 18.37273,-34.12019,0 18.37137,-34.1199,0 18.37034,-34.11963,0 18.36897,-34.11928,0 18.36782,-34.11897,0 18.36674,-34.11865,0 18.36565,-34.11832,0 18.36456,-34.118,0 18.36314,-34.11763,0 18.36146,-34.11713,0 18.36034,-34.11681,0 18.3589,-34.11641,0 18.35771,-34.11603,0 18.3563,-34.11552,0 18.35489,-34.11492,0 18.35384,-34.11443,0 18.35249,-34.11378,0 18.35157,-34.11329,0 18.35053,-34.11273,0 18.34951,-34.11217,0 18.34826,-34.11143,0 18.34728,-34.11086,0 18.34642,-34.11031,0 18.34549,-34.10976,0 18.34425,-34.10898,0 18.34293,-34.10817,0 18.34208,-34.10761,0 18.3411,-34.10696,0 18.33999,-34.10623,0 18.33898,-34.1055,0 18.33801,-34.10482,0 18.33697,-34.10403,0 18.33607,-34.10338,0 18.33534,-34.1028,0 18.33429,-34.10194,0 18.33338,-34.10114,0 18.33258,-34.10049,0 18.33142,-34.0995,0 18.33052,-34.09877,0 18.32973,-34.09813,0 18.32869,-34.09719,0 18.328,-34.09663,0 18.32703,-34.09579,0 18.32632,-34.09511,0 18.32553,-34.09438,0 18.32486,-34.09369,0 18.32399,-34.09286,0 18.32335,-34.09218,0 18.3225,-34.09135,0 18.32172,-34.09048,0 18.32077,-34.08948,0 18.32021,-34.08879,0 18.31953,-34.08802,0 18.31875,-34.0871,0 18.31804,-34.08625,0 18.3174,-34.08545,0 18.31661,-34.08466,0 18.31581,-34.08383,0 18.31507,-34.08303,0 18.31421,-34.0822,0 18.31337,-34.08138,0 18.31264,-34.0806,0 18.31191,-34.07982,0 18.31118,-34.07908,0 18.3104,-34.07817,0 18.30963,-34.07726,0 18.309,-34.07648,0 18.30821,-34.07552,0 18.30769,-34.07489,0 18.30671,-34.07363,0 18.30619,-34.07291,0 18.30545,-34.07186,0 18.30479,-34.07089,0 18.30431,-34.07005,0 18.30367,-34.06911,0 18.30317,-34.06833,0 18.30249,-34.06737,0 18.30191,-34.06656,0 18.30115,-34.0654,0 18.30059,-34.06441,0 18.3002,-34.0638,0 18.29952,-34.06261,0 18.29893,-34.06144,0 18.29853,-34.0606,0 18.29801,-34.05949,0 18.29762,-34.0585,0 18.29717,-34.05743,0 18.29681,-34.05636,0 18.29647,-34.05534,0 18.29627,-34.05446,0 18.29605,-34.05331,0 18.29596,-34.05222,0 18.29596,-34.0511,0 18.29605,-34.05002,0 18.29622,-34.04929,0 18.29653,-34.04817,0 18.29683,-34.04736,0 18.29739,-34.04626,0 18.29795,-34.04526,0 18.29851,-34.04434,0 18.29924,-34.04324,0 18.2998,-34.04237,0 18.30053,-34.04132,0 18.30116,-34.04049,0 18.30191,-34.03955,0 18.30261,-34.03857,0 18.3035,-34.03748,0 18.30418,-34.03665,0 18.30496,-34.0356,0 18.30574,-34.03455,0 18.30636,-34.03377,0 18.30715,-34.03262,0 18.30799,-34.03143,0 18.30877,-34.03029,0 18.30956,-34.02919,0 18.31029,-34.02818,0 18.31079,-34.0275,0 18.31163,-34.02635,0 18.31242,-34.0253,0 18.31306,-34.02443,0 18.31369,-34.02359,0 18.31449,-34.02255,0 18.31527,-34.02145,0 18.31656,-34.01968,0 18.3173,-34.01856,0 18.31781,-34.01781,0 18.31853,-34.01678,0 18.31913,-34.01591,0 18.3197,-34.01502,0 18.32045,-34.01395,0 18.32102,-34.01307,0 18.32165,-34.01223,0 18.32233,-34.01116,0 18.32312,-34.01006,0 18.32388,-34.00892,0 18.32451,-34.00804,0 18.32737,-34.00404,0 18.32962,-34.00099,0 18.33411,-33.99472,0 18.3375,-33.99026,0 18.33893,-33.98804,0 18.34022,-33.98584,0 18.34167,-33.98318,0 18.34302,-33.98099,0 18.34602,-33.97606,0 18.34913,-33.97105,0 18.35205,-33.96634,0 18.3549,-33.96149,0 18.35638,-33.95883,0 18.35758,-33.95646,0 18.35894,-33.95361,0 18.35933,-33.9527,0 18.35984,-33.9516,0 18.36039,-33.95041,0 18.36174,-33.94725,0 18.36216,-33.94626,0 18.36262,-33.94505,0 18.36302,-33.94408,0 18.36342,-33.94296,0 18.36382,-33.94176,0 18.36421,-33.94061,0 18.36449,-33.93965,0 18.36477,-33.93869,0 18.36508,-33.93765,0 18.36542,-33.93649,0 18.36578,-33.93526,0 18.36611,-33.93402,0 18.36639,-33.93292,0 18.36679,-33.93155,0 18.36707,-33.93077,0 18.36754,-33.92955,0 18.36808,-33.92848,0 18.36857,-33.92746,0 18.3692,-33.92625,0 18.3696,-33.9255,0 18.37015,-33.92455,0 18.37077,-33.9234,0 18.37144,-33.92235,0 18.37206,-33.9213,0 18.37267,-33.92043,0 18.37326,-33.91954,0 18.37395,-33.91852,0 18.37452,-33.91768,0 18.37514,-33.91685,0 18.37566,-33.9161,0 18.37646,-33.91507,0 18.37721,-33.9142,0 18.378,-33.91328,0 18.37861,-33.91264,0 18.37927,-33.91196,0 18.38013,-33.91107,0 18.38116,-33.91005,0 18.3819,-33.90935,0 18.38265,-33.90857,0 18.38362,-33.90767,0 18.38436,-33.90697,0 18.38534,-33.90605,0 18.38624,-33.90527,0 18.38713,-33.9045,0 18.38814,-33.90367,0 18.38911,-33.90288,0 18.38999,-33.90221,0 18.39083,-33.90157,0 18.3918,-33.90083,0 18.39268,-33.90024,0 18.39358,-33.8996,0 18.39431,-33.89909,0 18.39535,-33.89841,0 18.39621,-33.89794,0 18.39729,-33.89743,0 18.39804,-33.89711,0 18.39913,-33.89676,0 18.40038,-33.89641,0 18.4012,-33.89621,0 18.40261,-33.89585,0 18.40364,-33.89561,0 18.40467,-33.89534,0 18.40605,-33.89487,0 18.40703,-33.89447,0 18.40799,-33.8941,0 18.40905,-33.89365,0 18.41,-33.8932,0 18.4109,-33.89282,0 18.41171,-33.89245,0 18.41281,-33.892,0 18.41372,-33.89161,0 18.41477,-33.89113,0 18.41555,-33.89077,0 18.41658,-33.89031,0 18.41735,-33.88998,0 18.41846,-33.88956,0 18.41936,-33.88921,0 18.42026,-33.88889,0 18.4211,-33.88861,0 18.42196,-33.88831,0 18.42299,-33.88798,0 18.4239,-33.8877,0 18.42497,-33.88737,0 18.42579,-33.8871,0 18.42682,-33.88683,0 18.42762,-33.88659,0 18.42871,-33.88635,0 18.42951,-33.88623,0 18.43048,-33.88612,0 18.43142,-33.88605,0 18.43248,-33.886,0 18.43332,-33.88596,0 18.43433,-33.886,0 18.43512,-33.88602,0 18.43615,-33.88617,0 18.43718,-33.88635,0 18.43815,-33.88659,0 18.43876,-33.88678,0 18.43966,-33.88719,0 18.44032,-33.88756,0 18.44107,-33.88807,0 18.44156,-33.88847,0 18.44218,-33.88916,0 18.44263,-33.88971,0 18.44301,-33.8904,0 18.44336,-33.89101,0 18.44364,-33.89175,0 18.44375,-33.89241,0 18.44386,-33.8931,0 18.44386,-33.89388,0 18.44381,-33.89459,0 18.44376,-33.89506,0 18.44369,-33.89566,0 18.44358,-33.89622,0 18.44347,-33.89667,0 18.44324,-33.89722,0 18.44307,-33.89766,0 18.44279,-33.89813,0 18.44255,-33.89846,0 18.4421,-33.89892,0 18.44164,-33.8992,0 18.44117,-33.89937,0 18.44061,-33.89943,0 18.44005,-33.89932,0 18.43946,-33.89911,0 18.43898,-33.89873,0 18.43843,-33.89822,0 18.43815,-33.8978,0 18.43786,-33.89734,0 18.43752,-33.89669,0 18.4373,-33.89626,0 18.437,-33.89561,0 18.43685,-33.89525,0 18.4364,-33.89433,0 18.4362,-33.89384,0 18.43579,-33.89323,0 18.43545,-33.89273,0 18.435,-33.89227,0 18.43437,-33.8917,0 18.43382,-33.89131,0 18.43327,-33.89099,0 18.43265,-33.89063,0 18.43197,-33.89035,0 18.43136,-33.89012,0 18.43071,-33.88989,0 18.43002,-33.8897,0 18.42934,-33.88952,0 18.42865,-33.88938,0 18.42808,-33.88929,0 18.42739,-33.88919,0 18.42682,-33.88919,0 18.42632,-33.88921,0 18.4257,-33.88934,0 18.42522,-33.88956,0 18.42497,-33.8898,0 18.4248,-33.89035,0 18.4248,-33.89058,0 18.42497,-33.89131,0 18.42514,-33.89172,0 18.42525,-33.89223,0 18.42536,-33.89264,0 18.42547,-33.89305,0 18.42553,-33.89337,0 18.42564,-33.89388,0 18.42567,-33.89431,0 18.42573,-33.89455,0 18.42579,-33.89478,0 18.42585,-33.89506,0 18.4259,-33.89538,0 18.42603,-33.89566,0 18.42609,-33.89589,0 18.42626,-33.89648,0 18.42636,-33.89678,0 18.42642,-33.89701,0 18.42648,-33.89726,0 18.42659,-33.89763,0 18.42676,-33.89827,0 18.42682,-33.8985,0 18.42693,-33.89892,0 18.42705,-33.8992,0 18.4271,-33.89943,0 18.42714,-33.89981,0 18.42716,-33.90002,0 18.42718,-33.90025,0 18.42728,-33.90046,0 18.42748,-33.90066,0</coordinates>
      </LineString>
    </Placemark>
  </Document>
</kml>
