<?xml version="1.0" encoding="UTF-8"?>
<kml xmlns="http://www.opengis.net/kml/2.2">
  <Document>
    <name>FR24 4035c86d</name>
    <Placemark>
      <name>FR24 4035c86d</name>
      <Style><LineStyle><color>ff0000ff</color><width>4</width></LineStyle></Style>
      <LineString>
        <tessellate>1</tessellate>
        <coordinates>18.43315,-33.90038,0 18.43461,-33.89987,0 18.43511,-33.89964,0 18.43592,-33.89925,0 18.43668,-33.89873,0 18.43723,-33.89827,0 18.43775,-33.89771,0 18.43821,-33.89701,0 18.43861,-33.89613,0 18.43893,-33.89507,0 18.43901,-33.89417,0 18.43898,-33.89342,0 18.43876,-33.89209,0 18.43849,-33.89096,0 18.43826,-33.89008,0 18.43798,-33.8891,0 18.43769,-33.88824,0 18.43736,-33.88719,0 18.43702,-33.88637,0 18.43655,-33.88551,0 18.43596,-33.88463,0 18.43506,-33.88365,0 18.43427,-33.88312,0 18.43311,-33.88249,0 18.43209,-33.88211,0 18.43125,-33.88179,0 18.42996,-33.88142,0 18.42884,-33.88115,0 18.42751,-33.88086,0 18.42632,-33.88055,0 18.42531,-33.88033,0 18.42413,-33.88011,0 18.42264,-33.87988,0 18.42133,-33.87968,0 18.42043,-33.87959,0 18.41932,-33.87951,0 18.41824,-33.87941,0 18.41729,-33.87936,0 18.41611,-33.87932,0 18.41488,-33.87927,0 18.41387,-33.87927,0 18.41309,-33.87923,0 18.41157,-33.87923,0 18.41034,-33.87923,0 18.40891,-33.87928,0 18.40787,-33.87932,0 18.40668,-33.87941,0 18.4057,-33.87951,0 18.40445,-33.87964,0 18.4033,-33.87983,0 18.4021,-33.88005,0 18.40115,-33.88033,0 18.39986,-33.88074,0 18.39901,-33.88105,0 18.39795,-33.88147,0 18.39683,-33.88193,0 18.39581,-33.88244,0 18.39472,-33.883,0 18.39357,-33.88365,0 18.39263,-33.88422,0 18.3918,-33.88477,0 18.39089,-33.88536,0 18.3896,-33.88628,0 18.38865,-33.88691,0 18.38792,-33.88747,0 18.38663,-33.88843,0 18.38601,-33.88889,0 18.38499,-33.8897,0 18.38394,-33.89053,0 18.38322,-33.8911,0 18.38209,-33.892,0 18.38127,-33.89264,0 18.38024,-33.89343,0 18.37898,-33.89445,0 18.37816,-33.89511,0 18.37727,-33.8958,0 18.37612,-33.89682,0 18.37525,-33.89754,0 18.37418,-33.8985,0 18.37334,-33.89923,0 18.37256,-33.89996,0 18.37155,-33.90088,0 18.37088,-33.90152,0 18.36988,-33.90241,0 18.36937,-33.90288,0 18.36828,-33.90395,0 18.36752,-33.90472,0 18.36697,-33.90525,0 18.36599,-33.90618,0 18.36527,-33.90692,0 18.36449,-33.90775,0 18.36376,-33.90846,0 18.3629,-33.90944,0 18.36213,-33.91026,0 18.36129,-33.91127,0 18.36056,-33.91214,0 18.35961,-33.91324,0 18.3589,-33.91414,0 18.35827,-33.91507,0 18.35743,-33.91617,0 18.35667,-33.91722,0 18.35609,-33.91805,0 18.35535,-33.91919,0 18.35457,-33.92038,0 18.35392,-33.92136,0 18.3534,-33.9222,0 18.35278,-33.92318,0 18.3522,-33.92415,0 18.35157,-33.92513,0 18.35123,-33.92583,0 18.3506,-33.9269,0 18.35009,-33.92778,0 18.34963,-33.92867,0 18.34902,-33.92986,0 18.34854,-33.93081,0 18.34801,-33.93178,0 18.34751,-33.93281,0 18.34689,-33.93411,0 18.34648,-33.935,0 18.34608,-33.93593,0 18.3456,-33.93704,0 18.34511,-33.93816,0 18.34459,-33.93924,0 18.34419,-33.94026,0 18.34379,-33.94124,0 18.3433,-33.94235,0 18.34276,-33.9437,0 18.34236,-33.94473,0 18.3419,-33.9458,0 18.34139,-33.94701,0 18.34002,-33.95041,0 18.33847,-33.95413,0 18.33663,-33.9586,0 18.33492,-33.96233,0 18.33338,-33.96568,0 18.3312,-33.97052,0 18.32966,-33.97387,0 18.32811,-33.97737,0 18.32648,-33.98099,0 18.32502,-33.98439,0 18.32351,-33.98813,0 18.32329,-33.98891,0 18.3229,-33.99019,0 18.32251,-33.99165,0 18.32222,-33.99286,0 18.32211,-33.99389,0 18.32195,-33.9949,0 18.32188,-33.99617,0 18.32176,-33.99719,0 18.32172,-33.99829,0 18.3217,-33.99961,0 18.32166,-34.0009,0 18.3217,-34.00199,0 18.32176,-34.00306,0 18.32183,-34.00456,0 18.32193,-34.00562,0 18.32211,-34.00683,0 18.32233,-34.00795,0 18.32262,-34.00925,0 18.32285,-34.01037,0 18.32319,-34.01139,0 18.32346,-34.01244,0 18.32376,-34.01335,0 18.32422,-34.01465,0 18.32458,-34.01569,0 18.32503,-34.01683,0 18.32536,-34.01784,0 18.32582,-34.01902,0 18.32623,-34.02019,0 18.32674,-34.02149,0 18.32714,-34.02242,0 18.32766,-34.02364,0 18.32805,-34.02457,0 18.32839,-34.02548,0 18.32869,-34.02638,0 18.32901,-34.02722,0 18.32934,-34.02832,0 18.3296,-34.02922,0 18.32983,-34.03011,0 18.33002,-34.03107,0 18.3303,-34.03212,0 18.33052,-34.03313,0 18.33074,-34.03418,0 18.33097,-34.035,0 18.33125,-34.03633,0 18.33142,-34.03729,0 18.33166,-34.03853,0 18.33189,-34.03993,0 18.33206,-34.04151,0 18.33218,-34.04253,0 18.33231,-34.04379,0 18.33241,-34.045,0 18.33248,-34.04604,0 18.33252,-34.04719,0 18.33252,-34.04817,0 18.33258,-34.04947,0 18.33258,-34.05068,0 18.33254,-34.05176,0 18.33246,-34.05268,0 18.33243,-34.05391,0 18.33229,-34.05519,0 18.3322,-34.05611,0 18.33212,-34.05706,0 18.33195,-34.05864,0 18.33187,-34.05959,0 18.33172,-34.06083,0 18.33158,-34.06197,0 18.33143,-34.06325,0 18.3313,-34.0643,0 18.33119,-34.06531,0 18.33108,-34.06631,0 18.33097,-34.06783,0 18.33086,-34.0687,0 18.3308,-34.06979,0 18.33063,-34.07117,0 18.33046,-34.07237,0 18.33035,-34.0735,0 18.33017,-34.07456,0 18.33007,-34.07584,0 18.32989,-34.07722,0 18.32972,-34.07843,0 18.32951,-34.07973,0 18.32943,-34.08071,0 18.32929,-34.08197,0 18.32918,-34.08302,0 18.32909,-34.0842,0 18.32903,-34.08555,0 18.32903,-34.08667,0 18.32897,-34.08778,0 18.32901,-34.08907,0 18.32897,-34.09067,0 18.32901,-34.09154,0 18.32901,-34.09277,0 18.32901,-34.0941,0 18.32903,-34.09533,0 18.32909,-34.0963,0 18.32912,-34.09753,0 18.32914,-34.09858,0 18.3292,-34.09984,0 18.32923,-34.10078,0 18.32926,-34.10198,0 18.32932,-34.10291,0 18.32945,-34.10413,0 18.32949,-34.10519,0 18.32957,-34.10623,0 18.32954,-34.10724,0 18.32951,-34.10852,0 18.32937,-34.10976,0 18.32926,-34.11069,0 18.32918,-34.11172,0 18.32903,-34.11274,0 18.3289,-34.11392,0 18.32869,-34.11506,0 18.32845,-34.11626,0 18.32823,-34.1173,0 18.32794,-34.11818,0 18.32743,-34.11935,0 18.32677,-34.12056,0 18.32587,-34.12175,0 18.32508,-34.12265,0 18.32413,-34.12363,0 18.32323,-34.12445,0 18.32216,-34.12535,0 18.32108,-34.12624,0 18.31981,-34.1272,0 18.31858,-34.12825,0 18.31747,-34.12917,0 18.31633,-34.13024,0 18.31553,-34.13103,0 18.31438,-34.13219,0 18.31337,-34.13329,0 18.31255,-34.1342,0 18.31169,-34.13531,0 18.3109,-34.1364,0 18.31034,-34.1375,0 18.30984,-34.1385,0 18.3095,-34.13933,0 18.30894,-34.14095,0 18.30866,-34.14225,0 18.30837,-34.14351,0 18.30821,-34.14482,0 18.3081,-34.14587,0 18.3081,-34.14748,0 18.30816,-34.1488,0 18.30826,-34.14979,0 18.30844,-34.15109,0 18.30866,-34.15228,0 18.30888,-34.15334,0 18.30922,-34.15453,0 18.30956,-34.15562,0 18.30997,-34.15691,0 18.31032,-34.1578,0 18.31083,-34.15919,0 18.31118,-34.15993,0 18.31181,-34.16124,0 18.31225,-34.16217,0 18.31297,-34.16336,0 18.31354,-34.16428,0 18.31432,-34.16543,0 18.31484,-34.16608,0 18.31583,-34.16739,0 18.31668,-34.16835,0 18.3174,-34.16913,0 18.31833,-34.17009,0 18.31914,-34.17087,0 18.31998,-34.17169,0 18.32094,-34.17256,0 18.32193,-34.17344,0 18.32291,-34.17428,0 18.32391,-34.17517,0 18.32479,-34.17586,0 18.32592,-34.17682,0 18.32688,-34.1776,0 18.32794,-34.17847,0 18.32874,-34.17916,0 18.32962,-34.17989,0 18.33069,-34.18075,0 18.33183,-34.18168,0 18.33269,-34.18238,0 18.33355,-34.18303,0 18.33458,-34.18387,0 18.33551,-34.18456,0 18.3387,-34.18703,0 18.34184,-34.18941,0 18.34454,-34.19155,0 18.34638,-34.19307,0 18.34734,-34.19406,0 18.34803,-34.1949,0 18.34874,-34.19604,0 18.34941,-34.19701,0 18.34991,-34.19788,0 18.35049,-34.199,0 18.35094,-34.19993,0 18.35143,-34.2009,0 18.35192,-34.20198,0 18.35249,-34.20332,0 18.35295,-34.20449,0 18.35333,-34.20552,0 18.35369,-34.20649,0 18.35398,-34.20737,0 18.35438,-34.20859,0 18.35472,-34.20966,0 18.35507,-34.21097,0 18.35541,-34.21212,0 18.35574,-34.2133,0 18.35602,-34.21426,0 18.3563,-34.21541,0 18.35658,-34.21637,0 18.35686,-34.21742,0 18.35703,-34.21806,0 18.35741,-34.21948,0 18.35765,-34.22049,0 18.35798,-34.22186,0 18.35821,-34.22264,0 18.3585,-34.2239,0 18.35872,-34.22498,0 18.35894,-34.22598,0 18.35918,-34.22721,0 18.35944,-34.22841,0 18.35967,-34.22964,0 18.35989,-34.23061,0 18.36016,-34.23186,0 18.36039,-34.23307,0 18.36068,-34.23441,0 18.3609,-34.23564,0 18.36118,-34.23683,0 18.3614,-34.23779,0 18.36164,-34.23894,0 18.36191,-34.24022,0 18.36216,-34.24126,0 18.36297,-34.24493,0 18.36359,-34.24815,0 18.36376,-34.24927,0 18.36387,-34.25052,0 18.36404,-34.25162,0 18.36416,-34.25277,0 18.36426,-34.25391,0 18.36438,-34.25514,0 18.36449,-34.25592,0 18.36468,-34.25714,0 18.36479,-34.25826,0 18.36496,-34.25951,0 18.36516,-34.26041,0 18.36533,-34.2616,0 18.36554,-34.26277,0 18.36571,-34.2637,0 18.36589,-34.26471,0 18.36617,-34.26598,0 18.36639,-34.2671,0 18.36662,-34.26823,0 18.36702,-34.27036,0 18.36729,-34.27153,0 18.368,-34.27464,0 18.36875,-34.27803,0 18.36971,-34.28214,0 18.3706,-34.2854,0 18.37144,-34.2881,0 18.37177,-34.28898,0 18.37217,-34.29002,0 18.3725,-34.29085,0 18.37315,-34.29187,0 18.37368,-34.29272,0 18.37419,-34.29346,0 18.37491,-34.29456,0 18.37553,-34.29543,0 18.37615,-34.29625,0 18.37676,-34.29712,0 18.37732,-34.29782,0 18.37794,-34.29849,0 18.37861,-34.29927,0 18.37938,-34.29997,0 18.38013,-34.30064,0 18.38087,-34.30118,0 18.38156,-34.30164,0 18.38254,-34.3022,0 18.38339,-34.30267,0 18.38433,-34.30321,0 18.38528,-34.30376,0 18.38612,-34.30426,0 18.38713,-34.30499,0 18.38786,-34.3055,0 18.38871,-34.30616,0 18.38968,-34.30695,0 18.39038,-34.30751,0 18.39123,-34.30824,0 18.39195,-34.30888,0 18.39257,-34.30948,0 18.39317,-34.31002,0 18.39408,-34.31085,0 18.39481,-34.31158,0 18.3956,-34.31232,0 18.39616,-34.31291,0 18.39694,-34.31369,0 18.39764,-34.31435,0 18.39834,-34.31506,0 18.40124,-34.31784,0 18.40273,-34.31924,0 18.40359,-34.32003,0 18.40406,-34.32051,0 18.40485,-34.32129,0 18.40557,-34.32198,0 18.4063,-34.32271,0 18.40702,-34.32343,0 18.40771,-34.32408,0 18.40838,-34.32472,0 18.40908,-34.32534,0 18.40967,-34.32587,0 18.41079,-34.32683,0 18.4114,-34.32733,0 18.41223,-34.32799,0 18.41303,-34.3286,0 18.41366,-34.32911,0 18.41446,-34.32967,0 18.41527,-34.33026,0 18.41595,-34.33074,0 18.41669,-34.33125,0 18.41755,-34.33186,0 18.41852,-34.33246,0 18.4192,-34.33296,0 18.42026,-34.3336,0 18.42098,-34.33405,0 18.42178,-34.33447,0 18.42287,-34.33511,0 18.42373,-34.33563,0 18.42447,-34.33603,0 18.42522,-34.33646,0 18.42609,-34.33699,0 18.42676,-34.3374,0 18.42766,-34.33795,0 18.42854,-34.33847,0 18.42923,-34.33882,0 18.42997,-34.33921,0 18.43102,-34.33974,0 18.43186,-34.34015,0 18.43259,-34.34047,0 18.43366,-34.34097,0 18.4346,-34.34145,0 18.43557,-34.34196,0 18.43632,-34.34233,0 18.43708,-34.34276,0 18.43792,-34.34331,0 18.43884,-34.34391,0 18.4396,-34.3445,0 18.44021,-34.34499,0 18.44072,-34.34536,0 18.44141,-34.34592,0 18.44198,-34.34638,0 18.44274,-34.34706,0 18.4433,-34.34755,0 18.44391,-34.34807,0 18.44453,-34.34866,0 18.44515,-34.34921,0 18.4456,-34.34958,0 18.44621,-34.35017,0 18.44705,-34.35091,0 18.44765,-34.35146,0 18.44833,-34.35211,0 18.44902,-34.35274,0 18.44969,-34.35329,0 18.45019,-34.35365,0 18.45079,-34.35411,0 18.45171,-34.35484,0 18.45228,-34.35532,0 18.45305,-34.3559,0 18.45366,-34.35639,0 18.45423,-34.35685,0 18.45496,-34.35745,0 18.4556,-34.35797,0 18.45612,-34.35839,0 18.45686,-34.35901,0 18.45749,-34.35955,0 18.45818,-34.36016,0 18.45882,-34.36066,0 18.45972,-34.36137,0 18.46035,-34.36188,0 18.46107,-34.36249,0 18.46167,-34.36295,0 18.46247,-34.36351,0 18.46314,-34.364,0 18.46384,-34.36454,0 18.46453,-34.36505,0 18.4651,-34.36547,0 18.46577,-34.36592,0 18.46639,-34.36638,0 18.46706,-34.36688,0 18.46762,-34.36728,0 18.46819,-34.3677,0 18.46875,-34.36807,0 18.46956,-34.36859,0 18.47019,-34.36896,0 18.47082,-34.36935,0 18.47144,-34.36972,0 18.47217,-34.37018,0 18.47294,-34.37059,0 18.47357,-34.37091,0 18.47425,-34.37124,0 18.475,-34.37161,0 18.47563,-34.37194,0 18.47648,-34.37233,0 18.47704,-34.37256,0 18.47783,-34.37288,0 18.47872,-34.3732,0 18.47958,-34.37347,0 18.48049,-34.37375,0 18.48136,-34.37402,0 18.48204,-34.37417,0 18.48293,-34.37439,0 18.48366,-34.37453,0 18.4845,-34.37471,0 18.48534,-34.37485,0 18.48623,-34.37498,0 18.48702,-34.37512,0 18.4877,-34.3752,0 18.48856,-34.37529,0 18.4893,-34.37534,0 18.49022,-34.3754,0 18.49091,-34.37543,0 18.49162,-34.37544,0 18.49246,-34.37544,0 18.49324,-34.37544,0 18.49417,-34.37543,0 18.49491,-34.37543,0 18.49583,-34.37543,0 18.49655,-34.37544,0 18.49737,-34.37543,0 18.49806,-34.37538,0 18.49885,-34.37531,0 18.49966,-34.3752,0 18.50047,-34.37498,0 18.50143,-34.37459,0 18.50218,-34.37417,0 18.50305,-34.37357,0 18.50384,-34.37296,0 18.5047,-34.37212,0 18.50544,-34.37138,0 18.50608,-34.37064,0 18.5067,-34.3698,0 18.50731,-34.3689,0 18.50776,-34.36807,0 18.50821,-34.3672,0 18.5087,-34.36612,0 18.50904,-34.36509,0 18.50938,-34.364,0 18.50962,-34.36295,0 18.50983,-34.3618,0 18.51002,-34.36035,0 18.51011,-34.35933,0 18.51007,-34.3582,0 18.50996,-34.35681,0 18.50973,-34.35546,0 18.50939,-34.35392,0 18.50893,-34.35276,0 18.50853,-34.35183,0 18.50787,-34.35059,0 18.50698,-34.34917,0 18.5059,-34.34782,0 18.50473,-34.3466,0 18.50367,-34.3456,0 18.50243,-34.3445,0 18.50098,-34.3434,0 18.49966,-34.34242,0 18.49806,-34.34134,0 18.49657,-34.34037,0 18.49453,-34.3391,0 18.49342,-34.33838,0 18.4915,-34.33713,0 18.48999,-34.33607,0 18.48885,-34.33516,0 18.48747,-34.334,0 18.48629,-34.33282,0 18.48524,-34.33172,0 18.48433,-34.33054,0 18.48332,-34.32921,0 18.48267,-34.32822,0 18.48181,-34.32674,0 18.48112,-34.32548,0 18.48057,-34.32449,0 18.47986,-34.32296,0 18.47928,-34.3212,0 18.47895,-34.31996,0 18.47872,-34.31845,0 18.47849,-34.31617,0 18.47844,-34.31502,0 18.47843,-34.31389,0 18.47844,-34.31241,0 18.47855,-34.31091,0 18.47872,-34.30979,0 18.47889,-34.30858,0 18.47906,-34.30742,0 18.47934,-34.30595,0 18.47952,-34.30481,0 18.47973,-34.30371,0 18.47998,-34.30215,0 18.48021,-34.30109,0 18.48043,-34.29978,0 18.48057,-34.29877,0 18.48083,-34.29745,0 18.48106,-34.29606,0 18.48124,-34.29522,0 18.48153,-34.29391,0 18.48181,-34.29263,0 18.48255,-34.28894,0 18.48276,-34.28783,0 18.48293,-34.28691,0 18.48321,-34.2854,0 18.48338,-34.2843,0 18.48354,-34.28311,0 18.48375,-34.28176,0 18.48388,-34.28059,0 18.48399,-34.2795,0 18.48404,-34.27809,0 18.4841,-34.27683,0 18.4841,-34.27551,0 18.48404,-34.27427,0 18.48399,-34.27281,0 18.48394,-34.27144,0 18.48387,-34.27013,0 18.48377,-34.26901,0 18.48366,-34.2675,0 18.48354,-34.26654,0 18.48349,-34.26503,0 18.48343,-34.26402,0 18.48335,-34.26259,0 18.4833,-34.26119,0 18.48324,-34.26003,0 18.48318,-34.25886,0 18.48321,-34.25766,0 18.48318,-34.25621,0 18.48318,-34.25486,0 18.48318,-34.25346,0 18.48318,-34.2522,0 18.48321,-34.25089,0 18.48326,-34.24965,0 18.48332,-34.24828,0 18.48343,-34.24672,0 18.48349,-34.2458,0 18.4836,-34.24434,0 18.4836,-34.24342,0 18.48366,-34.24168,0 18.48364,-34.24047,0 18.48364,-34.23885,0 18.4836,-34.2377,0 18.4836,-34.23656,0 18.48349,-34.235,0 18.48343,-34.23381,0 18.4833,-34.23233,0 18.48312,-34.23093,0 18.48289,-34.2294,0 18.48276,-34.22827,0 18.48248,-34.2269,0 18.48221,-34.22558,0 18.48186,-34.22429,0 18.48158,-34.2232,0 18.48113,-34.22177,0 18.48072,-34.22046,0 18.48029,-34.2193,0 18.4798,-34.21808,0 18.47923,-34.21678,0 18.47867,-34.21555,0 18.47803,-34.21417,0 18.4774,-34.21292,0 18.47671,-34.21165,0 18.47614,-34.21065,0 18.47528,-34.209,0 18.47463,-34.20786,0 18.47385,-34.20649,0 18.47317,-34.20528,0 18.4725,-34.20415,0 18.47185,-34.20309,0 18.47099,-34.20174,0 18.47004,-34.20039,0 18.46903,-34.19907,0 18.4683,-34.19816,0 18.46701,-34.19673,0 18.466,-34.19568,0 18.46487,-34.19453,0 18.46376,-34.19353,0 18.46275,-34.19252,0 18.4614,-34.19128,0 18.46028,-34.19023,0 18.45898,-34.18903,0 18.45789,-34.1881,0 18.45653,-34.18698,0 18.45563,-34.18629,0 18.45423,-34.18526,0 18.45277,-34.18423,0 18.45159,-34.18346,0 18.45034,-34.18266,0 18.44896,-34.18177,0 18.44756,-34.1808,0 18.44644,-34.17984,0 18.4456,-34.17902,0 18.44479,-34.17786,0 18.44404,-34.17623,0 18.44375,-34.17499,0 18.44358,-34.17334,0 18.44358,-34.17224,0 18.44369,-34.17119,0 18.4438,-34.16982,0 18.44391,-34.16853,0 18.44408,-34.16748,0 18.44427,-34.16618,0 18.44442,-34.16487,0 18.44461,-34.16389,0 18.44481,-34.16267,0 18.44504,-34.16135,0 18.44524,-34.16022,0 18.44553,-34.15919,0 18.44571,-34.15819,0 18.44604,-34.15682,0 18.44638,-34.15558,0 18.44672,-34.15439,0 18.447,-34.15338,0 18.44748,-34.15193,0 18.44799,-34.15072,0 18.44846,-34.14967,0 18.44896,-34.14857,0 18.44952,-34.14752,0 18.44994,-34.14667,0 18.45051,-34.14555,0 18.45103,-34.14459,0 18.45165,-34.14355,0 18.45217,-34.14267,0 18.45291,-34.14155,0 18.45343,-34.14071,0 18.454,-34.13979,0 18.45457,-34.13892,0 18.4552,-34.13783,0 18.45574,-34.13704,0 18.45636,-34.13599,0 18.45692,-34.13508,0 18.4576,-34.13406,0 18.45829,-34.13294,0 18.45882,-34.1321,0 18.45933,-34.13123,0 18.45983,-34.13036,0 18.46046,-34.12922,0 18.46112,-34.1282,0 18.46168,-34.12733,0 18.46235,-34.12647,0 18.46314,-34.12541,0 18.46387,-34.12463,0 18.4646,-34.12372,0 18.46538,-34.12289,0 18.46624,-34.12209,0 18.46701,-34.12143,0 18.4679,-34.12074,0 18.46897,-34.11992,0 18.4697,-34.11946,0 18.47059,-34.11883,0 18.47162,-34.11818,0 18.47273,-34.11749,0 18.47368,-34.1169,0 18.47466,-34.11632,0 18.47586,-34.11557,0 18.47704,-34.11479,0 18.47797,-34.11413,0 18.47878,-34.11351,0 18.47956,-34.11278,0 18.48049,-34.1118,0 18.48112,-34.11092,0 18.48169,-34.11003,0 18.48225,-34.1087,0 18.48259,-34.1077,0 18.48276,-34.10678,0 18.48289,-34.10538,0 18.48295,-34.10431,0 18.48295,-34.10329,0 18.48295,-34.10203,0 18.48287,-34.10069,0 18.48281,-34.09941,0 18.48272,-34.09803,0 18.48261,-34.09691,0 18.48242,-34.0957,0 18.48231,-34.09456,0 18.48209,-34.09314,0 18.48192,-34.0919,0 18.48175,-34.09071,0 18.48158,-34.08929,0 18.48135,-34.08806,0 18.48118,-34.08662,0 18.48095,-34.08536,0 18.48078,-34.0842,0 18.48049,-34.08261,0 18.48032,-34.0815,0 18.48001,-34.08014,0 18.47963,-34.07898,0 18.47923,-34.07796,0 18.47883,-34.07712,0 18.4782,-34.07596,0 18.47738,-34.07474,0 18.47672,-34.07386,0 18.47574,-34.07265,0 18.47486,-34.07162,0 18.47391,-34.07061,0 18.47328,-34.06986,0 18.47217,-34.0687,0 18.47138,-34.06778,0 18.47037,-34.06673,0 18.46956,-34.0659,0 18.46858,-34.06485,0 18.46762,-34.06389,0 18.46664,-34.06269,0 18.46583,-34.06169,0 18.46499,-34.0605,0 18.46413,-34.0592,0 18.46344,-34.0579,0 18.46292,-34.05673,0 18.46241,-34.05547,0 18.46208,-34.05455,0 18.46155,-34.05315,0 18.46121,-34.05212,0 18.46075,-34.05059,0 18.46041,-34.04942,0 18.46,-34.04782,0 18.45967,-34.04663,0 18.45938,-34.04551,0 18.45905,-34.04398,0 18.45871,-34.04256,0 18.45843,-34.04137,0 18.45818,-34.04012,0 18.45789,-34.03867,0 18.45755,-34.03714,0 18.45731,-34.03596,0 18.45709,-34.03448,0 18.45686,-34.03332,0 18.45652,-34.03164,0 18.45591,-34.028,0 18.45569,-34.02658,0 18.45563,-34.02516,0 18.45566,-34.02368,0 18.45569,-34.02251,0 18.45583,-34.0214,0 18.45597,-34.02017,0 18.45613,-34.01903,0 18.45636,-34.01756,0 18.45653,-34.01665,0 18.45692,-34.01509,0 18.45714,-34.01408,0 18.45737,-34.01289,0 18.45766,-34.01148,0 18.45783,-34.01027,0 18.45806,-34.00902,0 18.45835,-34.00771,0 18.45866,-34.00644,0 18.45899,-34.00525,0 18.45955,-34.00392,0 18.46006,-34.00287,0 18.46067,-34.00177,0 18.46138,-34.00059,0 18.46219,-33.99957,0 18.46327,-33.99831,0 18.46404,-33.9976,0 18.46521,-33.99664,0 18.46617,-33.99596,0 18.46739,-33.9951,0 18.46835,-33.9944,0 18.46936,-33.99371,0 18.47054,-33.9928,0 18.47151,-33.99198,0 18.47237,-33.99105,0 18.47318,-33.99005,0 18.47408,-33.98877,0 18.47458,-33.98795,0 18.47528,-33.98658,0 18.4758,-33.98546,0 18.47637,-33.98407,0 18.47671,-33.98309,0 18.47717,-33.98174,0 18.4776,-33.98039,0 18.47794,-33.97925,0 18.4782,-33.97824,0 18.47866,-33.97676,0 18.47889,-33.97591,0 18.47929,-33.97448,0 18.47962,-33.97325,0 18.47992,-33.97205,0 18.48018,-33.97092,0 18.48049,-33.96982,0 18.48089,-33.96833,0 18.48112,-33.96717,0 18.48147,-33.96584,0 18.48181,-33.96446,0 18.48209,-33.96332,0 18.48237,-33.96217,0 18.48307,-33.95944,0 18.48338,-33.95837,0 18.48381,-33.95707,0 18.48421,-33.9559,0 18.48473,-33.95441,0 18.48506,-33.95329,0 18.48539,-33.95201,0 18.4857,-33.95064,0 18.48587,-33.94906,0 18.48593,-33.94799,0 18.48595,-33.94661,0 18.48587,-33.94524,0 18.4857,-33.94366,0 18.48551,-33.94254,0 18.48517,-33.94107,0 18.48483,-33.93988,0 18.48438,-33.93832,0 18.4841,-33.93736,0 18.48375,-33.93612,0 18.48332,-33.93462,0 18.48287,-33.93324,0 18.48244,-33.93188,0 18.48192,-33.93045,0 18.4813,-33.92899,0 18.4808,-33.92789,0 18.48009,-33.92657,0 18.47946,-33.92559,0 18.47866,-33.92439,0 18.47797,-33.92345,0 18.4771,-33.92239,0 18.47637,-33.92148,0 18.47542,-33.92052,0 18.47437,-33.91945,0 18.47346,-33.91864,0 18.4726,-33.91787,0 18.47138,-33.91681,0 18.47015,-33.91571,0 18.46891,-33.91475,0 18.4679,-33.91391,0 18.46682,-33.91312,0 18.46544,-33.91205,0 18.46453,-33.9114,0 18.46325,-33.9104,0 18.46202,-33.90944,0 18.46075,-33.90842,0 18.45955,-33.90738,0 18.45877,-33.90674,0 18.45743,-33.90558,0 18.45647,-33.90482,0 18.4552,-33.90376,0 18.45428,-33.90298,0 18.45303,-33.9019,0 18.45182,-33.90078,0 18.45075,-33.89973,0 18.44969,-33.89864,0 18.44862,-33.89749,0 18.44778,-33.89658,0 18.44694,-33.89566,0 18.44588,-33.89438,0 18.4452,-33.89355,0 18.44427,-33.89236,0 18.44358,-33.89138,0 18.44296,-33.89053,0 18.44201,-33.88934,0 18.44124,-33.8884,0 18.44049,-33.88756,0 18.43941,-33.88654,0 18.43842,-33.88573,0 18.43736,-33.88504,0 18.43607,-33.88422,0 18.43483,-33.88358,0 18.43351,-33.88295,0 18.43191,-33.88226,0 18.43077,-33.88184,0 18.42951,-33.88142,0 18.42833,-33.88101,0 18.42682,-33.88063,0 18.42567,-33.88039,0 18.42418,-33.88014,0 18.42295,-33.88005,0 18.42167,-33.88011,0 18.42054,-33.88033,0 18.41987,-33.88051,0 18.41835,-33.88128,0 18.41757,-33.88202,0 18.41695,-33.88284,0 18.41652,-33.88361,0 18.41618,-33.88444,0 18.41612,-33.88519,0 18.41635,-33.88612,0 18.4169,-33.88687,0 18.41757,-33.88742,0 18.4183,-33.88792,0 18.41932,-33.88845,0 18.42026,-33.88879,0 18.42138,-33.88911,0 18.42233,-33.88939,0 18.42323,-33.88962,0 18.4243,-33.88989,0 18.4255,-33.89017,0 18.42653,-33.89045,0 18.42738,-33.89067,0 18.42842,-33.89096,0 18.42957,-33.89133,0 18.43048,-33.89161,0 18.43157,-33.89208,0 18.43225,-33.89245,0 18.43299,-33.89301,0 18.43351,-33.89361,0 18.43391,-33.89426,0 18.43403,-33.89487,0 18.43386,-33.89548,0 18.43357,-33.89589,0 18.4327,-33.89648,0 18.43192,-33.89662,0 18.43057,-33.89653,0 18.42979,-33.89627,0 18.42856,-33.89575,0 18.42783,-33.89548,0 18.42699,-33.8952,0 18.42609,-33.89507,0 18.42573,-33.8952,0 18.42556,-33.89557,0 18.42564,-33.89598,0 18.42581,-33.89639,0 18.42607,-33.89697,0 18.42648,-33.89757,0 18.42676,-33.89799,0 18.42699,-33.89827,0 18.42716,-33.89859,0 18.42745,-33.89897,0 18.4276,-33.89937,0 18.4276,-33.89964,0 18.42745,-33.89994,0 18.42722,-33.90013,0 18.42693,-33.90027,0 18.42676,-33.90051,0 18.42693,-33.90074,0 18.42682,-33.90097,0 18.4271,-33.90097,0 18.42745,-33.90102,0 18.42772,-33.90106,0 18.42794,-33.90106,0 18.42842,-33.90106,0 18.42876,-33.90097,0 18.42922,-33.90078,0 18.42957,-33.9006,0 18.42991,-33.90036,0 18.43037,-33.90009,0 18.4306,-33.89994,0 18.43102,-33.89964,0 18.43164,-33.89932,0 18.43226,-33.899,0 18.43259,-33.89877,0 18.43315,-33.8985,0 18.43405,-33.89804,0 18.43483,-33.89763,0 18.43567,-33.89703,0 18.43668,-33.8963,0 18.43747,-33.89571,0 18.43849,-33.89506,0 18.43964,-33.89459,0 18.44061,-33.89442,0 18.44158,-33.89441,0 18.44246,-33.89456,0 18.44341,-33.89482,0 18.44433,-33.8951,0 18.44524,-33.89543,0 18.44593,-33.89571,0 18.44713,-33.89618,0 18.4479,-33.89653,0 18.44862,-33.89685,0 18.44946,-33.89726,0 18.45028,-33.89771,0 18.45115,-33.89818,0 18.45188,-33.89864,0 18.45271,-33.89914,0 18.45343,-33.89957,0 18.45428,-33.90009,0 18.45518,-33.9006,0 18.45591,-33.90115,0 18.45634,-33.90148,0 18.45715,-33.90213,0 18.45782,-33.90266,0 18.45866,-33.90349,0 18.45921,-33.904,0 18.45989,-33.90465,0 18.46062,-33.90536,0 18.46115,-33.9059,0 18.46185,-33.90665,0 18.46241,-33.90729,0 18.46298,-33.908,0 18.46342,-33.90862,0 18.46401,-33.90944,0 18.46465,-33.91031,0 18.4651,-33.91093,0 18.46567,-33.91177,0 18.46613,-33.91256,0 18.46656,-33.91319,0 18.46706,-33.91406,0 18.46739,-33.91465,0 18.46791,-33.91548,0 18.46835,-33.91617,0 18.46875,-33.91685,0 18.4691,-33.91745,0 18.4697,-33.91832,0 18.47015,-33.91901,0 18.47059,-33.91968,0 18.47099,-33.92029,0 18.47145,-33.92099,0 18.472,-33.92184,0 18.47245,-33.92258,0 18.47278,-33.92313,0 18.47345,-33.92415,0 18.47397,-33.92499,0 18.47437,-33.92569,0 18.47486,-33.92656,0 18.47528,-33.92732,0 18.47557,-33.92788,0 18.47603,-33.92876,0 18.47648,-33.92963,0 18.47682,-33.9304,0 18.47723,-33.93118,0 18.47763,-33.93211,0 18.47803,-33.93295,0 18.47839,-33.93375,0 18.47878,-33.93463,0 18.47912,-33.93539,0 18.4794,-33.93621,0 18.47975,-33.93714,0 18.48001,-33.93796,0 18.48032,-33.93886,0 18.48063,-33.93983,0 18.48091,-33.94061,0 18.48119,-33.94153,0 18.48146,-33.94231,0 18.4817,-33.94313,0 18.48198,-33.94408,0 18.48215,-33.94482,0 18.48237,-33.94574,0 18.48253,-33.94666,0 18.48272,-33.94743,0 18.48289,-33.94822,0 18.48301,-33.94896,0 18.48312,-33.9498,0 18.48324,-33.95082,0 18.48335,-33.95166,0 18.48341,-33.95246,0 18.48354,-33.95352,0 18.48364,-33.95455,0 18.4837,-33.9552,0 18.48382,-33.95622,0 18.48394,-33.95718,0 18.48405,-33.95801,0 18.4841,-33.95888,0 18.48422,-33.95984,0 18.48438,-33.96085,0 18.4845,-33.96181,0 18.48461,-33.96272,0 18.48472,-33.9635,0 18.48483,-33.96432,0 18.48501,-33.96535,0 18.48511,-33.96634,0 18.48523,-33.96716,0 18.48539,-33.96826,0 18.48553,-33.96907,0 18.4857,-33.97024,0 18.48576,-33.97112,0 18.4859,-33.9722,0 18.48595,-33.97316,0 18.48607,-33.97421,0 18.48616,-33.97494,0 18.48623,-33.97614,0 18.48639,-33.97708,0 18.48657,-33.97815,0 18.48685,-33.97879,0 18.4877,-33.97992,0 18.4885,-33.98048,0 18.48948,-33.9809,0 18.49077,-33.98122,0 18.49211,-33.98132,0 18.49335,-33.98131,0 18.49453,-33.98122,0 18.496,-33.98095,0 18.4975,-33.98067,0 18.49868,-33.98044,0 18.49977,-33.98016,0 18.50132,-33.97978,0 18.50275,-33.97941,0 18.50418,-33.97899,0 18.50533,-33.97866,0 18.50669,-33.97833,0 18.50815,-33.97797,0 18.50944,-33.97765,0 18.51082,-33.97731,0 18.51213,-33.97701,0 18.51345,-33.97666,0 18.5146,-33.97641,0 18.51591,-33.97606,0 18.5174,-33.97568,0 18.51871,-33.97536,0 18.52009,-33.97504,0 18.52123,-33.97475,0 18.52233,-33.97444,0 18.52421,-33.97392,0 18.52536,-33.97362,0 18.52699,-33.97316,0 18.53079,-33.9721,0 18.53456,-33.97112,0 18.53708,-33.97046,0 18.53808,-33.97018,0 18.54223,-33.96909,0 18.54343,-33.9688,0 18.54486,-33.96847,0 18.54624,-33.96814,0 18.54739,-33.96794,0 18.54858,-33.96768,0 18.55013,-33.96735,0 18.55127,-33.96712,0 18.55277,-33.96684,0 18.55659,-33.96605,0 18.55814,-33.96572,0 18.56318,-33.96465,0 18.56735,-33.96363,0 18.56891,-33.96318,0 18.56987,-33.96291,0 18.57136,-33.96246,0 18.5725,-33.96213,0 18.57399,-33.96167,0 18.57519,-33.96135,0 18.57687,-33.9608,0 18.57827,-33.96034,0 18.57943,-33.96,0 18.58068,-33.95966,0 18.58229,-33.95916,0 18.58337,-33.95883,0 18.58763,-33.95755,0 18.59207,-33.95623,0 18.59649,-33.95499,0 18.60069,-33.95375,0 18.60568,-33.95224,0 18.6101,-33.95087,0 18.61448,-33.94958,0 18.61897,-33.94821,0 18.62418,-33.94656,0 18.62894,-33.94501,0 18.63459,-33.94315,0 18.63982,-33.94139,0 18.64128,-33.94096,0 18.64279,-33.94057,0 18.64441,-33.94025,0 18.64614,-33.93989,0 18.64775,-33.93961,0 18.64883,-33.93937,0 18.65092,-33.93896,0 18.65221,-33.93872,0 18.65389,-33.93842,0 18.65559,-33.93812,0 18.65692,-33.93791,0 18.65888,-33.93764,0 18.66034,-33.93747,0 18.66196,-33.93727,0 18.66343,-33.93714,0 18.66493,-33.937,0 18.66657,-33.93681,0 18.66807,-33.93672,0 18.6693,-33.93658,0 18.67109,-33.93649,0 18.67275,-33.93639,0 18.67418,-33.93636,0 18.67597,-33.93626,0 18.67767,-33.93626,0 18.67905,-33.93621,0 18.68046,-33.93622,0 18.68214,-33.93621,0 18.6841,-33.93622,0 18.68584,-33.93622,0 18.68711,-33.93626,0 18.689,-33.93626,0 18.69038,-33.93626,0 18.69186,-33.9363,0 18.69324,-33.93635,0 18.69492,-33.9364,0 18.69638,-33.93639,0 18.6981,-33.93644,0 18.7026,-33.93645,0 18.70697,-33.93644,0 18.71302,-33.9364,0 18.71852,-33.93645,0 18.72267,-33.93654,0 18.72768,-33.93668,0 18.73169,-33.9369,0 18.7332,-33.93709,0 18.73524,-33.93728,0 18.73657,-33.93745,0 18.73825,-33.93773,0 18.73947,-33.93793,0 18.74142,-33.93826,0 18.74296,-33.93851,0 18.74475,-33.93874,0 18.74654,-33.93896,0 18.74794,-33.93906,0 18.75,-33.93919,0 18.75137,-33.93919,0 18.7528,-33.93914,0 18.75478,-33.93896,0 18.75646,-33.93869,0 18.75801,-33.9384,0 18.75955,-33.93805,0 18.76122,-33.93765,0 18.76246,-33.93732,0 18.76436,-33.93686,0 18.76571,-33.93654,0 18.76734,-33.93616,0 18.76868,-33.93581,0 18.77025,-33.93544,0 18.77129,-33.93514,0 18.773,-33.93471,0 18.77423,-33.93434,0 18.77563,-33.93388,0 18.77718,-33.93328,0 18.77838,-33.93269,0 18.7795,-33.9321,0 18.78096,-33.93127,0 18.78227,-33.93062,0 18.78336,-33.93007,0 18.78494,-33.92926,0 18.78601,-33.92876,0 18.78707,-33.92821,0 18.78828,-33.9276,0 18.78965,-33.9269,0 18.7908,-33.92629,0 18.79194,-33.92569,0 18.79303,-33.92508,0 18.7943,-33.92432,0 18.79549,-33.92359,0 18.79654,-33.92294,0 18.79778,-33.92216,0 18.79904,-33.92136,0 18.80007,-33.92075,0 18.80138,-33.91991,0 18.80265,-33.9191,0 18.80366,-33.91846,0 18.80493,-33.91763,0 18.80613,-33.91684,0 18.80711,-33.91619,0 18.81072,-33.91374,0 18.81432,-33.91121,0 18.8166,-33.90958,0 18.81987,-33.90707,0 18.82296,-33.90465,0 18.82619,-33.90198,0 18.82816,-33.90033,0 18.82919,-33.89943,0 18.83011,-33.89869,0 18.83125,-33.89766,0 18.83228,-33.89673,0 18.83365,-33.89552,0 18.83474,-33.89455,0 18.8356,-33.89375,0 18.83669,-33.89273,0 18.83772,-33.89175,0 18.83853,-33.89104,0 18.83982,-33.8898,0 18.84088,-33.88884,0 18.84172,-33.88806,0 18.84264,-33.88719,0 18.8438,-33.88609,0 18.84487,-33.88509,0 18.8459,-33.88416,0 18.84671,-33.88339,0 18.84805,-33.88225,0 18.8489,-33.88147,0 18.85019,-33.88028,0 18.85131,-33.87927,0 18.85242,-33.8783,0 18.85344,-33.8774,0 18.85448,-33.87639,0 18.85534,-33.87566,0 18.85641,-33.87469,0 18.85742,-33.87383,0 18.85832,-33.87304,0 18.85938,-33.87213,0 18.86252,-33.86938,0 18.86335,-33.86866,0 18.86465,-33.86765,0 18.86581,-33.86671,0 18.86678,-33.86595,0 18.86778,-33.86513,0 18.86896,-33.86424,0 18.86986,-33.86353,0 18.87354,-33.86075,0 18.87457,-33.86,0 18.87566,-33.85917,0 18.87714,-33.85809,0 18.87815,-33.85739,0 18.87939,-33.85657,0 18.88023,-33.85602,0 18.88161,-33.85511,0 18.88281,-33.85432,0 18.88415,-33.8535,0 18.88555,-33.85268,0 18.88684,-33.85199,0 18.88813,-33.8513,0 18.88925,-33.85075,0 18.89059,-33.85018,0 18.89172,-33.84979,0 18.89318,-33.84938,0 18.89442,-33.84911,0 18.89581,-33.84883,0 18.89716,-33.84851,0 18.89805,-33.84833,0 18.89946,-33.84804,0 18.90052,-33.84782,0 18.90175,-33.84755,0 18.90306,-33.84729,0 18.90461,-33.84702,0 18.9057,-33.84678,0 18.90657,-33.84654,0 18.90792,-33.84599,0 18.90919,-33.84529,0 18.91027,-33.84435,0 18.91106,-33.84352,0 18.91184,-33.84247,0 18.91262,-33.84134,0 18.91348,-33.84003,0 18.91431,-33.83881,0 18.91508,-33.8377,0 18.91599,-33.83624,0 18.91668,-33.83496,0 18.91731,-33.83352,0 18.91773,-33.83235,0 18.91801,-33.83134,0 18.91829,-33.82961,0 18.9184,-33.82823,0 18.91834,-33.82621,0 18.91834,-33.82583,0 18.91795,-33.82306,0 18.91788,-33.82006,0 18.91823,-33.81899,0 18.9188,-33.81815,0 18.92046,-33.81778,0 18.92092,-33.81811,0 18.92148,-33.8188,0 18.92193,-33.81931,0 18.92249,-33.81995,0 18.92496,-33.82201,0 18.92521,-33.8216,0 18.92328,-33.81889,0 18.9208,-33.81824,0 18.91991,-33.81825,0 18.91874,-33.81844,0 18.91778,-33.81871,0 18.9168,-33.81908,0 18.91594,-33.81945,0 18.9147,-33.82013,0 18.91364,-33.82077,0 18.91291,-33.82123,0 18.91171,-33.82211,0 18.91083,-33.82278,0 18.91027,-33.8232,0 18.90921,-33.82402,0 18.90833,-33.82476,0 18.90776,-33.82523,0 18.90685,-33.82599,0 18.90601,-33.82663,0 18.90512,-33.82742,0 18.90421,-33.82816,0 18.90355,-33.82878,0 18.90261,-33.82961,0 18.90147,-33.83061,0 18.90063,-33.83144,0 18.89986,-33.83216,0 18.89901,-33.83299,0 18.89814,-33.83379,0 18.89744,-33.83455,0 18.8966,-33.83556,0 18.89581,-33.83652,0 18.8952,-33.83739,0 18.89463,-33.83817,0 18.89396,-33.83913,0 18.89346,-33.83981,0 18.89273,-33.84087,0 18.89214,-33.84166,0 18.89138,-33.8427,0 18.89065,-33.84371,0 18.88993,-33.84476,0 18.88931,-33.84567,0 18.88882,-33.84641,0 18.88796,-33.8476,0 18.88729,-33.8486,0 18.88684,-33.84929,0 18.88601,-33.85065,0 18.88544,-33.85153,0 18.88487,-33.85241,0 18.88418,-33.85363,0 18.88365,-33.85455,0 18.88314,-33.85547,0 18.88258,-33.85646,0 18.88219,-33.85725,0 18.88149,-33.85847,0 18.88098,-33.8594,0 18.88035,-33.86056,0 18.8796,-33.86177,0 18.87892,-33.86289,0 18.87846,-33.86368,0 18.87776,-33.86476,0 18.87709,-33.86568,0 18.87623,-33.86685,0 18.87543,-33.86796,0 18.87468,-33.86893,0 18.87388,-33.86992,0 18.87294,-33.87103,0 18.87199,-33.8722,0 18.87098,-33.87328,0 18.87003,-33.87437,0 18.86913,-33.87527,0 18.86833,-33.87616,0 18.86719,-33.87723,0 18.86627,-33.87808,0 18.86501,-33.87918,0 18.86403,-33.88005,0 18.86284,-33.88109,0 18.86187,-33.88188,0 18.86061,-33.88295,0 18.85969,-33.88374,0 18.85872,-33.88454,0 18.85757,-33.88551,0 18.85666,-33.88631,0 18.85545,-33.88728,0 18.85426,-33.88826,0 18.85323,-33.88914,0 18.85226,-33.88998,0 18.85128,-33.89082,0 18.85008,-33.89185,0 18.84922,-33.89259,0 18.84785,-33.8938,0 18.84705,-33.89455,0 18.84584,-33.89557,0 18.84492,-33.89644,0 18.84396,-33.89722,0 18.84281,-33.89822,0 18.84167,-33.8992,0 18.84075,-33.89999,0 18.83966,-33.90083,0 18.83853,-33.9017,0 18.83718,-33.90266,0 18.83623,-33.9033,0 18.83466,-33.90431,0 18.83326,-33.90523,0 18.83219,-33.90591,0 18.8313,-33.90642,0 18.82978,-33.90724,0 18.82866,-33.90788,0 18.82709,-33.9088,0 18.8257,-33.90968,0 18.82468,-33.91035,0 18.82307,-33.91144,0 18.82177,-33.91241,0 18.8205,-33.91335,0 18.81947,-33.9141,0 18.81824,-33.91507,0 18.81706,-33.91596,0 18.81609,-33.91675,0 18.81498,-33.91763,0 18.81392,-33.9185,0 18.81254,-33.91968,0 18.81145,-33.92061,0 18.81072,-33.9212,0 18.80955,-33.92226,0</coordinates>
      </LineString>
    </Placemark>
  </Document>
</kml>
