<?xml version="1.0" encoding="UTF-8"?>
<kml xmlns="http://www.opengis.net/kml/2.2">
  <Document>
    <name>FR24 419b9685</name>
    <Placemark>
      <name>FR24 419b9685</name>
      <Style><LineStyle><color>ff0000ff</color><width>4</width></LineStyle></Style>
      <LineString>
        <tessellate>1</tessellate>
        <coordinates>18.43237,-33.90046,0 18.43466,-33.89952,0 18.43534,-33.89911,0 18.43607,-33.8985,0 18.4368,-33.89758,0 18.43723,-33.89682,0 18.43769,-33.89575,0 18.43792,-33.89511,0 18.43814,-33.89365,0 18.43825,-33.89236,0 18.43832,-33.89138,0 18.43832,-33.89003,0 18.43831,-33.88875,0 18.43826,-33.8877,0 18.43815,-33.88668,0 18.43798,-33.88537,0 18.43781,-33.88435,0 18.43735,-33.88291,0 18.43696,-33.88184,0 18.43624,-33.8806,0 18.43534,-33.87941,0 18.43472,-33.87877,0 18.43321,-33.8774,0 18.43225,-33.87672,0 18.43077,-33.87583,0 18.42962,-33.87527,0 18.42743,-33.87437,0 18.42607,-33.87397,0 18.42407,-33.87346,0 18.42278,-33.87323,0 18.42121,-33.87296,0 18.41998,-33.87282,0 18.41875,-33.87271,0 18.41746,-33.87263,0 18.41606,-33.87267,0 18.4146,-33.87268,0 18.41331,-33.87276,0 18.41163,-33.87291,0 18.40971,-33.87313,0 18.40834,-33.87332,0 18.40692,-33.87355,0 18.40576,-33.87378,0 18.40502,-33.87392,0 18.40313,-33.87429,0 18.40193,-33.87456,0 18.40081,-33.87492,0 18.39986,-33.8752,0 18.39896,-33.87556,0 18.39781,-33.87602,0 18.397,-33.87639,0 18.39598,-33.87685,0 18.39506,-33.87732,0 18.39436,-33.87772,0 18.39341,-33.87822,0 18.39243,-33.87881,0 18.39173,-33.87927,0 18.39094,-33.87974,0 18.39003,-33.88034,0 18.38923,-33.88091,0 18.38848,-33.88138,0 18.38781,-33.88188,0 18.38699,-33.88249,0 18.38631,-33.88305,0 18.38556,-33.88361,0 18.38495,-33.88412,0 18.3843,-33.88463,0 18.38327,-33.88547,0 18.38243,-33.88618,0 18.38179,-33.88672,0 18.38093,-33.88747,0 18.38029,-33.88802,0 18.37933,-33.88882,0 18.37861,-33.88948,0 18.378,-33.89008,0 18.37727,-33.89073,0 18.37648,-33.89149,0 18.37561,-33.89231,0 18.37486,-33.89296,0 18.37407,-33.89378,0 18.37337,-33.89455,0 18.37269,-33.89524,0 18.37206,-33.89594,0 18.37116,-33.89694,0 18.37054,-33.89767,0 18.36977,-33.89855,0 18.36908,-33.89943,0 18.36828,-33.90036,0 18.36763,-33.90111,0 18.36679,-33.90211,0 18.36582,-33.90339,0 18.36531,-33.904,0 18.36438,-33.90518,0 18.36376,-33.90596,0 18.36302,-33.90688,0 18.36236,-33.90775,0 18.36174,-33.90857,0 18.35961,-33.91145,0 18.35901,-33.91224,0 18.35667,-33.91568,0 18.35614,-33.91649,0 18.35564,-33.91731,0 18.35518,-33.91805,0 18.35449,-33.91922,0 18.35406,-33.91992,0 18.35289,-33.92183,0 18.35233,-33.92276,0 18.35169,-33.92387,0 18.35112,-33.9248,0 18.35077,-33.92555,0 18.35014,-33.92671,0 18.34911,-33.92871,0 18.34863,-33.92967,0 18.34808,-33.93081,0 18.3475,-33.93205,0 18.34711,-33.9329,0 18.3466,-33.93402,0 18.3461,-33.93517,0 18.3456,-33.93626,0 18.34511,-33.93723,0 18.34454,-33.93858,0 18.34397,-33.93974,0 18.34362,-33.94059,0 18.34288,-33.94207,0 18.34248,-33.943,0 18.34201,-33.94395,0 18.34156,-33.94496,0 18.34105,-33.94613,0 18.34067,-33.94707,0 18.34036,-33.94799,0 18.34002,-33.9492,0 18.33984,-33.95013,0 18.33996,-33.95152,0 18.34027,-33.95242,0 18.34106,-33.95352,0 18.34173,-33.95413,0 18.34257,-33.95467,0 18.34391,-33.9553,0 18.34465,-33.95562,0 18.34599,-33.95604,0 18.34705,-33.95623,0 18.34768,-33.95627,0 18.34923,-33.95613,0 18.35042,-33.95572,0 18.35126,-33.95522,0 18.35203,-33.9545,0 18.3526,-33.95371,0 18.353,-33.95288,0 18.35352,-33.95171,0 18.35403,-33.95041,0 18.35451,-33.94926,0 18.35489,-33.94836,0 18.35546,-33.94687,0 18.35591,-33.94583,0 18.35638,-33.94477,0 18.35686,-33.94363,0 18.35735,-33.9424,0 18.35787,-33.94125,0 18.35832,-33.94016,0 18.35888,-33.93896,0 18.35936,-33.93789,0 18.36006,-33.93645,0 18.36051,-33.93544,0 18.36107,-33.93425,0 18.36163,-33.93315,0 18.36205,-33.93216,0 18.36376,-33.92871,0 18.36606,-33.92413,0 18.36819,-33.92038,0 18.3688,-33.91937,0 18.36954,-33.91829,0 18.37034,-33.91712,0 18.37105,-33.91608,0 18.37194,-33.91489,0 18.37273,-33.91379,0 18.37368,-33.91255,0 18.37452,-33.91144,0 18.37526,-33.91051,0 18.37604,-33.90958,0 18.37698,-33.90842,0 18.37772,-33.90756,0 18.37858,-33.90651,0 18.37921,-33.90577,0 18.38024,-33.90455,0 18.38099,-33.90362,0 18.38179,-33.90269,0 18.38276,-33.90152,0 18.38366,-33.90047,0 18.38456,-33.89946,0 18.38522,-33.89869,0 18.38635,-33.89745,0 18.38741,-33.8963,0 18.38854,-33.8952,0 18.3894,-33.89436,0 18.39038,-33.89351,0 18.39151,-33.89268,0 18.39266,-33.89189,0 18.39403,-33.89108,0 18.39535,-33.8904,0 18.39644,-33.88994,0 18.39801,-33.88925,0 18.39918,-33.88877,0 18.40053,-33.88834,0 18.40148,-33.88802,0 18.40305,-33.88756,0 18.40422,-33.88728,0 18.40574,-33.88696,0 18.4072,-33.88669,0 18.40839,-33.88654,0 18.41017,-33.88626,0 18.41131,-33.88617,0 18.41247,-33.88605,0 18.41331,-33.88598,0 18.41527,-33.88586,0 18.41635,-33.88584,0 18.41743,-33.88579,0 18.41864,-33.88584,0 18.4197,-33.88596,0 18.42088,-33.88614,0 18.42189,-33.88641,0 18.42276,-33.88672,0 18.42351,-33.88715,0 18.42419,-33.8877,0 18.42476,-33.88826,0 18.42527,-33.8891,0 18.4255,-33.88975,0 18.42564,-33.89049,0 18.42564,-33.89117,0 18.42545,-33.89185,0 18.4251,-33.89282,0 18.4248,-33.89355,0 18.42469,-33.8941,0 18.4247,-33.89473,0 18.42482,-33.89543,0 18.42499,-33.89585,0 18.4251,-33.89608,0 18.42525,-33.89639,0 18.42536,-33.89662,0 18.42547,-33.89685,0 18.42558,-33.89708,0 18.42575,-33.8974,0 18.42596,-33.89776,0 18.42619,-33.89813,0 18.42632,-33.89841,0 18.42648,-33.89864,0 18.42659,-33.89891,0 18.42676,-33.89915,0 18.42687,-33.89941,0 18.42699,-33.89964,0 18.42704,-33.89987,0 18.42699,-33.90018,0 18.42682,-33.90051,0 18.4267,-33.90074,0 18.42682,-33.90097,0 18.42704,-33.90102,0 18.42732,-33.90106,0 18.42762,-33.90111,0 18.42791,-33.90111,0 18.42816,-33.90111,0 18.42839,-33.90106,0 18.42888,-33.90102,0 18.42934,-33.90092,0 18.42962,-33.90083,0 18.42991,-33.90078,0 18.43035,-33.9007,0 18.43071,-33.9006,0 18.43114,-33.90047,0 18.43147,-33.90033,0 18.43225,-33.90004,0 18.43288,-33.89976,0 18.43388,-33.89923,0 18.43467,-33.89864,0 18.43534,-33.89786,0 18.43584,-33.89699,0 18.43612,-33.89607,0 18.43632,-33.8952,0 18.43657,-33.89401,0 18.43672,-33.89273,0 18.43683,-33.89194,0 18.43702,-33.89063,0 18.43706,-33.88966,0 18.43706,-33.88845,0 18.43696,-33.88733,0 18.4368,-33.88632,0 18.43657,-33.88518,0 18.43626,-33.88407,0 18.43586,-33.88286,0 18.43552,-33.88184,0 18.435,-33.88034,0 18.43467,-33.87946,0 18.43444,-33.87817,0 18.43439,-33.87735,0 18.4345,-33.87625,0 18.43472,-33.87552,0 18.43534,-33.87448,0 18.4359,-33.87396,0 18.43666,-33.87355,0 18.4373,-33.87341,0 18.43786,-33.87341,0 18.43843,-33.8735,0 18.43895,-33.87374,0 18.43926,-33.87401,0 18.43952,-33.87429,0 18.43977,-33.87483,0 18.43977,-33.87515,0 18.43946,-33.87574,0 18.43884,-33.87634,0 18.43769,-33.87685,0 18.43678,-33.87704,0 18.43534,-33.87723,0 18.4341,-33.87726,0 18.43287,-33.87726,0 18.43163,-33.87723,0 18.43018,-33.87721,0 18.42871,-33.87723,0 18.42749,-33.87721,0 18.42637,-33.87726,0 18.42497,-33.87726,0 18.42346,-33.8773,0 18.42236,-33.87737,0 18.42121,-33.87737,0 18.41976,-33.87744,0 18.41847,-33.87749,0 18.41726,-33.87755,0 18.416,-33.87762,0 18.4148,-33.87769,0 18.41348,-33.87776,0 18.41223,-33.87778,0 18.41097,-33.87788,0 18.41011,-33.87788,0 18.40839,-33.87797,0 18.40691,-33.87811,0 18.40576,-33.87816,0 18.40462,-33.8783,0 18.403,-33.87845,0 18.4021,-33.87858,0 18.40073,-33.87877,0 18.39941,-33.87895,0 18.39855,-33.87914,0 18.39728,-33.87936,0 18.39592,-33.8797,0 18.39476,-33.87996,0 18.39369,-33.88023,0 18.39229,-33.8806,0 18.39094,-33.881,0 18.38966,-33.88138,0 18.3887,-33.88165,0 18.38768,-33.88202,0 18.3864,-33.88248,0 18.38516,-33.88295,0 18.38419,-33.88337,0 18.38327,-33.88384,0 18.38209,-33.88445,0 18.38119,-33.88495,0 18.38007,-33.88559,0 18.37927,-33.88607,0 18.37822,-33.88673,0 18.37749,-33.88724,0 18.37643,-33.88797,0 18.37559,-33.88861,0 18.37475,-33.8893,0 18.37385,-33.88998,0 18.37284,-33.89081,0 18.37194,-33.89157,0 18.37133,-33.89214,0 18.3704,-33.89296,0 18.36942,-33.89388,0 18.36903,-33.89426,0 18.368,-33.89534,0 18.36729,-33.89603,0 18.36639,-33.89699,0 18.36576,-33.89766,0 18.36479,-33.89869,0 18.36432,-33.89923,0 18.36348,-33.90015,0 18.36258,-33.90115,0 18.3618,-33.90207,0 18.36119,-33.90283,0 18.36045,-33.90367,0 18.35978,-33.90459,0 18.3589,-33.90577,0 18.35827,-33.90665,0 18.35758,-33.90767,0 18.35695,-33.90856,0 18.35621,-33.90963,0 18.35552,-33.9107,0 18.35462,-33.91205,0 18.35398,-33.91298,0 18.35345,-33.91383,0 18.35278,-33.91479,0 18.35205,-33.91599,0 18.35146,-33.91698,0 18.35083,-33.91847,0 18.3506,-33.9195,0 18.35053,-33.92043,0 18.35077,-33.92164,0 18.35123,-33.92257,0 18.3518,-33.92318,0 18.35295,-33.92382,0 18.35395,-33.92409,0 18.35479,-33.92409,0 18.35627,-33.92387,0 18.35743,-33.92349,0 18.35855,-33.92303,0 18.35924,-33.92276,0 18.36023,-33.92226,0 18.36113,-33.92171,0 18.3618,-33.92125,0 18.36241,-33.92075,0 18.36309,-33.92015,0 18.36376,-33.91956,0 18.36439,-33.91912,0 18.36531,-33.91861,0 18.36611,-33.91832,0 18.36695,-33.91814,0 18.36785,-33.91805,0 18.36885,-33.91819,0 18.36981,-33.91855,0 18.37034,-33.91894,0 18.37105,-33.91969,0 18.37137,-33.92048,0 18.37154,-33.92145,0 18.37138,-33.92258,0 18.37109,-33.92359,0 18.37065,-33.92464,0 18.37011,-33.92564,0 18.36959,-33.92661,0 18.36903,-33.92752,0 18.36834,-33.92853,0 18.36774,-33.92949,0 18.36712,-33.9304,0 18.36628,-33.93164,0 18.36555,-33.93274,0 18.36485,-33.9337,0 18.36415,-33.93471,0 18.36353,-33.93556,0 18.36253,-33.93695,0 18.36191,-33.93782,0 18.36129,-33.93874,0 18.36016,-33.9403,0 18.35956,-33.94116,0 18.35872,-33.94235,0 18.35798,-33.94342,0 18.3558,-33.9467,0 18.35316,-33.95087,0 18.35188,-33.95302,0 18.35123,-33.95418,0 18.35066,-33.95525,0 18.35025,-33.95595,0 18.34958,-33.95718,0 18.34888,-33.95855,0 18.34823,-33.95975,0 18.34757,-33.96093,0 18.347,-33.962,0 18.34633,-33.96332,0 18.34574,-33.96442,0 18.34499,-33.96586,0 18.34373,-33.96828,0 18.34322,-33.96935,0 18.34268,-33.97037,0 18.34202,-33.97168,0 18.34027,-33.97499,0 18.33881,-33.97778,0 18.3373,-33.98076,0 18.33596,-33.98364,0 18.33469,-33.98653,0 18.33429,-33.98765,0 18.33405,-33.98845,0 18.33377,-33.98941,0 18.33349,-33.99049,0 18.33315,-33.99174,0 18.33286,-33.99277,0 18.33254,-33.99403,0 18.33231,-33.99504,0 18.332,-33.99612,0 18.33181,-33.9971,0 18.33149,-33.99836,0 18.33125,-33.9993,0 18.33097,-34.00063,0 18.33075,-34.00185,0 18.33058,-34.00301,0 18.33041,-34.00438,0 18.33029,-34.00557,0 18.33017,-34.0066,0 18.33012,-34.00753,0 18.33,-34.00879,0 18.33,-34.00999,0 18.34611,-34.06863,0 18.3439,-34.07082,0 18.34335,-34.0719,0 18.34265,-34.0729,0 18.34216,-34.07386,0 18.34137,-34.0751,0 18.34061,-34.07624,0 18.33985,-34.0773,0 18.33907,-34.07829,0 18.33816,-34.07953,0 18.3374,-34.08062,0 18.33655,-34.08177,0 18.33589,-34.08282,0 18.33542,-34.08408,0 18.33501,-34.08535,0 18.33477,-34.08654,0 18.33469,-34.08795,0 18.33475,-34.08933,0 18.3349,-34.09049,0 18.33508,-34.09168,0 18.3355,-34.09291,0 18.33573,-34.09411,0 18.33569,-34.09531,0 18.33601,-34.09647,0 18.33627,-34.0976,0 18.33662,-34.09866,0 18.33715,-34.10002,0 18.33759,-34.10125,0 18.33782,-34.10246,0 18.3385,-34.10352,0 18.33925,-34.10444,0 18.34002,-34.10538,0 18.34082,-34.10641,0 18.33943,-34.10757,0 18.34076,-34.10854,0 18.34191,-34.10921,0 18.34332,-34.10997,0 18.34509,-34.11056,0 18.34644,-34.11121,0 18.3476,-34.11176,0 18.34851,-34.1123,0 18.35,-34.11288,0 18.35113,-34.11327,0 18.35243,-34.11372,0 18.35367,-34.11414,0 18.35483,-34.11457,0 18.35611,-34.11494,0 18.35728,-34.11523,0 18.35893,-34.11569,0 18.36019,-34.11609,0 18.36175,-34.11654,0 18.36315,-34.11691,0 18.36456,-34.11724,0 18.36593,-34.11748,0 18.36731,-34.11782,0 18.36842,-34.11808,0 18.36999,-34.11832,0 18.37161,-34.11865,0 18.37295,-34.11892,0 18.37423,-34.11922,0 18.37548,-34.1196,0 18.37674,-34.11993,0 18.37793,-34.12024,0 18.37942,-34.12056,0 18.38057,-34.12084,0 18.38177,-34.12107,0 18.38299,-34.12144,0 18.38425,-34.12187,0 18.38525,-34.12229,0 18.38629,-34.12268,0 18.38742,-34.12303,0 18.38873,-34.1234,0 18.38995,-34.12371,0 18.391,-34.1241,0 18.39207,-34.12449,0 18.39308,-34.12487,0 18.3941,-34.12518,0 18.3952,-34.12558,0 18.39655,-34.12598,0 18.39821,-34.12613,0 18.39924,-34.12664,0 18.40023,-34.12706,0 18.40136,-34.12742,0 18.40241,-34.12779,0 18.40344,-34.12819,0 18.40462,-34.12854,0 18.40609,-34.12892,0 18.40725,-34.12928,0 18.40801,-34.1295,0 18.40937,-34.12991,0 18.41037,-34.13026,0 18.41157,-34.13057,0 18.41269,-34.13089,0 18.41399,-34.13131,0 18.41493,-34.13166,0 18.41609,-34.13213,0 18.41698,-34.13244,0 18.41829,-34.13278,0 18.41921,-34.133,0 18.42014,-34.13324,0 18.42094,-34.13349,0 18.42203,-34.13382,0 18.42305,-34.13416,0 18.42402,-34.13442,0 18.42495,-34.13461,0 18.42611,-34.13484,0 18.42723,-34.13507,0 18.4283,-34.13523,0 18.42945,-34.13532,0 18.43066,-34.1354,0 18.43169,-34.13549,0 18.4328,-34.13556,0 18.43397,-34.13551,0 18.4351,-34.13544,0 18.43618,-34.13532,0 18.43717,-34.13509,0 18.4384,-34.13479,0 18.43964,-34.13435,0 18.44065,-34.13404,0 18.44171,-34.13368,0 18.44272,-34.13317,0 18.44378,-34.1326,0 18.44486,-34.13181,0 18.44564,-34.13127,0 18.44667,-34.13049,0 18.44754,-34.12982,0 18.44827,-34.12926,0 18.44914,-34.12848,0 18.44998,-34.12782,0 18.45083,-34.12697,0 18.45171,-34.12637,0 18.45258,-34.12558,0 18.45347,-34.1248,0 18.45469,-34.12382,0 18.45508,-34.12354,0 18.45592,-34.12307,0 18.45654,-34.12245,0 18.45858,-34.121,0 18.45974,-34.11991,0 18.46048,-34.11915,0 18.46128,-34.11823,0 18.46208,-34.1174,0 18.4631,-34.11639,0 18.46397,-34.11531,0 18.46477,-34.11425,0 18.46542,-34.11333,0 18.46602,-34.11254,0 18.46656,-34.11117,0 18.46673,-34.11012,0 18.46753,-34.10858,0 18.46832,-34.10707,0 18.46901,-34.10582,0 18.46962,-34.10459,0 18.46987,-34.10366,0 18.47035,-34.10222,0 18.47086,-34.10087,0 18.47112,-34.09961,0 18.47115,-34.09839,0 18.47125,-34.09689,0 18.47153,-34.09552,0 18.47155,-34.09431,0 18.47152,-34.0931,0 18.47145,-34.09175,0 18.47159,-34.0903,0 18.47151,-34.08912,0 18.47138,-34.08803,0 18.47114,-34.08681,0 18.47118,-34.08557,0 18.47133,-34.08426,0 18.47124,-34.08313,0 18.47056,-34.08214,0 18.47089,-34.08078,0 18.47094,-34.0796,0 18.47082,-34.07844,0 18.4709,-34.0773,0 18.47105,-34.07602,0 18.47111,-34.0748,0 18.47143,-34.0735,0 18.47138,-34.07227,0 18.47119,-34.07079,0 18.47116,-34.06926,0 18.47113,-34.06801,0 18.47136,-34.06659,0 18.4713,-34.0652,0 18.47146,-34.0638,0 18.47141,-34.06246,0 18.4715,-34.06122,0 18.47155,-34.06004,0 18.4716,-34.05893,0 18.47144,-34.0577,0 18.47144,-34.05656,0 18.47136,-34.05536,0 18.47141,-34.05409,0 18.47132,-34.05272,0 18.47139,-34.05141,0 18.4716,-34.05044,0 18.47159,-34.0489,0 18.47144,-34.04759,0 18.47132,-34.04629,0 18.47153,-34.04502,0 18.47154,-34.04368,0 18.47138,-34.04245,0 18.47136,-34.04128,0 18.47143,-34.04003,0 18.47157,-34.03863,0 18.47181,-34.0373,0 18.47184,-34.03601,0 18.47206,-34.03457,0 18.47238,-34.03332,0 18.47245,-34.03202,0 18.47251,-34.03083,0 18.4724,-34.02952,0 18.47244,-34.02811,0 18.47246,-34.02692,0 18.47241,-34.02573,0 18.47252,-34.02401,0 18.47256,-34.02282,0 18.4728,-34.02163,0 18.4727,-34.02037,0 18.47281,-34.01909,0 18.47277,-34.01778,0 18.47268,-34.01642,0 18.47262,-34.01501,0 18.47264,-34.01367,0 18.4726,-34.01244,0 18.47274,-34.01125,0 18.47289,-34.01004,0 18.47294,-34.00882,0 18.47297,-34.0076,0 18.47311,-34.00585,0 18.47357,-34.00456,0 18.47419,-34.0033,0 18.47465,-34.00204,0 18.47499,-34.0007,0 18.47543,-33.99955,0 18.47588,-33.9983,0 18.47622,-33.997,0 18.47668,-33.99572,0 18.47693,-33.99435,0 18.47728,-33.9931,0 18.47806,-33.99178,0 18.47846,-33.99059,0 18.47885,-33.9892,0 18.47849,-33.98708,0 18.47881,-33.98542,0 18.47933,-33.98414,0 18.47816,-33.98263,0 18.47852,-33.9815,0 18.4797,-33.98013,0 18.48064,-33.97872,0 18.48143,-33.97742,0 18.48216,-33.97594,0 18.48245,-33.97456,0 18.48125,-33.97333,0 18.48228,-33.97084,0 18.48333,-33.96928,0 18.4841,-33.96804,0 18.48269,-33.96629,0 18.4836,-33.96546,0 18.48423,-33.96412,0 18.4847,-33.96295,0 18.48572,-33.96145,0 18.48641,-33.95996,0 18.48557,-33.95867,0 18.48604,-33.9572,0 18.48662,-33.95555,0 18.48404,-33.95411,0 18.48604,-33.95157,0 18.48558,-33.9498,0 18.48501,-33.94822,0 18.48461,-33.94707,0 18.4841,-33.94571,0 18.48352,-33.94412,0 18.48301,-33.94296,0 18.48244,-33.9417,0 18.48175,-33.94021,0 18.48113,-33.93878,0 18.48049,-33.93751,0 18.48001,-33.93645,0 18.47935,-33.93504,0 18.47889,-33.93416,0 18.47809,-33.93253,0 18.47743,-33.93137,0 18.47671,-33.93013,0 18.47592,-33.92889,0 18.47525,-33.92784,0 18.47448,-33.92667,0 18.47357,-33.92542,0 18.47277,-33.92434,0 18.47177,-33.92313,0 18.47099,-33.92216,0 18.46981,-33.92079,0 18.46893,-33.91978,0 18.46802,-33.91878,0 18.46693,-33.91768,0 18.46596,-33.91666,0 18.46498,-33.91568,0 18.4637,-33.91438,0 18.46287,-33.91359,0 18.46196,-33.91269,0 18.46051,-33.91127,0 18.45926,-33.91009,0 18.45829,-33.90916,0 18.45697,-33.90795,0 18.45589,-33.90693,0 18.45468,-33.90587,0 18.45361,-33.90495,0 18.45234,-33.90381,0 18.45114,-33.90274,0 18.44999,-33.90171,0 18.44941,-33.9012,0 18.44782,-33.89981,0 18.44661,-33.89873,0 18.44526,-33.89754,0 18.44425,-33.89658,0 18.44313,-33.89561,0 18.44162,-33.89447,0 18.4405,-33.89365,0 18.43926,-33.89296,0 18.43769,-33.89222,0 18.43629,-33.89168,0 18.435,-33.89127,0 18.43304,-33.89095,0 18.43208,-33.89087,0 18.43048,-33.89091,0 18.42922,-33.89124,0 18.42816,-33.89177,0 18.42733,-33.89245,0 18.42687,-33.89328,0 18.42665,-33.89394,0 18.42654,-33.89461,0 18.42653,-33.8952,0 18.42654,-33.89561,0 18.42653,-33.89594,0 18.42659,-33.89622,0 18.42659,-33.89659,0 18.42665,-33.89687,0 18.42676,-33.89738,0 18.42682,-33.89762,0 18.42687,-33.89799,0 18.4271,-33.8985,0 18.42721,-33.89891,0 18.42738,-33.89937,0 18.42739,-33.89957,0 18.42739,-33.89985,0 18.42728,-33.90013,0 18.42705,-33.90027,0 18.42682,-33.90042,0 18.42671,-33.90065,0 18.42676,-33.90092,0 18.42699,-33.90092,0 18.42721,-33.90102,0 18.42743,-33.90111,0 18.42773,-33.9012,0 18.42802,-33.90125,0 18.42831,-33.90134,0 18.42872,-33.90143,0 18.42934,-33.90153,0 18.42957,-33.90157,0 18.43013,-33.90157,0 18.43069,-33.90157,0 18.43117,-33.90157,0 18.4318,-33.90153,0 18.43259,-33.90147,0 18.43327,-33.90138,0 18.43422,-33.90111,0 18.43506,-33.90083,0 18.43596,-33.90028,0 18.4366,-33.89981,0 18.43719,-33.89923,0 18.43775,-33.89855,0 18.43821,-33.89776,0 18.43865,-33.89671,0 18.43884,-33.89594,0 18.43895,-33.89487,0 18.43889,-33.89399,0 18.43876,-33.89278,0 18.43855,-33.8918,0 18.43825,-33.89049,0 18.43792,-33.88919,0 18.43769,-33.88847,0 18.43712,-33.88696,0 18.43674,-33.88605,0 18.43612,-33.88486,0 18.43546,-33.88393,0 18.43466,-33.88295,0 18.4338,-33.88221,0 18.43315,-33.8817,0 18.43197,-33.88095,0 18.43046,-33.88023,0 18.42865,-33.8797,0 18.42715,-33.87932,0 18.42596,-33.87909,0 18.42499,-33.879,0 18.42357,-33.87881,0 18.4223,-33.87872,0 18.42082,-33.87859,0 18.41981,-33.87849,0 18.41864,-33.87839,0 18.41721,-33.87825,0 18.41612,-33.87811,0 18.41486,-33.87802,0 18.41372,-33.87793,0 18.41251,-33.87783,0 18.41125,-33.87778,0 18.41045,-33.87778,0 18.40902,-33.87778,0 18.40834,-33.87783,0 18.40698,-33.8779,0 18.40597,-33.87794,0 18.40473,-33.87804,0 18.40356,-33.87817,0 18.40176,-33.87845,0 18.40064,-33.87863,0 18.3997,-33.87886,0 18.39861,-33.87909,0 18.39746,-33.87941,0 18.39643,-33.87974,0 18.39558,-33.88002,0 18.39449,-33.88049,0 18.39358,-33.88087,0 18.39263,-33.88133,0 18.39173,-33.88179,0 18.39071,-33.8823,0 18.38994,-33.88275,0 18.38882,-33.88337,0 18.38803,-33.8839,0 18.38722,-33.88444,0 18.38654,-33.88496,0 18.38585,-33.88547,0 18.385,-33.88614,0 18.38444,-33.88655,0 18.3835,-33.88728,0 18.3827,-33.88784,0 18.38203,-33.88834,0 18.38119,-33.88893,0 18.38047,-33.88942,0 18.37979,-33.88989,0 18.37901,-33.8904,0 18.37816,-33.89099,0 18.37749,-33.89147,0 18.37671,-33.89209,0 18.37606,-33.89254,0 18.37519,-33.89319,0 18.37452,-33.89375,0 18.37357,-33.89447,0 18.3729,-33.89502,0 18.37211,-33.89566,0 18.37137,-33.89622,0 18.37049,-33.8969,0 18.36959,-33.89763,0 18.36886,-33.89827,0 18.36823,-33.89883,0 18.36752,-33.89946,0 18.36668,-33.90022,0 18.36582,-33.90102,0 18.36514,-33.90167,0 18.36432,-33.90248,0 18.3637,-33.90312,0 18.3629,-33.90395,0 18.36236,-33.90454,0 18.36157,-33.90541,0 18.36096,-33.90609,0 18.3604,-33.90674,0 18.3597,-33.90753,0 18.35894,-33.90839,0 18.35844,-33.90898,0 18.35771,-33.90985,0 18.35686,-33.9109,0 18.35621,-33.91167,0 18.35546,-33.91261,0 18.35466,-33.91363,0 18.35412,-33.91434,0 18.35358,-33.91503,0 18.35188,-33.91727,0 18.34924,-33.92047,0 18.34866,-33.92122,0 18.34762,-33.92235,0 18.34694,-33.92308,0 18.34631,-33.92373,0 18.34574,-33.92443,0 18.34504,-33.92528,0 18.34454,-33.92601,0 18.34409,-33.9267,0 18.34341,-33.92766,0 18.34296,-33.92834,0 18.3424,-33.92926,0 18.3419,-33.92999,0 18.34139,-33.93081,0 18.34093,-33.93155,0 18.34042,-33.93235,0 18.33982,-33.93324,0 18.33938,-33.93398,0 18.33876,-33.93486,0 18.33796,-33.93612,0 18.33747,-33.93677,0 18.3368,-33.93773,0 18.33596,-33.93878,0 18.33527,-33.93966,0 18.33461,-33.94052,0 18.33411,-33.94116,0 18.33344,-33.94198,0 18.33275,-33.94291,0 18.33229,-33.94357,0 18.33172,-33.94431,0 18.33114,-33.94514,0 18.3308,-33.94565,0 18.33013,-33.94656,0 18.32966,-33.94724,0 18.32901,-33.94817,0 18.32857,-33.94883,0 18.32794,-33.94976,0 18.32738,-33.95064,0 18.32682,-33.95146,0 18.32632,-33.95229,0 18.32587,-33.95302,0 18.3252,-33.95409,0 18.32474,-33.95483,0 18.32411,-33.95595,0 18.32385,-33.95636,0 18.32319,-33.95734,0 18.32116,-33.96085,0 18.31993,-33.96288,0 18.31858,-33.96506,0 18.31707,-33.96717,0 18.3155,-33.96927,0 18.31375,-33.9714,0 18.31198,-33.97364,0 18.31051,-33.97545,0 18.3094,-33.97685,0 18.30854,-33.97792,0 18.30597,-33.98135,0 18.30552,-33.98204,0 18.30362,-33.98486,0 18.30087,-33.98923,0 18.29962,-33.99179,0 18.2987,-33.99393,0 18.29829,-33.9949,0 18.29784,-33.99598,0 18.29745,-33.99701,0 18.297,-33.99802,0 18.29573,-34.00175,0 18.29538,-34.00292,0 18.29504,-34.00389,0 18.2943,-34.00608,0 18.2939,-34.0072,0 18.29364,-34.0079,0 18.29315,-34.00902,0 18.29274,-34.01001,0 18.29235,-34.01097,0 18.29218,-34.01143,0 18.29046,-34.01572,0 18.29006,-34.01674,0 18.28978,-34.01763,0 18.28938,-34.01871,0 18.28893,-34.02031,0 18.2877,-34.02489,0 18.28753,-34.0258,0 18.28686,-34.02956,0 18.28674,-34.03038,0 18.28657,-34.03146,0 18.28652,-34.03249,0 18.28641,-34.03386,0 18.28635,-34.03496,0 18.28629,-34.03616,0 18.28624,-34.03697,0 18.28618,-34.0383,0 18.28611,-34.03941,0 18.286,-34.0403,0 18.28594,-34.04123,0 18.28583,-34.04253,0 18.28571,-34.04351,0 18.28562,-34.04443,0 18.28554,-34.04547,0 18.28537,-34.04659,0 18.28529,-34.04768,0 18.28517,-34.04846,0 18.28506,-34.04942,0 18.28485,-34.05063,0 18.28468,-34.05189,0 18.28457,-34.05264,0 18.2844,-34.05352,0 18.28416,-34.05482,0 18.28394,-34.05571,0 18.28371,-34.05673,0 18.28342,-34.05776,0 18.28325,-34.05859,0 18.28304,-34.05963,0 18.28285,-34.0605,0 18.28268,-34.06129,0 18.28245,-34.0625,0 18.28231,-34.0632,0 18.28211,-34.06437,0 18.28203,-34.06517,0 18.28192,-34.06604,0 18.28176,-34.06702,0 18.28165,-34.06791,0 18.28153,-34.06879,0 18.28148,-34.06968,0 18.28136,-34.0708,0 18.28131,-34.0714,0 18.28125,-34.07249,0 18.28119,-34.07332,0 18.28119,-34.07446,0 18.28119,-34.07529,0 18.28125,-34.07634,0 18.28125,-34.0774,0 18.28131,-34.07845,0 18.28136,-34.07945,0 18.28142,-34.08023,0 18.28153,-34.08128,0 18.28159,-34.0822,0 18.28171,-34.08322,0 18.28182,-34.08397,0 18.28198,-34.08508,0 18.28205,-34.08606,0 18.28215,-34.08687,0 18.28226,-34.08778,0 18.28237,-34.08875,0 18.28251,-34.08946,0 18.28265,-34.09039,0 18.28279,-34.09142,0 18.28297,-34.09235,0 18.28314,-34.09323,0 18.28327,-34.09406,0 18.28348,-34.09495,0 18.28365,-34.09598,0 18.28377,-34.09691,0 18.28394,-34.09779,0 18.284,-34.09836,0 18.28417,-34.09933,0 18.28434,-34.10026,0 18.2845,-34.1012,0 18.28473,-34.10211,0 18.28485,-34.10291,0 18.28503,-34.10403,0 18.28523,-34.10495,0 18.28551,-34.10619,0 18.28566,-34.10696,0 18.2859,-34.10793,0 18.28611,-34.10883,0 18.28634,-34.10976,0 18.28658,-34.11067,0 18.28686,-34.11157,0 18.28708,-34.11241,0 18.28726,-34.11316,0 18.28747,-34.11392,0 18.2876,-34.11464,0 18.28794,-34.11595,0 18.28852,-34.1179,0 18.28892,-34.11925,0 18.28915,-34.12001,0 18.28938,-34.12074,0 18.28966,-34.12158,0 18.28994,-34.1223,0 18.29027,-34.12308,0 18.29132,-34.12619,0 18.29168,-34.12747,0 18.29263,-34.13072,0 18.2933,-34.13306,0 18.29424,-34.13583,0 18.29448,-34.13658,0 18.29498,-34.13787,0 18.29538,-34.13876,0 18.29567,-34.13946,0 18.29599,-34.14011,0 18.29641,-34.14095,0 18.29681,-34.14178,0 18.29728,-34.14262,0 18.29767,-34.14331,0 18.29812,-34.14418,0 18.29853,-34.14481,0 18.29905,-34.14565,0 18.2995,-34.14644,0 18.29992,-34.14711,0 18.30036,-34.14779,0 18.30098,-34.14871,0 18.30143,-34.1494,0 18.30179,-34.15002,0 18.30242,-34.15096,0 18.30294,-34.1517,0 18.30457,-34.15402,0 18.3049,-34.15453,0 18.30643,-34.15649,0 18.30754,-34.15791,0 18.30804,-34.1586,0 18.3086,-34.15929,0 18.30923,-34.16008,0 18.31152,-34.16278,0 18.31214,-34.1635,0 18.39375,-34.30648,0 18.3947,-34.30774,0 18.41011,-34.32623,0 18.41185,-34.32779,0 18.41241,-34.32825,0 18.41291,-34.32864,0 18.41348,-34.32907,0 18.41409,-34.32948,0 18.41463,-34.32985,0 18.41515,-34.33023,0 18.41566,-34.33055,0 18.41623,-34.3309,0 18.41675,-34.33125,0 18.41729,-34.33159,0 18.4178,-34.33191,0 18.41824,-34.33218,0 18.41858,-34.33242,0 18.41931,-34.33282,0 18.42004,-34.33324,0 18.42041,-34.33348,0 18.42105,-34.33383,0 18.42138,-34.33406,0 18.42201,-34.33447,0 18.42256,-34.33488,0 18.42301,-34.33521,0 18.42357,-34.33566,0 18.4243,-34.33623,0 18.42482,-34.33661,0 18.42643,-34.33795,0 18.42688,-34.33833,0 18.42732,-34.33868,0 18.42791,-34.33912,0 18.42836,-34.33944,0 18.42895,-34.33978,0 18.42951,-34.34014,0 18.43018,-34.34056,0 18.4306,-34.34079,0 18.43119,-34.34116,0 18.43181,-34.34152,0 18.43231,-34.34182,0 18.43276,-34.34207,0 18.43343,-34.34248,0 18.43405,-34.34285,0 18.43449,-34.34307,0 18.43552,-34.34368,0 18.43723,-34.34457,0 18.43872,-34.34536,0 18.43926,-34.34564,0 18.43988,-34.34596,0 18.44038,-34.34624,0 18.44084,-34.34652,0 18.4413,-34.34685,0 18.44195,-34.34724,0 18.44267,-34.34768,0 18.44313,-34.34798,0 18.44369,-34.34834,0 18.44419,-34.34871,0 18.44479,-34.34908,0 18.44536,-34.34945,0 18.44599,-34.3499,0 18.44662,-34.35029,0 18.44717,-34.35063,0 18.44753,-34.35085,0 18.4481,-34.35122,0 18.44868,-34.35155,0 18.44925,-34.35192,0 18.44971,-34.3522,0 18.45025,-34.3526,0 18.45079,-34.35299,0 18.45131,-34.35342,0 18.45177,-34.35378,0 18.45222,-34.35416,0 18.45271,-34.35452,0 18.45316,-34.35489,0 18.45366,-34.35522,0 18.45417,-34.3556,0 18.45486,-34.35597,0 18.45552,-34.35631,0 18.45613,-34.35663,0 18.45686,-34.3569,0 18.4576,-34.35718,0 18.45829,-34.35741,0 18.45892,-34.35765,0 18.45961,-34.35791,0 18.46011,-34.35814,0 18.46081,-34.35844,0 18.46146,-34.35873,0 18.46207,-34.35904,0 18.46269,-34.35933,0 18.46333,-34.3596,0 18.46384,-34.35983,0 18.46453,-34.36012,0 18.46516,-34.36034,0 18.46596,-34.36063,0 18.46673,-34.36084,0 18.46751,-34.36107,0 18.4683,-34.36123,0 18.46897,-34.36134,0 18.46964,-34.36148,0 18.47042,-34.3616,0 18.47104,-34.36166,0 18.47191,-34.36174,0 18.4726,-34.36179,0 18.47351,-34.36189,0 18.47424,-34.36189,0 18.475,-34.36193,0 18.47586,-34.36198,0 18.47649,-34.36202,0 18.47738,-34.36208,0 18.47826,-34.36211,0 18.479,-34.36217,0 18.47968,-34.36221,0 18.48029,-34.36226,0 18.48102,-34.3623,0 18.48203,-34.3623,0 18.48278,-34.36235,0 18.48352,-34.36235,0 18.48433,-34.36235,0 18.48551,-34.3624,0 18.48621,-34.36244,0 18.48691,-34.36249,0 18.48758,-34.36249,0 18.48856,-34.36253,0 18.48909,-34.36258,0 18.48993,-34.36258,0 18.49073,-34.36258,0 18.49145,-34.36253,0 18.49223,-34.36249,0 18.49302,-34.36235,0 18.49382,-34.36211,0 18.49442,-34.36194,0 18.49548,-34.36156,0 18.49621,-34.3613,0 18.49686,-34.36105,0 18.49777,-34.36063,0 18.49851,-34.36029,0 18.49932,-34.35983,0 18.49997,-34.35928,0 18.50063,-34.35853,0 18.50109,-34.35765,0 18.50132,-34.35658,0 18.50121,-34.35546,0 18.50086,-34.35453,0 18.50025,-34.35324,0 18.49963,-34.35228,0 18.49909,-34.35131,0 18.4984,-34.35017,0 18.49756,-34.34866,0 18.49697,-34.34764,0 18.49632,-34.34637,0 18.49583,-34.34526,0 18.49525,-34.34405,0 18.4947,-34.3428,0 18.49419,-34.34152,0 18.49375,-34.34029,0 18.49337,-34.33902,0 18.49302,-34.33786,0 18.49274,-34.33665,0 18.49245,-34.33535,0 18.49222,-34.33432,0 18.49205,-34.33321,0 18.49188,-34.33218,0 18.49167,-34.3309,0 18.49154,-34.32967,0 18.49139,-34.32866,0 18.49122,-34.32729,0 18.49105,-34.32591,0 18.491,-34.32481,0 18.49085,-34.32348,0 18.49068,-34.32217,0 18.49055,-34.32083,0 18.49044,-34.31973,0 18.49033,-34.31845,0 18.49016,-34.31721,0 18.4901,-34.31625,0 18.48982,-34.31314,0 18.48949,-34.30952,0 18.48936,-34.30844,0 18.48887,-34.30389,0 18.48867,-34.30132,0 18.48859,-34.3,0 18.48859,-34.29918,0 18.48856,-34.29773,0 18.48856,-34.29648,0 18.48859,-34.29547,0 18.48853,-34.29355,0 18.4885,-34.29229,0 18.4885,-34.29112,0 18.48845,-34.28991,0 18.48839,-34.28884,0 18.48839,-34.28754,0 18.48839,-34.28647,0 18.48845,-34.28507,0 18.48856,-34.284,0 18.48865,-34.28279,0 18.48881,-34.28151,0 18.48898,-34.28018,0 18.48915,-34.2789,0 18.4893,-34.27785,0 18.48948,-34.27702,0 18.48965,-34.2757,0 18.48976,-34.27469,0 18.48993,-34.27353,0 18.49005,-34.27222,0 18.49016,-34.27097,0 18.49028,-34.2698,0 18.49039,-34.26883,0 18.49049,-34.26732,0 18.49055,-34.26622,0 18.49061,-34.26508,0 18.49068,-34.26375,0 18.49073,-34.26268,0 18.49073,-34.26161,0 18.49085,-34.26059,0 18.49094,-34.25912,0 18.49108,-34.25793,0 18.49119,-34.25658,0 18.49125,-34.2556,0 18.49128,-34.25464,0 18.49128,-34.25327,0 18.49128,-34.25226,0 18.49128,-34.25098,0 18.49128,-34.25002,0 18.49122,-34.24901,0 18.49117,-34.248,0 18.49113,-34.24681,0 18.49105,-34.24553,0 18.49096,-34.24443,0 18.49091,-34.24318,0 18.49079,-34.24201,0 18.49079,-34.24108,0 18.49073,-34.24001,0 18.49068,-34.2387,0 18.49068,-34.23754,0 18.49062,-34.23619,0 18.49062,-34.2347,0 18.49062,-34.23335,0 18.49062,-34.22888,0 18.49049,-34.22635,0 18.49038,-34.22525,0 18.49022,-34.22404,0 18.49005,-34.22264,0 18.48993,-34.22162,0 18.48971,-34.22035,0 18.48949,-34.21902,0 18.48936,-34.21808,0 18.48915,-34.21683,0 18.48898,-34.21582,0 18.4887,-34.21449,0 18.48853,-34.21353,0 18.48825,-34.21225,0 18.48799,-34.21105,0 18.48776,-34.21017,0 18.48747,-34.20905,0 18.48724,-34.20804,0 18.48696,-34.20712,0 18.48667,-34.20593,0 18.4864,-34.20497,0 18.48618,-34.20401,0 18.48587,-34.20272,0 18.4857,-34.20198,0 18.48534,-34.20044,0 18.48517,-34.19957,0 18.48495,-34.19835,0 18.48478,-34.19728,0 18.48455,-34.196,0 18.48444,-34.1949,0 18.48427,-34.19378,0 18.4841,-34.19243,0 18.48405,-34.19147,0 18.48394,-34.19023,0 18.48381,-34.1888,0 18.48375,-34.18764,0 18.48366,-34.18629,0 18.48358,-34.18508,0 18.48354,-34.18391,0 18.48349,-34.18282,0 18.48349,-34.1814,0 18.48347,-34.17884,0 18.48347,-34.17726,0 18.48354,-34.17508,0 18.48352,-34.17372,0 18.48358,-34.17265,0 18.48366,-34.16862,0 18.48366,-34.16386,0 18.48388,-34.15906,0 18.48388,-34.15421,0 18.48394,-34.15086,0 18.48381,-34.14695,0 18.4837,-34.14593,0 18.48358,-34.14472,0 18.48349,-34.1434,0 18.48338,-34.14249,0 18.48326,-34.14116,0 18.48321,-34.14015,0 18.48312,-34.13904,0 18.48298,-34.13754,0 18.48287,-34.13654,0 18.48276,-34.13548,0 18.48259,-34.13416,0 18.48244,-34.13317,0 18.48231,-34.13191,0 18.4822,-34.13086,0 18.48204,-34.12968,0 18.48198,-34.12852,0 18.48186,-34.12726,0 18.48186,-34.12614,0 18.48181,-34.12479,0 18.48181,-34.12381,0 18.48181,-34.12207,0 18.48181,-34.12083,0 18.48181,-34.11946,0 18.48181,-34.11846,0 18.48175,-34.1173,0 18.48175,-34.1163,0 18.4817,-34.11502,0 18.4817,-34.11365,0 18.48164,-34.11241,0 18.48158,-34.11154,0 18.48147,-34.11035,0 18.48141,-34.10925,0 18.48129,-34.10808,0 18.48124,-34.10715,0 18.48113,-34.106,0 18.48106,-34.10501,0 18.48102,-34.10399,0 18.48078,-34.10086,0 18.48046,-34.09735,0 18.48032,-34.09337,0 18.48035,-34.09204,0 18.48035,-34.09117,0 18.48038,-34.08997,0 18.48041,-34.08907,0 18.48049,-34.08788,0 18.48052,-34.08687,0 18.48063,-34.08582,0 18.48072,-34.08485,0 18.48091,-34.08371,0 18.48106,-34.08271,0 18.48125,-34.08151,0 18.48152,-34.08033,0 18.4817,-34.07941,0 18.48186,-34.07845,0 18.48209,-34.07726,0 18.48232,-34.07605,0 18.48249,-34.07507,0 18.4827,-34.07405,0 18.48289,-34.07289,0 18.4831,-34.07167,0 18.48324,-34.07065,0 18.48341,-34.06968,0 18.48405,-34.06522,0 18.48438,-34.06213,0 18.48455,-34.06009,0 18.48461,-34.05883,0 18.48461,-34.05804,0 18.48466,-34.05675,0 18.48467,-34.05576,0 18.48466,-34.05341,0 18.48461,-34.05212,0 18.48461,-34.05091,0 18.48461,-34.04961,0 18.48461,-34.04854,0 18.48455,-34.0475,0 18.48455,-34.04649,0 18.4845,-34.04551,0 18.48444,-34.0443,0 18.48438,-34.04333,0 18.48438,-34.0423,0 18.48433,-34.04109,0 18.48427,-34.03997,0 18.48422,-34.03885,0 18.48416,-34.03757,0 18.4841,-34.03662,0 18.48405,-34.03528,0 18.48399,-34.03441,0 18.48392,-34.03336,0 18.48377,-34.03217,0 18.48343,-34.02905,0 18.48321,-34.02795,0 18.48304,-34.02695,0 18.48289,-34.02568,0 18.48276,-34.02475,0 18.48259,-34.02351,0 18.48244,-34.02224,0 18.48231,-34.02122,0 18.48214,-34.01999,0 18.48198,-34.01893,0 18.48181,-34.01761,0 18.48175,-34.01661,0 18.48164,-34.01527,0 18.48164,-34.014,0 18.48158,-34.01293,0 18.48158,-34.01042,0 18.48164,-34.00943,0 18.4817,-34.00795,0 18.48175,-34.00683,0 18.48181,-34.00566,0 18.48192,-34.00427,0 18.48203,-34.0031,0 18.48215,-34.00203,0 18.48232,-34.00082,0 18.48248,-33.9993,0 18.48265,-33.9982,0 18.48284,-33.99715,0 18.48301,-33.99603,0 18.48321,-33.99486,0 18.48347,-33.99347,0 18.48371,-33.99234,0 18.48398,-33.99114,0 18.48422,-33.9901,0 18.48455,-33.98872,0 18.48483,-33.98767,0 18.48513,-33.9863,0 18.48539,-33.98515,0 18.48558,-33.98388,0 18.48576,-33.98276,0 18.48587,-33.9815,0 18.48604,-33.98025,0 18.4861,-33.97936,0 18.48618,-33.97769,0 18.48627,-33.97657,0 18.48635,-33.97513,0 18.48639,-33.97406,0 18.48644,-33.97271,0 18.4864,-33.97151,0 18.48639,-33.97033,0 18.48629,-33.96895,0 18.48612,-33.96758,0 18.48604,-33.96666,0 18.48584,-33.96524,0 18.4857,-33.96419,0 18.48547,-33.9627,0 18.48528,-33.96162,0 18.48513,-33.96041,0 18.48495,-33.95924,0 18.48478,-33.95804,0 18.48461,-33.95705,0 18.48433,-33.95557,0 18.4841,-33.95436,0 18.48375,-33.95283,0 18.48347,-33.95162,0 18.48315,-33.95041,0 18.48276,-33.94899,0 18.48232,-33.94752,0 18.48198,-33.94636,0 18.4817,-33.94524,0 18.48136,-33.94377,0 18.48108,-33.94267,0 18.48074,-33.94107,0 18.48052,-33.9397,0 18.48021,-33.93812,0 18.48001,-33.93695,0 18.47975,-33.93546,0 18.47945,-33.93393,0 18.47918,-33.93262,0 18.47883,-33.93113,0 18.47849,-33.92978,0 18.47809,-33.92834,0 18.47769,-33.92709,0 18.47734,-33.92601,0 18.47682,-33.92468,0 18.47626,-33.92331,0 18.47551,-33.92187,0 18.47491,-33.92084,0 18.47418,-33.91956,0 18.47362,-33.91873,0 18.47261,-33.91718,0 18.47189,-33.91608,0 18.4711,-33.91507,0 18.47037,-33.91411,0 18.46925,-33.91278,0 18.46848,-33.91186,0 18.46746,-33.91063,0 18.46653,-33.90953,0 18.46561,-33.90843,0 18.46499,-33.90765,0 18.46384,-33.90623,0 18.4627,-33.90474,0 18.46189,-33.90376,0 18.46107,-33.90262,0 18.46035,-33.90167,0 18.45955,-33.90055,0 18.4586,-33.89932,0 18.4577,-33.89809,0 18.45686,-33.89697,0 18.45623,-33.89622,0 18.45526,-33.89496,0 18.4544,-33.89384,0 18.45361,-33.89287,0 18.45268,-33.89175,0 18.45204,-33.89104,0 18.45092,-33.88985,0 18.44994,-33.88896,0 18.44885,-33.88807,0 18.44784,-33.88737,0 18.44661,-33.88655,0 18.44559,-33.88598,0 18.44448,-33.8855,0 18.44324,-33.88504,0 18.44164,-33.88463,0 18.44055,-33.88445,0 18.43977,-33.8844,0 18.43848,-33.88445,0 18.43718,-33.88458,0 18.43624,-33.88486,0 18.43523,-33.88522,0 18.43443,-33.88556,0 18.43363,-33.88593,0 18.43287,-33.88641,0 18.4322,-33.88686,0 18.43163,-33.88737,0 18.43134,-33.88765,0 18.43085,-33.8882,0 18.43052,-33.88866,0 18.43025,-33.88924,0 18.42991,-33.8897,0 18.42962,-33.89017,0 18.42934,-33.89063,0 18.42917,-33.89104,0 18.42899,-33.89152,0 18.42888,-33.8918,0 18.42878,-33.89218,0 18.42867,-33.8925,0 18.42859,-33.89287,0 18.42844,-33.89333,0 18.42833,-33.89369,0 18.42828,-33.89401,0 18.42819,-33.89426,0 18.42811,-33.89447,0 18.428,-33.89479,0 18.42791,-33.89506,0 18.42783,-33.89543,0 18.42777,-33.89571,0 18.42773,-33.89603,0 18.42766,-33.89626,0 18.42766,-33.89658,0 18.42762,-33.89687,0 18.42756,-33.89715,0 18.42756,-33.89738,0 18.42755,-33.89763,0 18.42751,-33.89794,0 18.42751,-33.89817,0 18.42749,-33.89841,0 18.42751,-33.89864,0 18.42751,-33.89911,0 18.42743,-33.89937,0 18.42743,-33.8996,0 18.42739,-33.89981,0 18.42738,-33.90005,0 18.42739,-33.90027,0 18.42743,-33.90056,0 18.42768,-33.90074,0 18.42788,-33.90092,0 18.42813,-33.90111,0 18.42842,-33.90125,0 18.42867,-33.90134,0 18.42889,-33.90143,0 18.42929,-33.90152,0 18.42996,-33.9017,0 18.43054,-33.90181,0 18.43114,-33.90189,0 18.43181,-33.90202,0 18.43243,-33.90199,0 18.43293,-33.90202,0 18.43363,-33.90204,0 18.43422,-33.90202,0 18.43494,-33.90195,0 18.43556,-33.90189,0 18.43609,-33.90176,0 18.43678,-33.90153,0 18.43752,-33.90111,0 18.43809,-33.90074,0 18.43881,-33.9001,0 18.43935,-33.89948,0 18.43981,-33.89883,0 18.44009,-33.89836,0 18.44055,-33.89717,0 18.44078,-33.89616,0 18.44083,-33.89529,0 18.44083,-33.89438,0 18.44072,-33.89352,0 18.44055,-33.89259,0 18.44038,-33.89166,0 18.44009,-33.89068,0 18.43975,-33.88952,0 18.43943,-33.88857,0 18.43906,-33.88775,0 18.43849,-33.88659,0 18.43803,-33.88568,0 18.4374,-33.88467,0 18.43685,-33.88376,0 18.43626,-33.88295,0 18.43556,-33.88211,0 18.43461,-33.88106,0 18.43394,-33.88037,0 18.43282,-33.8795,0 18.43191,-33.87886,0 18.43097,-33.87827,0 18.43013,-33.87781,0 18.42911,-33.87727,0 18.42796,-33.87672,0 18.42687,-33.87625,0 18.4255,-33.87579,0 18.42435,-33.87538,0 18.42293,-33.87499,0 18.42149,-33.8746,0 18.41925,-33.87405,0 18.41801,-33.87378,0 18.41675,-33.87355,0 18.41538,-33.87337,0 18.41412,-33.87322,0 18.41274,-33.87309,0 18.41131,-33.87294,0 18.41045,-33.8729,0 18.40933,-33.87282,0 18.40799,-33.87281,0 18.40673,-33.87281,0 18.40552,-33.87286,0 18.40451,-33.87291,0 18.40305,-33.87305,0 18.40215,-33.87318,0 18.40087,-33.87337,0 18.39975,-33.8736,0 18.39857,-33.87392,0 18.39739,-33.87428,0 18.39638,-33.87462,0 18.39554,-33.87497,0 18.39453,-33.87534,0 18.39369,-33.8757,0 18.39263,-33.87611,0 18.39162,-33.87648,0 18.39067,-33.87689,0 18.38954,-33.87735,0 18.3887,-33.87776,0 18.38762,-33.87825,0 18.38657,-33.87877,0 18.38562,-33.87927,0 18.38488,-33.87965,0 18.38377,-33.88019,0 18.38259,-33.88087,0 18.38144,-33.88156,0 18.38058,-33.88207,0 18.3795,-33.88277,0 18.37881,-33.88319,0 18.37767,-33.88393,0 18.37682,-33.88449,0 18.37604,-33.88504,0 18.37492,-33.88584,0 18.37406,-33.88644,0 18.37343,-33.88686,0 18.37269,-33.88742,0 18.37183,-33.88812,0 18.37086,-33.88882,0 18.36994,-33.88952,0 18.36897,-33.89026,0 18.36828,-33.89077,0 18.36701,-33.89182,0 18.36628,-33.89236,0 18.36559,-33.89296,0 18.36479,-33.89366,0 18.3641,-33.89424,0 18.36342,-33.89487,0 18.36262,-33.89561,0 18.36202,-33.89616,0 18.36135,-33.8969,0 18.3609,-33.89734,0 18.35995,-33.89827,0 18.35936,-33.89887,0 18.35872,-33.89951,0 18.3581,-33.90018,0 18.35741,-33.90083,0 18.35684,-33.90148,0 18.35621,-33.90208,0 18.35541,-33.90288,0 18.35478,-33.90353,0 18.35406,-33.90431,0 18.35205,-33.90651,0 18.35081,-33.90784,0 18.34997,-33.90871,0 18.34934,-33.90935,0 18.34874,-33.90994,0 18.34823,-33.91049,0 18.34745,-33.91127,0 18.34678,-33.91191,0 18.34448,-33.91411,0 18.34386,-33.9147,0 18.34305,-33.91545,0 18.34225,-33.91619,0 18.34167,-33.91672,0 18.34078,-33.91763,0 18.34011,-33.91827,0 18.33927,-33.91908,0 18.33859,-33.91988,0 18.33814,-33.92043,0 18.33761,-33.92122,0 18.33733,-33.92196,0 18.33715,-33.92299,0 18.3373,-33.924,0 18.33773,-33.92485,0 18.33841,-33.92555,0 18.33916,-33.92597,0 18.34002,-33.92616,0 18.34145,-33.92615,0 18.34252,-33.92583,0 18.34339,-33.92541,0 18.34442,-33.92468,0 18.34545,-33.92373,0 18.34621,-33.9229,0 18.34705,-33.92201,0 18.34778,-33.92125,0 18.34854,-33.92048,0 18.3494,-33.91959,0 18.3502,-33.91875,0 18.351,-33.91792,0 18.35171,-33.91713,0 18.35261,-33.91621,0 18.3534,-33.9154,0 18.35415,-33.91461,0 18.35506,-33.91363,0 18.35591,-33.91273,0 18.35661,-33.91205,0 18.35731,-33.91132,0 18.35815,-33.91037,0 18.35877,-33.90971,0 18.35964,-33.90879,0 18.36034,-33.90797,0 18.36302,-33.90516,0 18.36393,-33.90417,0 18.36473,-33.90339,0 18.36544,-33.90271,0 18.36645,-33.90179,0 18.36742,-33.90097,0 18.3683,-33.90024,0 18.3692,-33.89952,0 18.37015,-33.89877,0 18.3712,-33.89794,0 18.37206,-33.89729,0 18.37315,-33.89655,0 18.37396,-33.89598,0 18.37492,-33.89534,0 18.37612,-33.8945,0 18.37704,-33.89389,0 18.37795,-33.89329,0 18.37923,-33.89246,0 18.38041,-33.89177,0 18.38139,-33.89124,0 18.38243,-33.89067,0 18.38343,-33.89012,0 18.38499,-33.88924,0 18.38596,-33.88866,0 18.38699,-33.88807,0 18.38797,-33.88747,0 18.38915,-33.88669,0 18.39005,-33.88614,0 18.39117,-33.88537,0 18.39212,-33.88477,0 18.39302,-33.88422,0 18.39392,-33.88365,0 18.39504,-33.88298,0 18.39598,-33.88239,0 18.39684,-33.88188,0 18.39792,-33.88118,0 18.39879,-33.88069,0 18.39981,-33.88007,0 18.40084,-33.87946,0 18.40216,-33.87867,0 18.40316,-33.87808,0 18.40417,-33.87753,0 18.40519,-33.87704,0 18.40619,-33.87657,0 18.40731,-33.87616,0 18.40885,-33.87564,0 18.41006,-33.87534,0 18.41124,-33.87515,0 18.41224,-33.87502,0 18.41314,-33.8749,0 18.41398,-33.87488,0 18.41516,-33.87488,0 18.41595,-33.87492,0 18.41703,-33.87509,0 18.41791,-33.87524,0 18.41863,-33.87547,0 18.41942,-33.87575,0 18.42001,-33.87597,0 18.42082,-33.8763,0 18.42161,-33.87653,0 18.42218,-33.87672,0 18.42312,-33.87703,0 18.42367,-33.87723,0 18.42442,-33.87755,0 18.42491,-33.87785,0 18.4255,-33.8783,0 18.42592,-33.87868,0 18.42643,-33.87914,0 18.42682,-33.87951,0 18.42727,-33.87991,0 18.42779,-33.88039,0 18.42816,-33.88078,0 18.42854,-33.88118,0 18.42876,-33.88142,0 18.42922,-33.88184,0 18.42962,-33.88211,0 18.43002,-33.88244,0 18.43037,-33.88277,0 18.43063,-33.88316,0 18.43074,-33.88376,0 18.43065,-33.88416,0 18.43041,-33.88467,0 18.43013,-33.88504,0 18.42974,-33.88556,0 18.42951,-33.88596,0 18.42929,-33.88628,0 18.42872,-33.88692,0 18.42848,-33.88728,0 18.42825,-33.88765,0 18.42796,-33.88812,0 18.42777,-33.88852,0 18.42762,-33.88896,0 18.42745,-33.88938,0 18.42739,-33.8897,0 18.42727,-33.89008,0 18.42721,-33.8904,0 18.4271,-33.89087,0 18.42704,-33.89131,0 18.42699,-33.8917,0 18.42699,-33.892,0 18.42693,-33.89231,0 18.42693,-33.89264,0 18.42693,-33.89296,0 18.42688,-33.89329,0 18.42687,-33.89351,0 18.42688,-33.89389,0 18.42687,-33.89424,0 18.42688,-33.89445,0 18.42687,-33.89465,0 18.42688,-33.89501,0 18.42693,-33.89538,0 18.42693,-33.89566,0 18.42693,-33.89599,0 18.42699,-33.8963,0 18.42704,-33.89671,0 18.42705,-33.89697,0 18.4271,-33.89724,0 18.42716,-33.89753,0 18.42721,-33.89786,0 18.42727,-33.89809,0 18.42733,-33.89841,0 18.42732,-33.89877,0 18.42739,-33.89906,0 18.42738,-33.89928,0 18.42743,-33.89951,0 18.42743,-33.89978,0 18.42739,-33.89999,0 18.42739,-33.90022,0 18.42745,-33.90051,0 18.42751,-33.90074,0 18.42772,-33.90074,0 18.42811,-33.90074,0 18.42844,-33.9007,0 18.42888,-33.90069,0 18.42928,-33.90069,0 18.42968,-33.90069,0 18.42997,-33.90064,0 18.43048,-33.90064,0 18.43082,-33.90064,0 18.43119,-33.9006,0 18.43185,-33.9006,0 18.43254,-33.9006,0 18.43321,-33.90056,0 18.43416,-33.90047,0 18.43517,-33.90027,0 18.43597,-33.89999,0 18.43666,-33.89967,0 18.43758,-33.89896,0 18.43814,-33.89836,0 18.43887,-33.89731,0 18.43915,-33.89667,0 18.43946,-33.89552,0 18.43958,-33.89445,0 18.43958,-33.89352,0 18.43941,-33.8924,0 18.43915,-33.89122,0 18.43884,-33.89026,0 18.43837,-33.88898,0 18.43797,-33.88806,0 18.43769,-33.88742,0 18.43702,-33.88596,0 18.43652,-33.88504,0 18.4359,-33.8838,0 18.43539,-33.88293,0 18.4346,-33.88156,0 18.43388,-33.8806,0 18.43317,-33.87979,0 18.43203,-33.87877,0 18.43105,-33.87811,0 18.42929,-33.87708,0 18.42811,-33.87657,0 18.42705,-33.87616,0 18.42547,-33.87561,0 18.42424,-33.87529,0 18.42273,-33.87502,0 18.42178,-33.87485,0 18.42001,-33.87467,0 18.41881,-33.87462,0 18.4178,-33.8746,0 18.41634,-33.8746,0 18.41527,-33.87465,0 18.41421,-33.87474,0 18.41297,-33.87488,0 18.41171,-33.87504,0 18.41051,-33.87515,0 18.40914,-33.87541,0 18.40815,-33.87566,0 18.40686,-33.87593,0 18.40535,-33.87634,0 18.40427,-33.87667,0 18.40347,-33.87695,0 18.40216,-33.87741,0 18.40101,-33.87788,0 18.40014,-33.87822,0 18.39902,-33.87872,0 18.39806,-33.87909,0 18.39735,-33.87941,0 18.39621,-33.88002,0 18.39529,-33.88049,0 18.39443,-33.881,0 18.39336,-33.88165,0 18.39243,-33.88221,0 18.3914,-33.88286,0 18.39031,-33.88351,0 18.38921,-33.88422,0 18.38837,-33.88472,0 18.38671,-33.88575,0 18.38602,-33.88617,0 18.38505,-33.88682,0 18.38385,-33.88756,0 18.38293,-33.88812,0 18.38167,-33.88896,0 18.37833,-33.89127,0 18.37727,-33.89203,0 18.37641,-33.89264,0 18.37542,-33.89342,0 18.37458,-33.89401,0 18.37362,-33.89479,0 18.37267,-33.89557,0 18.372,-33.89616,0 18.37097,-33.89706,0 18.37017,-33.89771,0 18.36926,-33.8985,0 18.36858,-33.89914,0 18.36742,-33.90022,0 18.36674,-33.90092,0 18.36599,-33.90157,0 18.36502,-33.9025,0 18.36421,-33.90321,0 18.36342,-33.90404,0 18.36267,-33.90483,0 18.36185,-33.90569,0 18.36124,-33.90642,0 18.36056,-33.90721,0 18.35987,-33.90791,0 18.359,-33.90889,0 18.35833,-33.90968,0 18.35776,-33.91035,0 18.35698,-33.91122,0 18.3563,-33.912,0 18.35541,-33.91312,0 18.35466,-33.91401,0 18.35398,-33.91489,0 18.35335,-33.91573,0 18.35283,-33.9164,0 18.35197,-33.9175,0 18.35135,-33.91833,0 18.35072,-33.91917,0 18.34986,-33.92038,0 18.34919,-33.9213,0 18.34831,-33.92238,0 18.34773,-33.92322,0 18.347,-33.92415,0 18.34621,-33.92523,0 18.34539,-33.92634,0 18.34396,-33.92839,0 18.34341,-33.92921,0 18.34265,-33.93034,0 18.34202,-33.93137,0 18.34133,-33.93244,0 18.34083,-33.9332,0 18.34011,-33.93434,0 18.33966,-33.93507,0 18.33899,-33.93616,0 18.33842,-33.93713,0 18.33792,-33.938,0 18.3367,-33.94007,0 18.335,-33.94276,0 18.33292,-33.94603,0 18.33235,-33.94687,0 18.33158,-33.94798,0 18.33102,-33.94881,0 18.33035,-33.9498,0 18.32966,-33.95069,0 18.32901,-33.95151,0 18.32817,-33.9525,0 18.32771,-33.95306,0 18.32668,-33.95432,0 18.32581,-33.95526,0 18.32536,-33.95586,0 18.32445,-33.95692,0 18.32346,-33.9581,0 18.32148,-33.96046,0 18.3201,-33.96228,0 18.31892,-33.96382,0 18.31604,-33.96777,0 18.31449,-33.97,0 18.31258,-33.97284,0 18.31186,-33.97392,0 18.31043,-33.97606,0 18.30963,-33.97731,0 18.309,-33.97833,0 18.30837,-33.9795,0 18.30776,-33.98058,0 18.30726,-33.98149,0 18.30664,-33.98273,0 18.30603,-33.98392,0 18.30558,-33.98492,0 18.305,-33.98616,0 18.30465,-33.98695,0 18.30401,-33.98854,0 18.30356,-33.98973,0 18.30305,-33.99119,0 18.30266,-33.99257,0 18.30236,-33.99356,0 18.30199,-33.99463,0 18.3016,-33.99596,0 18.30115,-33.99719,0 18.30076,-33.9982,0 18.30025,-33.99953,0 18.29979,-34.00068,0 18.29927,-34.00208,0 18.29891,-34.0031,0 18.29847,-34.00418,0 18.29802,-34.00548,0 18.2975,-34.00667,0 18.29711,-34.00768,0 18.2967,-34.0086,0 18.29622,-34.00978,0 18.29578,-34.01102,0 18.29544,-34.0119,0 18.29498,-34.01317,0 18.2947,-34.01418,0 18.29435,-34.01535,0 18.29397,-34.01656,0 18.29364,-34.01784,0 18.29332,-34.01902,0 18.29302,-34.02008,0 18.29269,-34.02112,0 18.29241,-34.02238,0 18.29218,-34.02351,0 18.29195,-34.0248,0 18.29184,-34.02591,0 18.29172,-34.02694,0 18.29172,-34.02801,0 18.29172,-34.02936,0 18.29179,-34.03043,0 18.29195,-34.03173,0 18.29207,-34.03244,0 18.2924,-34.03381,0 18.29275,-34.03509,0 18.29315,-34.03625,0 18.29358,-34.03738,0 18.29397,-34.03839,0 18.29442,-34.0394,0 18.2951,-34.04072,0 18.29561,-34.04165,0 18.2961,-34.0426,0 18.29664,-34.0437,0 18.29728,-34.04489,0 18.29773,-34.04589,0 18.29847,-34.04728,0 18.29896,-34.04819,0 18.29952,-34.04924,0 18.30013,-34.05035,0 18.3007,-34.05128,0 18.30128,-34.05231,0 18.30179,-34.05329,0 18.30225,-34.05413,0 18.30272,-34.0551,0 18.30334,-34.0562,0 18.30385,-34.0572,0 18.30437,-34.05808,0 18.30488,-34.05887,0 18.30535,-34.05963,0 18.30608,-34.06082,0 18.30666,-34.06171,0 18.30729,-34.06279,0 18.30791,-34.06381,0 18.30855,-34.06485,0 18.30916,-34.06581,0 18.30986,-34.06688,0 18.31038,-34.06772,0 18.31095,-34.0686,0 18.31163,-34.06956,0 18.31242,-34.07076,0 18.31301,-34.07177,0 18.31364,-34.07275,0 18.31427,-34.07396,0 18.31466,-34.07487,0 18.31501,-34.07582,0 18.31527,-34.07666,0 18.31555,-34.0779,0 18.31567,-34.07886,0 18.31593,-34.0801,0 18.31621,-34.08113,0 18.31656,-34.0822,0 18.31684,-34.08298,0 18.31724,-34.08408,0 18.31758,-34.08494,0 18.31799,-34.08578,0 18.31847,-34.08687,0 18.31884,-34.0876,0 18.31937,-34.08852,0 18.31987,-34.08939,0 18.32033,-34.09011,0 18.32096,-34.0909,0 18.32166,-34.09154,0 18.32233,-34.09211,0 18.32312,-34.09273,0 18.32382,-34.09328,0 18.32469,-34.09387,0 18.32554,-34.09453,0 18.32615,-34.09502,0 18.32697,-34.09565,0 18.32777,-34.09621,0 18.32863,-34.09672,0 18.32934,-34.09712,0 18.33013,-34.09753,0 18.33102,-34.0979,0 18.33195,-34.0983,0 18.33271,-34.09868,0 18.33372,-34.09914,0 18.33444,-34.0995,0 18.3354,-34.09996,0 18.33635,-34.10042,0 18.33715,-34.10082,0 18.33792,-34.10115,0 18.3387,-34.10147,0 18.33961,-34.10189,0 18.3403,-34.10217,0 18.34116,-34.10254,0 18.34162,-34.1028,0 18.34242,-34.10319,0 18.34336,-34.10362,0 18.34414,-34.10403,0 18.34487,-34.10435,0 18.34549,-34.10463,0 18.34627,-34.10495,0 18.34711,-34.10533,0 18.34803,-34.10566,0 18.34879,-34.10596,0 18.34963,-34.10631,0 18.35053,-34.10664,0 18.35137,-34.10701,0 18.35216,-34.10724,0 18.35295,-34.10757,0 18.35392,-34.10794,0 18.35462,-34.10825,0 18.35552,-34.10859,0 18.35642,-34.10893,0 18.35724,-34.10925,0 18.35799,-34.10953,0 18.35873,-34.1098,0 18.35978,-34.11021,0 18.36073,-34.11059,0 18.36142,-34.11082,0 18.36256,-34.11129,0 18.36348,-34.11163,0 18.3646,-34.11205,0 18.36542,-34.11232,0 18.36841,-34.11337,0 18.37143,-34.11446,0 18.3725,-34.11488,0 18.37355,-34.1153,0 18.3744,-34.11562,0 18.37566,-34.11609,0 18.37682,-34.11653,0 18.37783,-34.11685,0 18.37878,-34.11717,0 18.37996,-34.11754,0 18.38086,-34.11781,0 18.3819,-34.11813,0 18.38287,-34.11846,0 18.38416,-34.11887,0 18.38516,-34.11916,0 18.38674,-34.11964,0 18.38774,-34.11995,0 18.38882,-34.12028,0 18.38999,-34.12061,0 18.39088,-34.12083,0 18.39201,-34.12115,0 18.39291,-34.12143,0 18.39386,-34.12177,0 18.39504,-34.12216,0 18.39627,-34.12262,0 18.39745,-34.12303,0 18.39855,-34.12335,0 18.3997,-34.12368,0 18.40067,-34.124,0 18.40165,-34.12427,0 18.40273,-34.12461,0 18.40399,-34.12498,0 18.40496,-34.12527,0 18.40582,-34.12549,0 18.40702,-34.12586,0 18.40788,-34.12609,0 18.40905,-34.12642,0 18.41017,-34.12674,0 18.41137,-34.12707,0 18.4124,-34.1274,0 18.41325,-34.12766,0 18.4144,-34.12805,0 18.4156,-34.12842,0 18.41652,-34.12875,0 18.41735,-34.12903,0 18.41858,-34.1294,0 18.41932,-34.12963,0 18.42054,-34.12999,0 18.4215,-34.13024,0 18.42273,-34.13054,0 18.42367,-34.13075,0 18.4248,-34.13104,0 18.4259,-34.13145,0 18.42676,-34.13182,0 18.42739,-34.1321,0 18.42861,-34.13269,0 18.42945,-34.13317,0 18.43024,-34.13356,0 18.43128,-34.1341,0 18.43231,-34.13461,0 18.43332,-34.13507,0 18.43426,-34.1355,0 18.43511,-34.13594,0 18.4359,-34.1364,0 18.43685,-34.13695,0 18.43764,-34.13736,0 18.43831,-34.13773,0 18.43946,-34.13815,0 18.44055,-34.13839,0 18.44181,-34.13848,0 18.44278,-34.13843,0 18.44427,-34.13824,0 18.44542,-34.13797,0 18.44655,-34.13763,0 18.44799,-34.13713,0 18.44896,-34.13667,0 18.44988,-34.13625,0 18.45098,-34.13571,0 18.45199,-34.13512,0 18.45294,-34.13461,0 18.45389,-34.13406,0 18.45479,-34.13351,0 18.45569,-34.13292,0 18.4567,-34.13223,0 18.4576,-34.1315,0 18.45866,-34.13068,0 18.45961,-34.12994,0 18.46062,-34.12912,0 18.46167,-34.12828,0 18.4627,-34.12745,0 18.46378,-34.12651,0 18.46481,-34.12568,0 18.46561,-34.125,0 18.46653,-34.12414,0 18.46723,-34.12354,0 18.46825,-34.12265,0 18.46916,-34.122,0 18.47013,-34.12125,0 18.47138,-34.12038,0 18.47237,-34.11967,0 18.47323,-34.11905,0 18.47414,-34.11837,0 18.47525,-34.11749,0 18.47614,-34.11674,0 18.47682,-34.11607,0 18.47769,-34.11497,0 18.47832,-34.1138,0 18.47883,-34.1125,0 18.47906,-34.1115,0 18.47928,-34.11035,0 18.47946,-34.1092,0 18.47958,-34.10789,0 18.47969,-34.10682,0 18.4798,-34.10552,0 18.47985,-34.1044,0 18.47986,-34.10305,0 18.47986,-34.10184,0 18.47986,-34.10101,0 18.47985,-34.09978,0 18.47975,-34.09867,0 18.47963,-34.09732,0 18.4794,-34.09634,0 18.47906,-34.09505,0 18.4786,-34.09383,0 18.47816,-34.09291,0 18.47749,-34.09181,0 18.47683,-34.09085,0 18.47597,-34.08969,0 18.47528,-34.08885,0 18.47454,-34.08797,0 18.47379,-34.0871,0 18.47288,-34.08606,0 18.47222,-34.08527,0 18.47149,-34.08444,0 18.47054,-34.08339,0 18.46981,-34.08257,0 18.46897,-34.08165,0 18.46813,-34.0808,0 18.46756,-34.0801,0 18.46662,-34.07899,0 18.4659,-34.07805,0 18.4651,-34.07693,0 18.46443,-34.07607,0 18.46365,-34.0751,0 18.46303,-34.07428,0 18.46207,-34.07321,0 18.46135,-34.0724,0 18.46034,-34.07126,0 18.45944,-34.07016,0 18.45882,-34.06934,0 18.45798,-34.06805,0 18.45737,-34.06702,0 18.4568,-34.066,0 18.45617,-34.06474,0 18.45566,-34.06372,0 18.45501,-34.06252,0 18.4544,-34.06137,0 18.45372,-34.06009,0 18.45305,-34.05872,0 18.45251,-34.05776,0 18.45187,-34.05647,0 18.45131,-34.05542,0 18.4507,-34.05432,0 18.45011,-34.05338,0 18.44948,-34.05212,0 18.4489,-34.05107,0 18.44833,-34.04989,0 18.44784,-34.0486,0 18.44748,-34.04747,0 18.44713,-34.04644,0 18.44683,-34.04535,0 18.44655,-34.04407,0 18.44622,-34.04277,0 18.44593,-34.04178,0 18.44564,-34.04049,0 18.44537,-34.03935,0 18.44509,-34.03812,0 18.44492,-34.03674,0 18.44487,-34.03569,0 18.44487,-34.03391,0 18.44492,-34.03285,0 18.44513,-34.03164,0 18.44536,-34.03057,0 18.44554,-34.02946,0 18.44576,-34.02834,0 18.44593,-34.02713,0 18.4461,-34.02587,0 18.44627,-34.0248,0 18.44645,-34.02368,0 18.44666,-34.02237,0 18.4469,-34.02121,0 18.44711,-34.02022,0 18.44733,-34.01898,0 18.44765,-34.01754,0 18.4479,-34.01614,0 18.44806,-34.01514,0 18.44834,-34.01395,0 18.44862,-34.01279,0 18.44908,-34.0112,0 18.44941,-34.0101,0 18.44965,-34.00906,0 18.45011,-34.00748,0 18.45042,-34.00648,0 18.45079,-34.0052,0 18.4512,-34.0041,0 18.45171,-34.00301,0 18.45211,-34.00194,0 18.4526,-34.00072,0 18.45308,-33.99966,0 18.45356,-33.99857,0 18.45394,-33.99761,0 18.45434,-33.99651,0 18.45468,-33.99532,0 18.45503,-33.99398,0 18.45526,-33.99286,0 18.45546,-33.99152,0 18.45566,-33.99035,0 18.45583,-33.98923,0 18.45613,-33.9879,0 18.45642,-33.98685,0 18.45675,-33.98552,0 18.45709,-33.9846,0 18.45748,-33.98328,0 18.45783,-33.98202,0 18.45821,-33.98094,0 18.45863,-33.97987,0 18.45905,-33.97884,0 18.45972,-33.97746,0 18.46024,-33.97647,0 18.46092,-33.97522,0 18.46149,-33.97424,0 18.46191,-33.97353,0 18.46269,-33.97229,0 18.46327,-33.97136,0 18.4639,-33.97038,0 18.46471,-33.96922,0 18.4655,-33.96808,0 18.46613,-33.96721,0 18.46706,-33.96579,0 18.46779,-33.96479,0 18.46847,-33.96373,0 18.46891,-33.96286,0 18.46962,-33.96167,0 18.47026,-33.96048,0 18.47105,-33.95883,0 18.47144,-33.95801,0 18.472,-33.95668,0 18.47256,-33.95549,0 18.47312,-33.95421,0 18.47357,-33.95311,0 18.47424,-33.95142,0 18.4746,-33.95031,0 18.47491,-33.94867,0 18.47508,-33.94748,0 18.47517,-33.94636,0 18.47519,-33.94492,0 18.47523,-33.9437,0 18.47523,-33.94249,0 18.47525,-33.94153,0 18.47519,-33.94011,0 18.47519,-33.93874,0 18.47511,-33.93765,0 18.47508,-33.93617,0 18.47491,-33.93466,0 18.47469,-33.93352,0 18.47452,-33.93237,0 18.47425,-33.9309,0 18.47391,-33.92955,0 18.47368,-33.92876,0 18.47318,-33.92702,0 18.47271,-33.92569,0 18.47233,-33.92464,0 18.47183,-33.9234,0 18.47128,-33.92201,0 18.47076,-33.92093,0 18.47004,-33.91937,0 18.46942,-33.91818,0 18.46875,-33.91708,0 18.46796,-33.91585,0 18.46716,-33.91475,0 18.46656,-33.91393,0 18.46572,-33.91278,0 18.46458,-33.91135,0 18.46373,-33.91032,0 18.46298,-33.90939,0 18.46157,-33.90775,0 18.46067,-33.90669,0 18.45943,-33.9053,0 18.4584,-33.90418,0 18.4576,-33.90325,0 18.45669,-33.90223,0 18.45535,-33.90074,0 18.4544,-33.89973,0 18.4535,-33.89877,0 18.45251,-33.89762,0 18.45137,-33.89631,0 18.45039,-33.8952,0 18.44942,-33.89417,0 18.44856,-33.89324,0 18.44773,-33.89232,0 18.44667,-33.89119,0 18.44588,-33.8903,0 18.44509,-33.88939,0 18.44408,-33.88834,0 18.44318,-33.88742,0 18.44204,-33.8864,0 18.44111,-33.88577,0 18.43977,-33.88504,0 18.43866,-33.88454,0 18.43736,-33.88412,0 18.43632,-33.88393,0 18.43494,-33.88388,0 18.43405,-33.88403,0 18.43317,-33.8843,0 18.43237,-33.88463,0 18.43163,-33.88496,0 18.43069,-33.88545,0 18.42997,-33.88598,0 18.42945,-33.8864,0 18.42895,-33.88692,0 18.42844,-33.88751,0 18.42808,-33.88812,0 18.42785,-33.88854,0 18.42768,-33.88914,0 18.42755,-33.88994,0 18.42739,-33.89054,0 18.42715,-33.89108,0 18.42693,-33.89152,0 18.42671,-33.892,0 18.42654,-33.89236,0 18.42632,-33.89296,0 18.42619,-33.89347,0 18.42613,-33.89384,0 18.42613,-33.89441,0 18.42609,-33.89484,0 18.42609,-33.8952,0 18.42602,-33.89566,0 18.42602,-33.89599,0 18.42607,-33.89636,0 18.42619,-33.89669,0 18.4263,-33.89706,0 18.42642,-33.89734,0 18.42653,-33.89766,0 18.42665,-33.89827,0 18.42671,-33.89868,0 18.42676,-33.89891,0 18.42688,-33.89925,0 18.42705,-33.89962,0 18.4271,-33.89987,0 18.42716,-33.90013,0 18.42727,-33.90038,0 18.42743,-33.9006,0 18.42766,-33.90074,0 18.42796,-33.90083,0 18.42882,-33.90097,0 18.42911,-33.90102,0 18.42934,-33.90102,0 18.42962,-33.90106,0 18.4299,-33.90106,0 18.43013,-33.90106,0 18.43041,-33.90106,0 18.43088,-33.90111,0 18.43114,-33.90111,0 18.4314,-33.90106,0 18.43214,-33.90102,0 18.43277,-33.90092,0 18.43355,-33.90074,0 18.4342,-33.90055,0 18.435,-33.90024,0 18.43579,-33.89987,0 18.43652,-33.89946,0 18.43719,-33.89886,0 18.43775,-33.89809,0 18.43797,-33.89745,0 18.43825,-33.8963,0 18.43825,-33.89539,0 18.43809,-33.89424,0 18.43786,-33.89333,0 18.43758,-33.89236,0 18.43712,-33.89133,0 18.43657,-33.89021,0 18.43609,-33.88938,0 18.43545,-33.88829,0 18.43489,-33.88737,0 18.4342,-33.88631,0 18.43323,-33.88486,0 18.43265,-33.88403,0 18.43163,-33.88277,0 18.43082,-33.88193,0 18.42985,-33.88106,0 18.42889,-33.88042,0 18.42785,-33.87979,0 18.42654,-33.87918,0 18.42516,-33.87872,0 18.42334,-33.87827,0 18.42218,-33.87807,0 18.42133,-33.87799,0 18.4197,-33.87785,0 18.41863,-33.87785,0 18.41755,-33.87793,0 18.41617,-33.87804,0 18.41505,-33.87817,0 18.41389,-33.8783,0 18.41291,-33.87844,0 18.41219,-33.87854,0 18.41063,-33.87877,0 18.40937,-33.879,0 18.40815,-33.87923,0 18.40691,-33.87951,0 18.40576,-33.87979,0 18.40451,-33.8801,0 18.40347,-33.88039,0 18.40244,-33.88072,0 18.40143,-33.88101,0 18.40038,-33.88137,0 18.39941,-33.88174,0 18.39832,-33.88221,0 18.39717,-33.88271,0 18.39632,-33.88309,0 18.39546,-33.88351,0 18.39464,-33.88394,0 18.3934,-33.88458,0 18.39252,-33.88509,0 18.3914,-33.88575,0 18.39037,-33.88635,0 18.3896,-33.88683,0 18.38854,-33.88756,0 18.38757,-33.88826,0 18.38663,-33.88893,0 18.38601,-33.88939,0 18.38506,-33.89008,0 18.38405,-33.89085,0 18.38327,-33.8914,0 18.3823,-33.89217,0 18.38156,-33.89273,0 18.38058,-33.89347,0 18.37968,-33.8942,0 18.37893,-33.89482,0 18.37818,-33.89538,0 18.37749,-33.89598,0 18.37676,-33.89658,0 18.37589,-33.89738,0 18.37503,-33.89813,0 18.37435,-33.89873,0 18.37368,-33.89932,0 18.37256,-33.90033,0 18.37183,-33.90106,0 18.37114,-33.90176,0 18.37049,-33.90239,0 18.36966,-33.9032,0 18.36875,-33.90404,0 18.36805,-33.90469,0 18.36725,-33.90548,0 18.36634,-33.90642,0 18.36576,-33.90707,0 18.36519,-33.90776,0 18.36454,-33.90857,0 18.36376,-33.90953,0 18.36313,-33.91032,0 18.3625,-33.91112,0 18.36191,-33.91191,0 18.36142,-33.91256,0 18.36073,-33.91356,0 18.36023,-33.91429,0 18.3597,-33.91507,0 18.35918,-33.91582,0 18.35855,-33.91675,0 18.35798,-33.91768,0 18.35747,-33.91847,0 18.3569,-33.91927,0 18.35621,-33.92033,0 18.35569,-33.92117,0 18.35501,-33.92221,0 18.3544,-33.92322,0 18.35395,-33.92409,0 18.35345,-33.92491,0 18.35277,-33.9261,0 18.35226,-33.92709,0 18.3518,-33.92788,0 18.3512,-33.92894,0 18.35077,-33.92978,0 18.3502,-33.93072,0 18.34963,-33.93165,0 18.349,-33.93281,0 18.34837,-33.93383,0 18.34784,-33.93475,0 18.34734,-33.93565,0 18.34689,-33.93658,0 18.34638,-33.93755,0 18.34593,-33.93846,0 18.34528,-33.93975,0 18.34482,-33.94063,0 18.3442,-33.94171,0 18.34364,-33.94267,0 18.34291,-33.94377,0 18.34224,-33.94473,0 18.34139,-33.94594,0 18.34078,-33.94679,0 18.34022,-33.94748,0 18.33954,-33.94839,0 18.33876,-33.94952,0 18.33786,-33.95068,0 18.33727,-33.95157,0 18.33652,-33.95256,0 18.33578,-33.95357,0 18.33523,-33.95435,0 18.33469,-33.95506,0 18.33405,-33.95609,0 18.33321,-33.9572,0 18.33265,-33.95801,0 18.33226,-33.95865,0 18.33164,-33.96021,0 18.33498,-33.96246,0 18.33755,-33.96186,0 18.33988,-33.95993,0 18.34123,-33.95828,0 18.34196,-33.95739,0 18.34246,-33.95673,0 18.34402,-33.95511,0 18.34511,-33.95409,0 18.34597,-33.95329,0 18.34717,-33.95222,0 18.34803,-33.95143,0 18.34906,-33.95045,0 18.35009,-33.94943,0 18.35092,-33.94858,0 18.35182,-33.94757,0 18.35255,-33.94675,0 18.35352,-33.94561,0 18.35429,-33.94469,0 18.35501,-33.94375,0 18.35563,-33.94295,0 18.35647,-33.9418,0 18.3573,-33.94072,0 18.3581,-33.93961,0 18.35883,-33.93864,0 18.35958,-33.93765,0 18.36061,-33.93639,0 18.36129,-33.93558,0 18.3621,-33.93458,0 18.36285,-33.9336,0 18.3637,-33.93251,0 18.36445,-33.93155,0 18.36674,-33.92844,0 18.36903,-33.92532,0 18.37144,-33.92216,0 18.37447,-33.91827,0 18.37704,-33.91466,0 18.37915,-33.91182,0 18.38013,-33.91061,0 18.38086,-33.90971,0 18.38144,-33.90907,0 18.38219,-33.90814,0 18.38304,-33.9071,0 18.38394,-33.90614,0 18.38461,-33.90532,0 18.38573,-33.90404,0 18.38652,-33.90321,0 18.38728,-33.90237,0 18.38809,-33.90138,0 18.38898,-33.90028,0 18.38985,-33.89925,0 18.39071,-33.89817,0 18.39128,-33.89753,0 18.39218,-33.8963,0 18.39313,-33.89507,0 18.39363,-33.89438,0 18.39431,-33.89346,0 18.39512,-33.89236,0 18.39603,-33.89124,0 18.39672,-33.8904,0 18.39758,-33.88938,0 18.39857,-33.88829,0 18.39941,-33.88742,0 18.4005,-33.88635,0 18.4016,-33.88531,0 18.40244,-33.88458,0 18.40347,-33.88379,0 18.40473,-33.88305,0 18.40574,-33.88248,0 18.40685,-33.88198,0 18.40832,-33.88129,0 18.40919,-33.88091,0 18.41045,-33.88039,0 18.41154,-33.88011,0 18.4128,-33.88002,0 18.41377,-33.88011,0 18.41482,-33.88046,0 18.4156,-33.88086,0 18.41623,-33.88132,0 18.41681,-33.88188,0 18.41743,-33.88253,0 18.41802,-33.88326,0 18.41847,-33.88385,0 18.41887,-33.8844,0 18.41948,-33.88541,0 18.41981,-33.88586,0 18.42032,-33.88669,0 18.42065,-33.88728,0 18.42116,-33.88797,0 18.42167,-33.88877,0 18.42201,-33.88933,0 18.42241,-33.89003,0 18.42276,-33.89063,0 18.42306,-33.89113,0 18.4234,-33.89168,0 18.42373,-33.89212,0 18.42407,-33.89254,0 18.42452,-33.89296,0 18.42499,-33.89329,0 18.42553,-33.89374,0 18.42579,-33.89422,0 18.42581,-33.8947,0 18.4257,-33.89525,0 18.42567,-33.89585,0 18.4259,-33.89645,0 18.42598,-33.89671,0 18.42609,-33.89699,0 18.42632,-33.89745,0 18.42642,-33.89785,0 18.42654,-33.89813,0 18.42671,-33.89854,0 18.42682,-33.89878,0 18.42699,-33.89928,0 18.42705,-33.89952,0 18.42716,-33.89985,0 18.42721,-33.90005,0 18.42732,-33.90033,0 18.42743,-33.9006,0 18.42768,-33.90078,0 18.428,-33.90092,0 18.42839,-33.90097,0 18.42865,-33.90102,0 18.42906,-33.90102,0 18.42934,-33.90102,0 18.4299,-33.90097,0 18.43019,-33.90092,0 18.43048,-33.90092,0 18.43091,-33.90083,0 18.43134,-33.90078,0 18.43158,-33.9007,0 18.4322,-33.90055,0 18.43293,-33.90033,0 18.43377,-33.89996,0 18.43454,-33.89952,0 18.43517,-33.89901,0 18.43586,-33.89817,0 18.43635,-33.8974,0 18.43674,-33.89658,0 18.43706,-33.89571,0 18.4374,-33.89468,0 18.43769,-33.89366,0 18.43792,-33.89255,0 18.43809,-33.89163,0 18.43826,-33.89045,0 18.43838,-33.88924,0 18.43837,-33.88834,0 18.43821,-33.88719,0 18.43803,-33.88635,0 18.43758,-33.88514,0 18.43696,-33.88394,0 18.4364,-33.88307,0 18.43573,-33.88229,0 18.43483,-33.88147,0 18.43399,-33.88069,0 18.4331,-33.87996,0 18.43192,-33.87914,0 18.43097,-33.87854,0 18.42991,-33.87802,0 18.42861,-33.8774,0 18.42727,-33.87685,0 18.42642,-33.87653,0 18.42514,-33.87611,0 18.4239,-33.87579,0 18.4229,-33.87552,0 18.42161,-33.87527,0 18.42047,-33.87509,0 18.41915,-33.87485,0 18.41789,-33.87467,0 18.4169,-33.87447,0 18.41583,-33.87424,0 18.41482,-33.87401,0 18.41342,-33.87378,0 18.41223,-33.8736,0 18.41097,-33.87341,0 18.40971,-33.87327,0 18.40868,-33.87322,0 18.40731,-33.87318,0 18.40602,-33.87323,0 18.40485,-33.87332,0 18.40389,-33.87346,0 18.40255,-33.87369,0 18.40158,-33.87392,0 18.40053,-33.87424,0 18.39947,-33.87453,0 18.39823,-33.87497,0 18.39706,-33.87541,0 18.39609,-33.87579,0 18.39518,-33.8762,0 18.39432,-33.87667,0 18.39341,-33.87717,0 18.39243,-33.87778,0 18.39145,-33.8784,0 18.39067,-33.87895,0 18.38954,-33.87978,0 18.3886,-33.88049,0 18.38791,-33.88105,0 18.38717,-33.8816,0 18.38625,-33.88239,0 18.38551,-33.88303,0 18.3847,-33.88374,0 18.384,-33.8844,0 18.3831,-33.88519,0 18.38248,-33.88582,0 18.38167,-33.88663,0 18.38081,-33.88747,0 18.38013,-33.8882,0 18.3794,-33.88898,0 18.37856,-33.88985,0 18.37794,-33.89058,0 18.37715,-33.89143,0 18.37632,-33.89236,0 18.37561,-33.8932,0 18.37503,-33.89388,0 18.37435,-33.89468,0 18.37355,-33.89557,0 18.37269,-33.89655,0 18.37194,-33.89745,0 18.37143,-33.89808,0 18.37069,-33.89901,0 18.36983,-33.90004,0 18.36925,-33.90079,0 18.36852,-33.90175,0 18.36791,-33.90253,0 18.36712,-33.90358,0 18.36645,-33.90445,0 18.36583,-33.90527,0 18.36514,-33.90632,0 18.36454,-33.90715,0 18.36388,-33.90809,0 18.3632,-33.90916,0 18.36258,-33.91013,0 18.36191,-33.91118,0 18.36136,-33.91209,0 18.36085,-33.91292,0 18.36017,-33.91397,0 18.35967,-33.91484,0 18.35905,-33.91589,0 18.35855,-33.91675,0 18.35787,-33.91791,0 18.35737,-33.91882,0 18.35667,-33.9201,0 18.35615,-33.92113,0 18.35564,-33.9221,0 18.35513,-33.92303,0 18.35466,-33.92392,0 18.35417,-33.92487,0 18.35358,-33.92597,0 18.35318,-33.92671,0 18.35255,-33.92793,0 18.35209,-33.9289,0 18.35154,-33.92995,0 18.35112,-33.93095,0 18.35059,-33.9321,0 18.35014,-33.93309,0 18.34958,-33.93439,0 18.34923,-33.93533,0 18.34767,-33.93887,0 18.34621,-33.94226,0 18.34453,-33.94611,0 18.34313,-33.9494,0 18.34229,-33.95169,0 18.34219,-33.95255,0 18.3423,-33.95353,0 18.34265,-33.95432,0 18.34319,-33.9549,0 18.34402,-33.95548,0 18.34504,-33.95586,0 18.34621,-33.95604,0 18.34734,-33.95604,0 18.3484,-33.9559,0 18.34934,-33.95562,0 18.35032,-33.9552,0 18.35132,-33.95457,0 18.3521,-33.95398,0 18.353,-33.95316,0 18.35367,-33.95247,0 18.35449,-33.95148,0 18.35518,-33.95045,0 18.35586,-33.94926,0 18.35655,-33.94803,0 18.35703,-33.94707,0 18.35781,-33.94538,0 18.35821,-33.94459,0 18.35884,-33.94324,0 18.3593,-33.94221,0 18.35987,-33.94101,0 18.36033,-33.93998,0 18.36085,-33.93883,0 18.36118,-33.93796,0 18.3618,-33.9364,0 18.36222,-33.93528,0 18.36286,-33.93375,0 18.36348,-33.93239,0 18.36398,-33.93123,0 18.36456,-33.93007,0 18.36496,-33.92913,0 18.36559,-33.92778,0 18.36611,-33.9268,0 18.36679,-33.92536,0 18.36742,-33.92424,0 18.368,-33.92327,0 18.36863,-33.92215,0 18.36931,-33.92094,0 18.37004,-33.91969,0 18.37071,-33.9185,0 18.37144,-33.91727,0 18.37206,-33.91624,0 18.37275,-33.91503,0 18.37343,-33.91396,0 18.37396,-33.91301,0 18.37469,-33.91187,0 18.37536,-33.9109,0 18.37618,-33.90977,0 18.37693,-33.90866,0 18.37772,-33.90752,0 18.3783,-33.9067,0 18.37912,-33.9055,0 18.37996,-33.90432,0 18.3808,-33.90321,0 18.3815,-33.90223,0 18.38226,-33.9012,0 18.3831,-33.90013,0 18.38408,-33.89887,0 18.38512,-33.89763,0 18.38607,-33.89662,0 18.38694,-33.89566,0 18.38781,-33.89484,0 18.38887,-33.89378,0 18.38985,-33.89287,0 18.3914,-33.89166,0 18.39246,-33.89081,0 18.39386,-33.88985,0 18.39515,-33.88898,0 18.39655,-33.88815,0 18.39798,-33.88737,0 18.39952,-33.88663,0 18.40087,-33.886,0 18.4021,-33.8855,0 18.40344,-33.88504,0 18.40513,-33.88458,0 18.40633,-33.88426,0 18.40799,-33.88393,0 18.40937,-33.8837,0 18.41068,-33.88353,0 18.41213,-33.88344,0 18.41337,-33.88348,0 18.41486,-33.88361,0 18.41606,-33.88371,0 18.41718,-33.88385,0 18.4183,-33.88403,0 18.4197,-33.88431,0 18.42048,-33.88454,0 18.42166,-33.88481,0 18.4227,-33.88509,0 18.42384,-33.88547,0 18.42487,-33.88575,0 18.42602,-33.88617,0 18.42676,-33.88646,0 18.42785,-33.88691,0 18.42889,-33.88737,0 18.42974,-33.88775,0 18.43054,-33.88817,0 18.43145,-33.88868,0 18.43225,-33.88919,0 18.43306,-33.88989,0 18.43349,-33.89044,0 18.43371,-33.89104,0 18.43363,-33.8918,0 18.43328,-33.89222,0 18.4326,-33.89259,0 18.43181,-33.89273,0 18.43082,-33.89278,0 18.42991,-33.89264,0 18.42884,-33.89236,0 18.42785,-33.89208,0 18.42648,-33.8917,0 18.42553,-33.89149,0 18.4243,-33.8914,0 18.4235,-33.89152,0 18.4229,-33.89177,0 18.42239,-33.89218,0 18.42211,-33.89287,0 18.42217,-33.89328,0 18.42253,-33.89394,0 18.42299,-33.89445,0 18.42356,-33.89506,0 18.42407,-33.89571,0 18.42435,-33.89607,0 18.42475,-33.89658,0 18.42487,-33.89678,0 18.42519,-33.89717,0 18.42539,-33.89738,0 18.42558,-33.89767,0 18.42585,-33.89794,0 18.42602,-33.89817,0 18.4262,-33.89841,0 18.42648,-33.89874,0 18.42665,-33.89896,0 18.42682,-33.89925,0 18.42699,-33.89962,0 18.42704,-33.89983,0 18.42715,-33.9001,0 18.42722,-33.90032,0 18.42738,-33.90056,0 18.42762,-33.90074,0 18.42788,-33.90079,0 18.42822,-33.90088,0 18.42844,-33.90088,0 18.42888,-33.90092,0 18.42922,-33.90097,0 18.42985,-33.90102,0 18.43013,-33.90102,0 18.43048,-33.90102,0 18.43136,-33.90102,0 18.43209,-33.90097,0 18.4327,-33.90088,0 18.43357,-33.90069,0 18.43449,-33.90046,0 18.43523,-33.90022,0 18.43609,-33.8999,0 18.43674,-33.89955,0 18.4374,-33.89911,0 18.43826,-33.89822,0 18.43876,-33.89754,0 18.43906,-33.89692,0 18.43943,-33.89589,0 18.43964,-33.89501,0 18.43969,-33.89394,0 18.43966,-33.89296,0 18.43949,-33.89204,0 18.43924,-33.8911,0 18.43898,-33.89021,0 18.43853,-33.88898,0 18.43809,-33.88792,0 18.43752,-33.88654,0 18.43706,-33.88565,0 18.43666,-33.88482,0 18.43615,-33.88384,0 18.43567,-33.88293,0 18.43517,-33.88202,0 18.43472,-33.88118,0 18.43403,-33.88011,0 18.43346,-33.87932,0 18.4326,-33.87835,0 18.43191,-33.87765,0 18.431,-33.87681,0 18.43013,-33.87616,0 18.42912,-33.87547,0 18.42819,-33.87499,0 18.4271,-33.87439,0 18.42625,-33.87402,0 18.42486,-33.8735,0 18.42346,-33.87318,0 18.42239,-33.87296,0 18.42127,-33.87273,0 18.42001,-33.87248,0 18.41863,-33.87218,0 18.41749,-33.87197,0 18.41628,-33.87177,0 18.41475,-33.87159,0 18.41337,-33.87154,0 18.41208,-33.87154,0 18.4109,-33.87163,0 18.40944,-33.87181,0 18.40816,-33.87201,0 18.40692,-33.87231,0 18.40582,-33.87262,0 18.40485,-33.87291,0 18.40389,-33.87318,0 18.40283,-33.87355,0 18.40148,-33.87405,0 18.40038,-33.87448,0 18.39975,-33.87476,0 18.39851,-33.87538,0 18.39739,-33.87593,0 18.39655,-33.87643,0 18.39571,-33.87694,0 18.39466,-33.8776,0 18.39403,-33.87799,0 18.39283,-33.87877,0 18.39203,-33.87932,0 18.39088,-33.88011,0 18.38985,-33.88076,0 18.38893,-33.88138,0 18.3882,-33.88188,0 18.38719,-33.88257,0 18.38631,-33.88323,0 18.38551,-33.8838,0 18.3847,-33.88444,0 18.384,-33.88499,0 18.38322,-33.88565,0 18.38247,-33.88626,0 18.38167,-33.88696,0 18.38091,-33.8876,0 18.38018,-33.88824,0 18.3791,-33.88914,0 18.37822,-33.88998,0 18.37732,-33.89077,0 18.37658,-33.89152,0 18.37564,-33.89246,0 18.37481,-33.89329,0 18.37396,-33.89415,0 18.37323,-33.89488,0 18.37245,-33.89571,0 18.37166,-33.89653,0 18.37097,-33.89729,0 18.37029,-33.89799,0 18.36943,-33.89892,0 18.36875,-33.89969,0 18.36808,-33.90042,0 18.36724,-33.90143,0 18.36656,-33.90225,0 18.36588,-33.90306,0 18.36508,-33.90395,0 18.36445,-33.90474,0 18.36376,-33.90555,0 18.36302,-33.90656,0 18.36225,-33.90756,0 18.36142,-33.90856,0 18.36079,-33.90939,0 18.36016,-33.91019,0 18.35947,-33.91098,0 18.35861,-33.91205,0 18.35781,-33.91302,0 18.35726,-33.91374,0 18.35489,-33.91675,0 18.35221,-33.92033,0 18.35009,-33.92318,0 18.34812,-33.92564,0 18.34728,-33.9267,0 18.34642,-33.92783,0 18.34579,-33.92857,0 18.34509,-33.92949,0 18.34448,-33.93027,0 18.34386,-33.93118,0 18.34336,-33.93182,0 18.34276,-33.93272,0 18.34229,-33.93343,0 18.3419,-33.93407,0 18.34139,-33.93498,0 18.341,-33.93562,0 18.34055,-33.93645,0 18.33999,-33.93736,0 18.33933,-33.93844,0 18.3387,-33.93933,0 18.33818,-33.94012,0 18.33742,-33.94121,0 18.33664,-33.94231,0 18.33607,-33.94319,0 18.33555,-33.94389,0 18.33447,-33.94543,0 18.33366,-33.94654,0 18.33286,-33.94766,0 18.33212,-33.94873,0 18.33097,-33.95045,0 18.32857,-33.95395,0 18.32604,-33.95773,0 18.32365,-33.96144,0 18.32155,-33.96492,0 18.32077,-33.96629,0 18.32005,-33.96763,0 18.31942,-33.96877,0 18.31896,-33.96973,0 18.31819,-33.97105,0 18.31741,-33.97266,0 18.31696,-33.97348,0 18.31611,-33.97513,0 18.3155,-33.97632,0 18.31477,-33.97774,0 18.31295,-33.98155,0 18.31079,-33.98639,0 18.30967,-33.98872,0 18.3086,-33.99086,0 18.30765,-33.99257,0 18.30711,-33.99352,0 18.30642,-33.99454,0 18.30563,-33.99573,0 18.30488,-33.99673,0 18.30412,-33.9977,0 18.30322,-33.99892,0 18.30254,-33.99985,0 18.30145,-34.00129,0 18.30064,-34.00246,0 18.2998,-34.00374,0 18.29916,-34.00464,0 18.29857,-34.00566,0 18.29767,-34.0072,0 18.2971,-34.00827,0 18.29664,-34.00906,0 18.29605,-34.01024,0 18.2955,-34.01148,0 18.29435,-34.01414,0 18.29392,-34.01537,0 18.29347,-34.01651,0 18.29319,-34.01729,0 18.29268,-34.01871,0 18.2919,-34.02141,0 18.29184,-34.02168,0 18.29161,-34.0228,0 18.29121,-34.02587,0 18.29111,-34.02708,0 18.29106,-34.02846,0 18.29098,-34.02954,0 18.29098,-34.03094,0 18.29095,-34.03244,0 18.29103,-34.03374,0 18.29109,-34.03467,0 18.29115,-34.03606,0 18.29121,-34.03695,0 18.29128,-34.03825,0 18.2914,-34.03931,0 18.29149,-34.04025,0 18.29172,-34.04156,0 18.29184,-34.04247,0 18.29212,-34.04366,0 18.29235,-34.04477,0 18.29269,-34.04612,0 18.29302,-34.04713,0 18.29344,-34.04845,0 18.29375,-34.04933,0 18.29412,-34.05035,0 18.29453,-34.05138,0 18.29498,-34.05259,0 18.29544,-34.05362,0 18.29584,-34.05464,0 18.29618,-34.05548,0 18.29664,-34.05655,0 18.29695,-34.05743,0 18.29721,-34.05846,0 18.2975,-34.05927,0 18.29779,-34.06036,0 18.29807,-34.06133,0 18.29836,-34.06213,0 18.2987,-34.0633,0 18.29893,-34.06423,0 18.2993,-34.06544,0 18.29958,-34.06645,0 18.29986,-34.06737,0 18.30019,-34.06846,0 18.30053,-34.06968,0 18.30081,-34.07066,0 18.30109,-34.07158,0 18.30128,-34.07261,0 18.30149,-34.07382,0 18.30165,-34.07497,0 18.30179,-34.07615,0 18.30193,-34.07735,0 18.30205,-34.07831,0 18.30219,-34.07968,0 18.30231,-34.0808,0 18.30236,-34.08192,0 18.30238,-34.08307,0 18.30231,-34.08424,0 18.30221,-34.08527,0 18.30208,-34.08634,0 18.30193,-34.08751,0 18.30182,-34.08847,0 18.30182,-34.08957,0 18.30185,-34.09053,0 18.30199,-34.09172,0 18.30214,-34.09267,0 18.30231,-34.09383,0 18.30244,-34.0947,0 18.30261,-34.09579,0 18.30282,-34.097,0 18.30305,-34.09799,0 18.30322,-34.099,0 18.30345,-34.10019,0 18.30362,-34.10115,0 18.30374,-34.10231,0 18.3039,-34.10326,0 18.30401,-34.10417,0 18.30414,-34.10533,0 18.30425,-34.10608,0 18.3044,-34.10742,0 18.30448,-34.10841,0 18.30457,-34.10953,0 18.30457,-34.11067,0 18.3046,-34.11171,0 18.30465,-34.11283,0 18.30462,-34.11411,0 18.30462,-34.11502,0 18.30457,-34.11617,0 18.30451,-34.11736,0 18.30451,-34.11836,0 18.30442,-34.11963,0 18.3044,-34.12047,0 18.30429,-34.12166,0 18.3042,-34.12279,0 18.30408,-34.12386,0 18.30397,-34.12493,0 18.30385,-34.12572,0 18.30374,-34.12712,0 18.30373,-34.12784,0 18.30367,-34.12885,0 18.30367,-34.13004,0 18.30367,-34.13095,0 18.30379,-34.13196,0 18.30391,-34.13289,0 18.30401,-34.13365,0 18.30414,-34.13466,0 18.30431,-34.13564,0 18.30457,-34.13667,0 18.30474,-34.13754,0 18.30513,-34.13878,0 18.30535,-34.1396,0 18.30558,-34.14043,0 18.30591,-34.14146,0 18.30625,-34.14253,0 18.3067,-34.14368,0 18.30694,-34.14449,0 18.30731,-34.14546,0 18.30771,-34.14647,0 18.30809,-34.14742,0 18.30844,-34.14816,0 18.30888,-34.14926,0 18.30922,-34.15009,0 18.30961,-34.15091,0 18.31012,-34.15196,0 18.3106,-34.15296,0 18.311,-34.15356,0 18.31146,-34.1544,0 18.31209,-34.15538,0 18.31264,-34.15627,0 18.31324,-34.15715,0 18.31382,-34.15791,0 18.31449,-34.15883,0 18.31507,-34.15956,0 18.31564,-34.16022,0 18.31633,-34.16106,0 18.31701,-34.1619,0 18.3178,-34.16267,0 18.31861,-34.16352,0 18.3193,-34.16422,0 18.32032,-34.1651,0 18.32119,-34.16585,0 18.32193,-34.16641,0 18.32268,-34.16697,0 18.32365,-34.16771,0 18.32424,-34.16821,0 18.3252,-34.16892,0 18.32626,-34.16963,0 18.32714,-34.17014,0 18.328,-34.17059,0 18.32886,-34.17102,0 18.32989,-34.17148,0 18.3308,-34.17188,0 18.33195,-34.17232,0 18.33321,-34.17279,0 18.33418,-34.17311,0 18.33506,-34.17339,0 18.3363,-34.17376,0 18.33725,-34.17407,0 18.33847,-34.17447,0 18.3396,-34.17476,0 18.34053,-34.17498,0 18.34167,-34.17522,0 18.34257,-34.17535,0 18.34358,-34.17554,0 18.34465,-34.17577,0 18.34557,-34.17604,0 18.34666,-34.17636,0 18.34773,-34.17673,0 18.34874,-34.17709,0 18.34975,-34.17741,0 18.35059,-34.17769,0 18.35175,-34.17805,0 18.3526,-34.17833,0 18.35378,-34.17865,0 18.35472,-34.17898,0 18.35574,-34.17938,0 18.35664,-34.17975,0 18.35741,-34.18005,0 18.35849,-34.18048,0 18.35941,-34.18079,0 18.36023,-34.18112,0 18.36118,-34.18149,0 18.36197,-34.18181,0 18.36262,-34.18205,0 18.36331,-34.18236,0 18.36411,-34.18266,0 18.36485,-34.18303,0 18.36522,-34.18323,0 18.36595,-34.18359,0 18.36645,-34.18387,0 18.36714,-34.18415,0 18.3678,-34.18442,0 18.36845,-34.1847,0 18.36891,-34.18489,0 18.36977,-34.18531,0</coordinates>
      </LineString>
    </Placemark>
  </Document>
</kml>
