<?xml version="1.0" encoding="UTF-8"?>
<kml xmlns="http://www.opengis.net/kml/2.2">
  <Document>
    <name>FR24 41c0a537</name>
    <Placemark>
      <name>FR24 41c0a537</name>
      <Style><LineStyle><color>ff0000ff</color><width>4</width></LineStyle></Style>
      <LineString>
        <tessellate>1</tessellate>
        <coordinates>18.43158,-33.89232,0 18.43328,-33.88984,0 18.43511,-33.88715,0 18.43563,-33.88631,0 18.43596,-33.88545,0 18.4362,-33.8844,0 18.43618,-33.88353,0 18.43607,-33.88289,0 18.43573,-33.88193,0 18.43512,-33.88081,0 18.43456,-33.88005,0 18.43405,-33.87941,0 18.43315,-33.87849,0 18.43243,-33.87783,0 18.43147,-33.87721,0 18.43035,-33.87671,0 18.42912,-33.87639,0 18.42819,-33.8762,0 18.42693,-33.87607,0 18.42602,-33.87602,0 18.42487,-33.87602,0 18.42339,-33.87611,0 18.42239,-33.87625,0 18.42138,-33.87634,0 18.42041,-33.87653,0 18.41927,-33.87672,0 18.41824,-33.87695,0 18.41726,-33.87713,0 18.41635,-33.87732,0 18.41499,-33.87762,0 18.414,-33.87783,0 18.41297,-33.87813,0 18.41188,-33.87839,0 18.41084,-33.87868,0 18.40942,-33.87909,0 18.40839,-33.87937,0 18.40685,-33.87988,0 18.40557,-33.88033,0 18.40445,-33.88069,0 18.40356,-33.88101,0 18.40221,-33.88152,0 18.4013,-33.88193,0 18.40027,-33.8823,0 18.39935,-33.88271,0 18.39795,-33.8833,0 18.39695,-33.88374,0 18.39569,-33.88435,0 18.3947,-33.88481,0 18.39386,-33.88522,0 18.39272,-33.88579,0 18.39191,-33.88626,0 18.391,-33.88678,0 18.38991,-33.88737,0 18.38905,-33.88789,0 18.3882,-33.88843,0 18.38736,-33.88893,0 18.38631,-33.88961,0 18.38556,-33.89012,0 18.38448,-33.89091,0 18.38383,-33.8914,0 18.38293,-33.89204,0 18.38203,-33.89278,0 18.38116,-33.89347,0 18.38036,-33.89417,0 18.37967,-33.89487,0 18.37893,-33.89561,0 18.37824,-33.89627,0 18.37738,-33.89713,0 18.37675,-33.89776,0 18.37598,-33.89854,0 18.37515,-33.89943,0 18.3744,-33.90018,0 18.37383,-33.90083,0 18.37315,-33.90157,0 18.3724,-33.90241,0 18.37166,-33.90325,0 18.37114,-33.90381,0 18.37037,-33.90459,0 18.36897,-33.90623,0 18.36845,-33.90688,0 18.36774,-33.90775,0 18.36702,-33.90856,0 18.36634,-33.90949,0 18.36595,-33.91003,0 18.36531,-33.91098,0 18.36479,-33.91167,0 18.36433,-33.91242,0 18.36387,-33.91319,0 18.36331,-33.91402,0 18.36273,-33.91503,0 18.36219,-33.91594,0 18.36174,-33.91667,0 18.3613,-33.9175,0 18.3609,-33.91829,0 18.3605,-33.91912,0 18.35999,-33.92015,0 18.35956,-33.92088,0 18.35911,-33.9218,0 18.35866,-33.92258,0 18.35815,-33.9235,0 18.35771,-33.92432,0 18.3572,-33.92519,0 18.35636,-33.92679,0 18.35581,-33.92788,0 18.35449,-33.93062,0 18.35412,-33.9315,0 18.35244,-33.93521,0 18.35192,-33.93626,0 18.35146,-33.93705,0 18.35104,-33.93787,0 18.35059,-33.93869,0 18.3502,-33.93947,0 18.34969,-33.94035,0 18.34919,-33.94125,0 18.34851,-33.9424,0 18.34806,-33.94318,0 18.34756,-33.94409,0 18.34706,-33.94492,0 18.34648,-33.94575,0 18.34582,-33.94679,0 18.34505,-33.9478,0 18.34436,-33.94868,0 18.34358,-33.94963,0 18.34274,-33.95068,0 18.34196,-33.95164,0 18.34133,-33.95241,0 18.34059,-33.95334,0 18.33979,-33.95432,0 18.3391,-33.95517,0 18.33842,-33.95609,0 18.33769,-33.95705,0 18.33687,-33.95809,0 18.33635,-33.95883,0 18.33557,-33.95988,0 18.33492,-33.96074,0 18.33315,-33.96318,0 18.33252,-33.96405,0 18.33063,-33.96693,0 18.32968,-33.9684,0 18.32674,-33.97289,0 18.32457,-33.97624,0 18.32211,-33.98039,0 18.31982,-33.98504,0 18.31942,-33.98593,0 18.31875,-33.98726,0 18.31824,-33.98827,0 18.31768,-33.98927,0 18.31718,-33.99016,0 18.31667,-33.991,0 18.31606,-33.99207,0 18.31547,-33.9931,0 18.31495,-33.99403,0 18.31438,-33.99496,0 18.31387,-33.99582,0 18.3132,-33.99701,0 18.31266,-33.99784,0 18.31135,-33.99998,0 18.30956,-34.00296,0 18.30791,-34.00571,0 18.30603,-34.00902,0 18.30431,-34.01213,0 18.30249,-34.01518,0 18.30191,-34.01609,0 18.30122,-34.01721,0 18.3007,-34.01805,0 18.30019,-34.01889,0 18.29962,-34.02,0 18.29902,-34.02109,0 18.29851,-34.02214,0 18.29807,-34.02303,0 18.29767,-34.02405,0 18.29733,-34.02503,0 18.29706,-34.02594,0 18.29693,-34.02689,0 18.29699,-34.02806,0 18.29717,-34.02901,0 18.29739,-34.03011,0 18.29767,-34.03104,0 18.29795,-34.03203,0 18.29836,-34.03336,0 18.29868,-34.03455,0 18.29902,-34.03551,0 18.29935,-34.03661,0 18.29975,-34.03775,0 18.30008,-34.03885,0 18.30036,-34.03976,0 18.30076,-34.041,0 18.30111,-34.04211,0 18.30143,-34.04306,0 18.30199,-34.04448,0 18.30238,-34.04544,0 18.30294,-34.04668,0 18.30339,-34.04764,0 18.30391,-34.04863,0 18.3044,-34.04956,0 18.30488,-34.0504,0 18.30545,-34.05133,0 18.30603,-34.0524,0 18.3067,-34.0535,0 18.3072,-34.05437,0 18.30782,-34.05528,0 18.30838,-34.05624,0 18.30906,-34.05724,0 18.30963,-34.05817,0 18.31015,-34.05897,0 18.31062,-34.05972,0 18.31129,-34.06074,0 18.31198,-34.06162,0 18.3127,-34.06261,0 18.31329,-34.06339,0 18.31398,-34.06432,0 18.31471,-34.06535,0 18.31541,-34.06623,0 18.31611,-34.06723,0 18.31684,-34.06823,0 18.31735,-34.06892,0 18.31793,-34.06981,0 18.31853,-34.07071,0 18.31924,-34.07177,0 18.31993,-34.07286,0 18.32056,-34.07382,0 18.32136,-34.07503,0 18.32199,-34.07591,0 18.32273,-34.07698,0 18.32348,-34.0781,0 18.32413,-34.07904,0 18.3248,-34.08005,0 18.32525,-34.08073,0 18.32609,-34.08211,0 18.32682,-34.08321,0 18.32743,-34.08415,0 18.32794,-34.08504,0 18.32846,-34.08583,0 18.32923,-34.0871,0 18.32994,-34.08811,0 18.33215,-34.09145,0 18.33405,-34.09433,0 18.33478,-34.09538,0 18.33562,-34.09648,0 18.33641,-34.09751,0 18.33714,-34.09836,0 18.33792,-34.09923,0 18.33887,-34.10017,0 18.33984,-34.10101,0 18.34078,-34.1017,0 18.34173,-34.10229,0 18.34276,-34.10287,0 18.34397,-34.10349,0 18.34498,-34.10399,0 18.34605,-34.10449,0 18.34728,-34.10504,0 18.34868,-34.10559,0 18.35025,-34.10628,0 18.35143,-34.10678,0 18.35249,-34.10719,0 18.35392,-34.10775,0 18.35513,-34.10815,0 18.35653,-34.1087,0 18.35793,-34.1092,0 18.35907,-34.10957,0 18.35993,-34.10989,0 18.3613,-34.11036,0 18.36269,-34.11086,0 18.36411,-34.11134,0 18.36519,-34.11171,0 18.36651,-34.11214,0 18.36782,-34.11255,0 18.36897,-34.11292,0 18.37017,-34.11329,0 18.37144,-34.11365,0 18.37525,-34.11488,0 18.37682,-34.11539,0 18.37807,-34.11576,0 18.37927,-34.11618,0 18.38102,-34.11671,0 18.38568,-34.11827,0 18.38985,-34.11977,0 18.391,-34.12018,0 18.39598,-34.122,0 18.40042,-34.12363,0 18.40445,-34.12514,0 18.40871,-34.12674,0 18.41241,-34.12811,0 18.41746,-34.13008,0 18.41897,-34.13072,0 18.42032,-34.13132,0 18.42144,-34.13182,0 18.42262,-34.13237,0 18.42373,-34.13289,0 18.42493,-34.13345,0 18.42648,-34.1342,0 18.4276,-34.13475,0 18.42894,-34.13536,0 18.43002,-34.13587,0 18.43122,-34.13643,0 18.43242,-34.1369,0 18.43377,-34.13741,0 18.43517,-34.13777,0 18.4364,-34.138,0 18.43786,-34.13815,0 18.43915,-34.13814,0 18.44084,-34.13797,0 18.44227,-34.13764,0 18.44375,-34.13708,0 18.4449,-34.13652,0 18.44627,-34.13583,0 18.44713,-34.13531,0 18.44846,-34.13461,0 18.44975,-34.13388,0 18.4512,-34.13306,0 18.45228,-34.13247,0 18.45371,-34.13168,0 18.45485,-34.131,0 18.45591,-34.1304,0 18.4572,-34.12959,0 18.45843,-34.12875,0 18.45938,-34.12814,0 18.46029,-34.12749,0 18.4618,-34.12637,0 18.46275,-34.12558,0 18.4637,-34.12477,0 18.46464,-34.12395,0 18.46589,-34.12289,0 18.46704,-34.12191,0 18.46796,-34.12111,0 18.4691,-34.12,0 18.46991,-34.11911,0 18.47082,-34.118,0 18.47145,-34.11702,0 18.47217,-34.11575,0 18.47261,-34.1147,0 18.47305,-34.11371,0 18.47351,-34.11241,0 18.4739,-34.11108,0 18.47425,-34.10994,0 18.47452,-34.1088,0 18.47474,-34.10783,0 18.47502,-34.10637,0 18.47519,-34.10518,0 18.4754,-34.10398,0 18.47558,-34.10225,0 18.4757,-34.10115,0 18.47574,-34.09975,0 18.47574,-34.09835,0 18.47569,-34.09723,0 18.47557,-34.09598,0 18.47542,-34.0947,0 18.47519,-34.09328,0 18.47506,-34.09221,0 18.4748,-34.09094,0 18.47458,-34.08948,0 18.47443,-34.08829,0 18.47418,-34.0871,0 18.47396,-34.08563,0 18.47379,-34.08453,0 18.47357,-34.08316,0 18.47328,-34.08155,0 18.47318,-34.08051,0 18.47301,-34.07927,0 18.47284,-34.07794,0 18.47245,-34.07442,0 18.47205,-34.06975,0 18.47172,-34.06508,0 18.47149,-34.06151,0 18.47127,-34.05693,0 18.47121,-34.05217,0 18.47116,-34.04859,0 18.4711,-34.04489,0 18.47088,-34.04132,0 18.47054,-34.03651,0 18.47032,-34.03262,0 18.4702,-34.03011,0 18.47015,-34.02663,0 18.4702,-34.02319,0 18.47026,-34.02182,0 18.47031,-34.02052,0 18.47036,-34.0194,0 18.47036,-34.01838,0 18.47048,-34.0172,0 18.47054,-34.01614,0 18.47065,-34.01488,0 18.47071,-34.01381,0 18.47082,-34.01251,0 18.47088,-34.01148,0 18.47099,-34.01027,0 18.47105,-34.00925,0 18.47111,-34.00827,0 18.47127,-34.00488,0 18.47145,-34.00082,0 18.47157,-33.9998,0 18.47172,-33.99866,0 18.47183,-33.99738,0 18.47194,-33.99637,0 18.47208,-33.99533,0 18.47219,-33.99412,0 18.47239,-33.99307,0 18.47256,-33.99188,0 18.47273,-33.99078,0 18.47305,-33.98942,0 18.47322,-33.98863,0 18.47357,-33.98735,0 18.47391,-33.98621,0 18.47431,-33.98513,0 18.47466,-33.98411,0 18.475,-33.98314,0 18.47542,-33.98209,0 18.47586,-33.9809,0 18.47631,-33.97964,0 18.47665,-33.9787,0 18.47704,-33.97774,0 18.47755,-33.97641,0 18.47792,-33.97545,0 18.47837,-33.97415,0 18.47878,-33.97321,0 18.47918,-33.97192,0 18.47963,-33.97057,0 18.47996,-33.96959,0 18.48032,-33.96842,0 18.48063,-33.96721,0 18.48095,-33.96605,0 18.48118,-33.96502,0 18.48146,-33.96381,0 18.48169,-33.96256,0 18.48181,-33.96149,0 18.48192,-33.96018,0 18.48192,-33.95916,0 18.48186,-33.95809,0 18.4817,-33.95668,0 18.48158,-33.95581,0 18.48124,-33.95441,0 18.48091,-33.95325,0 18.48063,-33.95219,0 18.48026,-33.95111,0 18.47979,-33.94981,0 18.47946,-33.94873,0 18.47912,-33.94789,0 18.47872,-33.94666,0 18.47815,-33.94519,0 18.47775,-33.94417,0 18.47729,-33.94296,0 18.47677,-33.94184,0 18.47637,-33.9408,0 18.47586,-33.93975,0 18.47547,-33.93887,0 18.47483,-33.93751,0 18.47437,-33.93649,0 18.47385,-33.93551,0 18.47317,-33.93407,0 18.4725,-33.93283,0 18.47194,-33.93182,0 18.47132,-33.93082,0 18.47071,-33.92978,0 18.46992,-33.92857,0 18.46939,-33.92783,0 18.46858,-33.92665,0 18.46762,-33.92546,0 18.46678,-33.92436,0 18.466,-33.92345,0 18.46505,-33.92235,0 18.46436,-33.92154,0 18.4635,-33.92066,0 18.46275,-33.91982,0 18.46161,-33.91875,0 18.46087,-33.91796,0 18.45989,-33.91695,0 18.45909,-33.91615,0 18.4584,-33.91535,0 18.45765,-33.91452,0 18.45697,-33.91382,0 18.45613,-33.91283,0 18.45554,-33.91209,0 18.45469,-33.91112,0 18.45406,-33.9104,0 18.4532,-33.90939,0 18.45274,-33.90884,0 18.45193,-33.90784,0 18.45131,-33.9071,0 18.45079,-33.90637,0 18.45005,-33.90553,0 18.4481,-33.90302,0 18.44622,-33.90051,0 18.44571,-33.89983,0 18.44509,-33.89909,0 18.44442,-33.89827,0 18.4437,-33.89738,0 18.44313,-33.89673,0 18.44244,-33.89603,0 18.44175,-33.89534,0 18.44101,-33.89478,0 18.43988,-33.8942,0 18.43898,-33.89383,0 18.43809,-33.89357,0 18.43691,-33.89333,0 18.43573,-33.89323,0 18.43454,-33.89329,0 18.43355,-33.89351,0 18.43248,-33.89392,0 18.43163,-33.89441,0 18.43097,-33.89493,0 18.43014,-33.89561,0 18.42957,-33.89618,0 18.429,-33.89658,0 18.42854,-33.89678,0 18.42816,-33.89694,0 18.42783,-33.89708,0 18.42755,-33.89717,0 18.42716,-33.89734,0 18.42687,-33.89758,0 18.42659,-33.89795,0 18.42659,-33.8985,0 18.42682,-33.89892,0 18.42693,-33.89915,0 18.42704,-33.89955,0 18.4271,-33.89978,0 18.4271,-33.90015,0 18.42705,-33.90036,0 18.42699,-33.90065,0 18.42693,-33.90088,0 18.42777,-33.90102,0 18.42968,-33.90083,0 18.43145,-33.90064,0 18.43168,-33.9006,0 18.43237,-33.90046,0 18.4327,-33.90038,0 18.4334,-33.90013,0 18.43371,-33.90001,0 18.43467,-33.89946,0 18.43534,-33.89892,0 18.43586,-33.89817,0 18.43626,-33.89743,0 18.43657,-33.89644,0 18.4368,-33.89561,0 18.43696,-33.89479,0 18.43708,-33.89378,0 18.43718,-33.89296,0 18.43723,-33.89185,0 18.43723,-33.89082,0 18.43719,-33.88962,0 18.43719,-33.88847,0 18.43712,-33.88747,0 18.43702,-33.88651,0 18.43683,-33.88523,0 18.43655,-33.8843,0 18.43615,-33.88337,0 18.43552,-33.8823,0 18.43506,-33.8817,0 18.43431,-33.88076,0 18.4334,-33.87979,0 18.4327,-33.87904,0 18.43198,-33.87845,0 18.43097,-33.87758,0 18.43008,-33.87704,0 18.42882,-33.87648,0 18.4276,-33.87607,0 18.4263,-33.87583,0 18.42482,-33.87564,0 18.42356,-33.8756,0 18.42233,-33.87566,0 18.42071,-33.87579,0 18.41915,-33.87602,0 18.41796,-33.87621,0 18.41681,-33.87643,0 18.41538,-33.87675,0 18.41423,-33.87704,0 18.41291,-33.87741,0 18.41157,-33.87781,0 18.41017,-33.87827,0 18.40888,-33.87868,0 18.40754,-33.87918,0 18.40658,-33.87955,0 18.40508,-33.88021,0 18.40427,-33.88053,0 18.40284,-33.88128,0 18.40176,-33.88179,0 18.40084,-33.8823,0 18.39993,-33.88281,0 18.39884,-33.88342,0 18.39801,-33.88394,0 18.39717,-33.88449,0 18.39633,-33.88504,0 18.39523,-33.88575,0 18.39415,-33.88644,0 18.39302,-33.8871,0 18.39203,-33.88775,0 18.39117,-33.88831,0 18.39003,-33.88905,0 18.38917,-33.88961,0 18.38825,-33.89022,0 18.38719,-33.8909,0 18.38618,-33.89159,0 18.38545,-33.89209,0 18.38459,-33.89264,0 18.38377,-33.89323,0 18.38287,-33.89392,0 18.38179,-33.89473,0 18.38108,-33.89529,0 18.38029,-33.89598,0 18.37951,-33.89667,0 18.37844,-33.89767,0 18.37778,-33.89832,0 18.37675,-33.89939,0 18.37606,-33.90009,0 18.37538,-33.90088,0 18.37458,-33.90176,0 18.37385,-33.90253,0 18.37318,-33.90317,0 18.37222,-33.90395,0 18.37137,-33.90455,0 18.37057,-33.90516,0 18.36977,-33.90572,0 18.36908,-33.90623,0 18.36851,-33.90674,0 18.36771,-33.90749,0 18.36708,-33.90809,0 18.36651,-33.90874,0 18.36588,-33.90949,0 18.36522,-33.91035,0 18.36466,-33.911,0 18.36404,-33.91187,0 18.36342,-33.91273,0 18.36286,-33.91347,0 18.36233,-33.91419,0 18.3618,-33.91484,0 18.36102,-33.91582,0 18.36033,-33.91666,0 18.35976,-33.91735,0 18.35901,-33.91829,0 18.35855,-33.91894,0 18.35793,-33.91978,0 18.35731,-33.92075,0 18.35692,-33.92134,0 18.35638,-33.92229,0 18.35575,-33.92331,0 18.35529,-33.92411,0 18.35478,-33.9249,0 18.35426,-33.92578,0 18.35367,-33.9267,0 18.35312,-33.92751,0 18.35255,-33.92825,0 18.35186,-33.92923,0 18.35123,-33.93016,0 18.35059,-33.93105,0 18.34991,-33.93205,0 18.34935,-33.93292,0 18.34885,-33.9337,0 18.34829,-33.93462,0 18.3478,-33.93537,0 18.34723,-33.9363,0 18.34671,-33.93709,0 18.34625,-33.93789,0 18.34562,-33.93891,0 18.34505,-33.93984,0 18.34471,-33.94063,0 18.34442,-33.9418,0 18.34448,-33.94267,0 18.34476,-33.94347,0 18.34534,-33.94422,0 18.34593,-33.94469,0 18.34694,-33.94519,0 18.34812,-33.94542,0 18.34913,-33.94537,0 18.35025,-33.9451,0 18.3512,-33.94469,0 18.35232,-33.94389,0 18.35322,-33.94308,0 18.35392,-33.94235,0 18.35479,-33.94135,0 18.35563,-33.94025,0 18.35647,-33.9391,0 18.3573,-33.93779,0 18.35804,-33.93668,0 18.35883,-33.93562,0 18.35972,-33.93443,0 18.36056,-33.93341,0 18.36124,-33.93256,0 18.36187,-33.93169,0 18.36245,-33.93095,0 18.36313,-33.92997,0 18.36388,-33.9289,0 18.36443,-33.92798,0 18.36496,-33.92718,0 18.3655,-33.92628,0 18.36622,-33.92522,0 18.36668,-33.92457,0 18.36746,-33.9234,0 18.36811,-33.92252,0 18.3688,-33.92152,0 18.3696,-33.92048,0 18.37015,-33.91974,0 18.37099,-33.91873,0 18.37172,-33.91786,0 18.37257,-33.91689,0 18.37323,-33.91612,0 18.37412,-33.91521,0 18.37486,-33.91443,0 18.37566,-33.91363,0 18.37626,-33.91301,0 18.37704,-33.91223,0 18.37794,-33.91141,0 18.37881,-33.91051,0 18.37955,-33.90986,0 18.38046,-33.90903,0 18.38121,-33.90837,0 18.38209,-33.90761,0 18.38293,-33.90683,0 18.38366,-33.90619,0 18.38419,-33.90572,0 18.38511,-33.90483,0 18.38608,-33.904,0 18.38674,-33.9034,0 18.38775,-33.90257,0 18.38848,-33.90193,0 18.38938,-33.9012,0 18.3901,-33.9006,0 18.39095,-33.89992,0 18.39184,-33.89919,0 18.39289,-33.89836,0 18.39369,-33.89776,0 18.39459,-33.89708,0 18.39537,-33.89653,0 18.39643,-33.89585,0 18.3975,-33.8952,0 18.39823,-33.89484,0 18.3993,-33.89426,0 18.40019,-33.89383,0 18.40148,-33.89314,0 18.40244,-33.89268,0 18.4035,-33.89223,0 18.40457,-33.89172,0 18.4057,-33.89124,0 18.40664,-33.89081,0 18.40759,-33.8904,0 18.40866,-33.88998,0 18.40982,-33.88956,0 18.4109,-33.88921,0 18.41168,-33.88898,0 18.41286,-33.88858,0 18.41406,-33.88821,0 18.4152,-33.88789,0 18.41611,-33.8876,0 18.41698,-33.88737,0 18.41801,-33.88714,0 18.41927,-33.88686,0 18.42012,-33.88668,0 18.42127,-33.88646,0 18.42213,-33.88635,0 18.42299,-33.88621,0 18.42419,-33.88607,0 18.42505,-33.88607,0 18.42592,-33.88618,0 18.42671,-33.88641,0 18.42738,-33.88669,0 18.42822,-33.88733,0 18.42861,-33.88783,0 18.429,-33.88861,0 18.42911,-33.88919,0 18.42905,-33.88998,0 18.42878,-33.89072,0 18.42848,-33.89124,0 18.42805,-33.89172,0 18.42749,-33.89227,0 18.42704,-33.89268,0 18.42637,-33.89328,0 18.42585,-33.89375,0 18.42539,-33.89417,0 18.42482,-33.89473,0 18.42442,-33.89515,0 18.42402,-33.89557,0 18.42361,-33.89603,0 18.42344,-33.89655,0 18.42346,-33.8969,0 18.42362,-33.89722,0 18.42413,-33.89762,0 18.42459,-33.89785,0 18.4248,-33.8979,0 18.42531,-33.89809,0 18.42573,-33.89822,0 18.42609,-33.89836,0 18.42632,-33.8985,0 18.42654,-33.89864,0 18.42676,-33.89878,0 18.42699,-33.89906,0 18.42715,-33.89928,0 18.42722,-33.89948,0 18.42728,-33.89976,0 18.42722,-33.90004,0 18.42699,-33.90024,0 18.42678,-33.90044,0 18.42683,-33.90065,0 18.427,-33.90088,0</coordinates>
      </LineString>
    </Placemark>
  </Document>
</kml>
