<?xml version="1.0" encoding="UTF-8"?>
<kml xmlns="http://www.opengis.net/kml/2.2">
  <Document>
    <name>FR24 3ff100db</name>
    <Placemark>
      <name>FR24 3ff100db</name>
      <Style><LineStyle><color>ff0000ff</color><width>4</width></LineStyle></Style>
      <LineString>
        <tessellate>1</tessellate>
        <coordinates>18.43355,-33.89008,0 18.43483,-33.88812,0 18.43511,-33.88765,0 18.43552,-33.88677,0 18.43573,-33.88609,0 18.43586,-33.88542,0 18.43586,-33.88486,0 18.4358,-33.88416,0 18.43551,-33.88339,0 18.43517,-33.88284,0 18.43461,-33.88216,0 18.43397,-33.88165,0 18.43349,-33.88129,0 18.43254,-33.88083,0 18.43163,-33.8803,0 18.4243,-33.87978,0 18.4231,-33.87974,0 18.42194,-33.87978,0 18.42098,-33.87979,0 18.42001,-33.87988,0 18.41909,-33.87997,0 18.41796,-33.88005,0 18.41735,-33.8801,0 18.41617,-33.88019,0 18.41494,-33.88033,0 18.41429,-33.88039,0 18.41291,-33.88063,0 18.41217,-33.88072,0 18.41107,-33.88097,0 18.41022,-33.88114,0 18.40928,-33.88133,0 18.40821,-33.88161,0 18.4072,-33.88188,0 18.4063,-33.88211,0 18.40541,-33.88239,0 18.40445,-33.88263,0 18.40339,-33.88298,0 18.40233,-33.88333,0 18.40143,-33.88362,0 18.40055,-33.88398,0 18.39975,-33.8843,0 18.39879,-33.88467,0 18.39775,-33.88509,0 18.39672,-33.88556,0 18.39599,-33.88591,0 18.39509,-33.88632,0 18.39426,-33.88672,0 18.39363,-33.88705,0 18.3928,-33.88747,0 18.3919,-33.88797,0 18.39094,-33.88849,0 18.39031,-33.88891,0 18.38957,-33.88933,0 18.38865,-33.88989,0 18.38803,-33.89035,0 18.38725,-33.89081,0 18.38663,-33.89122,0 18.38573,-33.89186,0 18.38512,-33.89227,0 18.3843,-33.89287,0 18.38366,-33.89333,0 18.38276,-33.89399,0 18.38209,-33.89447,0 18.38133,-33.89506,0 18.38053,-33.89566,0 18.37984,-33.89618,0 18.37912,-33.89671,0 18.37839,-33.89726,0 18.37755,-33.89794,0 18.37687,-33.8985,0 18.37595,-33.8992,0 18.37526,-33.89976,0 18.37458,-33.90032,0 18.37385,-33.90092,0 18.3732,-33.90148,0 18.37234,-33.90223,0 18.37172,-33.9028,0 18.37109,-33.90334,0 18.37023,-33.90413,0 18.36966,-33.90469,0 18.36897,-33.9053,0 18.36817,-33.90609,0 18.36752,-33.90674,0 18.36695,-33.90733,0 18.36623,-33.90807,0 18.36565,-33.90865,0 18.36482,-33.90953,0 18.36422,-33.91009,0 18.36365,-33.9107,0 18.36302,-33.9113,0 18.36241,-33.91196,0 18.36174,-33.9126,0 18.36102,-33.9133,0 18.36034,-33.91397,0 18.35961,-33.9147,0 18.35916,-33.91521,0 18.35844,-33.916,0 18.35775,-33.9167,0 18.35715,-33.91736,0 18.35647,-33.91814,0 18.35591,-33.91878,0 18.35524,-33.9196,0 18.35462,-33.92024,0 18.35406,-33.92093,0 18.3534,-33.92178,0 18.35266,-33.92266,0 18.35203,-33.92345,0 18.3514,-33.9242,0 18.35077,-33.9249,0 18.35025,-33.9256,0 18.34951,-33.92648,0 18.34888,-33.92736,0 18.34846,-33.92812,0 18.34803,-33.92913,0 18.34791,-33.92997,0 18.34791,-33.93062,0 18.34806,-33.93159,0 18.34854,-33.93248,0 18.34911,-33.93314,0 18.34997,-33.93375,0 18.3507,-33.93407,0 18.35157,-33.93425,0 18.35261,-33.9343,0 18.35346,-33.93411,0 18.35438,-33.93365,0 18.35506,-33.93309,0 18.35563,-33.93251,0 18.35619,-33.93192,0 18.35675,-33.93127,0 18.35747,-33.93048,0 18.35793,-33.92997,0 18.3586,-33.92912,0 18.35907,-33.92848,0 18.35961,-33.92775,0 18.36012,-33.92706,0 18.36061,-33.92634,0 18.36124,-33.9255,0 18.3618,-33.92468,0 18.36233,-33.92392,0 18.36286,-33.92317,0 18.36342,-33.92243,0 18.36393,-33.92178,0 18.36454,-33.92107,0 18.36522,-33.92029,0 18.36582,-33.91959,0 18.36656,-33.91873,0 18.36712,-33.91809,0 18.36777,-33.9174,0 18.3684,-33.91675,0 18.3692,-33.91594,0 18.36987,-33.91521,0 18.3706,-33.91447,0 18.37114,-33.91391,0 18.37183,-33.91321,0 18.37257,-33.91242,0 18.37334,-33.91168,0 18.37391,-33.91118,0 18.37475,-33.91035,0 18.37531,-33.90985,0 18.3762,-33.90903,0 18.37688,-33.90839,0 18.37749,-33.90781,0 18.3783,-33.90707,0 18.37915,-33.90628,0 18.3799,-33.90559,0 18.38052,-33.90495,0 18.38119,-33.90427,0 18.38202,-33.90348,0 18.3827,-33.90283,0 18.38355,-33.90202,0 18.38425,-33.90144,0 18.38511,-33.90069,0 18.3859,-33.89996,0 18.38657,-33.89941,0 18.38747,-33.89868,0 18.3882,-33.89809,0 18.389,-33.89738,0 18.38977,-33.8968,0 18.39038,-33.89635,0 18.39128,-33.89571,0 18.39209,-33.89515,0 18.39308,-33.89456,0 18.39392,-33.89408,0 18.39464,-33.89369,0 18.39569,-33.89315,0 18.39666,-33.89264,0 18.39752,-33.89227,0 18.39857,-33.89177,0 18.3993,-33.89143,0 18.40019,-33.89104,0 18.4013,-33.89059,0 18.4021,-33.89026,0 18.40319,-33.88984,0 18.40406,-33.88953,0 18.40508,-33.88919,0 18.4058,-33.88893,0 18.40696,-33.88858,0 18.40804,-33.88829,0 18.40897,-33.88807,0 18.41017,-33.88779,0 18.41107,-33.88756,0 18.412,-33.88733,0 18.41309,-33.8871,0 18.41421,-33.88683,0 18.41527,-33.8866,0 18.41629,-33.8864,0 18.41729,-33.88623,0 18.41829,-33.88612,0 18.41925,-33.886,0 18.4202,-33.88586,0 18.42144,-33.88573,0 18.42236,-33.88565,0 18.4234,-33.88559,0 18.42435,-33.88554,0 18.42547,-33.88554,0 18.42653,-33.88556,0 18.42751,-33.8856,0 18.42848,-33.88565,0 18.42939,-33.88575,0 18.43054,-33.88589,0 18.4314,-33.88598,0 18.43209,-33.88605,0 18.43321,-33.88618,0 18.43422,-33.88632,0 18.43506,-33.88651,0 18.4359,-33.88669,0 18.43678,-33.88696,0 18.43769,-33.88724,0 18.43838,-33.88747,0 18.43909,-33.88774,0 18.44005,-33.88815,0 18.44078,-33.88849,0 18.44158,-33.88891,0 18.44229,-33.88934,0 18.44296,-33.8898,0 18.44341,-33.89017,0 18.44419,-33.8909,0 18.44461,-33.89138,0 18.44507,-33.89198,0 18.44537,-33.8925,0 18.44564,-33.89329,0 18.44576,-33.89401,0 18.44576,-33.89473,0 18.4456,-33.89552,0 18.44542,-33.89622,0 18.44519,-33.89682,0 18.44487,-33.89754,0 18.4445,-33.89813,0 18.4441,-33.89864,0 18.44358,-33.89915,0 18.44296,-33.8996,0 18.44212,-33.90005,0 18.44179,-33.90019,0 18.44128,-33.90028,0 18.44094,-33.90042,0 18.44061,-33.90047,0 18.44027,-33.90055,0 18.43971,-33.90065,0 18.43929,-33.90069,0 18.43889,-33.90074,0 18.43849,-33.90083,0 18.43798,-33.90088,0 18.43775,-33.90092,0 18.43719,-33.90102,0 18.43696,-33.90102,0 18.43668,-33.90106,0 18.43596,-33.90111,0 18.43556,-33.90115,0 18.43523,-33.90115,0 18.43489,-33.9012,0 18.43443,-33.9012,0 18.43416,-33.90125,0 18.43386,-33.90125,0 18.43338,-33.90125,0 18.43304,-33.90129,0 18.43265,-33.90129,0 18.43208,-33.90129,0 18.43158,-33.90134,0 18.4313,-33.90134,0 18.43102,-33.90134,0 18.43024,-33.90134,0 18.42979,-33.90129,0 18.42939,-33.90129,0 18.42917,-33.90129,0 18.42839,-33.90129,0 18.42805,-33.90125,0 18.42777,-33.9012,0 18.42756,-33.90115,0 18.42732,-33.90102,0 18.4271,-33.90097,0 18.42688,-33.90097,0 18.42689,-33.90074,0 18.42699,-33.90046,0 18.4271,-33.90022,0 18.42721,-33.90001,0 18.42733,-33.89971,0 18.42743,-33.89946,0 18.42766,-33.89909,0 18.42772,-33.89886,0 18.42788,-33.89859,0 18.428,-33.89836,0 18.42811,-33.89813,0 18.42842,-33.89753,0 18.42859,-33.89724,0 18.42872,-33.89703,0 18.42905,-33.8965,0 18.42917,-33.89626,0 18.42939,-33.8958,0 18.42957,-33.89552,0 18.42973,-33.89529,0 18.42997,-33.89487,0 18.43007,-33.89461,0 18.43025,-33.89431,0 18.43042,-33.89403,0 18.43063,-33.89374,0 18.43085,-33.89333,0 18.431,-33.89305,0 18.43122,-33.89273,0 18.4314,-33.8925,0 18.43164,-33.89218,0 18.43208,-33.89143,0 18.43248,-33.89077,0 18.43283,-33.89017,0 18.43332,-33.88939,0 18.43357,-33.88877,0 18.43391,-33.88812,0 18.43422,-33.88742,0 18.43444,-33.88683,0 18.43467,-33.88596,0 18.43483,-33.885,0 18.43478,-33.88431,0 18.43466,-33.8837,0 18.43427,-33.88293,0 18.4338,-33.88221,0 18.43321,-33.88156,0 18.43254,-33.881,0 18.4317,-33.88051,0 18.43097,-33.88028,0 18.42997,-33.88007,0 18.42894,-33.87988,0 18.42805,-33.87982,0 18.42687,-33.87982,0 18.42598,-33.87982,0 18.42508,-33.87982,0 18.4239,-33.87988,0 18.42312,-33.87991,0 18.42183,-33.88005,0 18.42098,-33.88011,0 18.41984,-33.88021,0 18.4188,-33.88033,0 18.41791,-33.88046,0 18.41673,-33.8806,0 18.41612,-33.88072,0 18.41497,-33.88091,0 18.41412,-33.88105,0 18.41326,-33.88118,0 18.41223,-33.88137,0 18.41137,-33.88156,0 18.41028,-33.88179,0 18.40944,-33.88197,0 18.4086,-33.8822,0 18.40771,-33.88244,0 18.40656,-33.88277,0 18.4057,-33.883,0 18.4049,-33.88328,0 18.40395,-33.88358,0 18.4029,-33.88398,0 18.40199,-33.8843,0 18.40092,-33.88472,0 18.39991,-33.88513,0 18.39924,-33.88547,0 18.39812,-33.886,0 18.39724,-33.88644,0 18.39644,-33.88683,0 18.39537,-33.88742,0 18.39455,-33.88789,0 18.39363,-33.88834,0 18.39274,-33.88884,0 18.3919,-33.88934,0 18.39095,-33.88994,0 18.3901,-33.89044,0 18.38928,-33.89101,0 18.38831,-33.89163,0 18.38764,-33.89209,0 18.38665,-33.89278,0 18.3859,-33.89328,0 18.38511,-33.89384,0 18.38416,-33.89456,0 18.38327,-33.89525,0 18.38271,-33.89571,0 18.38167,-33.89645,0 18.38102,-33.89699,0 18.38029,-33.89758,0 18.37944,-33.89832,0 18.37856,-33.89909,0 18.37778,-33.89971,0 18.37715,-33.90027,0 18.37629,-33.90097,0 18.37538,-33.90176,0 18.3732,-33.90358,0 18.37234,-33.90436,0 18.37149,-33.90518,0 18.37015,-33.90646,0 18.3678,-33.90875,0 18.3672,-33.90935,0 18.36617,-33.91035,0 18.36559,-33.91093,0 18.36477,-33.91182,0 18.3641,-33.91251,0 18.36348,-33.91324,0 18.36258,-33.91415,0 18.36208,-33.91475,0 18.3613,-33.91558,0 18.36067,-33.91633,0 18.35999,-33.91712,0 18.35922,-33.91809,0 18.35855,-33.91887,0 18.35787,-33.91969,0 18.35718,-33.92052,0 18.35653,-33.92134,0 18.35513,-33.92299,0 18.35451,-33.92377,0 18.35157,-33.92713,0 18.34891,-33.93031,0 18.34672,-33.93292,0 18.34465,-33.93542,0 18.34167,-33.9391,0 18.33971,-33.94162,0 18.33767,-33.94436,0 18.33538,-33.94757,0 18.33487,-33.94831,0 18.33271,-33.95119,0 18.33069,-33.95399,0 18.32874,-33.9566,0 18.32605,-33.96014,0 18.32245,-33.96542,0 18.31937,-33.96991,0 18.31661,-33.9742,0 18.31359,-33.97888,0 18.31068,-33.98351,0 18.30877,-33.98672,0 18.3067,-33.99065,0 18.30563,-33.99277,0 18.30479,-33.99449,0 18.30442,-33.99529,0 18.30395,-33.99632,0 18.30362,-33.99719,0 18.30317,-33.9982,0 18.30191,-34.0011,0 18.30036,-34.00473,0 18.29896,-34.00827,0 18.29802,-34.01093,0 18.29773,-34.01184,0 18.2975,-34.01257,0 18.29723,-34.01358,0 18.297,-34.01436,0 18.2967,-34.01521,0 18.2965,-34.01605,0 18.29633,-34.01678,0 18.2961,-34.01761,0 18.29588,-34.01862,0 18.29567,-34.01935,0 18.2955,-34.02028,0 18.29532,-34.02104,0 18.29521,-34.02177,0 18.29504,-34.02278,0 18.29493,-34.02349,0 18.29476,-34.02434,0 18.29465,-34.02525,0 18.29453,-34.02603,0 18.29442,-34.02704,0 18.29435,-34.02792,0 18.29431,-34.02869,0 18.2943,-34.02959,0 18.29425,-34.03047,0 18.29424,-34.03146,0 18.29425,-34.03221,0 18.29425,-34.03317,0 18.2943,-34.03402,0 18.29431,-34.035,0 18.29437,-34.03578,0 18.29447,-34.03676,0 18.29458,-34.03765,0 18.29465,-34.03853,0 18.29482,-34.0394,0 18.29498,-34.0403,0 18.2951,-34.04109,0 18.29526,-34.04192,0 18.29544,-34.04263,0 18.29567,-34.04346,0 18.29596,-34.04449,0 18.29616,-34.04521,0 18.29644,-34.04594,0 18.29672,-34.04681,0 18.297,-34.0475,0 18.29733,-34.04826,0 18.29767,-34.04905,0 18.29807,-34.04998,0 18.29836,-34.05063,0 18.29876,-34.05152,0 18.29916,-34.05227,0 18.29947,-34.05295,0 18.29996,-34.0538,0 18.3003,-34.05455,0 18.30076,-34.05538,0 18.30122,-34.05627,0 18.3016,-34.05702,0 18.30202,-34.05776,0 18.30248,-34.05846,0 18.303,-34.05931,0 18.30356,-34.06023,0 18.30401,-34.06091,0 18.30451,-34.06174,0 18.305,-34.0625,0 18.30569,-34.06352,0 18.30608,-34.06409,0 18.3067,-34.06494,0 18.30726,-34.06567,0 18.30787,-34.0665,0 18.30843,-34.06721,0 18.30905,-34.06796,0 18.3095,-34.0686,0 18.31003,-34.06926,0 18.31051,-34.06984,0 18.31118,-34.07061,0 18.31169,-34.07117,0 18.31236,-34.07195,0 18.31284,-34.07251,0 18.31343,-34.07318,0 18.31398,-34.07378,0 18.31467,-34.07456,0 18.31518,-34.07512,0 18.31572,-34.0757,0 18.31634,-34.07634,0 18.31696,-34.07703,0 18.31758,-34.07763,0 18.31813,-34.07817,0 18.3189,-34.07889,0 18.31959,-34.07954,0 18.32015,-34.08009,0 18.32079,-34.08075,0 18.3213,-34.08122,0 18.32205,-34.08196,0 18.32256,-34.08248,0 18.32319,-34.08313,0 18.32374,-34.08371,0 18.3243,-34.0843,0 18.3248,-34.08481,0 18.32537,-34.08532,0 18.326,-34.08597,0 18.32648,-34.08646,0 18.32693,-34.08696,0 18.32766,-34.08769,0 18.32811,-34.08815,0 18.32874,-34.08876,0 18.32918,-34.0892,0 18.32966,-34.08969,0 18.33023,-34.09016,0 18.33075,-34.09058,0 18.3313,-34.09108,0 18.33178,-34.09146,0 18.33241,-34.09193,0 18.33304,-34.09241,0 18.33355,-34.09277,0 18.33418,-34.09323,0 18.33481,-34.09365,0 18.33551,-34.09406,0 18.33607,-34.09444,0 18.33663,-34.09474,0 18.33721,-34.09505,0 18.33792,-34.09538,0 18.33853,-34.0957,0 18.33916,-34.09607,0 18.33979,-34.09639,0 18.34036,-34.09668,0 18.34106,-34.09703,0 18.3415,-34.09728,0 18.34224,-34.09772,0 18.34276,-34.09793,0 18.34358,-34.09836,0 18.34414,-34.09859,0 18.34494,-34.09896,0 18.34554,-34.09923,0 18.34637,-34.09961,0 18.347,-34.09989,0 18.34778,-34.10023,0 18.34857,-34.1006,0 18.35064,-34.10156,0 18.35272,-34.10254,0 18.35429,-34.10335,0 18.35632,-34.10431,0 18.35715,-34.10472,0 18.35804,-34.10515,0 18.35873,-34.10543,0 18.35953,-34.1058,0 18.3609,-34.1064,0 18.36163,-34.10674,0 18.36227,-34.10706,0 18.3632,-34.10751,0 18.36388,-34.10789,0 18.36456,-34.10822,0 18.36525,-34.10855,0 18.36595,-34.10889,0 18.36662,-34.10921,0 18.36748,-34.10962,0 18.36819,-34.10994,0 18.36914,-34.11031,0 18.36987,-34.11063,0 18.37069,-34.11101,0 18.37154,-34.11139,0 18.37229,-34.11166,0 18.37326,-34.11208,0 18.37407,-34.11246,0 18.3748,-34.11278,0 18.37549,-34.11306,0 18.37811,-34.1142,0 18.38074,-34.11534,0 18.38327,-34.11641,0 18.38642,-34.11772,0 18.38894,-34.11869,0 18.39235,-34.12006,0 18.39472,-34.12098,0 18.39552,-34.1213,0 18.39649,-34.12166,0 18.39735,-34.122,0 18.39823,-34.12234,0 18.39895,-34.1226,0 18.3997,-34.12288,0 18.40067,-34.12321,0 18.4016,-34.12358,0 18.40417,-34.12459,0 18.40725,-34.12586,0 18.40989,-34.12701,0 18.41314,-34.12842,0 18.41561,-34.12949,0 18.41824,-34.13052,0 18.42087,-34.13159,0 18.42419,-34.13285,0 18.42688,-34.13382,0 18.42785,-34.13415,0 18.42872,-34.13438,0 18.42979,-34.1347,0 18.4306,-34.1349,0 18.43168,-34.13513,0 18.43254,-34.13527,0 18.4334,-34.13541,0 18.43426,-34.1355,0 18.43512,-34.13554,0 18.4362,-34.13559,0 18.43719,-34.13557,0 18.43842,-34.13553,0 18.43915,-34.13544,0 18.44032,-34.13527,0 18.44128,-34.13512,0 18.44244,-34.13485,0 18.44341,-34.13457,0 18.44439,-34.13424,0 18.44524,-34.13391,0 18.44638,-34.13342,0 18.44728,-34.13297,0 18.44833,-34.13238,0 18.44919,-34.13187,0 18.45011,-34.13126,0 18.45098,-34.13068,0 18.45204,-34.12994,0 18.45266,-34.12949,0 18.4536,-34.1288,0 18.4544,-34.12819,0 18.45535,-34.12752,0 18.45646,-34.12666,0 18.4572,-34.1261,0 18.45827,-34.12527,0 18.45905,-34.12463,0 18.46006,-34.12381,0 18.46104,-34.12302,0 18.46195,-34.12233,0 18.46269,-34.1217,0 18.46566,-34.11928,0 18.46716,-34.11795,0 18.46796,-34.1172,0 18.46899,-34.11618,0 18.46979,-34.11539,0 18.47054,-34.1146,0 18.47151,-34.11339,0 18.47228,-34.1125,0 18.47311,-34.11139,0 18.47368,-34.11053,0 18.47446,-34.1093,0 18.47517,-34.10813,0 18.47564,-34.10719,0 18.47614,-34.10612,0 18.47672,-34.10487,0 18.47704,-34.1039,0 18.47746,-34.10263,0 18.47777,-34.10143,0 18.47805,-34.1001,0 18.47822,-34.099,0 18.47843,-34.0977,0 18.47856,-34.09653,0 18.47872,-34.09533,0 18.47884,-34.09401,0 18.47895,-34.09304,0 18.47906,-34.09158,0 18.47912,-34.09039,0 18.47917,-34.08907,0 18.47928,-34.08769,0 18.47935,-34.08667,0 18.4794,-34.0855,0 18.47951,-34.0843,0 18.47968,-34.08284,0 18.4798,-34.08196,0 18.48003,-34.08052,0 18.48018,-34.07941,0 18.48041,-34.07831,0 18.48069,-34.0768,0 18.48091,-34.07579,0 18.48119,-34.07455,0 18.48147,-34.07336,0 18.48175,-34.07222,0 18.48204,-34.0713,0 18.48232,-34.0701,0 18.4827,-34.06874,0 18.48304,-34.06764,0 18.48343,-34.06631,0 18.48381,-34.06497,0 18.48415,-34.06385,0 18.4845,-34.06255,0 18.48478,-34.06137,0 18.48495,-34.06055,0 18.4853,-34.05906,0 18.48551,-34.05803,0 18.48573,-34.05656,0 18.4859,-34.05542,0 18.48598,-34.05436,0 18.4861,-34.0532,0 18.48623,-34.05176,0 18.48633,-34.05054,0 18.48639,-34.04929,0 18.4865,-34.04775,0 18.48663,-34.04654,0 18.48667,-34.04538,0 18.4868,-34.04402,0 18.48685,-34.04292,0 18.4869,-34.04184,0 18.48701,-34.04081,0 18.48708,-34.03981,0 18.48719,-34.03853,0 18.48724,-34.03751,0 18.48736,-34.0363,0 18.48741,-34.0351,0 18.48747,-34.03409,0 18.48747,-34.03308,0 18.48753,-34.03169,0 18.48753,-34.03066,0 18.48758,-34.02969,0 18.48758,-34.0285,0 18.48758,-34.02731,0 18.48759,-34.02629,0 18.48758,-34.02319,0 18.48764,-34.02013,0 18.4877,-34.01698,0 18.4877,-34.01619,0 18.48764,-34.01498,0 18.48764,-34.01409,0 18.48764,-34.01311,0 18.48764,-34.01218,0 18.48769,-34.01134,0 18.4877,-34.01041,0 18.48769,-34.00941,0 18.4877,-34.00832,0 18.48769,-34.00735,0 18.48764,-34.0065,0 18.48764,-34.00534,0 18.48764,-34.00452,0 18.48764,-34.00338,0 18.48764,-34.0025,0 18.48764,-34.00136,0 18.48764,-34.00058,0 18.48764,-33.99953,0 18.48759,-33.9985,0 18.48759,-33.99743,0 18.48759,-33.99654,0 18.48759,-33.99552,0 18.48759,-33.99454,0 18.48759,-33.99366,0 18.48759,-33.99277,0 18.48759,-33.99161,0 18.48759,-33.99072,0 18.48758,-33.98996,0 18.48759,-33.98904,0 18.48758,-33.9879,0 18.48758,-33.98712,0 18.48764,-33.98504,0 18.48764,-33.98215,0 18.48758,-33.97838,0 18.48758,-33.97746,0 18.48753,-33.97657,0 18.48753,-33.97569,0 18.48747,-33.9749,0 18.48741,-33.97375,0 18.48736,-33.97293,0 18.4873,-33.97179,0 18.48724,-33.97103,0 18.48713,-33.96909,0 18.48707,-33.96796,0 18.48696,-33.96707,0 18.48685,-33.9662,0 18.48674,-33.96533,0 18.48656,-33.96451,0 18.4864,-33.96332,0 18.48623,-33.96245,0 18.48604,-33.96158,0 18.4859,-33.96066,0 18.48573,-33.95966,0 18.48556,-33.95865,0 18.48541,-33.95758,0 18.48524,-33.95665,0 18.48506,-33.95576,0 18.48489,-33.9549,0 18.48472,-33.95403,0 18.48455,-33.95316,0 18.48433,-33.95224,0 18.4841,-33.95115,0 18.48388,-33.95023,0 18.48364,-33.94929,0 18.48301,-33.94668,0 18.48278,-33.94585,0 18.48255,-33.94501,0 18.4822,-33.94386,0 18.48198,-33.94304,0 18.48169,-33.94221,0 18.48141,-33.94125,0 18.48101,-33.94021,0 18.48078,-33.93951,0 18.48038,-33.93854,0 18.48003,-33.93761,0 18.47973,-33.93681,0 18.4794,-33.93588,0 18.47906,-33.93494,0 18.47867,-33.93398,0 18.47833,-33.93311,0 18.47794,-33.93205,0 18.47755,-33.93118,0 18.47721,-33.9304,0 18.47672,-33.92932,0 18.47626,-33.92839,0 18.47586,-33.92755,0 18.47536,-33.92647,0 18.47488,-33.92559,0 18.47437,-33.92462,0 18.47385,-33.92364,0 18.47334,-33.92285,0 18.47277,-33.92201,0 18.47217,-33.92116,0 18.47161,-33.92033,0 18.47088,-33.91936,0 18.47013,-33.91838,0 18.46945,-33.91759,0 18.46882,-33.9168,0 18.46807,-33.91596,0 18.46739,-33.91517,0 18.46664,-33.91433,0 18.46589,-33.91351,0 18.46498,-33.91265,0 18.46415,-33.91182,0 18.46333,-33.91107,0 18.46252,-33.91031,0 18.46178,-33.90963,0 18.46095,-33.90889,0 18.46017,-33.90816,0 18.45938,-33.90747,0 18.45832,-33.90646,0 18.45766,-33.90586,0 18.45675,-33.90504,0 18.45597,-33.90436,0 18.45518,-33.90367,0 18.45445,-33.90298,0 18.45361,-33.90225,0 18.45263,-33.90134,0 18.45194,-33.90078,0 18.45103,-33.90001,0 18.45019,-33.89932,0 18.44946,-33.89882,0 18.44874,-33.89836,0 18.44799,-33.89785,0 18.44722,-33.89745,0 18.44644,-33.89708,0 18.44571,-33.89685,0 18.44504,-33.89667,0 18.44425,-33.89658,0 18.44353,-33.89655,0 18.44279,-33.89667,0 18.44218,-33.8968,0 18.44184,-33.89685,0 18.44151,-33.89694,0 18.44095,-33.89715,0 18.44061,-33.89724,0 18.44027,-33.89731,0 18.43992,-33.89743,0 18.43964,-33.89753,0 18.43932,-33.89758,0 18.43895,-33.89771,0 18.43872,-33.89776,0 18.43842,-33.89781,0 18.43803,-33.89794,0 18.43752,-33.89813,0 18.43719,-33.89822,0 18.43683,-33.89832,0 18.4364,-33.89845,0 18.43609,-33.89855,0 18.43575,-33.89869,0 18.43539,-33.89877,0 18.43495,-33.89891,0 18.43466,-33.89901,0 18.43426,-33.89915,0 18.43371,-33.89928,0 18.43346,-33.89939,0 18.4331,-33.89946,0 18.43277,-33.89957,0 18.43248,-33.89964,0 18.4322,-33.89973,0 18.43186,-33.89983,0 18.43158,-33.89987,0 18.43117,-33.89999,0 18.43071,-33.90013,0 18.43025,-33.90013,0 18.42968,-33.90032,0 18.42945,-33.90038,0 18.42899,-33.90051,0 18.42871,-33.90055,0 18.428,-33.9007,0 18.42755,-33.90079,0 18.42715,-33.90083,0 18.42693,-33.90092,0 18.42831,-33.89817,0 18.43306,-33.8905,0 18.43422,-33.88838,0 18.43454,-33.8877,0 18.43477,-33.88691,0 18.43483,-33.88617,0 18.43477,-33.88537,0 18.43461,-33.88454,0 18.43427,-33.88394,0 18.4338,-33.88328,0 18.43226,-33.8817,0 18.4317,-33.88133,0 18.4308,-33.88087,0 18.42979,-33.88044,0 18.42895,-33.88019,0 18.42487,-33.87955,0 18.42374,-33.87941,0 18.42281,-33.87937,0 18.42166,-33.87932,0 18.42081,-33.87932,0 18.42004,-33.87932,0 18.41869,-33.87937,0 18.41785,-33.87941,0 18.41679,-33.8795,0 18.41583,-33.8796,0 18.41488,-33.87973,0 18.414,-33.87988,0 18.41286,-33.88007,0 18.41219,-33.88023,0 18.41108,-33.88049,0 18.41,-33.88078,0 18.40911,-33.88101,0 18.40827,-33.88124,0 18.40714,-33.88156,0 18.40633,-33.88184,0 18.40541,-33.88211,0 18.40427,-33.88249,0 18.40342,-33.88277,0 18.40249,-33.88307,0 18.40147,-33.88346,0 18.40081,-33.88371,0 18.39952,-33.88421,0 18.39862,-33.88463,0 18.39775,-33.885,0 18.39717,-33.88531,0 18.39605,-33.88586,0 18.39529,-33.88626,0 18.39455,-33.88672,0 18.3938,-33.88719,0 18.39294,-33.8877,0 18.39201,-33.88834,0 18.39128,-33.88882,0 18.39044,-33.88943,0 18.38971,-33.88994,0 18.3891,-33.8903,0 18.38802,-33.89105,0 18.38722,-33.89161,0 18.38652,-33.89204,0 18.38562,-33.89268,0 18.38489,-33.89319,0 18.38411,-33.89374,0 18.38327,-33.89438,0 18.38253,-33.89487,0 18.38181,-33.89539,0 18.37856,-33.89777,0 18.37783,-33.89827,0 18.37704,-33.89883,0 18.37458,-33.90069,0 18.37383,-33.90125,0 18.37306,-33.90189,0 18.37217,-33.90265,0 18.37149,-33.9033,0 18.37063,-33.90404,0 18.36992,-33.90468,0 18.3692,-33.90535,0 18.36857,-33.90595,0 18.36777,-33.90679,0 18.36702,-33.90758,0 18.36634,-33.90829,0 18.36554,-33.90916,0 18.36477,-33.90999,0 18.36405,-33.91079,0 18.36337,-33.91159,0 18.36273,-33.91228,0 18.36205,-33.91307,0 18.36136,-33.91386,0 18.36068,-33.91466,0 18.35995,-33.91557,0 18.35905,-33.91667,0 18.35843,-33.9174,0 18.35765,-33.91837,0 18.35701,-33.91922,0 18.35489,-33.92183,0 18.35186,-33.92564,0 18.34906,-33.92923,0 18.34689,-33.93201,0 18.34492,-33.93462,0 18.34235,-33.93805,0 18.34036,-33.94072,0 18.3382,-33.94377,0 18.3363,-33.94659,0 18.33444,-33.94949,0 18.33355,-33.95097,0 18.33286,-33.95208,0 18.33223,-33.95306,0 18.33175,-33.95384,0 18.33115,-33.95478,0 18.33063,-33.95557,0 18.33012,-33.95641,0 18.32943,-33.95744,0 18.32903,-33.95804,0 18.32834,-33.95902,0 18.32748,-33.96032,0 18.32588,-33.9627,0 18.32346,-33.96625,0 18.32062,-33.97033,0 18.31785,-33.9744,0 18.31505,-33.97852,0 18.31312,-33.98141,0 18.31141,-33.98405,0 18.30963,-33.98672,0 18.30737,-33.99042,0 18.30569,-33.9933,0 18.30425,-33.99584,0 18.30384,-33.99664,0 18.30328,-33.99766,0 18.30236,-33.99938,0 18.30193,-34.00021,0 18.30151,-34.00106,0 18.30104,-34.002,0 18.30059,-34.00283,0 18.3002,-34.0036,0 18.29975,-34.00452,0 18.29882,-34.00645,0 18.29846,-34.00722,0 18.29767,-34.00897,0 18.29723,-34.00996,0 18.29687,-34.01078,0 18.2965,-34.0117,0 18.29618,-34.01246,0 18.29588,-34.01326,0 18.29554,-34.01427,0 18.29532,-34.01491,0 18.29504,-34.01591,0 18.29476,-34.01674,0 18.29453,-34.0177,0 18.2943,-34.01851,0 18.29412,-34.01935,0 18.29392,-34.02031,0 18.29381,-34.02109,0 18.29364,-34.02205,0 18.2935,-34.02293,0 18.29338,-34.02396,0 18.29338,-34.02457,0 18.2933,-34.02557,0 18.2933,-34.02621,0 18.29327,-34.02717,0 18.29327,-34.02796,0 18.29336,-34.02878,0 18.29344,-34.02992,0 18.2935,-34.03071,0 18.29361,-34.03146,0 18.29375,-34.03244,0 18.29384,-34.03318,0 18.29397,-34.03404,0 18.2942,-34.03505,0 18.29431,-34.03564,0 18.29453,-34.03662,0 18.2947,-34.03734,0 18.29493,-34.03812,0 18.29521,-34.039,0 18.29543,-34.03976,0 18.29571,-34.04054,0 18.29601,-34.04146,0 18.29633,-34.04228,0 18.29659,-34.043,0 18.29695,-34.04393,0 18.29733,-34.04496,0 18.29762,-34.04567,0 18.29801,-34.04654,0 18.2983,-34.04737,0 18.29857,-34.0481,0 18.29893,-34.04896,0 18.2993,-34.04997,0 18.29963,-34.05075,0 18.30003,-34.05171,0 18.30031,-34.05244,0 18.30173,-34.0558,0 18.30214,-34.05664,0 18.30254,-34.05743,0 18.30289,-34.05821,0 18.30322,-34.05894,0 18.30402,-34.0605,0 18.30437,-34.06111,0 18.30471,-34.06176,0 18.30513,-34.06247,0 18.30563,-34.0633,0 18.30597,-34.06398,0 18.30648,-34.06474,0 18.30694,-34.06548,0 18.30746,-34.06637,0 18.30797,-34.06716,0 18.30844,-34.06787,0 18.30894,-34.0687,0 18.30939,-34.06938,0 18.30975,-34.06991,0 18.31023,-34.07066,0 18.31066,-34.07126,0 18.31118,-34.07199,0 18.31163,-34.07261,0 18.31221,-34.07335,0 18.31258,-34.07378,0 18.3132,-34.07455,0 18.31376,-34.07524,0 18.31421,-34.07579,0 18.31484,-34.07652,0 18.31527,-34.07707,0 18.31581,-34.07773,0 18.3165,-34.07847,0 18.31701,-34.07913,0 18.31758,-34.07973,0 18.31808,-34.08032,0 18.31867,-34.08094,0 18.31925,-34.08156,0 18.31987,-34.0822,0 18.32039,-34.08271,0 18.32108,-34.08336,0 18.32166,-34.08394,0 18.32228,-34.08453,0 18.32285,-34.08504,0 18.32348,-34.08555,0 18.32419,-34.08623,0 18.32479,-34.08676,0 18.32531,-34.08719,0 18.326,-34.08783,0 18.32654,-34.08833,0 18.32716,-34.08888,0 18.32766,-34.08927,0 18.32834,-34.08988,0 18.32878,-34.09026,0 18.32943,-34.09081,0 18.33002,-34.09126,0 18.33052,-34.09165,0 18.3312,-34.09221,0 18.33181,-34.09264,0 18.33248,-34.09314,0 18.33304,-34.09355,0 18.33355,-34.09393,0 18.33435,-34.09444,0 18.33489,-34.09479,0 18.33561,-34.09523,0 18.33635,-34.09575,0 18.33681,-34.09602,0 18.33758,-34.09648,0 18.33818,-34.09681,0 18.33893,-34.09723,0 18.33967,-34.09761,0 18.34019,-34.09789,0 18.34093,-34.09826,0 18.34162,-34.09859,0 18.3423,-34.09891,0 18.34291,-34.09923,0 18.34373,-34.09961,0 18.34459,-34.10001,0 18.34538,-34.10037,0 18.34616,-34.10074,0 18.34678,-34.10101,0 18.34734,-34.10133,0 18.34818,-34.1017,0 18.34883,-34.10207,0 18.34963,-34.10243,0 18.35031,-34.10275,0 18.351,-34.1031,0 18.3516,-34.10339,0 18.35311,-34.10408,0 18.35378,-34.1044,0 18.35535,-34.10513,0 18.35621,-34.10552,0 18.35752,-34.10612,0 18.35844,-34.1065,0 18.35924,-34.10687,0 18.35995,-34.10719,0 18.3609,-34.1076,0 18.36157,-34.10793,0 18.36245,-34.10831,0 18.36314,-34.10866,0 18.36393,-34.10901,0 18.36462,-34.10934,0 18.36531,-34.10966,0 18.36622,-34.11008,0 18.36707,-34.11049,0 18.36782,-34.11082,0 18.36841,-34.11108,0 18.36926,-34.11148,0 18.37006,-34.11185,0 18.37088,-34.11232,0 18.37155,-34.11264,0 18.37246,-34.11306,0 18.37303,-34.11334,0 18.37383,-34.11371,0 18.37446,-34.11399,0 18.37526,-34.11432,0 18.37592,-34.11461,0 18.37671,-34.11497,0 18.37727,-34.11515,0 18.37811,-34.11548,0 18.37887,-34.11572,0 18.37957,-34.11594,0 18.38024,-34.11618,0 18.38097,-34.11644,0 18.38167,-34.11665,0 18.38247,-34.11692,0 18.3831,-34.11713,0 18.38377,-34.11736,0 18.38453,-34.11762,0 18.38522,-34.11786,0 18.38573,-34.11804,0 18.38652,-34.11827,0 18.38734,-34.11851,0 18.38791,-34.11869,0 18.38854,-34.11883,0 18.38911,-34.11902,0 18.38991,-34.11925,0 18.3905,-34.11942,0 18.39117,-34.11964,0 18.39195,-34.11987,0 18.3924,-34.12001,0 18.39324,-34.12024,0 18.39386,-34.12041,0 18.39448,-34.12061,0 18.39532,-34.12083,0 18.39582,-34.12097,0 18.39655,-34.1212,0 18.39735,-34.12144,0 18.39801,-34.12161,0 18.39879,-34.12189,0 18.39941,-34.12204,0 18.4001,-34.12228,0 18.40075,-34.12248,0 18.40141,-34.1227,0 18.40227,-34.12302,0 18.403,-34.12326,0 18.40361,-34.12354,0 18.40433,-34.12381,0 18.40485,-34.124,0 18.40563,-34.12431,0 18.40628,-34.12461,0 18.40698,-34.12486,0 18.40771,-34.12518,0 18.40832,-34.1255,0 18.40919,-34.12586,0 18.40978,-34.12614,0 18.41051,-34.12642,0 18.41125,-34.1267,0 18.41183,-34.12693,0 18.41258,-34.12724,0 18.41331,-34.12752,0 18.41393,-34.12775,0 18.41623,-34.12865,0 18.41703,-34.12898,0 18.41766,-34.12926,0 18.41847,-34.12962,0 18.41921,-34.12991,0 18.41981,-34.13017,0 18.42071,-34.13054,0 18.42133,-34.1308,0 18.42218,-34.13112,0 18.42287,-34.13145,0 18.42368,-34.13177,0 18.42435,-34.13205,0 18.42514,-34.13237,0 18.42811,-34.13361,0 18.42889,-34.13388,0 18.42979,-34.1342,0 18.43057,-34.13443,0 18.43136,-34.13466,0 18.4322,-34.1349,0 18.43306,-34.13513,0 18.43422,-34.13535,0 18.435,-34.13545,0 18.43603,-34.13554,0 18.43696,-34.13562,0 18.43786,-34.13567,0 18.43887,-34.13562,0 18.43987,-34.13559,0 18.44095,-34.1355,0 18.44187,-34.13536,0 18.44301,-34.13513,0 18.44393,-34.13485,0 18.44484,-34.13452,0 18.44588,-34.13406,0 18.447,-34.13351,0 18.4477,-34.13308,0 18.44857,-34.13251,0 18.44942,-34.13192,0 18.45039,-34.13122,0 18.4512,-34.13058,0 18.45211,-34.12987,0 18.45291,-34.12926,0 18.45383,-34.12856,0 18.45485,-34.12779,0 18.45569,-34.12715,0 18.45646,-34.12656,0 18.45748,-34.12582,0 18.45832,-34.12518,0 18.45909,-34.12461,0 18.46006,-34.12386,0 18.4609,-34.12326,0 18.46355,-34.12121,0 18.46624,-34.11916,0 18.46785,-34.11781,0 18.46863,-34.11713,0 18.46956,-34.11627,0 18.47042,-34.11544,0 18.47111,-34.11469,0 18.47183,-34.11388,0 18.4726,-34.11297,0 18.47334,-34.11204,0 18.47396,-34.11122,0 18.4746,-34.11031,0 18.47534,-34.1092,0 18.47586,-34.10826,0 18.47631,-34.10733,0 18.47682,-34.10628,0 18.47721,-34.10532,0 18.4776,-34.10431,0 18.47811,-34.1028,0 18.47837,-34.1018,0 18.47861,-34.10078,0 18.47884,-34.09978,0 18.47906,-34.0985,0 18.47923,-34.09735,0 18.47929,-34.09612,0 18.4794,-34.09495,0 18.47951,-34.09387,0 18.47963,-34.09267,0 18.47975,-34.09146,0 18.4799,-34.09012,0 18.48001,-34.08925,0 18.48018,-34.08788,0 18.48038,-34.08685,0 18.48063,-34.08549,0 18.48091,-34.08426,0 18.48113,-34.08321,0 18.48141,-34.08215,0 18.48175,-34.0808,0 18.48204,-34.07978,0 18.48232,-34.0787,0 18.48259,-34.07771,0 18.48287,-34.07671,0 18.48324,-34.0754,0 18.48347,-34.07442,0 18.48375,-34.07335,0 18.48415,-34.072,0 18.48511,-34.06851,0 18.4864,-34.06393,0 18.48691,-34.06151,0 18.48707,-34.0606,0 18.4873,-34.05927,0 18.48741,-34.05798,0 18.48752,-34.05688,0 18.48764,-34.05576,0 18.48782,-34.05436,0 18.48804,-34.0532,0 18.4882,-34.05222,0 18.48837,-34.05098,0 18.48859,-34.04993,0 18.48879,-34.04868,0 18.48904,-34.04741,0 18.48925,-34.04659,0 18.48943,-34.04558,0 18.4897,-34.04449,0 18.48993,-34.04347,0 18.49016,-34.04228,0 18.49033,-34.04118,0 18.49044,-34.04022,0 18.49055,-34.03908,0 18.49056,-34.0382,0 18.49062,-34.03714,0 18.49061,-34.03619,0 18.49056,-34.03522,0 18.49055,-34.03455,0 18.49045,-34.03341,0 18.49045,-34.03252,0 18.49033,-34.03136,0 18.49028,-34.03029,0 18.49016,-34.02936,0 18.49005,-34.02838,0 18.48999,-34.02731,0 18.48993,-34.02654,0 18.48988,-34.02567,0 18.48982,-34.02466,0 18.48976,-34.02354,0 18.48971,-34.0226,0 18.48965,-34.02173,0 18.48965,-34.02086,0 18.48965,-34.01968,0 18.48953,-34.01595,0 18.48954,-34.01514,0 18.48948,-34.01423,0 18.48942,-34.0127,0 18.48937,-34.01184,0 18.48932,-34.01083,0 18.4893,-34.00995,0 18.48925,-34.0092,0 18.48925,-34.00832,0 18.48919,-34.00748,0 18.48921,-34.00639,0 18.48919,-34.00548,0 18.48919,-34.00446,0 18.48925,-34.00362,0 18.48925,-34.00273,0 18.4893,-34.0018,0 18.48932,-34.00081,0 18.48932,-33.99994,0 18.4893,-33.99631,0 18.48932,-33.99522,0 18.4893,-33.9943,0 18.48936,-33.99347,0 18.48936,-33.99263,0 18.48942,-33.99105,0 18.48949,-33.98996,0 18.48954,-33.98927,0 18.48954,-33.98827,0 18.48953,-33.98737,0 18.48954,-33.9863,0 18.48959,-33.98546,0 18.4896,-33.98456,0 18.48965,-33.98174,0 18.4896,-33.98067,0 18.4896,-33.9798,0 18.48965,-33.9787,0 18.48965,-33.9776,0 18.4896,-33.97646,0 18.4896,-33.97554,0 18.48954,-33.97462,0 18.48948,-33.9735,0 18.48936,-33.97224,0 18.4893,-33.9715,0 18.48921,-33.97032,0 18.48904,-33.96922,0 18.48896,-33.96828,0 18.48881,-33.9673,0 18.48867,-33.96642,0 18.48853,-33.96542,0 18.48842,-33.96442,0 18.48827,-33.96349,0 18.4881,-33.96237,0 18.48797,-33.96149,0 18.48775,-33.9603,0 18.48758,-33.95934,0 18.48707,-33.95655,0 18.48633,-33.95278,0 18.4861,-33.95176,0 18.4859,-33.95096,0 18.48567,-33.95013,0 18.48536,-33.94906,0 18.48506,-33.94817,0 18.48483,-33.94734,0 18.48455,-33.94652,0 18.48422,-33.94565,0 18.48392,-33.94477,0 18.48358,-33.9438,0 18.4833,-33.94296,0 18.48284,-33.94184,0 18.48253,-33.94107,0 18.48214,-33.94016,0 18.48175,-33.93929,0 18.48135,-33.9383,0 18.48091,-33.93723,0 18.48049,-33.9363,0 18.48013,-33.93549,0 18.47962,-33.93434,0 18.47918,-33.93346,0 18.47878,-33.93265,0 18.47826,-33.93155,0 18.47783,-33.93073,0 18.47734,-33.92983,0 18.47683,-33.92885,0 18.47631,-33.92793,0 18.47597,-33.92736,0 18.47547,-33.92651,0 18.47488,-33.92546,0 18.47448,-33.92476,0 18.47396,-33.9239,0 18.4734,-33.92308,0 18.47289,-33.9223,0 18.47231,-33.92154,0 18.47168,-33.92066,0 18.47105,-33.91982,0 18.47031,-33.91898,0 18.46968,-33.91829,0 18.46897,-33.9174,0 18.4683,-33.91658,0 18.46767,-33.91591,0 18.46682,-33.91498,0 18.46619,-33.91428,0 18.4655,-33.91351,0 18.46488,-33.91283,0 18.4643,-33.91214,0 18.46378,-33.91158,0 18.46315,-33.91093,0 18.46247,-33.91008,0 18.46178,-33.90926,0 18.46124,-33.90862,0 18.46052,-33.90786,0 18.46012,-33.9073,0 18.45949,-33.90656,0 18.45894,-33.90591,0 18.45832,-33.90523,0 18.45782,-33.90463,0 18.45731,-33.90408,0 18.45663,-33.90343,0 18.45619,-33.90303,0 18.45572,-33.90246,0 18.45524,-33.90193,0 18.45469,-33.90139,0 18.45395,-33.90092,0 18.45314,-33.90036,0 18.4526,-33.90005,0 18.452,-33.89971,0 18.45115,-33.89941,0 18.45039,-33.89925,0 18.44959,-33.89911,0 18.44896,-33.89905,0 18.44822,-33.89897,0 18.4473,-33.89887,0 18.44666,-33.89886,0 18.44582,-33.89883,0 18.44509,-33.89882,0 18.44448,-33.89886,0 18.44391,-33.89886,0 18.44358,-33.89891,0 18.4429,-33.89897,0 18.44257,-33.899,0 18.44204,-33.89906,0 18.44156,-33.89909,0 18.44106,-33.89914,0 18.4405,-33.89923,0 18.44021,-33.89925,0 18.43988,-33.89928,0 18.43929,-33.89934,0 18.43893,-33.89941,0 18.43848,-33.89946,0 18.43815,-33.89952,0 18.43764,-33.8996,0 18.43729,-33.89967,0 18.43696,-33.89973,0 18.4366,-33.89981,0 18.43637,-33.89985,0 18.43562,-33.90001,0 18.43534,-33.90009,0 18.435,-33.90018,0 18.43443,-33.90027,0 18.43416,-33.90033,0 18.43369,-33.90041,0 18.43294,-33.90051,0 18.43259,-33.90056,0 18.43226,-33.9006,0 18.43181,-33.90065,0 18.43122,-33.90074,0 18.43094,-33.90078,0 18.43063,-33.90079,0 18.43008,-33.90078,0 18.42962,-33.90074,0 18.42939,-33.90078,0 18.42916,-33.90078,0 18.42895,-33.90079,0 18.42828,-33.90083,0 18.42796,-33.90078,0 18.42766,-33.90092,0 18.42743,-33.90088,0 18.42716,-33.90092,0 18.42693,-33.90102,0 18.42698,-33.90071,0 18.42715,-33.89992,0 18.42733,-33.89957,0 18.42745,-33.89929,0 18.42756,-33.89901,0 18.42779,-33.89864,0 18.42794,-33.89836,0 18.42819,-33.89804,0 18.42842,-33.89766,0 18.42867,-33.8974,0 18.42884,-33.89717,0 18.42899,-33.89692,0 18.42922,-33.89659,0 18.42962,-33.89603,0 18.42979,-33.8958,0 18.43001,-33.89543,0 18.43019,-33.89515,0 18.43042,-33.89487,0 18.4306,-33.89464,0 18.4308,-33.89433,0 18.43117,-33.89384,0 18.4317,-33.8931,0 18.43203,-33.89259,0 18.43243,-33.89203,0 18.43287,-33.89136,0 18.43321,-33.89081,0 18.43377,-33.88998,0 18.43414,-33.88938,0 18.43444,-33.88875,0 18.43478,-33.88797,0 18.43495,-33.88728,0 18.43506,-33.88673,0 18.43506,-33.88582,0 18.43495,-33.8849,0 18.43478,-33.88422,0 18.43454,-33.88361,0 18.43403,-33.88268,0 18.43357,-33.88207,0 18.433,-33.88146,0 18.43231,-33.88086,0 18.43158,-33.88033,0 18.43094,-33.87997,0 18.42985,-33.87946,0 18.42888,-33.87909,0 18.42811,-33.87881,0 18.4271,-33.87859,0 18.42632,-33.87845,0 18.42527,-33.8783,0 18.42453,-33.8782,0 18.4235,-33.87811,0 18.42245,-33.87804,0 18.42155,-33.87797,0 18.42071,-33.87799,0 18.42007,-33.87797,0 18.41897,-33.87799,0 18.41735,-33.87804,0 18.41658,-33.87807,0 18.41555,-33.87813,0 18.41449,-33.87827,0 18.41365,-33.87836,0 18.41257,-33.87848,0 18.41163,-33.87863,0 18.41068,-33.87881,0 18.40967,-33.87904,0 18.40885,-33.87918,0 18.40776,-33.87946,0 18.40673,-33.8797,0 18.40588,-33.87993,0 18.40496,-33.88023,0 18.4041,-33.88049,0 18.40319,-33.88081,0 18.4021,-33.8812,0 18.40153,-33.88142,0 18.40055,-33.88179,0 18.39975,-33.88211,0 18.39884,-33.88249,0 18.39792,-33.88291,0 18.39718,-33.88323,0 18.39621,-33.88367,0 18.39532,-33.88408,0 18.39437,-33.88454,0 18.39363,-33.8849,0 18.39285,-33.88536,0 18.39191,-33.88589,0 18.39128,-33.88626,0 18.39055,-33.88669,0 18.38951,-33.88728,0 18.38893,-33.88765,0 18.38797,-33.8882,0 18.38719,-33.88866,0 18.38642,-33.88914,0 18.38551,-33.88971,0 18.38478,-33.89017,0 18.38405,-33.89063,0 18.3831,-33.89122,0 18.38237,-33.89172,0 18.38167,-33.89222,0 18.38074,-33.89287,0 18.37978,-33.89352,0 18.37889,-33.8942,0 18.37822,-33.8947,0 18.37755,-33.8952,0 18.37675,-33.89585,0 18.37578,-33.89664,0 18.37497,-33.89731,0 18.37418,-33.89794,0 18.37337,-33.89864,0 18.37275,-33.89911,0 18.37177,-33.89994,0 18.37091,-33.90074,0 18.37009,-33.90143,0 18.36824,-33.90308,0 18.3676,-33.90362,0 18.36673,-33.90445,0 18.36589,-33.90527,0 18.36514,-33.906,0 18.36443,-33.90669,0 18.36376,-33.90739,0 18.36308,-33.90809,0 18.36216,-33.90907,0 18.36136,-33.90986,0 18.36067,-33.91061,0 18.36004,-33.91135,0 18.35924,-33.91224,0 18.3586,-33.91296,0 18.35782,-33.91388,0 18.35726,-33.91447,0 18.35632,-33.91563,0 18.35564,-33.91647,0 18.35501,-33.91722,0 18.35445,-33.918,0 18.35369,-33.91898,0 18.353,-33.91988,0 18.35244,-33.9207,0 18.35188,-33.92139,0 18.35123,-33.92234,0 18.35054,-33.92331,0 18.34997,-33.92411,0 18.34935,-33.92505,0 18.34877,-33.92587,0 18.34818,-33.92674,0 18.34751,-33.92764,0 18.34688,-33.92853,0 18.34631,-33.92932,0 18.34499,-33.93109,0 18.34448,-33.93187,0 18.34381,-33.93279,0 18.34324,-33.93361,0 18.34139,-33.93622,0 18.34033,-33.93787,0 18.33982,-33.93864,0 18.33933,-33.93942,0 18.33859,-33.94052,0 18.33818,-33.94119,0 18.33647,-33.94384,0 18.33607,-33.94441,0 18.33532,-33.94552,0 18.33372,-33.94799,0 18.33192,-33.95068,0 18.33035,-33.9532,0 18.32862,-33.95586,0 18.32503,-33.96172,0 18.32256,-33.96597,0 18.31998,-33.97064,0 18.31764,-33.9749,0 18.31507,-33.97946,0 18.31261,-33.98392,0 18.3102,-33.98844,0 18.30809,-33.99244,0 18.3062,-33.99594,0 18.30488,-33.99854,0 18.3035,-34.00127,0 18.30185,-34.00478,0 18.30151,-34.00557,0 18.30109,-34.00653,0 18.30042,-34.00813,0 18.30008,-34.00897,0 18.29969,-34.01001,0 18.29939,-34.01078,0 18.29905,-34.01171,0 18.29868,-34.01276,0 18.29847,-34.01353,0 18.29818,-34.01436,0 18.29795,-34.01523,0 18.29767,-34.01614,0 18.29744,-34.01693,0 18.29723,-34.01793,0 18.297,-34.01889,0 18.29678,-34.01976,0 18.29659,-34.02061,0 18.29644,-34.02159,0 18.29624,-34.02256,0 18.29613,-34.02335,0 18.29599,-34.02434,0 18.29596,-34.02531,0 18.29584,-34.02601,0 18.29577,-34.02699,0 18.29577,-34.02777,0 18.29577,-34.02859,0 18.29577,-34.02956,0 18.29582,-34.03038,0 18.29582,-34.03116,0 18.29588,-34.03198,0 18.29599,-34.03304,0 18.29607,-34.03392,0 18.29616,-34.03477,0 18.29633,-34.03583,0 18.29647,-34.03658,0 18.29667,-34.03752,0 18.29687,-34.03848,0 18.29704,-34.03937,0 18.29721,-34.04016,0 18.29739,-34.04095,0 18.29762,-34.04178,0 18.29784,-34.04283,0 18.29801,-34.04361,0 18.29818,-34.04434,0 18.29842,-34.04514,0 18.29863,-34.04585,0 18.29891,-34.04686,0 18.29916,-34.04775,0 18.29941,-34.04851,0 18.29963,-34.04924,0 18.29992,-34.05011,0 18.30019,-34.05087,0 18.30053,-34.05176,0 18.30092,-34.05267,0 18.30122,-34.05338,0 18.30154,-34.05418,0 18.30188,-34.05496,0 18.30219,-34.05566,0 18.30259,-34.0565,0 18.30305,-34.05738,0 18.30356,-34.0583,0 18.3039,-34.05899,0 18.3044,-34.05977,0 18.3049,-34.06064,0 18.30534,-34.06144,0 18.3058,-34.06213,0 18.3063,-34.06297,0 18.30687,-34.06393,0 18.30734,-34.06469,0 18.30769,-34.0653,0 18.30814,-34.066,0 18.30872,-34.06686,0 18.30922,-34.06773,0 18.31135,-34.07098,0 18.31238,-34.07242,0 18.31286,-34.073,0 18.31341,-34.07368,0 18.31393,-34.07437,0 18.31443,-34.07501,0 18.31511,-34.07579,0 18.31575,-34.07656,0 18.31623,-34.07712,0 18.31678,-34.07782,0 18.31752,-34.07858,0 18.31802,-34.07913,0 18.31853,-34.07973,0 18.3192,-34.08046,0 18.3197,-34.08099,0 18.32043,-34.08174,0 18.32099,-34.08238,0 18.32155,-34.08293,0 18.32222,-34.08357,0 18.32278,-34.08412,0 18.32342,-34.0848,0 18.32405,-34.08541,0 18.32548,-34.08676,0 18.3266,-34.08783,0 18.32788,-34.08899,0 18.3285,-34.08957,0 18.32909,-34.09007,0 18.3308,-34.09158,0 18.33143,-34.09207,0 18.33203,-34.09254,0 18.33271,-34.09305,0 18.33338,-34.09355,0 18.33395,-34.09393,0 18.3345,-34.09433,0 18.33512,-34.0947,0 18.33584,-34.09514,0 18.33658,-34.0956,0 18.33719,-34.09598,0 18.33796,-34.09639,0 18.33864,-34.09677,0 18.33932,-34.09708,0 18.34019,-34.09751,0 18.34072,-34.09776,0 18.3415,-34.09816,0 18.34201,-34.0984,0 18.34285,-34.09877,0 18.34347,-34.09909,0 18.34409,-34.09937,0 18.34487,-34.09973,0 18.34538,-34.09996,0 18.3461,-34.10033,0 18.34683,-34.10065,0 18.34745,-34.10097,0 18.34814,-34.10128,0 18.34885,-34.10161,0 18.34958,-34.10193,0 18.3502,-34.10221,0 18.35089,-34.10254,0 18.3516,-34.10284,0 18.35221,-34.10316,0 18.35283,-34.10347,0 18.35356,-34.10381,0 18.35423,-34.10413,0 18.3549,-34.10445,0 18.35627,-34.1051,0 18.35715,-34.1055,0 18.35787,-34.10582,0 18.3601,-34.10678,0 18.36168,-34.10747,0 18.36233,-34.10775,0 18.36454,-34.1088,0 18.3669,-34.10985,0 18.36987,-34.11108,0 18.37217,-34.11199,0 18.37452,-34.11292,0 18.37536,-34.11324,0 18.3762,-34.11356,0 18.37704,-34.11385,0 18.3779,-34.11413,0 18.37856,-34.11438,0 18.37927,-34.11469,0 18.38018,-34.11502,0 18.3808,-34.1153,0 18.38167,-34.11562,0 18.38243,-34.11589,0 18.38321,-34.11612,0 18.38379,-34.11632,0 18.38461,-34.11662,0 18.38545,-34.11694,0 18.38612,-34.11717,0 18.38699,-34.11744,0 18.38774,-34.11767,0 18.38842,-34.11795,0 18.38905,-34.11813,0 18.38988,-34.11845,0 18.39054,-34.11869,0 18.39157,-34.11902,0 18.39223,-34.11928,0 18.39283,-34.11948,0 18.39352,-34.11974,0 18.39425,-34.12001,0 18.39495,-34.12023,0 18.39565,-34.12047,0 18.39644,-34.12074,0 18.39712,-34.12098,0 18.39775,-34.12121,0 18.39857,-34.12148,0 18.39924,-34.1217,0 18.40073,-34.12223,0 18.40148,-34.12248,0 18.40359,-34.1233,0 18.40427,-34.12354,0 18.40628,-34.12432,0 18.40771,-34.12491,0 18.4086,-34.12527,0 18.40919,-34.12554,0 18.40989,-34.12582,0 18.41183,-34.1267,0 18.41343,-34.1274,0 18.41409,-34.1277,0 18.41492,-34.12805,0 18.41572,-34.12842,0 18.41651,-34.1288,0 18.4188,-34.12981,0 18.42196,-34.13122,0 18.42436,-34.13229,0 18.42596,-34.13294,0 18.42693,-34.13331,0 18.42766,-34.13361,0 18.42867,-34.13393,0 18.42939,-34.1342,0 18.43035,-34.13448,0 18.43119,-34.1347,0 18.43203,-34.13493,0 18.43288,-34.13508,0 18.43374,-34.13522,0 18.43478,-34.13535,0 18.43567,-34.13539,0 18.43672,-34.13541,0 18.43769,-34.13539,0 18.43884,-34.13522,0 18.43975,-34.13508,0 18.44072,-34.13484,0 18.44158,-34.13461,0 18.44267,-34.1342,0 18.44381,-34.13368,0 18.44464,-34.13329,0 18.44571,-34.13274,0 18.4465,-34.13229,0 18.44739,-34.13177,0 18.44845,-34.13117,0 18.44925,-34.13061,0 18.45045,-34.12991,0 18.45131,-34.12935,0 18.45222,-34.1288,0 18.45316,-34.1282,0 18.45406,-34.12761,0 18.4549,-34.12706,0 18.45577,-34.12651,0 18.4567,-34.12587,0 18.45765,-34.12523,0 18.45846,-34.1247,0 18.4609,-34.12299,0 18.46174,-34.12234,0 18.46275,-34.12163,0 18.46348,-34.12102,0 18.46447,-34.12028,0 18.46544,-34.11951,0 18.46613,-34.11888,0 18.46701,-34.11813,0 18.46779,-34.11744,0 18.46863,-34.11662,0 18.46939,-34.1159,0 18.47008,-34.11525,0 18.47088,-34.11438,0 18.47151,-34.11367,0 18.47217,-34.11292,0 18.47284,-34.11209,0 18.47334,-34.11145,0 18.4739,-34.11076,0 18.47458,-34.10985,0 18.47494,-34.10934,0 18.47558,-34.10843,0 18.47598,-34.1077,0 18.47643,-34.10687,0 18.47689,-34.10594,0 18.47727,-34.10509,0 18.4776,-34.10431,0 18.47786,-34.10352,0 18.47815,-34.10258,0 18.47855,-34.10147,0 18.47872,-34.10059,0 18.47889,-34.0997,0 18.479,-34.09882,0 18.47912,-34.0979,0 18.47923,-34.09681,0 18.47928,-34.09589,0 18.47934,-34.09497,0 18.4794,-34.09411,0 18.47946,-34.09323,0 18.47958,-34.0923,0 18.47963,-34.09123,0 18.47975,-34.09016,0 18.47979,-34.08929,0 18.4799,-34.08838,0 18.48009,-34.08709,0 18.48021,-34.08615,0 18.48035,-34.08499,0 18.48046,-34.08417,0 18.48063,-34.08321,0 18.48074,-34.08229,0 18.48091,-34.08115,0 18.48108,-34.08009,0 18.48124,-34.07917,0 18.48141,-34.07817,0 18.48192,-34.07507,0 18.48265,-34.07204,0 18.48289,-34.07084,0 18.4831,-34.07011,0 18.48338,-34.06883,0 18.48366,-34.06773,0 18.48381,-34.06683,0 18.48405,-34.06577,0 18.48433,-34.06465,0 18.48455,-34.06348,0 18.48473,-34.0625,0 18.48495,-34.06144,0 18.48539,-34.05922,0 18.48604,-34.05613,0 18.48668,-34.05276,0 18.4869,-34.0517,0 18.48708,-34.05057,0 18.48724,-34.04942,0 18.48736,-34.04836,0 18.48753,-34.04705,0 18.48769,-34.04608,0 18.48782,-34.04505,0 18.48803,-34.04379,0 18.48814,-34.04301,0 18.48827,-34.04198,0 18.48845,-34.04072,0 18.48865,-34.03963,0 18.48876,-34.03862,0 18.48885,-34.03765,0 18.48896,-34.03653,0 18.48898,-34.03555,0 18.48907,-34.03439,0 18.48907,-34.03345,0 18.48909,-34.0323,0 18.48907,-34.03136,0 18.48909,-34.03029,0 18.48907,-34.0295,0 18.48909,-34.02859,0 18.48907,-34.02745,0 18.48904,-34.02663,0 18.48902,-34.02568,0 18.48898,-34.02461,0 18.48902,-34.02368,0 18.48902,-34.02289,0 18.48909,-34.02177,0 18.48909,-34.0209,0 18.48915,-34.0199,0 18.48919,-34.01898,0 18.48921,-34.01807,0 18.48921,-34.01711,0 18.48925,-34.01628,0 18.48925,-34.0154,0 18.48921,-34.01436,0 18.48919,-34.01358,0 18.48915,-34.01271,0 18.48915,-34.0117,0 18.48915,-34.01079,0 18.48913,-34.00967,0 18.48915,-34.00868,0 18.48919,-34.00799,0 18.48919,-34.00506,0 18.48925,-34.00296,0 18.48926,-34.00012,0 18.4893,-33.99631,0 18.48926,-33.99541,0 18.48926,-33.99449,0 18.48919,-33.99337,0 18.48921,-33.99266,0 18.48915,-33.99179,0 18.48913,-33.99086,0 18.48909,-33.98813,0 18.48913,-33.98732,0 18.48921,-33.98653,0 18.48921,-33.98566,0 18.48926,-33.9847,0 18.48926,-33.98401,0 18.48926,-33.98309,0 18.4893,-33.9822,0 18.48932,-33.98126,0 18.4893,-33.98043,0 18.4893,-33.97964,0 18.48932,-33.97884,0 18.48932,-33.97806,0 18.48926,-33.97728,0 18.48925,-33.97638,0 18.48921,-33.9754,0 18.48909,-33.97357,0 18.48909,-33.97279,0 18.48907,-33.97192,0 18.48904,-33.97101,0 18.48896,-33.97024,0 18.48885,-33.96917,0 18.48873,-33.96842,0 18.48865,-33.96739,0 18.48856,-33.96651,0 18.48848,-33.96565,0 18.48839,-33.9647,0 18.48831,-33.96391,0 18.48822,-33.96288,0 18.48814,-33.96204,0 18.4881,-33.96125,0 18.48797,-33.96043,0 18.48792,-33.95961,0 18.48752,-33.95595,0 18.48741,-33.95512,0 18.4873,-33.9543,0 18.48719,-33.95348,0 18.48708,-33.95261,0 18.48673,-33.95073,0 18.48656,-33.94994,0 18.48639,-33.94896,0 18.48595,-33.94798,0 18.48573,-33.94716,0 18.48558,-33.94645,0 18.48534,-33.9456,0 18.48506,-33.94464,0 18.48478,-33.94359,0 18.4845,-33.94277,0 18.48422,-33.94185,0 18.48398,-33.94105,0 18.48375,-33.94035,0 18.48349,-33.93961,0 18.48315,-33.9386,0 18.48289,-33.93789,0 18.48249,-33.93686,0 18.4822,-33.93604,0 18.48186,-33.93526,0 18.48146,-33.93425,0 18.48118,-33.93351,0 18.48072,-33.93253,0 18.48032,-33.93179,0 18.4798,-33.93076,0 18.47935,-33.93002,0 18.47889,-33.92912,0 18.4785,-33.92839,0 18.47805,-33.92757,0 18.4776,-33.92683,0 18.47712,-33.92611,0 18.47665,-33.92546,0 18.47614,-33.92471,0 18.47564,-33.92395,0 18.475,-33.92318,0 18.47431,-33.92234,0 18.47379,-33.92171,0 18.47323,-33.92102,0 18.47254,-33.92015,0 18.47202,-33.91954,0 18.47132,-33.91869,0 18.47071,-33.91796,0 18.47009,-33.91722,0 18.46939,-33.91642,0 18.46863,-33.91557,0 18.46813,-33.91502,0 18.4675,-33.91438,0 18.4669,-33.9137,0 18.46636,-33.91312,0 18.46567,-33.91228,0 18.46499,-33.91154,0 18.46449,-33.9109,0 18.46387,-33.91026,0 18.46325,-33.90953,0 18.4628,-33.90898,0 18.4623,-33.90842,0 18.46172,-33.90772,0 18.46112,-33.90706,0 18.46051,-33.90642,0 18.46,-33.90587,0 18.45944,-33.90523,0 18.45894,-33.90468,0 18.45843,-33.90408,0 18.45782,-33.9034,0 18.45726,-33.90279,0 18.4568,-33.90223,0 18.4563,-33.90175,0 18.45574,-33.9012,0 18.45507,-33.90056,0 18.45451,-33.90018,0 18.45384,-33.89969,0 18.45322,-33.89932,0 18.45255,-33.89896,0 18.452,-33.89874,0 18.45131,-33.89841,0 18.45068,-33.89813,0 18.45014,-33.8979,0 18.44941,-33.89767,0 18.44879,-33.89753,0 18.44818,-33.8974,0 18.44748,-33.89729,0 18.44694,-33.89726,0 18.44604,-33.89726,0 18.44542,-33.89729,0 18.44476,-33.89731,0 18.44408,-33.89735,0 18.44324,-33.89748,0 18.44263,-33.89758,0 18.44233,-33.89762,0 18.44195,-33.89767,0 18.44156,-33.89772,0 18.44118,-33.8978,0 18.44066,-33.8979,0 18.44033,-33.89799,0 18.43992,-33.89808,0 18.4396,-33.89813,0 18.43906,-33.89822,0 18.43876,-33.89827,0 18.43843,-33.89832,0 18.43798,-33.89841,0 18.43752,-33.8985,0 18.43718,-33.89859,0 18.43672,-33.89869,0 18.4364,-33.89877,0 18.43615,-33.89878,0 18.43586,-33.89892,0 18.43545,-33.899,0 18.43506,-33.89914,0 18.43477,-33.8992,0 18.43427,-33.89932,0 18.43399,-33.89941,0 18.43371,-33.89951,0 18.43321,-33.89964,0 18.43287,-33.89969,0 18.43214,-33.89992,0 18.43186,-33.90001,0 18.43153,-33.90005,0 18.43108,-33.90015,0 18.43085,-33.90019,0 18.43057,-33.90028,0 18.43029,-33.90033,0 18.43008,-33.90036,0 18.42945,-33.90051,0 18.42923,-33.90056,0 18.429,-33.90056,0 18.42878,-33.9006,0 18.42833,-33.9007,0 18.42802,-33.90074,0 18.42772,-33.90079,0 18.42749,-33.90083,0 18.42715,-33.90088,0 18.42693,-33.90092,0 18.42671,-33.90097,0 18.42692,-33.90103,0 18.39773,-33.88209,0 18.39435,-33.88345,0 18.39143,-33.88459,0 18.38782,-33.88386,0 18.38243,-33.88435,0 18.37707,-33.88568,0 18.38768,-33.89296,0 18.38694,-33.89347,0 18.37107,-33.89069,0 18.38116,-33.89799,0 18.37895,-33.89978,0 18.37604,-33.90221,0 18.37357,-33.90422,0 18.37069,-33.90679,0 18.37015,-33.90733,0 18.36931,-33.90814,0 18.36868,-33.90879,0 18.36785,-33.90958,0 18.36724,-33.91026,0 18.36673,-33.91077,0 18.36594,-33.91158,0 18.36531,-33.91224,0 18.36451,-33.91312,0 18.36388,-33.91377,0 18.36313,-33.91461,0 18.36253,-33.9153,0 18.36193,-33.91591,0 18.36113,-33.91685,0 18.36057,-33.91754,0 18.35989,-33.91832,0 18.3593,-33.91903,0 18.35867,-33.91978,0 18.35609,-33.92285,0 18.35398,-33.92536,0 18.35112,-33.92857,0 18.34846,-33.93159,0 18.34648,-33.93398,0 18.34375,-33.93732,0 18.34156,-33.94002,0 18.33933,-33.94296,0 18.33704,-33.94594,0 18.33444,-33.94936,0 18.33226,-33.95224,0 18.33012,-33.9552,0 18.32794,-33.95828,0 18.32301,-33.96574,0 18.32153,-33.96814,0 18.3201,-33.97061,0 18.31861,-33.97313,0 18.31661,-33.97638,0 18.31415,-33.98048,0 18.31198,-33.98425,0 18.3104,-33.9874,0 18.30877,-33.99055,0 18.30786,-33.99254,0 18.30726,-33.9938,0 18.30688,-33.99472,0 18.30642,-33.99577,0 18.30603,-33.99668,0 18.30547,-33.99797,0 18.30395,-34.00163,0 18.30236,-34.00534,0 18.30154,-34.0074,0 18.30048,-34.01028,0 18.30014,-34.01125,0 18.29986,-34.01207,0 18.29947,-34.01312,0 18.29919,-34.01431,0 18.29885,-34.01518,0 18.29857,-34.01628,0 18.29773,-34.01907,0 18.29739,-34.02013,0 18.29717,-34.02109,0 18.29693,-34.0221,0 18.29676,-34.02312,0 18.29661,-34.02406,0 18.29647,-34.02508,0 18.29638,-34.02594,0 18.29633,-34.0269,0 18.29624,-34.02806,0 18.29618,-34.02903,0 18.29622,-34.02992,0 18.29618,-34.03104,0 18.29622,-34.03194,0 18.29624,-34.03281,0 18.29633,-34.03395,0 18.2965,-34.03514,0 18.29661,-34.03606,0 18.29681,-34.03723,0 18.29699,-34.0383,0 18.29721,-34.03918,0 18.29745,-34.04036,0 18.29767,-34.04114,0 18.29796,-34.0423,0 18.29823,-34.04324,0 18.29859,-34.0443,0 18.29893,-34.04519,0 18.29933,-34.0464,0 18.29969,-34.04727,0 18.30008,-34.04817,0 18.30036,-34.04892,0 18.30081,-34.04997,0 18.3012,-34.0508,0 18.30156,-34.05166,0 18.30193,-34.05263,0 18.30242,-34.0538,0 18.30276,-34.05464,0 18.30317,-34.05565,0 18.30356,-34.05647,0 18.30395,-34.05734,0 18.30446,-34.0584,0 18.30494,-34.05934,0 18.30551,-34.06036,0 18.30591,-34.06114,0 18.30642,-34.0621,0 18.30692,-34.06293,0 18.30751,-34.064,0 18.30799,-34.06471,0 18.30854,-34.06567,0 18.30917,-34.0667,0 18.30972,-34.0676,0 18.31026,-34.06837,0 18.31089,-34.0693,0 18.31152,-34.07023,0 18.31202,-34.07094,0 18.31275,-34.07195,0 18.31335,-34.07275,0 18.31404,-34.07368,0 18.3146,-34.07442,0 18.31527,-34.07538,0 18.31593,-34.07624,0 18.3178,-34.07872,0 18.31976,-34.08122,0 18.32105,-34.08279,0 18.32166,-34.08344,0 18.32245,-34.0843,0 18.32312,-34.08495,0 18.32391,-34.08572,0 18.32474,-34.08652,0 18.32542,-34.08713,0 18.32628,-34.08788,0 18.32708,-34.08857,0 18.32794,-34.08927,0 18.32873,-34.08984,0 18.32966,-34.09058,0 18.33035,-34.09109,0 18.33125,-34.09177,0 18.33212,-34.09239,0 18.33293,-34.09291,0 18.33405,-34.09364,0 18.33487,-34.09411,0 18.33578,-34.09467,0 18.33674,-34.0952,0 18.33753,-34.09561,0 18.33831,-34.09612,0 18.33921,-34.09658,0 18.34016,-34.09708,0 18.3411,-34.09761,0 18.34196,-34.09804,0 18.34299,-34.09858,0 18.34373,-34.099,0 18.34476,-34.09959,0 18.34728,-34.10101,0 18.35003,-34.10252,0 18.35255,-34.1039,0 18.35329,-34.10431,0 18.35395,-34.10472,0 18.35478,-34.10519,0 18.35574,-34.10573,0 18.35644,-34.10612,0 18.35754,-34.10674,0 18.35838,-34.1072,0 18.35924,-34.10761,0 18.35999,-34.10803,0 18.36073,-34.10841,0 18.36147,-34.10883,0 18.36247,-34.1093,0 18.36496,-34.11055,0 18.36589,-34.11095,0 18.36667,-34.11122,0 18.36754,-34.11162,0 18.3683,-34.11191,0 18.3692,-34.11223,0 18.37029,-34.11259,0 18.37121,-34.11296,0 18.37206,-34.11314,0 18.3728,-34.11339,0 18.37395,-34.11376,0 18.37503,-34.11409,0 18.37587,-34.11438,0 18.37675,-34.11464,0 18.37772,-34.11493,0 18.37858,-34.11515,0 18.37944,-34.11539,0 18.38024,-34.11562,0 18.38121,-34.11595,0 18.38207,-34.11623,0 18.38287,-34.11653,0 18.3839,-34.11692,0 18.3847,-34.1172,0 18.38579,-34.11758,0 18.38654,-34.11781,0 18.38753,-34.11818,0 18.38859,-34.11855,0 18.38954,-34.11887,0 18.39054,-34.11925,0 18.39139,-34.11955,0 18.39235,-34.11992,0 18.39323,-34.12028,0 18.39397,-34.1206,0 18.39483,-34.12093,0 18.39558,-34.12121,0 18.39649,-34.12161,0 18.39752,-34.12204,0 18.39821,-34.12233,0 18.3989,-34.12265,0 18.39975,-34.12302,0 18.40053,-34.1234,0 18.4012,-34.12367,0 18.4021,-34.12408,0 18.40273,-34.12437,0 18.4035,-34.12473,0 18.40416,-34.12498,0 18.40479,-34.12527,0 18.40541,-34.1255,0 18.40611,-34.12582,0 18.40679,-34.12614,0 18.40736,-34.12637,0 18.40816,-34.12675,0 18.40888,-34.12706,0 18.40954,-34.12735,0 18.41022,-34.12763,0 18.41096,-34.12798,0 18.41163,-34.12825,0 18.41236,-34.12862,0 18.41292,-34.12885,0 18.4137,-34.12921,0 18.41429,-34.12945,0 18.4151,-34.12981,0 18.41578,-34.1301,0 18.41635,-34.13038,0 18.41718,-34.13072,0 18.41784,-34.13103,0 18.41875,-34.13141,0 18.41953,-34.13173,0 18.42035,-34.13205,0 18.42087,-34.13224,0 18.42161,-34.13256,0 18.42228,-34.13283,0 18.42293,-34.13303,0 18.42368,-34.13338,0 18.42453,-34.13368,0 18.42514,-34.13393,0 18.42592,-34.1342,0 18.42654,-34.13438,0 18.42732,-34.13466,0 18.42816,-34.13493,0 18.42889,-34.13512,0 18.42973,-34.1353,0 18.43052,-34.13544,0 18.4313,-34.13557,0 18.43203,-34.13571,0 18.43283,-34.13583,0 18.43366,-34.13594,0 18.43443,-34.13606,0 18.43523,-34.13615,0 18.43607,-34.13617,0 18.43678,-34.13625,0 18.43764,-34.13626,0 18.43855,-34.13634,0 18.43935,-34.13634,0 18.44032,-34.13625,0 18.44106,-34.13612,0 18.44193,-34.13592,0 18.44263,-34.13567,0 18.44353,-34.13541,0 18.44444,-34.13513,0 18.44524,-34.1348,0 18.44599,-34.13452,0 18.44662,-34.13424,0 18.44748,-34.13382,0 18.44839,-34.13331,0 18.44907,-34.13292,0 18.44965,-34.13256,0 18.45047,-34.13205,0 18.45125,-34.1315,0 18.45194,-34.13108,0 18.45277,-34.13049,0 18.45356,-34.12994,0 18.45423,-34.12949,0 18.45485,-34.12907,0 18.45566,-34.12852,0 18.45634,-34.12805,0 18.45697,-34.12763,0 18.45766,-34.12721,0 18.45821,-34.12688,0 18.45888,-34.12646,0 18.45984,-34.12586,0 18.46034,-34.12555,0 18.46109,-34.12507,0 18.46161,-34.1247,0 18.46224,-34.12431,0 18.4628,-34.12399,0 18.46338,-34.12363,0 18.46398,-34.12321,0 18.46453,-34.12284,0 18.46522,-34.12244,0 18.46572,-34.12207,0 18.46636,-34.12163,0 18.46687,-34.1213,0 18.46746,-34.12093,0 18.46796,-34.12056,0 18.46865,-34.12,0 18.46905,-34.11963,0 18.46953,-34.11914,0 18.47019,-34.11855,0 18.47054,-34.11818,0 18.47121,-34.1174,0 18.47166,-34.11685,0 18.47214,-34.11618,0 18.47261,-34.11552,0 18.47294,-34.11497,0 18.47328,-34.11432,0 18.47374,-34.11353,0 18.47401,-34.11305,0 18.47437,-34.11232,0 18.47474,-34.11163,0 18.47502,-34.11095,0 18.47534,-34.11018,0 18.47564,-34.10948,0 18.47591,-34.10883,0 18.47614,-34.1082,0 18.47643,-34.10733,0 18.47665,-34.10669,0 18.47694,-34.10585,0 18.47717,-34.10492,0 18.47738,-34.10426,0 18.4776,-34.10353,0 18.47777,-34.10284,0 18.47803,-34.10194,0 18.4782,-34.10114,0 18.47832,-34.10044,0 18.47855,-34.09937,0 18.47866,-34.09867,0 18.47883,-34.09774,0 18.47895,-34.09685,0 18.47912,-34.09589,0 18.47923,-34.09509,0 18.4794,-34.09401,0 18.47951,-34.09323,0 18.47958,-34.09244,0 18.47973,-34.0914,0 18.47986,-34.09053,0 18.47998,-34.08965,0 18.48007,-34.0887,0 18.48015,-34.08788,0 18.48026,-34.08671,0 18.48041,-34.08586,0 18.48057,-34.08476,0 18.48072,-34.08392,0 18.48078,-34.08322,0 18.48095,-34.08224,0 18.48112,-34.08122,0 18.48129,-34.08038,0 18.48147,-34.07932,0 18.48164,-34.07843,0 18.48186,-34.07744,0 18.48237,-34.07451,0 18.48324,-34.07051,0 18.48388,-34.06783,0 18.4845,-34.06476,0 18.48517,-34.06169,0 18.48581,-34.05804,0 18.48629,-34.05473,0 18.4864,-34.05382,0 18.48652,-34.0529,0 18.48668,-34.05194,0 18.4868,-34.05112,0 18.48691,-34.0502,0 18.48701,-34.04905,0 18.48713,-34.04791,0 18.48724,-34.04681,0 18.48741,-34.04553,0 18.48776,-34.04244,0 18.48803,-34.03954,0 18.48816,-34.03741,0 18.4882,-34.03404,0 18.48816,-34.03299,0 18.4882,-34.03217,0 18.48816,-34.03113,0 18.4882,-34.02988,0 18.48822,-34.02903,0 18.48822,-34.02796,0 18.48822,-34.02708,0 18.48822,-34.02591,0 18.48827,-34.02522,0 18.48827,-34.02405,0 18.48831,-34.02301,0 18.48839,-34.022,0 18.48839,-34.02098,0 18.48845,-34.01991,0 18.48845,-34.01902,0 18.4885,-34.01791,0 18.48853,-34.01711,0 18.48853,-34.01605,0 18.48859,-34.01518,0 18.48862,-34.01409,0 18.48873,-34.0113,0 18.48881,-34.00841,0 18.48893,-34.00484,0 18.4889,-34.00231,0 18.48885,-33.99868,0 18.48887,-33.99564,0 18.48885,-33.9931,0 18.48879,-33.98904,0 18.48876,-33.98611,0 18.48873,-33.98513,0 18.48873,-33.98388,0 18.4887,-33.98305,0 18.48873,-33.98206,0 18.48867,-33.98099,0 18.4887,-33.98007,0 18.48865,-33.9792,0 18.48867,-33.97811,0 18.48867,-33.97722,0 18.48865,-33.97627,0 18.48859,-33.9754,0 18.48862,-33.97461,0 18.48859,-33.97371,0 18.48859,-33.97266,0 18.48859,-33.97174,0 18.48862,-33.97084,0 18.48859,-33.96996,0 18.48853,-33.96886,0 18.48848,-33.96817,0 18.48839,-33.96712,0 18.48827,-33.96628,0 18.4882,-33.96542,0 18.48808,-33.9646,0 18.48797,-33.96364,0 18.48786,-33.96281,0 18.48775,-33.96204,0 18.48769,-33.96107,0 18.48758,-33.96011,0 18.48752,-33.95915,0 18.48742,-33.95832,0 18.4873,-33.95746,0 18.48724,-33.95663,0 18.48713,-33.95581,0 18.48701,-33.95488,0 18.48684,-33.95404,0 18.48667,-33.95297,0 18.48656,-33.95222,0 18.48629,-33.9511,0 18.48607,-33.95009,0 18.4859,-33.94926,0 18.48564,-33.94827,0 18.48539,-33.9473,0 18.48517,-33.94656,0 18.48483,-33.94547,0 18.48455,-33.9446,0 18.48421,-33.94366,0 18.48388,-33.94272,0 18.48349,-33.94162,0 18.48315,-33.9407,0 18.48281,-33.93983,0 18.48249,-33.939,0 18.48209,-33.93777,0 18.48181,-33.93695,0 18.48141,-33.93607,0 18.48108,-33.93517,0 18.48057,-33.93384,0 18.47906,-33.93031,0 18.47855,-33.92941,0 18.47815,-33.92862,0 18.47763,-33.92774,0 18.47721,-33.92706,0 18.47666,-33.92616,0 18.4762,-33.92532,0 18.47564,-33.92441,0 18.47519,-33.92368,0 18.4748,-33.92299,0 18.47418,-33.92212,0 18.4738,-33.92145,0 18.47328,-33.92071,0 18.47267,-33.91983,0 18.47217,-33.91914,0 18.47161,-33.91832,0 18.47105,-33.91763,0 18.47054,-33.91695,0 18.47008,-33.91633,0 18.46939,-33.91549,0 18.46891,-33.91493,0 18.46824,-33.91402,0 18.46762,-33.91326,0 18.46695,-33.91251,0 18.46647,-33.91196,0 18.46594,-33.91122,0 18.46544,-33.91061,0 18.46476,-33.90977,0 18.46378,-33.90851,0 18.4627,-33.90721,0 18.46224,-33.90674,0</coordinates>
      </LineString>
    </Placemark>
  </Document>
</kml>
