<?xml version="1.0" encoding="UTF-8"?>
<kml xmlns="http://www.opengis.net/kml/2.2">
  <Document>
    <name>FR24 41f6df8d</name>
    <Placemark>
      <name>FR24 41f6df8d</name>
      <Style><LineStyle><color>ff0000ff</color><width>4</width></LineStyle></Style>
      <LineString>
        <tessellate>1</tessellate>
        <coordinates>18.43259,-33.90092,0 18.43397,-33.90036,0 18.4345,-33.90001,0 18.43494,-33.89967,0 18.43552,-33.89906,0 18.4358,-33.89859,0 18.43612,-33.89772,0 18.43624,-33.89722,0 18.43637,-33.89608,0 18.43635,-33.89539,0 18.43632,-33.8945,0 18.43626,-33.89357,0 18.43624,-33.89278,0 18.43615,-33.89185,0 18.43607,-33.89108,0 18.43597,-33.89035,0 18.4359,-33.88916,0 18.43575,-33.88817,0 18.43556,-33.88728,0 18.43523,-33.88635,0 18.43478,-33.88545,0 18.4341,-33.88454,0 18.43338,-33.8838,0 18.43237,-33.88309,0 18.43151,-33.88263,0 18.43054,-33.88226,0 18.42957,-33.88193,0 18.42819,-33.88156,0 18.42721,-33.88133,0 18.42519,-33.88092,0 18.42435,-33.88078,0 18.42293,-33.88053,0 18.42228,-33.88042,0 18.42071,-33.88023,0 18.41967,-33.88011,0 18.41829,-33.87993,0 18.41718,-33.87968,0 18.41623,-33.87932,0 18.41537,-33.87877,0 18.41486,-33.87807,0 18.41466,-33.87717,0 18.41486,-33.87634,0 18.41516,-33.87589,0 18.41583,-33.87537,0 18.41658,-33.87513,0 18.41738,-33.87504,0 18.41791,-33.87506,0 18.41852,-33.87511,0 18.41892,-33.87509,0 18.41936,-33.87511,0 18.4197,-33.87511,0 18.42012,-33.87513,0 18.42064,-33.87527,0 18.4211,-33.87546,0 18.42166,-33.87584,0 18.42205,-33.8763,0 18.4223,-33.87695,0 18.42239,-33.87762,0 18.42224,-33.87848,0 18.42184,-33.87918,0 18.4211,-33.87996,0 18.42007,-33.88063,0 18.41915,-33.881,0 18.41796,-33.88138,0 18.41681,-33.88169,0 18.41578,-33.88193,0 18.41438,-33.8822,0 18.41309,-33.88248,0 18.41188,-33.88272,0 18.41063,-33.883,0 18.40984,-33.88316,0 18.40849,-33.88344,0 18.40719,-33.88374,0 18.40608,-33.88403,0 18.40479,-33.88435,0 18.40359,-33.88467,0 18.40215,-33.88509,0 18.40087,-33.8855,0 18.39981,-33.88584,0 18.39872,-33.88621,0 18.39705,-33.88683,0 18.39616,-33.88719,0 18.39498,-33.88765,0 18.39375,-33.88812,0 18.39231,-33.88873,0 18.39106,-33.88929,0 18.38999,-33.88971,0 18.3886,-33.8904,0 18.38769,-33.89085,0 18.38629,-33.89159,0 18.38493,-33.89236,0 18.38388,-33.89296,0 18.38264,-33.89375,0 18.38158,-33.89442,0 18.38058,-33.89516,0 18.37955,-33.89585,0 18.37839,-33.89667,0 18.37749,-33.89734,0 18.37654,-33.89804,0 18.37538,-33.89892,0 18.37424,-33.89983,0 18.37306,-33.90074,0 18.37211,-33.90147,0 18.37099,-33.9023,0 18.37004,-33.90294,0 18.3688,-33.90385,0 18.36791,-33.90454,0 18.36695,-33.90536,0 18.36599,-33.90614,0 18.36531,-33.90674,0 18.36398,-33.90793,0 18.36296,-33.90893,0 18.36191,-33.9099,0 18.36107,-33.91079,0 18.36033,-33.91163,0 18.35941,-33.91261,0 18.35867,-33.91349,0 18.35793,-33.91433,0 18.35701,-33.91535,0 18.35615,-33.91638,0 18.35524,-33.9174,0 18.35445,-33.91832,0 18.35363,-33.91922,0 18.35283,-33.9201,0 18.35203,-33.92094,0 18.35104,-33.92184,0 18.3498,-33.92271,0 18.34868,-33.92317,0 18.3474,-33.92341,0 18.34614,-33.92341,0 18.34494,-33.92308,0 18.34392,-33.92249,0 18.34324,-33.9218,0 18.3428,-33.92097,0 18.34268,-33.92006,0 18.34282,-33.91927,0 18.34319,-33.9185,0 18.34373,-33.91782,0 18.34436,-33.91722,0 18.34482,-33.9168,0 18.34526,-33.9164,0 18.34577,-33.91599,0 18.34621,-33.91562,0 18.34672,-33.91525,0 18.34728,-33.91489,0 18.34774,-33.91461,0 18.34826,-33.91438,0 18.34888,-33.91414,0 18.34941,-33.91406,0 18.35008,-33.91406,0 18.3507,-33.91415,0 18.35132,-33.91443,0 18.35192,-33.91484,0 18.35232,-33.9154,0 18.35261,-33.91603,0 18.35278,-33.91675,0 18.35283,-33.91763,0 18.35278,-33.91852,0 18.35266,-33.91917,0 18.35243,-33.9202,0 18.3522,-33.92099,0 18.35192,-33.92183,0 18.3516,-33.92285,0 18.35132,-33.92381,0 18.35104,-33.92477,0 18.35077,-33.92569,0 18.35042,-33.9267,0 18.35014,-33.92761,0 18.34986,-33.92862,0 18.3494,-33.92997,0 18.34913,-33.93095,0 18.34879,-33.93196,0 18.34848,-33.93304,0 18.34812,-33.93425,0 18.34774,-33.93542,0 18.34683,-33.93851,0 18.34582,-33.94171,0 18.34437,-33.94684,0 18.34305,-33.95176,0 18.34201,-33.95586,0 18.34111,-33.95979,0 18.34087,-33.96074,0 18.34047,-33.96218,0 18.34013,-33.96339,0 18.33971,-33.96474,0 18.33932,-33.96616,0 18.33899,-33.9673,0 18.33865,-33.96867,0 18.33837,-33.96977,0 18.33797,-33.97128,0 18.33778,-33.97243,0 18.33758,-33.9738,0 18.33747,-33.97508,0 18.33744,-33.97634,0 18.33744,-33.97778,0 18.33753,-33.97893,0 18.33764,-33.97998,0 18.33775,-33.98131,0 18.33797,-33.98259,0 18.3382,-33.98387,0 18.33841,-33.98504,0 18.33864,-33.98611,0 18.33893,-33.98721,0 18.33932,-33.98872,0 18.33961,-33.98984,0 18.34007,-33.99133,0 18.34047,-33.99249,0 18.34093,-33.99375,0 18.34134,-33.99486,0 18.34173,-33.99586,0 18.34213,-33.99677,0 18.34293,-33.9984,0 18.34352,-33.99944,0 18.34414,-34.00053,0 18.34481,-34.00172,0 18.34549,-34.00296,0 18.34597,-34.00389,0 18.34661,-34.00516,0 18.34711,-34.00621,0 18.34762,-34.00735,0 18.34806,-34.00827,0 18.34854,-34.00934,0 18.34913,-34.0106,0 18.34957,-34.01162,0 18.35008,-34.01294,0 18.35054,-34.01414,0 18.35094,-34.01521,0 18.35135,-34.01637,0 18.35165,-34.01738,0 18.35199,-34.01848,0 18.35238,-34.01976,0</coordinates>
      </LineString>
    </Placemark>
  </Document>
</kml>
