<?xml version="1.0" encoding="UTF-8"?>
<kml xmlns="http://www.opengis.net/kml/2.2">
  <Document>
    <name>FR24 406a7725</name>
    <Placemark>
      <name>FR24 406a7725</name>
      <Style><LineStyle><color>ff0000ff</color><width>4</width></LineStyle></Style>
      <LineString>
        <tessellate>1</tessellate>
        <coordinates>18.43346,-33.88761,0 18.43409,-33.88514,0 18.43409,-33.8844,0 18.43394,-33.88353,0 18.43369,-33.88286,0 18.43334,-33.88226,0 18.43293,-33.88174,0 18.43237,-33.88115,0 18.43174,-33.88081,0 18.43105,-33.88053,0 18.43024,-33.88042,0 18.42951,-33.88042,0 18.42871,-33.88058,0 18.42802,-33.88091,0 18.42743,-33.88133,0 18.42699,-33.88184,0 18.42659,-33.88243,0 18.42632,-33.88316,0 18.42613,-33.88388,0 18.42626,-33.88472,0 18.42642,-33.88533,0 18.42688,-33.88602,0 18.42766,-33.88692,0 18.42839,-33.8876,0 18.42911,-33.88817,0 18.43008,-33.88891,0 18.43065,-33.88933,0 18.43142,-33.88989,0 18.43231,-33.89058,0 18.43321,-33.89127,0 18.43416,-33.89204,0 18.43506,-33.89273,0 18.43567,-33.89323,0 18.43672,-33.89403,0 18.43752,-33.89464,0 18.43821,-33.89515,0 18.43918,-33.89603,0 18.43975,-33.89673,0 18.44027,-33.89754,0 18.44083,-33.89864,0 18.44117,-33.89941,0 18.44145,-33.90024,0 18.44173,-33.9012,0 18.44204,-33.90204,0 18.44238,-33.90311,0 18.44267,-33.9039,0 18.44301,-33.90488,0 18.44336,-33.90581,0 18.44381,-33.90674,0 18.44416,-33.90758,0 18.44461,-33.9086,0 18.44496,-33.90935,0 18.44537,-33.91031,0 18.44576,-33.91113,0 18.4461,-33.91205,0 18.44662,-33.91335,0 18.4469,-33.91419,0 18.4473,-33.91526,0 18.4477,-33.91633,0 18.44795,-33.91713,0 18.44829,-33.91814,0 18.44857,-33.91901,0 18.44885,-33.91996,0 18.44918,-33.92097,0 18.44952,-33.92203,0 18.44986,-33.92317,0 18.45019,-33.92418,0 18.45108,-33.92718,0 18.45228,-33.93123,0 18.45361,-33.93544,0 18.45491,-33.93951,0 18.45513,-33.94038,0 18.45546,-33.94144,0 18.45577,-33.94258,0 18.456,-33.94361,0 18.45619,-33.9445,0 18.45634,-33.94547,0 18.45652,-33.94678,0 18.45663,-33.94771,0 18.45675,-33.94858,0 18.45686,-33.94977,0 18.45686,-33.95068,0 18.45686,-33.95181,0 18.4568,-33.95269,0 18.45663,-33.9538,0 18.45652,-33.95469,0 18.45636,-33.95572,0 18.45625,-33.95659,0 18.45608,-33.9576,0 18.45591,-33.95851,0 18.45577,-33.95953,0 18.45557,-33.96034,0 18.45513,-33.96144,0 18.45462,-33.96222,0 18.45412,-33.96295,0 18.45356,-33.96364,0 18.45288,-33.9646,0 18.45228,-33.96535,0 18.45171,-33.96614,0 18.4512,-33.96693,0 18.45062,-33.96782,0 18.45011,-33.96861,0 18.44958,-33.96941,0 18.44896,-33.97038,0 18.44839,-33.97122,0 18.44784,-33.97202,0 18.44713,-33.97289,0 18.44633,-33.97387,0 18.44571,-33.97453,0 18.44492,-33.97545,0 18.44419,-33.97623,0 18.44324,-33.97722,0 18.44251,-33.97806,0 18.44181,-33.97881,0 18.44112,-33.97955,0 18.44033,-33.98048,0 18.43946,-33.98146,0 18.43872,-33.98234,0 18.43814,-33.98305,0 18.43752,-33.98383,0 18.43678,-33.98481,0 18.43612,-33.98561,0 18.43552,-33.98644,0 18.43495,-33.98717,0 18.43439,-33.98795,0 18.4338,-33.98877,0 18.43317,-33.98956,0 18.43265,-33.99033,0 18.4322,-33.99088,0 18.43181,-33.99147,0 18.43151,-33.99184,0 18.43122,-33.99221,0 18.43088,-33.99263,0 18.43046,-33.99312,0 18.43008,-33.99352,0 18.42974,-33.99384,0 18.42934,-33.99421,0 18.42889,-33.99463,0 18.42839,-33.99509,0 18.42788,-33.9955,0 18.42728,-33.99598,0 18.42676,-33.99635,0 18.42632,-33.99673,0 18.42533,-33.99728,0 18.42469,-33.99751,0 18.42402,-33.99766,0 18.42339,-33.9977,0 18.42284,-33.99774,0 18.42222,-33.99779,0 18.42133,-33.99792,0 18.42054,-33.99806,0 18.41976,-33.99834,0 18.41904,-33.99868,0 18.41835,-33.99924,0 18.41785,-33.99985,0 18.41746,-34.00067,0 18.41729,-34.00159,0 18.41721,-34.00254,0 18.41726,-34.00343,0 18.41746,-34.00456,0 18.41761,-34.00562,0 18.41784,-34.00664,0 18.41806,-34.00757,0 18.41835,-34.00879,0 18.41863,-34.00978,0 18.41897,-34.01093,0 18.41927,-34.01186,0 18.41964,-34.01303,0 18.41995,-34.01395,0 18.42041,-34.01521,0 18.42076,-34.0161,0 18.42115,-34.01712,0 18.42155,-34.01802,0 18.42201,-34.01917,0 18.42245,-34.02017,0 18.42281,-34.02103,0 18.42329,-34.02209,0 18.42379,-34.02324,0 18.42413,-34.02401,0 18.42463,-34.02516,0 18.42516,-34.02633,0 18.42553,-34.02708,0 18.42598,-34.02809,0 18.42654,-34.02928,0 18.42699,-34.03015,0 18.42743,-34.03111,0 18.42808,-34.03229,0 18.42856,-34.03322,0 18.42916,-34.03429,0 18.42979,-34.03537,0 18.43042,-34.03643,0 18.43094,-34.03727,0 18.43145,-34.03816,0 18.4322,-34.03931,0 18.43265,-34.03999,0 18.43332,-34.041,0 18.43382,-34.04182,0 18.43444,-34.04283,0 18.43512,-34.04388,0 18.43567,-34.04475,0 18.43624,-34.04572,0 18.43691,-34.04677,0 18.43752,-34.04768,0 18.43809,-34.0486,0 18.43859,-34.04942,0 18.43929,-34.05045,0 18.43977,-34.05121,0 18.44033,-34.05203,0 18.44094,-34.05309,0 18.44147,-34.05389,0 18.44215,-34.05501,0 18.44263,-34.05592,0 18.44307,-34.05679,0 18.44353,-34.05794,0 18.44391,-34.0589,0 18.44439,-34.05999,0 18.44476,-34.06087,0 18.44515,-34.06174,0 18.4457,-34.06283,0 18.44627,-34.06398,0 18.44679,-34.06493,0 18.44728,-34.06586,0 18.44782,-34.06674,0 18.44828,-34.06763,0 18.44885,-34.06856,0 18.44948,-34.06963,0 18.45003,-34.07053,0 18.45068,-34.07158,0 18.45131,-34.07259,0 18.45194,-34.07349,0 18.45255,-34.07433,0 18.45322,-34.07529,0 18.45395,-34.07625,0 18.45457,-34.07707,0 18.4552,-34.07792,0 18.45585,-34.07877,0 18.45675,-34.07996,0 18.45737,-34.0808,0 18.4581,-34.08174,0 18.45875,-34.08257,0 18.45972,-34.08383,0 18.46039,-34.08467,0 18.46107,-34.08549,0 18.46184,-34.08648,0 18.46241,-34.08728,0 18.46309,-34.0882,0 18.46367,-34.08899,0 18.46432,-34.08998,0 18.46505,-34.09113,0 18.46573,-34.09211,0 18.46628,-34.093,0 18.46699,-34.09411,0 18.46751,-34.09506,0 18.46796,-34.09598,0 18.46848,-34.09719,0 18.4688,-34.09818,0 18.46916,-34.09924,0 18.46933,-34.10021,0 18.46953,-34.1012,0 18.4697,-34.10234,0 18.46979,-34.10338,0 18.46991,-34.1045,0 18.46998,-34.10568,0 18.47002,-34.10687,0 18.47004,-34.10779,0 18.46998,-34.10893,0 18.46991,-34.11008,0 18.46981,-34.11118,0 18.46962,-34.11255,0 18.46942,-34.1136,0 18.46928,-34.1146,0 18.46908,-34.11562,0 18.46886,-34.11653,0 18.46869,-34.11749,0 18.46847,-34.11845,0 18.46807,-34.11972,0 18.46774,-34.1207,0 18.46734,-34.1217,0 18.46687,-34.12279,0 18.46634,-34.12395,0 18.46566,-34.12509,0 18.4651,-34.12596,0 18.46453,-34.12693,0 18.46381,-34.12798,0 18.46325,-34.12885,0 18.46258,-34.1299,0 18.46185,-34.131,0 18.46132,-34.13177,0 18.46052,-34.13298,0 18.45995,-34.13383,0 18.4595,-34.13461,0 18.45877,-34.13571,0 18.45823,-34.13662,0 18.4564,-34.13955,0 18.45468,-34.14267,0 18.45434,-34.14337,0 18.45384,-34.1445,0 18.45343,-34.14546,0 18.45308,-34.14639,0 18.4528,-34.14737,0 18.4524,-34.14853,0 18.45194,-34.14975,0 18.45165,-34.15068,0 18.45137,-34.15165,0 18.45109,-34.15292,0 18.45085,-34.15393,0 18.45064,-34.15526,0 18.45039,-34.15645,0 18.45028,-34.15742,0 18.45014,-34.15846,0 18.44991,-34.1597,0 18.44975,-34.16066,0 18.44959,-34.16175,0 18.44948,-34.16269,0 18.44936,-34.16348,0 18.44919,-34.16459,0 18.44907,-34.16565,0 18.44896,-34.16675,0 18.4489,-34.16748,0 18.44879,-34.16874,0 18.44879,-34.16967,0 18.44879,-34.17055,0 18.44885,-34.17162,0 18.44902,-34.17297,0 18.44918,-34.17393,0 18.44942,-34.17502,0 18.44963,-34.1759,0 18.44997,-34.17691,0 18.45022,-34.17796,0 18.45051,-34.17889,0 18.45081,-34.17984,0 18.45115,-34.1808,0 18.45142,-34.18149,0 18.45182,-34.18238,0 18.45215,-34.18309,0 18.45288,-34.18433,0 18.45325,-34.18494,0 18.45388,-34.18592,0 18.45451,-34.18684,0 18.45501,-34.18758,0 18.45546,-34.18849,0 18.4558,-34.18927,0 18.45602,-34.19005,0 18.45629,-34.19104,0 18.45642,-34.19183,0 18.45647,-34.19275,0 18.45636,-34.19344,0 18.45612,-34.19434,0 18.45572,-34.19509,0 18.45514,-34.19583,0 18.45451,-34.19641,0 18.4536,-34.19704,0 18.45271,-34.19733,0 18.45177,-34.19737,0 18.45092,-34.19714,0 18.44988,-34.19639,0 18.44913,-34.19545,0 18.44868,-34.19476,0 18.44816,-34.19411,0 18.44759,-34.19345,0 18.44694,-34.19293,0 18.44633,-34.19262,0 18.44576,-34.19257,0 18.44537,-34.19266,0 18.44515,-34.19289,0 18.44509,-34.19325,0 18.44524,-34.19369,0 18.44553,-34.1942,0 18.44593,-34.19476,0 18.44627,-34.19522,0 18.44683,-34.19577,0 18.44736,-34.1962,0 18.44801,-34.19669,0 18.44879,-34.19705,0 18.44969,-34.19719,0 18.45064,-34.19724,0 18.45143,-34.19719,0 18.45215,-34.19719,0 18.45297,-34.19737,0 18.454,-34.19774,0 18.45469,-34.19811,0 18.45549,-34.19867,0 18.45619,-34.19925,0 18.45692,-34.19983,0 18.45755,-34.20049,0 18.45827,-34.20135,0 18.45888,-34.20209,0 18.45972,-34.20319,0 18.46028,-34.20396,0 18.46084,-34.2047,0 18.4614,-34.20547,0 18.46218,-34.20654,0 18.46275,-34.20735,0 18.4635,-34.20845,0 18.46407,-34.20929,0 18.46471,-34.21033,0 18.46516,-34.21097,0 18.46583,-34.21207,0 18.4663,-34.21287,0 18.46678,-34.21367,0 18.46745,-34.21468,0 18.46928,-34.21762,0 18.47162,-34.22144,0 18.473,-34.22358,0 18.47357,-34.22446,0 18.47413,-34.22534,0 18.4748,-34.22639,0 18.4754,-34.2273,0 18.47603,-34.22837,0 18.47654,-34.22928,0 18.47712,-34.23028,0 18.47769,-34.23121,0 18.47822,-34.23225,0 18.47867,-34.23322,0 18.47923,-34.23427,0 18.47969,-34.23526,0 18.48015,-34.23624,0 18.48055,-34.23712,0 18.48101,-34.2381,0 18.48153,-34.2394,0 18.48186,-34.24031,0 18.48209,-34.24122,0 18.48242,-34.24237,0 18.48261,-34.24327,0 18.48289,-34.24448,0 18.48307,-34.24546,0 18.48332,-34.24663,0 18.48343,-34.24759,0 18.48358,-34.24848,0 18.48377,-34.24969,0 18.48387,-34.25081,0 18.48399,-34.25198,0 18.4841,-34.25281,0 18.48422,-34.254,0 18.48427,-34.25487,0 18.48438,-34.25615,0 18.48444,-34.25695,0 18.4845,-34.25821,0 18.48455,-34.25933,0 18.48461,-34.26054,0 18.48461,-34.26147,0 18.48466,-34.26242,0 18.48473,-34.26319,0 18.48489,-34.2664,0 18.48517,-34.27052,0 18.48551,-34.27464,0 18.48576,-34.27897,0 18.48618,-34.28307,0 18.48652,-34.28604,0 18.48701,-34.29029,0 18.48736,-34.29327,0 18.48782,-34.29657,0 18.48827,-34.29974,0 18.4885,-34.30067,0 18.48885,-34.30206,0 18.48913,-34.30304,0 18.48943,-34.30408,0 18.48971,-34.30499,0 18.4901,-34.30611,0 18.49045,-34.307,0 18.49072,-34.30788,0 18.49108,-34.30891,0 18.49148,-34.31007,0 18.49178,-34.31104,0 18.49206,-34.3119,0 18.49234,-34.31277,0 18.49274,-34.31387,0 18.49314,-34.31491,0 18.49337,-34.31561,0 18.49388,-34.31691,0 18.49434,-34.31803,0 18.4948,-34.3191,0 18.4952,-34.31998,0 18.49571,-34.32101,0 18.49627,-34.32216,0 18.49666,-34.32294,0 18.49722,-34.32408,0 18.49773,-34.32495,0 18.49823,-34.32594,0 18.49873,-34.32683,0 18.49941,-34.32797,0 18.49991,-34.32889,0 18.50042,-34.32971,0 18.50103,-34.33078,0 18.50172,-34.33195,0 18.50224,-34.33297,0 18.50271,-34.33383,0 18.50316,-34.33466,0 18.50372,-34.33575,0 18.50418,-34.3367,0 18.50573,-34.33982,0 18.50618,-34.34084,0 18.50653,-34.34177,0 18.50697,-34.34285,0 18.50733,-34.34387,0 18.50759,-34.34473,0 18.50793,-34.34587,0 18.50821,-34.34674,0 18.50847,-34.34787,0 18.50871,-34.3488,0 18.50887,-34.34996,0 18.50899,-34.35066,0 18.5091,-34.35187,0 18.50916,-34.35278,0 18.5091,-34.35388,0 18.50893,-34.35499,0 18.50871,-34.3559,0 18.50832,-34.35699,0 18.50796,-34.35788,0 18.50756,-34.35867,0 18.50692,-34.35983,0 18.50636,-34.36075,0 18.5058,-34.36153,0 18.50521,-34.3623,0 18.50441,-34.36304,0 18.50344,-34.36384,0 18.50252,-34.36444,0 18.50126,-34.36501,0 18.50019,-34.36533,0 18.49885,-34.3656,0 18.49767,-34.36569,0 18.49651,-34.36575,0 18.49514,-34.36575,0 18.49375,-34.36569,0 18.49262,-34.36569,0 18.49148,-34.36561,0 18.49033,-34.36556,0 18.48893,-34.36551,0 18.4877,-34.36547,0 18.4861,-34.36542,0 18.48483,-34.36542,0 18.48304,-34.36542,0 18.48181,-34.36538,0 18.48018,-34.36533,0 18.47895,-34.36523,0 18.4774,-34.36505,0 18.47614,-34.36487,0 18.4748,-34.36455,0 18.47357,-34.3643,0 18.47239,-34.364,0 18.47127,-34.36377,0 18.47025,-34.36346,0 18.46869,-34.36308,0 18.46756,-34.36281,0 18.46659,-34.36263,0 18.46533,-34.36249,0 18.46398,-34.3624,0 18.46292,-34.36244,0 18.46178,-34.36267,0 18.46081,-34.36309,0 18.46006,-34.36365,0 18.45961,-34.3644,0 18.4595,-34.3651,0 18.45961,-34.36578,0 18.46011,-34.36665,0 18.46092,-34.36728,0 18.4618,-34.36771,0 18.46297,-34.36803,0 18.4639,-34.36817,0 18.46544,-34.36821,0 18.46662,-34.36821,0 18.46779,-34.36821,0 18.46908,-34.36816,0 18.4706,-34.36807,0 18.47219,-34.36798,0 18.47311,-34.36794,0 18.47466,-34.36784,0 18.47609,-34.36775,0 18.47749,-34.36766,0 18.47866,-34.36761,0 18.47986,-34.36752,0 18.48124,-34.36752,0 18.48307,-34.36752,0 18.48461,-34.36752,0 18.48607,-34.36757,0 18.4873,-34.36761,0 18.48885,-34.36761,0 18.49022,-34.36761,0 18.49165,-34.36761,0 18.49337,-34.36761,0 18.4948,-34.36756,0 18.49623,-34.36747,0 18.49739,-34.36734,0 18.49897,-34.36719,0 18.50036,-34.36697,0 18.50176,-34.3667,0 18.50275,-34.36644,0 18.50406,-34.36606,0 18.50513,-34.36565,0 18.50602,-34.36523,0 18.50709,-34.36473,0 18.50787,-34.36427,0 18.50905,-34.36354,0 18.50978,-34.36295,0 18.51045,-34.3623,0 18.51095,-34.3618,0 18.51151,-34.36105,0 18.51196,-34.36025,0 18.51231,-34.3596,0 18.51254,-34.35895,0 18.51264,-34.35818,0 18.51248,-34.35755,0 18.51202,-34.35699,0 18.51156,-34.35681,0 18.51084,-34.35686,0 18.51025,-34.35699,0 18.50955,-34.35732,0 18.50847,-34.35793,0 18.50776,-34.35837,0 18.50681,-34.35892,0 18.50595,-34.35946,0 18.50529,-34.35983,0 18.50424,-34.36049,0 18.50309,-34.36114,0 18.50238,-34.36153,0 18.50126,-34.36221,0 18.50042,-34.36272,0 18.49924,-34.36345,0 18.49834,-34.36395,0 18.49722,-34.36464,0 18.49634,-34.36519,0 18.49543,-34.36569,0 18.49285,-34.3672,0 18.48965,-34.36903,0 18.48881,-34.36945,0 18.48799,-34.3698,0 18.48713,-34.3699,0 18.48639,-34.36994,0 18.48524,-34.36975,0 18.4845,-34.36956,0 18.48315,-34.36908,0 18.48214,-34.36862,0 18.48097,-34.36789,0</coordinates>
      </LineString>
    </Placemark>
  </Document>
</kml>
