<?xml version="1.0" encoding="UTF-8"?>
<kml xmlns="http://www.opengis.net/kml/2.2">
  <Document>
    <name>FR24 3f9c6468</name>
    <Placemark>
      <name>FR24 3f9c6468</name>
      <Style><LineStyle><color>ff0000ff</color><width>4</width></LineStyle></Style>
      <LineString>
        <tessellate>1</tessellate>
        <coordinates>18.42785,-33.89827,0 18.42878,-33.89612,0 18.42968,-33.89401,0 18.43057,-33.89195,0 18.43153,-33.88962,0 18.43181,-33.88898,0 18.43214,-33.88811,0 18.43231,-33.88747,0 18.43248,-33.88677,0 18.43254,-33.88607,0 18.43243,-33.88519,0 18.43231,-33.88454,0 18.43209,-33.88385,0 18.4318,-33.88323,0 18.43134,-33.88244,0 18.43085,-33.88184,0 18.43031,-33.88128,0 18.42957,-33.8806,0 18.42894,-33.88011,0 18.42816,-33.87964,0 18.42749,-33.87927,0 18.42632,-33.87881,0 18.42545,-33.87848,0 18.42452,-33.87822,0 18.42361,-33.87797,0 18.4223,-33.87769,0 18.42138,-33.87751,0 18.42032,-33.87735,0 18.41925,-33.87717,0 18.41835,-33.87709,0 18.41709,-33.87695,0 18.41612,-33.87685,0 18.41515,-33.87676,0 18.41398,-33.87671,0 18.41314,-33.87667,0 18.41228,-33.87667,0 18.41114,-33.87662,0 18.41017,-33.87662,0 18.40925,-33.87667,0 18.40811,-33.87672,0 18.40691,-33.87685,0 18.40599,-33.877,0 18.40479,-33.87726,0 18.40389,-33.87749,0 18.40288,-33.87781,0 18.40182,-33.87817,0 18.40098,-33.87849,0 18.39993,-33.87895,0 18.39902,-33.87932,0 18.39821,-33.8797,0 18.39724,-33.88016,0 18.39627,-33.88069,0 18.39532,-33.88129,0 18.39449,-33.88184,0 18.39375,-33.8823,0 18.39263,-33.88307,0 18.39179,-33.88367,0 18.391,-33.88417,0 18.3901,-33.88486,0 18.38926,-33.88545,0 18.38842,-33.88605,0 18.38741,-33.88678,0 18.38657,-33.88751,0 18.38579,-33.88817,0 18.38489,-33.88893,0 18.3843,-33.88947,0 18.3835,-33.89017,0 18.38254,-33.89095,0 18.38184,-33.89157,0 18.38097,-33.89236,0 18.38024,-33.89305,0 18.3795,-33.89375,0 18.37893,-33.89426,0 18.378,-33.89511,0 18.37732,-33.89576,0 18.37643,-33.89662,0 18.37572,-33.89738,0 18.37509,-33.89804,0 18.37435,-33.89887,0 18.37366,-33.89967,0 18.37286,-33.9006,0 18.37217,-33.90134,0 18.37137,-33.90232,0 18.37074,-33.90311,0 18.37011,-33.9039,0 18.36937,-33.90482,0 18.36864,-33.90573,0 18.36785,-33.90669,0 18.3672,-33.90739,0 18.36634,-33.90828,0 18.36567,-33.90898,0 18.36499,-33.90967,0 18.36422,-33.91056,0 18.36359,-33.91126,0 18.36296,-33.91209,0 18.3625,-33.9127,0 18.36199,-33.91349,0 18.36159,-33.91401,0 18.36119,-33.91461,0 18.36079,-33.91516,0 18.3604,-33.9158,0 18.35993,-33.91652,0 18.35953,-33.91717,0 18.35907,-33.91801,0 18.35867,-33.91866,0 18.35815,-33.91956,0 18.35781,-33.92024,0 18.35737,-33.9212,0 18.35701,-33.92201,0 18.35649,-33.92313,0 18.35614,-33.9239,0 18.35569,-33.92491,0 18.35541,-33.92555,0 18.35501,-33.92647,0 18.35462,-33.92752,0 18.35429,-33.92839,0 18.35386,-33.92941,0 18.35352,-33.9303,0 18.35323,-33.93118,0 18.35283,-33.93228,0 18.35249,-33.93323,0 18.35209,-33.93435,0 18.3518,-33.93528,0 18.3514,-33.93639,0 18.35106,-33.93747,0 18.3507,-33.93837,0 18.34935,-33.94221,0 18.34888,-33.94361,0 18.34767,-33.9473,0 18.34608,-33.95199,0 18.34521,-33.95435,0 18.34481,-33.95535,0 18.34409,-33.95686,0 18.34364,-33.95787,0 18.34311,-33.95902,0 18.3424,-33.96053,0 18.34179,-33.96185,0 18.34127,-33.96293,0 18.34087,-33.96391,0 18.34039,-33.96487,0 18.33954,-33.9668,0 18.33825,-33.96968,0 18.33646,-33.97362,0 18.33254,-33.98291,0 18.33147,-33.98598,0 18.33035,-33.98942,0 18.32983,-33.99105,0 18.32934,-33.99261,0 18.32811,-33.99664,0 18.32668,-34.00059,0 18.3262,-34.00172,0 18.32571,-34.00283,0 18.3252,-34.00389,0 18.32447,-34.00543,0 18.32399,-34.00655,0 18.32354,-34.00762,0 18.3229,-34.00896,0 18.32245,-34.01006,0 18.32183,-34.01134,0 18.32142,-34.01223,0 18.32094,-34.01335,0 18.32022,-34.01479,0 18.31964,-34.01577,0 18.31879,-34.01698,0 18.3181,-34.01791,0 18.31724,-34.01903,0 18.31645,-34.02003,0 18.3157,-34.02103,0 18.31501,-34.02196,0 18.31438,-34.02289,0 18.31359,-34.02406,0 18.31295,-34.02498,0 18.31225,-34.02608,0 18.31163,-34.02708,0 18.31101,-34.02814,0 18.31026,-34.02936,0 18.30963,-34.03057,0 18.30912,-34.03164,0 18.30855,-34.03285,0 18.30816,-34.03372,0 18.30763,-34.03504,0 18.30729,-34.03616,0 18.30692,-34.03734,0 18.30653,-34.03899,0 18.30625,-34.04036,0 18.30619,-34.0416,0 18.30631,-34.04291,0 18.30654,-34.04407,0 18.30698,-34.04544,0 18.30751,-34.04659,0 18.30814,-34.04765,0 18.30889,-34.04877,0 18.30969,-34.04975,0 18.31051,-34.0507,0 18.3118,-34.05199,0 18.31264,-34.05267,0 18.31387,-34.05345,0 18.31524,-34.05394,0 18.3161,-34.05408,0 18.31724,-34.05399,0 18.31802,-34.05363,0 18.31853,-34.05313,0 18.31886,-34.05244,0 18.3189,-34.05175,0 18.31886,-34.05112,0 18.31873,-34.05031,0 18.31858,-34.04947,0 18.31844,-34.04859,0 18.31839,-34.04779,0 18.31839,-34.047,0 18.31847,-34.04604,0 18.31867,-34.04519,0 18.31892,-34.0443,0 18.31919,-34.04351,0 18.31964,-34.04244,0 18.3201,-34.0416,0 18.32071,-34.04077,0 18.32159,-34.0396,0 18.32211,-34.0389,0 18.32262,-34.03812,0 18.32325,-34.03709,0 18.32379,-34.03606,0 18.32419,-34.03514,0 18.32447,-34.0345,0 18.32491,-34.03349,0 18.32531,-34.03239,0 18.32559,-34.03157,0 18.32594,-34.03048,0 18.32623,-34.02931,0 18.32643,-34.02855,0 18.32671,-34.0274,0 18.32699,-34.02644,0 18.32727,-34.02544,0 18.32749,-34.02457,0 18.32777,-34.02345,0 18.32794,-34.02264,0 18.32817,-34.02173,0 18.32839,-34.02068,0 18.32851,-34.01986,0 18.32867,-34.01894,0 18.3289,-34.01779,0 18.32914,-34.01674,0 18.3294,-34.01564,0 18.32962,-34.01491,0 18.32989,-34.01386,0 18.33017,-34.01283,0 18.33035,-34.01216,0 18.33069,-34.01111,0 18.33097,-34.01019,0 18.3312,-34.0093,0 18.33158,-34.00818,0 18.33189,-34.00734,0 18.33223,-34.00622,0 18.33263,-34.00525,0 18.33293,-34.00433,0 18.33326,-34.00343,0 18.33361,-34.00259,0 18.33405,-34.00163,0</coordinates>
      </LineString>
    </Placemark>
  </Document>
</kml>
