<?xml version="1.0" encoding="UTF-8"?>
<kml xmlns="http://www.opengis.net/kml/2.2">
  <Document>
    <name>FR24 3f0e533b</name>
    <Placemark>
      <name>FR24 3f0e533b</name>
      <Style><LineStyle><color>ff0000ff</color><width>4</width></LineStyle></Style>
      <LineString>
        <tessellate>1</tessellate>
        <coordinates>18.4285,-33.89822,0 18.42979,-33.89622,0 18.43136,-33.89374,0 18.43271,-33.89152,0 18.43323,-33.89073,0 18.4338,-33.88989,0 18.44397,-33.89667,0 18.44141,-33.89697,0 18.44055,-33.89713,0 18.43982,-33.89726,0 18.43887,-33.89749,0 18.43831,-33.89763,0 18.4374,-33.89785,0 18.43672,-33.89799,0 18.43601,-33.89818,0 18.43511,-33.89836,0 18.43444,-33.89854,0 18.43366,-33.89873,0 18.43338,-33.89882,0 18.42985,-33.89985,0 18.42906,-33.90005,0 18.42791,-33.90041,0 18.42746,-33.90051,0 18.42743,-33.90015,0 18.42755,-33.89964,0 18.42766,-33.89937,0 18.42783,-33.89896,0 18.428,-33.89864,0 18.42816,-33.89841,0 18.42831,-33.89813,0 18.42854,-33.89771,0 18.429,-33.8969,0 18.42939,-33.89631,0 18.42968,-33.89575,0 18.43013,-33.89507,0 18.43057,-33.89429,0 18.43102,-33.8936,0 18.4314,-33.89301,0 18.43197,-33.89217,0 18.43248,-33.8914,0 18.43294,-33.89077,0 18.43351,-33.89008,0 18.43405,-33.88939,0 18.43467,-33.88861,0 18.43523,-33.88788,0 18.43563,-33.887,0 18.4358,-33.88631,0 18.4359,-33.8855,0 18.43563,-33.88444,0 18.4354,-33.88384,0 18.43489,-33.88303,0 18.43426,-33.8823,0 18.43366,-33.88179,0 18.43287,-33.88129,0 18.43197,-33.88086,0 18.43111,-33.88053,0 18.43025,-33.88021,0 18.42951,-33.88,0 18.42872,-33.87978,0 18.42755,-33.8795,0 18.42665,-33.87927,0 18.42587,-33.87909,0 18.42516,-33.87895,0 18.4239,-33.87872,0 18.42321,-33.87862,0 18.42228,-33.87849,0 18.42133,-33.8784,0 18.42041,-33.8783,0 18.41964,-33.87822,0 18.41863,-33.87817,0 18.41784,-33.87816,0 18.41698,-33.87811,0 18.41612,-33.87811,0 18.41503,-33.87811,0 18.41421,-33.87813,0 18.41309,-33.87816,0 18.41224,-33.87822,0 18.41124,-33.87831,0 18.41017,-33.87844,0 18.40937,-33.87858,0 18.40857,-33.87872,0 18.40754,-33.87895,0 18.40651,-33.87923,0 18.40591,-33.87941,0 18.40485,-33.87979,0 18.40405,-33.88007,0 18.40302,-33.88049,0 18.40232,-33.88078,0 18.40153,-33.88114,0 18.40067,-33.88156,0 18.39997,-33.88193,0 18.39907,-33.88243,0 18.39821,-33.883,0 18.39739,-33.88353,0 18.39672,-33.88407,0 18.39599,-33.88458,0 18.39523,-33.88514,0 18.39432,-33.88589,0 18.39357,-33.88644,0 18.39268,-33.88715,0 18.39207,-33.8877,0 18.39134,-33.88829,0 18.39037,-33.88905,0 18.38968,-33.88966,0 18.38882,-33.89035,0 18.38825,-33.89085,0 18.38751,-33.89147,0 18.38505,-33.89352,0 18.38186,-33.89621,0 18.37898,-33.89883,0 18.3783,-33.89952,0 18.37738,-33.90038,0 18.37688,-33.90092,0 18.37606,-33.90171,0 18.37521,-33.90265,0 18.37447,-33.90344,0 18.37379,-33.90417,0 18.3732,-33.90479,0 18.37246,-33.90558,0 18.37183,-33.90623,0 18.37127,-33.90688,0 18.37043,-33.90775,0 18.36983,-33.90842,0 18.36909,-33.9093,0 18.36845,-33.91009,0 18.36796,-33.91077,0 18.36729,-33.91168,0 18.36679,-33.91246,0 18.36611,-33.91342,0 18.36561,-33.9142,0 18.36502,-33.91521,0 18.36449,-33.91612,0 18.36398,-33.91695,0 18.36348,-33.91791,0 18.36308,-33.9187,0 18.36258,-33.91969,0 18.36205,-33.92066,0 18.36163,-33.92152,0 18.36113,-33.92238,0 18.36061,-33.92341,0 18.36004,-33.92448,0 18.35953,-33.92546,0 18.35905,-33.92638,0 18.35861,-33.92722,0 18.3581,-33.92834,0 18.35758,-33.92941,0 18.35712,-33.9303,0 18.35672,-33.93118,0 18.35627,-33.93211,0 18.35564,-33.93318,0 18.35501,-33.93407,0 18.35417,-33.93544,0 18.35345,-33.93658,0 18.353,-33.93755,0 18.3526,-33.9384,0 18.35215,-33.93951,0 18.35176,-33.9408,0 18.3514,-33.94328,0 18.35135,-33.94431,0 18.35129,-33.94538,0 18.3512,-33.94643,0 18.35112,-33.94775,0 18.35106,-33.94878,0 18.35092,-33.94972,0 18.35064,-33.951,0 18.35036,-33.95197,0 18.35009,-33.95287,0 18.34952,-33.95425,0 18.34907,-33.95522,0 18.34661,-33.95906,0 18.34498,-33.96135,0 18.34336,-33.96364,0 18.34162,-33.96606,0 18.34055,-33.96844,0 18.34117,-33.97018,0 18.34333,-33.97159,0 18.34579,-33.97233,0 18.34843,-33.9721,0 18.35135,-33.9708,0 18.3534,-33.96884,0 18.35484,-33.96651,0 18.35609,-33.96377,0 18.35664,-33.96249,0 18.35684,-33.962,0 18.3581,-33.95869,0 18.35849,-33.9575,0 18.35884,-33.95627,0 18.35907,-33.95525,0 18.3593,-33.95432,0 18.35953,-33.95329,0 18.35981,-33.95181,0 18.36,-33.95078,0 18.36027,-33.94952,0 18.36051,-33.9483,0 18.36079,-33.94701,0 18.36101,-33.94583,0 18.3613,-33.9445,0 18.36146,-33.9435,0 18.36176,-33.9424,0 18.36199,-33.94133,0 18.36233,-33.93998,0 18.36262,-33.93896,0 18.3629,-33.93793,0 18.36325,-33.93668,0 18.36359,-33.93562,0 18.36398,-33.93439,0 18.36439,-33.93309,0 18.36466,-33.93187,0 18.36494,-33.93077,0 18.36519,-33.92969,0 18.36544,-33.9283,0 18.36571,-33.92732,0 18.36605,-33.92601,0 18.36639,-33.92508,0 18.36695,-33.92381,0 18.36748,-33.92285,0 18.36802,-33.92194,0 18.3688,-33.92088,0 18.36966,-33.91987,0 18.37034,-33.91908,0 18.37127,-33.91805,0 18.37212,-33.91717,0 18.37297,-33.91629,0 18.37413,-33.91521,0 18.37492,-33.91442,0 18.37578,-33.91359,0 18.37671,-33.91264,0 18.37784,-33.91144,0 18.37861,-33.91058,0 18.3795,-33.90963,0 18.38035,-33.90866,0 18.38108,-33.90784,0 18.38184,-33.90702,0 18.38282,-33.90596,0 18.38362,-33.90511,0 18.3845,-33.90413,0 18.38539,-33.90325,0 18.38619,-33.90241,0 18.38705,-33.90157,0 18.38814,-33.90056,0 18.38905,-33.89971,0 18.38997,-33.89892,0 18.39111,-33.89804,0 18.39212,-33.89735,0 18.39319,-33.89658,0 18.39449,-33.8958,0 18.39548,-33.8952,0 18.39655,-33.89459,0 18.39798,-33.89389,0 18.39941,-33.8932,0 18.40075,-33.89264,0 18.40176,-33.89227,0 18.4033,-33.8917,0 18.40445,-33.89131,0 18.40593,-33.89087,0 18.40719,-33.8905,0 18.40862,-33.89008,0 18.40972,-33.88976,0 18.41118,-33.88939,0 18.41228,-33.8891,0 18.41372,-33.88877,0 18.41492,-33.88849,0 18.41646,-33.88817,0 18.41761,-33.88789,0 18.41846,-33.8877,0 18.42026,-33.88737,0 18.42127,-33.88724,0 18.42264,-33.88705,0 18.4239,-33.88692,0 18.42533,-33.88682,0 18.42648,-33.88687,0 18.42768,-33.88696,0 18.42884,-33.8871,0 18.42985,-33.88733,0 18.43102,-33.8877,0 18.43214,-33.88812,0 18.4331,-33.88857,0 18.43399,-33.88902,0 18.43477,-33.88947,0 18.43569,-33.89008,0 18.43646,-33.89058,0 18.43718,-33.8911,0 18.43803,-33.89182,0 18.43865,-33.89236,0 18.43918,-33.89296,0 18.43966,-33.89365,0 18.44004,-33.89431,0 18.44015,-33.89492,0 18.44015,-33.89571,0 18.43999,-33.89621,0 18.43958,-33.89687,0 18.43906,-33.89729,0 18.43832,-33.89766,0 18.43763,-33.89794,0 18.43672,-33.89822,0 18.43609,-33.89836,0 18.43523,-33.8985,0 18.43443,-33.89869,0 18.43377,-33.89882,0 18.4331,-33.899,0 18.43192,-33.89932,0 18.43122,-33.89952,0 18.43077,-33.89962,0 18.43052,-33.89969,0 18.42917,-33.9001,0 18.42819,-33.90036,0 18.42791,-33.90041,0 18.42768,-33.90046,0 18.42746,-33.90051,0 18.42739,-33.89985,0 18.42755,-33.89914,0 18.42768,-33.89887,0 18.42794,-33.89836,0 18.42828,-33.89781,0 18.42871,-33.89715,0 18.42906,-33.89667,0 18.42945,-33.89607,0 18.42996,-33.89529,0 18.43037,-33.89473,0 18.43094,-33.89394,0 18.4314,-33.89333,0 18.43185,-33.89273,0 18.43243,-33.89217,0 18.4331,-33.89145,0 18.43371,-33.89081,0 18.43426,-33.89022,0 18.43483,-33.88953,0 18.43534,-33.88893,0 18.43586,-33.88812,0 18.43626,-33.88747,0 18.43655,-33.88682,0 18.4368,-33.88586,0 18.43691,-33.88495,0 18.43685,-33.88417,0 18.43668,-33.8833,0 18.43649,-33.88263,0 18.43612,-33.88174,0 18.43567,-33.8811,0 18.43523,-33.8806,0 18.43444,-33.88005,0 18.43363,-33.8797,0 18.43282,-33.87959,0 18.43209,-33.87964,0 18.43085,-33.8801,0 18.43025,-33.88076,0 18.42997,-33.88151,0 18.43001,-33.88225,0 18.43029,-33.88289,0 18.43077,-33.88346,0 18.43147,-33.88403,0 18.43226,-33.88454,0 18.43294,-33.885,0 18.43355,-33.88568,0 18.43386,-33.88635,0 18.43394,-33.88696,0 18.43382,-33.88751,0 18.43349,-33.88811,0 18.43317,-33.88845,0 18.43248,-33.88875,0 18.43175,-33.88879,0 18.43088,-33.88868,0 18.43024,-33.88847,0 18.4294,-33.88815,0 18.42861,-33.88783,0 18.47766,-34.00437,0 18.4775,-34.00106,0 18.47783,-33.99736,0 18.47814,-33.99205,0 18.47836,-33.98899,0 18.47831,-33.98787,0 18.47852,-33.98654,0 18.47912,-33.98392,0 18.4796,-33.9807,0 18.47946,-33.9763,0 18.48022,-33.97184,0 18.48043,-33.96735,0 18.48085,-33.96373,0 18.48102,-33.96263,0 18.48124,-33.96135,0 18.48141,-33.96009,0 18.48158,-33.95906,0 18.48175,-33.95787,0 18.48186,-33.95683,0 18.48203,-33.95567,0 18.48214,-33.95439,0 18.48225,-33.95352,0 18.48237,-33.95219,0 18.48238,-33.95124,0 18.48244,-33.95018,0 18.48242,-33.94894,0 18.48238,-33.94766,0 18.48225,-33.94661,0 18.48209,-33.94538,0 18.48192,-33.9444,0 18.48175,-33.94342,0 18.48146,-33.94221,0 18.48125,-33.9413,0 18.48101,-33.94017,0 18.48072,-33.93905,0 18.48035,-33.93805,0 18.47986,-33.93677,0 18.47946,-33.93588,0 18.479,-33.93495,0 18.47849,-33.93411,0 18.47794,-33.9332,0 18.4774,-33.93244,0 18.47659,-33.93132,0 18.47581,-33.9304,0 18.47514,-33.92963,0 18.47441,-33.92889,0 18.47357,-33.92806,0 18.47289,-33.92738,0 18.47219,-33.92662,0 18.47149,-33.92592,0 18.47059,-33.92508,0 18.46985,-33.92434,0 18.46903,-33.92354,0 18.46819,-33.92271,0 18.4674,-33.92194,0 18.46664,-33.92122,0 18.46573,-33.92038,0 18.46505,-33.91969,0 18.46401,-33.9188,0 18.46325,-33.91809,0 18.46241,-33.91731,0 18.46172,-33.91666,0 18.46079,-33.91576,0 18.46006,-33.91507,0 18.45938,-33.91438,0 18.45858,-33.91354,0 18.45778,-33.91265,0 18.4572,-33.91205,0 18.45658,-33.91136,0 18.45577,-33.91042,0 18.45497,-33.90944,0 18.45434,-33.9087,0 18.45383,-33.90795,0 18.45328,-33.9072,0 18.4528,-33.90651,0 18.45211,-33.90558,0 18.45148,-33.90477,0 18.45085,-33.904,0 18.45034,-33.90334,0 18.44965,-33.90255,0 18.44902,-33.90189,0 18.44834,-33.90125,0 18.44773,-33.9007,0 18.4469,-33.89999,0 18.44638,-33.89955,0 18.44559,-33.89901,0 18.44507,-33.89869,0 18.4441,-33.89817,0 18.4433,-33.8979,0 18.44244,-33.89771,0 18.44173,-33.89758,0 18.44101,-33.89753,0 18.44021,-33.89757,0 18.43969,-33.89757,0 18.43884,-33.89771,0 18.43803,-33.89785,0 18.43736,-33.89799,0 18.43666,-33.89813,0 18.43592,-33.89832,0 18.43546,-33.89846,0 18.43472,-33.89864,0 18.43403,-33.89883,0 18.4331,-33.89914,0 18.43259,-33.89928,0 18.43209,-33.89946,0 18.43091,-33.89983,0 18.42916,-33.90041,0 18.42854,-33.90055,0 18.42831,-33.9006,0 18.42777,-33.9007,0 18.42742,-33.90062,0 18.42739,-33.90032,0 18.42738,-33.89978,0 18.42751,-33.89939,0 18.4276,-33.89905,0 18.42772,-33.89877,0 18.42779,-33.89855,0 18.42802,-33.89822,0 18.42816,-33.89795,0 18.42861,-33.89731,0 18.42899,-33.89678,0 18.42945,-33.89613,0 18.4299,-33.89557,0 18.43029,-33.89497,0 18.43082,-33.89431,0 18.4314,-33.89361,0 18.43186,-33.89301,0 18.43242,-33.89227,0 18.43293,-33.89163,0 18.43343,-33.89099,0 18.43405,-33.89021,0 18.43454,-33.88956,0 18.43511,-33.88884,0 18.43563,-33.88803,0 18.43609,-33.88737,0 18.43649,-33.88649,0 18.43672,-33.88575,0 18.43683,-33.885,0 18.43685,-33.88431,0 18.43663,-33.88335,0 18.43635,-33.88266,0 18.43597,-33.88202,0 18.43546,-33.88137,0 18.43467,-33.88069,0 18.43403,-33.88025,0 18.43338,-33.87991,0 18.4326,-33.87955,0 18.4314,-33.87923,0 18.4306,-33.87909,0 18.42979,-33.879,0 18.42895,-33.87891,0 18.42794,-33.87891,0 18.42722,-33.8789,0 18.42609,-33.87891,0 18.42505,-33.87895,0 18.42424,-33.879,0 18.42333,-33.87904,0 18.4223,-33.87914,0 18.4215,-33.87918,0 18.42052,-33.87932,0 18.41964,-33.87941,0 18.41858,-33.87955,0 18.41772,-33.8797,0 18.41692,-33.87979,0 18.41611,-33.87991,0 18.41505,-33.8801,0 18.41417,-33.88025,0 18.41331,-33.88044,0 18.41213,-33.88069,0 18.4112,-33.88086,0 18.41028,-33.881,0 18.40944,-33.8811,0 18.40839,-33.88128,0 18.40754,-33.88142,0 18.40662,-33.8816,0 18.40546,-33.88184,0 18.40479,-33.88197,0 18.40367,-33.8822,0 18.40267,-33.88249,0 18.40158,-33.88281,0 18.40078,-33.88305,0 18.39963,-33.88339,0 18.39872,-33.88374,0 18.39784,-33.88408,0 18.39666,-33.88454,0 18.39565,-33.88499,0 18.39476,-33.88541,0 18.39375,-33.88586,0 18.39274,-33.88641,0 18.3918,-33.88696,0 18.39077,-33.88756,0 18.3898,-33.88812,0 18.38894,-33.88868,0 18.38797,-33.88929,0 18.38696,-33.88998,0 18.38619,-33.8905,0 18.38539,-33.89105,0 18.38456,-33.89159,0 18.38362,-33.89227,0 18.38282,-33.89282,0 18.38173,-33.89357,0 18.38099,-33.89413,0 18.38013,-33.8947,0 18.3794,-33.89525,0 18.37835,-33.89603,0 18.37766,-33.89658,0 18.37687,-33.89724,0 18.37595,-33.89804,0 18.37509,-33.89874,0 18.3744,-33.89934,0 18.37362,-33.90001,0 18.37278,-33.90074,0 18.37183,-33.90157,0 18.37109,-33.90218,0 18.37023,-33.90297,0 18.3696,-33.90358,0 18.36864,-33.90454,0 18.36791,-33.90527,0 18.36731,-33.90595,0 18.36651,-33.90683,0 18.36582,-33.90767,0 18.36514,-33.90842,0 18.36449,-33.90916,0 18.36365,-33.91013,0 18.36303,-33.9109,0 18.36222,-33.91186,0 18.36157,-33.91264,0 18.36085,-33.91365,0 18.36027,-33.91438,0 18.35976,-33.91521,0 18.35901,-33.91633,0 18.35844,-33.91717,0 18.35776,-33.91809,0 18.35698,-33.91901,0 18.35619,-33.91992,0 18.35541,-33.92084,0 18.35485,-33.92171,0 18.35421,-33.92276,0 18.35378,-33.92354,0 18.35323,-33.92466,0 18.35283,-33.92555,0 18.35238,-33.92656,0 18.35205,-33.92743,0 18.35163,-33.92862,0 18.35123,-33.92969,0 18.35092,-33.93059,0 18.35053,-33.93182,0 18.35019,-33.93269,0 18.34986,-33.93384,0 18.34969,-33.93453,0 18.34941,-33.93631,0 18.34934,-33.93732,0 18.3494,-33.93826,0 18.34975,-33.93993,0 18.35008,-33.94116,0 18.35042,-33.94244,0 18.35066,-33.94347,0 18.35092,-33.9446,0 18.35112,-33.94598,0 18.35129,-33.94701,0 18.35146,-33.94841,0 18.35152,-33.94943,0 18.35157,-33.95069,0 18.35152,-33.95255,0 18.35143,-33.95361,0 18.35117,-33.95488,0 18.35089,-33.95595,0 18.35059,-33.95668,0 18.34837,-33.96046,0 18.34655,-33.96281,0 18.34487,-33.96478,0 18.3427,-33.96735,0 18.34059,-33.97224,0 18.34208,-33.97392,0 18.34431,-33.97508,0 18.34593,-33.97568,0 18.34689,-33.97577,0 18.35205,-33.97408,0 18.3544,-33.97179,0 18.35586,-33.96913,0 18.34767,-33.97572,0 18.35849,-33.96291,0 18.3593,-33.96116,0 18.3601,-33.95893,0 18.36034,-33.95815,0 18.36067,-33.95665,0 18.36079,-33.95558,0 18.36084,-33.9545,0 18.36084,-33.95343,0 18.36079,-33.95236,0 18.36079,-33.95105,0 18.36079,-33.94977,0 18.36085,-33.94867,0 18.36085,-33.94798,0 18.36096,-33.94636,0 18.36102,-33.94538,0 18.36113,-33.94423,0 18.36124,-33.943,0 18.36142,-33.94203,0 18.36163,-33.94066,0 18.36182,-33.93966,0 18.36205,-33.93863,0 18.36236,-33.93759,0 18.36279,-33.93635,0 18.36308,-33.93556,0 18.36376,-33.93393,0 18.36416,-33.9329,0 18.36445,-33.93193,0 18.36482,-33.93063,0 18.36514,-33.92969,0 18.36554,-33.92839,0 18.36589,-33.92743,0 18.36628,-33.92639,0 18.36679,-33.92532,0 18.36737,-33.9242,0 18.36794,-33.92327,0 18.36858,-33.9223,0 18.36931,-33.9213,0 18.37011,-33.92029,0 18.37105,-33.91914,0 18.37166,-33.91847,0 18.37262,-33.91736,0 18.37343,-33.91647,0 18.37435,-33.91544,0 18.37515,-33.91452,0 18.37601,-33.91354,0 18.37676,-33.91269,0 18.37778,-33.91158,0 18.3787,-33.91061,0 18.3795,-33.90977,0 18.3803,-33.90893,0 18.38385,-33.90511,0 18.38568,-33.90317,0 18.38659,-33.90227,0 18.38769,-33.90125,0 18.38859,-33.90042,0 18.38951,-33.89962,0 18.3905,-33.89886,0 18.39167,-33.89799,0 18.39277,-33.89729,0 18.39409,-33.8965,0 18.39487,-33.89607,0 18.39672,-33.8951,0 18.39784,-33.89452,0 18.39907,-33.89397,0 18.40027,-33.89343,0 18.40141,-33.89296,0 18.40296,-33.89236,0 18.4041,-33.89194,0 18.40525,-33.89152,0 18.40673,-33.89105,0 18.40794,-33.89063,0 18.40916,-33.8903,0 18.41051,-33.88989,0 18.41171,-33.88961,0 18.41291,-33.88929,0 18.41406,-33.88905,0 18.41515,-33.88882,0 18.41658,-33.88854,0 18.41766,-33.88835,0 18.41897,-33.88815,0 18.41995,-33.88798,0 18.42121,-33.88784,0 18.42224,-33.8877,0 18.42344,-33.88761,0 18.4243,-33.88756,0 18.42567,-33.88752,0 18.42671,-33.8876,0 18.42768,-33.88775,0 18.42882,-33.88803,0 18.42968,-33.88826,0 18.43077,-33.88863,0 18.4317,-33.88898,0 18.43248,-33.88933,0 18.43349,-33.8898,0 18.43437,-33.89035,0 18.43511,-33.89081,0 18.4358,-33.89138,0 18.43635,-33.89186,0 18.43691,-33.89241,0 18.43752,-33.89315,0 18.43797,-33.89374,0 18.43838,-33.89436,0 18.43872,-33.89496,0 18.43904,-33.89575,0 18.43915,-33.89639,0 18.43912,-33.89697,0 18.43889,-33.89766,0 18.43855,-33.89817,0 18.43814,-33.8985,0 18.43752,-33.89882,0 18.43678,-33.89901,0 18.43607,-33.89914,0 18.43534,-33.89919,0 18.43472,-33.89923,0 18.43414,-33.89929,0 18.43332,-33.89937,0 18.43276,-33.89946,0 18.43208,-33.89962,0 18.4317,-33.89969,0 18.43097,-33.89987,0 18.43014,-33.90009,0 18.42876,-33.90041,0 18.42828,-33.90056,0 18.428,-33.9006,0 18.42779,-33.90069,0 18.42755,-33.90075,0</coordinates>
      </LineString>
    </Placemark>
  </Document>
</kml>
