<?xml version="1.0" encoding="UTF-8"?>
<kml xmlns="http://www.opengis.net/kml/2.2">
  <Document>
    <name>FR24 3e83fd3c</name>
    <Placemark>
      <name>FR24 3e83fd3c</name>
      <Style><LineStyle><color>ff0000ff</color><width>4</width></LineStyle></Style>
      <LineString>
        <tessellate>1</tessellate>
        <coordinates>18.42725,-33.87813,0 18.39979,-33.88073,0 18.37713,-33.88946,0 18.36781,-33.90327,0 18.3662,-33.90731,0 18.37064,-33.90882,0 18.36275,-33.90931,0 18.35807,-33.91313,0 18.3565,-33.91428,0 18.36613,-33.91943,0 18.36846,-33.91665,0 18.36157,-33.91405,0 18.37303,-33.91194,0 18.37071,-33.91018,0 18.36411,-33.90694,0 18.37472,-33.90681,0 18.37421,-33.90459,0 18.37855,-33.90443,0 18.3848,-33.90167,0 18.38578,-33.89873,0 18.39921,-33.89206,0 18.3972,-33.88789,0 18.40904,-33.88985,0 18.41118,-33.88703,0 18.41225,-33.88671,0 18.4164,-33.88247,0 18.41829,-33.87055,0 18.40934,-33.8708,0 18.39682,-33.87815,0 18.39369,-33.88516,0 18.39071,-33.88705,0 18.38589,-33.89059,0 18.38376,-33.89103,0 18.37854,-33.89965,0 18.35522,-33.90189,0 18.36389,-33.90549,0 18.3549,-33.90582,0 18.35459,-33.91044,0 18.34973,-33.91402,0 18.35793,-33.91891,0 18.35596,-33.9197,0 18.36629,-33.91604,0 18.36899,-33.91128,0 18.36313,-33.90906,0 18.37873,-33.91001,0 18.37271,-33.9076,0 18.38441,-33.90762,0 18.38164,-33.90516,0 18.3894,-33.90376,0 18.40162,-33.89071,0 18.3968,-33.88712,0 18.41429,-33.88834,0 18.40979,-33.88627,0 18.41552,-33.88508,0 18.41629,-33.87164,0 18.4107,-33.87175,0 18.41082,-33.87577,0 18.39227,-33.87285,0 18.38073,-33.87415,0 18.3818,-33.87533,0 18.38317,-33.8762,0 18.38247,-33.87718,0 18.38533,-33.87822,0 18.38335,-33.88277,0 18.38155,-33.88282,0 18.38862,-33.8861,0 18.38779,-33.88737,0 18.3878,-33.88829,0 18.38594,-33.89012,0 18.38286,-33.89081,0 18.38111,-33.89142,0 18.37322,-33.8965,0 18.36904,-33.89997,0 18.36336,-33.90437,0 18.35539,-33.90521,0 18.35284,-33.90691,0 18.35119,-33.91004,0 18.35304,-33.91189,0 18.35267,-33.91229,0 18.36844,-33.91656,0 18.34619,-33.91544,0 18.34567,-33.91628,0 18.33206,-33.99767,0 18.33479,-34.0006,0 18.33316,-34.00465,0 18.32981,-34.00452,0 18.32731,-34.00546,0 18.32996,-34.00808,0 18.32977,-34.00894,0 18.33118,-34.01056,0 18.33224,-34.01262,0 18.33318,-34.01415,0 18.33396,-34.0159,0 18.33486,-34.01777,0 18.33521,-34.01891,0 18.33544,-34.02018,0 18.33556,-34.02134,0 18.3357,-34.02232,0 18.3359,-34.02372,0 18.33612,-34.02489,0 18.33624,-34.02603,0 18.33634,-34.02723,0 18.33651,-34.02861,0 18.3366,-34.02956,0 18.3366,-34.03088,0 18.33659,-34.03179,0 18.33685,-34.03312,0 18.33718,-34.0344,0 18.33729,-34.03579,0 18.3375,-34.03678,0 18.33191,-34.03887,0 18.33299,-34.04091,0 18.33614,-34.04274,0 18.33876,-34.04267,0 18.33955,-34.04396,0 18.33974,-34.04509,0 18.3402,-34.0471,0 18.34084,-34.04817,0 18.3416,-34.04969,0 18.34216,-34.05053,0 18.343,-34.05155,0 18.34371,-34.0529,0 18.34423,-34.05394,0 18.3445,-34.05448,0 18.34327,-34.05883,0 18.34841,-34.05847,0 18.34967,-34.05992,0 18.35352,-34.06525,0 18.35987,-34.0766,0 18.3672,-34.07695,0 18.36828,-34.08023,0 18.36991,-34.08042,0 18.3722,-34.0816,0 18.37397,-34.08303,0 18.37434,-34.08371,0 18.37567,-34.08481,0 18.37611,-34.08539,0 18.37723,-34.08656,0 18.37768,-34.08726,0 18.37851,-34.08809,0 18.37927,-34.08894,0 18.38025,-34.0899,0 18.38144,-34.0911,0 18.38229,-34.09207,0 18.38309,-34.09283,0 18.38425,-34.09388,0 18.38514,-34.09467,0 18.3861,-34.09561,0 18.38698,-34.09651,0 18.38776,-34.09734,0 18.38888,-34.09838,0 18.3897,-34.09901,0 18.39097,-34.10023,0 18.39175,-34.10098,0 18.39253,-34.1017,0 18.39337,-34.10238,0 18.39434,-34.10317,0 18.39516,-34.10395,0 18.39621,-34.10481,0 18.39709,-34.10553,0 18.3981,-34.10626,0 18.39939,-34.10722,0 18.40033,-34.10786,0 18.40144,-34.10866,0 18.4024,-34.10938,0 18.40338,-34.1101,0 18.40429,-34.11082,0 18.40528,-34.11159,0 18.40647,-34.11234,0 18.40754,-34.11308,0 18.40857,-34.1138,0 18.40936,-34.11442,0 18.41044,-34.11526,0 18.41162,-34.11599,0 18.41272,-34.11672,0 18.41385,-34.11749,0 18.41502,-34.1183,0 18.41619,-34.11906,0 18.41725,-34.11977,0 18.41831,-34.12054,0 18.41952,-34.12135,0 18.4207,-34.12223,0 18.42224,-34.1233,0 18.42316,-34.12396,0 18.42428,-34.12476,0 18.42556,-34.12574,0 18.42677,-34.1267,0 18.42789,-34.12753,0 18.42892,-34.12836,0 18.42996,-34.12911,0 18.43112,-34.13002,0 18.43223,-34.13071,0 18.43341,-34.1315,0 18.4344,-34.13212,0 18.43571,-34.13285,0 18.43711,-34.13357,0 18.43859,-34.13427,0 18.44001,-34.13478,0 18.44178,-34.13536,0 18.44314,-34.1357,0 18.44479,-34.13605,0 18.44633,-34.13612,0 18.44742,-34.1362,0 18.45022,-34.13579,0 18.45205,-34.13571,0 18.45341,-34.1351,0 18.4548,-34.13453,0 18.45621,-34.13407,0 18.45808,-34.13341,0 18.45974,-34.13271,0 18.46114,-34.13188,0 18.46244,-34.131,0 18.46416,-34.12957,0 18.46499,-34.12881,0 18.46605,-34.1277,0 18.46702,-34.12673,0 18.46831,-34.12527,0 18.46923,-34.12404,0 18.47035,-34.12248,0 18.47171,-34.12037,0 18.47194,-34.11972,0 18.47275,-34.11821,0 18.4733,-34.1171,0 18.4739,-34.11579,0 18.47457,-34.11403,0 18.47486,-34.11306,0 18.47511,-34.11213,0 18.47555,-34.11057,0 18.47579,-34.10941,0 18.47596,-34.10828,0 18.47618,-34.10707,0 18.47632,-34.10587,0 18.47642,-34.10454,0 18.47661,-34.10281,0 18.47665,-34.10159,0 18.47645,-34.10011,0 18.47643,-34.09874,0 18.47604,-34.09767,0 18.4758,-34.09631,0 18.47563,-34.09493,0 18.47523,-34.09369,0 18.47506,-34.09187,0 18.47496,-34.09027,0 18.47536,-34.0892,0 18.47556,-34.08799,0 18.47594,-34.0865,0 18.47604,-34.08518,0 18.47613,-34.0837,0 18.47634,-34.08225,0 18.4767,-34.08085,0 18.47668,-34.079,0 18.47667,-34.07732,0 18.47668,-34.07613,0 18.47668,-34.07494,0 18.47666,-34.07365,0 18.47654,-34.0725,0 18.47639,-34.07121,0 18.47628,-34.06974,0 18.47623,-34.06828,0 18.47614,-34.06716,0 18.47641,-34.0653,0 18.47692,-34.06342,0 18.47705,-34.06216,0 18.47726,-34.06068,0 18.47741,-34.05912,0 18.47739,-34.05777,0 18.4775,-34.05614,0 18.4774,-34.05497,0 18.47766,-34.05333,0 18.47775,-34.0522,0 18.47795,-34.05064,0 18.47778,-34.04898,0 18.47766,-34.04787,0 18.47735,-34.04649,0 18.47731,-34.04472,0 18.47743,-34.04372,0 18.47762,-34.0421,0 18.4777,-34.04075,0 18.47806,-34.03926,0 18.47826,-34.03804,0 18.47847,-34.03657,0 18.47858,-34.03534,0 18.47852,-34.03424,0 18.47855,-34.03306,0 18.4789,-34.0315,0 18.47887,-34.03028,0 18.47901,-34.02857,0 18.47913,-34.02722,0 18.47936,-34.02599,0 18.47944,-34.02449,0 18.47949,-34.02304,0 18.47947,-34.02186,0 18.47954,-34.02037,0 18.47973,-34.01932,0 18.4798,-34.01759,0 18.47986,-34.01657,0 18.47991,-34.01504,0 18.47964,-34.01382,0 18.48028,-34.00972,0 18.48053,-34.00823,0 18.48049,-34.0066,0 18.48055,-34.00497,0 18.48056,-34.0039,0 18.48081,-34.00248,0 18.48095,-34.00117,0 18.48091,-33.99963,0 18.48098,-33.99828,0 18.48091,-33.9969,0 18.48095,-33.99588,0 18.48031,-33.99429,0 18.48061,-33.99292,0 18.48083,-33.99129,0 18.481,-33.99018,0 18.48136,-33.9887,0 18.48198,-33.98651,0 18.48218,-33.98572,0 18.48238,-33.98428,0 18.48221,-33.9831,0 18.48235,-33.98177,0 18.48241,-33.98051,0 18.48245,-33.97919,0 18.4823,-33.9779,0 18.48235,-33.97639,0 18.48225,-33.97537,0 18.48233,-33.97369,0 18.48277,-33.97224,0 18.48326,-33.9709,0 18.48372,-33.96896,0 18.48389,-33.96766,0 18.48377,-33.9666,0 18.48362,-33.96502,0 18.48355,-33.96297,0 18.48356,-33.96223,0 18.48342,-33.9609,0 18.48334,-33.95974,0 18.48326,-33.95829,0 18.48278,-33.95708,0 18.48249,-33.95601,0 18.48256,-33.95445,0 18.48248,-33.95334,0 18.48235,-33.95213,0 18.48216,-33.95062,0 18.48194,-33.94921,0 18.4829,-33.94542,0 18.4858,-33.94251,0 18.4769,-33.93151,0 18.47046,-33.93125,0 18.47096,-33.92733,0 18.4697,-33.92607,0 18.46278,-33.91811,0 18.46226,-33.91739,0 18.46033,-33.91648,0 18.45778,-33.91504,0 18.45768,-33.91401,0 18.45614,-33.91113,0 18.45108,-33.90831,0 18.43871,-33.9019,0 18.43631,-33.90176,0 18.43671,-33.90021,0 18.43809,-33.90031,0 18.43658,-33.90024,0 18.42282,-33.87482,0 18.40516,-33.87705,0 18.38929,-33.87796,0 18.39261,-33.8848,0 18.38626,-33.89051,0 18.36853,-33.90088,0 18.35406,-33.90152,0 18.35934,-33.90394,0 18.37212,-33.90723,0 18.35981,-33.90697,0 18.3487,-33.90687,0 18.36557,-33.91062,0 18.35535,-33.91081,0 18.34615,-33.91094,0 18.35194,-33.91312,0 18.3544,-33.91508,0 18.35678,-33.91674,0 18.34583,-33.91611,0 18.32361,-33.98867,0 18.33486,-33.99475,0 18.33106,-33.99643,0 18.33134,-33.99714,0 18.33298,-33.99993,0 18.33321,-34.00095,0 18.33392,-34.00304,0 18.33415,-34.00407,0 18.33415,-34.00553,0 18.33437,-34.00698,0 18.3345,-34.008,0 18.33458,-34.009,0 18.33462,-34.00996,0 18.3349,-34.01134,0 18.33503,-34.0123,0 18.33549,-34.01377,0 18.33575,-34.01486,0 18.33608,-34.016,0 18.33637,-34.01712,0 18.33667,-34.0181,0 18.33696,-34.01919,0 18.3374,-34.02034,0 18.33802,-34.02161,0 18.33837,-34.02282,0 18.33887,-34.02389,0 18.33936,-34.0253,0 18.33972,-34.02629,0 18.34022,-34.0275,0 18.3406,-34.02878,0 18.34097,-34.02969,0 18.34127,-34.03079,0 18.34184,-34.03202,0 18.34237,-34.03334,0 18.34289,-34.03445,0 18.34351,-34.03564,0 18.34413,-34.03718,0 18.34456,-34.03814,0 18.34494,-34.03916,0 18.34561,-34.04079,0 18.34581,-34.04129,0 18.34636,-34.04269,0 18.34685,-34.04401,0 18.34736,-34.0449,0 18.34786,-34.04603,0 18.34841,-34.04724,0 18.34873,-34.04799,0 18.34927,-34.04892,0 18.34988,-34.05012,0 18.35048,-34.05143,0 18.35097,-34.05247,0 18.35179,-34.05345,0 18.35285,-34.05489,0 18.35361,-34.05597,0 18.35427,-34.05703,0 18.35482,-34.05808,0 18.35559,-34.05934,0 18.35638,-34.06052,0 18.35726,-34.06188,0 18.35797,-34.06311,0 18.35859,-34.06528,0 18.35868,-34.06587,0 18.35951,-34.06805,0 18.35935,-34.06911,0 18.36036,-34.07008,0 18.36173,-34.07149,0 18.36477,-34.07189,0 18.36569,-34.07285,0 18.36624,-34.07367,0 18.36701,-34.07457,0 18.36793,-34.07561,0 18.36876,-34.07682,0 18.36933,-34.07793,0 18.37001,-34.07936,0 18.37031,-34.08014,0 18.37068,-34.08136,0 18.37096,-34.0827,0 18.3712,-34.08342,0 18.37144,-34.08468,0 18.37151,-34.0858,0 18.37163,-34.08687,0 18.37157,-34.08815,0 18.37146,-34.08897,0 18.37116,-34.09041,0 18.37091,-34.0913,0 18.37078,-34.09237,0 18.37057,-34.09346,0 18.37034,-34.09438,0 18.37003,-34.09541,0 18.36981,-34.0965,0 18.36951,-34.09737,0 18.36898,-34.09866,0 18.36849,-34.0999,0 18.36825,-34.10093,0 18.36803,-34.10192,0 18.36756,-34.10309,0 18.36701,-34.10415,0 18.36655,-34.10529,0 18.36614,-34.10602,0 18.36556,-34.10711,0 18.36509,-34.10814,0 18.36457,-34.10922,0 18.36414,-34.11033,0 18.36372,-34.1113,0 18.36323,-34.11243,0 18.36267,-34.1136,0 18.36224,-34.11436,0 18.36119,-34.11578,0 18.36053,-34.11678,0 18.35996,-34.11782,0 18.35939,-34.11894,0 18.35878,-34.11993,0 18.35778,-34.12127,0 18.35721,-34.12209,0 18.35638,-34.12341,0 18.35565,-34.1246,0 18.3551,-34.1255,0 18.35424,-34.12675,0 18.35336,-34.1279,0 18.35254,-34.12936,0 18.35196,-34.13075,0 18.3518,-34.1313,0 18.35097,-34.13263,0 18.35066,-34.13365,0 18.35017,-34.13485,0 18.34992,-34.1358,0 18.3497,-34.13701,0 18.34955,-34.13813,0 18.34935,-34.13909,0 18.34885,-34.14035,0 18.34875,-34.14138,0 18.34858,-34.14248,0 18.3486,-34.14325,0 18.34844,-34.14425,0 18.34815,-34.14564,0 18.34777,-34.14688,0 18.34755,-34.14811,0 18.34727,-34.14957,0 18.34702,-34.15051,0 18.3469,-34.15198,0 18.3467,-34.15322,0 18.34647,-34.15467,0 18.34618,-34.15602,0 18.34594,-34.15751,0 18.34558,-34.15848,0 18.3456,-34.16015,0 18.34592,-34.16139,0 18.34603,-34.1626,0 18.3458,-34.16404,0 18.34586,-34.1656,0 18.34625,-34.16712,0 18.34656,-34.16798,0 18.34711,-34.16977,0 18.34703,-34.17195,0 18.34804,-34.17334,0 18.35035,-34.17427,0 18.35153,-34.17667,0 18.34862,-34.17894,0 18.34974,-34.17992,0 18.3534,-34.18114,0 18.35343,-34.18661,0 18.35505,-34.18676,0 18.35746,-34.18669,0 18.35745,-34.18867,0 18.35806,-34.18911,0 18.35906,-34.19076,0 18.36094,-34.19327,0 18.36088,-34.19496,0 18.36195,-34.19633,0 18.36226,-34.19763,0 18.36298,-34.19971,0 18.36192,-34.20164,0 18.36378,-34.20374,0 18.36296,-34.20704,0 18.36409,-34.20736,0 18.36383,-34.20804,0 18.36437,-34.2094,0 18.36363,-34.21096,0 18.36434,-34.2121,0 18.36471,-34.21331,0 18.36761,-34.21283,0 18.36981,-34.21332,0 18.36734,-34.21719,0 18.36508,-34.22005,0 18.36677,-34.22162,0 18.36823,-34.22237,0 18.36812,-34.22418,0 18.36839,-34.22507,0 18.36946,-34.22594,0 18.36957,-34.22699,0 18.36957,-34.22884,0 18.36911,-34.22998,0 18.37033,-34.23141,0 18.37198,-34.23195,0 18.37331,-34.23283,0 18.37737,-34.24262,0 18.3846,-34.28697,0 18.38952,-34.29163,0 18.39238,-34.29767,0 18.43122,-34.34491,0 18.4356,-34.34723,0 18.43862,-34.34733,0 18.44114,-34.34672,0 18.44271,-34.34679,0 18.4459,-34.34654,0 18.44806,-34.34797,0 18.4508,-34.3488,0 18.4503,-34.35365,0 18.45066,-34.35497,0 18.4526,-34.35514,0 18.45693,-34.35165,0 18.45603,-34.35612,0 18.45721,-34.35812,0 18.45894,-34.35898,0 18.46184,-34.36141,0 18.46485,-34.36312,0 18.46649,-34.36607,0 18.47076,-34.36667,0 18.48028,-34.36247,0 18.48442,-34.36057,0 18.48007,-34.36816,0 18.48068,-34.36986,0 18.48753,-34.36445,0 18.49254,-34.37032,0 18.49572,-34.36908,0 18.49867,-34.36735,0 18.49862,-34.36963,0 18.49811,-34.37238,0 18.54088,-34.31768,0 18.54128,-34.31792,0 18.51634,-34.36235,0 18.52151,-34.37017,0 18.52457,-34.3657,0 18.52073,-34.3716,0 18.52149,-34.36945,0 18.51741,-34.37225,0 18.51866,-34.36772,0 18.51386,-34.37226,0 18.50518,-34.37145,0 18.5029,-34.36953,0 18.50167,-34.37104,0 18.50264,-34.36137,0 18.5035,-34.35512,0 18.50206,-34.35425,0 18.50169,-34.3519,0 18.5014,-34.35113,0 18.50134,-34.34793,0 18.50146,-34.34611,0 18.50115,-34.34544,0 18.5019,-34.34109,0 18.50036,-34.34031,0 18.49889,-34.33888,0 18.49891,-34.33631,0 18.49577,-34.33509,0 18.49395,-34.33258,0 18.48917,-34.33155,0 18.48874,-34.32904,0 18.489,-34.32723,0 18.4894,-34.32371,0 18.48937,-34.32145,0 18.48784,-34.32047,0 18.48665,-34.31998,0 18.48599,-34.31753,0 18.48544,-34.31547,0 18.48393,-34.31559,0 18.48047,-34.31408,0 18.47753,-34.314,0 18.4757,-34.31372,0 18.47171,-34.31494,0 18.4719,-34.30846,0 18.47054,-34.30885,0 18.46775,-34.30884,0 18.46828,-34.30605,0 18.46841,-34.30418,0 18.4758,-34.29226,0 18.47621,-34.29202,0 18.47662,-34.29082,0 18.46645,-34.29486,0 18.48054,-34.28259,0 18.48501,-34.27743,0 18.48469,-34.2765,0 18.48466,-34.2749,0 18.4855,-34.27281,0 18.48644,-34.27013,0 18.48694,-34.26797,0 18.48689,-34.26715,0 18.48726,-34.2648,0 18.48777,-34.26377,0 18.48891,-34.25996,0 18.49,-34.25492,0 18.48757,-34.25401,0 18.48729,-34.25305,0 18.4866,-34.252,0 18.48683,-34.25098,0 18.48756,-34.24699,0 18.48716,-34.24554,0 18.4872,-34.24362,0 18.48645,-34.24221,0 18.48611,-34.24113,0 18.48579,-34.23945,0 18.48559,-34.23766,0 18.48537,-34.23637,0 18.48476,-34.23466,0 18.48442,-34.23344,0 18.48409,-34.23211,0 18.48349,-34.23116,0 18.4835,-34.22945,0 18.48304,-34.22813,0 18.48236,-34.22646,0 18.48175,-34.22512,0 18.48086,-34.22372,0 18.48003,-34.22263,0 18.47943,-34.22142,0 18.47862,-34.22029,0 18.4775,-34.21878,0 18.47685,-34.21791,0 18.47605,-34.21677,0 18.47498,-34.21578,0 18.47421,-34.21448,0 18.47352,-34.21326,0 18.4727,-34.21181,0 18.47209,-34.21088,0 18.47126,-34.20918,0 18.47079,-34.20815,0 18.47021,-34.20665,0 18.46952,-34.20528,0 18.46856,-34.20421,0 18.4679,-34.20292,0 18.46725,-34.20136,0 18.46662,-34.19997,0 18.46592,-34.19901,0 18.46526,-34.19784,0 18.46465,-34.19662,0 18.46383,-34.19511,0 18.46297,-34.19373,0 18.46222,-34.1927,0 18.46131,-34.1917,0 18.46089,-34.19032,0 18.4599,-34.18906,0 18.45979,-34.18871,0 18.45924,-34.18668,0 18.4583,-34.18523,0 18.4577,-34.18414,0 18.45666,-34.18261,0 18.45625,-34.18212,0 18.45553,-34.18062,0 18.45511,-34.17913,0 18.45449,-34.17812,0 18.45399,-34.17708,0 18.4535,-34.17582,0 18.45294,-34.1741,0 18.4527,-34.17289,0 18.45215,-34.1718,0 18.45128,-34.17054,0 18.45097,-34.16949,0 18.45207,-34.16736,0 18.45187,-34.16604,0 18.45162,-34.16435,0 18.45151,-34.16327,0 18.45139,-34.16202,0 18.45139,-34.16074,0 18.45134,-34.15901,0 18.45136,-34.15735,0 18.45138,-34.15606,0 18.45142,-34.15477,0 18.45146,-34.15368,0 18.4516,-34.15219,0 18.45176,-34.15065,0 18.45199,-34.1488,0 18.45223,-34.1474,0 18.45249,-34.14612,0 18.45288,-34.14449,0 18.45347,-34.14265,0 18.45389,-34.14171,0 18.45447,-34.14025,0 18.45512,-34.13857,0 18.45573,-34.1374,0 18.45661,-34.13584,0 18.45745,-34.13433,0 18.45812,-34.13314,0 18.4593,-34.13102,0 18.45962,-34.13056,0 18.4606,-34.12909,0 18.46179,-34.1276,0 18.46276,-34.12628,0 18.46356,-34.12518,0 18.46461,-34.12384,0 18.46581,-34.12247,0 18.4665,-34.12158,0 18.46786,-34.11982,0 18.46876,-34.1186,0 18.46959,-34.11767,0 18.47108,-34.11523,0 18.47172,-34.11406,0 18.47207,-34.11347,0 18.47277,-34.11195,0 18.47345,-34.11035,0 18.47391,-34.10912,0 18.47431,-34.10748,0 18.47452,-34.10583,0 18.47466,-34.10478,0 18.47484,-34.10359,0 18.47476,-34.10205,0 18.47468,-34.10057,0 18.47458,-34.09931,0 18.47439,-34.09765,0 18.47381,-34.09605,0 18.47293,-34.09476,0 18.47246,-34.09324,0 18.4722,-34.09243,0 18.47148,-34.09116,0 18.4712,-34.09,0 18.47088,-34.0888,0 18.47022,-34.08738,0 18.46915,-34.08616,0 18.4675,-34.08501,0 18.46675,-34.0839,0 18.46578,-34.08257,0 18.46481,-34.08167,0 18.46398,-34.08069,0 18.46263,-34.07955,0 18.46212,-34.07878,0 18.46107,-34.07763,0 18.45991,-34.0764,0 18.45899,-34.0754,0 18.45825,-34.0744,0 18.45736,-34.07322,0 18.45637,-34.07227,0 18.45555,-34.07128,0 18.45467,-34.07024,0 18.45325,-34.06892,0 18.45229,-34.06805,0 18.45104,-34.06688,0 18.45015,-34.06577,0 18.44909,-34.06481,0 18.44808,-34.0635,0 18.44735,-34.0622,0 18.44649,-34.0611,0 18.44593,-34.06005,0 18.44492,-34.05877,0 18.4441,-34.05771,0 18.44335,-34.05669,0 18.44251,-34.05547,0 18.44156,-34.05402,0 18.44077,-34.05281,0 18.44005,-34.05164,0 18.43944,-34.05052,0 18.4388,-34.04924,0 18.43831,-34.04804,0 18.4378,-34.04668,0 18.43736,-34.04553,0 18.43692,-34.04435,0 18.43663,-34.04306,0 18.43635,-34.04142,0 18.43616,-34.03963,0 18.43624,-34.03825,0 18.43629,-34.03671,0 18.43639,-34.0354,0 18.43658,-34.03372,0 18.43691,-34.03216,0 18.43717,-34.03099,0 18.43742,-34.02962,0 18.43764,-34.02873,0 18.43811,-34.02706,0 18.43829,-34.02631,0 18.43841,-34.02528,0 18.4386,-34.02411,0 18.43951,-34.02275,0 18.43992,-34.02139,0 18.44019,-34.02018,0 18.44063,-34.01902,0 18.44101,-34.01765,0 18.44126,-34.01616,0 18.44144,-34.01492,0 18.44177,-34.01341,0 18.44199,-34.01218,0 18.44225,-34.01093,0 18.44279,-34.00935,0 18.44313,-34.00805,0 18.44349,-34.00664,0 18.44408,-34.00498,0 18.44464,-34.00376,0 18.44512,-34.00251,0 18.44566,-34.00104,0 18.44588,-34.00029,0 18.44638,-33.99904,0 18.44665,-33.99786,0 18.44701,-33.99654,0 18.44747,-33.99521,0 18.44779,-33.99406,0 18.44843,-33.99281,0 18.44914,-33.99162,0 18.4497,-33.99065,0 18.45043,-33.98935,0 18.45133,-33.98793,0 18.45187,-33.98698,0 18.45274,-33.98565,0 18.4534,-33.98458,0 18.45418,-33.9834,0 18.45488,-33.98228,0 18.45573,-33.98114,0 18.45668,-33.97977,0 18.45724,-33.97873,0 18.4579,-33.97791,0 18.45856,-33.97677,0 18.45972,-33.97563,0 18.46063,-33.97483,0 18.46169,-33.97371,0 18.46245,-33.97293,0 18.46314,-33.97185,0 18.46403,-33.9709,0 18.46497,-33.96957,0 18.46581,-33.96856,0 18.46663,-33.96743,0 18.46746,-33.96611,0 18.46817,-33.96513,0 18.46876,-33.96417,0 18.46965,-33.96322,0 18.47097,-33.96182,0 18.47152,-33.96106,0 18.47231,-33.96016,0 18.47329,-33.95916,0 18.47387,-33.95846,0 18.47489,-33.95717,0 18.47545,-33.95583,0 18.47605,-33.95499,0 18.47666,-33.95403,0 18.47735,-33.95289,0 18.478,-33.95174,0 18.47842,-33.95081,0 18.47886,-33.94944,0 18.47806,-33.9483,0 18.47813,-33.94727,0 18.47812,-33.94518,0 18.47816,-33.93943,0 18.47426,-33.93576,0 18.47238,-33.93238,0 18.47249,-33.93104,0 18.46844,-33.9301,0 18.46613,-33.92825,0 18.46524,-33.92714,0 18.46484,-33.92594,0 18.46321,-33.92411,0 18.46013,-33.91609,0 18.45898,-33.91511,0 18.45862,-33.91489,0 18.45599,-33.9117,0 18.44427,-33.905,0 18.44389,-33.90448,0 18.44343,-33.90415,0 18.44966,-33.90375,0</coordinates>
      </LineString>
    </Placemark>
  </Document>
</kml>
