<?xml version="1.0" encoding="UTF-8"?>
<kml xmlns="http://www.opengis.net/kml/2.2">
  <Document>
    <name>FR24 41f6fdf2</name>
    <Placemark>
      <name>FR24 41f6fdf2</name>
      <Style><LineStyle><color>ff0000ff</color><width>4</width></LineStyle></Style>
      <LineString>
        <tessellate>1</tessellate>
        <coordinates>18.4285,-33.89946,0 18.42876,-33.89962,0 18.42922,-33.8999,0 18.42957,-33.90004,0 18.42985,-33.90013,0 18.43007,-33.90019,0 18.43041,-33.90033,0 18.43071,-33.90041,0 18.43094,-33.90051,0 18.43117,-33.90055,0 18.43145,-33.90064,0 18.43175,-33.9007,0 18.43243,-33.90074,0 18.43315,-33.9007,0 18.43371,-33.90056,0 18.43437,-33.90027,0 18.435,-33.89983,0 18.4354,-33.89925,0 18.43562,-33.89868,0 18.43579,-33.89799,0 18.4359,-33.89731,0 18.43592,-33.89636,0 18.43592,-33.89561,0 18.43596,-33.89497,0 18.43596,-33.89383,0 18.43596,-33.89278,0 18.43596,-33.89214,0 18.43596,-33.89127,0 18.43592,-33.8905,0 18.4359,-33.8898,0 18.43586,-33.889,0 18.43579,-33.88824,0 18.43569,-33.88761,0 18.43546,-33.88696,0 18.43506,-33.88621,0 18.4345,-33.88554,0 18.43388,-33.88499,0 18.433,-33.88444,0 18.43198,-33.88394,0 18.43108,-33.88371,0 18.43018,-33.88348,0 18.42889,-33.8833,0 18.42802,-33.88314,0 18.42682,-33.88305,0 18.42579,-33.88295,0 18.4247,-33.88286,0 18.42402,-33.8828,0 18.42281,-33.88272,0 18.42177,-33.88266,0 18.42075,-33.88258,0 18.4197,-33.88252,0 18.41875,-33.88248,0 18.41751,-33.88243,0 18.41681,-33.88239,0 18.41544,-33.88234,0 18.41434,-33.8823,0 18.41337,-33.88225,0 18.41208,-33.88225,0 18.41085,-33.8823,0 18.40978,-33.88239,0 18.40885,-33.88244,0 18.40754,-33.88261,0 18.40642,-33.8828,0 18.40541,-33.88298,0 18.40451,-33.88312,0 18.40316,-33.8833,0 18.4021,-33.88346,0 18.40081,-33.88362,0 18.39969,-33.8838,0 18.39846,-33.88403,0 18.39746,-33.88426,0 18.39586,-33.88458,0 18.39483,-33.88486,0 18.39375,-33.88519,0 18.39223,-33.88568,0 18.391,-33.88614,0 18.38977,-33.8866,0 18.38881,-33.88705,0 18.38781,-33.88751,0 18.38652,-33.88815,0 18.38545,-33.88877,0 18.3843,-33.88947,0 18.38316,-33.89022,0 18.38207,-33.89091,0 18.38114,-33.89159,0 18.38018,-33.89227,0 18.37906,-33.89305,0 18.37816,-33.89369,0 18.37709,-33.89455,0 18.37626,-33.89516,0 18.37514,-33.89603,0 18.3743,-33.89671,0 18.37346,-33.89735,0 18.37229,-33.89827,0 18.37138,-33.899,0 18.37043,-33.89973,0 18.36959,-33.90038,0 18.36875,-33.90106,0 18.36768,-33.90193,0 18.36662,-33.90285,0 18.36588,-33.90348,0 18.36471,-33.90454,0 18.36393,-33.90527,0 18.36296,-33.90623,0 18.36202,-33.9072,0 18.36129,-33.90788,0 18.36039,-33.90888,0 18.35956,-33.90967,0 18.35878,-33.91047,0 18.3581,-33.91122,0 18.35724,-33.91219,0 18.35655,-33.91289,0 18.35569,-33.91383,0 18.35495,-33.91465,0 18.35429,-33.91539,0 18.3535,-33.91626,0 18.35106,-33.91903,0 18.34866,-33.92168,0 18.34554,-33.92519,0 18.3433,-33.92784,0 18.34265,-33.92862,0 18.34179,-33.92967,0 18.34099,-33.93067,0 18.34036,-33.93151,0 18.33973,-33.9323,0 18.33876,-33.93351,0 18.3382,-33.9343,0 18.33738,-33.93556,0 18.33691,-33.93631,0 18.33635,-33.93723,0 18.3359,-33.93816,0 18.33561,-33.939,0 18.33568,-33.94006,0 18.33601,-33.9408,0 18.33675,-33.94156,0 18.33758,-33.94199,0 18.33841,-33.94226,0 18.33967,-33.94235,0 18.3407,-33.94226,0 18.34179,-33.94203,0 18.34322,-33.94152,0 18.34437,-33.94098,0 18.34543,-33.94029,0 18.34631,-33.93961,0 18.34728,-33.93874,0 18.34812,-33.93796,0 18.34894,-33.93719,0 18.34963,-33.93649,0 18.35048,-33.93562,0 18.3514,-33.93472,0 18.35226,-33.93383,0 18.35323,-33.93286,0 18.35401,-33.93214,0 18.35507,-33.93114,0 18.35587,-33.93039,0 18.35664,-33.92958,0 18.35758,-33.92871,0 18.35838,-33.92789,0 18.36113,-33.92519,0 18.36449,-33.9218,0 18.36724,-33.91905,0 18.37065,-33.91562,0 18.37349,-33.9127,0 18.37692,-33.90911,0 18.37945,-33.90656,0 18.38299,-33.90316,0 18.38652,-33.89983,0 18.38739,-33.89906,0 18.38825,-33.89836,0 18.38932,-33.89749,0 18.3902,-33.89673,0 18.391,-33.89607,0 18.39203,-33.8952,0 18.393,-33.89441,0 18.3938,-33.89374,0 18.39483,-33.89291,0 18.39599,-33.892,0 18.39695,-33.89119,0 18.39773,-33.89058,0 18.39884,-33.8897,0 18.39964,-33.889,0 18.40284,-33.88635,0 18.4037,-33.88575,0 18.40467,-33.88496,0 18.4053,-33.88444,0 18.40828,-33.8823,0 18.40916,-33.88174,0 18.41028,-33.88115,0 18.41131,-33.88063,0 18.41246,-33.88021,0 18.41349,-33.87993,0 18.41438,-33.87973,0 18.4156,-33.8796,0 18.41673,-33.87955,0 18.41768,-33.8795,0 18.41891,-33.87959,0 18.42007,-33.8797,0 18.42099,-33.87978,0 18.42184,-33.87988,0 18.42304,-33.88007,0 18.42379,-33.88025,0 18.42475,-33.88069,0 18.42553,-33.88133,0 18.42596,-33.88207,0 18.4262,-33.88298,0 18.4262,-33.88376,0 18.42596,-33.88482,0 18.42573,-33.88575,0 18.42562,-33.88654,0 18.42567,-33.88747,0 18.42587,-33.88838,0 18.42603,-33.88925,0 18.42619,-33.89003,0 18.42637,-33.8909,0 18.42637,-33.89117,0 18.42642,-33.89185,0 18.4263,-33.89264,0 18.4262,-33.89333,0 18.42615,-33.89369,0 18.42613,-33.89403,0 18.42615,-33.89429,0 18.42619,-33.89455,0 18.42625,-33.89492,0 18.42636,-33.89524,0 18.42648,-33.89552,0 18.42665,-33.89599,0 18.42676,-33.89639,0 18.42693,-33.89676,0 18.42704,-33.89713,0 18.42715,-33.89745,0 18.42727,-33.89767,0 18.42738,-33.89795,0 18.42749,-33.89822,0 18.42768,-33.8985,0 18.42779,-33.89878,0 18.42794,-33.89905,0 18.42811,-33.89928,0 18.42833,-33.89951,0 18.42854,-33.89948,0 18.42888,-33.89971,0 18.42916,-33.89981,0 18.42968,-33.89992,0 18.43008,-33.89994,0 18.43048,-33.89999,0 18.43088,-33.89999,0 18.43114,-33.89996,0 18.43145,-33.89999,0 18.4317,-33.89996,0 18.43209,-33.89992,0 18.43231,-33.89987,0 18.43259,-33.89983,0 18.43304,-33.89973,0 18.43374,-33.89952,0 18.43427,-33.89928,0 18.43495,-33.89882,0 18.43534,-33.89836,0 18.43567,-33.89781,0 18.43592,-33.89701,0 18.43597,-33.89641,0 18.43597,-33.89576,0 18.43592,-33.89487,0 18.4359,-33.89401,0 18.43586,-33.8932,0 18.43579,-33.89236,0 18.43575,-33.89166,0 18.43563,-33.89096,0 18.43556,-33.89012,0 18.43539,-33.88948,0 18.43517,-33.88857,0 18.43478,-33.88779,0 18.43439,-33.88719,0 18.4338,-33.88644,0 18.43315,-33.88591,0 18.43243,-33.88542,0 18.43147,-33.88486,0 18.43041,-33.8844,0 18.42957,-33.88412,0 18.42871,-33.88393,0 18.42766,-33.88371,0 18.4267,-33.88356,0 18.42567,-33.88342,0 18.42486,-33.8833,0 18.42379,-33.88319,0 18.4229,-33.88312,0 18.42172,-33.88303,0 18.4207,-33.883,0 18.41961,-33.88295,0 18.41841,-33.88298,0 18.41735,-33.88293,0 18.4164,-33.88295,0 18.41527,-33.88298,0 18.41429,-33.883,0 18.41337,-33.88305,0 18.41224,-33.88316,0 18.41125,-33.88328,0 18.41017,-33.88342,0 18.40925,-33.88356,0 18.40799,-33.8838,0 18.40708,-33.88398,0 18.40602,-33.88417,0 18.40524,-33.88435,0 18.40387,-33.88463,0 18.40266,-33.88495,0 18.40147,-33.88523,0 18.40047,-33.88554,0 18.39952,-33.88582,0 18.39809,-33.88626,0 18.39695,-33.88668,0 18.39593,-33.88715,0 18.39476,-33.88765,0 18.39375,-33.88815,0 18.39296,-33.88857,0 18.39174,-33.88924,0 18.39072,-33.8898,0 18.38963,-33.89045,0 18.38871,-33.89101,0 18.38774,-33.89161,0 18.3868,-33.89223,0 18.38591,-33.89282,0 18.38495,-33.89346,0 18.38413,-33.89403,0 18.38293,-33.89484,0 18.3823,-33.89529,0 18.38114,-33.89612,0 18.38024,-33.89671,0 18.3794,-33.89731,0 18.37841,-33.89808,0 18.37727,-33.89896,0 18.37665,-33.89946,0 18.37559,-33.90028,0 18.37463,-33.90106,0 18.37379,-33.90175,0 18.37318,-33.9023,0 18.37217,-33.90311,0 18.3712,-33.904,0 18.37037,-33.90477,0 18.36948,-33.90559,0 18.36875,-33.90633,0 18.36802,-33.90706,0 18.36697,-33.90809,0 18.36634,-33.90875,0 18.36522,-33.9099,0 18.3646,-33.91054,0 18.3637,-33.9115,0 18.36302,-33.91228,0 18.36225,-33.91315,0 18.36153,-33.91391,0 18.36073,-33.91479,0 18.36012,-33.91553,0 18.35939,-33.9164,0 18.35873,-33.91722,0 18.3581,-33.91796,0 18.35715,-33.9191,0 18.35653,-33.91988,0 18.35513,-33.92157,0 18.35455,-33.92229,0 18.35232,-33.92504,0 18.35008,-33.92784,0 18.34801,-33.9304,0 18.34538,-33.93375,0 18.34252,-33.93727,0 18.34022,-33.94006,0 18.33818,-33.94277,0 18.33764,-33.94359,0 18.3371,-33.94454,0 18.33652,-33.94569,0 18.33595,-33.94687,0 18.33544,-33.94808,0 18.33495,-33.9494,0 18.33458,-33.95036,0 18.33416,-33.9516,0 18.33378,-33.95255,0 18.33338,-33.95366,0 18.33293,-33.95494,0 18.33258,-33.95599,0 18.33229,-33.95678,0 18.33189,-33.95804,0 18.33153,-33.95929,0 18.33126,-33.96023,0 18.33097,-33.9614,0 18.33029,-33.96419,0 18.3296,-33.96712,0 18.32766,-33.97289,0 18.32645,-33.97569,0 18.32502,-33.97829,0 18.32357,-33.98048,0 18.32166,-33.98318,0 18.31987,-33.98546,0 18.31884,-33.98681,0 18.31802,-33.9879,0 18.31735,-33.98882,0 18.31673,-33.98991,0 18.31633,-33.99105,0 18.31621,-33.99216,0 18.31651,-33.99326,0 18.31735,-33.99417,0 18.31836,-33.99463,0 18.31965,-33.99481,0 18.32077,-33.99467,0 18.32239,-33.99403,0 18.32354,-33.99333,0 18.32458,-33.99239,0 18.32617,-33.99063,0 18.32968,-33.98653,0 18.33172,-33.9842,0 18.33378,-33.98183,0 18.33572,-33.97946,0 18.33949,-33.97481,0 18.34139,-33.97256,0 18.34336,-33.97023,0 18.34515,-33.96799,0 18.34694,-33.96549,0 18.34866,-33.96307,0 18.35014,-33.96057,0 18.35154,-33.95792,0 18.35272,-33.95522,0 18.3534,-33.95367,0 18.3539,-33.95256,0 18.35434,-33.95146,0 18.35479,-33.95027,0 18.35524,-33.9491,0 18.35569,-33.94799,0 18.35625,-33.9467,0 18.35675,-33.9456,0 18.35707,-33.94482,0 18.35782,-33.94341,0 18.35843,-33.94226,0 18.35901,-33.94105,0 18.35967,-33.93988,0 18.36017,-33.93896,0 18.3609,-33.93751,0 18.36135,-33.93668,0 18.36205,-33.93533,0 18.3625,-33.93444,0 18.36319,-33.93314,0 18.3637,-33.93201,0 18.36416,-33.93104,0 18.3646,-33.93008,0 18.3651,-33.92903,0 18.36555,-33.92807,0 18.36611,-33.9269,0 18.36656,-33.92601,0 18.36697,-33.92517,0 18.3676,-33.92387,0 18.36808,-33.92299,0 18.36847,-33.92226,0 18.36903,-33.92126,0 18.36976,-33.92001,0 18.37026,-33.91919,0 18.37103,-33.9181,0 18.3716,-33.91726,0 18.37229,-33.91638,0 18.37309,-33.91526,0 18.37362,-33.91447,0 18.37435,-33.91319,0 18.37492,-33.91205,0 18.37531,-33.911,0 18.37572,-33.90991,0 18.37615,-33.90894,0 18.37658,-33.90786,0 18.37704,-33.90688,0 18.37761,-33.90573,0 18.37807,-33.90488,0 18.37878,-33.90358,0 18.37938,-33.9025,0 18.3799,-33.90166,0 18.38074,-33.90033,0 18.38144,-33.89943,0 18.38214,-33.89854,0 18.38299,-33.89753,0 18.38371,-33.89671,0 18.38461,-33.89561,0 18.38551,-33.89461,0 18.38625,-33.89375,0 18.38699,-33.89291,0 18.38797,-33.89194,0 18.38859,-33.89131,0 18.38966,-33.8903,0 18.39055,-33.88953,0 18.39174,-33.88835,0 18.3926,-33.88761,0 18.39363,-33.88672,0 18.39476,-33.88586,0 18.39565,-33.88522,0 18.39683,-33.88449,0 18.39809,-33.88384,0 18.39913,-33.8833,0 18.40008,-33.88289,0 18.40137,-33.88239,0 18.40272,-33.88193,0 18.40382,-33.8816,0 18.40496,-33.88124,0 18.40608,-33.88097,0 18.40742,-33.88067,0 18.40868,-33.88039,0 18.41011,-33.88011,0 18.4112,-33.87997,0 18.41224,-33.87982,0 18.41377,-33.8797,0 18.41488,-33.87964,0 18.41629,-33.8797,0 18.41743,-33.87979,0 18.41841,-33.87987,0 18.4199,-33.88007,0 18.42065,-33.88019,0 18.42184,-33.88049,0 18.4225,-33.88065,0 18.42368,-33.88092,0 18.42486,-33.88124,0 18.42558,-33.88142,0 18.42671,-33.88174,0 18.42751,-33.88202,0 18.42876,-33.88277,0 18.42939,-33.88346,0 18.42968,-33.88422,0 18.42968,-33.88495,0 18.4294,-33.88586,0 18.42894,-33.88663,0 18.42854,-33.88733,0 18.42813,-33.88821,0 18.42802,-33.88905,0 18.42831,-33.88993,0 18.42888,-33.89068,0 18.42934,-33.89127,0 18.42951,-33.8918,0 18.42945,-33.89246,0 18.42912,-33.89296,0 18.4285,-33.89355,0 18.42794,-33.89392,0 18.42738,-33.89424,0 18.42682,-33.89473,0 18.42665,-33.8951,0 18.4267,-33.89561,0 18.42682,-33.89598,0 18.42699,-33.89626,0 18.4271,-33.89659,0 18.42727,-33.89699,0 18.42733,-33.89724,0 18.42738,-33.89745,0 18.42743,-33.89767,0 18.42749,-33.89804,0 18.42751,-33.89836,0 18.42751,-33.89864,0 18.42751,-33.89897,0 18.42751,-33.89925,0 18.42743,-33.89946,0 18.42739,-33.89971,0 18.42728,-33.89994,0 18.42721,-33.90015,0 18.4271,-33.90036,0 18.42705,-33.9006,0 18.42693,-33.90083,0 18.42716,-33.90106,0 18.42739,-33.9012,0 18.4276,-33.90134,0 18.42783,-33.90138,0 18.42822,-33.90143,0 18.42865,-33.90139,0 18.42888,-33.90139,0 18.42922,-33.90134,0 18.42968,-33.90134,0 18.42996,-33.90134,0 18.43019,-33.90129,0 18.43052,-33.90129,0 18.43082,-33.90125,0 18.4314,-33.9012,0 18.43203,-33.90115,0 18.4327,-33.90106,0 18.4336,-33.90092,0 18.43427,-33.9007,0 18.435,-33.90032,0 18.43551,-33.89992,0 18.43597,-33.89939,0 18.43632,-33.89864,0 18.43649,-33.89804,0 18.43649,-33.8972,0 18.43637,-33.89631,0 18.43626,-33.89561,0 18.4362,-33.89478,0 18.43609,-33.89403,0 18.43597,-33.89343,0 18.4359,-33.89264,0 18.43579,-33.89177,0 18.43573,-33.89122,0 18.43557,-33.89012,0 18.43552,-33.88942,0 18.43534,-33.88849,0 18.43517,-33.88779,0 18.43483,-33.88692,0 18.43414,-33.88579,0 18.43355,-33.88499,0 18.433,-33.88444,0 18.43225,-33.88379,0 18.43147,-33.88326,0 18.43065,-33.88286,0 18.42951,-33.88243,0 18.42867,-33.88216,0 18.42788,-33.88197,0 18.42676,-33.88174,0 18.42567,-33.88151,0 18.42482,-33.88132,0 18.42413,-33.8812,0 18.42301,-33.88097,0 18.42173,-33.88076,0 18.42081,-33.88063,0 18.41972,-33.88044,0 18.41875,-33.88021,0 18.41772,-33.87983,0 18.41695,-33.87941,0 18.41646,-33.87886,0 18.41606,-33.87817,0 18.41589,-33.87726,0 18.41611,-33.87639,0 18.41656,-33.87575,0 18.41712,-33.87529,0 18.41774,-33.87497,0 18.41858,-33.87479,0 18.41915,-33.87471,0 18.4199,-33.87481,0 18.42048,-33.87492,0 18.4211,-33.87515,0 18.42155,-33.87543,0 18.42205,-33.87579,0 18.42245,-33.87625,0 18.42267,-33.87675,0 18.42278,-33.87744,0 18.42264,-33.87802,0 18.42222,-33.87868,0 18.42155,-33.87932,0 18.42087,-33.8797,0 18.41992,-33.8801,0 18.41908,-33.88033,0 18.41785,-33.88055,0 18.41669,-33.88076,0 18.41566,-33.88097,0 18.41426,-33.8812,0 18.41291,-33.88146,0 18.41157,-33.8817,0 18.41017,-33.88197,0 18.40908,-33.88221,0 18.40799,-33.88243,0 18.40668,-33.88277,0 18.40588,-33.883,0 18.4045,-33.88346,0 18.40333,-33.8839,0 18.40227,-33.8843,0 18.40126,-33.88472,0 18.40008,-33.88531,0 18.39896,-33.88586,0 18.3979,-33.88651,0 18.39677,-33.88724,0 18.39586,-33.88784,0 18.3946,-33.88868,0 18.39363,-33.88933,0 18.39237,-33.89022,0 18.39162,-33.89081,0 18.39043,-33.89166,0 18.38943,-33.89241,0 18.38854,-33.8931,0 18.38734,-33.89399,0 18.38642,-33.89473,0 18.38534,-33.89561,0 18.38444,-33.89635,0 18.3835,-33.89715,0 18.38247,-33.89808,0 18.38147,-33.89905,0 18.38052,-33.89996,0 18.37957,-33.90092,0 18.37887,-33.90157,0 18.37801,-33.90237,0 18.37687,-33.90348,0 18.37576,-33.90445,0 18.37491,-33.90523,0 18.37407,-33.90596,0 18.37318,-33.90674,0 18.37211,-33.9077,0 18.3711,-33.90862,0 18.37029,-33.90939,0 18.36948,-33.91014,0 18.36858,-33.91104,0 18.36763,-33.91196,0 18.36667,-33.91287,0 18.36582,-33.91368,0 18.36416,-33.91526,0 18.36325,-33.91615,0 18.36256,-33.91684,0 18.36157,-33.91777,0 18.36096,-33.91837,0 18.35827,-33.92099,0 18.35563,-33.92368,0 18.35489,-33.92439,0 18.35378,-33.92519,0 18.35283,-33.92574,0 18.35163,-33.92611,0 18.35014,-33.9262,0 18.34929,-33.92611,0 18.34797,-33.92559,0 18.34688,-33.92462,0 18.34638,-33.92368,0 18.34631,-33.92289,0 18.34655,-33.92184,0 18.347,-33.92113,0 18.34745,-33.92052,0 18.3482,-33.91987,0 18.34891,-33.91942,0 18.34969,-33.91903,0 18.35014,-33.91882,0 18.35126,-33.91846,0 18.3521,-33.91832,0 18.35289,-33.91832,0 18.35375,-33.91852,0 18.35451,-33.91882,0 18.35506,-33.91927,0 18.35552,-33.91987,0 18.3558,-33.92056,0 18.35587,-33.92154,0 18.35575,-33.92234,0 18.35552,-33.92331,0 18.35518,-33.92441,0 18.35489,-33.92522,0 18.35461,-33.92606,0 18.35426,-33.92704,0 18.35395,-33.92789,0 18.35363,-33.92881,0 18.35323,-33.92983,0 18.35294,-33.93073,0 18.35255,-33.93169,0 18.3522,-33.93267,0 18.35176,-33.93379,0 18.3514,-33.93476,0 18.35104,-33.93581,0 18.35066,-33.93686,0 18.35031,-33.93782,0 18.34986,-33.93886,0 18.34952,-33.93983,0 18.34885,-33.94176,0 18.34848,-33.94277,0 18.3482,-33.94366,0 18.34784,-33.94487,0 18.34688,-33.94813,0 18.34661,-33.94922,0 18.34631,-33.95018,0 18.34591,-33.95171,0 18.34566,-33.95279,0 18.34538,-33.95403,0 18.34505,-33.9553,0 18.34481,-33.95641,0 18.34465,-33.95739,0 18.34448,-33.95824,0 18.34291,-33.96725,0 18.34185,-33.97513,0 18.48242,-33.97583,0 18.48417,-33.97334,0 18.48301,-33.97089,0 18.48287,-33.96977,0 18.48276,-33.96844,0 18.48261,-33.96707,0 18.48248,-33.96602,0 18.48232,-33.96451,0 18.48214,-33.96346,0 18.48198,-33.96209,0 18.48181,-33.96103,0 18.48164,-33.95976,0 18.48147,-33.95883,0 18.48124,-33.95744,0 18.48102,-33.95631,0 18.48085,-33.95522,0 18.48061,-33.95409,0 18.48029,-33.95274,0 18.47951,-33.94872,0 18.47843,-33.94389,0 18.47811,-33.94254,0 18.47743,-33.93993,0 18.47704,-33.93851,0 18.47666,-33.93714,0 18.47637,-33.93613,0 18.47603,-33.93494,0 18.47551,-33.93346,0 18.47508,-33.93233,0 18.47458,-33.931,0 18.47414,-33.92988,0 18.47362,-33.92876,0 18.47323,-33.92793,0 18.47267,-33.92679,0 18.47183,-33.92523,0 18.47128,-33.92429,0 18.47059,-33.92331,0 18.46976,-33.92207,0 18.46863,-33.92047,0 18.46774,-33.91919,0 18.4671,-33.91829,0 18.46622,-33.91713,0 18.4655,-33.91621,0 18.4647,-33.91512,0 18.46395,-33.91414,0 18.46327,-33.91307,0 18.46275,-33.91214,0 18.46218,-33.91103,0 18.46178,-33.91028,0 18.46109,-33.90893,0 18.46062,-33.90802,0 18.46011,-33.9071,0 18.45955,-33.90614,0 18.45916,-33.9055,0 18.45835,-33.90446,0 18.45776,-33.90376,0 18.45709,-33.90306,0 18.4564,-33.90246,0 18.45549,-33.90181,0 18.45463,-33.90125,0 18.454,-33.90092,0 18.45274,-33.90036,0 18.45182,-33.90005,0 18.45074,-33.89976,0 18.44941,-33.89955,0 18.44822,-33.89943,0 18.44673,-33.89939,0 18.44576,-33.89939,0 18.44464,-33.89941,0 18.4437,-33.89943,0 18.44274,-33.89951,0 18.44151,-33.89955,0 18.44038,-33.89964,0 18.4396,-33.89969,0 18.43865,-33.89973,0 18.43775,-33.89983,0 18.4374,-33.89985,0 18.43685,-33.89987,0 18.43637,-33.89994,0 18.435,-33.90004,0 18.4341,-33.90005,0 18.43371,-33.9001,0 18.43338,-33.9001,0 18.43311,-33.90013,0 18.43282,-33.90015,0 18.43209,-33.90024,0 18.43174,-33.90022,0 18.43122,-33.90032,0 18.43008,-33.90041,0 18.42979,-33.90042,0 18.4294,-33.90047,0 18.42906,-33.90051,0 18.42872,-33.90051,0 18.4285,-33.90051,0 18.42816,-33.90056,0 18.42788,-33.90056,0 18.42768,-33.90055,0 18.42745,-33.90055,0 18.42722,-33.90041,0 18.42715,-33.9001,0 18.42716,-33.89976,0 18.42727,-33.89932,0 18.42743,-33.89882,0 18.42756,-33.89846,0 18.42766,-33.89822,0 18.42777,-33.89799,0 18.42802,-33.89748,0 18.42831,-33.89687,0 18.42859,-33.89631,0 18.42884,-33.8958,0 18.42929,-33.89497,0 18.42957,-33.89452,0 18.42997,-33.89375,0 18.43041,-33.89301,0 18.43077,-33.89245,0 18.43114,-33.89177,0 18.43175,-33.89081,0 18.4322,-33.89012,0 18.43259,-33.88957,0 18.43315,-33.88875,0 18.43366,-33.88788,0 18.43414,-33.887,0 18.43427,-33.88646,0 18.43439,-33.88545,0 18.43414,-33.88458,0 18.43351,-33.88379,0 18.4327,-33.88321,0 18.43191,-33.88295,0 18.43077,-33.88281,0 18.43013,-33.88275,0 18.42899,-33.88272,0 18.42805,-33.88266,0 18.42682,-33.88258,0 18.42592,-33.88248,0 18.42482,-33.88226,0 18.42396,-33.88207,0 18.42262,-33.8817,0 18.42178,-33.88137,0 18.42082,-33.88101,0 18.42007,-33.88063,0 18.4192,-33.88,0 18.41858,-33.87923,0 18.41829,-33.87853,0 18.4183,-33.87767,0 18.41864,-33.8769,0 18.41972,-33.87602,0 18.42064,-33.87574,0 18.42167,-33.87564,0 18.42262,-33.8757,0 18.42357,-33.87589,0 18.42418,-33.87602,0 18.42476,-33.87616,0 18.42533,-33.87634,0 18.42596,-33.87658,0 18.42648,-33.87689,0 18.42693,-33.8773,0 18.42715,-33.87772,0 18.42733,-33.87853,0 18.4271,-33.87918,0 18.42682,-33.87965,0 18.42613,-33.88021,0 18.42558,-33.88046,0 18.42458,-33.88078,0 18.42384,-33.88086,0 18.42258,-33.881,0 18.4215,-33.88109,0 18.42035,-33.88118,0 18.4192,-33.88129,0 18.41796,-33.88138,0 18.41709,-33.88146,0 18.41578,-33.88156,0 18.41457,-33.88165,0 18.41331,-33.88179,0 18.412,-33.88193,0 18.41079,-33.88211,0 18.40972,-33.88225,0 18.40811,-33.88253,0 18.40675,-33.8828,0 18.40546,-33.88298,0 18.4045,-33.88309,0 18.4033,-33.88314,0 18.40181,-33.88319,0 18.4005,-33.88328,0 18.39907,-33.88351,0 18.39821,-33.8837,0 18.39684,-33.88412,0 18.39593,-33.88445,0 18.39472,-33.88505,0 18.39352,-33.88565,0 18.3926,-33.88621,0 18.39163,-33.88682,0 18.39066,-33.88752,0 18.38971,-33.8882,0 18.38865,-33.88902,0 18.38781,-33.88971,0 18.38674,-33.89058,0 18.38585,-33.89133,0 18.38506,-33.89204,0 18.38388,-33.8931,0 18.38322,-33.89366,0 18.38226,-33.89452,0 18.38104,-33.89552,0 18.38018,-33.89631,0 18.37915,-33.8972,0 18.37841,-33.89776,0 18.37761,-33.89846,0 18.37629,-33.89952,0 18.3734,-33.90198,0 18.37234,-33.90292,0 18.37133,-33.90395,0 18.37037,-33.90482,0 18.36937,-33.90581,0 18.36845,-33.90679,0 18.36763,-33.90765,0 18.36673,-33.90866,0 18.36617,-33.90935,0 18.36527,-33.91049,0 18.36454,-33.91145,0 18.36382,-33.91237,0 18.36319,-33.91326,0 18.36256,-33.91414,0 18.3617,-33.91531,0 18.36118,-33.91594,0 18.36039,-33.91708,0 18.35961,-33.91818,0 18.359,-33.91905,0 18.35832,-33.91997,0 18.35743,-33.92125,0 18.35678,-33.92206,0 18.35575,-33.92294,0 18.35472,-33.92364,0 18.35356,-33.92404,0 18.35238,-33.92418,0 18.35129,-33.92411,0 18.35008,-33.92377,0 18.34894,-33.92308,0 18.34846,-33.92253,0 18.3478,-33.92113,0 18.34784,-33.92024,0 18.34812,-33.91946,0 18.34885,-33.91855,0 18.34947,-33.918,0 18.35014,-33.91754,0 18.35089,-33.91717,0 18.35154,-33.9169,0 18.3521,-33.91672,0 18.35289,-33.91661,0 18.35361,-33.91658,0 18.35429,-33.91672,0 18.35513,-33.91704,0 18.35587,-33.91763,0 18.35642,-33.91841,0 18.3567,-33.91928,0 18.35681,-33.92006,0 18.35678,-33.92108,0 18.35661,-33.92206,0 18.35638,-33.92299,0 18.35609,-33.92397,0 18.35575,-33.92499,0 18.35552,-33.92587,0 18.35518,-33.9269,0 18.35489,-33.92778,0 18.35449,-33.92895,0 18.35417,-33.9299,0 18.3539,-33.93073,0 18.3535,-33.93182,0 18.35306,-33.93295,0 18.35278,-33.93388,0 18.35238,-33.93481,0 18.35197,-33.93602,0 18.35036,-33.94029,0 18.34923,-33.94342,0 18.34818,-33.94675,0 18.34705,-33.95018,0 18.34588,-33.95357,0 18.3447,-33.95714,0 18.34356,-33.96093,0 18.34347,-33.96117,0 18.34288,-33.96321,0 18.34253,-33.96456,0 18.34156,-33.96861,0 18.34133,-33.96964,0 18.34105,-33.97094,0 18.34082,-33.97233,0 18.34061,-33.97389,0 18.3405,-33.97508,0 18.34039,-33.97646,0 18.34033,-33.97765,0 18.34036,-33.97899,0 18.34044,-33.98012,0 18.34053,-33.98141,0 18.34064,-33.98248,0 18.34082,-33.98365,0</coordinates>
      </LineString>
    </Placemark>
  </Document>
</kml>
