<?xml version="1.0" encoding="UTF-8"?>
<kml xmlns="http://www.opengis.net/kml/2.2">
  <Document>
    <name>FR24 40e41965</name>
    <Placemark>
      <name>FR24 40e41965</name>
      <Style><LineStyle><color>ff0000ff</color><width>4</width></LineStyle></Style>
      <LineString>
        <tessellate>1</tessellate>
        <coordinates>18.43752,-33.89259,0 18.43736,-33.8898,0 18.43723,-33.88891,0 18.43706,-33.88779,0 18.43689,-33.88672,0 18.43672,-33.88589,0 18.43646,-33.88481,0 18.43615,-33.88403,0 18.43573,-33.88307,0 18.43517,-33.88206,0 18.43472,-33.88138,0 18.43386,-33.88025,0 18.43321,-33.87955,0 18.43237,-33.87877,0 18.43174,-33.87816,0 18.4308,-33.8774,0 18.43002,-33.87685,0 18.42906,-33.87621,0 18.42788,-33.87561,0 18.42693,-33.87523,0 18.42585,-33.87485,0 18.42493,-33.87457,0 18.42396,-33.87428,0 18.42276,-33.87406,0 18.42161,-33.87383,0 18.42041,-33.87364,0 18.41953,-33.87355,0 18.41813,-33.87337,0 18.41712,-33.87328,0 18.41578,-33.87322,0 18.41475,-33.87327,0 18.41372,-33.87327,0 18.41264,-33.87332,0 18.41124,-33.87346,0 18.41023,-33.87355,0 18.40894,-33.87373,0 18.40759,-33.87397,0 18.40616,-33.87425,0 18.40502,-33.87453,0 18.40401,-33.87479,0 18.40233,-33.87527,0 18.4012,-33.87556,0 18.39993,-33.87597,0 18.39867,-33.87639,0 18.39767,-33.87671,0 18.39672,-33.87709,0 18.39537,-33.87758,0 18.3942,-33.87804,0 18.39317,-33.87844,0 18.3918,-33.8789,0 18.39078,-33.87923,0 18.38938,-33.87973,0 18.38831,-33.88016,0 18.38751,-33.88053,0 18.38657,-33.88097,0 18.38545,-33.88146,0 18.38444,-33.88193,0 18.38355,-33.88234,0 18.38236,-33.88291,0 18.38173,-33.88323,0 18.3807,-33.88379,0 18.37996,-33.88426,0 18.37912,-33.88486,0 18.37841,-33.88547,0 18.37767,-33.88621,0 18.37698,-33.88691,0 18.37635,-33.88747,0 18.37559,-33.88811,0 18.37492,-33.88858,0 18.37407,-33.88916,0 18.37315,-33.8898,0 18.37256,-33.89021,0 18.37155,-33.89095,0 18.37097,-33.89143,0 18.36988,-33.89222,0 18.3692,-33.89278,0 18.3684,-33.89338,0 18.3676,-33.89399,0 18.36707,-33.89442,0 18.36617,-33.8952,0 18.36539,-33.89584,0 18.36451,-33.89659,0 18.36393,-33.89711,0 18.36303,-33.89795,0 18.36241,-33.89859,0 18.36157,-33.89937,0 18.36096,-33.90005,0 18.3601,-33.90088,0 18.35941,-33.90167,0 18.35872,-33.90239,0 18.3581,-33.90311,0 18.35731,-33.90404,0 18.35675,-33.90477,0 18.35598,-33.90572,0 18.35541,-33.90642,0 18.35462,-33.90747,0 18.35421,-33.90805,0 18.35328,-33.9093,0 18.35283,-33.91,0 18.35216,-33.911,0 18.35152,-33.91205,0 18.35092,-33.91301,0 18.35043,-33.91386,0 18.3498,-33.91493,0 18.34935,-33.91566,0 18.34871,-33.91652,0 18.34784,-33.91754,0 18.34717,-33.91829,0 18.34625,-33.91917,0 18.34545,-33.92001,0 18.34459,-33.92097,0 18.34396,-33.92173,0 18.3433,-33.92253,0 18.34252,-33.92345,0 18.34179,-33.92432,0 18.34105,-33.92527,0 18.34036,-33.92616,0 18.33938,-33.92734,0 18.33882,-33.92812,0 18.33818,-33.92895,0 18.33761,-33.92969,0 18.33681,-33.93072,0 18.3363,-33.93142,0 18.33573,-33.93228,0 18.33504,-33.93328,0 18.33383,-33.93498,0 18.33321,-33.93593,0 18.33265,-33.93677,0 18.33212,-33.93765,0 18.33158,-33.93855,0 18.33114,-33.93933,0 18.33052,-33.9404,0 18.33002,-33.94135,0 18.32945,-33.94231,0 18.32897,-33.9431,0 18.32845,-33.944,0 18.32783,-33.94505,0 18.32714,-33.94613,0 18.32648,-33.94707,0 18.32587,-33.94794,0 18.32531,-33.94876,0 18.32463,-33.94972,0 18.32407,-33.95055,0 18.32348,-33.95148,0 18.32291,-33.95227,0 18.32216,-33.95339,0 18.32161,-33.95425,0 18.32094,-33.95535,0 18.32027,-33.95641,0 18.31976,-33.95723,0 18.31914,-33.95824,0 18.31864,-33.95911,0 18.31802,-33.96021,0 18.31753,-33.96102,0 18.31678,-33.96237,0 18.31628,-33.96336,0 18.31555,-33.96465,0 18.31516,-33.96547,0 18.31454,-33.96661,0 18.31409,-33.96759,0 18.31359,-33.96858,0 18.31324,-33.96935,0 18.31278,-33.97038,0 18.31232,-33.97145,0 18.31186,-33.97238,0 18.31146,-33.97331,0 18.31107,-33.97412,0 18.31049,-33.97527,0 18.31006,-33.97623,0 18.3095,-33.97755,0 18.30905,-33.97861,0 18.3086,-33.97969,0 18.30821,-33.98058,0 18.30774,-33.98174,0 18.30731,-33.98282,0 18.307,-33.98369,0 18.3067,-33.98456,0 18.3063,-33.98566,0 18.30602,-33.98643,0 18.30563,-33.9874,0 18.30524,-33.98831,0 18.30488,-33.98914,0 18.30462,-33.98987,0 18.30431,-33.99044,0 18.30384,-33.99138,0 18.30334,-33.99216,0 18.30294,-33.9928,0 18.30231,-33.9937,0 18.30193,-33.9944,0 18.3016,-33.995,0 18.30116,-33.99584,0 18.30065,-33.99668,0 18.30036,-33.99724,0 18.29992,-33.99806,0 18.29962,-33.99868,0 18.29922,-33.99943,0 18.29879,-34.00031,0 18.29842,-34.0011,0 18.29802,-34.0019,0 18.29773,-34.00255,0 18.29727,-34.00352,0 18.29689,-34.00443,0 18.29633,-34.00575,0 18.29596,-34.00664,0 18.2956,-34.00754,0 18.29527,-34.00841,0 18.29498,-34.0092,0 18.2947,-34.00996,0 18.29437,-34.01088,0 18.29407,-34.01171,0 18.29381,-34.01253,0 18.2935,-34.01353,0 18.2933,-34.01422,0 18.29298,-34.01516,0 18.2928,-34.01591,0 18.29189,-34.01907,0 18.29172,-34.01963,0 18.29134,-34.02063,0 18.29115,-34.02121,0 18.29086,-34.02205,0 18.29069,-34.0228,0 18.29039,-34.0237,0 18.29022,-34.02434,0 18.29,-34.02508,0 18.28978,-34.02582,0 18.2896,-34.02649,0 18.28932,-34.02745,0 18.2891,-34.02823,0 18.28893,-34.02896,0 18.28871,-34.02974,0 18.28854,-34.03065,0 18.28829,-34.03155,0 18.28815,-34.03226,0 18.288,-34.03318,0 18.28786,-34.03409,0 18.28777,-34.03499,0 18.28775,-34.03574,0 18.2877,-34.03665,0 18.28766,-34.03755,0 18.28766,-34.0383,0 18.2876,-34.03918,0 18.28764,-34.03986,0 18.2876,-34.04072,0 18.28764,-34.04169,0 18.28764,-34.04242,0 18.2877,-34.04315,0 18.28775,-34.04416,0 18.28783,-34.04491,0 18.28794,-34.04561,0 18.28809,-34.04649,0 18.28826,-34.04723,0 18.28846,-34.04817,0 18.28869,-34.04891,0 18.28887,-34.04951,0 18.28926,-34.05045,0 18.28955,-34.05115,0 18.28983,-34.05185,0 18.29018,-34.05273,0 18.29044,-34.05327,0 18.29083,-34.05414,0 18.29121,-34.05492,0 18.29149,-34.05561,0 18.29184,-34.05627,0 18.29218,-34.05707,0 18.29247,-34.05776,0 18.29281,-34.05846,0 18.29308,-34.05913,0 18.29344,-34.05994,0 18.29369,-34.06059,0 18.29403,-34.06142,0 18.2943,-34.06218,0 18.29459,-34.06293,0 18.29487,-34.06353,0 18.2951,-34.06421,0 18.29527,-34.06488,0 18.2955,-34.06581,0 18.29561,-34.06651,0 18.29582,-34.06741,0 18.29599,-34.06815,0 18.29622,-34.06906,0 18.29636,-34.06972,0 18.29661,-34.07062,0 18.29683,-34.07158,0 18.297,-34.07231,0 18.29723,-34.07314,0 18.29744,-34.07405,0 18.29773,-34.07487,0 18.29795,-34.07561,0 18.2983,-34.07647,0 18.29863,-34.07735,0 18.29893,-34.07805,0 18.29927,-34.0787,0 18.29958,-34.07927,0 18.30002,-34.08006,0 18.30059,-34.08084,0 18.30093,-34.08136,0 18.30145,-34.08206,0 18.30202,-34.08276,0 18.30249,-34.08334,0 18.30294,-34.08383,0 18.30351,-34.08453,0 18.30418,-34.08527,0 18.30488,-34.08606,0 18.30541,-34.08664,0 18.30591,-34.08723,0 18.30643,-34.08774,0 18.30715,-34.08852,0 18.3078,-34.08918,0 18.30837,-34.08979,0 18.30883,-34.09026,0 18.30963,-34.091,0 18.31032,-34.09155,0 18.31096,-34.09209,0 18.31163,-34.09262,0 18.31221,-34.09314,0 18.31286,-34.0936,0 18.31348,-34.0941,0 18.31426,-34.0947,0 18.31501,-34.09528,0 18.31589,-34.09598,0 18.31662,-34.09648,0 18.31724,-34.09694,0 18.31787,-34.09742,0 18.31873,-34.09807,0 18.31959,-34.09868,0 18.32039,-34.09919,0 18.32119,-34.0997,0 18.32189,-34.10014,0 18.32267,-34.10056,0 18.32329,-34.10097,0 18.32405,-34.10138,0 18.32475,-34.10175,0 18.32542,-34.10217,0 18.32626,-34.10262,0 18.32685,-34.10296,0 18.32744,-34.10326,0 18.32817,-34.10362,0 18.32867,-34.1039,0 18.3294,-34.10426,0 18.32983,-34.1045,0 18.33041,-34.10481,0 18.33097,-34.10518,0 18.33172,-34.10561,0 18.33215,-34.10587,0 18.33281,-34.10622,0 18.33332,-34.1065,0 18.33388,-34.10683,0 18.33447,-34.1071,0 18.33498,-34.10733,0 18.33568,-34.1077,0 18.33624,-34.10799,0 18.3368,-34.10825,0 18.33727,-34.10845,0 18.33786,-34.1087,0 18.33848,-34.10898,0 18.33904,-34.1092,0 18.33966,-34.10944,0 18.34019,-34.10971,0 18.34078,-34.10999,0 18.34127,-34.11018,0 18.34173,-34.11041,0 18.34235,-34.11072,0 18.34282,-34.11092,0 18.34341,-34.11118,0 18.34391,-34.11139,0 18.34453,-34.11163,0 18.34509,-34.11186,0 18.34562,-34.11208,0 18.3461,-34.11223,0 18.34672,-34.11241,0 18.34728,-34.11264,0 18.34801,-34.11292,0 18.34863,-34.1131,0 18.34935,-34.11328,0 18.35014,-34.11353,0 18.35072,-34.11367,0 18.35137,-34.11383,0 18.35197,-34.11395,0 18.35277,-34.11406,0 18.35358,-34.11413,0 18.35426,-34.11418,0 18.35506,-34.11432,0 18.35575,-34.11446,0 18.35661,-34.11464,0 18.35743,-34.11484,0 18.3581,-34.11507,0 18.35884,-34.1153,0 18.3595,-34.11552,0 18.36028,-34.11575,0 18.36113,-34.11603,0 18.36191,-34.1163,0 18.36279,-34.1166,0 18.36353,-34.11688,0 18.36432,-34.11713,0 18.36485,-34.1173,0 18.36565,-34.11753,0 18.36634,-34.11777,0 18.36701,-34.11795,0 18.36897,-34.11855,0 18.36954,-34.11874,0 18.37029,-34.11893,0 18.37086,-34.11902,0 18.37161,-34.11919,0 18.37234,-34.11935,0 18.37312,-34.11955,0 18.37396,-34.11974,0 18.37458,-34.1199,0 18.37538,-34.12009,0 18.37615,-34.12029,0 18.37687,-34.12046,0 18.37767,-34.12065,0 18.3783,-34.12083,0 18.37889,-34.12097,0 18.37962,-34.12115,0 18.38024,-34.1213,0 18.38091,-34.12148,0 18.38142,-34.12157,0 18.38198,-34.1217,0 18.38243,-34.12184,0 18.38304,-34.12202,0 18.38366,-34.12221,0 18.38419,-34.12233,0 18.38459,-34.12246,0 18.38533,-34.1227,0 18.38591,-34.12288,0 18.3864,-34.12308,0 18.38691,-34.12326,0 18.38757,-34.12344,0 18.38831,-34.12367,0 18.38888,-34.12386,0 18.38943,-34.12404,0 18.39014,-34.12428,0 18.39083,-34.12454,0 18.39134,-34.1247,0 18.39195,-34.12491,0 18.39277,-34.12516,0 18.39334,-34.12535,0 18.39403,-34.12554,0 18.39459,-34.12569,0 18.39523,-34.12591,0 18.39582,-34.12605,0 18.39638,-34.12624,0 18.39694,-34.12642,0 18.39773,-34.12665,0 18.39821,-34.12679,0 18.39872,-34.12698,0 18.39924,-34.12711,0 18.39987,-34.1273,0 18.40044,-34.12754,0 18.40092,-34.1277,0 18.40154,-34.12793,0 18.40204,-34.1281,0 18.40244,-34.12825,0 18.4029,-34.12842,0 18.40333,-34.12857,0 18.40393,-34.12875,0 18.40434,-34.12885,0 18.4049,-34.12903,0 18.4053,-34.12917,0 18.40574,-34.1293,0 18.4063,-34.12953,0 18.4067,-34.12967,0 18.40714,-34.12982,0 18.40771,-34.13004,0 18.40811,-34.13019,0 18.40862,-34.13038,0 18.40902,-34.13052,0 18.40944,-34.13068,0 18.40995,-34.13086,0 18.41034,-34.13099,0 18.41068,-34.13108,0 18.41125,-34.13126,0 18.41166,-34.13145,0 18.41206,-34.13159,0 18.41241,-34.13168,0 18.41286,-34.13187,0 18.41326,-34.13196,0 18.4137,-34.13214,0 18.41406,-34.13224,0 18.41446,-34.13238,0 18.41497,-34.13252,0 18.4155,-34.13269,0 18.41589,-34.1328,0 18.41639,-34.13297,0 18.41673,-34.13306,0 18.41729,-34.13324,0 18.41778,-34.1334,0 18.41824,-34.13359,0 18.4188,-34.13379,0 18.41938,-34.13396,0 18.41995,-34.1342,0 18.42052,-34.13438,0 18.4211,-34.13457,0 18.42173,-34.1348,0 18.42239,-34.13503,0 18.42312,-34.13525,0 18.42384,-34.1355,0 18.42436,-34.13564,0 18.4251,-34.13583,0 18.42575,-34.13599,0 18.42636,-34.1361,0 18.42682,-34.13622,0 18.42743,-34.13631,0 18.42791,-34.13643,0 18.42856,-34.13654,0 18.42906,-34.13663,0 18.42951,-34.13671,0 18.43007,-34.13681,0 18.43071,-34.13689,0 18.43134,-34.13699,0 18.43175,-34.13708,0 18.43248,-34.13722,0 18.43311,-34.13731,0 18.43369,-34.13741,0 18.43433,-34.1375,0 18.43506,-34.13759,0 18.43556,-34.13768,0 18.43615,-34.13773,0 18.43666,-34.13773,0 18.43712,-34.13778,0 18.43775,-34.13786,0 18.43826,-34.13787,0 18.43881,-34.13791,0 18.43943,-34.13786,0 18.43988,-34.13786,0 18.44061,-34.13777,0 18.44128,-34.13768,0 18.44175,-34.13759,0 18.4424,-34.13745,0 18.44324,-34.13727,0 18.44386,-34.13708,0 18.44459,-34.1369,0 18.44519,-34.13676,0 18.44582,-34.13654,0 18.44644,-34.13635,0 18.44722,-34.13612,0 18.44795,-34.13585,0 18.44851,-34.13564,0 18.44913,-34.13539,0 18.44994,-34.13503,0 18.45064,-34.1347,0 18.45131,-34.13433,0 18.45211,-34.13391,0 18.45268,-34.13354,0 18.45322,-34.13319,0 18.45395,-34.13269,0 18.45451,-34.13232,0 18.45507,-34.13191,0 18.45552,-34.13164,0 18.4564,-34.13103,0 18.45715,-34.13052,0 18.45787,-34.12999,0 18.45852,-34.12949,0 18.45905,-34.12907,0 18.45972,-34.12857,0 18.46035,-34.1281,0 18.46098,-34.12754,0 18.46161,-34.12693,0 18.4623,-34.12628,0 18.4628,-34.12578,0 18.46337,-34.12523,0 18.46409,-34.12445,0 18.46471,-34.12372,0 18.46544,-34.12289,0 18.46613,-34.12204,0 18.46684,-34.12125,0 18.4675,-34.1206,0 18.46825,-34.11986,0 18.46893,-34.11911,0 18.46959,-34.11845,0 18.47019,-34.11767,0 18.47071,-34.11697,0 18.47128,-34.11604,0 18.47166,-34.1153,0 18.47205,-34.11452,0 18.47239,-34.11374,0 18.47277,-34.11269,0 18.47306,-34.11186,0 18.4734,-34.11078,0 18.47374,-34.10971,0 18.47396,-34.1088,0 18.4742,-34.10766,0 18.47443,-34.10673,0 18.47458,-34.1055,0 18.47469,-34.10454,0 18.4748,-34.10335,0 18.47488,-34.10235,0 18.47491,-34.10115,0 18.47494,-34.09993,0 18.47497,-34.09895,0 18.47494,-34.09761,0 18.47491,-34.09639,0 18.47488,-34.09523,0 18.4748,-34.0941,0 18.47477,-34.09309,0 18.47471,-34.09169,0 18.4746,-34.09062,0 18.47452,-34.08916,0 18.47448,-34.08825,0 18.47437,-34.08694,0 18.47424,-34.08559,0 18.47418,-34.08453,0 18.47403,-34.08318,0 18.47391,-34.08196,0 18.47345,-34.0767,0 18.47328,-34.07405,0 18.47323,-34.07309,0 18.47322,-34.07191,0 18.47318,-34.07039,0 18.47317,-34.06921,0 18.47317,-34.06809,0 18.47312,-34.0643,0 18.47312,-34.06046,0 18.47295,-34.05569,0 18.47282,-34.05208,0 18.47273,-34.04837,0 18.47277,-34.04328,0 18.47273,-34.03862,0 18.47265,-34.0349,0 18.47261,-34.03143,0 18.47261,-34.03038,0 18.47256,-34.0291,0 18.47256,-34.02805,0 18.47256,-34.02713,0 18.47254,-34.02568,0 18.4725,-34.0247,0 18.47245,-34.02365,0 18.47245,-34.02223,0 18.47245,-34.02118,0 18.47242,-34.01958,0 18.47242,-34.01838,0 18.47245,-34.01711,0 18.47245,-34.01605,0 18.47254,-34.01469,0 18.47261,-34.01367,0 18.47273,-34.01234,0 18.47278,-34.01134,0 18.47295,-34.0101,0 18.47305,-34.00906,0 18.47317,-34.00822,0 18.47334,-34.00703,0 18.47351,-34.00581,0 18.47368,-34.00488,0 18.4739,-34.00365,0 18.47408,-34.00273,0 18.47431,-34.00148,0 18.47452,-34.00026,0 18.47471,-33.99938,0 18.47491,-33.9982,0 18.47511,-33.9971,0 18.4754,-33.9957,0 18.47558,-33.99472,0 18.47643,-33.99028,0 18.47671,-33.9884,0 18.47689,-33.98742,0 18.477,-33.98648,0 18.47717,-33.98528,0 18.47721,-33.98447,0 18.47729,-33.98323,0 18.47734,-33.98211,0 18.47734,-33.98113,0 18.47738,-33.97993,0 18.47746,-33.97862,0 18.47752,-33.97755,0 18.47757,-33.97638,0 18.47755,-33.97545,0 18.47755,-33.97426,0 18.47755,-33.97284,0 18.47755,-33.97174,0 18.47752,-33.97089,0 18.47743,-33.96945,0 18.4774,-33.96852,0 18.47738,-33.96748,0 18.47729,-33.96624,0 18.47721,-33.96519,0 18.47715,-33.9641,0 18.47706,-33.96284,0 18.477,-33.96186,0 18.47694,-33.96088,0 18.47693,-33.9597,0 18.47694,-33.95874,0 18.477,-33.95781,0 18.47706,-33.95688,0 18.4771,-33.95595,0 18.47717,-33.95483,0 18.47721,-33.95403,0 18.47715,-33.95288,0 18.47712,-33.95208,0 18.47704,-33.95096,0 18.47699,-33.95013,0 18.47689,-33.94943,0 18.47672,-33.94836,0 18.47648,-33.94743,0 18.47631,-33.94656,0 18.47609,-33.94569,0 18.4757,-33.94455,0 18.47542,-33.94368,0 18.47511,-33.94263,0 18.47469,-33.94153,0 18.47424,-33.94038,0 18.47385,-33.93937,0 18.4734,-33.93837,0 18.47312,-33.93764,0 18.47267,-33.93668,0 18.47214,-33.93556,0 18.47162,-33.93444,0 18.47121,-33.93361,0 18.47065,-33.93251,0 18.47026,-33.93178,0 18.4697,-33.93073,0 18.46916,-33.92978,0 18.46848,-33.92862,0 18.46796,-33.92775,0 18.4671,-33.92643,0 18.46642,-33.92541,0 18.46579,-33.92453,0 18.46521,-33.92369,0 18.46447,-33.92271,0 18.46353,-33.92152,0 18.46287,-33.92066,0 18.46202,-33.9196,0 18.46146,-33.91896,0 18.46064,-33.91796,0 18.45955,-33.91672,0 18.45892,-33.91596,0 18.45827,-33.91521,0 18.45743,-33.91428,0 18.4567,-33.91347,0 18.45591,-33.91255,0 18.45513,-33.91159,0 18.45451,-33.91088,0 18.45372,-33.90994,0 18.45316,-33.90916,0 18.45243,-33.90825,0 18.45176,-33.90733,0 18.45126,-33.90665,0 18.45062,-33.90581,0 18.4498,-33.90477,0 18.44925,-33.90409,0 18.44868,-33.9034,0 18.44793,-33.90241,0 18.44736,-33.90167,0 18.44673,-33.90097,0 18.44604,-33.90001,0 18.44416,-33.89762,0 18.44296,-33.89607,0 18.44223,-33.89516,0 18.44167,-33.89447,0 18.44089,-33.89355,0 18.44015,-33.89268,0 18.43952,-33.89198,0 18.43895,-33.89133,0 18.43814,-33.89049,0 18.43741,-33.88966,0 18.43668,-33.88898,0 18.43592,-33.88835,0 18.43506,-33.8877,0 18.43426,-33.88733,0 18.43332,-33.8871,0 18.43248,-33.88705,0 18.43168,-33.88714,0 18.43074,-33.88756,0 18.43019,-33.88798,0 18.42962,-33.88873,0 18.42934,-33.88934,0 18.42912,-33.89026,0 18.42899,-33.89096,0 18.42889,-33.89172,0 18.42884,-33.89227,0 18.42882,-33.89291,0 18.42889,-33.89337,0 18.42889,-33.89397,0 18.42888,-33.89426,0 18.42876,-33.89455,0 18.42865,-33.89478,0 18.4285,-33.89502,0 18.42836,-33.89529,0 18.42813,-33.89571,0 18.428,-33.89598,0 18.42791,-33.89622,0 18.42773,-33.89655,0 18.42762,-33.89678,0 18.42749,-33.89713,0 18.42743,-33.89735,0 18.42743,-33.8979,0 18.42743,-33.89813,0 18.42743,-33.89841,0 18.42745,-33.89878,0 18.42743,-33.89914,0 18.42738,-33.89946,0 18.42732,-33.89969,0 18.42727,-33.89992,0 18.42727,-33.90015,0 18.42727,-33.90038,0 18.42756,-33.90064,0 18.42811,-33.90074,0 18.42842,-33.90074,0 18.42872,-33.90074,0 18.42934,-33.9007,0 18.42962,-33.90069,0 18.43002,-33.90069,0 18.43025,-33.90064,0 18.43074,-33.90065,0 18.43108,-33.9006,0 18.43153,-33.90056,0 18.43203,-33.90051,0 18.43231,-33.90047,0 18.43276,-33.90038,0 18.43317,-33.90032,0 18.43351,-33.90022,0 18.43386,-33.90013,0 18.43409,-33.90004,0 18.43454,-33.89981,0 18.43489,-33.8996,0 18.43512,-33.89943,0 18.43546,-33.89911,0 18.43586,-33.89874,0 18.43629,-33.89809,0 18.43649,-33.89771,0 18.43668,-33.89735,0 18.43683,-33.89692,0 18.43706,-33.89618,0 18.43729,-33.8952,0 18.4374,-33.89441,0 18.43747,-33.89355,0 18.43746,-33.89254,0 18.43746,-33.89189,0 18.43741,-33.89085,0 18.43735,-33.89003,0 18.43729,-33.88877,0 18.43718,-33.88794,0 18.43702,-33.88687,0 18.43689,-33.88612,0 18.43657,-33.88499,0 18.43629,-33.88408,0 18.43592,-33.88323,0 18.4354,-33.88216,0 18.435,-33.88142,0 18.43461,-33.88083,0 18.43382,-33.87978,0 18.43321,-33.87909,0 18.43242,-33.87827,0 18.43151,-33.87746,0 18.43094,-33.877,0 18.4299,-33.87625,0 18.42899,-33.87574,0 18.42808,-33.87527,0 18.42693,-33.87479,0 18.42575,-33.87437,0 18.4247,-33.87406,0 18.42373,-33.87378,0 18.42241,-33.87346,0 18.42133,-33.87323,0 18.42024,-33.87304,0 18.41886,-33.87277,0 18.41785,-33.87263,0 18.41703,-33.87257,0 18.41543,-33.87243,0 18.41429,-33.87234,0 18.41325,-33.87231,0 18.41196,-33.87227,0 18.41084,-33.87227,0 18.40944,-33.87227,0 18.40822,-33.87225,0 18.4072,-33.87227,0 18.40616,-33.87229,0 18.40479,-33.87236,0 18.40372,-33.87245,0 18.40255,-33.87259,0 18.40147,-33.87281,0 18.40031,-33.87305,0 18.3993,-33.87332,0 18.39806,-33.87369,0 18.39712,-33.87402,0 18.39616,-33.87437,0 18.39498,-33.87483,0 18.39397,-33.87523,0 18.39294,-33.87564,0 18.39214,-33.87602,0 18.39083,-33.87658,0 18.39005,-33.87694,0 18.38898,-33.87744,0 18.38792,-33.87799,0 18.3868,-33.87859,0 18.38618,-33.87891,0 18.38506,-33.87959,0 18.38422,-33.8801,0 18.38338,-33.88065,0 18.38237,-33.88124,0 18.38139,-33.88188,0 18.38053,-33.88239,0 18.37962,-33.88293,0 18.37861,-33.88358,0 18.37766,-33.88412,0 18.37665,-33.88481,0 18.37564,-33.88545,0 18.37486,-33.88605,0 18.37385,-33.88673,0 18.37309,-33.88728,0 18.37217,-33.88792,0 18.37121,-33.88866,0 18.37046,-33.88919,0 18.36953,-33.88985,0 18.36869,-33.8904,0 18.36763,-33.89108,0 18.36679,-33.89163,0 18.36595,-33.89218,0 18.36494,-33.89291,0 18.36416,-33.89347,0 18.3633,-33.89408,0 18.36239,-33.89478,0 18.3617,-33.89529,0 18.36079,-33.89603,0 18.36006,-33.89662,0 18.35936,-33.8972,0 18.35844,-33.89799,0 18.3577,-33.89869,0 18.35692,-33.89946,0 18.35604,-33.90027,0 18.35524,-33.90111,0 18.35461,-33.90176,0 18.3539,-33.90253,0 18.35318,-33.90325,0 18.35244,-33.90404,0 18.3516,-33.90491,0 18.35094,-33.90562,0 18.35031,-33.90628,0 18.34963,-33.90702,0 18.34891,-33.90779,0 18.34831,-33.90851,0 18.3475,-33.90939,0 18.34599,-33.91113,0 18.34539,-33.91196,0 18.34465,-33.91289,0 18.34397,-33.9137,0 18.34336,-33.91447,0 18.34263,-33.91544,0 18.3419,-33.91647,0 18.34128,-33.91731,0 18.34072,-33.91818,0 18.33996,-33.91931,0 18.33921,-33.92048,0 18.33859,-33.92139,0 18.33792,-33.92258,0 18.33736,-33.92354,0 18.3368,-33.92445,0 18.33618,-33.92569,0 18.33562,-33.92683,0 18.33515,-33.92774,0 18.33452,-33.92904,0 18.33394,-33.93022,0 18.33332,-33.93141,0 18.33282,-33.93246,0 18.33226,-33.93352,0 18.33192,-33.9343,0 18.33126,-33.93546,0 18.3308,-33.93631,0 18.33012,-33.93751,0 18.32951,-33.93855,0 18.32777,-33.94161,0 18.32581,-33.94492,0 18.32447,-33.94716,0 18.3229,-33.94995,0 18.32073,-33.95371,0 18.31907,-33.95678,0 18.31701,-33.96057,0 18.3153,-33.96377,0 18.31364,-33.96689,0 18.31203,-33.9701,0 18.31032,-33.97373,0 18.30905,-33.97664,0 18.3078,-33.97941,0 18.3066,-33.98211,0 18.30528,-33.98509,0 18.30408,-33.98788,0 18.303,-33.9906,0 18.30265,-33.99156,0 18.30249,-33.99229,0 18.30248,-33.99324,0 18.30272,-33.99413,0 18.30317,-33.99495,0 18.30362,-33.99561,0 18.30423,-33.99623,0 18.30488,-33.99668,0 18.3058,-33.99719,0 18.30687,-33.99765,0 18.30793,-33.99797,0 18.309,-33.99817,0 18.30995,-33.99825,0 18.31083,-33.99821,0 18.31181,-33.99812,0 18.31289,-33.99789,0 18.31381,-33.99761,0 18.31477,-33.99719,0 18.3155,-33.99678,0 18.31627,-33.99631,0 18.31718,-33.99575,0 18.31787,-33.99529,0 18.31867,-33.99472,0 18.31948,-33.99417,0 18.32032,-33.99353,0 18.32105,-33.99298,0 18.32189,-33.99239,0 18.32256,-33.99188,0 18.32331,-33.99133,0 18.32424,-33.9906,0 18.32502,-33.98997,0 18.32582,-33.98933,0 18.32654,-33.98868,0 18.32708,-33.98821,0 18.32777,-33.98751,0 18.3285,-33.98666,0 18.32906,-33.98593,0 18.3296,-33.98509,0 18.32996,-33.98447,0 18.33057,-33.98346,0 18.33166,-33.98146,0 18.33206,-33.98076,0 18.33258,-33.97992,0 18.33315,-33.97906,0 18.3336,-33.97838,0 18.33411,-33.9776,0 18.33467,-33.97687,0 18.33515,-33.97624,0 18.33595,-33.97531,0 18.33652,-33.97462,0 18.33719,-33.97389,0 18.33786,-33.97307,0 18.3387,-33.97206,0 18.33939,-33.97131,0 18.34013,-33.97038,0 18.3407,-33.96959,0 18.34123,-33.96881,0 18.34173,-33.96805,0 18.34229,-33.96725,0 18.34274,-33.96661,0 18.34352,-33.96565,0 18.34408,-33.96493,0 18.3447,-33.96423,0 18.34554,-33.96323,0 18.34638,-33.96217,0 18.34711,-33.96126,0 18.34767,-33.96048,0 18.34814,-33.9599,0 18.34894,-33.95888,0 18.34958,-33.95796,0 18.35003,-33.95744,0 18.35087,-33.95627,0 18.35205,-33.95457,0 18.35266,-33.95367,0 18.35323,-33.95274,0 18.35398,-33.95162,0 18.35461,-33.95069,0 18.35512,-33.94989,0 18.35558,-33.94915,0 18.35615,-33.94827,0 18.35655,-33.94757,0 18.35712,-33.94668,0 18.35754,-33.94597,0 18.35793,-33.94524,0 18.35838,-33.9445,0 18.35888,-33.94354,0 18.3593,-33.94287,0 18.35964,-33.94221,0 18.36006,-33.94153,0 18.36051,-33.94084,0 18.36102,-33.93993,0 18.36147,-33.93919,0 18.36193,-33.9383,0 18.36245,-33.93728,0 18.36279,-33.93644,0 18.3633,-33.93537,0 18.36376,-33.93448,0 18.36422,-33.9336,0 18.36477,-33.93251,0 18.36531,-33.93146,0 18.36583,-33.9304,0 18.36628,-33.92955,0 18.36673,-33.92867,0 18.36708,-33.92792,0 18.36765,-33.92694,0 18.36811,-33.92611,0 18.36869,-33.92514,0 18.36914,-33.92439,0 18.36977,-33.92345,0 18.37043,-33.92249,0 18.37088,-33.92194,0 18.37161,-33.92097,0 18.37217,-33.92033,0 18.37295,-33.91946,0 18.37351,-33.91882,0 18.37435,-33.91796,0 18.37503,-33.91727,0 18.37561,-33.91661,0 18.37646,-33.91568,0 18.37727,-33.91484,0 18.37794,-33.9142,0 18.37873,-33.91342,0 18.37962,-33.91264,0 18.38041,-33.91186,0 18.38121,-33.91112,0 18.38184,-33.91051,0 18.38265,-33.90976,0 18.38338,-33.90903,0 18.38419,-33.90823,0 18.38478,-33.90765,0 18.38562,-33.90688,0 18.38631,-33.90623,0 18.38728,-33.9053,0 18.38797,-33.90465,0 18.38887,-33.9039,0 18.38974,-33.90311,0 18.39055,-33.90253,0 18.39123,-33.90195,0 18.39214,-33.90129,0 18.39312,-33.9006,0 18.39386,-33.90009,0 18.39476,-33.89946,0 18.39546,-33.89897,0 18.39632,-33.89836,0 18.39734,-33.89777,0 18.39829,-33.89717,0 18.39895,-33.89678,0 18.40003,-33.89612,0 18.4009,-33.89566,0 18.40171,-33.89525,0 18.40261,-33.89478,0 18.40382,-33.89417,0 18.40473,-33.89374,0 18.40553,-33.89333,0 18.40664,-33.89278,0 18.40776,-33.89227,0 18.4086,-33.89186,0 18.40954,-33.89143,0 18.41062,-33.89095,0 18.41152,-33.89053,0 18.41228,-33.89022,0 18.41326,-33.8898,0 18.41432,-33.88934,0 18.41537,-33.88891,0 18.41618,-33.88858,0 18.41712,-33.8882,0 18.41824,-33.88779,0 18.41914,-33.88747,0 18.42009,-33.88715,0 18.42093,-33.88687,0 18.42173,-33.88659,0 18.42267,-33.88632,0 18.42361,-33.88602,0 18.42464,-33.88579,0 18.4255,-33.88556,0 18.42659,-33.88531,0 18.42749,-33.88518,0 18.42854,-33.88514,0 18.42923,-33.88527,0 18.4299,-33.88559,0 18.43052,-33.88614,0 18.43091,-33.88678,0 18.43102,-33.88724,0 18.43094,-33.88817,0 18.43071,-33.88887,0 18.43035,-33.88953,0 18.42985,-33.89031,0 18.42945,-33.89099,0 18.42922,-33.8917,0 18.42916,-33.89231,0 18.42923,-33.89287,0 18.42929,-33.89351,0 18.42928,-33.89413,0 18.42916,-33.89464,0 18.42894,-33.89529,0 18.42888,-33.89552,0 18.42878,-33.89575,0 18.42861,-33.89607,0 18.42856,-33.89635,0 18.42831,-33.89687,0 18.42825,-33.89711,0 18.42813,-33.89748,0 18.42802,-33.8979,0 18.42791,-33.89827,0 18.42779,-33.89859,0 18.42766,-33.899,0 18.42755,-33.89937,0 18.42743,-33.89973,0 18.42732,-33.89996,0 18.42732,-33.90019,0 18.42732,-33.90042,0 18.42751,-33.90064,0 18.42783,-33.90074,0 18.42819,-33.90083,0 18.4285,-33.90092,0 18.42929,-33.90111,0 18.42979,-33.90115,0 18.43002,-33.90115,0 18.43063,-33.90102,0 18.43088,-33.90092,0 18.43128,-33.90078,0 18.43158,-33.9006,0 18.43185,-33.90041,0 18.43231,-33.90015,0 18.43282,-33.89987,0 18.43321,-33.89964,0 18.43355,-33.89946,0 18.43388,-33.89928,0 18.43414,-33.89911,0 18.4346,-33.89878,0 18.43489,-33.8985,0 18.43523,-33.89809,0 18.43534,-33.89785,0 18.43556,-33.89745,0 18.43575,-33.89697,0 18.43584,-33.89662,0 18.43592,-33.89618,0 18.43618,-33.89516,0 18.43629,-33.89452,0 18.43643,-33.89361,0 18.43655,-33.89287,0 18.43663,-33.89186,0 18.43668,-33.89104,0 18.43674,-33.8903,0 18.43674,-33.88953,0 18.43678,-33.88858,0 18.43674,-33.88774,0 18.43672,-33.88696,0 18.4366,-33.88584,0 18.43655,-33.88491,0 18.4364,-33.88417,0 18.43618,-33.88339,0 18.43575,-33.88249,0 18.43511,-33.88156,0 18.43454,-33.88091,0 18.43399,-33.88028,0 18.43317,-33.87955,0 18.43254,-33.879,0 18.43163,-33.8783,0 18.4308,-33.87781,0 18.42974,-33.87718,0 18.42888,-33.87681,0 18.42785,-33.87643,0 18.42687,-33.87621,0 18.42573,-33.87602,0 18.4248,-33.87593,0 18.42379,-33.87589,0 18.42284,-33.87584,0 18.42167,-33.87579,0 18.4207,-33.87579,0 18.41972,-33.87574,0 18.41846,-33.87574,0 18.41723,-33.87579,0 18.41623,-33.87584,0 18.41503,-33.87597,0 18.41383,-33.87606,0 18.41257,-33.8762,0 18.4116,-33.87634,0 18.41034,-33.87662,0 18.40933,-33.8768,0 18.40855,-33.87698,0 18.40725,-33.87727,0 18.40622,-33.87746,0 18.4049,-33.87769,0 18.40361,-33.87794,0 18.40256,-33.87816,0 18.4016,-33.87836,0 18.40033,-33.87867,0 18.39907,-33.87895,0 18.39806,-33.87923,0 18.39695,-33.87955,0 18.39581,-33.87993,0 18.39459,-33.88037,0 18.39357,-33.88072,0 18.39252,-33.8811,0 18.3914,-33.88151,0 18.39038,-33.88193,0 18.38932,-33.88234,0 18.38831,-33.88277,0 18.3873,-33.88321,0 18.38614,-33.88374,0 18.38495,-33.88426,0 18.38405,-33.88472,0 18.38293,-33.88528,0 18.38196,-33.88575,0 18.38097,-33.88632,0 18.38013,-33.88677,0 18.37898,-33.88737,0 18.37805,-33.88792,0 18.37699,-33.88857,0 18.3762,-33.88907,0 18.37532,-33.88961,0 18.37452,-33.89008,0 18.37357,-33.89072,0 18.37278,-33.89127,0 18.37194,-33.89191,0 18.37121,-33.89246,0 18.37029,-33.8932,0 18.3696,-33.89384,0 18.36858,-33.89488,0 18.36794,-33.89552,0 18.36707,-33.89635,0 18.36639,-33.89699,0 18.36555,-33.89781,0 18.36485,-33.89846,0 18.36393,-33.89932,0 18.3633,-33.89994,0 18.36264,-33.9006,0 18.36185,-33.90143,0 18.3613,-33.90208,0 18.36068,-33.90285,0 18.35978,-33.90395,0 18.35922,-33.90468,0 18.35866,-33.90541,0 18.3581,-33.90618,0 18.35735,-33.90725,0 18.35686,-33.90788,0 18.35614,-33.90889,0 18.35564,-33.90958,0 18.35507,-33.91035,0 18.3544,-33.91132,0 18.35386,-33.91209,0 18.35328,-33.91287,0 18.35272,-33.91372,0 18.35092,-33.91635,0 18.35042,-33.91727,0 18.34991,-33.91818,0 18.34935,-33.91919,0 18.34891,-33.92006,0 18.3484,-33.92125,0 18.34801,-33.92216,0 18.34751,-33.92331,0 18.34711,-33.92415,0 18.34665,-33.92527,0 18.34621,-33.92624,0 18.34571,-33.92743,0 18.34522,-33.92844,0 18.34465,-33.92965,0 18.34409,-33.93086,0 18.34364,-33.93182,0 18.34319,-33.93274,0 18.34263,-33.93388,0 18.34218,-33.93484,0 18.34167,-33.93585,0 18.34013,-33.939,0 18.33967,-33.94003,0 18.33876,-33.94208,0 18.33842,-33.94331,0 18.33837,-33.94418,0 18.33865,-33.94533,0 18.33904,-33.94615,0 18.33973,-33.94682,0 18.34042,-33.94724,0 18.34139,-33.94753,0 18.34229,-33.94762,0 18.34316,-33.94757,0 18.34403,-33.94739,0 18.34504,-33.94693,0 18.34585,-33.9464,0 18.34672,-33.9456,0 18.3474,-33.94482,0 18.34801,-33.94418,0 18.34863,-33.94341,0 18.34946,-33.9424,0 18.34997,-33.94175,0 18.35064,-33.94084,0 18.35115,-33.94016,0 18.35163,-33.93951,0 18.35226,-33.93882,0 18.35295,-33.93826,0 18.35363,-33.93774,0 18.35426,-33.93732,0 18.35512,-33.93681,0 18.35581,-33.93639,0 18.35655,-33.93588,0 18.35731,-33.93535,0 18.35793,-33.93491,0 18.35866,-33.93434,0 18.35924,-33.93388,0 18.35987,-33.93328,0 18.36056,-33.93262,0 18.36118,-33.93205,0 18.36185,-33.93137,0 18.36253,-33.93063,0 18.36325,-33.92988,0 18.36376,-33.92932,0 18.36454,-33.92844,0 18.36519,-33.92769,0 18.36572,-33.92706,0 18.36623,-33.92638,0 18.36695,-33.92542,0 18.36754,-33.92476,0 18.368,-33.9242,0 18.36863,-33.92345,0 18.36931,-33.92257,0 18.36983,-33.92192,0 18.37032,-33.9212,0 18.37091,-33.92048,0 18.3716,-33.91968,0 18.37211,-33.9191,0 18.37303,-33.9181,0 18.3736,-33.9175,0 18.37412,-33.91698,0 18.37481,-33.91629,0 18.37553,-33.91557,0 18.37632,-33.91475,0 18.3771,-33.91402,0 18.37772,-33.91344,0 18.37839,-33.91278,0 18.37915,-33.91209,0 18.38018,-33.91121,0 18.38097,-33.91054,0 18.38167,-33.90991,0 18.38248,-33.90916,0 18.38338,-33.90839,0 18.38413,-33.90772,0 18.38478,-33.9072,0 18.38585,-33.90637,0 18.38663,-33.90578,0 18.38739,-33.9052,0 18.3882,-33.90463,0 18.3891,-33.90399,0 18.38991,-33.90343,0 18.39083,-33.9028,0 18.39167,-33.90211,0 18.39243,-33.90157,0 18.39334,-33.90092,0 18.39414,-33.90038,0 18.39523,-33.89976,0 18.39605,-33.89932,0 18.39695,-33.89887,0 18.39784,-33.89845,0 18.3989,-33.89794,0 18.39975,-33.89757,0 18.4007,-33.89713,0 18.4016,-33.89676,0 18.40244,-33.89641,0 18.40356,-33.89598,0 18.40473,-33.89557,0 18.40576,-33.8952,0 18.40664,-33.89484,0 18.40748,-33.8945,0 18.40862,-33.89399,0 18.40989,-33.89323,0 18.41084,-33.89268,0 18.41163,-33.89223,0 18.41246,-33.8917,0 18.41331,-33.89119,0 18.41429,-33.89068,0 18.41505,-33.89021,0 18.416,-33.88976,0 18.41692,-33.88924,0 18.41784,-33.88877,0 18.41886,-33.88824,0 18.41953,-33.88792,0 18.42048,-33.88747,0 18.42121,-33.8871,0 18.42207,-33.88677,0 18.4229,-33.88646,0 18.42385,-33.88614,0 18.42441,-33.88596,0 18.42522,-33.8857,0 18.42607,-33.88547,0 18.42699,-33.88523,0 18.42785,-33.88514,0 18.42872,-33.88522,0 18.42945,-33.88545,0 18.4299,-33.88577,0 18.43042,-33.88649,0 18.43063,-33.88715,0 18.43065,-33.88775,0 18.43042,-33.88854,0 18.42997,-33.88942,0 18.42951,-33.89012,0 18.42906,-33.89058,0 18.42848,-33.89119,0 18.428,-33.89186,0 18.42779,-33.89245,0 18.42783,-33.89291,0 18.42802,-33.89333,0 18.42833,-33.89369,0 18.42861,-33.89406,0 18.42878,-33.89447,0 18.42876,-33.89487,0 18.42861,-33.8952,0 18.4285,-33.89548,0 18.42836,-33.89571,0 18.42825,-33.89594,0 18.42808,-33.89645,0 18.42794,-33.8969,0 18.42791,-33.89734,0 18.42785,-33.89762,0 18.42777,-33.89809,0 18.42773,-33.89846,0 18.42766,-33.89882,0 18.4276,-33.89905,0 18.4276,-33.89937,0 18.42755,-33.8996,0 18.42756,-33.89985,0 18.42755,-33.9001,0 18.42755,-33.90033,0 18.42756,-33.90055,0</coordinates>
      </LineString>
    </Placemark>
  </Document>
</kml>
