<?xml version="1.0" encoding="UTF-8"?>
<kml xmlns="http://www.opengis.net/kml/2.2">
  <Document>
    <name>FR24 3f7c4555</name>
    <Placemark>
      <name>FR24 3f7c4555</name>
      <Style><LineStyle><color>ff0000ff</color><width>4</width></LineStyle></Style>
      <LineString>
        <tessellate>1</tessellate>
        <coordinates>18.43063,-33.89479,0 18.43197,-33.89273,0 18.43355,-33.8903,0 18.43443,-33.88882,0 18.43478,-33.8882,0 18.435,-33.8876,0 18.43511,-33.88701,0 18.43517,-33.88632,0 18.43506,-33.8856,0 18.43489,-33.88505,0 18.43449,-33.8844,0 18.43399,-33.88394,0 18.4334,-33.88351,0 18.43277,-33.88319,0 18.43185,-33.88291,0 18.43102,-33.88271,0 18.43024,-33.88261,0 18.42917,-33.88252,0 18.428,-33.88252,0 18.42693,-33.88257,0 18.42585,-33.88263,0 18.42493,-33.88268,0 18.4239,-33.88268,0 18.42293,-33.88272,0 18.42194,-33.88275,0 18.42075,-33.88277,0 18.42004,-33.8828,0 18.41875,-33.8828,0 18.4178,-33.8828,0 18.41686,-33.88286,0 18.41566,-33.88289,0 18.41446,-33.88295,0 18.41326,-33.883,0 18.41236,-33.88307,0 18.41114,-33.88309,0 18.41011,-33.88312,0 18.40891,-33.88314,0 18.40799,-33.88321,0 18.40703,-33.88326,0 18.40563,-33.88335,0 18.40451,-33.88344,0 18.40333,-33.88358,0 18.40227,-33.8837,0 18.40107,-33.88393,0 18.3998,-33.88422,0 18.39857,-33.88458,0 18.39745,-33.88499,0 18.39626,-33.88547,0 18.39495,-33.88602,0 18.39392,-33.88644,0 18.39274,-33.88696,0 18.39163,-33.88742,0 18.39031,-33.88803,0 18.38917,-33.88849,0 18.38814,-33.88896,0 18.38685,-33.88953,0 18.38562,-33.89003,0 18.38442,-33.89059,0 18.38339,-33.89105,0 18.38236,-33.89152,0 18.38029,-33.89255,0 18.37944,-33.89301,0 18.37839,-33.89355,0 18.37721,-33.89429,0 18.37618,-33.89501,0 18.37526,-33.89566,0 18.37418,-33.89669,0 18.37337,-33.89757,0 18.37239,-33.89868,0 18.37138,-33.90005,0 18.37063,-33.90111,0 18.37006,-33.90195,0 18.3692,-33.9032,0 18.36834,-33.9046,0 18.36765,-33.90567,0 18.36695,-33.90678,0 18.36599,-33.90837,0 18.36542,-33.90939,0 18.36468,-33.91074,0 18.36421,-33.91154,0 18.36342,-33.91298,0 18.36273,-33.91424,0 18.36208,-33.91544,0 18.3614,-33.91685,0 18.36079,-33.918,0 18.36012,-33.91942,0 18.35953,-33.92066,0 18.359,-33.9218,0 18.35821,-33.92345,0 18.3577,-33.92471,0 18.35718,-33.92578,0 18.35664,-33.92706,0 18.35614,-33.9283,0 18.35552,-33.92983,0 18.35512,-33.93085,0 18.35451,-33.93251,0 18.35406,-33.93375,0 18.35367,-33.93498,0 18.35322,-33.93626,0 18.35272,-33.93784,0 18.35227,-33.93915,0 18.3518,-33.94072,0 18.35132,-33.94235,0 18.35094,-33.94366,0 18.35049,-33.94519,0 18.35003,-33.94679,0 18.34957,-33.94841,0 18.34866,-33.95143,0 18.3484,-33.95238,0 18.35911,-33.95737,0 18.35972,-33.95384,0 18.36006,-33.95055,0 18.36012,-33.94963,0 18.36021,-33.94836,0 18.36028,-33.94734,0 18.36033,-33.94622,0 18.36039,-33.94524,0 18.36045,-33.94391,0 18.36051,-33.94286,0 18.36061,-33.94194,0 18.36079,-33.94035,0 18.3609,-33.93924,0 18.36113,-33.93821,0 18.36142,-33.93686,0 18.3617,-33.93579,0 18.36205,-33.93467,0 18.36236,-33.93365,0 18.36296,-33.9323,0 18.36348,-33.93114,0 18.36411,-33.92997,0 18.36466,-33.92899,0 18.36516,-33.92807,0 18.36576,-33.92694,0 18.36634,-33.92596,0 18.36691,-33.92494,0 18.36748,-33.92406,0 18.36817,-33.92289,0 18.36869,-33.92207,0 18.36926,-33.92117,0 18.36983,-33.92029,0 18.37051,-33.91927,0 18.37109,-33.91838,0 18.37183,-33.91736,0 18.37257,-33.91642,0 18.3734,-33.91553,0 18.37413,-33.91484,0 18.37515,-33.91391,0 18.37592,-33.91315,0 18.37676,-33.91232,0 18.37766,-33.9115,0 18.37873,-33.91049,0 18.37957,-33.90971,0 18.38058,-33.90879,0 18.38147,-33.90797,0 18.38248,-33.90701,0 18.38316,-33.90637,0 18.38433,-33.90523,0 18.38512,-33.90445,0 18.38614,-33.90353,0 18.38888,-33.90092,0 18.38991,-33.89999,0 18.39077,-33.89925,0 18.39156,-33.89854,0 18.39272,-33.89766,0 18.39369,-33.8969,0 18.39489,-33.89594,0 18.39581,-33.8952,0 18.39684,-33.89436,0 18.39775,-33.89366,0 18.39867,-33.89296,0 18.39991,-33.89204,0 18.40087,-33.89131,0 18.40182,-33.89063,0 18.40272,-33.88994,0 18.4067,-33.88696,0 18.40989,-33.88467,0 18.41406,-33.88184,0 18.41543,-33.88105,0 18.41669,-33.88049,0 18.41829,-33.88002,0 18.41967,-33.87988,0 18.42149,-33.88,0 18.42329,-33.88055,0 18.42464,-33.88123,0 18.42556,-33.88198,0 18.42665,-33.88319,0 18.42727,-33.88403,0 18.42794,-33.88518,0 18.42848,-33.88617,0 18.42889,-33.8871,0 18.42928,-33.88794,0 18.42957,-33.8887,0 18.42985,-33.88947,0 18.43014,-33.89012,0 18.43041,-33.89085,0 18.43074,-33.89159,0 18.43105,-33.89236,0 18.43147,-33.89319,0 18.43198,-33.89406,0 18.43237,-33.89474,0 18.43276,-33.89543,0 18.43328,-33.89631,0 18.4338,-33.89706,0 18.43433,-33.8979,0 18.43472,-33.89859,0 18.43523,-33.89952,0 18.43567,-33.90033,0 18.43618,-33.9012,0 18.43678,-33.90199,0 18.43723,-33.90246,0 18.43786,-33.90297,0 18.43915,-33.90367,0 18.44033,-33.90408,0 18.4413,-33.90432,0 18.44261,-33.90451,0 18.44375,-33.90454,0 18.44496,-33.90432,0 18.4456,-33.90408,0 18.4465,-33.90348,0 18.44711,-33.90271,0 18.44739,-33.90207,0 18.44745,-33.90125,0 18.44725,-33.90064,0 18.44683,-33.89996,0 18.44622,-33.89939,0 18.44554,-33.899,0 18.44476,-33.89868,0 18.44376,-33.89846,0 18.44301,-33.89841,0 18.44212,-33.89836,0 18.44084,-33.89841,0 18.43994,-33.89845,0 18.43906,-33.89855,0 18.43814,-33.89864,0 18.43702,-33.89882,0 18.43626,-33.89892,0 18.43517,-33.89906,0 18.43433,-33.89919,0 18.4336,-33.89928,0 18.43317,-33.89934,0 18.43282,-33.89937,0 18.43226,-33.89941,0 18.43192,-33.89946,0 18.43163,-33.89948,0 18.43122,-33.89952,0 18.43094,-33.89957,0 18.43048,-33.89967,0 18.43024,-33.89969,0 18.42997,-33.89971,0 18.42962,-33.89976,0 18.42922,-33.89981,0 18.429,-33.89983,0 18.42861,-33.89987,0 18.42833,-33.89992,0 18.42805,-33.90001,0 18.42785,-33.90022,0 18.42779,-33.90046,0 18.42762,-33.90069,0 18.42749,-33.90047,0 18.42738,-33.90005,0 18.42739,-33.89981,0 18.42749,-33.89937,0 18.42762,-33.89906,0 18.42773,-33.89883,0 18.42791,-33.89859,0 18.42808,-33.89836,0 18.42836,-33.89794,0 18.42865,-33.89757,0 18.42884,-33.89726,0 18.429,-33.89703,0 18.42934,-33.89662,0 18.42957,-33.89635,0 18.42979,-33.89603,0 18.43037,-33.89534,0 18.431,-33.8945,0 18.43151,-33.89394,0 18.4322,-33.89314,0 18.4327,-33.89255,0 18.43315,-33.89195,0 18.43382,-33.89122,0 18.43414,-33.89077,0 18.43483,-33.88989,0 18.43523,-33.88933,0 18.43567,-33.88857,0 18.43601,-33.88797,0 18.43635,-33.88724,0 18.4366,-33.88654,0 18.43678,-33.88593,0 18.43689,-33.88537,0 18.43685,-33.88458,0 18.43674,-33.88399,0 18.4364,-33.88339,0 18.43607,-33.88293,0 18.43546,-33.88249,0 18.43489,-33.88216,0 18.4341,-33.88197,0 18.43317,-33.88193,0 18.43242,-33.88197,0 18.43145,-33.88221,0 18.4306,-33.88253,0 18.42974,-33.88309,0 18.42906,-33.88376,0 18.4285,-33.88454,0 18.42816,-33.88536,0 18.42796,-33.8864,0 18.42796,-33.88733,0 18.42811,-33.88815,0 18.42856,-33.8893,0 18.42916,-33.8904,0 18.42996,-33.89145,0 18.43097,-33.89241,0 18.43203,-33.89333,0 18.43304,-33.8941,0 18.43397,-33.89478,0 18.435,-33.89552,0 18.43629,-33.89644,0 18.43736,-33.89722,0 18.43842,-33.89799,0 18.44004,-33.89911,0 18.44106,-33.89987,0 18.44233,-33.90078,0 18.44341,-33.90152,0 18.44467,-33.90246,0 18.44582,-33.9033,0 18.44683,-33.90399,0 18.44812,-33.90491,0 18.45245,-33.90805,0 18.4568,-33.91107,0 18.45921,-33.91275,0 18.46079,-33.91383,0 18.46235,-33.91494,0 18.46338,-33.91558,0 18.46481,-33.91652,0 18.4663,-33.91754,0 18.46751,-33.91837,0 18.46942,-33.91969,0 18.47065,-33.92061,0 18.47189,-33.92148,0 18.47322,-33.92257,0 18.47471,-33.92382,0 18.47591,-33.92494,0 18.47706,-33.92611,0 18.47803,-33.92718,0 18.47923,-33.92857,0 18.48009,-33.92969,0 18.48085,-33.93082,0 18.48181,-33.93233,0 18.48248,-33.93356,0 18.4831,-33.93489,0 18.48375,-33.93668,0 18.48405,-33.93796,0 18.48444,-33.93966,0 18.48461,-33.94148,0 18.48472,-33.94286,0 18.48472,-33.94405,0 18.48473,-33.94585,0 18.48472,-33.94743,0 18.48467,-33.94854,0 18.48455,-33.95031,0 18.48444,-33.95176,0 18.48433,-33.95316,0 18.48416,-33.95444,0 18.48388,-33.95641,0 18.4837,-33.95772,0 18.48347,-33.95897,0 18.48318,-33.96051,0 18.48284,-33.96214,0 18.48253,-33.96332,0 18.48215,-33.96489,0 18.48175,-33.96633,0 18.48141,-33.96745,0 18.48102,-33.96872,0 18.48061,-33.97001,0 18.47992,-33.9715,0 18.4794,-33.97252,0 18.47867,-33.97385,0 18.47786,-33.97508,0 18.47694,-33.97643,0 18.47643,-33.97714,0 18.47542,-33.97852,0 18.47448,-33.97978,0 18.47351,-33.98099,0 18.47271,-33.98202,0 18.47185,-33.98314,0 18.47093,-33.98428,0 18.47009,-33.98529,0 18.46886,-33.9868,0 18.46785,-33.98799,0 18.46706,-33.989,0 18.46613,-33.99007,0 18.46527,-33.99115,0 18.46415,-33.99243,0 18.46337,-33.99344,0 18.46258,-33.99472,0 18.46201,-33.99603,0 18.46157,-33.99756,0 18.46124,-33.99889,0 18.46101,-34.00031,0 18.46087,-34.00161,0 18.46073,-34.00273,0 18.46056,-34.0042,0 18.46052,-34.00571,0 18.46045,-34.00713,0 18.46034,-34.00836,0 18.46028,-34.00969,0 18.46028,-34.01088,0 18.46024,-34.01204,0 18.46023,-34.01349,0 18.46023,-34.01509,0 18.46023,-34.01633,0 18.46017,-34.01756,0 18.46011,-34.0188,0 18.46006,-34.0204,0 18.46001,-34.02168,0 18.45995,-34.02303,0 18.45989,-34.02429,0 18.45984,-34.02568,0 18.45978,-34.02731,0 18.45983,-34.02859,0 18.45984,-34.02978,0 18.45989,-34.03152,0 18.46001,-34.03285,0 18.46006,-34.03436,0 18.46018,-34.03602,0 18.46028,-34.0377,0 18.46046,-34.03895,0 18.46062,-34.0405,0 18.46075,-34.04188,0 18.4609,-34.04343,0 18.46104,-34.04477,0 18.46121,-34.04602,0 18.46138,-34.04733,0 18.46155,-34.04896,0 18.46174,-34.05043,0 18.46195,-34.05166,0 18.46213,-34.05299,0 18.46241,-34.05455,0 18.46264,-34.05589,0 18.46281,-34.05692,0 18.4632,-34.05853,0 18.4635,-34.05976,0 18.46395,-34.06144,0 18.46436,-34.06297,0 18.46471,-34.06435,0 18.46505,-34.06563,0 18.46538,-34.06718,0 18.46561,-34.06823,0 18.46601,-34.06991,0 18.4663,-34.07126,0 18.46667,-34.07281,0 18.46693,-34.07414,0 18.46722,-34.07535,0 18.46756,-34.07656,0 18.46802,-34.07822,0 18.46836,-34.07959,0 18.4687,-34.08084,0 18.46905,-34.08206,0 18.46939,-34.08327,0 18.46985,-34.08476,0 18.47026,-34.08591,0 18.47059,-34.08704,0 18.4711,-34.08865,0 18.47145,-34.08988,0 18.47168,-34.091,0 18.472,-34.0925,0 18.47228,-34.09419,0 18.47239,-34.09557,0 18.47248,-34.09677,0 18.47254,-34.09798,0 18.47254,-34.09961,0 18.47248,-34.10082,0 18.47248,-34.10231,0 18.47254,-34.10366,0 18.47277,-34.1051,0 18.47317,-34.1065,0 18.47374,-34.1077,0 18.4746,-34.10892,0 18.47586,-34.11008,0 18.477,-34.11082,0 18.4782,-34.11134,0 18.47996,-34.11172,0 18.48147,-34.11182,0 18.48261,-34.11166,0 18.48399,-34.11127,0 18.485,-34.11067,0 18.48576,-34.11003,0 18.48627,-34.1092,0 18.48657,-34.10838,0 18.48663,-34.1076,0 18.48644,-34.10687,0 18.48587,-34.10571,0 18.48506,-34.105,0 18.4841,-34.10449,0 18.48293,-34.10417,0 18.48141,-34.10403,0 18.47996,-34.10413,0 18.47878,-34.10435,0 18.47752,-34.10482,0 18.47626,-34.10541,0 18.47483,-34.1064,0 18.47385,-34.10729,0 18.47278,-34.10861,0 18.47211,-34.10994,0 18.47161,-34.11136,0 18.47132,-34.11337,0 18.47149,-34.11502,0 18.47194,-34.11635,0 18.4726,-34.11762,0 18.47363,-34.11911,0 18.47469,-34.1201,0 18.47592,-34.12088,0 18.47712,-34.12135,0 18.47867,-34.12148,0 18.47998,-34.12116,0 18.48063,-34.12042,0 18.48072,-34.11981,0 18.48038,-34.11893,0 18.47962,-34.11823,0 18.47883,-34.11762,0 18.47794,-34.11703,0 18.47672,-34.11613,0 18.47598,-34.11552,0 18.47506,-34.11464,0 18.47435,-34.11365,0 18.47403,-34.11283,0 18.47391,-34.11199,0 18.47418,-34.11086,0 18.47491,-34.10994,0 18.47581,-34.10934,0 18.477,-34.10892,0 18.47861,-34.10893,0 18.4798,-34.10925,0 18.48108,-34.10989,0 18.48225,-34.11099,0 18.48304,-34.11218,0 18.48352,-34.11367,0 18.48371,-34.11507,0 18.48371,-34.1163,0 18.48364,-34.11758,0 18.48335,-34.11902,0 18.48301,-34.1206,0 18.48278,-34.12158,0 18.48238,-34.12302,0 18.48192,-34.12454,0 18.48158,-34.12563,0 18.48106,-34.12717,0 18.48063,-34.1283,0 18.48015,-34.12963,0 18.47958,-34.13117,0 18.47906,-34.13237,0 18.47861,-34.13351,0 18.47815,-34.13461,0 18.47752,-34.13596,0 18.47694,-34.13736,0 18.47637,-34.13866,0 18.47574,-34.14006,0 18.47514,-34.14134,0 18.47446,-34.14276,0 18.4738,-34.1443,0 18.47317,-34.14574,0 18.47271,-34.14709,0 18.47233,-34.1483,0 18.47197,-34.14984,0 18.47179,-34.15114,0 18.47168,-34.15249,0 18.47162,-34.15393,0 18.47157,-34.15519,0 18.47161,-34.15654,0 18.47172,-34.15823,0 18.47179,-34.15985,0 18.47183,-34.16103,0 18.47183,-34.16258,0 18.47189,-34.16386,0 18.47194,-34.16556,0 18.47197,-34.16678,0 18.47202,-34.1685,0 18.47205,-34.16972,0 18.47197,-34.1713,0 18.47179,-34.17255,0 18.47157,-34.17409,0 18.47122,-34.17553,0 18.47076,-34.17688,0 18.47009,-34.17833,0 18.46939,-34.17963,0 18.46869,-34.18089,0 18.46807,-34.182,0 18.46757,-34.18318,0 18.46729,-34.18433,0 18.46723,-34.18584,0 18.46739,-34.18699,0 18.46785,-34.18829,0 18.46863,-34.18982,0 18.46936,-34.19092,0 18.47031,-34.19215,0 18.47121,-34.19325,0 18.47208,-34.19434,0 18.47323,-34.19563,0 18.47414,-34.19676,0 18.47536,-34.19806,0 18.47626,-34.19911,0 18.47721,-34.20016,0 18.47816,-34.20122,0 18.47952,-34.20277,0 18.48049,-34.20398,0 18.48136,-34.20515,0 18.48215,-34.20626,0 18.48321,-34.20772,0 18.48404,-34.20896,0 18.485,-34.21051,0 18.48598,-34.21208,0 18.48684,-34.21362,0 18.48747,-34.21486,0 18.48825,-34.21642,0 18.48909,-34.21815,0 18.48976,-34.21952,0 18.49033,-34.22076,0 18.49102,-34.22213,0 18.49188,-34.22381,0 18.49274,-34.22539,0 18.49331,-34.2266,0 18.494,-34.22791,0 18.49491,-34.22981,0 18.49537,-34.23088,0 18.49611,-34.23256,0 18.49669,-34.234,0 18.49714,-34.23507,0 18.49778,-34.23669,0 18.49823,-34.23807,0 18.49863,-34.2395,0 18.49897,-34.24085,0 18.49929,-34.24251,0 18.49955,-34.24383,0 18.49972,-34.24588,0 18.49977,-34.24694,0 18.49986,-34.2485,0 18.49986,-34.25015,0 18.49986,-34.25153,0 18.49986,-34.25331,0 18.49983,-34.25472,0 18.49983,-34.25611,0 18.49983,-34.25774,0 18.49983,-34.259,0 18.4998,-34.26068,0 18.49983,-34.26212,0 18.49983,-34.26375,0 18.49983,-34.26519,0 18.49977,-34.26645,0 18.4996,-34.26817,0 18.49949,-34.26938,0 18.49918,-34.27116,0 18.49892,-34.27241,0 18.49857,-34.27382,0 18.49823,-34.27502,0 18.49773,-34.27647,0 18.49711,-34.27812,0 18.49159,-34.29461,0 18.49119,-34.29583,0 18.49072,-34.29716,0 18.49028,-34.29862,0 18.48982,-34.30011,0 18.48943,-34.30133,0 18.48898,-34.30284,0 18.4885,-34.30434,0 18.48822,-34.30537,0 18.48764,-34.30704,0 18.4873,-34.30835,0 18.48691,-34.30975,0 18.48661,-34.311,0 18.48623,-34.31277,0 18.48595,-34.31424,0 18.48573,-34.31561,0 18.48567,-34.31726,0 18.4857,-34.31901,0 18.48581,-34.3204,0 18.48607,-34.32188,0 18.4865,-34.32376,0 18.48685,-34.325,0 18.48736,-34.32627,0 18.48808,-34.32793,0 18.4887,-34.32921,0 18.48937,-34.33049,0 18.49038,-34.33228,0 18.49096,-34.33321,0 18.49211,-34.33498,0 18.49302,-34.33626,0 18.49419,-34.33781,0 18.49508,-34.33893,0 18.49632,-34.34038,0 18.4975,-34.34171,0 18.4988,-34.34312,0 18.4998,-34.34413,0 18.50114,-34.3455,0 18.50235,-34.34666,0 18.50338,-34.34768,0 18.50464,-34.34899,0 18.50552,-34.34995,0 18.50676,-34.35131,0 18.50761,-34.35234,0 18.50871,-34.35393,0 18.50933,-34.35513,0 18.50994,-34.35645,0 18.51039,-34.35818,0 18.51062,-34.35965,0 18.51065,-34.36109,0 18.51053,-34.3624,0 18.51017,-34.36404,0 18.50972,-34.36528,0 18.50899,-34.36652,0 18.50798,-34.36771,0 18.50675,-34.36867,0 18.50538,-34.36942,0 18.504,-34.37,0 18.50266,-34.37041,0 18.50159,-34.37064,0 18.50008,-34.37086,0 18.49892,-34.37101,0 18.49767,-34.37109,0 18.49666,-34.37114,0 18.4952,-34.37115,0 18.49386,-34.37114,0 18.4924,-34.37109,0 18.49119,-34.37101,0 18.4901,-34.37091,0 18.48848,-34.37073,0 18.48741,-34.37059,0 18.48581,-34.3704,0 18.48467,-34.37026,0 18.48364,-34.37017,0 18.48192,-34.36994,0 18.48043,-34.36975,0 18.47935,-34.36961,0 18.47828,-34.36949,0 18.47721,-34.36935,0 18.47586,-34.36913,0 18.4746,-34.36891,0 18.47363,-34.36877,0 18.47217,-34.36848,0 18.47104,-34.36821,0 18.47008,-34.36798,0 18.46899,-34.3677,0 18.46779,-34.36729,0 18.46699,-34.367,0 18.46601,-34.36654,0 18.46516,-34.36601,0 18.46441,-34.36547,0 18.46365,-34.36469,0 18.46315,-34.36407,0 18.4628,-34.36354,0 18.46236,-34.36304,0 18.46146,-34.36258,0 18.46084,-34.36249,0 18.45989,-34.36263,0 18.45863,-34.36319,0 18.45772,-34.36407,0 18.45715,-34.36505,0 18.45675,-34.36665,0 18.45697,-34.36812,0 18.45759,-34.36958,0 18.4586,-34.37096,0 18.46018,-34.37222,0 18.46146,-34.37292,0 18.46344,-34.37366,0 18.46499,-34.37411,0 18.46712,-34.37457,0 18.46869,-34.37485,0 18.47071,-34.37515,0 18.47267,-34.3754,0 18.47446,-34.37563,0 18.47614,-34.3758,0 18.47794,-34.37595,0 18.47958,-34.37608,0 18.48125,-34.37617,0 18.48301,-34.37627,0 18.48489,-34.37631,0 18.48673,-34.37631,0 18.48814,-34.37631,0 18.48993,-34.37631,0 18.49182,-34.37627,0 18.49335,-34.37622,0 18.49481,-34.37617,0 18.49686,-34.37599,0 18.49829,-34.37576,0 18.49986,-34.37549,0 18.50121,-34.37515,0 18.50241,-34.37478,0 18.50372,-34.37431,0 18.50496,-34.37379,0 18.50624,-34.37311,0 18.50725,-34.37251,0 18.50807,-34.37194,0 18.50922,-34.37091,0 18.5099,-34.37017,0 18.51048,-34.36942,0 18.5111,-34.36831,0 18.51135,-34.36752,0 18.51151,-34.36658,0 18.51151,-34.36578,0 18.51139,-34.36491,0 18.51116,-34.36403,0 18.51095,-34.36336,0 18.51059,-34.3624,0 18.51028,-34.36171,0 18.50996,-34.3609,0 18.50967,-34.36025,0 18.50927,-34.35951,0 18.50893,-34.35886,0 18.50853,-34.35825,0 18.50815,-34.35764,0 18.5075,-34.35676,0 18.50692,-34.35594,0 18.50641,-34.35527,0 18.50578,-34.35453,0 18.50501,-34.35356,0 18.50434,-34.35274,0 18.50378,-34.35206,0 18.50321,-34.35146,0 18.50243,-34.35063,0 18.50178,-34.34992,0 18.50092,-34.34908,0 18.50023,-34.34838,0 18.49937,-34.34764,0 18.49862,-34.34702,0 18.49771,-34.34638,0 18.49677,-34.34569,0 18.49594,-34.34512,0 18.49497,-34.34447,0 18.49414,-34.34395,0 18.49337,-34.34345,0 18.4924,-34.34285,0 18.49133,-34.34225,0 18.49028,-34.34159,0 18.48948,-34.34112,0 18.48856,-34.34061,0 18.48775,-34.34019,0 18.48667,-34.33963,0 18.48567,-34.3391,0 18.48461,-34.33846,0 18.48377,-34.338,0 18.48298,-34.33754,0 18.48186,-34.33699,0 18.48078,-34.33642,0 18.48009,-34.33604,0 18.47889,-34.33543,0 18.47805,-34.33493,0 18.47699,-34.33434,0 18.47614,-34.33381,0 18.47525,-34.33328,0 18.47429,-34.33273,0 18.47351,-34.33223,0 18.47267,-34.33173,0 18.47177,-34.33118,0 18.47076,-34.33055,0 18.46998,-34.33008,0 18.46905,-34.32953,0 18.46841,-34.32912,0 18.46739,-34.32851,0 18.46662,-34.32802,0 18.46321,-34.32585,0 18.46073,-34.32422,0 18.45832,-34.32257,0 18.45669,-34.32148,0 18.45428,-34.3198,0 18.45361,-34.31932,0 18.45274,-34.31868,0 18.4521,-34.31818,0 18.45142,-34.3177,0 18.45074,-34.31719,0 18.45011,-34.31673,0 18.44942,-34.31622,0 18.44862,-34.31561,0 18.44776,-34.31496,0 18.44707,-34.31445,0 18.44644,-34.31392,0 18.44559,-34.31324,0 18.44473,-34.31249,0 18.44398,-34.31189,0 18.4433,-34.31131,0 18.4425,-34.31058,0 18.44184,-34.30998,0 18.44118,-34.30937,0 18.44055,-34.30877,0 18.43982,-34.30801,0 18.43921,-34.30737,0 18.43884,-34.3069,0 18.43815,-34.30611,0 18.43735,-34.30518,0 18.43672,-34.30439,0 18.43624,-34.3038,0 18.43579,-34.30316,0 18.43523,-34.30247,0 18.43461,-34.30174,0 18.43416,-34.30119,0 18.43351,-34.30034,0 18.433,-34.29978,0 18.43243,-34.29908,0 18.43203,-34.29863,0 18.43128,-34.29782,0 18.43071,-34.29718,0 18.43019,-34.29657,0 18.42957,-34.29587,0 18.42895,-34.29524,0 18.42831,-34.29452,0 18.42756,-34.29378,0 18.42693,-34.29308,0 18.42625,-34.29233,0 18.42556,-34.29163,0 18.42486,-34.29085,0 18.4243,-34.29025,0 18.42362,-34.28952,0 18.42295,-34.28879,0 18.42228,-34.28815,0 18.42093,-34.28664,0 18.41987,-34.28545,0 18.41915,-34.28461,0 18.41852,-34.2838,0 18.41785,-34.28297,0 18.41738,-34.28233,0 18.41681,-34.28163,0 18.41629,-34.28088,0 18.41583,-34.28023,0 18.41533,-34.27945,0 18.41471,-34.27863,0 18.41404,-34.27762,0 18.41343,-34.27669,0 18.41297,-34.27597,0 18.41257,-34.2753,0 18.41208,-34.27441,0 18.4116,-34.27348,0 18.41112,-34.27267,0 18.41068,-34.27185,0 18.41023,-34.27107,0 18.40972,-34.27025,0 18.40933,-34.26956,0 18.40888,-34.26888,0 18.40845,-34.26817,0 18.40794,-34.26729,0 18.40748,-34.26654,0 18.40702,-34.26575,0 18.40653,-34.26503,0 18.40616,-34.2644,0 18.40565,-34.26352,0 18.40518,-34.26283,0 18.40479,-34.26219,0 18.40422,-34.26138,0 18.40372,-34.26068,0 18.40311,-34.25977,0 18.40266,-34.25912,0 18.40221,-34.25839,0 18.40171,-34.25757,0 18.40136,-34.257,0 18.4009,-34.2563,0 18.40044,-34.25556,0 18.39986,-34.25446,0 18.39947,-34.25377,0 18.39896,-34.25285,0 18.39857,-34.25212,0 18.39809,-34.25127,0 18.39767,-34.25038,0 18.39728,-34.24965,0 18.39684,-34.24876,0 18.39643,-34.24811,0 18.39598,-34.24722,0 18.39552,-34.24634,0 18.39523,-34.24578,0 18.39476,-34.2448,0 18.39431,-34.24393,0 18.39392,-34.24319,0 18.39352,-34.24234,0 18.39308,-34.24146,0 18.39272,-34.24066,0 18.39235,-34.23999,0 18.3919,-34.23903,0 18.39156,-34.2383,0 18.39117,-34.23735,0 18.39088,-34.23675,0 18.39037,-34.23573,0 18.39008,-34.23507,0 18.38966,-34.23409,0 18.38943,-34.23344,0 18.38911,-34.23261,0 18.38882,-34.23177,0 18.38848,-34.23088,0 18.3882,-34.23001,0 18.38792,-34.22928,0 18.38753,-34.22836,0 18.38702,-34.22758,0 18.38646,-34.22708,0 18.38573,-34.22665,0 18.3845,-34.22626,0 18.38356,-34.22609,0 18.38237,-34.22585,0 18.38127,-34.22544,0 18.38063,-34.22498,0 18.37996,-34.22424,0 18.37961,-34.22343,0 18.3794,-34.22255,0 18.37929,-34.22163,0 18.37915,-34.22087,0 18.37904,-34.21971,0 18.37893,-34.21878,0 18.37887,-34.21813,0 18.3787,-34.21711,0 18.37858,-34.2159,0 18.37847,-34.21506,0 18.37839,-34.21422,0 18.37833,-34.21335,0 18.37816,-34.21234,0 18.37807,-34.21143,0 18.37788,-34.2106,0 18.37772,-34.2098,0 18.37761,-34.209,0 18.37744,-34.20798,0 18.37727,-34.20703,0 18.37715,-34.20631,0 18.37699,-34.20547,0 18.37688,-34.2047,0 18.37626,-34.20163,0 18.37572,-34.199,0 18.37514,-34.19618,0 18.37458,-34.19357,0 18.37441,-34.19284,0 18.37424,-34.19225,0 18.37406,-34.19118,0 18.37406,-34.19034,0 18.37423,-34.18941,0 18.37446,-34.18861,0 18.37486,-34.18759,0 18.37515,-34.18694,0 18.37547,-34.18607,0 18.3757,-34.18506,0 18.37576,-34.18446,0 18.37572,-34.18349,0 18.37559,-34.18272,0 18.37526,-34.18182,0 18.37498,-34.18126,0 18.37452,-34.18037,0 18.37419,-34.17961,0 18.37383,-34.17889,0 18.3734,-34.17801,0 18.37303,-34.17735,0 18.37257,-34.17651,0 18.37211,-34.17572,0 18.3716,-34.17502,0 18.37126,-34.17447,0 18.37063,-34.17358,0 18.37009,-34.17284,0 18.36959,-34.1722,0 18.36891,-34.1713,0 18.36845,-34.17065,0 18.368,-34.17004,0 18.36737,-34.16925,0 18.36685,-34.1685,0 18.36639,-34.16785,0 18.36588,-34.16711,0 18.36542,-34.16641,0 18.36499,-34.16565,0 18.36454,-34.16496,0 18.3641,-34.16414,0 18.36365,-34.16336,0 18.36331,-34.16267,0 18.36292,-34.16199,0 18.36241,-34.16103,0 18.36197,-34.16016,0 18.36153,-34.15929,0 18.36113,-34.1584,0 18.36073,-34.15746,0 18.36045,-34.15672,0 18.36012,-34.15594,0 18.35978,-34.15498,0 18.35944,-34.15402,0 18.35916,-34.15311,0 18.3589,-34.15226,0 18.35866,-34.15155,0 18.35838,-34.15059,0 18.35815,-34.14984,0 18.35787,-34.14876,0 18.3577,-34.14802,0 18.35747,-34.14723,0 18.35718,-34.14611,0 18.35698,-34.14528,0 18.35678,-34.14444,0 18.35658,-34.14368,0 18.35636,-34.14262,0 18.35619,-34.14185,0 18.35598,-34.14071,0 18.3558,-34.13979,0 18.35564,-34.13885,0 18.35552,-34.13783,0 18.35546,-34.13695,0 18.35541,-34.13612,0 18.35541,-34.13521,0 18.35535,-34.13433,0 18.35529,-34.13331,0 18.35524,-34.13229,0 18.35512,-34.1314,0 18.35501,-34.13031,0 18.35495,-34.12945,0 18.35484,-34.12852,0 18.35473,-34.12743,0 18.35461,-34.12651,0 18.35445,-34.12564,0 18.35423,-34.12482,0 18.35384,-34.12372,0 18.3535,-34.1228,0 18.35306,-34.12181,0 18.35261,-34.12083,0 18.35233,-34.12001,0 18.35205,-34.11891,0 18.35186,-34.11804,0 18.35182,-34.11722,0 18.35176,-34.11612,0 18.35175,-34.11502,0 18.35176,-34.11424,0 18.35176,-34.11342,0 18.35182,-34.11237,0 18.3518,-34.11129,0 18.35182,-34.11063,0 18.35186,-34.10962,0 18.35188,-34.10866,0 18.35188,-34.10783,0 18.35192,-34.10678,0 18.35193,-34.10568,0 18.35193,-34.105,0 18.35197,-34.10389,0 18.3522,-34.10091,0 18.35221,-34.10001,0 18.35233,-34.09708,0 18.35232,-34.09621,0 18.35232,-34.09546,0 18.35233,-34.09447,0 18.35238,-34.09351,0 18.35238,-34.09245,0 18.35249,-34.09172,0 18.35266,-34.09062,0 18.35295,-34.08988,0 18.35335,-34.08913,0 18.35403,-34.08825,0 18.35484,-34.0876,0 18.35569,-34.08705,0 18.35707,-34.08629,0 18.35787,-34.08587,0 18.35888,-34.08531,0 18.35987,-34.08457,0 18.36057,-34.08389,0 18.36107,-34.08316,0 18.36152,-34.0822,0 18.36168,-34.08138,0 18.36174,-34.0806,0 18.36174,-34.07964,0 18.36168,-34.07872,0 18.36159,-34.07792,0 18.36147,-34.07712,0 18.36136,-34.07633,0 18.36135,-34.07538,0 18.3614,-34.07442,0 18.36157,-34.07341,0 18.36174,-34.07245,0 18.36191,-34.07172,0 18.36208,-34.07076,0 18.36233,-34.06963,0 18.36247,-34.0686,0 18.36256,-34.06781,0 18.36267,-34.06679,0 18.36269,-34.06595,0 18.36269,-34.06512,0 18.36267,-34.06409,0 18.36262,-34.0633,0 18.36253,-34.06247,0 18.36241,-34.06155,0 18.36227,-34.0605,0 18.36213,-34.05963,0 18.36202,-34.05885,0 18.36187,-34.05808,0 18.36174,-34.05734,0 18.36157,-34.05652,0 18.3614,-34.05565,0 18.36124,-34.05473,0 18.36107,-34.05377,0 18.3609,-34.05282,0 18.36073,-34.05203,0 18.3605,-34.05101,0 18.36028,-34.0502,0 18.36006,-34.04938,0 18.35989,-34.04837,0 18.35981,-34.04752,0 18.35981,-34.04668,0 18.35987,-34.04561,0 18.35993,-34.04472,0 18.36,-34.04384,0 18.36012,-34.04283,0 18.36027,-34.04184,0 18.36033,-34.04118,0 18.36045,-34.04018,0 18.36045,-34.03935,0 18.36027,-34.03835,0 18.36012,-34.03752,0 18.35984,-34.03674,0 18.35953,-34.03602,0 18.35901,-34.03509,0 18.3585,-34.03425,0 18.35815,-34.03363,0 18.35758,-34.03276,0 18.35726,-34.03221,0 18.3567,-34.03134,0 18.35625,-34.03043,0 18.35587,-34.02973,0 18.35541,-34.02885,0 18.35501,-34.02809,0 18.35461,-34.02726,0 18.35423,-34.02654,0 18.35392,-34.02587,0 18.3534,-34.02494,0 18.353,-34.02415,0 18.35272,-34.02345,0 18.35238,-34.02275,0 18.35203,-34.02196,0 18.35165,-34.02109,0 18.3514,-34.02042,0 18.35106,-34.01954,0 18.3507,-34.01875,0 18.35042,-34.01793,0 18.35009,-34.01702,0 18.34986,-34.01604,0 18.34963,-34.01518,0 18.34952,-34.01418,0 18.3494,-34.01335,0 18.34923,-34.01251,0 18.34906,-34.01162,0 18.34885,-34.01083,0 18.34863,-34.01006,0 18.34826,-34.0092,0 18.3478,-34.00827,0 18.34734,-34.00749,0 18.34689,-34.00671,0 18.34625,-34.00566,0 18.34588,-34.00493,0 18.34538,-34.00406,0 18.34488,-34.00311,0 18.34442,-34.00208,0 18.34402,-34.00115,0 18.34368,-34.00008,0 18.34347,-33.99934,0 18.34322,-33.99831,0 18.34328,-33.99472,0 18.34386,-33.9928,0 18.34494,-33.99012,0 18.34767,-33.98598,0 18.3494,-33.98388,0 18.35117,-33.98183,0 18.35266,-33.98026,0 18.35322,-33.97961,0 18.35417,-33.97856,0 18.35472,-33.97797,0 18.35535,-33.97727,0 18.35602,-33.97659,0 18.35655,-33.97601,0 18.35718,-33.97531,0 18.35827,-33.97408,0 18.35894,-33.9733,0 18.35944,-33.97256,0 18.35995,-33.97169,0 18.36039,-33.97084,0 18.36061,-33.9701,0 18.36079,-33.96927,0 18.36096,-33.96824,0 18.36102,-33.96712,0 18.36101,-33.96597,0 18.36096,-33.96483,0 18.36073,-33.9627,0 18.36051,-33.96085,0 18.36027,-33.95953,0 18.35984,-33.9575,0 18.35944,-33.95576,0 18.35922,-33.95476,0 18.3589,-33.95376,0 18.35849,-33.95265,0 18.35804,-33.95171,0 18.35737,-33.95064,0 18.3567,-33.94977,0 18.35604,-33.94901,0 18.35479,-33.94775,0 18.35395,-33.94702,0 18.35278,-33.94613,0 18.35175,-33.94538,0 18.35089,-33.94477,0 18.35008,-33.94405,0 18.34946,-33.94319,0 18.34917,-33.94263,0 18.34934,-33.94091,0 18.35003,-33.94021,0 18.35115,-33.93974,0 18.3521,-33.9397,0 18.35333,-33.94011,0 18.35466,-33.94101,0 18.35552,-33.9418,0 18.35609,-33.94245,0 18.35686,-33.94327,0 18.35748,-33.944,0 18.3581,-33.94477,0 18.35855,-33.94543,0 18.35896,-33.94598,0 18.3593,-33.94654,0 18.35976,-33.94724,0 18.36004,-33.94775,0 18.3604,-33.94835,0 18.36068,-33.94881,0 18.36101,-33.9494,0 18.36124,-33.94985,0 18.36159,-33.95041,0 18.36193,-33.95106,0 18.36233,-33.95162,0 18.36273,-33.95218,0 18.36308,-33.95259,0 18.36365,-33.95306,0 18.36451,-33.95353,0 18.36548,-33.95376,0 18.36656,-33.9537,0 18.36735,-33.95343,0 18.36785,-33.95288,0 18.36819,-33.95201,0 18.36819,-33.95128,0 18.36794,-33.95027,0 18.36765,-33.94938,0 18.36737,-33.94854,0 18.36695,-33.94762,0 18.36656,-33.94652,0 18.36617,-33.94561,0 18.36578,-33.9445,0 18.36539,-33.94354,0 18.36499,-33.94249,0 18.36462,-33.94138,0 18.36438,-33.94057,0 18.36405,-33.93942,0 18.3637,-33.93826,0 18.36348,-33.93718,0 18.36331,-33.93622,0 18.36313,-33.93542,0 18.36303,-33.93411,0 18.36303,-33.93311,0 18.36308,-33.93211,0 18.36325,-33.93086,0 18.36353,-33.92963,0 18.36393,-33.92834,0 18.36426,-33.92743,0 18.36482,-33.9261,0 18.36536,-33.92504,0 18.36588,-33.92401,0 18.36651,-33.92285,0 18.36701,-33.92198,0 18.36768,-33.92088,0 18.36847,-33.91974,0 18.36931,-33.91855,0 18.36994,-33.91773,0 18.37074,-33.9168,0 18.3716,-33.91568,0 18.37222,-33.91493,0 18.37318,-33.91388,0 18.37396,-33.91306,0 18.37492,-33.91209,0 18.37576,-33.91122,0 18.37654,-33.91045,0 18.37755,-33.90953,0 18.37858,-33.90856,0 18.37938,-33.90781,0 18.38046,-33.90688,0 18.3813,-33.90614,0 18.3822,-33.90536,0 18.3831,-33.9046,0 18.38419,-33.90372,0 18.38505,-33.90302,0 18.38585,-33.90234,0 18.38694,-33.90148,0 18.38797,-33.90074,0 18.38865,-33.90019,0 18.38974,-33.89934,0 18.3906,-33.89869,0 18.39174,-33.89776,0 18.39266,-33.89706,0 18.39414,-33.89594,0 18.39498,-33.89529,0 18.39603,-33.89445,0 18.3993,-33.89198,0 18.40333,-33.88884,0 18.40636,-33.88646,0 18.40919,-33.8843,0 18.41234,-33.88207,0 18.41349,-33.88132,0 18.41443,-33.88078,0 18.41538,-33.88023,0 18.41651,-33.87959,0 18.41761,-33.87895,0 18.41886,-33.87827,0 18.42001,-33.87765,0 18.42127,-33.8769,0 18.42218,-33.8763,0 18.42293,-33.87564,0 18.42344,-33.87495,0 18.42379,-33.87392,0 18.42368,-33.87314,0 18.42323,-33.87245,0 18.42233,-33.8719,0 18.42133,-33.87169,0 18.42037,-33.87172,0 18.41915,-33.87197,0 18.41829,-33.87229,0 18.4174,-33.87277,0 18.4169,-33.87305,0 18.41578,-33.87378,0 18.4151,-33.87428,0 18.4144,-33.87499,0 18.41404,-33.87575,0 18.41398,-33.87685,0 18.41423,-33.87774,0 18.41471,-33.87881,0 18.41509,-33.87946,0 18.41583,-33.88044,0 18.41635,-33.88109,0 18.41723,-33.88197,0 18.41818,-33.88281,0 18.4192,-33.88358,0 18.42037,-33.88426,0 18.42144,-33.88482,0 18.4225,-33.88531,0 18.42357,-33.88577,0 18.42459,-33.88621,0 18.42602,-33.88682,0 18.42732,-33.88747,0 18.42831,-33.88798,0 18.4294,-33.88852,0 18.43057,-33.88921,0 18.43198,-33.89003,0 18.43293,-33.89063,0 18.43405,-33.89131,0 18.43506,-33.892,0 18.43615,-33.89268,0 18.43729,-33.89347,0 18.43825,-33.89424,0 18.43912,-33.8951,0 18.43975,-33.89599,0 18.44033,-33.89717,0 18.44084,-33.89846,0 18.44123,-33.89955,0 18.44164,-33.90055,0 18.44215,-33.90181,0 18.44279,-33.90308,0 18.44347,-33.9044,0 18.44403,-33.90536,0 18.4447,-33.90651,0 18.44537,-33.90761,0 18.44582,-33.90846,0 18.44604,-33.90949,0 18.44587,-33.91009,0 18.4456,-33.91058,0 18.44515,-33.9109,0 18.44461,-33.91079,0 18.44421,-33.91037,0 18.44393,-33.90981,0 18.44369,-33.90921,0 18.44347,-33.90837,0 18.4433,-33.90763,0 18.44319,-33.90678,0 18.44307,-33.90595,0 18.44291,-33.905,0 18.44274,-33.90417,0 18.4425,-33.90334,0 18.44215,-33.9025,0 18.44173,-33.90193,0 18.44106,-33.90125,0 18.44044,-33.90079,0 18.43954,-33.90033,0 18.43889,-33.90009,0 18.43792,-33.89981,0 18.43708,-33.8996,0 18.43626,-33.89948,0 18.4354,-33.89943,0 18.43467,-33.89941,0 18.43394,-33.89955,0 18.43327,-33.89973,0 18.4326,-33.90009,0 18.43208,-33.90051,0 18.43186,-33.9006,0 18.43142,-33.90097,0 18.43085,-33.90138,0 18.43063,-33.90152,0 18.43041,-33.90161,0 18.43008,-33.90162,0 18.42973,-33.90157,0 18.42922,-33.90125,0 18.42911,-33.90097,0 18.42894,-33.90074,0 18.42884,-33.90051,0 18.42856,-33.90028,0 18.42825,-33.90022,0 18.428,-33.90038,0 18.42773,-33.90064,0</coordinates>
      </LineString>
    </Placemark>
  </Document>
</kml>
