<?xml version="1.0" encoding="UTF-8"?>
<kml xmlns="http://www.opengis.net/kml/2.2">
  <Document>
    <name>FR24 3ff49dd8</name>
    <Placemark>
      <name>FR24 3ff49dd8</name>
      <Style><LineStyle><color>ff0000ff</color><width>4</width></LineStyle></Style>
      <LineString>
        <tessellate>1</tessellate>
        <coordinates>18.34734,-33.94603,0 18.34538,-33.94904,0 18.34328,-33.95218,0 18.34067,-33.95604,0 18.33618,-33.96304,0 18.33269,-33.96875,0 18.32968,-33.97375,0 18.32688,-33.97861,0 18.32458,-33.983,0 18.32407,-33.9841,0 18.32357,-33.98515,0 18.32318,-33.98607,0 18.32267,-33.98721,0 18.32211,-33.98845,0 18.32172,-33.98932,0 18.32022,-33.99277,0 18.31965,-33.99399,0 18.31907,-33.99519,0 18.31753,-33.9984,0 18.31587,-34.0018,0 18.31511,-34.00319,0 18.31454,-34.00429,0 18.31393,-34.00552,0 18.31341,-34.00655,0 18.31157,-34.01006,0 18.311,-34.0113,0 18.31045,-34.0123,0 18.3098,-34.01372,0 18.30933,-34.01472,0 18.30754,-34.01848,0 18.30585,-34.0221,0 18.30434,-34.02539,0 18.30339,-34.02778,0 18.303,-34.0291,0 18.30266,-34.03061,0 18.30261,-34.03171,0 18.30276,-34.03308,0 18.30305,-34.03445,0 18.30328,-34.03555,0 18.30362,-34.03685,0 18.30384,-34.03789,0 18.30412,-34.03899,0 18.30446,-34.04036,0 18.30477,-34.04156,0 18.30507,-34.04256,0 18.30547,-34.0437,0 18.30591,-34.045,0 18.30631,-34.04621,0 18.30675,-34.04741,0 18.30717,-34.04849,0 18.30759,-34.04956,0 18.30809,-34.05068,0 18.3086,-34.0518,0 18.30916,-34.05304,0 18.30972,-34.05414,0 18.31032,-34.05529,0 18.31079,-34.0562,0 18.31146,-34.05739,0 18.31202,-34.0584,0 18.31272,-34.05962,0 18.31348,-34.06096,0 18.31415,-34.06195,0 18.31471,-34.06288,0 18.31544,-34.06403,0 18.31621,-34.06525,0 18.31696,-34.06641,0 18.31746,-34.06723,0 18.31821,-34.06856,0 18.3189,-34.06972,0 18.31947,-34.0707,0 18.32021,-34.07195,0 18.3209,-34.07312,0 18.32176,-34.07461,0 18.32234,-34.07552,0 18.32301,-34.07671,0 18.32351,-34.07771,0 18.32417,-34.07894,0 18.32469,-34.08,0 18.32531,-34.08133,0 18.32571,-34.08229,0 18.32628,-34.08364,0 18.32677,-34.08495,0 18.32714,-34.08597,0 18.3276,-34.08727,0 18.32794,-34.08829,0 18.32845,-34.08971,0 18.3289,-34.09108,0 18.32923,-34.09222,0 18.32966,-34.09351,0 18.33,-34.09453,0 18.33046,-34.09607,0 18.33086,-34.09717,0 18.33119,-34.09822,0 18.33158,-34.09946,0 18.332,-34.10072,0 18.33237,-34.10184,0 18.33269,-34.103,0 18.33303,-34.10426,0 18.33332,-34.10527,0 18.33372,-34.10668,0 18.334,-34.10779,0 18.33429,-34.10901,0 18.33458,-34.11003,0 18.33489,-34.11122,0 18.33515,-34.11232,0 18.33538,-34.11316,0 18.33572,-34.11441,0 18.33607,-34.11576,0 18.33646,-34.11708,0 18.33687,-34.11832,0 18.33719,-34.11942,0 18.3383,-34.12298,0 18.33938,-34.12656,0 18.34047,-34.13028,0 18.34145,-34.13387,0 18.34268,-34.13882,0 18.34356,-34.14248,0 18.34442,-34.14653,0 18.34532,-34.15155,0 18.34625,-34.15668,0 18.34734,-34.16185,0 18.3484,-34.16583,0 18.34877,-34.16711,0 18.34906,-34.16818,0 18.34947,-34.16954,0 18.34991,-34.17082,0 18.35031,-34.17201,0 18.3507,-34.1732,0 18.35109,-34.1743,0 18.35152,-34.17558,0 18.35188,-34.17677,0 18.35221,-34.17792,0 18.35261,-34.17938,0 18.35312,-34.1813,0 18.3534,-34.18266,0 18.35367,-34.18378,0 18.35406,-34.18529,0 18.35429,-34.1862,0 18.35495,-34.18792,0 18.35546,-34.18895,0 18.35602,-34.19014,0 18.35664,-34.19142,0 18.35726,-34.19275,0 18.3577,-34.19387,0 18.35832,-34.1955,0 18.35884,-34.19676,0 18.35933,-34.1982,0 18.35964,-34.19913,0 18.36016,-34.2009,0 18.3605,-34.20202,0 18.36085,-34.20328,0 18.36118,-34.20442,0 18.36147,-34.20565,0 18.36182,-34.20705,0 18.3621,-34.20826,0 18.36241,-34.20973,0 18.36269,-34.21088,0 18.36303,-34.21225,0 18.36331,-34.21358,0 18.36365,-34.21509,0 18.36399,-34.21641,0 18.36533,-34.22159,0 18.36578,-34.2231,0 18.36611,-34.22414,0 18.36656,-34.22566,0 18.36697,-34.22712,0 18.36737,-34.22846,0 18.36771,-34.22972,0 18.36805,-34.23112,0 18.36828,-34.23214,0 18.36869,-34.23367,0 18.36897,-34.23495,0 18.3692,-34.23615,0 18.36992,-34.23912,0 18.37026,-34.24022,0 18.37074,-34.24136,0 18.37143,-34.24261,0 18.37234,-34.24411,0 18.3732,-34.24527,0 18.37407,-34.24644,0 18.37497,-34.24763,0 18.37592,-34.24883,0 18.37669,-34.24988,0 18.37738,-34.25076,0 18.37801,-34.25169,0 18.37884,-34.25281,0 18.37955,-34.25388,0 18.3803,-34.255,0 18.3808,-34.25578,0 18.38161,-34.25691,0 18.38237,-34.25812,0 18.38304,-34.25917,0 18.38371,-34.26022,0 18.38436,-34.26124,0 18.38506,-34.26233,0 18.38579,-34.26338,0 18.38654,-34.26463,0 18.38722,-34.26571,0 18.38797,-34.26686,0 18.38871,-34.26799,0 18.38951,-34.26915,0 18.39038,-34.27048,0 18.39263,-34.274,0 18.39487,-34.27753,0 18.39569,-34.27884,0 18.39638,-34.27995,0 18.39775,-34.28223,0 18.39823,-34.28297,0 18.39912,-34.28442,0 18.40003,-34.2859,0 18.40081,-34.28719,0 18.40158,-34.28852,0 18.40233,-34.28982,0 18.40462,-34.29373,0 18.40681,-34.29739,0 18.40988,-34.30239,0 18.41286,-34.3071,0 18.41578,-34.31137,0 18.41749,-34.31375,0 18.41852,-34.31506,0 18.41932,-34.31617,0 18.42024,-34.31733,0 18.42099,-34.31836,0 18.42196,-34.31971,0 18.42278,-34.32083,0 18.42361,-34.32194,0 18.42436,-34.32301,0 18.42531,-34.32436,0 18.42596,-34.32529,0 18.42687,-34.3266,0 18.42783,-34.32797,0 18.42854,-34.32897,0 18.42957,-34.33035,0 18.43031,-34.33134,0 18.43125,-34.33255,0 18.43214,-34.33365,0 18.43287,-34.33452,0 18.43388,-34.33571,0 18.43506,-34.33698,0 18.43607,-34.33809,0 18.43712,-34.33926,0 18.4382,-34.34042,0 18.43912,-34.3414,0 18.44004,-34.34229,0 18.44094,-34.34326,0 18.44204,-34.34438,0 18.44284,-34.34517,0 18.44376,-34.34605,0 18.44496,-34.34722,0 18.4461,-34.34824,0 18.44717,-34.34912,0 18.44862,-34.35029,0 18.44997,-34.35127,0 18.45131,-34.3522,0 18.45238,-34.35287,0 18.45372,-34.3537,0 18.45518,-34.35452,0 18.4564,-34.35513,0 18.45782,-34.3558,0 18.45892,-34.3563,0 18.46045,-34.35695,0 18.46172,-34.35746,0 18.46286,-34.35791,0 18.46418,-34.35839,0 18.46572,-34.35901,0 18.46699,-34.35951,0 18.46796,-34.35993,0 18.46968,-34.36063,0 18.47076,-34.36105,0 18.4726,-34.36174,0 18.47385,-34.36221,0 18.47508,-34.36267,0 18.47671,-34.36317,0 18.47797,-34.36361,0 18.47883,-34.36384,0 18.48072,-34.3644,0 18.48198,-34.36472,0 18.48343,-34.36501,0 18.48483,-34.36528,0 18.48623,-34.36546,0 18.48752,-34.36555,0 18.48904,-34.3656,0 18.49033,-34.36551,0 18.4919,-34.36533,0 18.49308,-34.365,0 18.49447,-34.36441,0 18.49543,-34.36388,0 18.49651,-34.36309,0 18.49728,-34.36244,0 18.49817,-34.36148,0 18.49886,-34.36049,0 18.49941,-34.3596,0 18.49974,-34.35878,0 18.50012,-34.35769,0 18.5003,-34.35663,0 18.50058,-34.35585,0 18.50098,-34.35512,0 18.50182,-34.35439,0 18.50264,-34.35402,0 18.50384,-34.35388,0 18.50481,-34.35411,0 18.50574,-34.35466,0 18.50636,-34.35546,0 18.50653,-34.35626,0 18.5063,-34.35727,0 18.50597,-34.35786,0 18.50541,-34.35851,0 18.50468,-34.35901,0 18.5026,-34.3596,0 18.50166,-34.3597,0 18.50046,-34.35974,0 18.49926,-34.35979,0 18.49812,-34.35974,0 18.497,-34.3597,0 18.49565,-34.35965,0 18.49464,-34.35956,0 18.49325,-34.35946,0 18.49201,-34.35933,0 18.49066,-34.35915,0 18.48943,-34.35896,0 18.48842,-34.35878,0 18.48696,-34.35846,0 18.48547,-34.35807,0 18.48415,-34.35769,0 18.48318,-34.35741,0 18.48175,-34.35695,0 18.48085,-34.35658,0 18.47969,-34.35606,0 18.47866,-34.35555,0 18.4771,-34.35493,0 18.47603,-34.35457,0 18.47491,-34.23518,0 18.47514,-34.23532,0 18.47569,-34.23559,0 18.47591,-34.23568,0 18.47614,-34.23573,0 18.47643,-34.23587,0 18.47666,-34.23596,0 18.4771,-34.2361,0 18.47743,-34.23615,0 18.47775,-34.23619,0 18.47828,-34.23619,0 18.47906,-34.23605,0 18.48001,-34.23564,0 18.48066,-34.23517,0 18.4813,-34.23459,0 18.48186,-34.23382,0 18.48215,-34.23307,0 18.48225,-34.23212,0 18.4822,-34.23143,0 18.48181,-34.23014,0 18.48135,-34.22907,0 18.48097,-34.22813,0 18.48061,-34.2273,0 18.48024,-34.22653,0 18.4798,-34.22544,0 18.47951,-34.22452,0 18.47923,-34.22367,0 18.47895,-34.2225,0 18.47878,-34.22157,0 18.4786,-34.22069,0 18.47844,-34.22008,0 18.4782,-34.21901,0 18.47799,-34.21802,0 18.47788,-34.21724,0 18.47766,-34.21614,0 18.4776,-34.21532,0 18.47752,-34.21455,0 18.47738,-34.2133,0 18.47729,-34.21245,0 18.47723,-34.21147,0 18.47717,-34.21064,0 18.47715,-34.20987,0 18.47704,-34.20882,0 18.47694,-34.20784,0 18.47687,-34.20708,0 18.47676,-34.20616,0 18.47666,-34.20514,0 18.47659,-34.20433,0 18.47648,-34.20341,0 18.47643,-34.2025,0 18.47631,-34.2016,0 18.4762,-34.20039,0 18.47597,-34.19774,0 18.47581,-34.19453,0 18.47575,-34.19151,0 18.4758,-34.19057,0 18.47581,-34.18954,0 18.47581,-34.1884,0 18.47586,-34.18731,0 18.47586,-34.18652,0 18.4758,-34.18531,0 18.47581,-34.18437,0 18.4758,-34.18354,0 18.47581,-34.1824,0 18.4758,-34.18149,0 18.47574,-34.18056,0 18.47564,-34.17943,0 18.47557,-34.17838,0 18.47553,-34.17751,0 18.47546,-34.17651,0 18.4754,-34.1754,0 18.47536,-34.17439,0 18.47534,-34.17339,0 18.47528,-34.17246,0 18.47525,-34.17155,0 18.47523,-34.17032,0 18.47514,-34.1694,0 18.47511,-34.16822,0 18.475,-34.16697,0 18.47488,-34.16585,0 18.47486,-34.16501,0 18.47474,-34.16377,0 18.47463,-34.16267,0 18.4746,-34.16175,0 18.47454,-34.1605,0 18.47448,-34.15952,0 18.47443,-34.15854,0 18.47437,-34.15747,0 18.47425,-34.15607,0 18.47418,-34.15508,0 18.47408,-34.15384,0 18.47379,-34.15004,0 18.47357,-34.14681,0 18.47334,-34.14332,0 18.47322,-34.1389,0 18.47317,-34.13769,0 18.47295,-34.13448,0 18.47282,-34.13322,0 18.47273,-34.13205,0 18.47267,-34.13127,0 18.47256,-34.12994,0 18.47222,-34.12555,0 18.47211,-34.12234,0 18.47197,-34.11804,0 18.47183,-34.11461,0 18.47172,-34.11159,0 18.47174,-34.11018,0 18.47174,-34.1091,0 18.47179,-34.10803,0 18.47183,-34.10701,0 18.47179,-34.10608,0 18.47183,-34.10509,0 18.47177,-34.10367,0 18.47168,-34.10282,0 18.47161,-34.10156,0 18.47151,-34.10063,0 18.47139,-34.09951,0 18.47128,-34.09826,0 18.47121,-34.09735,0 18.4711,-34.0963,0 18.47104,-34.0952,0 18.47105,-34.09411,0 18.47105,-34.09314,0 18.47104,-34.09186,0 18.47104,-34.0909,0 18.47099,-34.08992,0 18.47099,-34.08879,0 18.47099,-34.08774,0 18.47099,-34.08655,0 18.47104,-34.08527,0 18.47105,-34.08424,0 18.4711,-34.08307,0 18.47111,-34.08183,0 18.47111,-34.0808,0 18.4711,-34.07986,0 18.47116,-34.07648,0 18.47116,-34.07182,0 18.47104,-34.06746,0 18.47099,-34.06609,0 18.47088,-34.06507,0 18.47082,-34.06393,0 18.47071,-34.06293,0 18.47065,-34.06197,0 18.4706,-34.06068,0 18.47054,-34.05972,0 18.47048,-34.05872,0 18.47048,-34.05729,0 18.47048,-34.05627,0 18.47048,-34.05496,0 18.47054,-34.05408,0 18.47054,-34.05282,0 18.4706,-34.05185,0 18.47065,-34.05052,0 18.47076,-34.04947,0 18.47088,-34.04845,0 18.47099,-34.04742,0 18.4711,-34.04622,0 18.47122,-34.04496,0 18.47132,-34.04388,0 18.47139,-34.04268,0 18.47151,-34.04156,0 18.47166,-34.04059,0 18.47217,-34.03574,0 18.47265,-34.03141,0 18.473,-34.02927,0 18.47322,-34.02792,0 18.4734,-34.02695,0 18.47362,-34.02571,0 18.47385,-34.02466,0 18.47407,-34.02342,0 18.47425,-34.02233,0 18.47441,-34.02136,0 18.47458,-34.02003,0 18.47469,-34.01898,0 18.47486,-34.01756,0 18.47494,-34.01646,0 18.47502,-34.01555,0 18.47508,-34.01431,0 18.47514,-34.01326,0 18.47517,-34.01232,0 18.47523,-34.0113,0 18.47523,-34.01014,0 18.47525,-34.00919,0 18.47536,-34.0079,0 18.47536,-34.00694,0 18.47546,-34.00599,0 18.47546,-34.00492,0 18.47551,-34.00389,0 18.47558,-34.00259,0 18.47563,-34.00175,0 18.47563,-34.00055,0 18.47564,-33.99962,0 18.47569,-33.99836,0 18.47574,-33.99738,0 18.47586,-33.99626,0 18.47592,-33.99518,0 18.47598,-33.99394,0 18.47603,-33.99289,0 18.47609,-33.99165,0 18.47614,-33.9903,0 18.47626,-33.98918,0 18.47637,-33.98804,0 18.47649,-33.9869,0 18.4766,-33.98593,0 18.47676,-33.98479,0 18.47693,-33.98373,0 18.47712,-33.98234,0 18.47732,-33.98099,0 18.47749,-33.97966,0 18.47766,-33.97833,0 18.4778,-33.97731,0 18.47788,-33.97614,0 18.47803,-33.97494,0 18.47811,-33.97357,0 18.47816,-33.97243,0 18.47816,-33.97133,0 18.47822,-33.96986,0 18.4782,-33.9688,0 18.4782,-33.96768,0 18.47815,-33.96619,0 18.47811,-33.9651,0 18.47809,-33.96381,0 18.47803,-33.9627,0 18.47794,-33.96117,0 18.47788,-33.96002,0 18.47783,-33.95888,0 18.47775,-33.95739,0 18.47769,-33.95623,0 18.47763,-33.95511,0 18.47757,-33.95371,0 18.47717,-33.94841,0 18.47712,-33.94761,0 18.47689,-33.9458,0 18.47671,-33.9446,0 18.47648,-33.94345,0 18.4762,-33.94175,0 18.47592,-33.94043,0 18.47563,-33.93924,0 18.47534,-33.93807,0 18.47502,-33.93695,0 18.47454,-33.93542,0 18.47403,-33.93402,0 18.47357,-33.93286,0 18.473,-33.9316,0 18.47237,-33.93025,0 18.47185,-33.92923,0 18.47099,-33.9277,0 18.47043,-33.9267,0 18.46964,-33.92537,0 18.46835,-33.9234,0 18.46751,-33.92226,0 18.46667,-33.9212,0 18.4659,-33.92024,0 18.46464,-33.91875,0 18.46381,-33.91782,0 18.46264,-33.91666,0 18.46135,-33.91539,0 18.46051,-33.91457,0 18.45949,-33.91368,0 18.45827,-33.9126,0 18.45709,-33.91163,0 18.45577,-33.91056,0 18.45463,-33.90963,0 18.45339,-33.90862,0 18.45227,-33.9077,0 18.45126,-33.90683,0 18.45034,-33.90604,0 18.44907,-33.90491,0 18.44805,-33.90395,0 18.44707,-33.90316,0 18.44576,-33.90234,0 18.44461,-33.90181,0 18.44324,-33.90134,0 18.44215,-33.90102,0 18.44095,-33.90078,0 18.43998,-33.90064,0 18.43929,-33.90055,0 18.43764,-33.90042,0 18.43632,-33.90032,0 18.43523,-33.90027,0 18.43477,-33.90027,0 18.43394,-33.90028,0 18.4334,-33.90027,0 18.4327,-33.90024,0 18.43231,-33.90024,0 18.43197,-33.90022,0 18.43117,-33.90027,0 18.43097,-33.90028,0 18.43065,-33.90027,0 18.42968,-33.90033,0 18.42939,-33.90032,0 18.42905,-33.90027,0 18.42882,-33.90027,0 18.42842,-33.90032,0 18.42808,-33.90036,0 18.42772,-33.90047,0 18.42743,-33.9006,0 18.42721,-33.90074,0 18.42699,-33.90092,0 18.42738,-33.90102,0 18.42872,-33.90125,0 18.429,-33.90129,0 18.42929,-33.90129,0 18.42962,-33.90129,0 18.43008,-33.90129,0 18.43042,-33.90125,0 18.43111,-33.90115,0 18.43163,-33.90111,0 18.43208,-33.90102,0 18.43293,-33.90079,0 18.4334,-33.90064,0 18.43439,-33.90028,0 18.43534,-33.89985,0 18.43596,-33.89946,0 18.43655,-33.89901,0 18.43719,-33.89827,0 18.43769,-33.89757,0 18.43803,-33.89692,0 18.43832,-33.89594,0 18.43849,-33.89538,0 18.43865,-33.89447,0 18.43876,-33.89378,0 18.43881,-33.89287,0 18.43878,-33.89194,0 18.43866,-33.89105,0 18.43855,-33.89026,0 18.43831,-33.88939,0 18.43809,-33.88866,0 18.43775,-33.88756,0 18.4374,-33.88672,0 18.43708,-33.88596,0 18.4368,-33.88527,0 18.43646,-33.88449,0 18.43601,-33.88358,0 18.43569,-33.88295,0 18.43523,-33.88197,0 18.43478,-33.88115,0 18.43427,-33.88033,0 18.43399,-33.87978,0 18.43371,-33.87936,0 18.4334,-33.87895,0 18.433,-33.87881,0 18.43254,-33.87895,0 18.43231,-33.87918,0 18.43225,-33.87955,0 18.43243,-33.87997,0 18.4327,-33.88033,0 18.43306,-33.88058,0 18.43355,-33.88069,0 18.4338,-33.88058,0 18.43403,-33.8803,0 18.43391,-33.87974,0 18.43349,-33.87918,0 18.43282,-33.87872,0 18.43214,-33.87831,0 18.43145,-33.87807,0 18.43029,-33.87772,0 18.42939,-33.87755,0 18.42825,-33.87737,0 18.42728,-33.87727,0 18.42609,-33.87717,0 18.42503,-33.87712,0 18.42384,-33.87704,0 18.42299,-33.87704,0 18.42167,-33.87704,0 18.42054,-33.87708,0 18.41948,-33.87717,0 18.41852,-33.87726,0 18.41755,-33.87737,0 18.41669,-33.87751,0 18.41537,-33.87774,0 18.41452,-33.87788,0 18.4136,-33.87811,0 18.41251,-33.87844,0 18.41191,-33.87859,0 18.41045,-33.87909,0 18.40956,-33.87936,0 18.40851,-33.87979,0 18.40759,-33.8801,0 18.4067,-33.88042,0 18.40586,-33.88078,0 18.40496,-33.88115,0 18.40384,-33.88165,0 18.40284,-33.88207,0 18.40193,-33.88252,0 18.40107,-33.88295,0 18.40004,-33.88342,0 18.39902,-33.88394,0 18.39818,-33.8844,0 18.39722,-33.8849,0 18.39638,-33.88536,0 18.39535,-33.88598,0 18.3942,-33.88668,0 18.39336,-33.88724,0 18.39231,-33.88789,0 18.39151,-33.88843,0 18.39072,-33.88902,0 18.38988,-33.88957,0 18.38865,-33.8904,0 18.38792,-33.89099,0 18.38691,-33.89168,0 18.38607,-33.89227,0 18.38539,-33.89278,0 18.38476,-33.89329,0 18.38343,-33.89429,0 18.38264,-33.89487,0 18.38173,-33.89566,0 18.3807,-33.8965,0 18.37978,-33.89729,0 18.37898,-33.89804,0 18.37835,-33.89869,0 18.37761,-33.89941,0 18.37676,-33.90028,0 18.37598,-33.90111,0 18.37515,-33.90195,0 18.37418,-33.90292,0 18.37349,-33.90367,0 18.3729,-33.90431,0 18.372,-33.90532,0 18.37126,-33.90614,0 18.37069,-33.90679,0 18.36983,-33.90781,0 18.36892,-33.90884,0 18.36813,-33.90981,0 18.36662,-33.91154,0 18.36565,-33.9127,0 18.36502,-33.9134,0 18.36432,-33.91425,0 18.36342,-33.91526,0 18.36258,-33.91617,0 18.36129,-33.91782,0 18.3609,-33.91855,0 18.36073,-33.91968,0 18.3609,-33.92033,0 18.36118,-33.92088,0 18.36182,-33.92145,0 18.36269,-33.92194,0 18.36342,-33.92212,0 18.36415,-33.92221,0 18.36491,-33.92206,0 18.36559,-33.92178,0 18.36606,-33.92125,0 18.36611,-33.92085,0 18.36572,-33.92038,0 18.36527,-33.9202,0 18.36456,-33.9202,0 18.3637,-33.92048,0 18.36302,-33.92089,0 18.36241,-33.92148,0 18.36176,-33.92229,0 18.36124,-33.92299,0 18.36073,-33.92392,0 18.36034,-33.92473,0 18.36,-33.92546,0 18.35956,-33.92638,0 18.35911,-33.92729,0 18.35872,-33.92834,0 18.35832,-33.92921,0 18.35782,-33.93036,0 18.35735,-33.93146,0 18.35698,-33.93242,0 18.35653,-33.93343,0 18.35615,-33.9343,0 18.35574,-33.93526,0 18.35524,-33.93636,0 18.3539,-33.93924,0 18.35227,-33.94276,0 18.3507,-33.9462,0</coordinates>
      </LineString>
    </Placemark>
  </Document>
</kml>
