<?xml version="1.0" encoding="UTF-8"?>
<kml xmlns="http://www.opengis.net/kml/2.2">
  <Document>
    <name>FR24 407bce3b</name>
    <Placemark>
      <name>FR24 407bce3b</name>
      <Style><LineStyle><color>ff0000ff</color><width>4</width></LineStyle></Style>
      <LineString>
        <tessellate>1</tessellate>
        <coordinates>18.43231,-33.89337,0 18.43394,-33.89122,0 18.43512,-33.88956,0 18.43534,-33.88916,0 18.43569,-33.88854,0 18.43592,-33.88798,0 18.43612,-33.88742,0 18.43618,-33.88673,0 18.43609,-33.88607,0 18.43597,-33.8856,0 18.4358,-33.88519,0 18.4354,-33.88454,0 18.43506,-33.88408,0 18.43472,-33.8837,0 18.43427,-33.8833,0 18.43382,-33.88298,0 18.43321,-33.88261,0 18.43243,-33.88235,0 18.43157,-33.88216,0 18.43085,-33.88211,0 18.43018,-33.88206,0 18.42928,-33.88202,0 18.42844,-33.88197,0 18.42755,-33.88193,0 18.42659,-33.88188,0 18.42579,-33.88188,0 18.4248,-33.88184,0 18.42419,-33.88184,0 18.42301,-33.88179,0 18.42184,-33.88184,0 18.42099,-33.88184,0 18.42018,-33.88184,0 18.41908,-33.88184,0 18.41801,-33.88188,0 18.41698,-33.88193,0 18.416,-33.88198,0 18.41471,-33.88206,0 18.4137,-33.88211,0 18.41274,-33.88221,0 18.41146,-33.88234,0 18.41045,-33.88244,0 18.40942,-33.88253,0 18.40839,-33.88268,0 18.40714,-33.88284,0 18.40605,-33.883,0 18.40485,-33.88319,0 18.40356,-33.88348,0 18.40227,-33.88379,0 18.40107,-33.88416,0 18.39993,-33.88454,0 18.39878,-33.88496,0 18.39756,-33.88545,0 18.39649,-33.88593,0 18.39554,-33.88641,0 18.39437,-33.88705,0 18.39341,-33.8876,0 18.39229,-33.88829,0 18.39163,-33.88873,0 18.39048,-33.88952,0 18.38954,-33.89017,0 18.38859,-33.89085,0 18.38768,-33.89157,0 18.38691,-33.89223,0 18.3859,-33.89305,0 18.38505,-33.8938,0 18.38425,-33.89455,0 18.38339,-33.89534,0 18.38254,-33.89612,0 18.38179,-33.89678,0 18.3808,-33.89763,0 18.37985,-33.89845,0 18.37906,-33.89914,0 18.37833,-33.89983,0 18.37744,-33.90064,0 18.37665,-33.90138,0 18.37581,-33.90216,0 18.37475,-33.90316,0 18.37395,-33.90395,0 18.37133,-33.90642,0 18.36737,-33.91028,0 18.36656,-33.91113,0 18.36508,-33.91275,0 18.36405,-33.91396,0 18.36308,-33.91512,0 18.3621,-33.91638,0 18.36136,-33.9174,0 18.36061,-33.91838,0 18.35961,-33.91974,0 18.35884,-33.9208,0 18.3581,-33.92192,0 18.35726,-33.92322,0 18.35678,-33.92401,0 18.35592,-33.92536,0 18.35529,-33.92643,0 18.35457,-33.9278,0 18.35384,-33.92912,0 18.35328,-33.93022,0 18.35266,-33.93142,0 18.35186,-33.93304,0 18.35132,-33.93411,0 18.35083,-33.93523,0 18.35019,-33.93681,0 18.34975,-33.93805,0 18.3493,-33.93924,0 18.34891,-33.94048,0 18.34854,-33.94189,0 18.34812,-33.94345,0 18.34785,-33.94477,0 18.34762,-33.94597,0 18.3474,-33.94733,0 18.34723,-33.94887,0 18.347,-33.95059,0 18.34678,-33.9521,0 18.34654,-33.95385,0 18.34637,-33.95544,0 18.34621,-33.95682,0 18.34597,-33.95832,0 18.34571,-33.95993,0 18.34543,-33.96162,0 18.34379,-33.96828,0 18.34268,-33.97169,0 18.34156,-33.9748,0 18.34007,-33.97894,0 18.33747,-33.98611,0 18.33618,-33.99007,0 18.33464,-33.9943,0 18.33327,-33.9982,0 18.33178,-34.00278,0 18.33102,-34.00548,0 18.33063,-34.00692,0 18.33029,-34.00855,0 18.33002,-34.01015,0 18.32983,-34.01167,0 18.32973,-34.01312,0 18.32966,-34.01451,0 18.32968,-34.01578,0 18.32972,-34.0174,0 18.32983,-34.0187,0 18.33007,-34.02031,0 18.3304,-34.02168,0 18.3308,-34.02315,0 18.33136,-34.02466,0 18.33192,-34.02589,0 18.33254,-34.02708,0 18.33338,-34.02864,0 18.33412,-34.02987,0 18.33512,-34.03162,0 18.3359,-34.0329,0 18.33652,-34.03406,0 18.33738,-34.0355,0 18.33809,-34.03679,0 18.33893,-34.0383,0 18.33956,-34.0396,0 18.34039,-34.04132,0 18.34087,-34.04268,0 18.34139,-34.04435,0 18.34173,-34.04572,0 18.34207,-34.047,0 18.34246,-34.04828,0 18.34296,-34.04993,0 18.34347,-34.05112,0 18.34409,-34.05258,0 18.34459,-34.05377,0 18.34517,-34.05501,0 18.34566,-34.05638,0 18.34597,-34.05757,0 18.34621,-34.05872,0 18.34631,-34.05999,0 18.34614,-34.06134,0 18.34579,-34.06241,0 18.34499,-34.06353,0 18.34375,-34.0643,0 18.34246,-34.06439,0 18.34162,-34.06407,0 18.34087,-34.06325,0 18.34055,-34.06242,0 18.34042,-34.06162,0 18.34027,-34.06055,0 18.34022,-34.05959,0 18.34019,-34.05878,0 18.34016,-34.0578,0 18.34013,-34.05687,0 18.34016,-34.05579,0 18.34013,-34.05482,0 18.34019,-34.05413,0 18.34019,-34.05301,0 18.34024,-34.05208,0 18.3403,-34.05119,0 18.34033,-34.05038,0 18.34039,-34.04938,0 18.34039,-34.04851,0 18.34044,-34.0475,0 18.3405,-34.04681,0 18.34064,-34.04561,0 18.34072,-34.04475,0 18.34078,-34.04393,0 18.34087,-34.04314,0 18.34105,-34.04207,0 18.34111,-34.04128,0 18.34127,-34.04035,0 18.34139,-34.0394,0 18.34156,-34.03844,0 18.34179,-34.03743,0 18.3419,-34.03643,0 18.34213,-34.03537,0 18.34224,-34.03468,0 18.34236,-34.0336,0 18.34253,-34.03248,0 18.34302,-34.02969,0 18.34333,-34.02861,0 18.34375,-34.02777,0 18.34442,-34.02667,0 18.34499,-34.02582,0 18.34562,-34.02485,0 18.34621,-34.02402,0 18.34683,-34.02292,0 18.34739,-34.02196,0 18.3479,-34.02095,0 18.34831,-34.0201,0 18.34863,-34.0193,0 18.34902,-34.01811,0 18.34923,-34.01721,0 18.34947,-34.01628,0 18.34969,-34.0154,0 18.34986,-34.0145,0 18.35009,-34.01353,0 18.35031,-34.01248,0 18.35048,-34.01161,0 18.35064,-34.0106,0 18.35092,-34.00932,0 18.35112,-34.00837,0 18.35132,-34.00745,0 18.35152,-34.00664,0 18.35171,-34.00552,0 18.35192,-34.00455,0 18.35216,-34.00346,0 18.35238,-34.00237,0 18.35266,-34.00148,0 18.353,-34.00063,0 18.35345,-33.99971,0 18.35415,-33.99873,0 18.35485,-33.99783,0 18.35558,-33.9971,0 18.35658,-33.99614,0 18.35764,-33.99524,0 18.3585,-33.99454,0 18.35944,-33.9938,0 18.36045,-33.99294,0 18.36135,-33.9922,0 18.3621,-33.99151,0 18.36325,-33.99039,0 18.36398,-33.98964,0 18.36473,-33.98872,0 18.36548,-33.98765,0 18.36606,-33.98671,0 18.36656,-33.98566,0 18.36691,-33.98453,0 18.36714,-33.98374,0 18.36737,-33.98267,0 18.36765,-33.98155,0 18.36785,-33.98067,0 18.36811,-33.9795,0 18.36828,-33.97848,0 18.36847,-33.97737,0 18.36864,-33.97623,0 18.3688,-33.97517,0 18.36891,-33.97401,0 18.36903,-33.97289,0 18.36903,-33.97224,0 18.36903,-33.97057,0 18.3688,-33.9678,0 18.36868,-33.96689,0 18.3683,-33.96455,0 18.36819,-33.96359,0 18.36796,-33.9624,0 18.36774,-33.96098,0 18.3676,-33.96004,0 18.3674,-33.95897,0 18.36725,-33.95781,0 18.36712,-33.95663,0 18.36702,-33.95557,0 18.36695,-33.95448,0 18.3669,-33.95334,0 18.36685,-33.95241,0 18.36673,-33.95123,0 18.36667,-33.95018,0 18.36656,-33.94913,0 18.36651,-33.94817,0 18.36645,-33.94707,0 18.36639,-33.94608,0 18.36634,-33.9451,0 18.36628,-33.94408,0 18.36622,-33.94305,0 18.36623,-33.93983,0 18.36628,-33.93867,0 18.36634,-33.93765,0 18.36634,-33.93695,0 18.36639,-33.93562,0 18.36639,-33.93495,0 18.36645,-33.93365,0 18.36651,-33.93253,0 18.36656,-33.93159,0 18.36674,-33.93053,0 18.36691,-33.92946,0 18.36708,-33.92862,0 18.36742,-33.92746,0 18.3678,-33.92656,0 18.3683,-33.92537,0 18.3688,-33.92441,0 18.36931,-33.92358,0 18.37006,-33.92248,0 18.37063,-33.92164,0 18.37144,-33.92056,0 18.37212,-33.91964,0 18.3728,-33.91875,0 18.37368,-33.91768,0 18.37446,-33.9168,0 18.37521,-33.91591,0 18.37606,-33.91489,0 18.37682,-33.91402,0 18.37766,-33.91301,0 18.3783,-33.91233,0 18.37917,-33.91127,0 18.37996,-33.9104,0</coordinates>
      </LineString>
    </Placemark>
  </Document>
</kml>
