<?xml version="1.0" encoding="UTF-8"?>
<kml xmlns="http://www.opengis.net/kml/2.2">
  <Document>
    <name>FR24 3f790027</name>
    <Placemark>
      <name>FR24 3f790027</name>
      <Style><LineStyle><color>ff0000ff</color><width>4</width></LineStyle></Style>
      <LineString>
        <tessellate>1</tessellate>
        <coordinates>18.40113,-33.87835,0 18.39695,-33.87993,0 18.38682,-33.87753,0 18.38782,-33.87885,0 18.38713,-33.88087,0 18.38485,-33.8819,0 18.38432,-33.88192,0 18.38691,-33.88582,0 18.38205,-33.88876,0 18.38404,-33.89148,0 18.37294,-33.8923,0 18.36068,-33.90254,0 18.35553,-33.90459,0 18.34704,-33.905,0 18.36096,-33.91,0 18.36033,-33.9107,0 18.3544,-33.91188,0 18.35457,-33.91301,0 18.35276,-33.91389,0 18.35455,-33.91787,0 18.3539,-33.91864,0 18.35143,-33.92189,0 18.35036,-33.9234,0 18.34963,-33.92439,0 18.34917,-33.92504,0 18.34846,-33.92596,0 18.34801,-33.92656,0 18.34717,-33.92766,0 18.3466,-33.92848,0 18.3461,-33.92917,0 18.34539,-33.93011,0 18.34482,-33.9309,0 18.34414,-33.93183,0 18.34368,-33.93248,0 18.34308,-33.93329,0 18.34259,-33.93398,0 18.3419,-33.93491,0 18.34122,-33.93584,0 18.3407,-33.93663,0 18.34013,-33.93747,0 18.33961,-33.93826,0 18.3391,-33.939,0 18.33836,-33.94012,0 18.33792,-33.94084,0 18.33742,-33.94162,0 18.33685,-33.94249,0 18.33624,-33.94341,0 18.33572,-33.94422,0 18.33394,-33.94684,0 18.33223,-33.94934,0 18.33057,-33.95166,0 18.32977,-33.95278,0 18.32923,-33.95352,0 18.32874,-33.95422,0 18.32823,-33.95497,0 18.32754,-33.9559,0 18.32699,-33.95668,0 18.32402,-33.96094,0 18.32127,-33.96487,0 18.31867,-33.96861,0 18.31593,-33.97266,0 18.31432,-33.97522,0 18.31297,-33.97755,0 18.31255,-33.97829,0 18.31203,-33.97932,0 18.31163,-33.98011,0 18.31112,-33.98109,0 18.31079,-33.98177,0 18.30984,-33.9836,0 18.30944,-33.98442,0 18.30883,-33.98557,0 18.30757,-33.98816,0 18.30619,-33.99069,0 18.30482,-33.99324,0 18.30437,-33.99417,0 18.30395,-33.99513,0 18.30362,-33.99577,0 18.30322,-33.99664,0 18.30276,-33.99775,0 18.30233,-33.9987,0 18.30185,-33.9998,0 18.30151,-34.00055,0 18.30105,-34.00166,0 18.30064,-34.00259,0 18.29952,-34.00525,0 18.29807,-34.00859,0 18.29644,-34.01262,0 18.29493,-34.01646,0 18.29418,-34.01838,0 18.2939,-34.01954,0 18.29372,-34.02042,0 18.29361,-34.02131,0 18.29358,-34.02237,0 18.29369,-34.02324,0 18.29407,-34.02424,0 18.29465,-34.02512,0 18.29527,-34.02568,0 18.29636,-34.0262,0 18.29721,-34.02647,0 18.2984,-34.02649,0 18.29945,-34.02633,0 18.30048,-34.02601,0 18.30156,-34.02545,0 18.30248,-34.0248,0 18.30351,-34.02391,0 18.30423,-34.02324,0 18.30513,-34.02223,0 18.30591,-34.02121,0 18.30643,-34.02061,0 18.30709,-34.01962,0 18.30782,-34.01862,0 18.30837,-34.01781,0 18.30894,-34.01698,0 18.30972,-34.01596,0 18.3104,-34.015,0 18.31107,-34.01408,0 18.31198,-34.01283,0 18.31261,-34.012,0 18.3132,-34.0112,0 18.31387,-34.01019,0 18.3145,-34.0093,0 18.3153,-34.00809,0 18.31589,-34.00722,0 18.31656,-34.00636,0 18.31718,-34.00543,0 18.31791,-34.00443,0 18.31847,-34.0036,0 18.31925,-34.00241,0 18.31987,-34.00152,0 18.32045,-34.00064,0 18.32113,-33.99961,0 18.32312,-33.99669,0 18.32502,-33.99384,0 18.32716,-33.99074,0 18.32914,-33.98774,0 18.33321,-33.98181,0 18.33629,-33.97733,0 18.33753,-33.97549,0 18.33994,-33.97197,0 18.34396,-33.9654,0 18.34665,-33.96116,0 18.35009,-33.95585,0 18.35277,-33.95151,0 18.35541,-33.9472,0 18.35731,-33.94405,0 18.3597,-33.94003,0 18.36142,-33.937,0 18.36273,-33.93472,0 18.3633,-33.93374,0 18.36404,-33.93251,0 18.36454,-33.93173,0 18.36656,-33.9283,0 18.36794,-33.92606,0 18.36852,-33.92514,0 18.36992,-33.92299,0 18.37229,-33.9195,0 18.37503,-33.91553,0 18.37664,-33.91321,0 18.37881,-33.91023,0 18.38161,-33.90632,0 18.38213,-33.90562,0 18.38299,-33.90445,0 18.38366,-33.90353,0 18.38433,-33.90266,0 18.38528,-33.90147,0 18.38596,-33.90064,0 18.38691,-33.89955,0 18.38774,-33.89864,0 18.38848,-33.89786,0 18.38945,-33.89687,0 18.39037,-33.89608,0 18.39162,-33.89511,0 18.39263,-33.89438,0 18.39369,-33.89374,0 18.39443,-33.89329,0 18.39621,-33.89236,0 18.39735,-33.89185,0 18.39846,-33.8914,0 18.39958,-33.89095,0 18.40107,-33.89045,0 18.40221,-33.89003,0 18.40333,-33.88966,0 18.40467,-33.88929,0 18.40622,-33.88887,0 18.40714,-33.88868,0 18.40866,-33.88829,0 18.40971,-33.88794,0 18.41114,-33.8877,0 18.41224,-33.88742,0 18.41343,-33.88714,0 18.41486,-33.88686,0 18.41606,-33.88664,0 18.41726,-33.88635,0 18.41835,-33.88614,0 18.41978,-33.88584,0 18.42081,-33.8856,0 18.42201,-33.88537,0 18.42301,-33.88518,0 18.42419,-33.88496,0 18.42547,-33.88481,0 18.42636,-33.88472,0 18.42773,-33.88463,0 18.42884,-33.88463,0 18.4299,-33.88472,0 18.43091,-33.8849,0 18.43203,-33.88528,0 18.43282,-33.88564,0 18.43371,-33.88618,0 18.43454,-33.88686,0 18.43528,-33.8877,0 18.43573,-33.88811,0 18.43643,-33.889,0 18.43691,-33.88976,0 18.43729,-33.89035,0 18.43752,-33.89108,0 18.43764,-33.89154,0 18.43775,-33.8924,0 18.43763,-33.89301,0 18.43624,-33.89447,0 18.4359,-33.89488,0 18.43573,-33.89552,0 18.43552,-33.89608,0 18.43539,-33.89653,0 18.43529,-33.89701,0 18.43511,-33.89745,0 18.43494,-33.8979,0 18.43466,-33.89827,0 18.43422,-33.89864,0 18.43386,-33.89887,0 18.43327,-33.89909,0 18.43091,-33.89951,0 18.43018,-33.89964,0 18.42968,-33.89969,0 18.42945,-33.89976,0 18.43449,-33.89147,0 18.43489,-33.88916,0 18.40857,-33.88114,0 18.4049,-33.88198,0 18.40307,-33.88244,0 18.40204,-33.88277,0 18.40113,-33.883,0 18.40031,-33.8833,0 18.39924,-33.8837,0 18.3984,-33.88399,0 18.3975,-33.88669,0 18.38937,-33.88556,0 18.39027,-33.88779,0 18.38296,-33.88629,0 18.38688,-33.8898,0 18.35928,-33.8872,0 18.36385,-33.88948,0 18.36736,-33.89468,0 18.3729,-33.89946,0 18.37212,-33.90013,0 18.37149,-33.90065,0 18.37063,-33.90139,0 18.36998,-33.90207,0 18.3692,-33.90279,0 18.36695,-33.90495,0 18.36634,-33.90562,0 18.36565,-33.90632,0 18.36499,-33.90706,0 18.36421,-33.90788,0 18.36359,-33.90857,0 18.36286,-33.90939,0 18.36222,-33.91014,0 18.36168,-33.91081,0 18.36102,-33.91163,0 18.3604,-33.91237,0 18.35976,-33.91321,0 18.35916,-33.91397,0 18.3586,-33.9147,0 18.35793,-33.91563,0 18.35737,-33.9164,0 18.35678,-33.91722,0 18.35615,-33.91805,0 18.35564,-33.9188,0 18.35518,-33.91954,0 18.35449,-33.92052,0 18.35395,-33.9213,0 18.35346,-33.92201,0 18.35295,-33.92276,0 18.35226,-33.92373,0 18.35163,-33.92462,0 18.35112,-33.92536,0 18.35054,-33.9262,0 18.34991,-33.92709,0 18.34934,-33.92792,0 18.34705,-33.93123,0 18.34504,-33.93448,0 18.34402,-33.93626,0 18.34299,-33.93798,0 18.34253,-33.93886,0 18.34224,-33.93956,0 18.34184,-33.94061,0 18.34151,-33.94148,0 18.34127,-33.94226,0 18.34089,-33.94331,0 18.34053,-33.94426,0 18.34024,-33.94492,0 18.33973,-33.94613,0 18.33938,-33.94698,0 18.33893,-33.94789,0 18.33841,-33.94887,0 18.33807,-33.94966,0 18.33755,-33.95069,0 18.33719,-33.95142,0 18.33675,-33.95236,0 18.33629,-33.95334,0 18.33596,-33.95407,0 18.33551,-33.95508,0 18.33517,-33.95586,0 18.33478,-33.95673,0 18.33439,-33.95773,0 18.33406,-33.95846,0 18.33366,-33.95939,0 18.3322,-33.96318,0 18.33097,-33.96679,0 18.33052,-33.96812,0 18.32972,-33.97108,0 18.32951,-33.97206,0 18.32929,-33.97316,0 18.32869,-33.9761,0 18.32823,-33.97983,0 18.32817,-33.98213,0 18.32823,-33.98448,0 18.32839,-33.98689,0 18.32851,-33.98895,0 18.32856,-33.98941,0 18.32897,-33.99268,0 18.32906,-33.9933,0 18.32926,-33.9944,0 18.32949,-33.99566,0 18.32972,-33.99673,0 18.32985,-33.99756,0 18.33002,-33.99843,0 18.33024,-33.99934,0 18.33046,-34.00049,0 18.33069,-34.00136,0 18.33086,-34.00223,0 18.33109,-34.00324,0 18.3313,-34.00415,0 18.43522,-34.13702,0 18.43867,-34.13783,0 18.44018,-34.13821,0 18.44147,-34.1383,0 18.44287,-34.13837,0 18.44449,-34.13803,0 18.44575,-34.13761,0 18.44703,-34.13725,0 18.44784,-34.13711,0 18.4502,-34.13633,0 18.45134,-34.13582,0 18.45249,-34.13528,0 18.45386,-34.13476,0 18.4552,-34.13414,0 18.45627,-34.1335,0 18.4576,-34.13271,0 18.45705,-34.13282,0 18.46013,-34.13099,0 18.46145,-34.13026,0 18.46247,-34.12936,0 18.46354,-34.12852,0 18.46448,-34.12771,0 18.46549,-34.1268,0 18.46647,-34.12588,0 18.46751,-34.12493,0 18.46861,-34.12381,0 18.46949,-34.12281,0 18.47034,-34.12201,0 18.47125,-34.12105,0 18.47214,-34.11996,0 18.47299,-34.11896,0 18.4737,-34.11795,0 18.47433,-34.11691,0 18.47495,-34.11583,0 18.4755,-34.1145,0 18.476,-34.11347,0 18.47643,-34.11242,0 18.4768,-34.11145,0 18.47721,-34.11037,0 18.47762,-34.10916,0 18.478,-34.10781,0 18.47839,-34.10672,0 18.4787,-34.10569,0 18.47904,-34.10464,0 18.47931,-34.10327,0 18.47922,-34.10213,0 18.47921,-34.10102,0 18.47762,-34.10069,0 18.4795,-34.09872,0 18.47979,-34.09711,0 18.48047,-34.0958,0 18.47917,-34.09516,0 18.47933,-34.09388,0 18.48003,-34.09228,0 18.48035,-34.0911,0 18.48037,-34.08998,0 18.48035,-34.08889,0 18.48055,-34.0877,0 18.48014,-34.08652,0 18.4801,-34.08537,0 18.48011,-34.08423,0 18.4797,-34.08322,0 18.47957,-34.08206,0 18.47944,-34.08103,0 18.47956,-34.07974,0 18.47963,-34.07847,0 18.47965,-34.07734,0 18.47967,-34.07616,0 18.47909,-34.07518,0 18.47915,-34.07396,0 18.47945,-34.07283,0 18.47971,-34.07164,0 18.47959,-34.0703,0 18.47963,-34.06924,0 18.47985,-34.06809,0 18.47993,-34.06707,0 18.48013,-34.06589,0 18.47999,-34.0648,0 18.4802,-34.06353,0 18.48065,-34.06002,0</coordinates>
      </LineString>
    </Placemark>
  </Document>
</kml>
