<?xml version="1.0" encoding="UTF-8"?>
<kml xmlns="http://www.opengis.net/kml/2.2">
  <Document>
    <name>FR24 412633a6</name>
    <Placemark>
      <name>FR24 412633a6</name>
      <Style><LineStyle><color>ff0000ff</color><width>4</width></LineStyle></Style>
      <LineString>
        <tessellate>1</tessellate>
        <coordinates>18.37847,-34.19206,0 18.3783,-34.19411,0 18.37828,-34.19467,0 18.37818,-34.19532,0 18.37805,-34.19577,0 18.37772,-34.19646,0 18.37738,-34.19701,0 18.37682,-34.19769,0 18.37581,-34.19865,0 18.37498,-34.19923,0 18.37391,-34.19994,0 18.37275,-34.20044,0 18.37166,-34.20076,0 18.37071,-34.20099,0 18.37,-34.20109,0 18.36874,-34.20118,0 18.36782,-34.20123,0 18.36662,-34.20131,0 18.36514,-34.20156,0 18.36399,-34.20193,0 18.36309,-34.20245,0 18.36216,-34.20346,0 18.36164,-34.20472,0 18.36146,-34.20584,0 18.36146,-34.20685,0 18.36157,-34.20781,0 18.3618,-34.20905,0 18.36197,-34.21005,0 18.36213,-34.21106,0 18.3625,-34.21268,0 18.36275,-34.21367,0 18.36297,-34.21472,0 18.36336,-34.21608,0 18.36359,-34.2171,0 18.36393,-34.21832,0 18.36422,-34.21939,0 18.36468,-34.22078,0 18.36505,-34.22195,0 18.36533,-34.22301,0 18.36578,-34.22429,0 18.36611,-34.22553,0 18.36645,-34.2266,0 18.36673,-34.22777,0 18.36707,-34.2291,0 18.36735,-34.23033,0 18.36768,-34.23166,0 18.36791,-34.23276,0 18.36828,-34.23428,0 18.36857,-34.23559,0 18.3688,-34.23661,0 18.3692,-34.23807,0 18.36953,-34.23926,0 18.36988,-34.24024,0 18.3704,-34.24178,0 18.37077,-34.24315,0 18.37105,-34.24461,0 18.3712,-34.24574,0 18.37143,-34.24751,0 18.37155,-34.24883,0 18.37166,-34.25002,0 18.37177,-34.2513,0 18.37183,-34.25239,0 18.37194,-34.25414,0 18.37206,-34.25551,0 18.37211,-34.25688,0 18.37223,-34.25812,0 18.37234,-34.25942,0 18.3725,-34.26086,0 18.37267,-34.26215,0 18.37284,-34.26334,0 18.37312,-34.2648,0 18.3734,-34.26608,0 18.3736,-34.2671,0 18.37406,-34.26868,0 18.37452,-34.2702,0 18.37498,-34.27171,0 18.37536,-34.27318,0 18.37566,-34.27422,0 18.37595,-34.27557,0 18.37632,-34.27739,0 18.37648,-34.27885,0 18.37669,-34.28018,0 18.37704,-34.28176,0 18.37738,-34.2827,0 18.37812,-34.28414,0 18.37884,-34.28508,0 18.38024,-34.28627,0 18.38161,-34.28689,0 18.38293,-34.28717,0 18.38385,-34.28717,0 18.38523,-34.28687,0 18.38619,-34.28637,0 18.38705,-34.28558,0 18.38757,-34.28465,0 18.38764,-34.28394,0 18.38745,-34.28298,0 18.38699,-34.28214,0 18.38614,-34.28116,0 18.38442,-34.28023,0 18.38356,-34.28,0 18.38179,-34.27995,0 18.38024,-34.28028,0 18.37864,-34.28102,0 18.37755,-34.28191,0 18.37844,-34.29263,0 18.38158,-34.2962,0 18.38517,-34.29996,0 18.38786,-34.30275,0 18.38876,-34.30385,0 18.38977,-34.30499,0 18.39077,-34.30621,0 18.39157,-34.30718,0 18.39252,-34.30833,0 18.39324,-34.30925,0 18.39415,-34.31035,0 18.39512,-34.31142,0 18.39621,-34.31268,0 18.39705,-34.31364,0 18.39798,-34.31472,0 18.3989,-34.3157,0 18.39987,-34.31682,0 18.40081,-34.3179,0 18.40171,-34.31891,0 18.40255,-34.31987,0 18.40328,-34.32056,0 18.40422,-34.32152,0 18.40535,-34.32262,0 18.40647,-34.32367,0 18.40754,-34.32469,0 18.40877,-34.32578,0 18.40989,-34.32674,0 18.41112,-34.32779,0 18.4124,-34.32883,0 18.41343,-34.32967,0 18.41469,-34.33069,0 18.41572,-34.33149,0 18.41723,-34.3326,0 18.41824,-34.3333,0 18.41936,-34.33401,0 18.42093,-34.33502,0 18.42228,-34.3358,0 18.42327,-34.33642,0 18.4247,-34.33726,0 18.42579,-34.33796,0 18.4271,-34.33878,0 18.42822,-34.33946,0 18.42968,-34.34042,0 18.43054,-34.34098,0 18.43198,-34.34184,0 18.433,-34.34252,0 18.43403,-34.34317,0 18.43512,-34.34382,0 18.43635,-34.34468,0 18.43775,-34.34559,0 18.43855,-34.34615,0 18.43975,-34.34694,0 18.44078,-34.34764,0 18.44204,-34.34848,0 18.44307,-34.34917,0 18.4441,-34.34992,0 18.44526,-34.35081,0 18.44655,-34.35187,0 18.44736,-34.35257,0 18.44862,-34.35365,0 18.44958,-34.35448,0 18.45075,-34.35544,0 18.45165,-34.35616,0 18.45263,-34.35695,0 18.45377,-34.35783,0 18.45468,-34.3586,0 18.45572,-34.35942,0 18.45703,-34.36039,0 18.45835,-34.36137,0 18.45933,-34.36203,0 18.46045,-34.36276,0 18.46174,-34.36354,0 18.4627,-34.36412,0 18.46407,-34.36491,0 18.46527,-34.3657,0 18.46601,-34.36621,0 18.46756,-34.36737,0 18.46836,-34.36803,0 18.46956,-34.36905,0 18.47054,-34.36986,0 18.47155,-34.37059,0 18.4725,-34.37132,0 18.47385,-34.37224,0 18.47486,-34.37288,0 18.47614,-34.37357,0 18.47721,-34.37407,0 18.47855,-34.37459,0 18.47962,-34.37494,0 18.48097,-34.37526,0 18.48232,-34.37548,0 18.48349,-34.37558,0 18.48467,-34.37561,0 18.48564,-34.37557,0 18.48696,-34.37549,0 18.48792,-34.3754,0 18.48902,-34.3752,0 18.49027,-34.37494,0 18.49119,-34.37468,0 18.49222,-34.37436,0 18.49313,-34.37407,0 18.49422,-34.37362,0 18.49526,-34.3732,0 18.49623,-34.37273,0 18.49703,-34.37236,0 18.49789,-34.37192,0 18.49892,-34.37138,0 18.49986,-34.37086,0 18.50098,-34.37022,0 18.50172,-34.36971,0 18.50235,-34.36929,0 18.50316,-34.36876,0 18.50406,-34.36812,0 18.5051,-34.36733,0 18.5058,-34.36679,0 18.50647,-34.3662,0 18.5071,-34.36556,0 18.50779,-34.36477,0 18.50843,-34.36386,0 18.50882,-34.36319,0 18.50927,-34.36235,0 18.50956,-34.3616,0 18.50978,-34.36084,0 18.51,-34.35992,0 18.51011,-34.35905,0 18.51013,-34.35802,0 18.51,-34.35709,0 18.50973,-34.35616,0 18.50922,-34.35527,0 18.50864,-34.35453,0 18.5079,-34.35387,0 18.50704,-34.35327,0 18.50591,-34.3526,0 18.50484,-34.35219,0 18.504,-34.35196,0 18.50269,-34.35192,0 18.50171,-34.35223,0 18.50075,-34.35292,0 18.50018,-34.35364,0 18.4998,-34.35443,0 18.49952,-34.35562,0 18.49952,-34.35672,0 18.49972,-34.35783,0 18.50025,-34.3591,0 18.50103,-34.36021,0 18.50204,-34.36121,0 18.50286,-34.36179,0 18.50418,-34.36244,0 18.50535,-34.36281,0 18.50647,-34.36295,0 18.5077,-34.3629,0 18.50853,-34.36277,0 18.50979,-34.3623,0 18.51062,-34.3618,0 18.51129,-34.36116,0 18.51185,-34.36044,0 18.51225,-34.35983,0 18.51258,-34.35915,0 18.51275,-34.35846,0 18.51288,-34.35755,0 18.51292,-34.35681,0 18.51271,-34.35574,0 18.51242,-34.35504,0 18.51191,-34.35416,0 18.5114,-34.35352,0 18.5107,-34.35281,0 18.50972,-34.35214,0 18.50877,-34.35159,0 18.50773,-34.35099,0 18.50686,-34.35045,0 18.50607,-34.34987,0 18.50524,-34.34912,0 18.50456,-34.34853,0 18.50389,-34.3477,0 18.50344,-34.34702,0 18.50299,-34.34624,0 18.50249,-34.34518,0 18.50215,-34.34422,0 18.50178,-34.34326,0 18.50155,-34.34261,0 18.5012,-34.34157,0 18.50098,-34.34084,0 18.50075,-34.34,0 18.50053,-34.33891,0 18.50035,-34.33809,0 18.50018,-34.33688,0 18.50008,-34.33603,0 18.49997,-34.33493,0 18.49989,-34.33405,0 18.49977,-34.33311,0 18.49966,-34.33223,0 18.49957,-34.33127,0 18.49943,-34.33041,0 18.49913,-34.32944,0 18.49874,-34.32855,0 18.49823,-34.3278,0 18.49739,-34.32692,0 18.49655,-34.32623,0 18.49543,-34.32568,0 18.49436,-34.32536,0 18.49302,-34.3252,0 18.49184,-34.32523,0 18.49022,-34.32559,0 18.48898,-34.32614,0 18.48803,-34.32664,0 18.48696,-34.32725,0 18.48433,-34.32762,0 18.48343,-34.32724,0 18.48284,-34.32669,0 18.48248,-34.326,0 18.48237,-34.32523,0 18.48238,-34.32464,0 18.48244,-34.32394,0 18.48248,-34.32326,0 18.48249,-34.3225,0 18.48253,-34.32161,0 18.48253,-34.32079,0 18.48255,-34.32022,0 18.48249,-34.31915,0 18.48244,-34.31836,0 18.48244,-34.3178,0 18.48242,-34.31689,0 18.48237,-34.31602,0 18.48237,-34.31506,0 18.48238,-34.31435,0 18.48238,-34.31351,0 18.48244,-34.31254,0 18.48242,-34.31181,0 18.48244,-34.31086,0 18.48242,-34.31012,0 18.48249,-34.30746,0 18.48255,-34.3049,0 18.48261,-34.30211,0 18.48276,-34.2989,0 18.48281,-34.29643,0 18.48281,-34.29529,0 18.48272,-34.2921,0 18.4827,-34.29076,0 18.4827,-34.2897,0 18.48272,-34.28884,0 18.48267,-34.28717,0 18.48261,-34.28619,0 18.48242,-34.28284,0 18.48238,-34.282,0 18.48225,-34.28036,0 18.48209,-34.27702,0 18.48209,-34.27632,0 18.48215,-34.27357,0 18.48215,-34.27274,0 18.48221,-34.2718,0 18.48225,-34.2708,0 18.48225,-34.26993,0 18.48231,-34.26901,0 18.48237,-34.26828,0 18.48244,-34.26748,0 18.48255,-34.2665,0 18.48265,-34.26558,0 18.4827,-34.26466,0 18.48281,-34.26389,0 18.48289,-34.26277,0 18.48307,-34.2611,0 18.48315,-34.26013,0 18.4833,-34.25909,0 18.48343,-34.2583,0 18.4837,-34.25765,0 18.4841,-34.25668,0 18.48461,-34.25587,0 18.48518,-34.25518,0 18.4859,-34.25427,0 18.48657,-34.2534,0 18.48708,-34.25244,0 18.48747,-34.25148,0 18.48775,-34.25056,0 18.48793,-34.24969,0 18.48803,-34.24873,0 18.4881,-34.24774,0 18.48808,-34.24686,0 18.48804,-34.24601,0 18.48799,-34.24476,0 18.48786,-34.24393,0 18.48776,-34.24289,0 18.48764,-34.24205,0 18.48752,-34.24118,0 18.48736,-34.2404,0 18.48719,-34.23953,0 18.48696,-34.23885,0 18.48679,-34.2381,0 18.48652,-34.23729,0 18.48629,-34.23679,0 18.48598,-34.23605,0 18.48564,-34.23536,0 18.48523,-34.23468,0 18.48484,-34.23419,0 18.48444,-34.23381,0 18.48382,-34.23344,0 18.48324,-34.23317,0 18.48238,-34.23302,0 18.48186,-34.23307,0 18.48108,-34.23344,0 18.48069,-34.23399,0 18.48052,-34.2345,0 18.48038,-34.23503,0 18.48021,-34.23591,0 18.48018,-34.23642,0 18.48007,-34.23711,0 18.48001,-34.23734,0 18.47992,-34.23759,0 18.47951,-34.23798,0 18.47928,-34.23807,0 18.479,-34.23811,0 18.47872,-34.23807,0 18.47844,-34.23793,0 18.47794,-34.23766,0 18.47755,-34.23724,0 18.47734,-34.23708,0 18.47712,-34.2368,0 18.47677,-34.23647,0 18.4766,-34.23624,0 18.47631,-34.23601,0 18.47597,-34.23577,0 18.47569,-34.23559,0 18.47547,-34.23546,0 18.47525,-34.23532,0 18.47502,-34.23523,0 18.47528,-34.23503,0 18.47564,-34.23468,0 18.47586,-34.23433,0 18.47603,-34.23404,0 18.47637,-34.23376,0 18.47671,-34.23349,0 18.47704,-34.23335,0 18.47734,-34.23317,0 18.47757,-34.23302,0 18.47805,-34.23267,0 18.47837,-34.23223,0 18.47843,-34.232,0 18.47844,-34.2318,0 18.47843,-34.23154,0 18.47844,-34.23125,0 18.47837,-34.23061,0 18.47832,-34.23,0 18.47822,-34.22951,0 18.47815,-34.22884,0 18.47803,-34.22828,0 18.47799,-34.22781,0 18.47788,-34.22717,0 18.4778,-34.22679,0 18.47771,-34.22612,0 18.47757,-34.22539,0 18.47749,-34.22484,0 18.4774,-34.22432,0 18.47727,-34.22356,0 18.47712,-34.22302,0 18.47693,-34.22232,0 18.47689,-34.22167,0 18.47682,-34.22081,0 18.47676,-34.22021,0 18.47671,-34.21962,0 18.4766,-34.21878,0 18.47654,-34.21813,0 18.47643,-34.21748,0 18.47631,-34.21669,0 18.4762,-34.21585,0 18.47603,-34.215,0 18.47591,-34.21408,0 18.47581,-34.21358,0 18.47564,-34.21262,0 18.47551,-34.21166,0 18.47536,-34.21069,0 18.47525,-34.20992,0 18.47514,-34.209,0 18.47506,-34.20817,0 18.47491,-34.20717,0 18.4748,-34.20639,0 18.47466,-34.20538,0 18.47458,-34.2047,0 18.47446,-34.20406,0 18.47441,-34.20355,0 18.47424,-34.203,0 18.47403,-34.20249,0 18.47385,-34.20218,0 18.47363,-34.2016,0 18.4734,-34.20114,0 18.47312,-34.20049,0 18.47289,-34.19998,0 18.47261,-34.19934,0 18.47242,-34.19867,0 18.47219,-34.19807,0 18.47197,-34.19727,0 18.47177,-34.19664,0 18.47161,-34.19595,0 18.47145,-34.19532,0 18.47127,-34.19453,0 18.47105,-34.19364,0 18.47088,-34.19284,0 18.47065,-34.19197,0 18.47042,-34.1909,0 18.47026,-34.19014,0 18.47004,-34.18936,0 18.46979,-34.18824,0 18.46962,-34.18726,0 18.46942,-34.18625,0 18.46919,-34.18529,0 18.46903,-34.18451,0 18.46888,-34.18349,0 18.4687,-34.18252,0 18.46847,-34.18108,0 18.4683,-34.18021,0 18.46819,-34.17921,0 18.46807,-34.17814,0 18.46796,-34.17702,0 18.46785,-34.17609,0 18.46779,-34.17516,0 18.46768,-34.17398,0 18.46756,-34.17279,0 18.4675,-34.17186,0 18.46745,-34.17093,0 18.46739,-34.16953,0 18.46734,-34.16862,0 18.46729,-34.16753,0 18.46727,-34.16646,0 18.46729,-34.16537,0 18.46729,-34.16428,0 18.46734,-34.16107,0 18.46739,-34.16022,0 18.4675,-34.15905,0 18.46756,-34.15817,0 18.46774,-34.15695,0 18.46785,-34.15599,0 18.46796,-34.15508,0 18.46807,-34.15407,0 18.46819,-34.15311,0 18.46835,-34.15196,0 18.46847,-34.15109,0 18.46853,-34.15016,0 18.46869,-34.14908,0 18.46893,-34.1463,0 18.46925,-34.14349,0 18.46964,-34.13956,0 18.47004,-34.13599,0 18.47048,-34.13278,0 18.47088,-34.13005,0 18.47138,-34.12674,0 18.47179,-34.12405,0 18.47237,-34.12051,0 18.47278,-34.11772,0 18.47312,-34.11511,0 18.47351,-34.11237,0 18.47403,-34.10878,0 18.47437,-34.10598,0 18.47466,-34.10305,0 18.47508,-34.09909,0 18.47542,-34.09525,0 18.47557,-34.09225,0 18.47575,-34.08925,0 18.47586,-34.08513,0 18.47598,-34.08124,0 18.47598,-34.0778,0 18.47603,-34.07483,0 18.47609,-34.07172,0 18.4762,-34.06773,0 18.47631,-34.06469,0 18.47648,-34.06078,0 18.47659,-34.05766,0 18.47671,-34.05382,0 18.47687,-34.05066,0 18.47694,-34.04765,0 18.47699,-34.04379,0 18.47699,-34.04292,0 18.47699,-34.04196,0 18.47699,-34.04123,0 18.47694,-34.04025,0 18.47694,-34.03941,0 18.47689,-34.03848,0 18.47687,-34.03748,0 18.47682,-34.03638,0 18.47682,-34.03555,0 18.47682,-34.03468,0 18.47682,-34.034,0 18.47676,-34.03299,0 18.47682,-34.03006,0 18.47687,-34.02832,0 18.47706,-34.02568,0 18.4771,-34.02475,0 18.47715,-34.02393,0 18.47723,-34.02293,0 18.47746,-34.01995,0 18.47775,-34.01633,0 18.47792,-34.01358,0 18.47828,-34.00969,0 18.47867,-34.00571,0 18.47906,-34.00273,0 18.47923,-34.00185,0 18.47945,-34.00067,0 18.47963,-33.9998,0 18.47985,-33.99861,0 18.48001,-33.99765,0 18.48021,-33.99654,0 18.48032,-33.99561,0 18.48041,-33.99463,0 18.48043,-33.99361,0 18.48046,-33.99252,0 18.48049,-33.99161,0 18.48043,-33.99035,0 18.48043,-33.98942,0 18.48038,-33.98844,0 18.48032,-33.98746,0 18.48032,-33.98648,0 18.48029,-33.98547,0 18.48024,-33.98442,0 18.48021,-33.98309,0 18.48018,-33.98199,0 18.48018,-33.98099,0 18.48015,-33.97997,0 18.48018,-33.97906,0 18.48015,-33.97773,0 18.48015,-33.97666,0 18.48013,-33.97572,0 18.48018,-33.97458,0 18.48021,-33.97336,0 18.48032,-33.97238,0 18.48043,-33.97145,0 18.48057,-33.97037,0 18.48072,-33.96922,0 18.48085,-33.9684,0 18.48112,-33.96717,0 18.48124,-33.96624,0 18.48141,-33.96531,0 18.48158,-33.96419,0 18.48181,-33.963,0 18.48192,-33.96204,0 18.48204,-33.96116,0 18.48221,-33.96018,0 18.48231,-33.9592,0 18.48244,-33.95795,0 18.48249,-33.95697,0 18.48259,-33.9559,0 18.48261,-33.95464,0 18.48265,-33.9537,0 18.48265,-33.9527,0 18.48261,-33.95166,0 18.48259,-33.95036,0 18.48249,-33.94934,0 18.48248,-33.94826,0 18.48242,-33.94711,0 18.48232,-33.9458,0 18.48225,-33.94473,0 18.48215,-33.94342,0 18.48209,-33.94258,0 18.48192,-33.9413,0 18.48181,-33.9403,0 18.48158,-33.93901,0 18.48141,-33.93796,0 18.48112,-33.93695,0 18.48078,-33.93575,0 18.48043,-33.93481,0 18.47998,-33.9337,0 18.47928,-33.93237,0 18.47878,-33.93137,0 18.47828,-33.93054,0 18.47769,-33.92965,0 18.47689,-33.92853,0 18.47591,-33.92736,0 18.4754,-33.92676,0 18.47435,-33.9256,0 18.4734,-33.92455,0 18.47254,-33.92369,0 18.47177,-33.9229,0 18.47082,-33.92198,0 18.46976,-33.92097,0 18.46875,-33.92001,0 18.46785,-33.91919,0 18.46699,-33.91843,0 18.46611,-33.91768,0 18.46516,-33.91689,0 18.46395,-33.91587,0 18.46297,-33.91507,0 18.46208,-33.91429,0 18.46101,-33.91338,0 18.45995,-33.91241,0 18.4586,-33.91127,0 18.45772,-33.91042,0 18.45669,-33.90944,0 18.45566,-33.90837,0 18.4549,-33.90761,0 18.45394,-33.90656,0 18.4532,-33.90572,0 18.45255,-33.90491,0 18.45154,-33.90372,0 18.45085,-33.90292,0 18.45003,-33.90198,0 18.4493,-33.90115,0 18.44823,-33.90005,0 18.44748,-33.89929,0 18.44644,-33.89827,0 18.4456,-33.89749,0 18.44453,-33.89653,0 18.44376,-33.89589,0 18.44268,-33.89493,0 18.44201,-33.89442,0 18.44094,-33.89365,0 18.43958,-33.89296,0 18.43887,-33.89273,0 18.43758,-33.89241,0 18.43624,-33.89232,0 18.43517,-33.89236,0 18.43422,-33.89246,0 18.43276,-33.89268,0 18.43158,-33.89287,0 18.43042,-33.89315,0 18.42945,-33.89337,0 18.42848,-33.89361,0 18.42756,-33.89399,0 18.42688,-33.89441,0 18.42665,-33.89488,0 18.42676,-33.89529,0 18.42699,-33.89561,0 18.42749,-33.89607,0 18.42794,-33.89653,0 18.42819,-33.89697,0 18.42831,-33.89753,0 18.42833,-33.89795,0 18.42836,-33.89817,0 18.42833,-33.89845,0 18.42822,-33.89873,0 18.42811,-33.899,0 18.42785,-33.89929,0 18.42762,-33.89952,0 18.42745,-33.89976,0 18.42722,-33.89999,0 18.4271,-33.90024,0 18.42715,-33.90047,0 18.42738,-33.9006,0 18.42762,-33.90069,0 18.42828,-33.90079,0 18.42878,-33.90074,0 18.429,-33.90074,0 18.42922,-33.90069,0 18.42951,-33.90069,0 18.42974,-33.90064,0 18.43008,-33.9006,0 18.43037,-33.90055,0 18.43069,-33.90051,0 18.43094,-33.90046,0 18.43122,-33.90041,0 18.43164,-33.90038,0 18.43185,-33.90032,0 18.43226,-33.90024,0 18.43254,-33.90013,0 18.43293,-33.90005,0 18.43323,-33.89994,0 18.4338,-33.89981,0 18.43403,-33.89976,0 18.43439,-33.89964,0 18.43461,-33.89955,0 18.43483,-33.89943,0 18.43506,-33.89932,0 18.43528,-33.89919,0 18.43552,-33.89897,0 18.43597,-33.8985,0 18.43629,-33.89804,0 18.43649,-33.89762,0 18.43663,-33.89708,0 18.43678,-33.8965,0 18.43691,-33.89598,0 18.43702,-33.89534,0 18.43712,-33.89482,0 18.43723,-33.89417,0 18.43723,-33.89361,0 18.43724,-33.89291,0 18.43723,-33.89236,0 18.43724,-33.89182,0 18.43719,-33.89095,0 18.43718,-33.89035,0 18.43712,-33.88956,0 18.43706,-33.88887,0 18.43695,-33.88812,0 18.4368,-33.88756,0 18.43657,-33.88692,0 18.43609,-33.88602,0 18.43556,-33.88541,0 18.43494,-33.88486,0 18.43422,-33.88431,0 18.43338,-33.88385,0 18.43259,-33.88348,0 18.43153,-33.88307,0 18.43042,-33.88277,0 18.42923,-33.88248,0 18.42811,-33.8822,0 18.42699,-33.88202,0 18.42585,-33.88184,0 18.42452,-33.88165,0 18.4235,-33.88156,0 18.42217,-33.88147,0 18.42104,-33.88142,0 18.41976,-33.88142,0 18.41841,-33.88147,0 18.41707,-33.88156,0 18.41595,-33.88165,0 18.41475,-33.88179,0 18.41326,-33.88198,0 18.412,-33.88211,0 18.41057,-33.88226,0 18.40908,-33.88244,0 18.40765,-33.88266,0 18.40647,-33.88284,0 18.40525,-33.88305,0 18.4041,-33.88328,0 18.40266,-33.88362,0 18.40148,-33.8839,0 18.40036,-33.88422,0 18.39896,-33.88467,0 18.3975,-33.88518,0 18.39638,-33.88559,0 18.39489,-33.88617,0 18.39375,-33.88664,0 18.39283,-33.88705,0 18.39145,-33.88765,0 18.39044,-33.88815,0 18.38934,-33.88873,0 18.38803,-33.88939,0 18.38694,-33.88993,0 18.38602,-33.8904,0 18.38476,-33.89115,0 18.38355,-33.89191,0 18.38259,-33.8925,0 18.38144,-33.89324,0 18.38036,-33.89399,0 18.37938,-33.89464,0 18.37841,-33.89543,0 18.37744,-33.89616,0 18.37669,-33.89678,0 18.37542,-33.89786,0 18.37452,-33.89864,0 18.3734,-33.89964,0 18.37257,-33.90041,0 18.3716,-33.90129,0 18.3706,-33.90225,0 18.36966,-33.90316,0 18.36864,-33.90413,0 18.36765,-33.90511,0 18.36673,-33.9061,0 18.36582,-33.90702,0 18.36485,-33.90805,0 18.36393,-33.90911,0 18.36319,-33.90995,0 18.36227,-33.91112,0 18.3617,-33.91186,0 18.36084,-33.91302,0 18.36,-33.9142,0 18.3593,-33.91526,0 18.35872,-33.91617,0 18.35798,-33.9174,0 18.35748,-33.91827,0 18.35675,-33.91946,0 18.35621,-33.92057,0 18.35546,-33.92184,0 18.35495,-33.92285,0 18.35432,-33.92415,0 18.35363,-33.92546,0 18.35312,-33.92653,0 18.35255,-33.92778,0 18.35188,-33.92912,0 18.35135,-33.93044,0 18.35087,-33.9315,0 18.35049,-33.93258,0 18.34991,-33.93416,0 18.34957,-33.93528,0 18.34917,-33.93644,0 18.34866,-33.93802,0 18.34823,-33.93929,0 18.34778,-33.94061,0 18.3474,-33.94194,0 18.34706,-33.94308,0 18.34649,-33.94492,0 18.34602,-33.94617,0 18.34554,-33.94766,0 18.34511,-33.94887,0 18.34465,-33.95032,0 18.3442,-33.95164,0 18.34381,-33.95279,0 18.3433,-33.95439,0 18.34285,-33.95576,0 18.34248,-33.95702,0 18.34208,-33.95827,0 18.34024,-33.96391,0 18.33898,-33.96785,0 18.33809,-33.97115,0 18.33784,-33.97215,0 18.33755,-33.97355,0 18.33736,-33.97481,0 18.33721,-33.97578,0 18.3371,-33.97689,0 18.33702,-33.97801,0 18.33691,-33.97911,0 18.33681,-33.98011,0 18.33658,-33.98122,0 18.33635,-33.98257,0 18.33613,-33.98387,0 18.33607,-33.98518,0 18.33595,-33.98625,0 18.33578,-33.98714,0 18.33534,-33.98868,0 18.33492,-33.98979,0 18.33444,-33.99078,0 18.33378,-33.99207,0 18.33321,-33.99314,0 18.33258,-33.99426,0 18.33192,-33.99536,0 18.33132,-33.99649,0 18.33046,-33.99784,0 18.32973,-33.99907,0 18.32891,-34.0004,0 18.32811,-34.00171,0 18.32748,-34.00278,0 18.3268,-34.00385,0 18.32594,-34.00525,0 18.32514,-34.00655,0 18.32451,-34.00762,0 18.32363,-34.00928,0 18.32301,-34.01051,0 18.32245,-34.01186,0 18.32183,-34.01344,0 18.32136,-34.01479,0 18.32082,-34.01624,0 18.32054,-34.0172,0 18.31999,-34.01865,0 18.31947,-34.02019,0 18.31907,-34.0214,0 18.31853,-34.02287,0 18.31804,-34.02428,0 18.31757,-34.02553,0 18.31701,-34.02703,0 18.31645,-34.02855,0 18.31595,-34.02974,0 18.3155,-34.03098,0 18.31426,-34.034,0 18.31364,-34.03541,0 18.3118,-34.03963,0 18.31123,-34.041,0 18.31089,-34.04235,0 18.31079,-34.04356,0 18.3109,-34.04466,0 18.31129,-34.04567,0 18.31186,-34.04654,0 18.31258,-34.04727,0 18.31375,-34.04775,0 18.31432,-34.04775,0 18.31505,-34.04745,0 18.3153,-34.04714,0 18.31558,-34.04659,0 18.31572,-34.04608,0 18.31587,-34.04538,0 18.31595,-34.04485,0 18.31606,-34.04402,0 18.31615,-34.04323,0 18.31621,-34.04253,0 18.31628,-34.04164,0 18.31634,-34.04077,0 18.31644,-34.04012,0 18.31656,-34.03912,0 18.31668,-34.03835,0 18.31684,-34.03774,0 18.31701,-34.0367,0 18.31718,-34.03596,0 18.3174,-34.03519,0 18.31768,-34.03427,0 18.31799,-34.03336,0 18.31833,-34.03257,0 18.31873,-34.03169,0 18.31914,-34.03093,0 18.31959,-34.03015,0 18.31993,-34.02941,0 18.32045,-34.02848,0 18.3209,-34.0275,0 18.32136,-34.02657,0 18.32178,-34.02576,0 18.32211,-34.02502,0 18.32245,-34.02428,0 18.32285,-34.02345,0 18.32325,-34.02242,0 18.32354,-34.02182,0 18.32385,-34.02104,0 18.32417,-34.02024,0 18.32458,-34.0193,0 18.32486,-34.01857,0 18.3252,-34.01781,0 18.32554,-34.01707,0 18.32581,-34.01633,0 18.32623,-34.0154,0 18.32651,-34.01465,0 18.32682,-34.01395,0 18.32726,-34.01288,0 18.3276,-34.012,0 18.32789,-34.01143,0 18.32834,-34.01051,0 18.32869,-34.00976,0 18.32897,-34.00906,0 18.32945,-34.00813,0 18.3299,-34.00722,0 18.33024,-34.00653,0 18.33069,-34.00566,0 18.33097,-34.00511,0 18.33138,-34.00431,0 18.33172,-34.00362,0 18.33209,-34.00282,0 18.33252,-34.00208,0 18.33293,-34.00131,0 18.33349,-34.00045,0 18.334,-33.99971,0 18.33441,-33.9991,0 18.33495,-33.9982,0 18.33549,-33.99738,0 18.33596,-33.99669,0 18.33641,-33.996,0 18.33669,-33.99545,0 18.33858,-33.99231,0 18.34067,-33.98854,0 18.34167,-33.98657,0 18.34252,-33.98474,0 18.34347,-33.98264,0 18.34437,-33.98071,0 18.34515,-33.97897,0 18.34602,-33.97718,0 18.347,-33.97549,0 18.34791,-33.97382,0 18.34879,-33.97211,0 18.34969,-33.97015,0 18.35036,-33.96812,0 18.35104,-33.96611,0 18.35154,-33.96442,0 18.3521,-33.96227,0 18.35249,-33.96041,0 18.35278,-33.95837,0 18.35289,-33.95746,0 18.353,-33.95641,0 18.35312,-33.95548,0 18.35316,-33.9548,0 18.35329,-33.9539,0 18.3535,-33.95297,0 18.35369,-33.95227,0 18.3539,-33.95142,0 18.35403,-33.95069,0 18.35423,-33.94981,0 18.3544,-33.94894,0 18.35449,-33.94827,0 18.35468,-33.94739,0 18.35484,-33.94654,0 18.35501,-33.94571,0 18.35518,-33.94473,0 18.35546,-33.94391,0 18.35569,-33.94319,0 18.35591,-33.94249,0 18.35614,-33.9418,0 18.35638,-33.94096,0 18.35655,-33.94017,0 18.35678,-33.93924,0 18.35695,-33.93849,0 18.35703,-33.93782,0 18.3572,-33.93709,0 18.35731,-33.93626,0 18.35748,-33.93562,0 18.35764,-33.93486,0 18.35781,-33.93411,0 18.3581,-33.93332,0 18.35843,-33.93246,0 18.35878,-33.93174,0 18.35905,-33.93118,0 18.35953,-33.9302,0 18.35989,-33.92953,0 18.36028,-33.92871,0 18.36061,-33.92811,0 18.36101,-33.92729,0 18.36146,-33.92656,0 18.36191,-33.92587,0 18.36227,-33.92536,0 18.36279,-33.92466,0 18.36336,-33.92387,0 18.36376,-33.92336,0 18.36433,-33.92262,0 18.36488,-33.92189,0 18.36542,-33.92122,0 18.366,-33.92052,0 18.36651,-33.91991,0 18.36701,-33.91933,0 18.36746,-33.91882,0 18.36813,-33.918,0 18.36857,-33.91759,0 18.36925,-33.91676,0 18.36983,-33.91624,0 18.37043,-33.91562,0 18.37114,-33.91489,0 18.37172,-33.91429,0 18.37234,-33.91365,0 18.37301,-33.91292,0 18.3736,-33.91224,0 18.37429,-33.91149,0 18.37469,-33.91103,0 18.37536,-33.91026,0 18.37595,-33.90968,0 18.3766,-33.90894,0 18.37716,-33.90834,0 18.37783,-33.90765,0 18.37856,-33.90688,0 18.37923,-33.90619,0 18.37984,-33.90553,0 18.38041,-33.90491,0 18.38091,-33.9044,0 18.38142,-33.90381,0 18.38202,-33.90325,0 18.38265,-33.90253,0 18.38333,-33.90181,0 18.38379,-33.90129,0 18.38444,-33.90056,0 18.385,-33.89996,0 18.38568,-33.89925,0 18.38631,-33.89874,0 18.38696,-33.89818,0 18.38764,-33.89763,0 18.38848,-33.89697,0 18.38917,-33.89645,0 18.39003,-33.8958,0 18.39077,-33.89529,0 18.39157,-33.89473,0 18.39254,-33.89413,0 18.39341,-33.89355,0 18.39425,-33.89305,0 18.39515,-33.89255,0 18.39621,-33.89189,0 18.39706,-33.89138,0 18.39795,-33.8909,0 18.39935,-33.89022,0 18.40019,-33.88985,0 18.40107,-33.88942,0 18.40221,-33.88887,0 18.40313,-33.88845,0 18.40395,-33.88802,0 18.40496,-33.88747,0 18.40597,-33.88687,0 18.40686,-33.88641,0 18.40787,-33.88591,0 18.40908,-33.88551,0 18.41006,-33.88531,0 18.41168,-33.88513,0 18.41309,-33.88528,0 18.41426,-33.8855,0 18.41532,-33.88575,0 18.41658,-33.88602,0 18.41801,-33.88626,0 18.41948,-33.88651,0 18.42054,-33.8866,0 18.42183,-33.88673,0 18.42323,-33.88683,0 18.42447,-33.88686,0 18.4259,-33.88691,0 18.42727,-33.88696,0 18.42816,-33.88701,0 18.42939,-33.88714,0 18.43128,-33.88756,0 18.43231,-33.88794,0 18.43343,-33.88852,0 18.43433,-33.88925,0 18.43506,-33.89012,0 18.43534,-33.89087,0 18.43546,-33.89166,0 18.43523,-33.89259,0 18.43483,-33.89323,0 18.43409,-33.89389,0 18.43357,-33.89417,0 18.43237,-33.89455,0 18.43153,-33.89461,0 18.43071,-33.89455,0 18.42957,-33.89431,0 18.42867,-33.89406,0 18.42783,-33.89378,0 18.42699,-33.89355,0 18.4262,-33.89342,0 18.42542,-33.89342,0 18.42486,-33.8936,0 18.42424,-33.89392,0 18.4239,-33.89422,0 18.42379,-33.89445,0 18.42368,-33.89474,0 18.42379,-33.89501,0 18.42413,-33.89529,0 18.42463,-33.89557,0 18.42522,-33.8958,0 18.4257,-33.89598,0 18.42619,-33.89622,0 18.42648,-33.89641,0 18.4267,-33.89659,0 18.42693,-33.89687,0 18.42727,-33.89735,0 18.42743,-33.89772,0 18.42751,-33.89794,0 18.42755,-33.89818,0 18.4276,-33.89841,0 18.42762,-33.89874,0 18.4276,-33.89896,0 18.42755,-33.89919,0 18.42739,-33.89957,0 18.42728,-33.8999,0 18.4271,-33.90015,0 18.42687,-33.90051,0 18.42688,-33.90078,0 18.42688,-33.90102,0 18.42716,-33.90078,0 18.42749,-33.9006,0 18.42772,-33.90056,0 18.42884,-33.90051,0 18.42905,-33.90055,0 18.42951,-33.90056,0 18.42979,-33.90055,0 18.43019,-33.90051,0 18.43048,-33.90051,0 18.4308,-33.90047,0 18.43105,-33.90041,0 18.4314,-33.90036,0 18.43175,-33.90033,0 18.43203,-33.90028,0 18.43242,-33.90019,0 18.43266,-33.90018,0 18.43306,-33.90009,0 18.43357,-33.89999,0 18.43416,-33.89983,0 18.43472,-33.89967,0 18.43512,-33.89957,0 18.43579,-33.89937,0 18.43635,-33.89909,0 18.4368,-33.89882,0 18.43723,-33.89841,0 18.43775,-33.89785,0 18.43803,-33.89738,0 18.43825,-33.89685,0 18.43855,-33.89603,0 18.4387,-33.89529,0 18.43878,-33.89464,0 18.43878,-33.89399,0 18.43872,-33.89315,0 18.43866,-33.8925,0 18.43848,-33.89154,0 18.43831,-33.89072,0 18.43809,-33.88984,0 18.43786,-33.88916,0 18.43758,-33.88849,0 18.43708,-33.88788,0 18.43637,-33.88714,0 18.43573,-33.88664,0 18.43472,-33.88609,0 18.43386,-33.88575,0 18.43282,-33.88541,0 18.43151,-33.88509,0 18.43057,-33.88486,0 18.42934,-33.88458,0 18.42839,-33.8844,0 18.42721,-33.88417,0 18.42613,-33.88398,0 18.42505,-33.88384,0 18.42407,-33.88367,0 18.4229,-33.88353,0 18.42183,-33.88339,0 18.42041,-33.88328,0 18.41953,-33.88321,0 18.41824,-33.88312,0 18.41669,-33.88309,0 18.41555,-33.88307,0 18.41452,-33.88305,0 18.41331,-33.88305,0 18.4118,-33.88303,0 18.41074,-33.88305,0 18.40942,-33.88309,0 18.40832,-33.88312,0 18.40686,-33.88326,0 18.40569,-33.88339,0 18.40416,-33.88365,0 18.40307,-33.88388,0 18.40176,-33.88416,0 18.40064,-33.88445,0 18.3993,-33.88486,0 18.39792,-33.88533,0 18.39672,-33.88575,0 18.39537,-33.88623,0 18.39436,-33.88669,0 18.393,-33.88728,0 18.3919,-33.88783,0 18.39089,-33.88834,0 18.38963,-33.889,0 18.38831,-33.88975,0 18.38708,-33.89049,0 18.38619,-33.89105,0 18.38493,-33.89189,0 18.384,-33.8925,0 18.38305,-33.89315,0 18.38179,-33.89394,0 18.38047,-33.89482,0 18.37955,-33.89543,0 18.37864,-33.89608,0 18.37766,-33.89676,0 18.37652,-33.89757,0 18.37553,-33.89827,0 18.37463,-33.89891,0 18.37355,-33.89971,0 18.37262,-33.90047,0 18.37172,-33.90125,0 18.37091,-33.90195,0 18.36992,-33.90289,0 18.36891,-33.90395,0 18.36802,-33.90486,0 18.36725,-33.90581,0 18.36651,-33.90679,0 18.36544,-33.9082,0 18.36482,-33.90912,0 18.36387,-33.91035,0 18.36314,-33.91136,0 18.3625,-33.91228,0 18.36152,-33.9136,0 18.36073,-33.91484,0 18.36,-33.91585,0 18.35928,-33.91699,0 18.35849,-33.91823,0 18.35787,-33.91919,0 18.35724,-33.92033,0 18.35644,-33.92168,0 18.35569,-33.92299,0 18.35501,-33.92418,0 18.35438,-33.92536,0 18.35375,-33.92662,0 18.35306,-33.92797,0 18.35249,-33.92913,0 18.35182,-33.93045,0 18.35135,-33.93155,0 18.35066,-33.93309,0 18.35009,-33.93444,0 18.3494,-33.93588,0 18.34885,-33.93718,0 18.34826,-33.93858,0 18.34762,-33.94011,0 18.34694,-33.94165,0 18.34494,-33.94654,0 18.3433,-33.95073,0 18.34156,-33.95558,0 18.34099,-33.95944,0 18.34442,-33.96501,0 18.3474,-33.96586,0 18.34894,-33.96563,0 18.34997,-33.96512,0 18.35043,-33.96465,0 18.35143,-33.96277,0 18.35193,-33.96117,0 18.35221,-33.96016,0 18.35243,-33.95935,0 18.35272,-33.95832,0 18.35289,-33.95744,0 18.35306,-33.95665,0 18.35322,-33.95567,0 18.35339,-33.95471,0 18.35352,-33.9539,0 18.35361,-33.95306,0 18.35373,-33.95229,0 18.35381,-33.95129,0 18.3539,-33.95032,0 18.35395,-33.94954,0 18.35401,-33.94862,0 18.35406,-33.94775,0 18.35412,-33.94684,0 18.35421,-33.94594,0 18.35426,-33.94515,0 18.3544,-33.94409,0 18.35457,-33.94336,0 18.35484,-33.9424,0 18.35512,-33.94142,0 18.35546,-33.94066,0 18.35569,-33.93998,0 18.35608,-33.93906,0 18.35636,-33.93832,0 18.35664,-33.93759,0 18.35703,-33.93658,0 18.35737,-33.93576,0 18.35758,-33.93504,0 18.35793,-33.93425,0 18.35827,-33.93332,0 18.3586,-33.93251,0 18.35901,-33.9316,0 18.3593,-33.931,0 18.35978,-33.93004,0 18.36027,-33.92918,0 18.36079,-33.92834,0 18.36129,-33.92757,0 18.3617,-33.92685,0 18.36219,-33.92606,0 18.36273,-33.92517,0 18.36314,-33.92455,0 18.36365,-33.92382,0 18.36416,-33.92299,0 18.36485,-33.92206,0 18.36536,-33.92136,0 18.36588,-33.92071,0 18.36645,-33.91996,0 18.36697,-33.91936,0 18.36748,-33.9187,0 18.36817,-33.91792,0 18.36875,-33.91718,0 18.36943,-33.91642,0 18.36988,-33.91591,0 18.3706,-33.91512,0 18.3712,-33.91442,0 18.37194,-33.91365,0 18.37263,-33.91293,0 18.3732,-33.91233,0 18.37383,-33.91167,0 18.37435,-33.91109,0 18.37509,-33.91042,0 18.37581,-33.90971,0 18.37641,-33.90911,0 18.37715,-33.90842,0 18.37772,-33.90784,0 18.37858,-33.90702,0 18.37923,-33.90646,0 18.3799,-33.90591,0 18.38076,-33.90516,0 18.38147,-33.90459,0 18.38226,-33.90399,0 18.3831,-33.90339,0 18.38383,-33.90285,0 18.38467,-33.90225,0 18.38545,-33.90175,0 18.38624,-33.9012,0 18.38728,-33.90051,0 18.38831,-33.89981,0 18.38915,-33.89932,0 18.39016,-33.89873,0 18.39111,-33.89822,0 18.39201,-33.89777,0 18.39319,-33.89713,0 18.39426,-33.89659,0 18.39518,-33.89613,0 18.39621,-33.89561,0 18.39724,-33.8951,0 18.39821,-33.89464,0 18.39941,-33.89413,0 18.40081,-33.89346,0 18.40176,-33.89301,0 18.4029,-33.8924,0 18.40378,-33.89195,0 18.40501,-33.89131,0 18.40591,-33.89085,0 18.40685,-33.8904,0 18.40776,-33.88998,0 18.40874,-33.88952,0 18.40989,-33.88893,0 18.4108,-33.88854,0 18.41206,-33.88803,0 18.41303,-33.88765,0 18.41438,-33.88705,0 18.41538,-33.88669,0 18.41651,-33.88628,0 18.41784,-33.88584,0 18.41891,-33.88554,0 18.42004,-33.88527,0 18.42138,-33.885,0 18.42264,-33.88491,0 18.42373,-33.88486,0 18.42514,-33.88499,0 18.42632,-33.88518,0 18.42773,-33.88556,0 18.42882,-33.88598,0 18.42997,-33.88649,0 18.43102,-33.88705,0 18.43197,-33.8877,0 18.43282,-33.88847,0 18.43338,-33.88916,0 18.43399,-33.89026,0 18.43416,-33.89117,0 18.43409,-33.89208,0 18.43371,-33.89287,0 18.43323,-33.89347,0 18.43225,-33.89408,0 18.43147,-33.89433,0 18.43037,-33.89445,0 18.42945,-33.89433,0 18.42848,-33.89413,0 18.42756,-33.89394,0 18.42705,-33.89384,0 18.42613,-33.89394,0 18.4257,-33.89415,0 18.42527,-33.89464,0 18.42516,-33.89501,0 18.4251,-33.89552,0 18.42522,-33.89599,0 18.42536,-33.89653,0 18.42556,-33.89692,0 18.42567,-33.89724,0 18.42581,-33.89749,0 18.42607,-33.89799,0 18.42615,-33.89822,0 18.42643,-33.89868,0 18.42659,-33.89901,0 18.42682,-33.89948,0 18.42693,-33.89976,0 18.42705,-33.89999,0 18.4271,-33.90019,0 18.42722,-33.90041,0 18.42733,-33.90064,0 18.42762,-33.90078,0 18.42811,-33.90079,0 18.42836,-33.90078,0 18.42876,-33.90078,0 18.42906,-33.90074,0 18.42928,-33.90074,0 18.42962,-33.90074,0 18.43007,-33.9007,0 18.43037,-33.90064,0 18.43074,-33.9006,0 18.43111,-33.9006,0 18.4314,-33.90055,0 18.43174,-33.90051,0 18.43214,-33.90042,0 18.43271,-33.90032,0 18.43332,-33.90024,0 18.43366,-33.90015,0 18.43394,-33.9001,0 18.43422,-33.90001,0 18.43494,-33.89985,0 18.43534,-33.89967,0 18.43573,-33.89941,0 18.43601,-33.89919,0 18.4362,-33.89892,0 18.4364,-33.89854,0 18.43657,-33.89827,0 18.43678,-33.89766,0 18.43695,-33.8972,0 18.4373,-33.89639,0 18.43747,-33.89589,0 18.43763,-33.89515,0 18.43786,-33.89438,0 18.43792,-33.89389,0 18.43803,-33.89301,0 18.43809,-33.89232,0 18.43809,-33.8917,0 18.43803,-33.89077,0 18.43798,-33.88998,0 18.43786,-33.88933,0 18.43769,-33.88875,0 18.43729,-33.88798,0 18.43691,-33.88742,0 18.43632,-33.88672,0 18.43551,-33.88605,0 18.43472,-33.88554,0 18.43388,-33.88509,0 18.4331,-33.88477,0 18.43214,-33.88444,0 18.43125,-33.88422,0 18.43014,-33.88398,0 18.42939,-33.88384,0 18.42828,-33.88367,0 18.42705,-33.88356,0 18.42581,-33.88348,0 18.42487,-33.88346,0 18.42357,-33.88344,0 18.42222,-33.88344,0 18.42121,-33.88346,0 18.41984,-33.88346,0 18.4188,-33.88348,0 18.41743,-33.88351,0 18.41635,-33.88361,0 18.4148,-33.8837,0 18.41372,-33.88374,0 18.41251,-33.88384,0 18.41112,-33.88394,0 18.41011,-33.88403,0 18.40883,-33.88417,0 18.40742,-33.8843,0 18.40625,-33.88445,0 18.40519,-33.88454,0 18.40401,-33.88472,0 18.40261,-33.88496,0 18.40143,-33.88513,0 18.39986,-33.88545,0 18.39874,-33.88568,0 18.39746,-33.88602,0 18.39603,-33.88649,0 18.39487,-33.88687,0 18.39375,-33.88728,0 18.39254,-33.8877,0 18.39117,-33.8882,0 18.38985,-33.88877,0 18.38881,-33.88916,0 18.38797,-33.88957,0 18.38676,-33.89012,0 18.38562,-33.89073,0 18.38428,-33.89154,0 18.38333,-33.89212,0 18.38236,-33.89273,0 18.3811,-33.89361,0 18.37996,-33.89445,0 18.37901,-33.8952,0 18.37795,-33.89608,0 18.3771,-33.89685,0 18.37576,-33.89809,0 18.37486,-33.89891,0 18.37389,-33.89985,0 18.37301,-33.90079,0 18.37194,-33.9019,0 18.37109,-33.90283,0 18.37004,-33.90399,0 18.36931,-33.90488,0 18.36828,-33.90604,0 18.36754,-33.90697,0 18.36662,-33.90814,0 18.36589,-33.90912,0 18.36514,-33.91005,0 18.36439,-33.91107,0 18.3637,-33.91196,0 18.36302,-33.91284,0 18.36222,-33.91405,0 18.36159,-33.91494,0 18.36085,-33.91608,0 18.36027,-33.91698,0 18.35953,-33.91819,0 18.35901,-33.91917,0 18.35838,-33.92029,0 18.35782,-33.9213,0 18.35715,-33.92249,0 18.35647,-33.92381,0 18.35587,-33.9249,0 18.35535,-33.92592,0 18.35472,-33.92718,0 18.35426,-33.92811,0 18.35375,-33.92918,0 18.35312,-33.93058,0 18.35255,-33.93188,0 18.35197,-33.93314,0 18.3514,-33.93444,0 18.35094,-33.9356,0 18.35048,-33.9369,0 18.34997,-33.93819,0 18.34957,-33.93924,0 18.34906,-33.94072,0 18.34863,-33.94185,0 18.34818,-33.94318,0 18.34767,-33.94464,0 18.34734,-33.94579,0 18.34694,-33.94698,0 18.34654,-33.94836,0 18.3462,-33.94971,0 18.34593,-33.95078,0 18.34562,-33.95213,0 18.34538,-33.9532,0 18.34499,-33.95497,0 18.34476,-33.95618,0 18.34442,-33.95781,0 18.34425,-33.95967,0 18.34425,-33.96102,0 18.34442,-33.96213,0 18.34471,-33.96321,0 18.34521,-33.96419,0 18.34599,-33.96506,0 18.34694,-33.96565,0 18.34774,-33.96596,0 18.34888,-33.966,0 18.34969,-33.96582,0 18.35048,-33.96533,0 18.35092,-33.96478,0 18.3514,-33.96391,0 18.35163,-33.96316,0 18.35182,-33.9624,0 18.35203,-33.96167,0 18.35232,-33.96056,0 18.35249,-33.95975,0 18.35266,-33.95879,0 18.35283,-33.95773,0 18.35295,-33.95697,0 18.35305,-33.95627,0 18.35318,-33.9553,0 18.35328,-33.95435,0 18.35335,-33.95339,0 18.35339,-33.95247,0 18.35346,-33.95166,0 18.35358,-33.95082,0 18.35361,-33.95,0 18.35373,-33.94894,0 18.35384,-33.94798,0 18.35395,-33.94702,0 18.35409,-33.94603,0 18.35429,-33.94505,0 18.35445,-33.94409,0 18.35466,-33.94328,0 18.35484,-33.94254,0 18.35507,-33.94157,0 18.3553,-33.9408,0 18.35552,-33.93983,0 18.3558,-33.93887,0 18.35597,-33.9381,0 18.35619,-33.93709,0 18.35647,-33.93604,0 18.35672,-33.93518,0 18.35698,-33.93434,0 18.35737,-33.93333,0 18.3577,-33.93253,0 18.3581,-33.93159,0 18.35843,-33.93086,0 18.35873,-33.93007,0 18.35907,-33.92937,0 18.35947,-33.92848,0 18.35989,-33.92752,0 18.36021,-33.92676,0 18.36068,-33.92592,0 18.36118,-33.92505,0 18.36176,-33.92415,0 18.36225,-33.92345,0 18.3629,-33.92266,0 18.36353,-33.92187,0 18.36405,-33.92122,0 18.36466,-33.92052,0 18.36522,-33.91988,0 18.36589,-33.91914,0 18.36662,-33.91841,0 18.36729,-33.91768,0 18.36791,-33.91708,0 18.36847,-33.91653,0 18.36914,-33.91589,0 18.36988,-33.91521,0 18.37051,-33.91465,0 18.37138,-33.91402,0 18.37217,-33.91344,0 18.37292,-33.91289,0 18.37355,-33.91233,0 18.37412,-33.91177,0 18.37491,-33.91095,0 18.37564,-33.91026,0 18.37624,-33.90972,0 18.37704,-33.90898,0 18.37777,-33.90825,0 18.37841,-33.90758,0 18.37933,-33.9066,0 18.37996,-33.90596,0 18.38069,-33.90518,0 18.38127,-33.9046,0 18.38203,-33.90385,0 18.38264,-33.90325,0 18.38345,-33.90255,0 18.38436,-33.90176,0 18.38506,-33.90111,0 18.3859,-33.90038,0 18.38663,-33.89969,0 18.38741,-33.899,0 18.38814,-33.89836,0 18.389,-33.89766,0 18.38971,-33.89703,0 18.3906,-33.89631,0 18.39117,-33.8958,0 18.39191,-33.89524,0 18.39285,-33.89452,0 18.39375,-33.89388,0 18.39453,-33.89333,0 18.3954,-33.89282,0 18.39626,-33.89231,0 18.39739,-33.89163,0 18.3984,-33.89104,0 18.39924,-33.89053,0 18.40025,-33.88994,0 18.40113,-33.88942,0 18.40215,-33.88884,0 18.4029,-33.88845,0 18.40405,-33.88789,0 18.40513,-33.88737,0 18.40586,-33.88705,0 18.40703,-33.88655,0 18.40794,-33.88617,0 18.40916,-33.88568,0 18.41034,-33.88522,0 18.41131,-33.88491,0 18.41251,-33.88449,0 18.41353,-33.88412,0 18.41488,-33.88371,0 18.41628,-33.88335,0 18.41726,-33.88319,0 18.41869,-33.88314,0 18.42009,-33.88316,0 18.42115,-33.88328,0 18.42258,-33.88351,0 18.42396,-33.88379,0 18.42519,-33.88417,0 18.42632,-33.88449,0 18.42749,-33.88495,0 18.42861,-33.88545,0 18.42996,-33.88618,0 18.43088,-33.88672,0 18.43203,-33.88756,0 18.43271,-33.88807,0 18.43382,-33.88907,0 18.4345,-33.88971,0 18.43529,-33.89059,0 18.43575,-33.89133,0 18.43601,-33.89204,0 18.43615,-33.89291,0 18.43609,-33.89384,0 18.43579,-33.89452,0 18.43545,-33.89502,0 18.43477,-33.89561,0 18.43394,-33.89603,0 18.43306,-33.89622,0 18.4322,-33.89622,0 18.43105,-33.89608,0 18.43019,-33.89589,0 18.42951,-33.89571,0 18.42854,-33.89548,0 18.42751,-33.89529,0 18.42653,-33.89524,0 18.42596,-33.89534,0 18.42519,-33.89566,0 18.42482,-33.89599,0 18.42469,-33.89644,0 18.42476,-33.89687,0 18.42497,-33.89731,0 18.42514,-33.89754,0 18.42545,-33.89794,0 18.42579,-33.89832,0 18.42607,-33.89859,0 18.42636,-33.89892,0 18.42659,-33.89915,0 18.42682,-33.89941,0 18.42704,-33.89969,0 18.42715,-33.9001,0 18.4271,-33.90038,0 18.42705,-33.9006,0 18.42693,-33.90083,0 18.42693,-33.90051,0 18.42704,-33.90019,0 18.42716,-33.89994,0 18.42732,-33.89969,0 18.42745,-33.89948,0 18.42755,-33.89928,0 18.42773,-33.89897,0 18.428,-33.89854,0 18.42828,-33.89813,0 18.42844,-33.89777,0 18.42859,-33.89753,0 18.42872,-33.89731,0 18.42899,-33.89682,0 18.42923,-33.89644,0 18.42934,-33.89622,0 18.42945,-33.89589,0 18.42968,-33.89543,0 18.42991,-33.89501,0 18.43019,-33.89459,0 18.43041,-33.89415,0 18.43074,-33.89355,0 18.43108,-33.89305,0 18.43128,-33.89264,0 18.43163,-33.89212,0 18.43185,-33.8917,0 18.43208,-33.89133,0 18.43237,-33.89082,0 18.43266,-33.89026,0 18.43288,-33.88993,0 18.43323,-33.88919,0 18.4334,-33.88868,0 18.4336,-33.88811,0 18.43366,-33.88756,0 18.43369,-33.88686,0 18.43357,-33.88617,0 18.43332,-33.88559,0 18.4331,-33.88513,0 18.43266,-33.88449,0 18.43208,-33.88393,0 18.43147,-33.88348,0 18.4308,-33.88307,0 18.43014,-33.88277,0 18.42911,-33.88244,0 18.42813,-33.88221,0 18.42743,-33.88206,0 18.42632,-33.88197,0 18.42531,-33.88193,0 18.4243,-33.88188,0 18.42339,-33.88188,0 18.42241,-33.88188,0 18.42144,-33.88188,0 18.42018,-33.88193,0 18.41921,-33.88198,0 18.4183,-33.88206,0 18.41709,-33.88216,0 18.416,-33.88225,0 18.41486,-33.8823,0 18.41366,-33.88244,0 18.41241,-33.88257,0 18.41131,-33.88268,0 18.41023,-33.8828,0 18.40897,-33.88295,0 18.40765,-33.88307,0 18.40639,-33.88323,0 18.40519,-33.88333,0 18.4012,-33.88385,0 18.39975,-33.88407,0 18.39861,-33.88426,0 18.39735,-33.88449,0 18.39605,-33.88477,0 18.39453,-33.88513,0 18.3934,-33.88542,0 18.39212,-33.88586,0 18.39089,-33.88632,0 18.38966,-33.88692,0 18.38887,-33.88737,0 18.38762,-33.88821,0 18.38674,-33.88884,0 18.38568,-33.88966,0 18.38459,-33.89059,0 18.38362,-33.89147,0 18.38276,-33.89232,0 18.38175,-33.89323,0 18.38093,-33.89408,0 18.38007,-33.89487,0 18.37884,-33.89598,0 18.378,-33.89671,0 18.37692,-33.89762,0 18.37606,-33.89836,0 18.37486,-33.89934,0 18.37391,-33.90015,0 18.3728,-33.90102,0 18.37172,-33.90195,0 18.37077,-33.90271,0 18.36981,-33.90344,0 18.36886,-33.90422,0 18.36768,-33.90514,0 18.36673,-33.90591,0 18.36542,-33.90693,0 18.36348,-33.90851,0 18.36241,-33.90944,0 18.36142,-33.91028,0 18.36045,-33.91118,0 18.35944,-33.91228,0 18.35855,-33.91326,0 18.3577,-33.91433,0 18.35701,-33.91521,0 18.35627,-33.91619,0 18.35552,-33.9175,0 18.35496,-33.91855,0 18.3544,-33.91997,0 18.3539,-33.92116,0 18.35356,-33.92226,0 18.35318,-33.92355,0 18.35277,-33.92473,0 18.35238,-33.92583,0 18.35199,-33.92688,0 18.35148,-33.92821,0 18.35083,-33.9295,0 18.35037,-33.93058,0 18.34991,-33.93179,0 18.3498,-33.93256,0 18.34986,-33.93379,0 18.35014,-33.93458,0 18.35066,-33.93528,0 18.35126,-33.93571,0 18.35186,-33.93593,0 18.35227,-33.93599,0 18.35283,-33.93594,0 18.35333,-33.93585,0 18.35381,-33.93575,0 18.35421,-33.93565,0 18.35472,-33.93551,0 18.35535,-33.93539,0 18.35609,-33.93537,0 18.3567,-33.93539,0 18.35737,-33.93558,0 18.3581,-33.93584,0 18.35896,-33.93639,0 18.3597,-33.93695,0 18.36045,-33.93787,0 18.36101,-33.93874,0 18.36157,-33.93993,0 18.36197,-33.94084,0 18.36236,-33.94226,0 18.36253,-33.94322,0 18.36273,-33.94468,0 18.36285,-33.94617,0 18.36285,-33.94743,0 18.36286,-33.94885,0 18.36275,-33.9505,0 18.36258,-33.95174,0 18.36236,-33.95334,0 18.36202,-33.95485,0 18.36163,-33.95609,0 18.36118,-33.95755,0 18.36056,-33.95916,0 18.36,-33.96057,0 18.35941,-33.96181,0 18.35872,-33.96327,0 18.35804,-33.96465,0 18.35743,-33.96588,0 18.35649,-33.96772,0 18.3558,-33.96895,0 18.35479,-33.97069,0 18.35395,-33.97206,0 18.35305,-33.97339,0 18.35227,-33.97449,0 18.3516,-33.97531,0 18.35064,-33.97659,0 18.3498,-33.97769,0 18.34896,-33.9787,0 18.34791,-33.97997,0 18.34682,-33.98127,0 18.34582,-33.98241,0 18.34481,-33.9836,0 18.34369,-33.98483,0 18.34276,-33.98588,0 18.34196,-33.9868,0 18.34105,-33.98793,0 18.33999,-33.98923,0 18.33921,-33.9903,0 18.33831,-33.99165,0 18.33767,-33.99282,0 18.33725,-33.9939,0 18.3368,-33.99522,0 18.33635,-33.99687,0 18.33595,-33.99808,0 18.33557,-33.99948,0 18.33512,-34.00108,0 18.33475,-34.00241,0 18.33447,-34.00371,0 18.33422,-34.00507,0 18.33395,-34.00674,0 18.33372,-34.00841,0 18.3336,-34.00969,0 18.33344,-34.01111,0 18.33338,-34.01228,0 18.33332,-34.01404,0 18.33338,-34.01544,0 18.33349,-34.01669,0 18.33372,-34.01833,0 18.33394,-34.01971,0 18.33424,-34.02135,0 18.33447,-34.02238,0 18.33475,-34.02382,0 18.33515,-34.02536,0 18.33555,-34.02703,0 18.33601,-34.02864,0 18.33647,-34.03001,0 18.33693,-34.03127,0 18.33738,-34.03257,0 18.33792,-34.03423,0 18.33837,-34.03551,0 18.33893,-34.03711,0 18.33939,-34.03848,0 18.33982,-34.03986,0 18.34024,-34.04109,0 18.34082,-34.04291,0 18.34134,-34.04453,0 18.34167,-34.04565,0 18.3423,-34.04761,0 18.34268,-34.04897,0 18.34316,-34.05059,0 18.34379,-34.05315,0 18.34414,-34.05441,0 18.34448,-34.05602,0 18.34476,-34.0573,0 18.34515,-34.05908,0 18.34554,-34.06064,0 18.34591,-34.06218,0 18.34633,-34.06384,0 18.34666,-34.06503,0 18.34717,-34.06637,0 18.34768,-34.06744,0 18.3484,-34.06865,0 18.34923,-34.07,0 18.34991,-34.07098,0 18.35072,-34.07191,0 18.35154,-34.07286,0 18.35232,-34.07368,0 18.35312,-34.07452,0 18.35429,-34.07561,0 18.35512,-34.07638,0 18.35614,-34.0773,0 18.35715,-34.07817,0 18.35804,-34.07904,0 18.35888,-34.07986,0 18.36004,-34.08099,0 18.36084,-34.08187,0 18.36185,-34.08298,0 18.36273,-34.08397,0 18.36365,-34.08513,0 18.36456,-34.08634,0 18.3655,-34.08755,0 18.36622,-34.08862,0 18.36684,-34.08957,0 18.36765,-34.09085,0 18.36828,-34.09197,0 18.36891,-34.09304,0 18.36983,-34.09467,0 18.37043,-34.0957,0 18.37116,-34.09698,0 18.37223,-34.09858,0 18.37301,-34.09964,0 18.37368,-34.10056,0 18.37469,-34.1017,0 18.37578,-34.10287,0 18.37676,-34.10376,0 18.37772,-34.10459,0 18.37878,-34.10541,0 18.38007,-34.1064,0 18.38119,-34.10719,0 18.38276,-34.1082,0 18.38388,-34.10889,0 18.38522,-34.10966,0 18.38646,-34.11035,0 18.38768,-34.11101,0 18.38915,-34.11182,0 18.39043,-34.11246,0 18.3919,-34.11324,0 18.393,-34.1138,0 18.39442,-34.11452,0 18.39563,-34.11515,0 18.39666,-34.11567,0 18.39792,-34.11627,0 18.39947,-34.11703,0 18.40078,-34.11767,0 18.40199,-34.11823,0 18.4035,-34.11896,0 18.40456,-34.11948,0 18.40605,-34.12018,0 18.40737,-34.12079,0 18.40885,-34.12144,0 18.41,-34.12189,0 18.41148,-34.12256,0 18.4124,-34.12293,0 18.41393,-34.12358,0 18.41515,-34.12409,0 18.41635,-34.12465,0 18.41785,-34.12532,0 18.41925,-34.12592,0 18.42052,-34.12647,0 18.42173,-34.12703,0 18.42293,-34.12754,0 18.4243,-34.1282,0 18.42547,-34.12875,0 18.42705,-34.12949,0 18.42819,-34.13,0 18.42934,-34.13057,0 18.43054,-34.13103,0 18.43203,-34.13163,0 18.43321,-34.1321,0 18.43427,-34.13242,0 18.43557,-34.1328,0 18.43668,-34.1331,0 18.43825,-34.13347,0 18.43969,-34.13373,0 18.44078,-34.13391,0 18.44201,-34.13406,0 18.4433,-34.1342,0 18.44484,-34.1342,0 18.44616,-34.13416,0 18.44728,-34.13402,0 18.44829,-34.13383,0 18.44942,-34.13354,0 18.45064,-34.1331,0 18.45159,-34.13264,0 18.45266,-34.13191,0 18.45344,-34.13136,0 18.4544,-34.13061,0 18.45518,-34.12994,0 18.45623,-34.12907,0 18.45692,-34.12848,0 18.45772,-34.12786,0 18.4584,-34.1273,0 18.45933,-34.12656,0 18.46012,-34.12591,0 18.46104,-34.12507,0 18.46178,-34.12442,0 18.46264,-34.12363,0 18.46331,-34.12294,0 18.46401,-34.12214,0 18.46471,-34.12138,0 18.46539,-34.12041,0 18.46589,-34.11942,0 18.46617,-34.11855,0 18.46642,-34.11749,0 18.46662,-34.11639,0 18.46678,-34.11557,0 18.46699,-34.11474,0 18.46716,-34.11376,0 18.46734,-34.11259,0 18.46756,-34.1118,0 18.46774,-34.11095,0 18.46796,-34.10994,0 18.46819,-34.1091,0 18.46848,-34.10799,0 18.46876,-34.10715,0 18.46908,-34.10605,0 18.46936,-34.10518,0 18.46962,-34.10431,0 18.46991,-34.10338,0 18.4702,-34.1022,0 18.47036,-34.10138,0 18.47054,-34.10035,0 18.47059,-34.09966,0 18.47071,-34.09859,0 18.47071,-34.09763,0 18.47065,-34.09694,0 18.47054,-34.09565,0 18.47036,-34.09481,0 18.47008,-34.09379,0 18.46979,-34.0929,0 18.46945,-34.09179,0 18.46914,-34.09108,0 18.46875,-34.08994,0 18.46835,-34.08897,0 18.46791,-34.08801,0 18.46757,-34.08714,0 18.46718,-34.08636,0 18.46667,-34.08527,0 18.46607,-34.08406,0 18.46561,-34.08327,0 18.46522,-34.08247,0 18.46465,-34.08142,0 18.46418,-34.08057,0 18.46373,-34.07978,0 18.46321,-34.0788,0 18.46264,-34.07773,0 18.46202,-34.07657,0 18.46157,-34.07579,0 18.46095,-34.07474,0 18.45978,-34.07237,0 18.45787,-34.06856,0 18.45675,-34.06609,0 18.45634,-34.06502,0 18.456,-34.06418,0 18.45557,-34.06311,0 18.45524,-34.06224,0 18.4549,-34.06128,0 18.45463,-34.06036,0 18.45423,-34.0592,0 18.45394,-34.05832,0 18.45367,-34.05748,0 18.45339,-34.05661,0 18.45305,-34.05537,0 18.45271,-34.05446,0 18.45243,-34.05341,0 18.45211,-34.0525,0 18.45182,-34.05147,0 18.45148,-34.05043,0 18.45126,-34.04956,0 18.45098,-34.04865,0 18.45074,-34.04765,0 18.45051,-34.04677,0 18.4503,-34.04572,0 18.45011,-34.04486,0 18.44994,-34.04403,0 18.44976,-34.04286,0 18.44963,-34.04219,0 18.44952,-34.04109,0 18.44941,-34.04018,0 18.44935,-34.03931,0 18.44931,-34.03848,0 18.44931,-34.03746,0 18.44925,-34.03658,0 18.44931,-34.03546,0 18.44936,-34.03457,0 18.44941,-34.03349,0 18.44942,-34.03267,0 18.44952,-34.03185,0 18.44958,-34.03075,0 18.44965,-34.02978,0 18.44976,-34.02894,0 18.44991,-34.02809,0 18.45008,-34.02699,0 18.45025,-34.02626,0 18.45047,-34.02525,0 18.45074,-34.02438,0 18.45102,-34.02354,0 18.45137,-34.02251,0 18.45165,-34.02163,0 18.452,-34.02084,0 18.45238,-34.01994,0 18.45277,-34.01903,0 18.45314,-34.01819,0 18.45361,-34.01724,0 18.45395,-34.01642,0 18.45451,-34.0153,0 18.4549,-34.01454,0 18.45531,-34.01372,0 18.45577,-34.01283,0 18.45625,-34.01193,0 18.45664,-34.01115,0 18.45715,-34.01014,0 18.4576,-34.00934,0 18.458,-34.00855,0 18.45849,-34.00758,0 18.45903,-34.0066,0 18.45938,-34.00589,0 18.46081,-34.00311,0 18.46241,-34.00017,0 18.46443,-33.99623,0 18.46607,-33.99337,0 18.46819,-33.98973,0 18.46914,-33.98804,0 18.46979,-33.987,0 18.47026,-33.98616,0 18.47082,-33.98518,0 18.47122,-33.98434,0 18.47166,-33.98351,0 18.47219,-33.98244,0 18.47261,-33.98163,0 18.47311,-33.98057,0 18.47351,-33.97971,0 18.47396,-33.97879,0 18.47431,-33.97797,0 18.47466,-33.97713,0 18.475,-33.97629,0 18.47542,-33.97536,0 18.47586,-33.97435,0 18.4762,-33.97359,0 18.4766,-33.97256,0 18.477,-33.97159,0 18.47732,-33.97069,0 18.47839,-33.96803,0 18.47968,-33.96455,0 18.48026,-33.96288,0 18.48049,-33.96195,0 18.4808,-33.96107,0 18.48108,-33.95998,0 18.48136,-33.95915,0 18.48164,-33.95823,0 18.48186,-33.95734,0 18.48214,-33.95627,0 18.48237,-33.95544,0 18.48261,-33.95432,0 18.48281,-33.95338,0 18.48301,-33.95208,0 18.48315,-33.9511,0 18.48324,-33.95027,0 18.48332,-33.94913,0 18.48338,-33.94821,0 18.48335,-33.94752,0 18.48335,-33.94626,0 18.4833,-33.94515,0 18.48321,-33.94437,0 18.48307,-33.94319,0 18.48287,-33.94203,0 18.48276,-33.9413,0 18.48255,-33.94021,0 18.48231,-33.93906,0 18.48209,-33.93819,0 18.48175,-33.937,0 18.48147,-33.93608,0 18.48106,-33.93514,0 18.48063,-33.93411,0 18.48018,-33.93306,0 18.47975,-33.93221,0 18.47917,-33.93114,0 18.47867,-33.93031,0 18.47797,-33.92923,0 18.47757,-33.92862,0 18.47689,-33.92769,0 18.47614,-33.92679,0 18.47536,-33.92592,0 18.47469,-33.92523,0 18.47396,-33.9245,0 18.47294,-33.9235,0 18.47208,-33.92266,0 18.47145,-33.92206,0 18.47043,-33.92116,0 18.46964,-33.92052,0 18.46891,-33.91988,0 18.46796,-33.91912,0 18.46701,-33.91827,0 18.46596,-33.91745,0 18.46516,-33.9168,0 18.46415,-33.91599,0 18.46327,-33.91526,0 18.46247,-33.91461,0 18.46146,-33.91379,0 18.46041,-33.91298,0 18.45943,-33.91219,0 18.4584,-33.9113,0 18.45554,-33.90893,0 18.45274,-33.90651,0 18.45119,-33.90525,0 18.44952,-33.90376,0 18.44862,-33.90297,0 18.44773,-33.90211,0 18.44705,-33.90143,0 18.44622,-33.90069,0 18.44537,-33.89992,0 18.44456,-33.89929,0 18.4437,-33.89864,0 18.4429,-33.89813,0 18.4421,-33.89771,0 18.44094,-33.89726,0 18.44027,-33.89708,0 18.43884,-33.89682,0 18.43769,-33.89676,0 18.43663,-33.89685,0 18.43546,-33.89706,0 18.43477,-33.89729,0 18.4342,-33.89748,0 18.43369,-33.89771,0 18.43288,-33.89808,0 18.43225,-33.89841,0 18.43175,-33.89859,0 18.43125,-33.89882,0 18.4308,-33.899,0 18.43052,-33.89914,0 18.43024,-33.89923,0 18.43002,-33.89929,0 18.42957,-33.89943,0 18.42934,-33.89952,0 18.42906,-33.8996,0 18.42882,-33.89962,0 18.42839,-33.89973,0 18.42808,-33.89981,0 18.42783,-33.89987,0 18.4276,-33.90001,0 18.42739,-33.90018,0 18.42732,-33.90042,0 18.43057,-33.8952,0 18.43186,-33.8936,0 18.43377,-33.89136,0 18.43512,-33.88961,0 18.43539,-33.88916,0 18.43575,-33.88854,0 18.43597,-33.88807,0 18.43615,-33.88742,0 18.43609,-33.88668,0 18.43596,-33.88605,0 18.43569,-33.8856,0 18.43529,-33.88514,0 18.43495,-33.88486,0 18.43444,-33.88458,0 18.4338,-33.8843,0 18.43321,-33.88417,0 18.43271,-33.88407,0 18.43191,-33.88398,0 18.431,-33.88388,0 18.43031,-33.88384,0 18.42968,-33.88379,0 18.42882,-33.88379,0 18.428,-33.88376,0 18.42732,-33.88376,0 18.42648,-33.88379,0 18.42575,-33.8838,0 18.4248,-33.88385,0 18.42402,-33.88388,0 18.42321,-33.88393,0 18.4223,-33.88398,0 18.42161,-33.88403,0 18.42082,-33.88408,0 18.4199,-33.88412,0 18.41875,-33.88417,0 18.41802,-33.88426,0 18.41684,-33.88435,0 18.41595,-33.88445,0 18.41499,-33.88454,0 18.41406,-33.88467,0 18.4132,-33.88477,0 18.41213,-33.8849,0 18.4112,-33.885,0 18.41005,-33.88514,0 18.40925,-33.88528,0 18.40811,-33.88547,0 18.40731,-33.88559,0 18.40622,-33.88579,0 18.40508,-33.88602,0 18.40429,-33.88618,0 18.40322,-33.88641,0 18.40255,-33.8866,0 18.40148,-33.88687,0 18.4007,-33.8871,0 18.39964,-33.88752,0 18.39855,-33.88789,0 18.39769,-33.88826,0 18.39672,-33.88866,0 18.39582,-33.88907,0 18.3946,-33.88966,0 18.39346,-33.89022,0 18.39207,-33.89099,0 18.39106,-33.89159,0 18.39014,-33.89212,0 18.38915,-33.89273,0 18.38825,-33.89329,0 18.38713,-33.89401,0 18.38596,-33.89479,0 18.38499,-33.89543,0 18.38405,-33.89607,0 18.38276,-33.89694,0 18.38167,-33.89766,0 18.3807,-33.89836,0 18.37968,-33.89905,0 18.37889,-33.89964,0 18.3779,-33.90036,0 18.37704,-33.90097,0 18.37589,-33.90185,0 18.37515,-33.90246,0 18.37435,-33.90306,0 18.37343,-33.90381,0 18.37273,-33.9044,0 18.37166,-33.90536,0 18.37099,-33.90596,0 18.37009,-33.90683,0 18.36931,-33.90761,0 18.36845,-33.90851,0 18.36768,-33.90939,0 18.36707,-33.91008,0 18.36623,-33.91109,0 18.36548,-33.912,0 18.36454,-33.91315,0 18.36393,-33.91391,0 18.3632,-33.91493,0 18.36227,-33.91615,0 18.36147,-33.91735,0 18.36079,-33.91838,0 18.36006,-33.91946,0 18.35941,-33.92057,0 18.3586,-33.92207,0 18.3581,-33.92313,0 18.35759,-33.92418,0 18.35681,-33.92587,0 18.3563,-33.92697,0 18.35581,-33.92806,0 18.35513,-33.92972,0 18.35462,-33.93086,0 18.35409,-33.93221,0 18.35369,-33.93314,0 18.35306,-33.93463,0 18.35249,-33.93594,0 18.35197,-33.93719,0 18.35026,-33.94119,0 18.34848,-33.94552,0 18.34689,-33.9494,0 18.34509,-33.95389,0 18.34414,-33.95688,0 18.34391,-33.95781,0 18.34375,-33.95851,0 18.34528,-33.96563,0 18.34614,-33.96651,0 18.34751,-33.96745,0 18.34879,-33.96794,0 18.35019,-33.96817,0 18.35123,-33.96819,0 18.3526,-33.96786,0 18.35335,-33.96754,0 18.35432,-33.96689,0 18.35489,-33.96628,0 18.35541,-33.96544,0 18.35574,-33.96469,0 18.35602,-33.96364,0 18.35627,-33.9626,0 18.35638,-33.96195,0 18.35655,-33.96093,0 18.35675,-33.95988,0 18.35692,-33.95906,0 18.35715,-33.95796,0 18.35735,-33.95697,0 18.35747,-33.95632,0 18.35771,-33.95522,0 18.35799,-33.95398,0 18.35827,-33.95283,0 18.3585,-33.95194,0 18.35873,-33.95101,0 18.35905,-33.94977,0 18.35944,-33.94835,0 18.35967,-33.94734,0 18.35987,-33.94626,0 18.3601,-33.94533,0 18.36027,-33.94459,0 18.36045,-33.94373,0 18.36067,-33.94268,0 18.36079,-33.94189,0 18.36102,-33.94091,0 18.36124,-33.93975,0 18.36142,-33.93896,0 18.36164,-33.93789,0 18.36191,-33.93686,0 18.36216,-33.93584,0 18.3623,-33.93517,0 18.36262,-33.93407,0 18.36286,-33.9332,0 18.36319,-33.9323,0 18.36348,-33.93142,0 18.36387,-33.93045,0 18.36426,-33.92963,0 18.36468,-33.92876,0 18.36496,-33.92811,0 18.36542,-33.92722,0 18.36582,-33.92648,0 18.36622,-33.92578,0 18.36674,-33.92499,0 18.36724,-33.92422,0 18.3678,-33.9234,0 18.3683,-33.92271,0 18.36892,-33.92184,0 18.3696,-33.92099,0 18.37029,-33.92006,0 18.37077,-33.91946,0 18.37155,-33.91855,0 18.37217,-33.91777,0 18.37269,-33.91717,0 18.37366,-33.91615,0 18.37429,-33.9154,0 18.37521,-33.91447,0 18.37587,-33.9137,0 18.37665,-33.91287,0 18.37733,-33.91219,0 18.37818,-33.9113,0 18.37884,-33.91058,0 18.37951,-33.9099,0 18.38036,-33.90907,0 18.38127,-33.90818,0 18.38192,-33.90756,0 18.38276,-33.90674,0 18.38349,-33.90605,0 18.38585,-33.90385,0 18.3882,-33.90166,0 18.39071,-33.89943,0 18.39151,-33.89882,0 18.39235,-33.89818,0 18.3934,-33.89738,0 18.39426,-33.89673,0 18.39526,-33.89603,0 18.39632,-33.89529,0 18.39729,-33.89464,0 18.39804,-33.89413,0 18.39924,-33.89342,0 18.40015,-33.89282,0 18.4016,-33.892,0 18.40277,-33.89136,0 18.40387,-33.89082,0 18.40496,-33.89031,0 18.40639,-33.8897,0 18.40765,-33.88916,0 18.40885,-33.88868,0 18.40995,-33.88829,0 18.41124,-33.88788,0 18.41264,-33.88742,0 18.41387,-33.88705,0 18.41537,-33.88663,0 18.41646,-33.88631,0 18.4178,-33.88596,0 18.41938,-33.8856,0 18.42041,-33.88542,0 18.42211,-33.88518,0 18.42379,-33.88505,0 18.42525,-33.88509,0 18.42654,-33.88518,0 18.42794,-33.88536,0 18.42979,-33.88582,0 18.43114,-33.88628,0 18.43283,-33.88696,0 18.43409,-33.88756,0 18.43552,-33.88845,0 18.43672,-33.88924,0 18.43809,-33.89026,0 18.43895,-33.89096,0 18.44016,-33.892,0 18.44117,-33.89296,0 18.44215,-33.89408,0 18.4429,-33.89496,0 18.44369,-33.89621,0 18.44425,-33.89722,0 18.44464,-33.89813,0 18.44481,-33.89905,0 18.44467,-33.90013,0 18.44416,-33.90106,0 18.44347,-33.90157,0 18.4429,-33.90181,0 18.44175,-33.90204,0 18.441,-33.90207,0 18.43994,-33.90202,0 18.43918,-33.90195,0 18.43848,-33.90184,0 18.43763,-33.90171,0 18.43672,-33.90153,0 18.43592,-33.90139,0 18.43506,-33.9012,0 18.43416,-33.90106,0 18.43343,-33.90092,0 18.43266,-33.90078,0 18.4322,-33.9007,0 18.43168,-33.90064,0 18.43142,-33.90056,0 18.43111,-33.90055,0 18.43057,-33.90042,0 18.43002,-33.90032,0 18.42979,-33.90028,0 18.42912,-33.90019,0 18.42828,-33.90015,0 18.42794,-33.90019,0 18.42768,-33.90027,0 18.42743,-33.90042,0 18.42722,-33.9006,0 18.42704,-33.90088,0 18.42704,-33.90065,0 18.42728,-33.89994,0 18.42745,-33.89962,0 18.42773,-33.89915,0 18.42794,-33.89882,0 18.42811,-33.89859,0 18.4285,-33.89804,0 18.42888,-33.89757,0 18.42906,-33.89731,0 18.42934,-33.89699,0 18.42951,-33.89676,0 18.42973,-33.89648,0 18.4299,-33.89621,0 18.43035,-33.89566,0 18.43074,-33.89516,0 18.43111,-33.89468,0 18.43147,-33.8941,0 18.43208,-33.89338,0 18.43248,-33.89291,0 18.43287,-33.89241,0 18.43321,-33.892,0 18.43363,-33.89147,0 18.43405,-33.89095,0 18.43439,-33.89049,0 18.4346,-33.89008,0 18.43483,-33.88956,0 18.435,-33.8891,0 18.43512,-33.88849,0 18.43511,-33.88802,0 18.435,-33.88747,0 18.43483,-33.8871,0 18.4346,-33.88663,0 18.43431,-33.88626,0 18.43386,-33.88584,0 18.43343,-33.8855,0 18.43288,-33.88519,0 18.43226,-33.88495,0 18.43163,-33.88482,0 18.43094,-33.88467,0 18.43029,-33.88454,0 18.42957,-33.88444,0 18.42872,-33.88435,0 18.42808,-33.8843,0 18.42743,-33.88426,0 18.42665,-33.88426,0 18.42596,-33.88421,0 18.42514,-33.88422,0 18.42447,-33.88421,0 18.42373,-33.88416,0 18.42284,-33.88417,0 18.42205,-33.88412,0 18.42138,-33.88416,0 18.42048,-33.88412,0 18.41978,-33.88416,0 18.41891,-33.88417,0 18.41824,-33.88416,0 18.41761,-33.88421,0 18.41652,-33.88426,0 18.41589,-33.8843,0 18.41497,-33.88435,0 18.41406,-33.88444,0 18.41331,-33.88449,0 18.41234,-33.88458,0 18.41137,-33.88467,0 18.41051,-33.88482,0 18.40971,-33.88491,0 18.40877,-33.88499,0 18.40776,-33.88513,0 18.40714,-33.88523,0 18.40605,-33.88542,0 18.40519,-33.88551,0 18.40427,-33.88565,0 18.40313,-33.88584,0 18.40221,-33.886,0 18.4012,-33.88618,0 18.40038,-33.88635,0 18.39913,-33.88664,0 18.39818,-33.88687,0 18.39712,-33.88719,0 18.39615,-33.88747,0 18.39506,-33.88784,0 18.39397,-33.88824,0 18.3928,-33.8887,0 18.39156,-33.88916,0 18.3905,-33.88962,0 18.38923,-33.89022,0 18.38814,-33.89072,0 18.38736,-33.89113,0 18.38579,-33.89198,0 18.38467,-33.89259,0 18.38362,-33.8932,0 18.3827,-33.8938,0 18.38144,-33.89464,0 18.38064,-33.89524,0 18.37951,-33.89607,0 18.37835,-33.89697,0 18.37732,-33.8978,0 18.37637,-33.89854,0 18.37553,-33.89923,0 18.37463,-33.89999,0 18.37366,-33.90083,0 18.37278,-33.90157,0 18.37183,-33.90244,0 18.37097,-33.9032,0 18.37017,-33.904,0 18.36942,-33.90472,0 18.36852,-33.90559,0 18.36752,-33.90665,0 18.36667,-33.90756,0 18.36589,-33.90839,0 18.36494,-33.90953,0 18.36399,-33.91061,0 18.36325,-33.91149,0 18.36245,-33.91247,0 18.36182,-33.91335,0 18.3609,-33.91452,0 18.36017,-33.91553,0 18.35918,-33.91698,0 18.35844,-33.91796,0 18.3577,-33.91908,0 18.35681,-33.92043,0 18.35625,-33.92125,0 18.35541,-33.92258,0 18.35485,-33.92345,0 18.35412,-33.92468,0 18.35352,-33.92564,0 18.35272,-33.92699,0 18.35215,-33.92806,0 18.3514,-33.92941,0 18.35072,-33.93072,0 18.35014,-33.93179,0 18.34934,-33.93332,0 18.34874,-33.93462,0 18.34823,-33.93567,0 18.3475,-33.93713,0 18.34682,-33.93858,0 18.34637,-33.93961,0 18.34577,-33.94084,0 18.34509,-33.94231,0 18.34453,-33.94359,0 18.34392,-33.94496,0 18.34345,-33.94617,0 18.34291,-33.94753,0 18.34235,-33.94894,0 18.34184,-33.95045,0 18.34134,-33.95187,0 18.34076,-33.95371,0 18.34039,-33.95522,0 18.34019,-33.95641,0 18.34016,-33.95773,0 18.3403,-33.95911,0 18.34076,-33.9606,0 18.34492,-33.96487,0 18.34683,-33.96538,0 18.34778,-33.96542,0 18.34935,-33.96515,0 18.35048,-33.96451,0 18.35123,-33.96386,0 18.3518,-33.96307,0 18.35227,-33.96222,0 18.35277,-33.96094,0 18.35322,-33.9597,0 18.3535,-33.95888,0 18.35386,-33.95772,0 18.35415,-33.95678,0 18.35443,-33.95576,0 18.35472,-33.95469,0 18.3549,-33.95384,0 18.3553,-33.95251,0 18.35552,-33.95155,0 18.35581,-33.95064,0 18.35604,-33.94976,0 18.35632,-33.94873,0 18.35658,-33.9478,0 18.35681,-33.94693,0 18.35758,-33.94394,0 18.35849,-33.94098,0 18.35884,-33.94007,0 18.35922,-33.93906,0 18.3595,-33.93823,0 18.35999,-33.93695,0 18.36027,-33.93621,0 18.36073,-33.93491,0 18.36113,-33.93393,0 18.36153,-33.93304,0 18.36197,-33.93205,0 18.36239,-33.93113,0 18.36286,-33.93013,0 18.3632,-33.92953,0 18.3637,-33.92857,0 18.36432,-33.92757,0 18.36479,-33.92676,0 18.36536,-33.92583,0 18.36588,-33.92508,0 18.36645,-33.92436,0 18.36718,-33.92336,0 18.36788,-33.92252,0 18.36847,-33.92184,0 18.36931,-33.92094,0 18.37006,-33.92015,0 18.37074,-33.9194,0 18.37138,-33.91873,0 18.37222,-33.91791,0 18.37312,-33.91708,0 18.37413,-33.91617,0 18.37486,-33.91548,0 18.37543,-33.91498,0 18.37641,-33.9141,0 18.37733,-33.91328,0 18.37801,-33.91265,0 18.37881,-33.91191,0 18.37967,-33.91112,0 18.38053,-33.91032,0 18.38127,-33.90968,0 18.38209,-33.90894,0 18.38282,-33.90823,0 18.38371,-33.90742,0 18.38442,-33.90674,0 18.38511,-33.90609,0 18.38596,-33.90532,0 18.38665,-33.9046,0 18.38923,-33.90213,0 18.39151,-33.90004,0 18.39392,-33.8979,0 18.39483,-33.89711,0 18.39577,-33.89639,0 18.39672,-33.89566,0 18.39778,-33.89488,0 18.39861,-33.89426,0 18.39963,-33.89355,0 18.40064,-33.89291,0 18.40154,-33.89232,0 18.40244,-33.89175,0 18.4037,-33.89101,0 18.40479,-33.8904,0 18.40586,-33.88976,0 18.40698,-33.88916,0 18.40843,-33.88843,0 18.4095,-33.88788,0 18.4109,-33.88724,0 18.41196,-33.88673,0 18.41314,-33.88621,0 18.41452,-33.88556,0 18.41555,-33.88509,0 18.41686,-33.88444,0 18.41795,-33.88398,0 18.41931,-33.88358,0 18.42071,-33.88326,0 18.42211,-33.88312,0 18.42379,-33.88321,0 18.42514,-33.88339,0 18.42699,-33.88385,0 18.42865,-33.88449,0 18.43035,-33.88527,0 18.43186,-33.88614,0 18.43306,-33.88686,0 18.43449,-33.88794,0 18.43597,-33.8891,0 18.4368,-33.8898,0 18.43821,-33.89101,0 18.43937,-33.892,0 18.44044,-33.89291,0 18.44151,-33.89388,0 18.44268,-33.89502,0 18.44358,-33.89603,0 18.44442,-33.89713,0 18.4452,-33.89841,0 18.44553,-33.89929,0 18.44576,-33.90036,0 18.44553,-33.90171,0 18.44501,-33.90246,0 18.44431,-33.90294,0 18.4433,-33.90325,0 18.4425,-33.9032,0 18.44187,-33.90306,0 18.44078,-33.90269,0 18.44005,-33.90239,0 18.43935,-33.90208,0 18.43843,-33.90167,0 18.43781,-33.90134,0 18.43689,-33.90088,0 18.43624,-33.90056,0 18.43552,-33.90022,0 18.43489,-33.89996,0 18.43414,-33.89971,0 18.43351,-33.89952,0 18.43294,-33.89939,0 18.43231,-33.89932,0 18.43198,-33.89928,0 18.43128,-33.89929,0 18.43082,-33.89929,0 18.43037,-33.89934,0 18.43013,-33.89941,0 18.4299,-33.89946,0 18.42945,-33.89955,0 18.42923,-33.8996,0 18.42888,-33.89967,0 18.42813,-33.89999,0 18.42794,-33.90019,0 18.42768,-33.90046,0 18.42745,-33.90055,0</coordinates>
      </LineString>
    </Placemark>
  </Document>
</kml>
