<?xml version="1.0" encoding="UTF-8"?>
<kml xmlns="http://www.opengis.net/kml/2.2">
  <Document>
    <name>FR24 41efe175</name>
    <Placemark>
      <name>FR24 41efe175</name>
      <Style><LineStyle><color>ff0000ff</color><width>4</width></LineStyle></Style>
      <LineString>
        <tessellate>1</tessellate>
        <coordinates>18.43431,-33.89296,0 18.43556,-33.89163,0 18.43592,-33.89101,0 18.43626,-33.89035,0 18.43657,-33.88957,0 18.4368,-33.88879,0 18.43696,-33.88792,0 18.437,-33.88724,0 18.43691,-33.88632,0 18.43666,-33.88565,0 18.43618,-33.88477,0 18.43579,-33.88417,0 18.43517,-33.88351,0 18.43454,-33.88291,0 18.43363,-33.8823,0 18.43293,-33.88188,0 18.43208,-33.88151,0 18.43125,-33.8812,0 18.43025,-33.88086,0 18.42929,-33.8806,0 18.42836,-33.88034,0 18.42715,-33.8801,0 18.4263,-33.87993,0 18.42525,-33.87978,0 18.42441,-33.87968,0 18.4235,-33.87955,0 18.42224,-33.87946,0 18.4211,-33.87932,0 18.42004,-33.87923,0 18.41927,-33.87914,0 18.41841,-33.87904,0 18.41735,-33.87891,0 18.41618,-33.87877,0 18.4151,-33.87859,0 18.41372,-33.87839,0 18.41286,-33.8783,0 18.41171,-33.87816,0 18.41085,-33.87807,0 18.41,-33.87797,0 18.40888,-33.87785,0 18.40782,-33.87778,0 18.40691,-33.87774,0 18.40586,-33.87772,0 18.40485,-33.87769,0 18.40401,-33.87772,0 18.40311,-33.87776,0 18.40199,-33.87781,0 18.40107,-33.87788,0 18.40021,-33.87802,0 18.39918,-33.8782,0 18.39818,-33.87845,0 18.39712,-33.87872,0 18.39621,-33.87895,0 18.39518,-33.87928,0 18.39425,-33.87955,0 18.39346,-33.87979,0 18.3924,-33.88014,0 18.39167,-33.88042,0 18.3905,-33.88083,0 18.38971,-33.8811,0 18.3886,-33.88151,0 18.38779,-33.88179,0 18.3868,-33.88216,0 18.38585,-33.88252,0 18.385,-33.88284,0 18.38411,-33.88316,0 18.38305,-33.88356,0 18.38224,-33.88384,0 18.3811,-33.88421,0 18.38007,-33.88458,0 18.37929,-33.88486,0 18.37847,-33.88519,0 18.37749,-33.88554,0 18.37671,-33.88591,0 18.37581,-33.88632,0 18.37515,-33.88668,0 18.37418,-33.88719,0 18.3734,-33.88765,0 18.37257,-33.88812,0 18.372,-33.88849,0 18.3711,-33.88898,0 18.37032,-33.88948,0 18.36954,-33.88998,0 18.36886,-33.8904,0 18.36817,-33.89087,0 18.36754,-33.89128,0 18.3669,-33.89177,0 18.36611,-33.89231,0 18.3655,-33.89282,0 18.36488,-33.89328,0 18.36426,-33.89374,0 18.36353,-33.89429,0 18.36297,-33.89474,0 18.36227,-33.89534,0 18.36168,-33.89584,0 18.3609,-33.8965,0 18.3604,-33.89699,0 18.3597,-33.89762,0 18.35916,-33.89813,0 18.3585,-33.89878,0 18.35793,-33.89934,0 18.35731,-33.89996,0 18.35678,-33.90055,0 18.35608,-33.90129,0 18.35546,-33.90193,0 18.35496,-33.90248,0 18.35432,-33.9032,0 18.35367,-33.9039,0 18.35311,-33.9045,0 18.3526,-33.90506,0 18.35188,-33.90582,0 18.3498,-33.90802,0 18.34784,-33.91017,0 18.34728,-33.91095,0 18.34683,-33.91168,0 18.34661,-33.91232,0 18.34648,-33.91317,0 18.34665,-33.9141,0 18.34705,-33.91484,0 18.34756,-33.91539,0 18.34871,-33.91605,0 18.34969,-33.91635,0 18.3507,-33.9164,0 18.35175,-33.91633,0 18.35294,-33.91608,0 18.35415,-33.91558,0 18.35513,-33.91507,0 18.35615,-33.91447,0 18.35718,-33.91377,0 18.35815,-33.91307,0 18.35907,-33.91242,0 18.35987,-33.91177,0 18.36067,-33.91116,0 18.36153,-33.91051,0 18.36262,-33.90963,0 18.36365,-33.90884,0 18.36451,-33.90814,0 18.36522,-33.90752,0 18.36605,-33.90688,0 18.36707,-33.90605,0 18.3678,-33.90541,0 18.37049,-33.90326,0 18.37326,-33.90106,0 18.37687,-33.89832,0 18.38047,-33.89566,0 18.38332,-33.89365,0 18.38614,-33.89175,0 18.38803,-33.89053,0 18.38871,-33.89008,0 18.38997,-33.88933,0 18.39094,-33.88877,0 18.39173,-33.88829,0 18.39285,-33.8877,0 18.39369,-33.88724,0 18.39455,-33.88682,0 18.39552,-33.88635,0 18.39643,-33.88598,0 18.39762,-33.88545,0 18.39838,-33.88509,0 18.39947,-33.88467,0 18.40081,-33.88417,0 18.40204,-33.8837,0 18.40322,-33.8833,0 18.40422,-33.883,0 18.40535,-33.88261,0 18.40647,-33.88234,0 18.40742,-33.88216,0 18.40868,-33.88193,0 18.40956,-33.88179,0 18.41068,-33.88165,0 18.41168,-33.88152,0 18.41286,-33.88142,0 18.41412,-33.88137,0 18.41549,-33.88132,0 18.41635,-33.88128,0 18.4174,-33.88129,0 18.41863,-33.88133,0 18.41981,-33.88138,0 18.42081,-33.88142,0 18.42213,-33.88151,0 18.42318,-33.88165,0 18.42418,-33.88179,0 18.42545,-33.88193,0 18.42653,-33.88211,0 18.42749,-33.88234,0 18.42861,-33.88261,0 18.42962,-33.88286,0 18.43077,-33.88323,0 18.43175,-33.88353,0 18.43276,-33.88385,0 18.43394,-33.88426,0 18.43472,-33.88449,0 18.43584,-33.8849,0 18.43649,-33.88519,0 18.43781,-33.8857,0 18.43865,-33.88614,0 18.43943,-33.88655,0 18.44038,-33.88715,0 18.44124,-33.88779,0 18.44195,-33.88843,0 18.44273,-33.8891,0 18.44353,-33.88998,0 18.44403,-33.89067,0 18.44459,-33.89159,0 18.44498,-33.89232,0 18.44532,-33.89323,0 18.44548,-33.89397,0 18.44553,-33.89506,0 18.44542,-33.8958,0 18.4452,-33.89671,0 18.4449,-33.89738,0 18.44431,-33.89827,0 18.4441,-33.89859,0 18.44376,-33.89892,0 18.44347,-33.89929,0 18.44313,-33.89955,0 18.44279,-33.89983,0 18.44251,-33.90001,0 18.44221,-33.90022,0 18.44195,-33.90042,0 18.44167,-33.90056,0 18.44141,-33.90069,0 18.44117,-33.90079,0 18.4409,-33.90088,0 18.44049,-33.90097,0 18.44022,-33.90102,0 18.43977,-33.90102,0 18.43949,-33.90102,0 18.43921,-33.90102,0 18.43893,-33.90102,0 18.43859,-33.90097,0 18.43815,-33.90092,0 18.43781,-33.90088,0 18.43752,-33.90083,0 18.43713,-33.90079,0 18.4368,-33.90074,0 18.43643,-33.90074,0 18.43609,-33.90069,0 18.43573,-33.90065,0 18.43523,-33.9006,0 18.43489,-33.9006,0 18.43467,-33.90056,0 18.43444,-33.90056,0 18.43409,-33.90055,0 18.43371,-33.90056,0 18.43343,-33.90056,0 18.43323,-33.9006,0 18.43282,-33.9006,0 18.43237,-33.9006,0 18.43208,-33.9006,0 18.43175,-33.9006,0 18.43114,-33.90065,0 18.43091,-33.90065,0 18.43071,-33.90064,0 18.43029,-33.90065,0 18.43008,-33.90064,0 18.42973,-33.90065,0 18.42945,-33.90064,0 18.42906,-33.9006,0 18.42876,-33.90064,0 18.42848,-33.90064,0 18.42819,-33.90069,0 18.42785,-33.90069,0 18.42762,-33.90074,0 18.42739,-33.90081,0 18.42719,-33.90102,0 18.42704,-33.90079,0 18.4271,-33.90022,0 18.42722,-33.89994,0 18.42745,-33.89967,0 18.42783,-33.89932,0 18.42811,-33.89905,0 18.42842,-33.89878,0 18.42872,-33.8985,0 18.42906,-33.89822,0 18.42951,-33.89777,0 18.42979,-33.89754,0 18.43002,-33.89734,0 18.43018,-33.89713,0 18.43048,-33.89682,0 18.43069,-33.89662,0 18.43134,-33.89603,0 18.43175,-33.89561,0 18.4322,-33.89511,0 18.43271,-33.89464,0 18.43311,-33.89422,0 18.43349,-33.89378,0 18.43386,-33.89333,0 18.43431,-33.89282,0 18.43478,-33.89223,0 18.43511,-33.89168,0 18.43545,-33.89108,0 18.43579,-33.8904,0 18.43612,-33.88957,0 18.43635,-33.88898,0 18.43655,-33.88826,0 18.4368,-33.8876,0 18.43691,-33.88705,0 18.43695,-33.88631,0 18.43696,-33.88568,0 18.43689,-33.88496,0 18.43678,-33.8843,0 18.4366,-33.88361,0 18.43632,-33.883,0 18.43592,-33.88226,0 18.43523,-33.88151,0 18.43472,-33.88106,0 18.43397,-33.88053,0 18.43306,-33.88002,0 18.43231,-33.87965,0 18.43164,-33.87936,0 18.43065,-33.879,0 18.42968,-33.87872,0 18.42878,-33.87845,0 18.42796,-33.87825,0 18.42688,-33.87807,0 18.42602,-33.87788,0 18.42516,-33.87778,0 18.42407,-33.87765,0 18.4231,-33.87755,0 18.42201,-33.87746,0 18.42098,-33.87732,0 18.42004,-33.87726,0 18.4192,-33.87726,0 18.41806,-33.87723,0 18.41686,-33.87727,0 18.41595,-33.87737,0 18.41471,-33.87749,0 18.41389,-33.87755,0 18.4128,-33.87769,0 18.41168,-33.87785,0 18.41045,-33.87811,0 18.40954,-33.8783,0 18.40879,-33.87853,0 18.40793,-33.87877,0 18.40696,-33.87909,0 18.40608,-33.87941,0 18.40501,-33.87973,0 18.4041,-33.88007,0 18.4033,-33.88034,0 18.40249,-33.88069,0 18.40164,-33.88105,0 18.40075,-33.88142,0 18.39987,-33.88184,0 18.39901,-33.88226,0 18.39798,-33.88277,0 18.39717,-33.88312,0 18.39632,-33.88346,0 18.39532,-33.88394,0 18.3947,-33.88422,0 18.39363,-33.88467,0 18.39283,-33.88505,0 18.39191,-33.88551,0 18.39111,-33.88591,0 18.39014,-33.8864,0 18.38934,-33.88682,0 18.38853,-33.88724,0 18.38758,-33.88779,0 18.38688,-33.88821,0 18.38619,-33.88868,0 18.38528,-33.88929,0 18.3845,-33.8898,0 18.38373,-33.89035,0 18.38299,-33.89085,0 18.38236,-33.89133,0 18.38133,-33.89208,0 18.38063,-33.89259,0 18.37996,-33.8931,0 18.37912,-33.89378,0 18.37833,-33.89442,0 18.37755,-33.89511,0 18.37692,-33.89566,0 18.37626,-33.89626,0 18.37561,-33.89687,0 18.3748,-33.89763,0 18.37413,-33.89822,0 18.37329,-33.899,0 18.37262,-33.8996,0 18.37183,-33.90033,0 18.37116,-33.90092,0 18.37046,-33.90153,0 18.36953,-33.9023,0 18.36875,-33.90289,0 18.36802,-33.90344,0 18.36724,-33.90404,0 18.36634,-33.90474,0 18.36561,-33.90532,0 18.36473,-33.90595,0 18.36422,-33.90641,0 18.36325,-33.9073,0 18.36264,-33.90784,0 18.36193,-33.90856,0 18.36146,-33.90898,0 18.36068,-33.90976,0 18.35995,-33.9104,0 18.35939,-33.91095,0 18.35861,-33.91172,0 18.35815,-33.91219,0 18.35748,-33.91287,0 18.35684,-33.91363,0 18.35625,-33.91438,0 18.35569,-33.91507,0 18.35506,-33.91587,0 18.35457,-33.91658,0 18.35384,-33.9175,0 18.35335,-33.91815,0 18.35272,-33.9191,0 18.35216,-33.91992,0 18.35137,-33.92111,0 18.35089,-33.92196,0 18.35043,-33.92276,0 18.34997,-33.92364,0 18.3494,-33.92471,0 18.34896,-33.92555,0 18.34846,-33.92647,0 18.34784,-33.92757,0 18.34723,-33.92862,0 18.34677,-33.92941,0 18.34605,-33.93059,0 18.34554,-33.93146,0 18.34487,-33.93256,0 18.34414,-33.93365,0 18.34356,-33.93463,0 18.34296,-33.93567,0 18.34246,-33.93654,0 18.34196,-33.93741,0 18.34139,-33.9384,0 18.34089,-33.93924,0 18.34022,-33.94043,0 18.33859,-33.94336,0 18.33809,-33.94432,0 18.33764,-33.94524,0 18.33719,-33.94615,0 18.33579,-33.9489,0 18.33429,-33.95213,0 18.33389,-33.95301,0 18.33349,-33.95398,0 18.33299,-33.95517,0 18.33258,-33.95613,0 18.33132,-33.95916,0 18.33057,-33.96098,0 18.33012,-33.96228,0 18.3299,-33.96295,0 18.32951,-33.9641,0 18.32923,-33.96501,0 18.3288,-33.96647,0 18.3285,-33.96762,0 18.32829,-33.96833,0 18.32789,-33.96973,0 18.32755,-33.97083,0 18.32726,-33.97201,0 18.32703,-33.97294,0 18.3268,-33.97396,0 18.3266,-33.9749,0 18.32626,-33.97627,0 18.32605,-33.97727,0 18.32565,-33.97862,0 18.32525,-33.97983,0 18.32491,-33.98099,0 18.32468,-33.98192,0 18.32434,-33.98314,0 18.32411,-33.98416,0 18.32391,-33.98515,0 18.32376,-33.98635,0 18.32359,-33.98728,0 18.32346,-33.98827,0 18.32331,-33.98923,0 18.32318,-33.99014,0 18.32302,-33.99133,0 18.32284,-33.99248,0 18.32267,-33.99339,0 18.32251,-33.99445,0 18.32239,-33.99532,0 18.32222,-33.99649,0 18.32217,-33.99742,0 18.32205,-33.99836,0 18.32199,-33.99929,0 18.32183,-34.00017,0 18.3217,-34.00119,0 18.3215,-34.00232,0 18.32136,-34.00334,0 18.32119,-34.00441,0 18.32105,-34.00584,0 18.32099,-34.00703,0 18.32096,-34.00809,0 18.32088,-34.00928,0 18.32079,-34.01032,0 18.32066,-34.01125,0 18.32062,-34.01209,0 18.3206,-34.01312,0 18.32071,-34.01427,0 18.3209,-34.01516,0 18.32116,-34.01633,0 18.32138,-34.01715,0 18.32166,-34.01802,0 18.32206,-34.01917,0 18.32233,-34.02,0 18.32267,-34.02104,0 18.32296,-34.02196,0 18.32323,-34.02292,0 18.32351,-34.02402,0 18.32379,-34.02502,0 18.32405,-34.02582,0 18.32445,-34.02694,0 18.3248,-34.02791,0 18.32508,-34.02871,0 18.32542,-34.02969,0 18.32576,-34.03075,0 18.32604,-34.0318,0 18.32628,-34.03281,0 18.3264,-34.0335,0 18.32654,-34.03445,0 18.32674,-34.03555,0 18.32688,-34.03661,0 18.32697,-34.03755,0 18.32714,-34.03867,0 18.32721,-34.03963,0 18.32731,-34.04063,0 18.32731,-34.0416,0 18.32733,-34.04247,0 18.32733,-34.04333,0 18.32733,-34.04425,0 18.32727,-34.04517,0 18.32721,-34.04594,0 18.3272,-34.04677,0 18.3271,-34.04782,0 18.32703,-34.04877,0 18.32691,-34.04984,0 18.32682,-34.05089,0 18.32674,-34.05189,0 18.32663,-34.05291,0 18.3266,-34.05396,0 18.32651,-34.05496,0 18.3264,-34.05613,0 18.32637,-34.05739,0 18.32628,-34.05859,0 18.32623,-34.05952,0 18.32609,-34.06078,0 18.32604,-34.06174,0 18.32588,-34.06306,0 18.32581,-34.06435,0 18.32571,-34.0653,0 18.32571,-34.06637,0 18.32571,-34.06758,0 18.32581,-34.06883,0 18.32598,-34.07016,0 18.3262,-34.07103,0 18.32645,-34.07219,0 18.3268,-34.07344,0 18.32714,-34.07456,0 18.32749,-34.07579,0 18.32788,-34.07698,0 18.32822,-34.07799,0 18.32867,-34.07927,0 18.32906,-34.08041,0 18.3294,-34.08151,0 18.32983,-34.08266,0 18.33023,-34.08355,0 18.3308,-34.08467,0 18.3313,-34.0854,0 18.33206,-34.08643,0 18.33271,-34.08723,0 18.33338,-34.08806,0 18.33416,-34.08897,0 18.33487,-34.08979,0 18.33573,-34.09081,0 18.33646,-34.09167,0 18.3371,-34.09239,0 18.33814,-34.0936,0 18.33926,-34.09474,0 18.33999,-34.09547,0 18.34105,-34.09644,0 18.34208,-34.09728,0 18.34302,-34.09808,0 18.34385,-34.09882,0 18.34505,-34.09975,0 18.3462,-34.10054,0 18.34717,-34.10114,0 18.34818,-34.1017,0 18.34919,-34.1022,0 18.35049,-34.10277,0 18.35188,-34.10326,0 18.35322,-34.10371,0 18.35434,-34.10408,0 18.35575,-34.10454,0 18.35712,-34.10496,0 18.35844,-34.10524,0 18.35993,-34.10552,0 18.36142,-34.10575,0 18.36297,-34.10596,0 18.36445,-34.10608,0 18.36571,-34.10627,0 18.36708,-34.1065,0 18.36858,-34.10683,0 18.37004,-34.10728,0 18.37133,-34.10774,0 18.37286,-34.10845,0 18.37396,-34.10898,0 18.37515,-34.10952,0 18.37646,-34.11008,0 18.37777,-34.11063,0 18.37884,-34.11108,0 18.37984,-34.11148,0 18.38074,-34.11186,0 18.38164,-34.11232,0 18.38259,-34.11273,0 18.38379,-34.11334,0 18.38506,-34.11397,0 18.38608,-34.11446,0 18.38719,-34.11502,0 18.38814,-34.11548,0 18.3891,-34.11598,0 18.39025,-34.1166,0 18.39128,-34.11713,0 18.39254,-34.11776,0 18.39346,-34.11827,0 18.39448,-34.11877,0 18.3954,-34.11925,0 18.39626,-34.11967,0 18.39746,-34.12018,0 18.39827,-34.12056,0 18.39952,-34.1212,0 18.40044,-34.12167,0 18.40153,-34.12223,0 18.40249,-34.12271,0 18.40339,-34.12317,0 18.4045,-34.12372,0 18.4057,-34.12428,0 18.40662,-34.12474,0 18.40776,-34.12531,0 18.40874,-34.12577,0 18.40977,-34.12628,0 18.41091,-34.12684,0 18.41168,-34.12724,0 18.41264,-34.1277,0 18.41393,-34.12834,0 18.41515,-34.12889,0 18.41606,-34.12935,0 18.41732,-34.12991,0 18.41829,-34.13038,0 18.41972,-34.13103,0 18.42087,-34.13154,0 18.42211,-34.13205,0 18.42306,-34.13246,0 18.42402,-34.13285,0 18.42522,-34.13331,0 18.42648,-34.13383,0 18.42777,-34.13434,0 18.42878,-34.13475,0 18.42996,-34.13525,0 18.43097,-34.13562,0 18.43214,-34.13606,0 18.43328,-34.13643,0 18.43454,-34.1368,0 18.43597,-34.13708,0 18.43723,-34.13731,0 18.43826,-34.13745,0 18.43952,-34.13755,0 18.44067,-34.13769,0 18.4419,-34.13777,0 18.44324,-34.13782,0 18.44431,-34.13777,0 18.44547,-34.13769,0 18.44649,-34.13754,0 18.44773,-34.13731,0 18.44851,-34.13713,0 18.44991,-34.13681,0 18.45114,-34.13648,0 18.45222,-34.1361,0 18.45311,-34.13576,0 18.45428,-34.13521,0 18.4556,-34.13452,0 18.45653,-34.13397,0 18.45732,-34.1334,0 18.45838,-34.1326,0 18.45932,-34.13187,0 18.46011,-34.13118,0 18.46109,-34.13028,0 18.46218,-34.1294,0 18.46292,-34.1288,0 18.46413,-34.12791,0 18.46533,-34.12701,0 18.46613,-34.12637,0 18.46729,-34.12532,0 18.46819,-34.12442,0 18.46886,-34.12358,0 18.46976,-34.12239,0 18.47054,-34.12116,0 18.47128,-34.12014,0 18.47183,-34.11932,0 18.47288,-34.11795,0 18.47385,-34.11683,0 18.47469,-34.11589,0 18.47551,-34.11502,0 18.47659,-34.11383,0 18.47723,-34.11306,0 18.47803,-34.1119,0 18.47856,-34.11099,0 18.47923,-34.10944,0 18.47945,-34.10834,0 18.47962,-34.10728,0 18.47975,-34.10575,0 18.47985,-34.10463,0 18.47992,-34.10333,0 18.47996,-34.10216,0 18.48001,-34.10101,0 18.48007,-34.09991,0 18.48001,-34.09836,0 18.47998,-34.09714,0 18.47986,-34.09579,0 18.4798,-34.09467,0 18.47973,-34.09323,0 18.47969,-34.09202,0 18.47962,-34.09062,0 18.47962,-34.08948,0 18.47968,-34.08797,0 18.47975,-34.0869,0 18.47979,-34.08549,0 18.47985,-34.08458,0 18.47998,-34.08289,0 18.48007,-34.0816,0 18.48021,-34.08015,0 18.48032,-34.07894,0 18.48043,-34.07782,0 18.48061,-34.0767,0 18.48074,-34.07556,0 18.48091,-34.07414,0 18.48112,-34.07275,0 18.48125,-34.07167,0 18.48146,-34.07033,0 18.48164,-34.06921,0 18.48192,-34.06772,0 18.48214,-34.06668,0 18.48249,-34.06535,0 18.4827,-34.06453,0 18.48318,-34.06311,0 18.48352,-34.06204,0 18.48388,-34.06068,0 18.48422,-34.05949,0 18.4845,-34.05844,0 18.48478,-34.05698,0 18.48501,-34.05561,0 18.48517,-34.0545,0 18.48539,-34.05318,0 18.48551,-34.05208,0 18.48567,-34.05093,0 18.48593,-34.04933,0 18.48616,-34.04798,0 18.48627,-34.04691,0 18.48652,-34.04567,0 18.48667,-34.04454,0 18.48691,-34.04324,0 18.48701,-34.04211,0 18.48713,-34.041,0 18.48719,-34.0399,0 18.4873,-34.03858,0 18.48736,-34.03755,0 18.48741,-34.03624,0 18.48752,-34.03482,0 18.48758,-34.03358,0 18.48759,-34.03243,0 18.48764,-34.03148,0 18.48776,-34.03015,0 18.48782,-34.02908,0 18.48793,-34.02806,0 18.48803,-34.02686,0 18.48816,-34.02563,0 18.48827,-34.02438,0 18.48837,-34.02338,0 18.48845,-34.02205,0 18.4885,-34.02094,0 18.48856,-34.01977,0 18.48856,-34.01875,0 18.48862,-34.01767,0 18.4887,-34.01656,0 18.48873,-34.01525,0 18.48896,-34.01176,0 18.48926,-34.00818,0 18.48959,-34.00464,0 18.48971,-34.00328,0 18.48976,-34.00222,0 18.48988,-34.0011,0 18.48993,-33.99966,0 18.48999,-33.9987,0 18.49005,-33.99724,0 18.49016,-33.99619,0 18.49022,-33.99472,0 18.49033,-33.99362,0 18.49056,-33.98974,0 18.49068,-33.98611,0 18.49072,-33.98035,0 18.49072,-33.97517,0 18.49073,-33.9742,0 18.49062,-33.97145,0 18.49039,-33.96754,0 18.49033,-33.96637,0 18.49022,-33.96479,0 18.49016,-33.96377,0 18.49005,-33.96254,0 18.48988,-33.96075,0 18.48976,-33.95967,0 18.48959,-33.95823,0 18.48936,-33.95683,0 18.48913,-33.95567,0 18.48896,-33.95474,0 18.48865,-33.95316,0 18.48839,-33.95213,0 18.48808,-33.95068,0 18.4878,-33.94963,0 18.48741,-33.94817,0 18.48707,-33.94696,0 18.48673,-33.94585,0 18.48629,-33.94446,0 18.4859,-33.94336,0 18.48551,-33.94226,0 18.48495,-33.94084,0 18.48444,-33.93947,0 18.48404,-33.9384,0 18.48349,-33.937,0 18.48301,-33.93598,0 18.48238,-33.93453,0 18.48186,-33.93346,0 18.4813,-33.93237,0 18.48074,-33.93132,0 18.48018,-33.93027,0 18.47946,-33.92895,0 18.47889,-33.92793,0 18.47828,-33.92693,0 18.47769,-33.92592,0 18.47676,-33.92436,0 18.47614,-33.92327,0 18.4754,-33.92206,0 18.47458,-33.92084,0 18.4739,-33.91988,0 18.47323,-33.91896,0 18.47228,-33.91768,0 18.47145,-33.91666,0 18.47076,-33.9158,0 18.46991,-33.91479,0 18.4691,-33.91396,0 18.46819,-33.91296,0 18.46733,-33.91209,0 18.46619,-33.91107,0 18.46538,-33.91031,0 18.46436,-33.9093,0 18.46348,-33.90848,0 18.46258,-33.9077,0 18.46161,-33.90683,0 18.46067,-33.90596,0 18.45978,-33.90504,0 18.45892,-33.90427,0 18.45818,-33.90348,0 18.45714,-33.90248,0 18.45634,-33.90167,0 18.45546,-33.90083,0 18.45468,-33.90015,0 18.45389,-33.89951,0 18.45305,-33.89891,0 18.45187,-33.89827,0 18.45114,-33.89794,0 18.45019,-33.89758,0 18.44896,-33.89729,0 18.44799,-33.89711,0 18.44707,-33.89697,0 18.44593,-33.8969,0 18.44501,-33.89682,0 18.44419,-33.89676,0 18.44307,-33.89671,0 18.44198,-33.89673,0 18.44112,-33.89678,0 18.43994,-33.89694,0 18.43904,-33.89708,0 18.43797,-33.89731,0 18.43708,-33.89754,0 18.43607,-33.89781,0 18.43506,-33.89808,0 18.43409,-33.89836,0 18.43328,-33.89859,0 18.43254,-33.89878,0 18.43203,-33.89891,0 18.43168,-33.89897,0 18.431,-33.89901,0 18.43054,-33.89901,0 18.43024,-33.89905,0 18.42996,-33.89909,0 18.42968,-33.89919,0 18.42945,-33.89928,0 18.42922,-33.89939,0 18.42882,-33.89971,0 18.42859,-33.8999,0 18.42839,-33.90015,0 18.42813,-33.90036,0 18.42788,-33.90056,0 18.42762,-33.90069,0</coordinates>
      </LineString>
    </Placemark>
  </Document>
</kml>
