<?xml version="1.0" encoding="UTF-8"?>
<kml xmlns="http://www.opengis.net/kml/2.2">
  <Document>
    <name>FR24 41d79dcb</name>
    <Placemark>
      <name>FR24 41d79dcb</name>
      <Style><LineStyle><color>ff0000ff</color><width>4</width></LineStyle></Style>
      <LineString>
        <tessellate>1</tessellate>
        <coordinates>18.42912,-33.89658,0 18.43102,-33.89401,0 18.43328,-33.89101,0 18.43427,-33.88957,0 18.43477,-33.88882,0 18.43539,-33.88779,0 18.4358,-33.887,0 18.43618,-33.88605,0 18.43635,-33.88531,0 18.43637,-33.88435,0 18.4362,-33.88356,0 18.43592,-33.88295,0 18.43546,-33.8823,0 18.43461,-33.88147,0 18.43397,-33.88105,0 18.43328,-33.88063,0 18.43248,-33.88025,0 18.43145,-33.87988,0 18.43082,-33.8797,0 18.42985,-33.87946,0 18.42905,-33.87932,0 18.42805,-33.87918,0 18.4271,-33.87909,0 18.42619,-33.87904,0 18.42542,-33.879,0 18.42463,-33.87895,0 18.42357,-33.879,0 18.42258,-33.87909,0 18.42184,-33.87914,0 18.4207,-33.87928,0 18.41981,-33.87936,0 18.41925,-33.87946,0 18.41829,-33.8796,0 18.4174,-33.87968,0 18.41639,-33.87982,0 18.41566,-33.87991,0 18.41482,-33.88,0 18.414,-33.88016,0 18.41309,-33.8803,0 18.41236,-33.88046,0 18.41143,-33.88067,0 18.41051,-33.88086,0 18.40967,-33.88106,0 18.40855,-33.88138,0 18.40771,-33.8816,0 18.40698,-33.88184,0 18.40588,-33.88216,0 18.40508,-33.88239,0 18.40417,-33.88266,0 18.40339,-33.88293,0 18.40261,-33.88319,0 18.40158,-33.88351,0 18.40061,-33.88384,0 18.39975,-33.88412,0 18.39884,-33.88444,0 18.39801,-33.88467,0 18.397,-33.88499,0 18.3942,-33.88589,0 18.39237,-33.88654,0 18.39111,-33.88714,0 18.39031,-33.88756,0 18.38954,-33.88802,0 18.38848,-33.88875,0 18.38762,-33.88929,0 18.38671,-33.88993,0 18.38591,-33.8905,0 18.38522,-33.89101,0 18.38422,-33.89168,0 18.38339,-33.89227,0 18.38271,-33.89273,0 18.38147,-33.89365,0 18.3807,-33.89426,0 18.38007,-33.89479,0 18.37912,-33.89552,0 18.37844,-33.89607,0 18.37767,-33.89664,0 18.37675,-33.89734,0 18.37589,-33.89799,0 18.37519,-33.8985,0 18.37424,-33.89923,0 18.37368,-33.89964,0 18.3728,-33.90032,0 18.37189,-33.90097,0 18.37099,-33.9017,0 18.37032,-33.90225,0 18.36971,-33.90279,0 18.36908,-33.90339,0 18.36824,-33.90413,0 18.3676,-33.90474,0 18.36679,-33.90559,0 18.36611,-33.90623,0 18.3655,-33.90688,0 18.36485,-33.90753,0 18.36404,-33.90834,0 18.36337,-33.90898,0 18.36273,-33.90968,0 18.3621,-33.91032,0 18.36136,-33.91112,0 18.36073,-33.91177,0 18.36016,-33.91247,0 18.35961,-33.9131,0 18.35877,-33.91411,0 18.35821,-33.91484,0 18.35765,-33.91562,0 18.35695,-33.91647,0 18.35644,-33.91726,0 18.3558,-33.91814,0 18.35513,-33.9191,0 18.35451,-33.92006,0 18.35392,-33.92089,0 18.35345,-33.92166,0 18.35272,-33.92271,0 18.35227,-33.92349,0 18.35163,-33.92448,0 18.3512,-33.92523,0 18.35064,-33.92615,0 18.35009,-33.92704,0 18.34958,-33.92789,0 18.349,-33.92885,0 18.3484,-33.92976,0 18.34791,-33.93062,0 18.34745,-33.93142,0 18.34694,-33.93225,0 18.34648,-33.93309,0 18.34577,-33.93434,0 18.34532,-33.93521,0 18.34476,-33.93621,0 18.34431,-33.937,0 18.34379,-33.93784,0 18.34322,-33.93877,0 18.34274,-33.93956,0 18.34207,-33.94061,0 18.34156,-33.94135,0 18.34093,-33.94226,0 18.34039,-33.94313,0 18.33982,-33.944,0 18.33927,-33.94482,0 18.33882,-33.94551,0 18.33824,-33.9464,0 18.33767,-33.9472,0 18.33715,-33.94799,0 18.3367,-33.94868,0 18.33601,-33.94976,0 18.33555,-33.95045,0 18.33495,-33.95142,0 18.33461,-33.95197,0 18.33395,-33.95292,0 18.33344,-33.95375,0 18.33286,-33.95464,0 18.33241,-33.95544,0 18.33198,-33.95613,0 18.33125,-33.95732,0 18.33086,-33.95804,0 18.33035,-33.95901,0 18.32996,-33.95984,0 18.32954,-33.96083,0 18.32903,-33.96181,0 18.32789,-33.964,0 18.32733,-33.96506,0 18.32491,-33.96964,0 18.32239,-33.97481,0 18.3213,-33.97727,0 18.31999,-33.98057,0 18.31841,-33.98456,0 18.31785,-33.98579,0 18.31724,-33.98703,0 18.31651,-33.9884,0 18.316,-33.98932,0 18.3153,-33.99077,0 18.31483,-33.99165,0 18.31432,-33.99277,0 18.31398,-33.9937,0 18.31371,-33.99477,0 18.31358,-33.99561,0 18.31352,-33.99761,0 18.31358,-33.99831,0 18.31371,-33.99971,0 18.31392,-34.00134,0 18.31404,-34.00241,0 18.31404,-34.00324,0 18.31393,-34.00401,0 18.3123,-34.00877,0 18.31146,-34.01078,0 18.311,-34.01293,0 18.31174,-34.01463,0 18.31371,-34.01587,0 18.31617,-34.01591,0 18.3181,-34.01493,0 18.31987,-34.01321,0 18.32136,-34.01148,0 18.3229,-34.00941,0 18.32363,-34.00841,0 18.32485,-34.00641,0 18.32582,-34.00488,0 18.32648,-34.00397,0 18.32714,-34.00296,0 18.32761,-34.00232,0 18.32811,-34.00159,0 18.3288,-34.00055,0 18.3294,-33.99957,0 18.33155,-33.99603,0 18.33309,-33.99231,0 18.33424,-33.9897,0 18.33521,-33.98756,0 18.33725,-33.98277,0 18.3383,-33.98071,0 18.33961,-33.97866,0 18.34117,-33.97664,0 18.34282,-33.97457,0 18.34431,-33.97243,0 18.3456,-33.97005,0 18.34677,-33.96768,0 18.34797,-33.96544,0 18.34913,-33.96327,0 18.35025,-33.96103,0 18.3522,-33.95711,0 18.3535,-33.95448,0 18.35495,-33.95176,0 18.35647,-33.94885,0 18.35787,-33.9462,0 18.35872,-33.94455,0 18.35911,-33.94368,0 18.35953,-33.94249,0 18.35981,-33.9417,0 18.36021,-33.94072,0 18.36062,-33.9397,0 18.36096,-33.93887,0 18.36136,-33.93784,0 18.36174,-33.937,0 18.36227,-33.93575,0 18.36262,-33.93491,0 18.36309,-33.93379,0 18.36353,-33.93274,0 18.36388,-33.93193,0 18.36432,-33.93091,0 18.36479,-33.92988,0 18.36525,-33.92881,0 18.36571,-33.92774,0 18.36606,-33.92688,0 18.36656,-33.92569,0 18.36695,-33.92482,0 18.3674,-33.9239,0 18.36796,-33.92276,0 18.36851,-33.92187,0 18.36908,-33.92094,0 18.36987,-33.9196,0 18.37037,-33.91882,0 18.37103,-33.91777,0 18.37166,-33.91695,0 18.37245,-33.91589,0 18.37295,-33.91525,0 18.37389,-33.91419,0 18.37463,-33.91344,0 18.37559,-33.91255,0 18.37652,-33.91167,0 18.37755,-33.91079,0 18.37844,-33.90994,0 18.37923,-33.90926,0 18.38007,-33.90843,0 18.38097,-33.90747,0 18.3817,-33.90674,0 18.38243,-33.90601,0 18.3835,-33.90493,0 18.38456,-33.9039,0 18.38528,-33.90317,0 18.38625,-33.90232,0 18.38696,-33.90157,0 18.38774,-33.90083,0 18.38865,-33.89996,0 18.38938,-33.89928,0 18.39025,-33.89841,0 18.39117,-33.89762,0 18.39195,-33.89694,0 18.39312,-33.89608,0 18.39386,-33.89557,0 18.39498,-33.89488,0 18.39565,-33.89447,0 18.39683,-33.89378,0 18.39801,-33.89314,0 18.39918,-33.89259,0 18.40014,-33.89218,0 18.40137,-33.89168,0 18.40227,-33.89136,0 18.40322,-33.89099,0 18.40445,-33.89059,0 18.40569,-33.89021,0 18.40686,-33.88985,0 18.40776,-33.88957,0 18.40879,-33.88929,0 18.41011,-33.88896,0 18.41108,-33.88868,0 18.41234,-33.8884,0 18.41359,-33.88815,0 18.41482,-33.88788,0 18.41583,-33.88765,0 18.41684,-33.88747,0 18.41819,-33.88715,0 18.41942,-33.88687,0 18.42043,-33.88664,0 18.42144,-33.88641,0 18.42278,-33.88614,0 18.42373,-33.88593,0 18.42476,-33.88575,0 18.42598,-33.8855,0 18.42716,-33.88537,0 18.42831,-33.88528,0 18.42951,-33.88523,0 18.4306,-33.88519,0 18.43164,-33.88518,0 18.4326,-33.88519,0 18.43374,-33.88523,0 18.43489,-33.88541,0 18.43601,-33.88564,0 18.43695,-33.88593,0 18.43792,-33.88631,0 18.43876,-33.88664,0 18.43975,-33.8871,0 18.44067,-33.88752,0 18.44141,-33.88789,0 18.44223,-33.88838,0 18.44291,-33.88884,0 18.44358,-33.88939,0 18.44427,-33.89003,0 18.44476,-33.89053,0 18.44537,-33.89131,0 18.4457,-33.89194,0 18.44593,-33.89254,0 18.44616,-33.89315,0 18.44622,-33.89375,0 18.44622,-33.8945,0 18.44599,-33.89525,0 18.44571,-33.89566,0 18.4452,-33.89635,0 18.44484,-33.89678,0 18.44448,-33.89722,0 18.44404,-33.89762,0 18.44363,-33.89795,0 18.44307,-33.89841,0 18.44257,-33.89868,0 18.44204,-33.89897,0 18.44145,-33.89923,0 18.4409,-33.89939,0 18.44038,-33.89955,0 18.43981,-33.89967,0 18.43924,-33.89981,0 18.43878,-33.89985,0 18.43821,-33.8999,0 18.43769,-33.8999,0 18.43729,-33.8999,0 18.43672,-33.89985,0 18.43632,-33.8999,0 18.4359,-33.90015,0 18.43551,-33.90047,0 18.43512,-33.90083,0 18.43472,-33.90115,0 18.4342,-33.90148,0 18.43357,-33.90157,0 18.4331,-33.90147,0 18.43265,-33.90134,0 18.43225,-33.90115,0 18.43191,-33.90102,0 18.43153,-33.90083,0 18.43125,-33.9007,0 18.43088,-33.90055,0 18.43048,-33.90036,0 18.43024,-33.90024,0 18.43001,-33.90015,0 18.42979,-33.90009,0 18.42951,-33.89994,0 18.42917,-33.89978,0 18.42895,-33.89969,0 18.42871,-33.89962,0 18.42865,-33.89939,0 18.42878,-33.89873,0 18.42888,-33.89841,0 18.42917,-33.89781,0 18.42934,-33.89753,0 18.42957,-33.89722,0 18.42974,-33.89697,0 18.43007,-33.89653,0 18.43029,-33.89626,0 18.43052,-33.89598,0 18.4308,-33.89561,0 18.4314,-33.89482,0 18.43191,-33.89422,0 18.43254,-33.89342,0 18.43317,-33.89254,0 18.43366,-33.89186,0 18.43416,-33.89113,0 18.43461,-33.89035,0 18.43534,-33.88916,0 18.43579,-33.88838,0 18.43618,-33.88756,0 18.43655,-33.88654,0 18.43674,-33.8855,0 18.43672,-33.88472,0 18.43643,-33.88384,0 18.4359,-33.88307,0 18.43523,-33.88258,0 18.43414,-33.88207,0 18.43327,-33.88193,0 18.4322,-33.88188,0 18.43142,-33.88193,0 18.43024,-33.88197,0 18.42934,-33.88207,0 18.42808,-33.88221,0 18.4271,-33.88235,0 18.42602,-33.88249,0 18.42464,-33.88272,0 18.42351,-33.88289,0 18.42258,-33.88305,0 18.42121,-33.88326,0 18.42048,-33.88339,0 18.41886,-33.88371,0 18.41755,-33.88393,0 18.41656,-33.88403,0 18.41494,-33.88408,0 18.41409,-33.88412,0 18.41263,-33.88421,0 18.41168,-33.88422,0 18.41063,-33.8843,0 18.40914,-33.88435,0 18.40828,-33.8844,0 18.40714,-33.88449,0 18.40586,-33.88458,0 18.40445,-33.88472,0 18.40324,-33.88482,0 18.40216,-33.88491,0 18.4009,-33.88505,0 18.39958,-33.88522,0 18.39874,-33.88536,0 18.39741,-33.8856,0 18.39633,-33.88586,0 18.39537,-33.88609,0 18.39409,-33.88649,0 18.39294,-33.88686,0 18.39162,-33.88737,0 18.39054,-33.88784,0 18.38977,-33.8882,0 18.38859,-33.88884,0 18.38758,-33.88943,0 18.38671,-33.88998,0 18.38562,-33.89072,0 18.38478,-33.89131,0 18.384,-33.89195,0 18.38293,-33.89278,0 18.38198,-33.89355,0 18.38119,-33.89424,0 18.38041,-33.89497,0 18.37944,-33.89585,0 18.3785,-33.89676,0 18.37766,-33.89758,0 18.37687,-33.89836,0 18.37609,-33.89914,0 18.37532,-33.89994,0 18.37452,-33.90079,0 18.37383,-33.90162,0 18.37309,-33.90246,0 18.37239,-33.90331,0 18.3716,-33.90427,0 18.37091,-33.90502,0 18.37006,-33.90604,0 18.36937,-33.90679,0 18.36852,-33.9077,0 18.36777,-33.90851,0 18.36697,-33.90944,0 18.36617,-33.91037,0 18.36559,-33.91098,0 18.36468,-33.91209,0 18.36399,-33.91293,0 18.36308,-33.91396,0 18.36258,-33.91457,0 18.36163,-33.91562,0 18.36079,-33.91666,0 18.3601,-33.91745,0 18.35776,-33.92024,0 18.35564,-33.92285,0 18.35289,-33.92634,0 18.35089,-33.92899,0 18.3502,-33.92997,0 18.34969,-33.93068,0 18.34888,-33.93174,0 18.34829,-33.9326,0 18.34774,-33.93337,0 18.347,-33.93444,0 18.34633,-33.93544,0 18.34585,-33.93616,0 18.34522,-33.93705,0 18.34453,-33.9381,0 18.34392,-33.9391,0 18.34341,-33.93993,0 18.34291,-33.9408,0 18.34236,-33.94165,0 18.34173,-33.94281,0 18.3399,-33.94585,0 18.33939,-33.94687,0 18.33898,-33.94757,0 18.33858,-33.94873,0 18.33841,-33.94976,0 18.33854,-33.95078,0 18.33898,-33.95174,0 18.33961,-33.95246,0 18.34039,-33.95297,0 18.34173,-33.95348,0 18.34296,-33.9537,0 18.3442,-33.95366,0 18.34522,-33.95348,0 18.34627,-33.95316,0 18.34717,-33.95274,0 18.34843,-33.95199,0 18.34951,-33.95124,0 18.35026,-33.95059,0 18.35112,-33.94976,0 18.35197,-33.94878,0 18.35278,-33.9478,0 18.35345,-33.94698,0 18.35403,-33.94613,0 18.35484,-33.9451,0 18.35541,-33.94427,0 18.35602,-33.9435,0 18.35672,-33.94249,0 18.35731,-33.94167,0 18.35804,-33.94063,0 18.35883,-33.93947,0 18.35939,-33.93864,0 18.36016,-33.93742,0 18.36079,-33.93639,0 18.36136,-33.93537,0 18.36191,-33.93448,0 18.36241,-33.93356,0 18.36309,-33.93237,0 18.3637,-33.93105,0 18.36416,-33.93007,0 18.36462,-33.92913,0 18.36499,-33.9283,0 18.36555,-33.9272,0 18.36611,-33.92615,0 18.36674,-33.92513,0 18.36737,-33.92411,0 18.36782,-33.92336,0 18.36852,-33.92244,0 18.36909,-33.92166,0 18.36983,-33.92071,0 18.37054,-33.91983,0 18.37138,-33.91887,0 18.372,-33.91814,0 18.37262,-33.91731,0 18.3732,-33.91652,0 18.37389,-33.91558,0 18.37447,-33.91489,0 18.37521,-33.91396,0 18.37589,-33.91307,0 18.37648,-33.91232,0 18.37716,-33.91145,0 18.37778,-33.91065,0 18.3785,-33.90976,0 18.37921,-33.90893,0 18.3799,-33.90816,0 18.38064,-33.90734,0 18.38147,-33.90646,0 18.38219,-33.90572,0 18.38316,-33.90483,0 18.38385,-33.90423,0 18.38493,-33.90334,0 18.38568,-33.90285,0 18.38652,-33.9023,0 18.38762,-33.90167,0 18.38877,-33.90102,0 18.38963,-33.90055,0 18.39077,-33.8999,0 18.39151,-33.89951,0 18.3926,-33.89897,0 18.39363,-33.89846,0 18.39449,-33.89804,0 18.39586,-33.89743,0 18.39666,-33.89713,0 18.39764,-33.89673,0 18.39907,-33.89622,0 18.39991,-33.89594,0 18.40084,-33.89561,0 18.40199,-33.8952,0 18.40322,-33.89479,0 18.40399,-33.89455,0 18.40496,-33.8942,0 18.40622,-33.8938,0 18.40725,-33.89343,0 18.40838,-33.89301,0 18.40956,-33.89255,0 18.41056,-33.89218,0 18.41475,-33.89063,0 18.41566,-33.89031,0 18.41662,-33.88998,0 18.41768,-33.88962,0 18.41841,-33.88934,0 18.41992,-33.88884,0 18.42082,-33.88857,0 18.42205,-33.88815,0 18.42287,-33.88794,0 18.42396,-33.8876,0 18.42486,-33.88737,0 18.42607,-33.88705,0 18.42733,-33.88682,0 18.42831,-33.88668,0 18.42929,-33.88664,0 18.43054,-33.88668,0 18.43145,-33.88677,0 18.43254,-33.88696,0 18.43346,-33.88719,0 18.43454,-33.88756,0 18.4354,-33.88789,0 18.43612,-33.8882,0 18.43706,-33.88858,0 18.43775,-33.88898,0 18.43843,-33.88933,0 18.43906,-33.88975,0 18.43982,-33.89026,0 18.4405,-33.89076,0 18.441,-33.89122,0 18.44167,-33.89191,0 18.4421,-33.8924,0 18.44263,-33.89314,0 18.44296,-33.89366,0 18.4433,-33.89442,0 18.44352,-33.89511,0 18.44363,-33.89589,0 18.44358,-33.89659,0 18.44347,-33.89729,0 18.44324,-33.89795,0 18.44301,-33.89846,0 18.44268,-33.89896,0 18.44193,-33.89948,0 18.44128,-33.89964,0 18.4405,-33.89973,0 18.43964,-33.89981,0 18.43898,-33.89987,0 18.43815,-33.89999,0 18.43735,-33.90009,0 18.43674,-33.9001,0 18.43601,-33.90015,0 18.43529,-33.90022,0 18.43461,-33.90028,0 18.43403,-33.90032,0 18.43338,-33.90033,0 18.43277,-33.90041,0 18.4322,-33.90064,0 18.43185,-33.90097,0 18.43151,-33.90139,0 18.43114,-33.90147,0 18.43088,-33.90144,0 18.43057,-33.90129,0 18.43024,-33.90115,0 18.42985,-33.90088,0 18.42951,-33.9006,0 18.42934,-33.90036,0 18.42912,-33.90015,0 18.42889,-33.89996,0 18.42871,-33.89976,0 18.42856,-33.89955,0 18.42861,-33.89919,0 18.42876,-33.89883,0 18.429,-33.89845,0 18.42923,-33.89804,0 18.42939,-33.8978,0 18.42979,-33.8972,0 18.43007,-33.89662,0 18.43046,-33.89594,0 18.43088,-33.89515,0 18.43134,-33.89431,0 18.43175,-33.89346,0 18.4322,-33.89273,0 18.43265,-33.89204,0 18.43311,-33.89128,0 18.43366,-33.8904,0 18.43405,-33.88971,0 18.4346,-33.88887,0 18.43494,-33.88831,0 18.43545,-33.88742,0 18.43584,-33.88651,0 18.43607,-33.88577,0 18.43612,-33.88477,0 18.43586,-33.88388,0 18.43551,-33.88321,0 18.435,-33.88253,0 18.43414,-33.88169,0 18.43349,-33.88124,0 18.43226,-33.88065,0 18.43128,-33.8803,0 18.43001,-33.87991,0 18.42923,-33.87964,0 18.42802,-33.87932,0 18.42705,-33.87909,0 18.42603,-33.87886,0 18.42486,-33.87872,0 18.42384,-33.87867,0 18.42253,-33.87867,0 18.42133,-33.87877,0 18.42012,-33.87886,0 18.41903,-33.879,0 18.41784,-33.87914,0 18.4169,-33.87927,0 18.41555,-33.87951,0 18.41452,-33.8797,0 18.41326,-33.88002,0 18.41171,-33.88034,0 18.41051,-33.88067,0 18.40931,-33.881,0 18.40828,-33.88128,0 18.40686,-33.88165,0 18.40569,-33.88202,0 18.40462,-33.88235,0 18.40344,-33.88275,0 18.4025,-33.88305,0 18.40124,-33.88346,0 18.39987,-33.88393,0 18.3989,-33.8843,0 18.3979,-33.88467,0 18.39672,-33.88514,0 18.39548,-33.88559,0 18.39466,-33.88589,0 18.39363,-33.88631,0 18.39237,-33.88677,0 18.39128,-33.88719,0 18.39022,-33.88765,0 18.38932,-33.88811,0 18.38808,-33.88873,0 18.3873,-33.88916,0 18.38596,-33.88989,0 18.38511,-33.8904,0 18.384,-33.89108,0 18.38316,-33.89157,0 18.38214,-33.89223,0 18.38121,-33.89282,0 18.38001,-33.89366,0 18.37889,-33.89442,0 18.37805,-33.89502,0 18.37681,-33.89594,0 18.37581,-33.89667,0 18.37498,-33.89734,0 18.37402,-33.89809,0 18.37315,-33.89878,0 18.37234,-33.89948,0 18.37138,-33.90038,0 18.37057,-33.90115,0 18.36977,-33.90195,0 18.36903,-33.90274,0 18.36813,-33.90367,0 18.3672,-33.9046,0 18.36645,-33.90541,0 18.36572,-33.90614,0 18.36479,-33.90707,0 18.36404,-33.90784,0 18.36308,-33.90874,0 18.36216,-33.90963,0 18.36147,-33.91037,0 18.36068,-33.91113,0 18.35987,-33.91205,0 18.35913,-33.91293,0 18.3585,-33.91368,0 18.35787,-33.91456,0 18.35701,-33.91549,0 18.35638,-33.91624,0 18.35574,-33.91704,0 18.35513,-33.91777,0 18.35438,-33.9187,0 18.35378,-33.91942,0 18.35316,-33.9202,0 18.35243,-33.92113,0 18.35157,-33.9222,0 18.35104,-33.92294,0 18.35009,-33.92415,0 18.34947,-33.92496,0 18.34888,-33.92578,0 18.34837,-33.92648,0 18.34773,-33.92747,0 18.34711,-33.92839,0 18.34655,-33.92921,0 18.34605,-33.93004,0 18.34557,-33.93081,0 18.34505,-33.93174,0 18.34448,-33.93277,0 18.34392,-33.93379,0 18.34347,-33.93457,0 18.34293,-33.93556,0 18.34253,-33.9363,0 18.34207,-33.93723,0 18.3415,-33.93835,0 18.341,-33.93938,0 18.34061,-33.94029,0 18.34002,-33.94147,0 18.33961,-33.94245,0 18.33933,-33.94347,0 18.33926,-33.94414,0 18.33949,-33.94528,0 18.34013,-33.94622,0 18.34082,-33.94678,0 18.34219,-33.94733,0 18.34356,-33.94757,0 18.34488,-33.94748,0 18.34621,-33.94711,0 18.34751,-33.94654,0 18.34863,-33.94592,0 18.34974,-33.9451,0 18.35064,-33.94437,0 18.35146,-33.94361,0 18.35221,-33.94295,0 18.35306,-33.94217,0 18.35406,-33.9413,0 18.35484,-33.94054,0 18.35552,-33.93984,0 18.35621,-33.93914,0 18.35703,-33.93828,0 18.35793,-33.93732,0 18.35861,-33.93653,0 18.35924,-33.93584,0 18.35995,-33.93498,0 18.36068,-33.93398,0 18.3613,-33.93318,0 18.36205,-33.93221,0 18.36264,-33.93137,0 18.36331,-33.93045,0 18.36399,-33.92946,0 18.36468,-33.92853,0 18.36533,-33.92752,0 18.36594,-33.92667,0 18.36667,-33.9256,0 18.36718,-33.92482,0 18.36858,-33.92281,0 18.3692,-33.92203,0 18.36983,-33.92122,0 18.37051,-33.92033,0 18.37126,-33.91945,0 18.37194,-33.91864,0 18.3728,-33.91773,0 18.37349,-33.91698,0 18.3744,-33.916,0 18.37509,-33.91526,0 18.37584,-33.91452,0 18.3766,-33.91374,0 18.37744,-33.91287,0 18.37835,-33.91196,0 18.37912,-33.91122,0 18.37978,-33.91056,0 18.38058,-33.90981,0 18.3815,-33.90898,0 18.3823,-33.90823,0 18.38321,-33.90742,0 18.38394,-33.90678,0 18.38489,-33.90601,0 18.38562,-33.90536,0 18.38642,-33.90474,0 18.38711,-33.90418,0 18.38808,-33.90343,0 18.38882,-33.90283,0 18.38968,-33.90213,0 18.3906,-33.90148,0 18.39146,-33.90078,0 18.39226,-33.90022,0 18.39283,-33.89981,0 18.39392,-33.89905,0 18.39455,-33.89859,0 18.3956,-33.89795,0 18.39661,-33.89731,0 18.39745,-33.8968,0 18.39838,-33.89631,0 18.39935,-33.89585,0 18.40053,-33.89539,0 18.40176,-33.89492,0 18.40266,-33.89456,0 18.40378,-33.8942,0 18.40518,-33.89374,0 18.40622,-33.89343,0 18.40698,-33.89319,0 18.40839,-33.89278,0 18.40919,-33.89254,0 18.41051,-33.89212,0 18.41157,-33.89177,0 18.41258,-33.8914,0 18.41383,-33.89096,0 18.41526,-33.89045,0 18.41623,-33.89012,0 18.41774,-33.88962,0 18.4188,-33.88925,0 18.4197,-33.88893,0 18.4207,-33.88858,0 18.42194,-33.8882,0 18.42287,-33.88789,0 18.42384,-33.88761,0 18.42505,-33.88724,0 18.42619,-33.88691,0 18.42751,-33.88659,0 18.42856,-33.88637,0 18.42968,-33.88617,0 18.43063,-33.88605,0 18.43185,-33.88593,0 18.43282,-33.88586,0 18.43374,-33.88589,0 18.43466,-33.88598,0 18.43557,-33.88621,0 18.43668,-33.88664,0 18.43736,-33.88696,0 18.43831,-33.8877,0 18.43912,-33.88831,0 18.43971,-33.88889,0 18.44032,-33.88952,0 18.44095,-33.89031,0 18.44139,-33.89095,0 18.44187,-33.89157,0 18.44233,-33.89231,0 18.44263,-33.89287,0 18.44302,-33.89365,0 18.44324,-33.89436,0 18.4433,-33.89524,0 18.4433,-33.89589,0 18.44307,-33.89671,0 18.44279,-33.89735,0 18.4424,-33.8979,0 18.4419,-33.89854,0 18.44135,-33.89901,0 18.44072,-33.89951,0 18.4401,-33.89996,0 18.43954,-33.90033,0 18.43898,-33.9006,0 18.43838,-33.90092,0 18.43764,-33.9012,0 18.43695,-33.90148,0 18.43643,-33.90162,0 18.43567,-33.90175,0 18.435,-33.90179,0 18.43431,-33.9019,0 18.43371,-33.90202,0 18.43311,-33.90208,0 18.43254,-33.90204,0 18.43203,-33.90185,0 18.43157,-33.90162,0 18.43122,-33.90144,0 18.43077,-33.9012,0 18.43054,-33.90102,0 18.43007,-33.9007,0 18.42985,-33.90055,0 18.42962,-33.90038,0 18.42934,-33.90022,0 18.42912,-33.90024,0 18.42917,-33.90047,0 18.4294,-33.90056,0 18.42968,-33.90056,0 18.42996,-33.90047,0 18.43042,-33.89999,0 18.4306,-33.89967,0 18.43069,-33.89909,0 18.43069,-33.89877,0 18.43041,-33.89818,0 18.43002,-33.8978,0 18.42957,-33.89753,0 18.42911,-33.89743,0 18.42867,-33.89749,0 18.42839,-33.89767,0 18.42819,-33.89794,0 18.42811,-33.89822,0 18.42816,-33.89845,0 18.42828,-33.89868,0 18.42839,-33.89896,0 18.42854,-33.8992,0 18.42856,-33.89941,0 18.42872,-33.89964,0 18.42968,-33.9001,0 18.43024,-33.90024,0 18.43057,-33.90028,0 18.43125,-33.90038,0 18.43186,-33.90038,0 18.43248,-33.90033,0 18.4334,-33.90013,0 18.43426,-33.89985,0 18.43489,-33.89955,0 18.43569,-33.89901,0 18.43624,-33.8985,0 18.43695,-33.89757,0 18.4373,-33.89699,0 18.43775,-33.89594,0 18.43798,-33.8951,0 18.43815,-33.89408,0 18.43825,-33.89314,0 18.43826,-33.89203,0 18.43821,-33.89087,0 18.43815,-33.88989,0 18.43803,-33.88902,0 18.43781,-33.88807,0 18.4374,-33.88668,0 18.43702,-33.88573,0 18.43649,-33.88463,0 18.43603,-33.8837,0 18.43557,-33.88281,0 18.43495,-33.88174,0 18.43437,-33.88091,0 18.43363,-33.87983,0 18.433,-33.87904,0 18.43208,-33.87802,0 18.4313,-33.87726,0 18.43042,-33.87653,0 18.42945,-33.87583,0 18.42828,-33.87515,0 18.42728,-33.87467,0 18.42598,-33.87424,0 18.42522,-33.87402,0 18.4239,-33.87378,0 18.42318,-33.87369,0 18.42155,-33.8736,0 18.42047,-33.8736,0 18.41904,-33.87364,0 18.41802,-33.87369,0 18.41669,-33.87383,0 18.41595,-33.87396,0 18.41452,-33.8742,0 18.41343,-33.87444,0 18.41247,-33.87465,0 18.41101,-33.87502,0 18.40971,-33.87532,0 18.4086,-33.87561,0 18.40725,-33.87592,0 18.40608,-33.87616,0 18.40502,-33.87643,0 18.40367,-33.8768,0 18.40221,-33.87718,0 18.4012,-33.87744,0 18.39958,-33.87788,0 18.39855,-33.87825,0 18.39758,-33.87853,0 18.39627,-33.87904,0 18.39487,-33.87955,0 18.3938,-33.88002,0 18.39277,-33.88044,0 18.39151,-33.88101,0 18.39055,-33.88152,0 18.38938,-33.88211,0 18.38842,-33.88261,0 18.38747,-33.88312,0 18.38631,-33.88374,0 18.38517,-33.88445,0 18.38408,-33.88509,0 18.38299,-33.88577,0 18.38214,-33.88637,0 18.38097,-33.88719,0 18.38013,-33.88783,0 18.37912,-33.88866,0 18.37835,-33.88933,0 18.37767,-33.88998,0 18.37681,-33.89082,0 18.37592,-33.89168,0 18.37515,-33.89245,0 18.37447,-33.89314,0 18.37378,-33.89389,0 18.3729,-33.89484,0 18.37217,-33.89561,0 18.37166,-33.89622,0 18.37074,-33.89729,0 18.36998,-33.89818,0 18.36937,-33.89892,0 18.36869,-33.89973,0 18.36808,-33.90051,0 18.36735,-33.90134,0 18.36651,-33.90239,0 18.36594,-33.90316,0 18.36519,-33.90413,0 18.36456,-33.90497,0 18.36365,-33.90614,0 18.36313,-33.90688,0 18.36241,-33.90784,0 18.36168,-33.90884,0 18.36101,-33.9099,0 18.36045,-33.91077,0 18.35984,-33.91164,0 18.35911,-33.91273,0 18.3585,-33.91372,0 18.35793,-33.91456,0 18.35741,-33.9154,0 18.35672,-33.91638,0 18.35619,-33.91727,0 18.35546,-33.91832,0 18.35484,-33.91931,0 18.35434,-33.92006,0 18.35261,-33.92285,0 18.35143,-33.92473,0 18.35089,-33.92569,0 18.35025,-33.9267,0 18.34963,-33.92761,0 18.34913,-33.92844,0 18.34848,-33.92946,0 18.3479,-33.93054,0 18.34739,-33.93146,0 18.347,-33.93225,0 18.34655,-33.93306,0 18.34593,-33.93434,0 18.3456,-33.93503,0 18.34511,-33.93602,0 18.34453,-33.93723,0 18.34419,-33.93807,0 18.34364,-33.93924,0 18.34322,-33.94012,0 18.34285,-33.94093,0 18.34236,-33.94198,0 18.34196,-33.94273,0 18.34128,-33.944,0 18.34082,-33.94477,0 18.34019,-33.94585,0 18.3396,-33.94684,0 18.33921,-33.94743,0 18.33854,-33.94853,0 18.33797,-33.9494,0 18.33736,-33.95027,0 18.33693,-33.95101,0 18.33618,-33.95213,0 18.33561,-33.95301,0 18.33509,-33.95371,0 18.33461,-33.95453,0 18.33401,-33.95553,0 18.33344,-33.95641,0 18.33287,-33.95732,0 18.33132,-33.95986,0 18.32968,-33.96268,0 18.32788,-33.96558,0 18.3262,-33.96817,0 18.32508,-33.96991,0 18.32217,-33.9744,0 18.32049,-33.97691,0 18.31886,-33.97952,0 18.31729,-33.98204,0 18.31495,-33.98583,0 18.31312,-33.98886,0 18.31141,-33.99184,0 18.31085,-33.99284,0 18.31026,-33.99384,0 18.30967,-33.9949,0 18.30917,-33.99575,0 18.30872,-33.9966,0 18.30826,-33.99738,0 18.3078,-33.99817,0 18.30709,-33.99948,0 18.30664,-34.00044,0 18.3062,-34.00134,0 18.30558,-34.00255,0 18.30513,-34.00346,0 18.30471,-34.00436,0 18.30429,-34.00525,0 18.30373,-34.00635,0 18.30322,-34.0074,0 18.30271,-34.00846,0 18.30231,-34.00925,0 18.30185,-34.01018,0 18.30031,-34.01321,0 18.29941,-34.01523,0 18.29896,-34.01624,0 18.29865,-34.01716,0 18.29829,-34.01807,0 18.29795,-34.01894,0 18.29762,-34.01981,0 18.29717,-34.02104,0 18.29676,-34.02214,0 18.29647,-34.02303,0 18.29616,-34.02415,0 18.2959,-34.02508,0 18.29566,-34.02617,0 18.29549,-34.02722,0 18.29538,-34.02843,0 18.29526,-34.02928,0 18.29515,-34.03065,0 18.2951,-34.0315,0 18.2951,-34.03235,0 18.29515,-34.03345,0 18.29526,-34.03445,0 18.29532,-34.03537,0 18.29543,-34.03642,0 18.2955,-34.03718,0 18.29566,-34.03835,0 18.29578,-34.03909,0 18.29588,-34.04008,0 18.29605,-34.04095,0 18.29627,-34.04187,0 18.29647,-34.04286,0 18.29687,-34.04416,0 18.29717,-34.04517,0 18.29744,-34.04607,0 18.29767,-34.04691,0 18.29802,-34.04794,0 18.29829,-34.04883,0 18.29859,-34.04961,0 18.29891,-34.05057,0 18.29924,-34.05139,0 18.29969,-34.05244,0 18.30003,-34.05322,0 18.30053,-34.05423,0 18.30093,-34.05501,0 18.30151,-34.05608,0 18.30199,-34.05688,0 18.30259,-34.0578,0 18.30317,-34.05869,0 18.30374,-34.05943,0 18.3044,-34.06032,0 18.30513,-34.06133,0 18.30586,-34.06229,0 18.30637,-34.06297,0 18.307,-34.06381,0 18.30754,-34.06448,0 18.30838,-34.06558,0 18.309,-34.06636,0 18.30963,-34.06711,0 18.31029,-34.06783,0 18.31106,-34.06865,0 18.31169,-34.06938,0 18.31249,-34.07023,0 18.3132,-34.07098,0 18.31393,-34.07172,0 18.31478,-34.07256,0 18.31561,-34.07341,0 18.31644,-34.07424,0 18.31712,-34.07492,0 18.31793,-34.07573,0 18.31856,-34.07642,0 18.3192,-34.07712,0 18.31999,-34.07796,0 18.32067,-34.07875,0 18.32142,-34.07964,0 18.32195,-34.08032,0 18.32251,-34.08103,0 18.32336,-34.08215,0 18.32382,-34.08271,0 18.32435,-34.08348,0 18.32508,-34.08435,0 18.32564,-34.08522,0 18.32615,-34.08618,0 18.32651,-34.08699,0 18.3268,-34.08797,0 18.32693,-34.08902,0 18.32685,-34.09011,0 18.32682,-34.09094,0 18.32693,-34.09195,0 18.32733,-34.09282,0 18.32783,-34.09341,0 18.32863,-34.09416,0 18.32949,-34.09476,0 18.33046,-34.09538,0 18.33158,-34.09602,0 18.3322,-34.09639,0 18.33321,-34.09694,0 18.33435,-34.09756,0 18.33521,-34.09798,0 18.33629,-34.09854,0 18.3373,-34.09904,0 18.33848,-34.09959,0 18.33944,-34.10007,0 18.34039,-34.10051,0 18.34128,-34.10092,0 18.34257,-34.10152,0 18.34347,-34.10193,0 18.34471,-34.10249,0 18.34568,-34.10291,0 18.34677,-34.10342,0 18.34767,-34.10385,0 18.34863,-34.10431,0 18.34974,-34.10482,0 18.35066,-34.10519,0 18.35203,-34.10575,0 18.353,-34.10612,0 18.35615,-34.10743,0 18.3595,-34.10884,0 18.36061,-34.10925,0 18.3618,-34.10966,0 18.36279,-34.10999,0 18.36387,-34.11035,0 18.36499,-34.11072,0 18.36595,-34.11108,0 18.36714,-34.11148,0 18.36811,-34.11185,0 18.36942,-34.11232,0 18.3704,-34.11264,0 18.37149,-34.11301,0 18.37256,-34.11337,0 18.37383,-34.11376,0 18.37509,-34.11418,0 18.37606,-34.11451,0 18.37687,-34.11474,0 18.37818,-34.11515,0 18.37938,-34.11548,0 18.38063,-34.11589,0 18.38139,-34.11613,0 18.38254,-34.11653,0 18.38367,-34.11692,0 18.38472,-34.11731,0 18.38619,-34.11781,0 18.38722,-34.11823,0 18.38865,-34.11877,0 18.38985,-34.11921,0 18.39323,-34.12051,0 18.39476,-34.12111,0 18.39586,-34.12158,0 18.397,-34.12202,0 18.3993,-34.12302,0 18.4026,-34.1244,0 18.4063,-34.12592,0 18.40731,-34.12637,0 18.41068,-34.12784,0 18.41432,-34.1293,0 18.41543,-34.12982,0 18.41766,-34.1308,0 18.41887,-34.13131,0 18.42007,-34.13182,0 18.42098,-34.13215,0 18.42264,-34.1328,0 18.42368,-34.13319,0 18.42491,-34.13365,0 18.42567,-34.13391,0 18.4271,-34.13448,0 18.42813,-34.1349,0 18.42951,-34.13545,0 18.43074,-34.13594,0 18.43185,-34.13634,0 18.43282,-34.13667,0 18.43414,-34.13708,0 18.43556,-34.1375,0 18.43655,-34.13778,0 18.43746,-34.13806,0 18.43893,-34.13841,0 18.44005,-34.13873,0 18.44111,-34.13896,0 18.44255,-34.13923,0 18.44391,-34.13937,0 18.44504,-34.13937,0 18.44633,-34.13932,0 18.44742,-34.13918,0 18.44896,-34.13887,0 18.45019,-34.1386,0 18.45137,-34.13828,0 18.45255,-34.13782,0 18.4536,-34.13741,0 18.45451,-34.13704,0 18.45572,-34.13643,0 18.45663,-34.13592,0 18.45772,-34.13527,0 18.45881,-34.13461,0 18.45978,-34.13396,0 18.46084,-34.13324,0 18.46178,-34.13252,0 18.46275,-34.13177,0 18.46361,-34.13108,0 18.46464,-34.13019,0 18.46538,-34.12949,0 18.46619,-34.12875,0 18.46712,-34.12779,0 18.46807,-34.12675,0 18.46882,-34.12591,0 18.46956,-34.12516,0 18.47019,-34.12447,0 18.47111,-34.12344,0 18.47183,-34.12267,0 18.47256,-34.12189,0 18.47322,-34.12107,0 18.47407,-34.1201,0 18.4748,-34.11914,0 18.47536,-34.11827,0 18.47603,-34.11708,0 18.47649,-34.11613,0 18.477,-34.11502,0 18.47743,-34.11388,0 18.47775,-34.11283,0 18.47816,-34.11145,0 18.47849,-34.11027,0 18.47872,-34.10915,0 18.47895,-34.1077,0 18.47906,-34.10664,0 18.47923,-34.10522,0 18.47923,-34.10431,0 18.47928,-34.10284,0 18.47935,-34.10161,0 18.47935,-34.10007,0 18.47934,-34.09854,0 18.47929,-34.09742,0 18.47923,-34.09612,0 18.47923,-34.09491,0 18.47918,-34.09328,0 18.47918,-34.09197,0 18.47918,-34.0909,0 18.47906,-34.08916,0 18.47895,-34.08764,0 18.47889,-34.08629,0 18.47883,-34.08508,0 18.47872,-34.08357,0 18.47866,-34.08206,0 18.4786,-34.08071,0 18.47861,-34.07959,0 18.47855,-34.07843,0 18.47855,-34.07684,0 18.4785,-34.07533,0 18.47844,-34.07423,0 18.47839,-34.07281,0 18.47828,-34.07135,0 18.47822,-34.07002,0 18.47811,-34.06883,0 18.47799,-34.0676,0 18.47792,-34.06614,0 18.47783,-34.06471,0 18.47752,-34.06087,0 18.47721,-34.05679,0 18.47689,-34.05189,0 18.47665,-34.04796,0 18.4762,-34.04268,0 18.47597,-34.0383,0 18.47569,-34.03425,0 18.47542,-34.03015,0 18.47525,-34.02649,0 18.47511,-34.02252,0 18.47506,-34.02028,0 18.47502,-34.01912,0 18.47506,-34.01772,0 18.47506,-34.01623,0 18.47508,-34.0128,0 18.47494,-34.01144,0 18.4748,-34.01028,0 18.47469,-34.00891,0 18.47463,-34.00772,0 18.4746,-34.00674,0 18.4746,-34.00543,0 18.47466,-34.00436,0 18.47469,-34.00301,0 18.47469,-34.00191,0 18.47474,-34.00072,0 18.47483,-33.99957,0 18.47491,-33.99829,0 18.47506,-33.9971,0 18.47523,-33.9957,0 18.47536,-33.99463,0 18.47551,-33.99352,0 18.4757,-33.99225,0 18.47586,-33.99092,0 18.47603,-33.98956,0 18.4762,-33.98849,0 18.47631,-33.9873,0 18.47643,-33.98616,0 18.47659,-33.98511,0 18.47676,-33.98369,0 18.477,-33.98234,0 18.47715,-33.98131,0 18.47732,-33.98021,0 18.47755,-33.97879,0 18.47815,-33.97508,0 18.47906,-33.96996,0 18.47979,-33.96634,0 18.48043,-33.96251,0 18.48055,-33.96116,0 18.48057,-33.96011,0 18.48055,-33.95893,0 18.48043,-33.95749,0 18.48026,-33.95641,0 18.47998,-33.95534,0 18.47968,-33.95412,0 18.47929,-33.95278,0 18.479,-33.95164,0 18.47866,-33.95045,0 18.47837,-33.94929,0 18.47811,-33.94826,0 18.47769,-33.94696,0 18.47732,-33.94569,0 18.47683,-33.94445,0 18.47631,-33.94322,0 18.47586,-33.94207,0 18.47519,-33.9407,0 18.47474,-33.9397,0 18.47397,-33.9383,0 18.4734,-33.93723,0 18.47261,-33.93581,0 18.47202,-33.93481,0 18.47111,-33.93328,0 18.47037,-33.93214,0 18.46973,-33.93109,0 18.4691,-33.93007,0 18.46836,-33.92885,0 18.4675,-33.92755,0 18.4669,-33.92661,0 18.46601,-33.92536,0 18.46527,-33.92436,0 18.46415,-33.92308,0 18.46333,-33.92229,0 18.46224,-33.92139,0 18.46081,-33.92029,0 18.45961,-33.91946,0 18.4584,-33.91866,0 18.4576,-33.91815,0 18.45623,-33.91731,0 18.45514,-33.9167,0 18.45383,-33.91591,0 18.45288,-33.91534,0 18.45159,-33.91452,0 18.45068,-33.91382,0 18.44963,-33.91296,0 18.44885,-33.91228,0 18.44795,-33.91136,0 18.44719,-33.91065,0 18.44639,-33.90972,0 18.44599,-33.90916,0 18.44537,-33.90802,0 18.44501,-33.90697,0 18.44481,-33.90619,0 18.44467,-33.90516,0 18.4447,-33.90427,0 18.44487,-33.90335,0 18.44501,-33.90246,0 18.44532,-33.90138,0 18.44554,-33.90047,0 18.44571,-33.89969,0 18.44582,-33.89892,0 18.44582,-33.8979,0 18.44576,-33.89687,0 18.4456,-33.89612,0 18.44524,-33.8951,0 18.44496,-33.89431,0 18.44448,-33.89319,0 18.4441,-33.8924,0 18.44358,-33.89145,0 18.44296,-33.89044,0 18.4424,-33.88948,0 18.44193,-33.88868,0 18.44123,-33.88779,0 18.44061,-33.88719,0 18.43981,-33.88663,0 18.43878,-33.88617,0 18.43781,-33.88598,0 18.43674,-33.88591,0 18.43584,-33.88596,0 18.43494,-33.88607,0 18.43409,-33.88631,0 18.43327,-33.88655,0 18.43208,-33.887,0 18.43114,-33.88747,0 18.43024,-33.88802,0 18.42968,-33.88857,0 18.42911,-33.88938,0 18.42876,-33.89008,0 18.42856,-33.89072,0 18.42844,-33.89131,0 18.42825,-33.89217,0 18.42813,-33.89291,0 18.42808,-33.89375,0 18.42802,-33.89431,0 18.428,-33.89493,0 18.42805,-33.89557,0 18.42802,-33.89618,0 18.42802,-33.89678,0 18.428,-33.89735,0 18.42796,-33.8978,0 18.42794,-33.89813,0 18.42788,-33.8985,0 18.42783,-33.89882,0 18.42773,-33.89911,0 18.42772,-33.89932,0 18.42762,-33.89962,0 18.42751,-33.89985,0 18.42738,-33.90005,0 18.42727,-33.90028,0 18.42715,-33.90051,0 18.42705,-33.90074,0 18.42696,-33.90094,0</coordinates>
      </LineString>
    </Placemark>
  </Document>
</kml>
