<?xml version="1.0" encoding="UTF-8"?>
<kml xmlns="http://www.opengis.net/kml/2.2" xmlns:gx="http://www.google.com/kml/ext/2.2">
  <Document>
    <name>FR24 3ee8b953</name>
    <Placemark>
      <name>FR24 3ee8b953</name>
      <Style><LineStyle><color>ff0000ff</color><width>4</width></LineStyle></Style>
      <gx:Track>
        <when>2026-03-25T15:26:29.000Z</when>
        <when>2026-03-25T15:29:54.000Z</when>
        <when>2026-03-25T15:30:36.000Z</when>
        <when>2026-03-25T15:30:43.000Z</when>
        <when>2026-03-25T15:30:45.000Z</when>
        <when>2026-03-25T15:30:47.000Z</when>
        <when>2026-03-25T15:30:49.000Z</when>
        <when>2026-03-25T15:30:51.000Z</when>
        <when>2026-03-25T15:30:53.000Z</when>
        <when>2026-03-25T15:30:55.000Z</when>
        <when>2026-03-25T15:30:57.000Z</when>
        <when>2026-03-25T15:31:00.000Z</when>
        <when>2026-03-25T15:31:02.000Z</when>
        <when>2026-03-25T15:31:04.000Z</when>
        <when>2026-03-25T15:31:06.000Z</when>
        <when>2026-03-25T15:31:08.000Z</when>
        <when>2026-03-25T15:31:10.000Z</when>
        <when>2026-03-25T15:31:12.000Z</when>
        <when>2026-03-25T15:31:15.000Z</when>
        <when>2026-03-25T15:31:17.000Z</when>
        <when>2026-03-25T15:31:19.000Z</when>
        <when>2026-03-25T15:31:21.000Z</when>
        <when>2026-03-25T15:31:23.000Z</when>
        <when>2026-03-25T15:31:25.000Z</when>
        <when>2026-03-25T15:31:27.000Z</when>
        <when>2026-03-25T15:31:29.000Z</when>
        <when>2026-03-25T15:31:32.000Z</when>
        <when>2026-03-25T15:31:34.000Z</when>
        <when>2026-03-25T15:31:36.000Z</when>
        <when>2026-03-25T15:31:38.000Z</when>
        <when>2026-03-25T15:31:40.000Z</when>
        <when>2026-03-25T15:31:42.000Z</when>
        <when>2026-03-25T15:31:44.000Z</when>
        <when>2026-03-25T15:31:47.000Z</when>
        <when>2026-03-25T15:31:49.000Z</when>
        <when>2026-03-25T15:31:58.000Z</when>
        <when>2026-03-25T15:32:04.000Z</when>
        <when>2026-03-25T15:32:12.000Z</when>
        <when>2026-03-25T15:32:21.000Z</when>
        <when>2026-03-25T15:32:27.000Z</when>
        <when>2026-03-25T15:32:36.000Z</when>
        <when>2026-03-25T15:32:42.000Z</when>
        <when>2026-03-25T15:32:49.000Z</when>
        <when>2026-03-25T15:32:57.000Z</when>
        <when>2026-03-25T15:33:04.000Z</when>
        <when>2026-03-25T15:33:11.000Z</when>
        <when>2026-03-25T15:33:19.000Z</when>
        <when>2026-03-25T15:33:26.000Z</when>
        <when>2026-03-25T15:33:35.000Z</when>
        <when>2026-03-25T15:33:41.000Z</when>
        <when>2026-03-25T15:33:43.000Z</when>
        <when>2026-03-25T15:33:45.000Z</when>
        <when>2026-03-25T15:33:48.000Z</when>
        <when>2026-03-25T15:33:50.000Z</when>
        <when>2026-03-25T15:33:52.000Z</when>
        <when>2026-03-25T15:33:54.000Z</when>
        <when>2026-03-25T15:33:56.000Z</when>
        <when>2026-03-25T15:33:58.000Z</when>
        <when>2026-03-25T15:34:00.000Z</when>
        <when>2026-03-25T15:34:03.000Z</when>
        <when>2026-03-25T15:34:05.000Z</when>
        <when>2026-03-25T15:34:07.000Z</when>
        <when>2026-03-25T15:34:09.000Z</when>
        <when>2026-03-25T15:34:11.000Z</when>
        <when>2026-03-25T15:34:14.000Z</when>
        <when>2026-03-25T15:34:16.000Z</when>
        <when>2026-03-25T15:34:18.000Z</when>
        <when>2026-03-25T15:34:20.000Z</when>
        <when>2026-03-25T15:34:22.000Z</when>
        <when>2026-03-25T15:34:24.000Z</when>
        <when>2026-03-25T15:34:26.000Z</when>
        <when>2026-03-25T15:34:28.000Z</when>
        <when>2026-03-25T15:34:30.000Z</when>
        <when>2026-03-25T15:34:33.000Z</when>
        <when>2026-03-25T15:34:35.000Z</when>
        <when>2026-03-25T15:34:37.000Z</when>
        <when>2026-03-25T15:34:39.000Z</when>
        <when>2026-03-25T15:34:41.000Z</when>
        <when>2026-03-25T15:34:43.000Z</when>
        <when>2026-03-25T15:34:45.000Z</when>
        <when>2026-03-25T15:34:48.000Z</when>
        <when>2026-03-25T15:34:50.000Z</when>
        <when>2026-03-25T15:34:52.000Z</when>
        <when>2026-03-25T15:34:54.000Z</when>
        <when>2026-03-25T15:34:57.000Z</when>
        <when>2026-03-25T15:34:59.000Z</when>
        <when>2026-03-25T15:35:01.000Z</when>
        <when>2026-03-25T15:35:03.000Z</when>
        <when>2026-03-25T15:35:05.000Z</when>
        <when>2026-03-25T15:35:07.000Z</when>
        <when>2026-03-25T15:35:09.000Z</when>
        <when>2026-03-25T15:35:12.000Z</when>
        <when>2026-03-25T15:35:14.000Z</when>
        <when>2026-03-25T15:35:16.000Z</when>
        <when>2026-03-25T15:35:18.000Z</when>
        <when>2026-03-25T15:35:20.000Z</when>
        <when>2026-03-25T15:35:22.000Z</when>
        <when>2026-03-25T15:35:25.000Z</when>
        <when>2026-03-25T15:35:27.000Z</when>
        <when>2026-03-25T15:35:29.000Z</when>
        <when>2026-03-25T15:35:31.000Z</when>
        <when>2026-03-25T15:35:33.000Z</when>
        <when>2026-03-25T15:35:35.000Z</when>
        <when>2026-03-25T15:35:38.000Z</when>
        <when>2026-03-25T15:35:40.000Z</when>
        <when>2026-03-25T15:35:42.000Z</when>
        <when>2026-03-25T15:35:44.000Z</when>
        <when>2026-03-25T15:35:46.000Z</when>
        <when>2026-03-25T15:35:48.000Z</when>
        <when>2026-03-25T15:35:50.000Z</when>
        <when>2026-03-25T15:35:52.000Z</when>
        <when>2026-03-25T15:35:55.000Z</when>
        <when>2026-03-25T15:35:57.000Z</when>
        <when>2026-03-25T15:35:59.000Z</when>
        <when>2026-03-25T15:36:01.000Z</when>
        <when>2026-03-25T15:36:03.000Z</when>
        <when>2026-03-25T15:36:05.000Z</when>
        <when>2026-03-25T15:36:08.000Z</when>
        <when>2026-03-25T15:36:10.000Z</when>
        <when>2026-03-25T15:36:12.000Z</when>
        <when>2026-03-25T15:36:14.000Z</when>
        <when>2026-03-25T15:36:16.000Z</when>
        <when>2026-03-25T15:36:18.000Z</when>
        <when>2026-03-25T15:36:21.000Z</when>
        <when>2026-03-25T15:36:23.000Z</when>
        <when>2026-03-25T15:36:25.000Z</when>
        <when>2026-03-25T15:36:27.000Z</when>
        <when>2026-03-25T15:36:29.000Z</when>
        <when>2026-03-25T15:36:31.000Z</when>
        <when>2026-03-25T15:36:34.000Z</when>
        <when>2026-03-25T15:36:36.000Z</when>
        <when>2026-03-25T15:36:38.000Z</when>
        <when>2026-03-25T15:36:40.000Z</when>
        <when>2026-03-25T15:36:42.000Z</when>
        <when>2026-03-25T15:36:45.000Z</when>
        <when>2026-03-25T15:36:47.000Z</when>
        <when>2026-03-25T15:36:49.000Z</when>
        <when>2026-03-25T15:36:51.000Z</when>
        <when>2026-03-25T15:36:53.000Z</when>
        <when>2026-03-25T15:36:56.000Z</when>
        <when>2026-03-25T15:36:58.000Z</when>
        <when>2026-03-25T15:37:08.000Z</when>
        <when>2026-03-25T15:37:46.000Z</when>
        <when>2026-03-25T15:37:56.000Z</when>
        <when>2026-03-25T15:38:05.000Z</when>
        <when>2026-03-25T15:38:16.000Z</when>
        <when>2026-03-25T15:38:26.000Z</when>
        <when>2026-03-25T15:38:30.000Z</when>
        <when>2026-03-25T15:38:34.000Z</when>
        <when>2026-03-25T15:38:39.000Z</when>
        <gx:coord>18.59957 -33.97633 0</gx:coord>
        <gx:coord>18.5998 -33.97628 0</gx:coord>
        <gx:coord>18.5998 -33.97606 0</gx:coord>
        <gx:coord>18.59941 -33.97522 0</gx:coord>
        <gx:coord>18.59918 -33.97481 0</gx:coord>
        <gx:coord>18.5989 -33.97444 0</gx:coord>
        <gx:coord>18.59842 -33.97401 0</gx:coord>
        <gx:coord>18.59795 -33.97366 0</gx:coord>
        <gx:coord>18.59733 -33.97339 0</gx:coord>
        <gx:coord>18.59666 -33.97321 0</gx:coord>
        <gx:coord>18.59579 -33.97308 0</gx:coord>
        <gx:coord>18.5947 -33.97303 0</gx:coord>
        <gx:coord>18.5938 -33.97311 0</gx:coord>
        <gx:coord>18.5929 -33.97321 0</gx:coord>
        <gx:coord>18.59195 -33.97339 0</gx:coord>
        <gx:coord>18.59081 -33.97364 0</gx:coord>
        <gx:coord>18.58984 -33.97392 0</gx:coord>
        <gx:coord>18.58892 -33.97421 0</gx:coord>
        <gx:coord>18.58784 -33.97452 0</gx:coord>
        <gx:coord>18.58674 -33.97485 0</gx:coord>
        <gx:coord>18.58578 -33.97517 0</gx:coord>
        <gx:coord>18.58452 -33.9755 0</gx:coord>
        <gx:coord>18.58349 -33.97578 0</gx:coord>
        <gx:coord>18.58237 -33.97604 0</gx:coord>
        <gx:coord>18.58126 -33.97629 0</gx:coord>
        <gx:coord>18.58001 -33.97659 0</gx:coord>
        <gx:coord>18.57889 -33.97682 0</gx:coord>
        <gx:coord>18.57771 -33.97708 0</gx:coord>
        <gx:coord>18.57654 -33.97733 0</gx:coord>
        <gx:coord>18.57508 -33.97764 0</gx:coord>
        <gx:coord>18.5739 -33.97792 0</gx:coord>
        <gx:coord>18.57272 -33.97815 0</gx:coord>
        <gx:coord>18.57141 -33.97843 0</gx:coord>
        <gx:coord>18.57033 -33.97866 0</gx:coord>
        <gx:coord>18.56924 -33.9789 0</gx:coord>
        <gx:coord>18.56403 -33.97997 0</gx:coord>
        <gx:coord>18.56017 -33.98071 0</gx:coord>
        <gx:coord>18.55534 -33.98174 0</gx:coord>
        <gx:coord>18.55064 -33.98267 0</gx:coord>
        <gx:coord>18.54681 -33.98341 0</gx:coord>
        <gx:coord>18.54166 -33.98444 0</gx:coord>
        <gx:coord>18.53769 -33.9852 0</gx:coord>
        <gx:coord>18.53365 -33.98593 0</gx:coord>
        <gx:coord>18.5281 -33.98695 0</gx:coord>
        <gx:coord>18.52396 -33.98767 0</gx:coord>
        <gx:coord>18.5197 -33.98845 0</gx:coord>
        <gx:coord>18.51432 -33.98936 0</gx:coord>
        <gx:coord>18.51002 -33.99012 0</gx:coord>
        <gx:coord>18.5047 -33.99105 0</gx:coord>
        <gx:coord>18.50075 -33.99152 0</gx:coord>
        <gx:coord>18.49949 -33.99165 0</gx:coord>
        <gx:coord>18.49817 -33.99174 0</gx:coord>
        <gx:coord>18.49655 -33.99188 0</gx:coord>
        <gx:coord>18.4952 -33.99198 0</gx:coord>
        <gx:coord>18.49414 -33.99202 0</gx:coord>
        <gx:coord>18.49251 -33.99212 0</gx:coord>
        <gx:coord>18.49131 -33.99216 0</gx:coord>
        <gx:coord>18.49005 -33.99221 0</gx:coord>
        <gx:coord>18.48839 -33.99226 0</gx:coord>
        <gx:coord>18.48708 -33.99229 0</gx:coord>
        <gx:coord>18.48576 -33.99226 0</gx:coord>
        <gx:coord>18.48455 -33.99221 0</gx:coord>
        <gx:coord>18.48318 -33.99212 0</gx:coord>
        <gx:coord>18.48181 -33.99198 0</gx:coord>
        <gx:coord>18.48043 -33.99184 0</gx:coord>
        <gx:coord>18.47918 -33.9917 0</gx:coord>
        <gx:coord>18.47794 -33.99156 0</gx:coord>
        <gx:coord>18.47672 -33.99142 0</gx:coord>
        <gx:coord>18.47551 -33.99123 0</gx:coord>
        <gx:coord>18.47443 -33.99109 0</gx:coord>
        <gx:coord>18.47317 -33.99091 0</gx:coord>
        <gx:coord>18.47177 -33.99074 0</gx:coord>
        <gx:coord>18.47059 -33.99058 0</gx:coord>
        <gx:coord>18.46945 -33.99049 0</gx:coord>
        <gx:coord>18.46853 -33.99044 0</gx:coord>
        <gx:coord>18.46701 -33.99033 0</gx:coord>
        <gx:coord>18.46589 -33.99028 0</gx:coord>
        <gx:coord>18.46477 -33.99028 0</gx:coord>
        <gx:coord>18.46353 -33.99023 0</gx:coord>
        <gx:coord>18.46212 -33.99016 0</gx:coord>
        <gx:coord>18.4609 -33.9901 0</gx:coord>
        <gx:coord>18.45966 -33.99007 0</gx:coord>
        <gx:coord>18.45832 -33.98996 0</gx:coord>
        <gx:coord>18.45692 -33.98988 0</gx:coord>
        <gx:coord>18.45606 -33.98984 0</gx:coord>
        <gx:coord>18.45486 -33.98974 0</gx:coord>
        <gx:coord>18.45377 -33.9897 0</gx:coord>
        <gx:coord>18.45243 -33.98964 0</gx:coord>
        <gx:coord>18.45143 -33.98955 0</gx:coord>
        <gx:coord>18.44999 -33.98946 0</gx:coord>
        <gx:coord>18.44902 -33.98942 0</gx:coord>
        <gx:coord>18.44799 -33.98933 0</gx:coord>
        <gx:coord>18.44689 -33.98927 0</gx:coord>
        <gx:coord>18.44564 -33.98923 0</gx:coord>
        <gx:coord>18.44456 -33.98923 0</gx:coord>
        <gx:coord>18.44347 -33.98928 0</gx:coord>
        <gx:coord>18.44215 -33.98946 0</gx:coord>
        <gx:coord>18.44112 -33.9896 0</gx:coord>
        <gx:coord>18.43994 -33.98987 0</gx:coord>
        <gx:coord>18.43859 -33.99023 0</gx:coord>
        <gx:coord>18.43758 -33.99054 0</gx:coord>
        <gx:coord>18.43655 -33.99086 0</gx:coord>
        <gx:coord>18.43552 -33.99123 0</gx:coord>
        <gx:coord>18.43427 -33.99174 0</gx:coord>
        <gx:coord>18.43327 -33.9922 0</gx:coord>
        <gx:coord>18.43248 -33.99257 0</gx:coord>
        <gx:coord>18.43142 -33.99307 0</gx:coord>
        <gx:coord>18.43029 -33.99367 0</gx:coord>
        <gx:coord>18.42917 -33.99422 0</gx:coord>
        <gx:coord>18.42819 -33.99468 0</gx:coord>
        <gx:coord>18.42733 -33.99514 0</gx:coord>
        <gx:coord>18.42613 -33.99584 0</gx:coord>
        <gx:coord>18.42525 -33.99641 0</gx:coord>
        <gx:coord>18.4243 -33.9971 0</gx:coord>
        <gx:coord>18.4235 -33.9977 0</gx:coord>
        <gx:coord>18.42267 -33.99847 0</gx:coord>
        <gx:coord>18.42196 -33.99915 0</gx:coord>
        <gx:coord>18.42133 -33.99976 0</gx:coord>
        <gx:coord>18.4207 -34.0004 0</gx:coord>
        <gx:coord>18.42007 -34.00106 0</gx:coord>
        <gx:coord>18.41927 -34.0019 0</gx:coord>
        <gx:coord>18.41852 -34.00264 0</gx:coord>
        <gx:coord>18.41789 -34.0032 0</gx:coord>
        <gx:coord>18.41723 -34.00374 0</gx:coord>
        <gx:coord>18.41617 -34.00443 0</gx:coord>
        <gx:coord>18.41549 -34.00478 0</gx:coord>
        <gx:coord>18.41452 -34.0052 0</gx:coord>
        <gx:coord>18.41366 -34.00552 0</gx:coord>
        <gx:coord>18.4128 -34.00581 0</gx:coord>
        <gx:coord>18.41174 -34.00616 0</gx:coord>
        <gx:coord>18.41062 -34.00653 0</gx:coord>
        <gx:coord>18.40972 -34.00685 0</gx:coord>
        <gx:coord>18.40894 -34.00708 0</gx:coord>
        <gx:coord>18.40805 -34.00734 0</gx:coord>
        <gx:coord>18.40698 -34.00763 0</gx:coord>
        <gx:coord>18.40614 -34.00786 0</gx:coord>
        <gx:coord>18.40529 -34.008 0</gx:coord>
        <gx:coord>18.40417 -34.00809 0</gx:coord>
        <gx:coord>18.40333 -34.00804 0</gx:coord>
        <gx:coord>18.40244 -34.00781 0</gx:coord>
        <gx:coord>18.40164 -34.00739 0</gx:coord>
        <gx:coord>18.39912 -34.00473 0</gx:coord>
        <gx:coord>18.391 -34.00655 0</gx:coord>
        <gx:coord>18.39246 -34.00864 0</gx:coord>
        <gx:coord>18.3938 -34.0099 0</gx:coord>
        <gx:coord>18.39532 -34.01125 0</gx:coord>
        <gx:coord>18.39621 -34.01193 0</gx:coord>
        <gx:coord>18.39649 -34.01218 0</gx:coord>
        <gx:coord>18.39672 -34.01242 0</gx:coord>
        <gx:coord>18.39701 -34.0127 0</gx:coord>
      </gx:Track>
      <LineString>
        <tessellate>1</tessellate>
        <coordinates>18.59957,-33.97633,0 18.5998,-33.97628,0 18.5998,-33.97606,0 18.59941,-33.97522,0 18.59918,-33.97481,0 18.5989,-33.97444,0 18.59842,-33.97401,0 18.59795,-33.97366,0 18.59733,-33.97339,0 18.59666,-33.97321,0 18.59579,-33.97308,0 18.5947,-33.97303,0 18.5938,-33.97311,0 18.5929,-33.97321,0 18.59195,-33.97339,0 18.59081,-33.97364,0 18.58984,-33.97392,0 18.58892,-33.97421,0 18.58784,-33.97452,0 18.58674,-33.97485,0 18.58578,-33.97517,0 18.58452,-33.9755,0 18.58349,-33.97578,0 18.58237,-33.97604,0 18.58126,-33.97629,0 18.58001,-33.97659,0 18.57889,-33.97682,0 18.57771,-33.97708,0 18.57654,-33.97733,0 18.57508,-33.97764,0 18.5739,-33.97792,0 18.57272,-33.97815,0 18.57141,-33.97843,0 18.57033,-33.97866,0 18.56924,-33.9789,0 18.56403,-33.97997,0 18.56017,-33.98071,0 18.55534,-33.98174,0 18.55064,-33.98267,0 18.54681,-33.98341,0 18.54166,-33.98444,0 18.53769,-33.9852,0 18.53365,-33.98593,0 18.5281,-33.98695,0 18.52396,-33.98767,0 18.5197,-33.98845,0 18.51432,-33.98936,0 18.51002,-33.99012,0 18.5047,-33.99105,0 18.50075,-33.99152,0 18.49949,-33.99165,0 18.49817,-33.99174,0 18.49655,-33.99188,0 18.4952,-33.99198,0 18.49414,-33.99202,0 18.49251,-33.99212,0 18.49131,-33.99216,0 18.49005,-33.99221,0 18.48839,-33.99226,0 18.48708,-33.99229,0 18.48576,-33.99226,0 18.48455,-33.99221,0 18.48318,-33.99212,0 18.48181,-33.99198,0 18.48043,-33.99184,0 18.47918,-33.9917,0 18.47794,-33.99156,0 18.47672,-33.99142,0 18.47551,-33.99123,0 18.47443,-33.99109,0 18.47317,-33.99091,0 18.47177,-33.99074,0 18.47059,-33.99058,0 18.46945,-33.99049,0 18.46853,-33.99044,0 18.46701,-33.99033,0 18.46589,-33.99028,0 18.46477,-33.99028,0 18.46353,-33.99023,0 18.46212,-33.99016,0 18.4609,-33.9901,0 18.45966,-33.99007,0 18.45832,-33.98996,0 18.45692,-33.98988,0 18.45606,-33.98984,0 18.45486,-33.98974,0 18.45377,-33.9897,0 18.45243,-33.98964,0 18.45143,-33.98955,0 18.44999,-33.98946,0 18.44902,-33.98942,0 18.44799,-33.98933,0 18.44689,-33.98927,0 18.44564,-33.98923,0 18.44456,-33.98923,0 18.44347,-33.98928,0 18.44215,-33.98946,0 18.44112,-33.9896,0 18.43994,-33.98987,0 18.43859,-33.99023,0 18.43758,-33.99054,0 18.43655,-33.99086,0 18.43552,-33.99123,0 18.43427,-33.99174,0 18.43327,-33.9922,0 18.43248,-33.99257,0 18.43142,-33.99307,0 18.43029,-33.99367,0 18.42917,-33.99422,0 18.42819,-33.99468,0 18.42733,-33.99514,0 18.42613,-33.99584,0 18.42525,-33.99641,0 18.4243,-33.9971,0 18.4235,-33.9977,0 18.42267,-33.99847,0 18.42196,-33.99915,0 18.42133,-33.99976,0 18.4207,-34.0004,0 18.42007,-34.00106,0 18.41927,-34.0019,0 18.41852,-34.00264,0 18.41789,-34.0032,0 18.41723,-34.00374,0 18.41617,-34.00443,0 18.41549,-34.00478,0 18.41452,-34.0052,0 18.41366,-34.00552,0 18.4128,-34.00581,0 18.41174,-34.00616,0 18.41062,-34.00653,0 18.40972,-34.00685,0 18.40894,-34.00708,0 18.40805,-34.00734,0 18.40698,-34.00763,0 18.40614,-34.00786,0 18.40529,-34.008,0 18.40417,-34.00809,0 18.40333,-34.00804,0 18.40244,-34.00781,0 18.40164,-34.00739,0 18.39912,-34.00473,0 18.391,-34.00655,0 18.39246,-34.00864,0 18.3938,-34.0099,0 18.39532,-34.01125,0 18.39621,-34.01193,0 18.39649,-34.01218,0 18.39672,-34.01242,0 18.39701,-34.0127,0</coordinates>
      </LineString>
    </Placemark>
  </Document>
</kml>
