<?xml version="1.0" encoding="UTF-8"?>
<kml xmlns="http://www.opengis.net/kml/2.2">
  <Document>
    <name>FR24 41db17b4</name>
    <Placemark>
      <name>FR24 41db17b4</name>
      <Style><LineStyle><color>ff0000ff</color><width>4</width></LineStyle></Style>
      <LineString>
        <tessellate>1</tessellate>
        <coordinates>18.43881,-33.89676,0 18.43924,-33.89482,0 18.43918,-33.89347,0 18.43898,-33.89236,0 18.43865,-33.89122,0 18.43825,-33.89008,0 18.43797,-33.88911,0 18.43758,-33.88788,0 18.43718,-33.88649,0 18.43689,-33.88542,0 18.43643,-33.88407,0 18.43607,-33.88293,0 18.43569,-33.88193,0 18.43517,-33.88065,0 18.4346,-33.87937,0 18.43391,-33.87816,0 18.43323,-33.87713,0 18.43254,-33.87621,0 18.43174,-33.87518,0 18.43082,-33.87406,0 18.43007,-33.87318,0 18.42895,-33.87195,0 18.42825,-33.87113,0 18.42733,-33.87015,0 18.42665,-33.86938,0 18.42567,-33.86838,0 18.42493,-33.86764,0 18.42402,-33.8668,0 18.42329,-33.86609,0 18.4223,-33.86512,0 18.42138,-33.86433,0 18.42026,-33.86357,0 18.41915,-33.86298,0 18.41801,-33.86266,0 18.41679,-33.86256,0 18.41561,-33.86261,0 18.41432,-33.86284,0 18.41314,-33.86302,0 18.41211,-33.86317,0 18.41135,-33.8633,0 18.41005,-33.86354,0 18.40902,-33.86373,0 18.40776,-33.86396,0 18.40673,-33.86419,0 18.40553,-33.86452,0 18.40456,-33.86475,0 18.40333,-33.86513,0 18.40244,-33.8654,0 18.4013,-33.86573,0 18.40036,-33.866,0 18.39907,-33.86638,0 18.39812,-33.86668,0 18.39722,-33.86696,0 18.39605,-33.86737,0 18.39504,-33.86778,0 18.39409,-33.86815,0 18.39313,-33.86852,0 18.39207,-33.86897,0 18.39111,-33.86941,0 18.39025,-33.86983,0 18.38915,-33.87035,0 18.38825,-33.8708,0 18.38747,-33.87117,0 18.38671,-33.87159,0 18.38568,-33.8721,0 18.38489,-33.87254,0 18.38416,-33.87296,0 18.38315,-33.8735,0 18.38236,-33.87397,0 18.38173,-33.87434,0 18.38099,-33.87481,0 18.38013,-33.87543,0 18.3794,-33.87598,0 18.37864,-33.87658,0 18.37794,-33.87712,0 18.37715,-33.87783,0 18.37652,-33.87844,0 18.37587,-33.87904,0 18.37498,-33.87993,0 18.37435,-33.88053,0 18.37362,-33.88129,0 18.37309,-33.88184,0 18.3724,-33.88263,0 18.37189,-33.88319,0 18.37127,-33.88394,0 18.37074,-33.88458,0 18.37015,-33.88545,0 18.36971,-33.88602,0 18.36909,-33.88701,0 18.36863,-33.88779,0 18.36819,-33.88847,0 18.36777,-33.88929,0 18.36724,-33.89021,0 18.36685,-33.89101,0 18.36634,-33.89191,0 18.36599,-33.89264,0 18.36555,-33.89337,0 18.36502,-33.89441,0 18.36454,-33.89525,0 18.36416,-33.89608,0 18.36376,-33.8969,0 18.36336,-33.89771,0 18.36292,-33.89864,0 18.3625,-33.89943,0 18.36202,-33.90042,0 18.36168,-33.90111,0 18.36113,-33.90221,0 18.36067,-33.90306,0 18.36017,-33.90399,0 18.35976,-33.90483,0 18.3593,-33.90567,0 18.35872,-33.90674,0 18.3573,-33.9093,0 18.35581,-33.91205,0 18.35358,-33.91605,0 18.35154,-33.9196,0 18.35009,-33.92229,0 18.34963,-33.92308,0 18.34868,-33.925,0 18.34823,-33.92587,0 18.34778,-33.92674,0 18.34739,-33.92747,0 18.34688,-33.92848,0 18.34642,-33.9295,0 18.34605,-33.93031,0 18.34568,-33.93109,0 18.34517,-33.93221,0 18.34476,-33.93306,0 18.34436,-33.93393,0 18.34402,-33.93476,0 18.34364,-33.93553,0 18.3433,-33.93636,0 18.34285,-33.9375,0 18.34246,-33.93837,0 18.34213,-33.93914,0 18.34179,-33.93993,0 18.34139,-33.94105,0 18.34099,-33.94184,0 18.3405,-33.94304,0 18.34019,-33.94375,0 18.33973,-33.94468,0 18.33921,-33.94561,0 18.33882,-33.94643,0 18.33842,-33.94716,0 18.33784,-33.94813,0 18.33736,-33.94894,0 18.33681,-33.94989,0 18.33635,-33.95073,0 18.33568,-33.95187,0 18.33512,-33.95279,0 18.33461,-33.9537,0 18.33401,-33.95464,0 18.33366,-33.9553,0 18.33303,-33.95641,0 18.33254,-33.95723,0 18.332,-33.95813,0 18.33158,-33.95888,0 18.33097,-33.95993,0 18.33035,-33.96103,0 18.3299,-33.96181,0 18.3276,-33.96633,0 18.32663,-33.96856,0 18.32559,-33.97083,0 18.32451,-33.97308,0 18.32239,-33.97751,0 18.32066,-33.9814,0 18.3201,-33.98286,0 18.31982,-33.98346,0 18.31937,-33.98488,0 18.31907,-33.98574,0 18.31875,-33.98676,0 18.31841,-33.98781,0 18.31813,-33.98872,0 18.31776,-33.98974,0 18.31747,-33.99054,0 18.31712,-33.99152,0 18.31684,-33.99235,0 18.31661,-33.99314,0 18.31634,-33.99408,0 18.31606,-33.99504,0 18.31587,-33.99594,0 18.3157,-33.99687,0 18.31555,-33.99765,0 18.31533,-33.99857,0 18.31511,-33.99939,0 18.31484,-34.00026,0 18.31454,-34.00113,0 18.31432,-34.00186,0 18.31404,-34.00282,0 18.31387,-34.00352,0 18.31358,-34.0045,0 18.31331,-34.00529,0 18.31295,-34.00645,0 18.31253,-34.00745,0 18.31208,-34.00854,0 18.31169,-34.00941,0 18.31112,-34.01065,0 18.31072,-34.01148,0 18.31032,-34.01237,0 18.30978,-34.01344,0 18.30935,-34.01418,0 18.30883,-34.01521,0 18.30821,-34.01633,0 18.30769,-34.01716,0 18.30723,-34.01796,0 18.3066,-34.01902,0 18.30602,-34.01994,0 18.30541,-34.02104,0 18.30457,-34.02232,0 18.3042,-34.02284,0 18.30305,-34.02461,0 18.30261,-34.02544,0 18.30202,-34.02638,0 18.30156,-34.02717,0 18.30122,-34.02782,0 18.30081,-34.02864,0 18.30031,-34.02965,0 18.29996,-34.03038,0 18.29958,-34.03134,0 18.29933,-34.03206,0 18.29916,-34.03281,0 18.29902,-34.03363,0 18.29902,-34.0345,0 18.29907,-34.03546,0 18.2993,-34.03633,0 18.29958,-34.03702,0 18.29996,-34.03788,0 18.30042,-34.03872,0 18.30076,-34.0394,0 18.30139,-34.04044,0 18.30188,-34.04123,0 18.30242,-34.04202,0 18.30289,-34.04265,0 18.30339,-34.04337,0 18.30385,-34.04398,0 18.3044,-34.04475,0 18.30482,-34.04547,0 18.30524,-34.04608,0 18.30574,-34.04677,0 18.30625,-34.0475,0 18.30683,-34.04826,0 18.30729,-34.04882,0 18.30799,-34.04974,0 18.30866,-34.0505,0 18.30917,-34.05119,0 18.30969,-34.05198,0 18.31012,-34.05254,0 18.31073,-34.05345,0 18.31113,-34.05409,0 18.31158,-34.05482,0 18.31202,-34.05556,0 18.31238,-34.05618,0 18.31289,-34.05692,0 18.31329,-34.05753,0 18.31381,-34.05832,0 18.31449,-34.05917,0 18.31512,-34.05994,0 18.31564,-34.06055,0 18.31633,-34.0612,0 18.3169,-34.06174,0 18.31758,-34.06227,0 18.31844,-34.06288,0 18.31937,-34.06343,0 18.32026,-34.06393,0 18.3211,-34.06439,0 18.32211,-34.06488,0 18.32302,-34.0653,0 18.32385,-34.06567,0 18.32475,-34.06609,0 18.32559,-34.06645,0 18.32637,-34.06677,0 18.32721,-34.06709,0 18.328,-34.06739,0 18.32903,-34.06772,0 18.32996,-34.06805,0 18.33074,-34.06828,0 18.33155,-34.06851,0 18.33226,-34.0687,0 18.33321,-34.06893,0 18.33394,-34.06911,0 18.33506,-34.06938,0 18.33596,-34.06956,0 18.33691,-34.06975,0 18.3375,-34.06986,0 18.33854,-34.07002,0 18.33961,-34.07005,0 18.3405,-34.06998,0 18.34117,-34.06984,0 18.34185,-34.06958,0 18.34246,-34.06934,0 18.34305,-34.06916,0 18.34397,-34.06892,0 18.34465,-34.06893,0 18.34549,-34.06915,0 18.3461,-34.06956,0 18.34661,-34.07034,0 18.34671,-34.07103,0 18.34665,-34.072,0 18.34648,-34.0727,0 18.3461,-34.07368,0 18.34566,-34.07474,0 18.34522,-34.07559,0 18.34459,-34.07661,0 18.34414,-34.0773,0 18.34351,-34.07824,0 18.34302,-34.07899,0 18.34236,-34.07991,0 18.3419,-34.08066,0 18.34134,-34.0816,0 18.34083,-34.08257,0 18.34053,-34.08331,0 18.34011,-34.08426,0 18.33977,-34.08517,0 18.33949,-34.08591,0 18.33915,-34.08682,0 18.33893,-34.08765,0 18.33864,-34.08857,0 18.33836,-34.0896,0 18.33818,-34.09044,0 18.33803,-34.09103,0 18.3379,-34.09183,0 18.33778,-34.09272,0 18.33775,-34.09373,0 18.33778,-34.09444,0 18.33781,-34.09547,0 18.33781,-34.0963,0 18.33781,-34.09703,0 18.33781,-34.0979,0 18.33784,-34.09886,0 18.33775,-34.10005,0 18.33767,-34.10086,0 18.33755,-34.10147,0 18.33738,-34.10254,0 18.33721,-34.10352,0 18.3371,-34.10426,0 18.33685,-34.10536,0 18.33669,-34.10623,0 18.33641,-34.1071,0 18.33618,-34.10797,0 18.33595,-34.10883,0 18.33567,-34.1098,0 18.33532,-34.11073,0 18.33495,-34.11168,0 18.33444,-34.11259,0 18.33372,-34.11353,0 18.33315,-34.1142,0 18.33237,-34.11488,0 18.33126,-34.11581,0 18.33007,-34.11658,0 18.32895,-34.11726,0 18.32783,-34.1179,0 18.32648,-34.11868,0 18.32553,-34.11923,0 18.32435,-34.11992,0 18.32346,-34.12047,0 18.32262,-34.12106,0 18.32166,-34.12189,0 18.32094,-34.12257,0 18.3201,-34.12335,0 18.31947,-34.124,0 18.31886,-34.12473,0 18.3183,-34.12541,0 18.31758,-34.12624,0 18.3169,-34.12707,0 18.31638,-34.12777,0 18.3157,-34.1287,0 18.31524,-34.12935,0 18.31483,-34.13008,0 18.31427,-34.13117,0 18.31392,-34.13196,0 18.31369,-34.13271,0 18.31347,-34.13359,0 18.31329,-34.13457,0 18.31314,-34.13557,0 18.31303,-34.13644,0 18.31289,-34.13718,0 18.31272,-34.13792,0 18.31247,-34.13914,0 18.31225,-34.14006,0 18.31202,-34.14098,0 18.31186,-34.1418,0 18.31169,-34.14253,0 18.31152,-34.14355,0 18.31141,-34.14432,0 18.31129,-34.14518,0 18.31123,-34.14644,0 18.31123,-34.14723,0 18.31123,-34.14788,0 18.31129,-34.14886,0 18.31141,-34.14965,0 18.31158,-34.15058,0 18.31186,-34.15146,0 18.31214,-34.15219,0 18.31255,-34.15319,0 18.31289,-34.15384,0 18.31343,-34.15485,0 18.31398,-34.1559,0 18.3146,-34.15681,0 18.31516,-34.15768,0 18.31578,-34.15851,0 18.31638,-34.15929,0 18.31713,-34.16026,0 18.31768,-34.16103,0 18.3183,-34.1619,0 18.31884,-34.16264,0 18.31953,-34.16352,0 18.32016,-34.16436,0 18.32066,-34.1651,0 18.32121,-34.16579,0 18.32189,-34.1667,0 18.32251,-34.16753,0 18.32301,-34.16821,0 18.32357,-34.16913,0 18.32419,-34.17004,0 18.32468,-34.17074,0 18.32537,-34.17172,0 18.32605,-34.17265,0 18.3266,-34.17343,0 18.32738,-34.17448,0 18.32788,-34.17521,0 18.32834,-34.17581,0 18.32903,-34.17679,0 18.32957,-34.17751,0 18.33017,-34.17828,0 18.3308,-34.17892,0 18.33158,-34.1797,0 18.33258,-34.18047,0 18.3331,-34.18085,0 18.334,-34.1814,0 18.33495,-34.18195,0 18.33595,-34.18247,0 18.33698,-34.18298,0 18.33792,-34.18336,0 18.33899,-34.18377,0 18.34007,-34.1841,0 18.34133,-34.18433,0 18.34248,-34.18443,0 18.34345,-34.18443,0 18.34454,-34.18433,0 18.34574,-34.18419,0 18.34677,-34.18396,0 18.34784,-34.18369,0 18.34917,-34.18331,0 18.3502,-34.18303,0 18.35148,-34.18286,0 18.35272,-34.18298,0 18.35346,-34.18317,0 18.35461,-34.18387,0 18.35518,-34.18475,0 18.35552,-34.18575,0 18.35574,-34.18657,0 18.35608,-34.18758,0 18.35638,-34.18838,0 18.35686,-34.18936,0 18.35754,-34.19073,0 18.35799,-34.19165,0 18.3585,-34.19257,0 18.35913,-34.19364,0 18.35958,-34.19444,0 18.3601,-34.19532,0 18.36067,-34.19625,0 18.36119,-34.19709,0 18.36164,-34.19778,0 18.36227,-34.19876,0 18.36281,-34.19957,0 18.36336,-34.20039,0 18.36387,-34.20113,0 18.36432,-34.20181,0 18.36485,-34.20263,0 18.36544,-34.2036,0 18.36589,-34.20433,0 18.36628,-34.20515,0 18.36662,-34.20593,0 18.36685,-34.20668,0 18.3672,-34.20761,0 18.36748,-34.20854,0 18.36774,-34.2095,0 18.36796,-34.21037,0 18.36819,-34.21129,0 18.3684,-34.21245,0 18.36858,-34.21339,0 18.36874,-34.21422,0 18.36891,-34.21515,0 18.36909,-34.21642,0 18.3692,-34.21706,0 18.36937,-34.21806,0 18.36948,-34.21897,0 18.3696,-34.22009,0 18.36971,-34.22092,0 18.36981,-34.22177,0 18.36987,-34.22269,0 18.36994,-34.22353,0 18.37,-34.22427,0 18.37006,-34.2253,0 18.37009,-34.22598,0 18.37017,-34.22697,0 18.37029,-34.22791,0 18.37037,-34.22887,0 18.37051,-34.22986,0 18.37063,-34.23074,0 18.37074,-34.23167,0 18.3708,-34.23265,0 18.37091,-34.23363,0 18.37093,-34.23441,0 18.37105,-34.23564,0 18.39896,-34.30234,0 18.39952,-34.305,0 18.39963,-34.30595,0 18.41404,-34.32298,0 18.41612,-34.32506,0 18.41681,-34.32566,0 18.41743,-34.32623,0 18.41812,-34.32678,0 18.41892,-34.32748,0 18.4197,-34.32816,0 18.42048,-34.32884,0 18.4211,-34.32935,0 18.42184,-34.32999,0 18.42267,-34.33076,0 18.42329,-34.33127,0 18.42407,-34.33191,0 18.42475,-34.3325,0 18.42542,-34.33305,0 18.42615,-34.33369,0 18.42884,-34.33603,0 18.43091,-34.33772,0 18.43306,-34.33944,0 18.43374,-34.33996,0 18.4359,-34.34157,0 18.43646,-34.34198,0 18.43729,-34.34252,0 18.43803,-34.34298,0 18.43878,-34.3434,0 18.43958,-34.34387,0 18.44055,-34.34436,0 18.44145,-34.34482,0 18.4424,-34.34528,0 18.44336,-34.34573,0 18.44431,-34.34624,0 18.44524,-34.34671,0 18.44599,-34.34708,0 18.44689,-34.34756,0 18.44782,-34.3481,0 18.44856,-34.34848,0 18.4493,-34.34889,0 18.45014,-34.3494,0 18.45081,-34.34981,0 18.45182,-34.35045,0 18.45266,-34.351,0 18.45337,-34.35146,0 18.45406,-34.35191,0 18.45509,-34.35257,0 18.45583,-34.35308,0 18.45669,-34.35364,0 18.45766,-34.35425,0 18.45843,-34.35475,0 18.45922,-34.3553,0 18.46163,-34.35695,0 18.4646,-34.35905,0 18.46539,-34.3596,0 18.46653,-34.36021,0 18.46751,-34.36066,0 18.4683,-34.36102,0 18.46899,-34.36128,0 18.47015,-34.36171,0 18.4711,-34.36203,0 18.47225,-34.36235,0 18.47317,-34.36258,0 18.47425,-34.36286,0 18.47517,-34.36304,0 18.47626,-34.36328,0 18.47743,-34.36354,0 18.47832,-34.3637,0 18.47929,-34.36384,0 18.48052,-34.36409,0 18.48169,-34.3643,0 18.48278,-34.36458,0 18.48375,-34.36481,0 18.48478,-34.36514,0 18.48598,-34.36547,0 18.48696,-34.36574,0 18.48797,-34.36592,0 18.48873,-34.36598,0 18.48965,-34.36597,0 18.49039,-34.36584,0 18.49122,-34.36565,0 18.4919,-34.36542,0 18.49257,-34.36519,0 18.49325,-34.36491,0 18.49425,-34.36446,0 18.49497,-34.36407,0 18.4956,-34.36368,0 18.49666,-34.36299,0 18.49731,-34.36258,0 18.49823,-34.36212,0 18.49909,-34.36188,0 18.5003,-34.36189,0 18.5012,-34.36203,0 18.50215,-34.3623,0 18.50292,-34.36263,0 18.504,-34.36317,0 18.5047,-34.36365,0 18.50557,-34.36441,0 18.50613,-34.36505,0 18.50669,-34.36588,0 18.5071,-34.36654,0 18.50767,-34.3677,0 18.50793,-34.36862,0 18.50809,-34.36967,0 18.50813,-34.37045,0 18.50798,-34.37137,0 18.50765,-34.37242,0 18.50725,-34.37315,0 18.50669,-34.37393,0 18.50569,-34.37485,0 18.50464,-34.37543,0 18.50349,-34.3758,0 18.50183,-34.37599,0 18.50126,-34.37595,0 18.49929,-34.37558,0 18.49795,-34.37494,0 18.49697,-34.37417,0 18.49634,-34.37347,0 18.49577,-34.37254,0 18.49554,-34.37147,0 18.49554,-34.37068,0 18.49588,-34.36949,0 18.49646,-34.36831,0 18.497,-34.36752,0 18.49773,-34.36652,0 18.4984,-34.36574,0 18.49907,-34.36496,0 18.49974,-34.36418,0 18.5008,-34.36295,0 18.50143,-34.36202,0 18.50204,-34.36102,0 18.50246,-34.36002,0 18.50281,-34.35909,0 18.50309,-34.35769,0 18.50327,-34.35654,0 18.50332,-34.3555,0 18.50322,-34.35397,0 18.50298,-34.35276,0 18.50258,-34.35122,0 18.50218,-34.35011,0 18.50159,-34.34871,0 18.50109,-34.34768,0 18.50042,-34.34647,0 18.49977,-34.34536,0 18.4989,-34.34418,0 18.49812,-34.34317,0 18.49709,-34.34191,0 18.49632,-34.34097,0 18.49531,-34.33982,0 18.49453,-34.33891,0 18.49358,-34.33781,0 18.49279,-34.3369,0 18.49201,-34.33594,0 18.49105,-34.3347,0 18.49033,-34.33372,0 18.48988,-34.33296,0 18.48915,-34.33177,0 18.48853,-34.33035,0 18.48803,-34.32907,0 18.48769,-34.32793,0 18.48747,-34.32669,0 18.48724,-34.32532,0 18.48713,-34.32404,0 18.48713,-34.32254,0 18.48713,-34.32148,0 18.48724,-34.31996,0 18.48736,-34.31877,0 18.48758,-34.31721,0 18.4878,-34.31602,0 18.4881,-34.31454,0 18.48842,-34.31282,0 18.48873,-34.31133,0 18.48896,-34.31016,0 18.48921,-34.30902,0 18.48949,-34.30756,0 18.48976,-34.30639,0 18.4901,-34.30476,0 18.49028,-34.30383,0 18.49062,-34.30234,0 18.49089,-34.30078,0 18.49111,-34.29968,0 18.49194,-34.29522,0 18.49285,-34.28984,0 18.49375,-34.28416,0 18.49442,-34.27872,0 18.49464,-34.27597,0 18.4947,-34.27446,0 18.4947,-34.2724,0 18.49468,-34.27111,0 18.49464,-34.26997,0 18.49453,-34.26837,0 18.49451,-34.26687,0 18.49442,-34.26544,0 18.4944,-34.26412,0 18.49428,-34.2624,0 18.49419,-34.26091,0 18.49417,-34.25961,0 18.49411,-34.2584,0 18.49408,-34.25725,0 18.49405,-34.25584,0 18.49405,-34.25449,0 18.49405,-34.2529,0 18.49405,-34.25118,0 18.49405,-34.24988,0 18.49403,-34.24832,0 18.49397,-34.24699,0 18.49394,-34.24559,0 18.49371,-34.24145,0 18.49342,-34.23726,0 18.49302,-34.2334,0 18.49257,-34.22873,0 18.49211,-34.22316,0 18.49162,-34.2187,0 18.49102,-34.21455,0 18.49039,-34.21003,0 18.48993,-34.20689,0 18.48977,-34.2052,0 18.48959,-34.20361,0 18.48949,-34.20227,0 18.48936,-34.2009,0 18.48932,-34.19957,0 18.48919,-34.19778,0 18.48915,-34.19678,0 18.48904,-34.19508,0 18.48896,-34.19341,0 18.4889,-34.19234,0 18.48876,-34.19064,0 18.48865,-34.18904,0 18.48816,-34.18312,0 18.48776,-34.17958,0 18.48752,-34.17815,0 18.48719,-34.17622,0 18.48696,-34.17493,0 18.48668,-34.17334,0 18.48646,-34.17188,0 18.48616,-34.17023,0 18.48595,-34.16881,0 18.48573,-34.16725,0 18.48553,-34.1659,0 18.48534,-34.16437,0 18.48511,-34.16295,0 18.48495,-34.16139,0 18.48416,-34.15594,0 18.48358,-34.15012,0 18.48349,-34.1488,0 18.48326,-34.14418,0 18.4831,-34.13988,0 18.48301,-34.13848,0 18.48304,-34.13718,0 18.48301,-34.13601,0 18.48307,-34.13345,0 18.48315,-34.13205,0 18.48321,-34.13058,0 18.48326,-34.12935,0 18.48335,-34.12754,0 18.48343,-34.12624,0 18.48352,-34.1247,0 18.48364,-34.12344,0 18.4837,-34.12218,0 18.48377,-34.12088,0 18.48382,-34.11905,0 18.48388,-34.11777,0 18.48387,-34.11627,0 18.48388,-34.11493,0 18.48381,-34.11357,0 18.48375,-34.11227,0 18.48358,-34.11022,0 18.48343,-34.10898,0 18.48326,-34.1077,0 18.48298,-34.10614,0 18.4827,-34.10513,0 18.48232,-34.10366,0 18.48192,-34.10221,0 18.48141,-34.10082,0 18.4808,-34.09895,0 18.48041,-34.09767,0 18.47986,-34.09588,0 18.47951,-34.09465,0 18.47906,-34.093,0 18.47878,-34.09149,0 18.47856,-34.09012,0 18.47833,-34.08852,0 18.47815,-34.08713,0 18.47792,-34.08583,0 18.47771,-34.0844,0 18.4774,-34.08276,0 18.47717,-34.08141,0 18.47676,-34.07977,0 18.47631,-34.07815,0 18.47591,-34.07684,0 18.47557,-34.07559,0 18.47517,-34.07428,0 18.47469,-34.07254,0 18.47437,-34.07121,0 18.47403,-34.06981,0 18.47374,-34.06851,0 18.4734,-34.06691,0 18.47306,-34.06522,0 18.47288,-34.06427,0 18.47261,-34.06265,0 18.47237,-34.06106,0 18.47214,-34.05976,0 18.47197,-34.0585,0 18.47179,-34.05673,0 18.47161,-34.05556,0 18.47149,-34.05428,0 18.47144,-34.05309,0 18.47134,-34.05143,0 18.47128,-34.05022,0 18.47121,-34.0491,0 18.47122,-34.04775,0 18.47116,-34.04622,0 18.47111,-34.04496,0 18.47111,-34.04351,0 18.47105,-34.04221,0 18.47105,-34.03946,0 18.47104,-34.0378,0 18.4711,-34.0367,0 18.4711,-34.03519,0 18.47116,-34.0335,0 18.47122,-34.03239,0 18.47127,-34.03093,0 18.47139,-34.02852,0 18.47149,-34.02713,0 18.47157,-34.02578,0 18.47161,-34.02406,0 18.47161,-34.02246,0 18.47157,-34.02089,0 18.47149,-34.01921,0 18.47138,-34.01775,0 18.47134,-34.01646,0 18.47127,-34.01505,0 18.47116,-34.01311,0 18.47116,-34.01148,0 18.47111,-34.01018,0 18.4711,-34.00864,0 18.47116,-34.00697,0 18.47121,-34.00584,0 18.47128,-34.00422,0 18.47138,-34.00301,0 18.47151,-34.00152,0 18.47166,-34.00021,0 18.47183,-33.99898,0 18.47202,-33.99738,0 18.47222,-33.99605,0 18.47242,-33.99449,0 18.4726,-33.99352,0 18.47288,-33.99174,0 18.47305,-33.99054,0 18.47334,-33.98909,0 18.47357,-33.98783,0 18.47385,-33.98653,0 18.47413,-33.98534,0 18.47437,-33.98411,0 18.47469,-33.98286,0 18.475,-33.98155,0 18.47534,-33.98039,0 18.47563,-33.97927,0 18.47603,-33.97769,0 18.47631,-33.97676,0 18.47665,-33.97554,0 18.47769,-33.97163,0 18.47872,-33.96712,0 18.47923,-33.96483,0 18.47946,-33.96372,0 18.47986,-33.96237,0 18.48015,-33.9613,0 18.48046,-33.9603,0 18.48085,-33.95915,0 18.48118,-33.95813,0 18.48158,-33.95714,0 18.48209,-33.95581,0 18.48244,-33.95488,0 18.48278,-33.95376,0 18.48315,-33.9527,0 18.48352,-33.95134,0 18.48382,-33.95018,0 18.48399,-33.94908,0 18.48415,-33.94771,0 18.48416,-33.94652,0 18.4841,-33.94537,0 18.48399,-33.94405,0 18.48382,-33.9429,0 18.48352,-33.94152,0 18.48318,-33.9404,0 18.48276,-33.93906,0 18.48231,-33.93787,0 18.48181,-33.93672,0 18.48125,-33.93562,0 18.48055,-33.9343,0 18.4798,-33.93304,0 18.47918,-33.93197,0 18.47844,-33.93082,0 18.47749,-33.92953,0 18.47671,-33.92862,0 18.4757,-33.92738,0 18.47491,-33.92647,0 18.47418,-33.92555,0 18.47323,-33.92441,0 18.47239,-33.9234,0 18.47168,-33.92248,0 18.47048,-33.92108,0 18.4697,-33.9202,0 18.46853,-33.91885,0 18.46773,-33.91792,0 18.46687,-33.91703,0 18.4659,-33.91605,0 18.46494,-33.91516,0 18.46384,-33.91405,0 18.46275,-33.91302,0 18.46174,-33.91205,0 18.4609,-33.91118,0 18.45995,-33.91023,0 18.45909,-33.90935,0 18.45795,-33.90818,0 18.45686,-33.90716,0 18.456,-33.90628,0 18.45291,-33.90311,0 18.44918,-33.89937,0 18.44604,-33.89585,0 18.44501,-33.89478,0 18.44408,-33.89397,0 18.44302,-33.89323,0 18.44173,-33.89241,0 18.44083,-33.89186,0 18.43949,-33.89117,0 18.43872,-33.89077,0 18.43741,-33.89026,0 18.43629,-33.88989,0 18.43472,-33.88953,0 18.43349,-33.88934,0 18.43226,-33.88921,0 18.43122,-33.88919,0 18.43007,-33.8893,0 18.42912,-33.88953,0 18.4285,-33.88971,0 18.42768,-33.89003,0 18.42688,-33.89045,0 18.42637,-33.8909,0 18.42585,-33.89152,0 18.42553,-33.89191,0 18.42536,-33.89232,0 18.42519,-33.89282,0 18.4251,-33.89324,0 18.4251,-33.89361,0 18.4251,-33.89389,0 18.42519,-33.89424,0 18.42527,-33.89459,0 18.42536,-33.89497,0 18.42547,-33.89529,0 18.42556,-33.89561,0 18.42562,-33.89594,0 18.42567,-33.89618,0 18.42575,-33.89639,0 18.42585,-33.89664,0 18.42592,-33.8969,0 18.42602,-33.89715,0 18.42615,-33.89735,0 18.42625,-33.89762,0 18.42636,-33.8979,0 18.42648,-33.89813,0 18.42659,-33.89836,0 18.42671,-33.89859,0 18.42676,-33.89883,0 18.42688,-33.89906,0 18.42693,-33.89939,0 18.42705,-33.89976,0 18.4271,-33.90001,0 18.4271,-33.90022,0 18.42728,-33.90046,0 18.4276,-33.90065,0 18.428,-33.90083,0 18.42839,-33.90106,0 18.42889,-33.90138,0 18.42912,-33.90152,0 18.42951,-33.90167,0 18.42979,-33.90181,0 18.43008,-33.9019,0 18.43041,-33.90198,0 18.4308,-33.90207,0 18.43122,-33.90213,0 18.43157,-33.90213,0 18.43192,-33.90211,0 18.43231,-33.90208,0 18.43288,-33.90199,0 18.43332,-33.90189,0 18.43371,-33.90175,0 18.43416,-33.90161,0 18.43456,-33.90143,0 18.435,-33.9012,0 18.4354,-33.90097,0 18.43586,-33.90069,0 18.43649,-33.90013,0 18.43683,-33.89981,0 18.43718,-33.89943,0 18.43763,-33.89883,0 18.43786,-33.8985,0 18.43848,-33.89745,0 18.43895,-33.89618,0 18.43929,-33.89506,0 18.43949,-33.89374,0 18.43958,-33.89282,0 18.43949,-33.89136,0 18.43924,-33.88993,0 18.43884,-33.88854,0 18.43837,-33.88728,0 18.43786,-33.88626,0 18.43729,-33.88523,0 18.43652,-33.88394,0 18.4358,-33.88291,0 18.43489,-33.8816,0 18.43422,-33.88069,0 18.43293,-33.87918,0 18.4322,-33.8783,0 18.43097,-33.87698,0 18.43008,-33.87606,0 18.42923,-33.8752,0 18.42831,-33.87434,0 18.4271,-33.87318,0 18.42613,-33.87229,0 18.42545,-33.87164,0 18.42407,-33.87039,0 18.42306,-33.86948,0 18.42213,-33.86871,0 18.42127,-33.86792,0 18.42026,-33.86705,0 18.41927,-33.8662,0 18.41852,-33.86554,0 18.4174,-33.86472,0 18.41634,-33.86403,0 18.41533,-33.86357,0 18.41446,-33.86335,0 18.4132,-33.86322,0 18.41223,-33.86331,0 18.41114,-33.86354,0 18.41017,-33.86391,0 18.40939,-33.86426,0 18.40832,-33.86476,0 18.40748,-33.86522,0 18.40662,-33.86568,0 18.4057,-33.86629,0 18.40468,-33.86687,0 18.40389,-33.86737,0 18.40305,-33.86787,0 18.40233,-33.86834,0 18.40141,-33.86889,0 18.40064,-33.86938,0 18.39997,-33.86984,0 18.39901,-33.87043,0 18.39846,-33.8708,0 18.39745,-33.87144,0 18.39644,-33.87204,0 18.39571,-33.8725,0 18.39472,-33.87309,0 18.39323,-33.87402,0 18.39226,-33.87476,0 18.39151,-33.87532,0 18.39077,-33.87592,0 18.38988,-33.87671,0 18.38904,-33.87749,0 18.38809,-33.87831,0 18.38719,-33.87909,0 18.38652,-33.87964,0 18.38562,-33.88042,0 18.3847,-33.88118,0 18.38385,-33.88193,0 18.38316,-33.88263,0 18.38254,-33.88321,0 18.38181,-33.88394,0 18.3811,-33.88467,0 18.38036,-33.88551,0 18.37973,-33.88632,0 18.37912,-33.88705,0 18.37828,-33.88802,0 18.37778,-33.88868,0 18.37699,-33.88957,0 18.37637,-33.89021,0 18.37553,-33.89108,0 18.37486,-33.8918,0 18.37423,-33.89245,0 18.37351,-33.89314,0 18.37286,-33.89384,0 18.37206,-33.89464,0 18.37143,-33.89529,0 18.37063,-33.89613,0 18.36992,-33.89694,0 18.36943,-33.89753,0 18.36864,-33.89845,0 18.36805,-33.89925,0 18.36754,-33.89999,0 18.3669,-33.90092,0 18.36634,-33.90181,0 18.36589,-33.90257,0 18.36544,-33.90326,0 18.36485,-33.90423,0 18.36433,-33.90497,0 18.3637,-33.90591,0 18.36319,-33.90674,0 18.36262,-33.90749,0 18.36197,-33.90848,0 18.3614,-33.9093,0 18.36073,-33.91037,0 18.35987,-33.91163,0 18.35933,-33.91251,0 18.35884,-33.91335,0 18.3581,-33.91457,0 18.35759,-33.91544,0 18.35703,-33.91644,0 18.35644,-33.91735,0 18.35598,-33.91824,0 18.35541,-33.91919,0 18.35478,-33.92029,0 18.35429,-33.9212,0 18.35384,-33.92207,0 18.35333,-33.92313,0 18.35294,-33.924,0 18.35244,-33.92509,0 18.35205,-33.92606,0 18.3516,-33.92706,0 18.35126,-33.92789,0 18.35083,-33.92899,0 18.35043,-33.92983,0 18.34997,-33.93081,0 18.34957,-33.9316,0 18.34902,-33.93251,0 18.34854,-33.93337,0 18.34814,-33.93416,0 18.34773,-33.93498,0 18.34711,-33.93607,0 18.34654,-33.93705,0 18.34642,-33.93732,0 18.34403,-33.94167,0 18.34351,-33.94258,0 18.3419,-33.94551,0 18.34055,-33.94826,0 18.33932,-33.95087,0 18.33882,-33.95197,0 18.33836,-33.95283,0 18.33803,-33.95352,0 18.33753,-33.95457,0 18.33675,-33.95609,0 18.33624,-33.95711,0 18.33579,-33.95796,0 18.33527,-33.95906,0 18.33377,-33.96263,0 18.33292,-33.96493,0 18.33209,-33.96712,0 18.33119,-33.96936,0 18.32923,-33.97403,0 18.3284,-33.97615,0 18.32749,-33.97833,0 18.32668,-33.98043,0 18.42739,-33.90074,0 18.4276,-33.90079,0 18.42833,-33.9012,0 18.42871,-33.90134,0 18.42912,-33.90157,0 18.42934,-33.90167,0 18.42962,-33.90175,0 18.42991,-33.90181,0 18.43031,-33.90185,0 18.43088,-33.9019,0 18.43128,-33.90185,0 18.43185,-33.90176,0 18.4322,-33.90171,0 18.43288,-33.90148,0 18.43327,-33.90138,0 18.43386,-33.90111,0 18.43427,-33.90092,0 18.43467,-33.90074,0 18.43534,-33.90032,0 18.43573,-33.9001,0 18.43618,-33.89978,0 18.43702,-33.89905,0 18.43786,-33.89818,0 18.43865,-33.89703,0 18.43921,-33.89607,0 18.43964,-33.89496,0 18.43999,-33.8936,0 18.44009,-33.89245,0 18.44009,-33.89115,0 18.43988,-33.88966,0 18.43964,-33.88854,0 18.43929,-33.88733,0 18.43876,-33.88591,0 18.43821,-33.88467,0 18.43758,-33.88346,0 18.43678,-33.88211,0 18.43607,-33.88115,0 18.43512,-33.87983,0 18.43416,-33.87854,0 18.43338,-33.87753,0 18.43248,-33.87639,0 18.43186,-33.87566,0 18.43074,-33.87433,0 18.42991,-33.87336,0 18.429,-33.87245,0 18.42794,-33.87149,0 18.42688,-33.87076,0 18.4259,-33.87024,0 18.42486,-33.8698,0 18.42301,-33.86938,0 18.4215,-33.86936,0 18.42018,-33.86945,0 18.41914,-33.86971,0 18.41778,-33.87006,0 18.41663,-33.87043,0 18.41533,-33.8709,0 18.41438,-33.87122,0 18.41331,-33.87159,0 18.41202,-33.87204,0 18.41097,-33.87239,0 18.40965,-33.87285,0 18.40857,-33.87322,0 18.40759,-33.8736,0 18.40639,-33.87406,0 18.40542,-33.87444,0 18.40422,-33.8749,0 18.40324,-33.87527,0 18.40233,-33.87569,0 18.40143,-33.87607,0 18.40027,-33.87653,0 18.39919,-33.87703,0 18.39832,-33.87741,0 18.39706,-33.87802,0 18.39616,-33.8784,0 18.39518,-33.87886,0 18.3942,-33.87927,0 18.39291,-33.87982,0 18.39195,-33.88023,0 18.39083,-33.88067,0 18.3898,-33.88114,0 18.38893,-33.88156,0 18.38797,-33.88202,0 18.3868,-33.88261,0 18.38585,-33.88307,0 18.38453,-33.88379,0 18.38356,-33.88435,0 18.38276,-33.88486,0 18.3817,-33.8855,0 18.38076,-33.88612,0 18.37973,-33.88678,0 18.37884,-33.88733,0 18.37811,-33.88779,0 18.37669,-33.88863,0 18.37578,-33.88919,0 18.37469,-33.88985,0 18.37379,-33.8904,0 18.3728,-33.89105,0 18.37183,-33.89163,0 18.37093,-33.89223,0 18.36988,-33.89291,0 18.36897,-33.89355,0 18.36817,-33.89413,0 18.3672,-33.89487,0 18.36639,-33.89548,0 18.36539,-33.8963,0 18.36443,-33.89713,0 18.3637,-33.8978,0 18.36292,-33.89854,0 18.36216,-33.89929,0 18.36153,-33.89994,0 18.36067,-33.90088,0 18.35995,-33.9017,0 18.35911,-33.90276,0 18.35844,-33.90353,0 18.35776,-33.90436,0 18.35695,-33.90539,0 18.35627,-33.90628,0 18.35563,-33.90715,0 18.35495,-33.908,0 18.35423,-33.90898,0 18.35358,-33.90991,0 18.35283,-33.911,0 18.35226,-33.91196,0 18.35165,-33.91296,0 18.351,-33.91414,0 18.35043,-33.91531,0 18.3498,-33.91658,0 18.34924,-33.91777,0 18.34871,-33.9188,0 18.34818,-33.91997,0 18.34767,-33.92097,0 18.34711,-33.9221,0 18.34661,-33.92317,0 18.34599,-33.92445,0 18.34543,-33.92564,0 18.34499,-33.92657,0 18.34442,-33.9278,0 18.34391,-33.92899,0 18.34352,-33.9299,0 18.34308,-33.93114,0 18.3427,-33.93211,0 18.34236,-33.93304,0 18.34207,-33.93393,0 18.34173,-33.93512,0 18.34145,-33.93626,0 18.34123,-33.93709,0 18.3411,-33.93802,0 18.34099,-33.93905,0 18.34099,-33.94026,0 18.3411,-33.94138,0 18.34122,-33.94207,0 18.34145,-33.94313,0 18.34179,-33.94403,0 18.34229,-33.94501,0 18.3428,-33.94574,0 18.34341,-33.94656,0 18.34414,-33.94733,0 18.34471,-33.94799,0 18.34534,-33.94859,0 18.34605,-33.94936,0 18.34672,-33.95004,0 18.34728,-33.95064,0 18.3479,-33.95119,0 18.34866,-33.9519,0 18.34923,-33.95236,0 18.34986,-33.95297,0 18.35048,-33.95343,0 18.35112,-33.95395,0 18.35165,-33.95435,0 18.35232,-33.95469,0 18.35316,-33.9549,0 18.35403,-33.95483,0 18.35495,-33.95455,0 18.35586,-33.95389,0 18.35632,-33.9532,0 18.35678,-33.95218,0 18.35692,-33.95114,0 18.3569,-33.9498,0 18.35678,-33.94868,0 18.35661,-33.94743,0 18.35644,-33.94626,0 18.35642,-33.94519,0 18.35658,-33.94359,0 18.35684,-33.94235,0 18.35718,-33.9411,0 18.35752,-33.94007,0 18.35804,-33.93877,0 18.35867,-33.93756,0 18.35911,-33.93668,0 18.35967,-33.93558,0 18.36034,-33.93443,0 18.36096,-33.93338,0 18.36153,-33.93235,0 18.36219,-33.93132,0 18.36279,-33.9303,0 18.36353,-33.92917,0 18.36422,-33.92815,0 18.36485,-33.92727,0 18.36576,-33.92611,0 18.36639,-33.92527,0 18.36731,-33.9242,0 18.36796,-33.92336,0 18.36869,-33.92244,0 18.3696,-33.92126,0 18.37029,-33.92038,0 18.37114,-33.91931,0 18.37206,-33.91823,0 18.3728,-33.91731,0 18.37349,-33.91642,0 18.37452,-33.91521,0 18.37525,-33.91429,0 18.37601,-33.91344,0 18.37699,-33.91232,0 18.37755,-33.91167,0 18.37852,-33.91061,0 18.37938,-33.90963,0 18.38024,-33.90871,0 18.38121,-33.90763,0 18.38198,-33.90678,0 18.38299,-33.90564,0 18.38383,-33.90472,0 18.3847,-33.90381,0 18.3859,-33.90266,0 18.38674,-33.90184,0 18.38785,-33.90078,0 18.38893,-33.89983,0 18.38991,-33.89901,0 18.39083,-33.89832,0 18.39207,-33.89749,0 18.39308,-33.89685,0 18.39415,-33.89627,0 18.39546,-33.89571,0 18.39655,-33.89534,0 18.39773,-33.89497,0 18.39907,-33.89456,0 18.40033,-33.89417,0 18.40141,-33.89375,0 18.40256,-33.89329,0 18.40359,-33.89287,0 18.40468,-33.89241,0 18.40599,-33.89189,0 18.40702,-33.89152,0 18.40782,-33.89115,0 18.40902,-33.89068,0 18.41023,-33.89012,0 18.4112,-33.88966,0 18.41246,-33.88905,0 18.41337,-33.88861,0 18.41452,-33.88807,0 18.41549,-33.88761,0 18.41652,-33.8871,0 18.41774,-33.88655,0 18.41864,-33.88612,0 18.41955,-33.8857,0 18.4206,-33.88527,0 18.42155,-33.885,0 18.42258,-33.88486,0 18.42346,-33.8849,0 18.42435,-33.88513,0 18.42487,-33.88542,0 18.42536,-33.88591,0 18.42553,-33.88641,0 18.42545,-33.88691,0 18.42519,-33.88747,0 18.42475,-33.88797,0 18.42413,-33.88845,0 18.42357,-33.88879,0 18.42293,-33.88914,0 18.42224,-33.88956,0 18.42177,-33.8898,0 18.42127,-33.89021,0 18.42082,-33.89063,0 18.42054,-33.89104,0 18.42037,-33.8914,0 18.42035,-33.89198,0 18.42048,-33.89236,0 18.42065,-33.89264,0 18.42098,-33.89301,0 18.42138,-33.89338,0 18.42177,-33.89374,0 18.42211,-33.89406,0 18.4225,-33.89438,0 18.42287,-33.89464,0 18.42318,-33.89484,0 18.4235,-33.89506,0 18.4239,-33.89534,0 18.4243,-33.89561,0 18.42463,-33.89589,0 18.42497,-33.89616,0 18.42525,-33.89644,0 18.42547,-33.89667,0 18.42567,-33.89692,0 18.42596,-33.89724,0 18.4262,-33.89758,0 18.42648,-33.8979,0 18.42665,-33.89822,0 18.42676,-33.89854,0 18.42687,-33.89877,0 18.42693,-33.89909,0 18.42705,-33.89939,0 18.42705,-33.89962,0 18.4271,-33.89987,0 18.42704,-33.9001,0 18.42699,-33.90033,0 18.42699,-33.90056,0 18.4271,-33.90079,0 18.42732,-33.90083,0 18.42755,-33.90074,0 18.42791,-33.90092,0 18.42888,-33.90134,0 18.42911,-33.90144,0 18.42951,-33.90157,0 18.42973,-33.90166,0 18.43001,-33.90175,0 18.43029,-33.90184,0 18.43069,-33.90193,0 18.43142,-33.90211,0 18.43174,-33.90213,0 18.43231,-33.90211,0 18.43277,-33.90208,0 18.43328,-33.90195,0 18.43377,-33.90184,0 18.43439,-33.90157,0 18.43477,-33.90139,0 18.43539,-33.90106,0 18.43575,-33.90078,0 18.43632,-33.90036,0 18.43666,-33.90004,0 18.43723,-33.89943,0 18.43803,-33.89832,0 18.43855,-33.89715,0 18.43889,-33.89576,0 18.43895,-33.8945,0 18.43881,-33.89328,0 18.43855,-33.89203,0 18.43821,-33.89059,0 18.43786,-33.88934,0 18.43746,-33.88784,0 18.43708,-33.88637,0 18.43672,-33.88514,0 18.4362,-33.88374,0 18.43557,-33.88244,0 18.43512,-33.88156,0 18.43433,-33.88037,0 18.4334,-33.87914,0 18.43243,-33.87788,0 18.43158,-33.87689,0 18.4308,-33.87593,0 18.42979,-33.87481,0 18.42878,-33.87369,0 18.42783,-33.87263,0 18.42682,-33.87163,0 18.42567,-33.87053,0 18.42459,-33.86964,0 18.42351,-33.86888,0 18.422,-33.8681,0 18.42054,-33.86765,0 18.41908,-33.86746,0 18.4174,-33.8676,0 18.41583,-33.86792,0 18.41469,-33.86829,0 18.41348,-33.8687,0 18.41163,-33.86938,0 18.41079,-33.86975,0 18.40944,-33.87025,0 18.40851,-33.87066,0 18.40714,-33.87122,0 18.40591,-33.87177,0 18.40479,-33.87227,0 18.4037,-33.87281,0 18.40279,-33.87322,0 18.40115,-33.87405,0 18.40015,-33.87457,0 18.39896,-33.87524,0 18.39798,-33.87579,0 18.397,-33.8763,0 18.39621,-33.8768,0 18.39498,-33.87749,0 18.39415,-33.87797,0 18.39312,-33.87862,0 18.39214,-33.87918,0 18.39123,-33.87974,0 18.39037,-33.88025,0 18.38966,-33.88069,0 18.38871,-33.88128,0 18.38785,-33.88174,0 18.38682,-33.8823,0 18.38579,-33.88291,0 18.38478,-33.88348,0 18.38394,-33.88394,0 18.38322,-33.88444,0 18.38219,-33.88505,0 18.38164,-33.88545,0 18.38063,-33.88609,0 18.37979,-33.88673,0 18.37915,-33.88724,0 18.37844,-33.88774,0 18.37761,-33.88843,0 18.37681,-33.88905,0 18.37595,-33.88975,0 18.37525,-33.89035,0 18.37447,-33.89104,0 18.37362,-33.89186,0 18.37303,-33.89254,0 18.37245,-33.89328,0 18.37194,-33.89401,0 18.37149,-33.89478,0 18.37109,-33.89552,0 18.3706,-33.89648,0 18.37023,-33.89724,0 18.3697,-33.89827,0 18.36925,-33.89909,0 18.36875,-33.9001,0 18.36819,-33.90111,0 18.36757,-33.90211,0 18.36718,-33.90276,0 18.36651,-33.90385,0 18.366,-33.90468,0 18.3655,-33.90555,0 18.36491,-33.90651,0 18.36426,-33.90752,0 18.3637,-33.90842,0 18.3632,-33.90916,0 18.36267,-33.91005,0 18.36199,-33.91103,0 18.36147,-33.91186,0 18.36084,-33.91284,0 18.36027,-33.91382,0 18.35907,-33.91573,0 18.35838,-33.91685,0 18.35775,-33.91787,0 18.35658,-33.91974,0 18.35529,-33.92173,0 18.35461,-33.92285,0 18.35401,-33.92377,0 18.35346,-33.92466,0 18.35221,-33.92661,0 18.35148,-33.92775,0 18.35081,-33.9288,0 18.34877,-33.93202,0 18.34808,-33.93314,0 18.34739,-33.93416,0 18.34677,-33.93523,0 18.34616,-33.93631,0 18.34545,-33.93747,0 18.34492,-33.93832,0 18.34442,-33.93919,0 18.34373,-33.94035,0 18.34322,-33.94124,0 18.34263,-33.9424,0 18.34208,-33.94352,0 18.34162,-33.94454,0 18.34106,-33.94579,0 18.34061,-33.9467,0 18.34016,-33.9478,0 18.33979,-33.94878,0 18.33943,-33.94977,0 18.3391,-33.95064,0 18.33864,-33.9519,0 18.33824,-33.95311,0 18.33784,-33.95422,0 18.33744,-33.95534,0 18.33708,-33.95631,0 18.33681,-33.95716,0 18.33652,-33.95792,0 18.33568,-33.96011,0 18.33515,-33.9614,0 18.33344,-33.96558,0 18.33212,-33.96903,0 18.3316,-33.97047,0 18.33126,-33.97159,0 18.33097,-33.97243,0 18.33002,-33.97714,0 18.32957,-33.97966,0 18.32901,-33.98204,0 18.32845,-33.98442,0 18.32744,-33.98927,0 18.32727,-33.99014,0 18.32703,-33.99161,0 18.32626,-33.99577,0 18.32582,-33.99896,0 18.32564,-34.00104,0 18.32559,-34.00195,0 18.47142,-34.07617,0 18.47119,-34.07233,0 18.4718,-34.07073,0 18.47193,-34.06924,0 18.47211,-34.06775,0 18.47199,-34.06638,0 18.47119,-34.0649,0 18.47107,-34.06356,0 18.47092,-34.06215,0 18.47064,-34.06074,0 18.47041,-34.05944,0 18.47033,-34.05809,0 18.47011,-34.05681,0 18.47002,-34.05565,0 18.47012,-34.05374,0 18.47,-34.05216,0 18.46963,-34.05074,0 18.46954,-34.04908,0 18.46966,-34.0475,0 18.46969,-34.04603,0 18.46936,-34.04463,0 18.46905,-34.04333,0 18.46898,-34.04183,0 18.46931,-34.04014,0 18.46911,-34.03868,0 18.46881,-34.03716,0 18.46859,-34.03565,0 18.46845,-34.03411,0 18.46841,-34.03264,0 18.46853,-34.03101,0 18.46853,-34.02939,0 18.46855,-34.02795,0 18.46853,-34.02648,0 18.4685,-34.02506,0 18.46858,-34.02366,0 18.46899,-34.02198,0 18.46907,-34.02055,0 18.46881,-34.01925,0 18.46894,-34.01771,0 18.46883,-34.01616,0 18.46865,-34.01494,0 18.46739,-34.01271,0 18.46789,-34.0113,0 18.46766,-34.01003,0 18.46741,-34.00866,0 18.46574,-34.00766,0 18.46695,-34.00615,0 18.46756,-34.00478,0 18.46745,-34.00333,0 18.46799,-34.00202,0 18.46829,-34.00077,0 18.46865,-33.99908,0 18.46909,-33.99769,0 18.46939,-33.99643,0 18.46954,-33.99473,0 18.4699,-33.99316,0 18.47001,-33.9917,0 18.46974,-33.99029,0 18.46975,-33.98871,0 18.47049,-33.98716,0 18.47112,-33.98555,0 18.46989,-33.9834,0 18.47099,-33.98202,0 18.47126,-33.98087,0 18.4719,-33.97947,0 18.47273,-33.97776,0 18.47341,-33.97635,0 18.47387,-33.97504,0 18.47447,-33.97348,0 18.47531,-33.97202,0 18.47547,-33.97128,0 18.47671,-33.96915,0 18.47732,-33.96786,0 18.47732,-33.96636,0 18.47733,-33.96481,0 18.47669,-33.96331,0 18.47689,-33.96218,0 18.47654,-33.96075,0 18.4766,-33.95954,0 18.47697,-33.95725,0 18.4774,-33.95609,0 18.47869,-33.95447,0 18.47893,-33.95314,0 18.47908,-33.95173,0 18.47934,-33.95004,0 18.47865,-33.94862,0 18.47811,-33.94717,0 18.47772,-33.94592,0 18.47747,-33.94413,0 18.47733,-33.9425,0 18.47725,-33.94005,0 18.47946,-33.93714,0 18.47895,-33.93553,0 18.4785,-33.9343,0 18.47797,-33.93286,0 18.47732,-33.93137,0 18.47683,-33.9302,0 18.4762,-33.92885,0 18.47546,-33.92755,0 18.47454,-33.92606,0 18.47363,-33.92476,0 18.47284,-33.92372,0 18.47194,-33.92267,0 18.47088,-33.92145,0 18.4697,-33.92015,0 18.46858,-33.91905,0 18.46733,-33.91777,0 18.46607,-33.91656,0 18.46522,-33.91571,0 18.46404,-33.91461,0 18.46269,-33.91333,0 18.46146,-33.91214,0 18.45984,-33.91065,0 18.45905,-33.9099,0 18.45793,-33.90889,0 18.45652,-33.90758,0 18.45535,-33.90651,0 18.45434,-33.90559,0 18.45297,-33.90437,0 18.452,-33.90343,0 18.45079,-33.90227,0 18.4498,-33.90134,0 18.44902,-33.90056,0 18.4479,-33.89946,0 18.4469,-33.89841,0 18.44593,-33.89743,0 18.44501,-33.89659,0 18.44439,-33.89599,0 18.44341,-33.89506,0 18.44261,-33.89436,0 18.44156,-33.89351,0 18.44027,-33.89255,0 18.43912,-33.89189,0 18.43798,-33.89143,0 18.43674,-33.89113,0 18.43551,-33.89099,0 18.43454,-33.89101,0 18.43355,-33.89113,0 18.43248,-33.89138,0 18.43157,-33.89175,0 18.43065,-33.89222,0 18.43029,-33.89246,0 18.43002,-33.89268,0 18.42968,-33.89296,0 18.42922,-33.89333,0 18.429,-33.8936,0 18.42876,-33.8938,0 18.42848,-33.89413,0 18.42825,-33.89445,0 18.428,-33.8947,0 18.42783,-33.89493,0 18.4276,-33.89534,0 18.42751,-33.89557,0 18.42738,-33.89584,0 18.42727,-33.89607,0 18.42716,-33.89636,0 18.4271,-33.89659,0 18.42699,-33.89692,0 18.42688,-33.89729,0 18.42688,-33.89753,0 18.42682,-33.89776,0 18.42682,-33.89809,0 18.42688,-33.89832,0 18.42687,-33.89864,0 18.42693,-33.89891,0 18.42704,-33.89923,0 18.42704,-33.89951,0 18.4271,-33.89973,0 18.4271,-33.89996,0 18.42704,-33.90028,0 18.42699,-33.90056,0 18.42721,-33.90079,0 18.42751,-33.90074,0 18.42777,-33.90092,0 18.42836,-33.90129,0 18.429,-33.90157,0 18.42922,-33.90167,0 18.42945,-33.90176,0 18.42974,-33.90185,0 18.43048,-33.90195,0 18.43102,-33.90193,0 18.43163,-33.9019,0 18.43226,-33.90184,0 18.43265,-33.90175,0 18.43323,-33.90162,0 18.43388,-33.90143,0 18.4345,-33.9012,0 18.43495,-33.90102,0 18.43546,-33.90083,0 18.43603,-33.90051,0 18.43649,-33.90027,0 18.43689,-33.90004,0 18.43736,-33.89969,0 18.43781,-33.89934,0 18.4387,-33.89845,0 18.43964,-33.89715,0 18.44015,-33.89608,0 18.44067,-33.89459,0 18.44095,-33.8931,0 18.441,-33.89163,0 18.44083,-33.89003,0 18.44038,-33.88852,0 18.43998,-33.88752,0 18.43901,-33.88579,0 18.43825,-33.88467,0 18.43729,-33.88333,0 18.43655,-33.88226,0 18.43569,-33.88109,0 18.4346,-33.8796,0 18.43371,-33.87831,0 18.43276,-33.87703,0 18.43197,-33.87588,0 18.43111,-33.87471,0 18.43024,-33.8735,0 18.42934,-33.87227,0 18.42865,-33.87127,0 18.42788,-33.87012,0 18.42705,-33.86889,0 18.42625,-33.86778,0 18.42562,-33.8668,0 18.4248,-33.86563,0 18.42419,-33.86461,0 18.42327,-33.86317,0 18.42256,-33.86197,0 18.42183,-33.86073,0 18.42121,-33.85959,0 18.42054,-33.85844,0 18.41995,-33.85744,0 18.4192,-33.8562,0 18.41852,-33.85519,0 18.41778,-33.85405,0 18.41718,-33.85304,0 18.41652,-33.85209,0 18.41572,-33.85094,0 18.41482,-33.84966,0 18.41406,-33.84855,0 18.41325,-33.84741,0 18.41246,-33.84627,0 18.4118,-33.84531,0 18.41107,-33.84421,0 18.41011,-33.84279,0 18.40925,-33.84138,0 18.40855,-33.84023,0 18.40692,-33.83762,0 18.40457,-33.83359,0 18.40239,-33.82998,0 18.40014,-33.82585,0 18.39812,-33.82201,0 18.39621,-33.81824,0 18.3942,-33.81422,0 18.39252,-33.81097,0 18.39111,-33.80847,0 18.38985,-33.80614,0 18.38775,-33.80237,0 18.38562,-33.79843,0 18.38506,-33.79747,0 18.38439,-33.79646,0 18.38371,-33.79546,0 18.3831,-33.7946,0 18.38242,-33.79367,0 18.3819,-33.79306,0 18.38108,-33.79207,0 18.3799,-33.79092,0 18.37901,-33.7901,0 18.37807,-33.78934,0 18.3771,-33.78859,0 18.37629,-33.78799,0 18.37525,-33.7874,0 18.37406,-33.78673,0 18.37292,-33.78622,0 18.37194,-33.78584,0 18.37088,-33.78552,0 18.36987,-33.78525,0 18.36869,-33.78511,0 18.36777,-33.78501,0 18.36674,-33.78501,0 18.36548,-33.78505,0 18.36454,-33.78516,0 18.36353,-33.78539,0 18.36267,-33.78571,0 18.36182,-33.78613,0 18.36107,-33.78659,0 18.36034,-33.78712,0 18.35958,-33.78775,0 18.35896,-33.78841,0 18.35833,-33.78906,0 18.35764,-33.78985,0 18.35715,-33.79047,0 18.35661,-33.7912,0 18.35627,-33.79181,0 18.35598,-33.79245,0 18.35569,-33.7933,0 18.35552,-33.79395,0 18.35541,-33.79482,0 18.35541,-33.79557,0 18.35541,-33.79623,0 18.35558,-33.79701,0 18.35586,-33.79779,0 18.35621,-33.79851,0 18.35647,-33.79907,0 18.35698,-33.79994,0 18.35741,-33.80065,0 18.35782,-33.80136,0 18.35827,-33.80219,0 18.35867,-33.80293,0 18.35901,-33.80368,0 18.35936,-33.80442,0 18.35967,-33.80507,0 18.35999,-33.80586,0 18.36021,-33.80675,0 18.36051,-33.80754,0 18.36073,-33.80827,0 18.3609,-33.80898,0 18.36113,-33.80983,0 18.36135,-33.81061,0 18.36152,-33.81125,0 18.36174,-33.81226,0 18.36202,-33.81299,0 18.36239,-33.81387,0 18.3629,-33.81475,0 18.36348,-33.81551,0 18.36405,-33.8162,0 18.36471,-33.81688,0 18.36533,-33.81743,0 18.36594,-33.81797,0 18.36679,-33.81862,0 18.36752,-33.81908,0 18.36852,-33.81972,0 18.36948,-33.82013,0 18.37054,-33.82054,0 18.37155,-33.82082,0 18.37257,-33.82099,0 18.37349,-33.82109,0 18.37418,-33.82109,0 18.37555,-33.82099,0 18.37665,-33.82082,0 18.37761,-33.82057,0 18.37873,-33.82013,0 18.37973,-33.81963,0 18.38074,-33.81889,0 18.38164,-33.81821,0 18.38247,-33.8175,0 18.38343,-33.8167,0 18.38428,-33.81606,0 18.38522,-33.81531,0 18.38607,-33.81473,0 18.38699,-33.81401,0 18.38757,-33.81355,0 18.38825,-33.81294,0 18.38904,-33.81198,0 18.38934,-33.81108,0 18.38932,-33.81029,0 18.38904,-33.80956,0 18.38814,-33.8087,0 18.38734,-33.80833,0 18.38652,-33.80823,0 18.3859,-33.80823,0 18.38511,-33.80842,0 18.38428,-33.80901,0 18.38388,-33.80956,0 18.38373,-33.81019,0 18.38367,-33.8108,0 18.38362,-33.81163,0 18.38349,-33.81262,0 18.38333,-33.81345,0 18.38305,-33.81424,0 18.38259,-33.81528,0 18.38226,-33.81619,0 18.38198,-33.81697,0 18.38173,-33.81787,0 18.3815,-33.81885,0 18.38125,-33.82004,0 18.38108,-33.82086,0 18.38093,-33.82192,0 18.3808,-33.82283,0 18.3807,-33.82365,0 18.38063,-33.82452,0 18.38052,-33.82539,0 18.38041,-33.82626,0 18.3803,-33.82718,0 18.38018,-33.82796,0 18.38013,-33.82881,0 18.38001,-33.8297,0 18.37996,-33.83054,0 18.37985,-33.83139,0 18.37979,-33.83208,0 18.37961,-33.83305,0 18.3795,-33.83384,0 18.37934,-33.83492,0 18.37917,-33.83578,0 18.3791,-33.8364,0 18.37884,-33.83762,0 18.37861,-33.83871,0 18.37835,-33.83985,0 18.37816,-33.84073,0 18.37794,-33.84164,0 18.37772,-33.84242,0 18.37738,-33.84366,0 18.37715,-33.84455,0 18.37693,-33.84563,0 18.37669,-33.8465,0 18.37643,-33.8476,0 18.37612,-33.84869,0 18.37592,-33.84952,0 18.37559,-33.85089,0 18.37536,-33.85181,0 18.37509,-33.85283,0 18.3748,-33.85382,0 18.37458,-33.85488,0 18.374,-33.85703,0 18.37379,-33.85794,0 18.37343,-33.85931,0 18.37252,-33.86256,0 18.37172,-33.86586,0 18.37103,-33.86903,0 18.37046,-33.8721,0 18.37,-33.87457,0 18.36981,-33.87552,0 18.36942,-33.87735,0 18.36914,-33.87849,0 18.36845,-33.88142,0 18.36782,-33.88435,0 18.36685,-33.88854,0 18.36617,-33.89143,0 18.36516,-33.89552,0 18.36454,-33.89763,0 18.36422,-33.89874,0 18.36388,-33.89962,0 18.36342,-33.90078,0 18.36303,-33.9017,0 18.3625,-33.90288,0 18.36197,-33.90399,0 18.36163,-33.90477,0 18.36107,-33.90601,0 18.36056,-33.90702,0 18.35999,-33.90818,0 18.35956,-33.90907,0 18.35901,-33.91019,0 18.35844,-33.91126,0 18.35804,-33.91214,0 18.35758,-33.91302,0 18.35604,-33.91591,0 18.35415,-33.91945,0 18.35289,-33.92175,0 18.35106,-33.92513,0 18.34963,-33.92788,0 18.34826,-33.93058,0 18.34791,-33.93151,0 18.34773,-33.93233,0 18.34767,-33.93329,0 18.34774,-33.93402,0 18.34795,-33.93471,0 18.34814,-33.93528,0 18.34848,-33.93607,0 18.34891,-33.93663,0 18.34919,-33.937,0 18.34975,-33.93755,0 18.35148,-33.93883,0 18.35278,-33.93937,0 18.35726,-33.9375,0 18.35928,-33.93535,0 18.36119,-33.93281,0 18.36222,-33.93132,0 18.36297,-33.93027,0 18.3637,-33.92923,0 18.36456,-33.92806,0 18.36531,-33.92713,0 18.36617,-33.92606,0 18.36684,-33.92523,0 18.36757,-33.92441,0 18.3683,-33.92358,0 18.36909,-33.92271,0 18.36994,-33.92173,0 18.37071,-33.92088,0 18.37166,-33.91982,0 18.37234,-33.91901,0 18.37323,-33.91805,0 18.37406,-33.91708,0 18.37503,-33.91605,0 18.37589,-33.91517,0 18.37664,-33.91433,0 18.37755,-33.9134,0 18.37895,-33.91191,0 18.3799,-33.91081,0 18.3807,-33.90991,0 18.38164,-33.90884,0 18.38254,-33.90784,0 18.38349,-33.90669,0 18.38436,-33.90572,0 18.38506,-33.90495,0 18.38602,-33.904,0 18.38719,-33.90289,0 18.38802,-33.90213,0 18.38882,-33.90144,0 18.38997,-33.90051,0 18.39095,-33.89978,0 18.39214,-33.89887,0 18.39312,-33.89827,0 18.39403,-33.89766,0 18.39518,-33.89697,0 18.39633,-33.89635,0 18.39752,-33.89566,0 18.39867,-33.89515,0 18.39993,-33.89459,0 18.40098,-33.89415,0 18.40215,-33.89365,0 18.40313,-33.89329,0 18.4041,-33.89291,0 18.4053,-33.89245,0 18.40645,-33.89198,0 18.40754,-33.89152,0 18.40851,-33.8911,0 18.40939,-33.89067,0 18.41051,-33.89017,0 18.41143,-33.8897,0 18.41241,-33.88925,0 18.41366,-33.88868,0 18.41486,-33.88803,0 18.41583,-33.88756,0 18.41712,-33.88701,0 18.41812,-33.88663,0 18.41914,-33.88637,0 18.4203,-33.88612,0 18.42127,-33.886,0 18.42218,-33.88607,0 18.4229,-33.88623,0 18.42367,-33.88672,0 18.42402,-33.88719,0 18.42407,-33.88792,0 18.4239,-33.88843,0 18.42344,-33.88896,0 18.4229,-33.88943,0 18.42241,-33.8897,0 18.42173,-33.89008,0 18.4211,-33.89044,0 18.42064,-33.89082,0 18.42041,-33.89124,0 18.42047,-33.8917,0 18.42064,-33.89212,0 18.42099,-33.89246,0 18.42133,-33.89287,0 18.42166,-33.89319,0 18.42196,-33.89357,0 18.42233,-33.89397,0 18.42264,-33.89431,0 18.4229,-33.89461,0 18.42323,-33.89497,0 18.42346,-33.8952,0 18.42379,-33.89552,0 18.42424,-33.89603,0 18.42452,-33.89626,0 18.4248,-33.89658,0 18.42508,-33.89685,0 18.42531,-33.89708,0 18.42547,-33.89731,0 18.42573,-33.89762,0 18.42596,-33.8979,0 18.42613,-33.89813,0 18.42642,-33.89855,0 18.42665,-33.89883,0 18.42682,-33.89914,0 18.42699,-33.89943,0 18.4271,-33.89971,0 18.42716,-33.89994,0 18.4271,-33.90015,0 18.42704,-33.90038,0 18.42699,-33.9006,0 18.42721,-33.90079,0 18.42743,-33.90079,0</coordinates>
      </LineString>
    </Placemark>
  </Document>
</kml>
