<?xml version="1.0" encoding="UTF-8"?>
<kml xmlns="http://www.opengis.net/kml/2.2">
  <Document>
    <name>FR24 3f936909</name>
    <Placemark>
      <name>FR24 3f936909</name>
      <Style><LineStyle><color>ff0000ff</color><width>4</width></LineStyle></Style>
      <LineString>
        <tessellate>1</tessellate>
        <coordinates>18.38831,-34.19206,0 18.39077,-34.19378,0 18.3938,-34.19591,0 18.39459,-34.19655,0 18.39518,-34.19718,0 18.39586,-34.19816,0 18.39615,-34.19881,0 18.39633,-34.19994,0 18.3961,-34.20085,0 18.39543,-34.20181,0 18.39464,-34.20241,0 18.39347,-34.203,0 18.39231,-34.20342,0 18.39111,-34.20361,0 18.38945,-34.20374,0 18.38803,-34.20369,0 18.38657,-34.2036,0 18.38506,-34.20341,0 18.38371,-34.20319,0 18.38248,-34.20296,0 18.3807,-34.20258,0 18.37867,-34.20209,0 18.37687,-34.2016,0 18.37555,-34.20123,0 18.3743,-34.20085,0 18.37263,-34.20025,0 18.37133,-34.19975,0 18.36964,-34.19907,0 18.36847,-34.19861,0 18.36697,-34.19797,0 18.36539,-34.19724,0 18.36393,-34.19653,0 18.36247,-34.19577,0 18.3609,-34.19495,0 18.35958,-34.19425,0 18.35827,-34.19353,0 18.35625,-34.19247,0 18.35495,-34.19173,0 18.35358,-34.19099,0 18.35233,-34.19028,0 18.35072,-34.18936,0 18.34958,-34.18872,0 18.34768,-34.18768,0 18.34642,-34.18694,0 18.34509,-34.1862,0 18.34373,-34.18563,0 18.3424,-34.1851,0 18.34083,-34.18442,0 18.33943,-34.18359,0 18.33818,-34.18284,0 18.3371,-34.182,0 18.33607,-34.18117,0 18.33489,-34.18011,0 18.33366,-34.17902,0 18.33271,-34.17815,0 18.33155,-34.17707,0 18.33035,-34.17604,0 18.32934,-34.17508,0 18.32833,-34.17416,0 18.32705,-34.17274,0 18.3262,-34.17183,0 18.32531,-34.17078,0 18.32474,-34.17009,0 18.32329,-34.1683,0 18.32256,-34.16734,0 18.32142,-34.16585,0 18.32062,-34.16483,0 18.3197,-34.16362,0 18.31892,-34.16254,0 18.31819,-34.16148,0 18.31736,-34.16026,0 18.31645,-34.15892,0 18.31581,-34.15794,0 18.31501,-34.15664,0 18.31427,-34.15538,0 18.31359,-34.15425,0 18.31297,-34.15315,0 18.3123,-34.15164,0 18.31181,-34.15054,0 18.31118,-34.14904,0 18.31073,-34.1478,0 18.31034,-34.14661,0 18.31006,-34.14546,0 18.30992,-34.14411,0 18.31006,-34.14294,0 18.3104,-34.14185,0 18.31089,-34.14062,0 18.31124,-34.13979,0 18.31174,-34.13837,0 18.31192,-34.13722,0 18.31203,-34.13601,0 18.31202,-34.13448,0 18.31202,-34.13365,0 18.31191,-34.1321,0 18.31181,-34.13057,0 18.31169,-34.12912,0 18.31152,-34.12801,0 18.31135,-34.12647,0 18.31118,-34.12527,0 18.31101,-34.12404,0 18.31085,-34.12289,0 18.31057,-34.12143,0 18.31038,-34.12023,0 18.31015,-34.11897,0 18.30986,-34.11758,0 18.30957,-34.11641,0 18.30929,-34.11502,0 18.30905,-34.11378,0 18.30827,-34.11021,0 18.3074,-34.10622,0 18.3062,-34.10119,0 18.30511,-34.09695,0 18.30414,-34.09314,0 18.30277,-34.08778,0 18.30179,-34.08383,0 18.30025,-34.07835,0 18.2991,-34.07414,0 18.29784,-34.06898,0 18.29711,-34.06622,0 18.29678,-34.0648,0 18.29647,-34.06343,0 18.29616,-34.06201,0 18.29594,-34.06082,0 18.29566,-34.05936,0 18.29538,-34.05794,0 18.29521,-34.05698,0 18.29498,-34.05542,0 18.29482,-34.054,0 18.29465,-34.05272,0 18.29453,-34.05124,0 18.29442,-34.05025,0 18.29437,-34.04869,0 18.29431,-34.0475,0 18.29425,-34.04594,0 18.29425,-34.04471,0 18.2943,-34.04361,0 18.29435,-34.04244,0 18.29447,-34.04067,0 18.29459,-34.03944,0 18.29475,-34.03807,0 18.29504,-34.03685,0 18.29533,-34.03546,0 18.29561,-34.03429,0 18.29601,-34.03294,0 18.29641,-34.03183,0 18.29693,-34.03053,0 18.29739,-34.02945,0 18.29819,-34.0281,0 18.29865,-34.02736,0 18.29956,-34.02615,0 18.3003,-34.02512,0 18.30305,-34.02145,0 18.30378,-34.02036,0 18.30457,-34.01921,0 18.30541,-34.01793,0 18.30608,-34.01692,0 18.30821,-34.0139,0 18.31062,-34.01047,0 18.31329,-34.00683,0 18.31415,-34.00581,0 18.31494,-34.00479,0 18.31604,-34.00338,0 18.31673,-34.0025,0 18.31763,-34.00136,0 18.31841,-34.0004,0 18.31913,-33.99947,0 18.32016,-33.99812,0 18.32113,-33.99687,0 18.32166,-33.99623,0 18.32502,-33.99231,0 18.32592,-33.99133,0 18.32697,-33.9903,0 18.33189,-33.98616,0 18.33515,-33.98467,0 18.3383,-33.98346,0 18.34156,-33.98215,0 18.34448,-33.98067,0 18.34728,-33.97893,0 18.35014,-33.97704,0 18.35283,-33.97595,0 18.35541,-33.97449,0 18.35655,-33.97187,0 18.3567,-33.96895,0 18.35672,-33.96568,0 18.35681,-33.96249,0 18.35709,-33.95929,0 18.35737,-33.95641,0 18.35758,-33.95409,0 18.35776,-33.95164,0 18.35787,-33.95073,0 18.35793,-33.94981,0 18.35821,-33.94771,0 18.35844,-33.94645,0 18.35873,-33.94501,0 18.35896,-33.94375,0 18.35916,-33.94249,0 18.35939,-33.94144,0 18.35967,-33.94029,0 18.36,-33.93878,0 18.36033,-33.93761,0 18.36068,-33.9364,0 18.36096,-33.93546,0 18.36153,-33.93407,0 18.36197,-33.93311,0 18.36233,-33.93221,0 18.3629,-33.93085,0 18.36337,-33.92986,0 18.36393,-33.92867,0 18.3646,-33.92729,0 18.3651,-33.92624,0 18.36572,-33.925,0 18.36634,-33.92373,0 18.36695,-33.92253,0 18.36748,-33.92154,0 18.36823,-33.9202,0 18.3688,-33.91912,0 18.36942,-33.91805,0 18.37,-33.91703,0 18.37065,-33.91594,0 18.3712,-33.91494,0 18.372,-33.91365,0 18.37278,-33.91246,0 18.37349,-33.9114,0 18.37419,-33.91035,0 18.37491,-33.9093,0 18.37566,-33.90833,0 18.37635,-33.90734,0 18.37704,-33.90641,0 18.37778,-33.90553,0 18.3787,-33.90446,0 18.3795,-33.90353,0 18.38036,-33.90246,0 18.38116,-33.90148,0 18.38198,-33.90051,0 18.38282,-33.89951,0 18.38356,-33.89869,0 18.38425,-33.8979,0 18.38528,-33.8968,0 18.38618,-33.89584,0 18.38699,-33.89506,0 18.38797,-33.89413,0 18.38888,-33.89333,0 18.38968,-33.89259,0 18.39078,-33.89172,0 18.39197,-33.89077,0 18.39291,-33.89012,0 18.39408,-33.8893,0 18.39506,-33.88863,0 18.39616,-33.88797,0 18.39712,-33.88742,0 18.39857,-33.8866,0 18.39958,-33.88607,0 18.40073,-33.88551,0 18.4021,-33.8849,0 18.4033,-33.8844,0 18.40445,-33.88394,0 18.40582,-33.88346,0 18.40709,-33.88307,0 18.40821,-33.8828,0 18.40928,-33.88252,0 18.41045,-33.88229,0 18.41194,-33.88207,0 18.41348,-33.88188,0 18.41463,-33.88179,0 18.41589,-33.88174,0 18.41721,-33.88169,0 18.41841,-33.88169,0 18.41978,-33.88174,0 18.42098,-33.88184,0 18.42239,-33.88206,0 18.42367,-33.8823,0 18.42516,-33.88268,0 18.42637,-33.88298,0 18.42756,-33.88337,0 18.42876,-33.88379,0 18.42997,-33.88426,0 18.4313,-33.88486,0 18.43231,-33.88536,0 18.43327,-33.88586,0 18.43454,-33.88649,0 18.4358,-33.8871,0 18.43683,-33.88761,0 18.43781,-33.88811,0 18.43918,-33.88877,0 18.44022,-33.88934,0 18.44112,-33.88984,0 18.44198,-33.8904,0 18.44313,-33.89115,0 18.44414,-33.89191,0 18.44479,-33.89254,0 18.4456,-33.89355,0 18.44616,-33.89452,0 18.44655,-33.89561,0 18.44662,-33.89645,0 18.44644,-33.89754,0 18.44599,-33.89832,0 18.44501,-33.89911,0 18.44404,-33.89948,0 18.44273,-33.89976,0 18.44164,-33.89981,0 18.44049,-33.89976,0 18.43952,-33.89971,0 18.43861,-33.89967,0 18.43763,-33.89957,0 18.43657,-33.89951,0 18.43567,-33.89946,0 18.43489,-33.89943,0 18.43391,-33.89943,0 18.43304,-33.89941,0 18.43208,-33.89939,0 18.43142,-33.89941,0 18.43111,-33.89939,0 18.43048,-33.89939,0 18.43019,-33.89939,0 18.42854,-33.89957,0 18.42828,-33.89964,0 18.42802,-33.89971,0 18.42766,-33.89996,0 18.42751,-33.90022,0 18.42738,-33.90047,0 18.42766,-33.90051,0 18.42794,-33.9006,0 18.42825,-33.90069,0 18.4294,-33.90097,0 18.42985,-33.90097,0 18.43063,-33.90097,0 18.43102,-33.90092,0 18.43147,-33.90088,0 18.43208,-33.90083,0 18.43254,-33.90078,0 18.433,-33.90074,0 18.43409,-33.90064,0 18.43512,-33.90055,0 18.43601,-33.90051,0 18.43695,-33.90051,0 18.43809,-33.9006,0 18.43895,-33.90074,0 18.43999,-33.90097,0 18.44066,-33.90115,0 18.44215,-33.90157,0 18.44285,-33.90179,0 18.44387,-33.90213,0 18.44481,-33.90248,0 18.44582,-33.90288,0 18.44673,-33.9033,0 18.4475,-33.90376,0 18.44828,-33.90427,0 18.44908,-33.90474,0 18.45003,-33.90536,0 18.45074,-33.90586,0 18.45148,-33.90637,0 18.45249,-33.90701,0 18.45331,-33.90758,0 18.45411,-33.90814,0 18.45514,-33.90884,0 18.45612,-33.90953,0 18.45692,-33.91009,0 18.45795,-33.91079,0 18.45871,-33.91141,0 18.45944,-33.91196,0 18.46041,-33.91265,0 18.46115,-33.91321,0 18.46207,-33.91396,0 18.46292,-33.91461,0 18.46387,-33.91534,0 18.46477,-33.91603,0 18.46577,-33.91681,0 18.46659,-33.91745,0 18.46756,-33.91819,0 18.46858,-33.91905,0 18.46939,-33.91968,0 18.47031,-33.92052,0 18.47094,-33.92117,0 18.47172,-33.92198,0 18.47248,-33.9228,0 18.47334,-33.92378,0 18.47401,-33.92459,0 18.47466,-33.92541,0 18.47546,-33.92643,0 18.47609,-33.92725,0 18.47687,-33.92839,0 18.47752,-33.92927,0 18.47809,-33.93016,0 18.47872,-33.93113,0 18.47929,-33.93197,0 18.47996,-33.93311,0 18.48049,-33.93402,0 18.48113,-33.93517,0 18.4817,-33.93626,0 18.48214,-33.93723,0 18.48261,-33.9384,0 18.48295,-33.93937,0 18.48326,-33.94057,0 18.48347,-33.94156,0 18.48364,-33.94268,0 18.48375,-33.94366,0 18.48392,-33.94496,0 18.48404,-33.9464,0 18.4841,-33.94775,0 18.48416,-33.94881,0 18.48415,-33.94994,0 18.48415,-33.95101,0 18.4841,-33.95206,0 18.48405,-33.95329,0 18.48398,-33.95436,0 18.48382,-33.95572,0 18.48371,-33.95677,0 18.48358,-33.95786,0 18.48343,-33.95906,0 18.48324,-33.96028,0 18.48312,-33.9613,0 18.48301,-33.96242,0 18.48293,-33.9635,0 18.48281,-33.96469,0 18.48276,-33.96574,0 18.48272,-33.96684,0 18.48272,-33.96786,0 18.48276,-33.96895,0 18.48276,-33.97018,0 18.48278,-33.97145,0 18.48289,-33.9728,0 18.48295,-33.97368,0 18.4831,-33.97504,0 18.48318,-33.97601,0 18.48332,-33.9771,0 18.48341,-33.97839,0 18.48352,-33.97941,0 18.48364,-33.98053,0 18.4837,-33.98155,0 18.48381,-33.98272,0 18.48392,-33.98402,0 18.48398,-33.98495,0 18.4841,-33.98598,0 18.48433,-33.98718,0 18.4845,-33.98817,0 18.48478,-33.98923,0 18.48507,-33.99002,0 18.48547,-33.99096,0 18.4861,-33.99207,0 18.48661,-33.99277,0 18.4873,-33.99353,0 18.48804,-33.99421,0 18.48925,-33.99496,0 18.49028,-33.99542,0 18.49139,-33.99568,0 18.49268,-33.99586,0 18.49417,-33.9958,0 18.49554,-33.99566,0 18.49694,-33.99541,0 18.49829,-33.99509,0 18.49957,-33.9949,0 18.50092,-33.99477,0 18.50218,-33.99477,0 18.50344,-33.99495,0 18.50462,-33.99536,0 18.50578,-33.99603,0 18.50647,-33.99668,0 18.50703,-33.9977,0 18.50733,-33.99887,0 18.5072,-33.99976,0 18.50681,-34.00076,0 18.50595,-34.0018,0 18.50484,-34.00259,0 18.50372,-34.00311,0 18.50235,-34.00343,0 18.50098,-34.00346,0 18.49935,-34.00319,0 18.498,-34.00259,0 18.49686,-34.0019,0 18.49588,-34.00095,0 18.4952,-33.99989,0 18.4947,-33.99847,0 18.49459,-33.99751,0 18.49475,-33.99623,0 18.49537,-33.99477,0 18.49588,-33.99399,0 18.497,-33.99289,0 18.49806,-33.99221,0 18.49915,-33.99174,0 18.50023,-33.99147,0 18.50159,-33.99138,0 18.50271,-33.99152,0 18.50372,-33.99184,0 18.50462,-33.99229,0 18.50533,-33.99277,0 18.50585,-33.9933,0 18.50636,-33.99407,0 18.50658,-33.99477,0 18.50669,-33.9955,0 18.50658,-33.99631,0 18.5063,-33.99701,0 18.50591,-33.99765,0 18.50533,-33.99821,0 18.50458,-33.99868,0 18.50355,-33.99905,0 18.50243,-33.99916,0 18.50143,-33.9991,0 18.50019,-33.99879,0 18.49909,-33.99826,0 18.49817,-33.99751,0 18.49743,-33.99631,0 18.49722,-33.9955,0 18.4972,-33.99426,0 18.49749,-33.99324,0 18.49812,-33.99211,0 18.49896,-33.99129,0 18.49957,-33.99078,0 18.50075,-33.9901,0 18.50204,-33.98964,0 18.50309,-33.98951,0 18.50417,-33.98946,0 18.50513,-33.98959,0 18.50624,-33.98987,0 18.50716,-33.99026,0 18.50807,-33.99086,0 18.50877,-33.99147,0 18.50927,-33.99216,0 18.50972,-33.99307,0 18.50985,-33.99403,0 18.50983,-33.99477,0 18.50962,-33.99556,0 18.50933,-33.99623,0 18.50877,-33.99696,0 18.50821,-33.99751,0 18.50739,-33.99798,0 18.50658,-33.99826,0 18.50557,-33.99843,0 18.50445,-33.99829,0 18.50356,-33.99802,0 18.5026,-33.99747,0 18.50195,-33.99687,0 18.50142,-33.99619,0 18.50103,-33.99519,0 18.50098,-33.99435,0 18.50109,-33.99342,0 18.50143,-33.99258,0 18.50187,-33.99193,0 18.50255,-33.99129,0 18.50332,-33.99077,0 18.50418,-33.99039,0 18.50504,-33.99012,0 18.50585,-33.98991,0 18.50675,-33.98969,0 18.50779,-33.98951,0 18.50894,-33.98927,0 18.50996,-33.98904,0 18.51073,-33.98891,0 18.51208,-33.98868,0 18.51299,-33.98853,0 18.51443,-33.98836,0 18.51557,-33.98816,0 18.51678,-33.98804,0 18.51796,-33.9879,0 18.51923,-33.98779,0 18.5206,-33.98765,0 18.52177,-33.98753,0 18.52317,-33.9874,0 18.52455,-33.98723,0 18.52564,-33.98717,0 18.52684,-33.98705,0 18.52811,-33.98689,0 18.52945,-33.9868,0 18.5309,-33.98667,0 18.53214,-33.98653,0 18.53332,-33.98643,0 18.53468,-33.98635,0 18.53983,-33.98588,0 18.54338,-33.98551,0 18.54744,-33.98495,0 18.54868,-33.98479,0 18.55265,-33.9843,0 18.55383,-33.98415,0 18.55501,-33.98401,0 18.55658,-33.98383,0 18.55762,-33.98369,0 18.55916,-33.98355,0 18.56026,-33.98346,0 18.56398,-33.98309,0 18.56524,-33.98304,0 18.56678,-33.98295,0 18.56804,-33.9829,0 18.56924,-33.98285,0 18.5705,-33.98276,0 18.57199,-33.98272,0 18.57473,-33.98257,0 18.57725,-33.98248,0 18.57861,-33.98241,0 18.57956,-33.98236,0 18.58109,-33.98225,0 18.58231,-33.98222,0 18.58371,-33.98218,0 18.5848,-33.98215,0 18.58584,-33.98218,0 18.58692,-33.9822,0 18.58824,-33.98239,0 18.58915,-33.98262,0 18.58999,-33.98296,0 18.5907,-33.98341,0 18.59122,-33.98392,0 18.59145,-33.98451,0 18.59139,-33.98538,0 18.59093,-33.98597,0 18.59021,-33.98634,0 18.58932,-33.98653,0 18.58847,-33.98643,0 18.5873,-33.98616,0 18.58646,-33.98579,0 18.58573,-33.98538,0 18.58492,-33.98486,0 18.58422,-33.98424,0 18.58371,-33.98364,0 18.58326,-33.98285,0 18.58309,-33.98195,0 18.58309,-33.9814,0 18.58332,-33.98071,0 18.58365,-33.98016,0 18.58429,-33.9796,0 18.58483,-33.97929,0 18.5855,-33.97911,0 18.58641,-33.97904,0 18.58709,-33.97904,0 18.58791,-33.97911,0 18.58864,-33.97927,0 18.58937,-33.97952,0 18.59004,-33.97993,0 18.59058,-33.98039,0 18.5911,-33.98085,0 18.5915,-33.98126,0 18.59195,-33.98177,0 18.59253,-33.98234,0 18.59293,-33.98281,0 18.59287,-33.98337,0 18.5924,-33.98364,0 18.59145,-33.98351,0 18.59077,-33.983,0 18.59021,-33.98213,0 18.58993,-33.98135,0 18.58978,-33.98039,0 18.58973,-33.97932,0 18.58973,-33.97811,0 18.58971,-33.97696,0 18.58971,-33.97586,0 18.58967,-33.97466,0 18.58967,-33.97326,0 18.58961,-33.97201,0 18.5896,-33.97078,0 18.58961,-33.96931,0 18.58965,-33.96803,0 18.58967,-33.96689,0 18.58973,-33.96582,0 18.58988,-33.96465,0 18.59021,-33.96318,0 18.5906,-33.96208,0 18.59117,-33.96098,0 18.5919,-33.96,0 18.59299,-33.95883,0 18.59402,-33.95801,0 18.59481,-33.95741,0 18.59596,-33.95674,0 18.59739,-33.95609,0 18.59868,-33.95558,0 18.59991,-33.95512,0 18.60126,-33.95476,0 18.60266,-33.95436,0 18.60392,-33.95409,0 18.60535,-33.95376,0 18.60632,-33.95353,0 18.60787,-33.9532,0 18.60878,-33.95301,0 18.6105,-33.95269,0 18.61174,-33.95247,0 18.61314,-33.95219,0 18.61437,-33.95201,0 18.61559,-33.95185,0 18.61684,-33.95169,0 18.61841,-33.95151,0 18.61948,-33.95139,0 18.62074,-33.95124,0 18.62199,-33.9511,0 18.62351,-33.95091,0 18.62469,-33.95073,0 18.62595,-33.95059,0 18.62715,-33.95041,0 18.62878,-33.95018,0 18.62995,-33.95004,0 18.63152,-33.94986,0 18.63276,-33.94972,0 18.63393,-33.94954,0 18.63517,-33.9494,0 18.63685,-33.94917,0 18.63803,-33.94904,0 18.63928,-33.94887,0 18.64419,-33.94826,0 18.6482,-33.94771,0 18.65378,-33.94684,0 18.65904,-33.94588,0 18.66291,-33.94515,0 18.66538,-33.94464,0 18.66667,-33.94441,0 18.66817,-33.94412,0 18.66983,-33.94384,0 18.6739,-33.94319,0 18.67544,-33.94296,0 18.67665,-33.94276,0 18.67788,-33.94258,0 18.67928,-33.94235,0 18.68063,-33.94212,0 18.68225,-33.94189,0 18.68376,-33.94167,0 18.685,-33.94152,0 18.68626,-33.94133,0 18.68774,-33.94116,0 18.689,-33.94101,0 18.69038,-33.94086,0 18.69565,-33.94034,0 18.69716,-33.9402,0 18.69879,-33.94011,0 18.70016,-33.94003,0 18.70153,-33.93997,0 18.70274,-33.93989,0 18.70406,-33.93993,0 18.7054,-33.94002,0 18.70669,-33.9402,0 18.70831,-33.94048,0 18.70955,-33.9407,0 18.71073,-33.94093,0 18.71195,-33.94114,0 18.71321,-33.94133,0 18.71476,-33.94148,0 18.71633,-33.94153,0 18.71761,-33.94147,0 18.71887,-33.94138,0 18.72009,-33.94125,0 18.72171,-33.94102,0 18.72322,-33.94084,0 18.72446,-33.9407,0 18.72586,-33.94052,0 18.72721,-33.94029,0 18.72849,-33.94011,0 18.72986,-33.93989,0 18.73106,-33.9397,0 18.73242,-33.93947,0 18.73415,-33.93919,0 18.73545,-33.93901,0 18.73673,-33.93883,0 18.7383,-33.9386,0 18.73959,-33.93846,0 18.74122,-33.93828,0 18.74256,-33.93816,0 18.74391,-33.93805,0 18.74559,-33.93789,0 18.74699,-33.93773,0 18.74823,-33.93761,0 18.74974,-33.93745,0 18.75142,-33.93727,0 18.75326,-33.937,0 18.75467,-33.93686,0 18.7563,-33.93663,0 18.76047,-33.93612,0 18.76608,-33.93537,0 18.77087,-33.93471,0 18.77415,-33.93425,0 18.77563,-33.93402,0 18.77704,-33.93384,0 18.77815,-33.9337,0 18.78017,-33.93347,0 18.78146,-33.93329,0 18.78326,-33.93311,0 18.78485,-33.9329,0 18.78657,-33.93279,0 18.78799,-33.93262,0 18.78948,-33.93244,0 18.79148,-33.93221,0 18.79257,-33.93211,0 18.79453,-33.93187,0 18.79632,-33.93164,0 18.8008,-33.93105,0 18.80562,-33.93034,0 18.80733,-33.93002,0 18.80904,-33.92967,0 18.81056,-33.9294,0 18.81224,-33.92903,0 18.81364,-33.92871,0 18.81495,-33.92844,0 18.81666,-33.92806,0 18.81857,-33.9277,0 18.81997,-33.92743,0 18.82177,-33.92706,0 18.82356,-33.92674,0 18.82463,-33.92651,0 18.82919,-33.92569,0 18.83091,-33.92541,0 18.83242,-33.92509,0 18.83371,-33.92487,0 18.83537,-33.92457,0 18.83698,-33.92434,0 18.83853,-33.92409,0 18.83995,-33.92392,0 18.84172,-33.92369,0 18.84281,-33.92359,0 18.84459,-33.92341,0 18.84598,-33.92331,0 18.84761,-33.92317,0 18.84876,-33.92308,0 18.85048,-33.92289,0 18.85174,-33.9228,0 18.85327,-33.92271,0 18.85494,-33.92262,0 18.8559,-33.92253,0 18.85792,-33.92244,0 18.85943,-33.92235,0 18.86078,-33.9223,0 18.86221,-33.92225,0 18.86381,-33.9222,0 18.86543,-33.92216,0 18.86713,-33.92215,0 18.86856,-33.9221,0 18.86992,-33.92207,0 18.87171,-33.92206,0 18.87302,-33.92201,0 18.87428,-33.92201,0 18.876,-33.92196,0 18.87766,-33.92192,0 18.87915,-33.92187,0 18.88073,-33.9218,0 18.88225,-33.92175,0 18.88359,-33.92171,0 18.8846,-33.92166,0 18.88887,-33.92145,0 18.89301,-33.9213,0 18.89694,-33.92117,0 18.90091,-33.92093,0 18.90621,-33.92066,0 18.91005,-33.92043,0 18.91386,-33.9202,0 18.91655,-33.91992,0 18.91806,-33.91974,0 18.91947,-33.91951,0 18.92086,-33.91927,0 18.92178,-33.91917,0 18.92332,-33.91917,0 18.92445,-33.91933,0 18.92541,-33.91965,0 18.92636,-33.9202,0 18.92721,-33.92103,0 18.92767,-33.92187,0 18.92784,-33.92271,0 18.92782,-33.92363,0 18.9275,-33.92434,0 18.92675,-33.92513,0 18.92601,-33.9255,0 18.92532,-33.92559,0 18.92378,-33.92487,0 18.92356,-33.9245,0 18.92338,-33.9242,0 18.92326,-33.92392,0 18.92321,-33.92364,0 18.92309,-33.92336,0 18.92303,-33.92313,0 18.92303,-33.92285,0 18.92283,-33.92267,0 18.92216,-33.92276,0 18.92148,-33.9229,0 18.92081,-33.92294,0 18.92006,-33.92289,0 18.9192,-33.92257,0 18.91834,-33.92212,0 18.91766,-33.92168,0 18.91683,-33.92097,0 18.91617,-33.92038,0 18.91554,-33.91974,0 18.9147,-33.91882,0 18.91409,-33.91814,0 18.91348,-33.91745,0 18.91268,-33.91661,0 18.91205,-33.91587,0 18.91134,-33.91507,0 18.9105,-33.91406,0 18.90982,-33.91319,0 18.90919,-33.91242,0 18.90844,-33.91149,0 18.90776,-33.9107,0 18.90691,-33.90967,0 18.9061,-33.90879,0 18.90557,-33.90811,0 18.90467,-33.90697,0 18.90388,-33.90587,0 18.90312,-33.90474,0 18.90248,-33.90381,0 18.90186,-33.90283,0 18.90114,-33.90175,0 18.90026,-33.90051,0 18.89957,-33.89955,0 18.89884,-33.89864,0 18.89811,-33.89767,0 18.89738,-33.89676,0 18.89643,-33.89561,0 18.89559,-33.89461,0 18.8946,-33.89343,0 18.89379,-33.89241,0 18.89288,-33.89124,0 18.89194,-33.89003,0 18.8911,-33.88889,0 18.89032,-33.88792,0 18.88965,-33.88692,0 18.88887,-33.88589,0 18.88796,-33.88467,0 18.88716,-33.88351,0 18.8847,-33.88016,0 18.88376,-33.87891,0 18.88303,-33.87804,0 18.88206,-33.877,0 18.88096,-33.87598,0 18.87972,-33.87509,0 18.87866,-33.87437,0 18.8772,-33.87364,0 18.87606,-33.87318,0 18.87446,-33.87263,0 18.87322,-33.87231,0 18.87182,-33.87204,0 18.8702,-33.87181,0 18.8689,-33.87169,0 18.86739,-33.87158,0 18.86554,-33.87144,0 18.86414,-33.87135,0 18.86313,-33.87131,0 18.86173,-33.87131,0 18.86005,-33.87144,0 18.85871,-33.87163,0 18.85702,-33.87199,0 18.8558,-33.87229,0 18.85428,-33.87277,0 18.85277,-33.87332,0 18.85157,-33.87383,0 18.85047,-33.87437,0 18.84928,-33.87495,0 18.84802,-33.8756,0 18.84665,-33.87625,0 18.84533,-33.877,0 18.84447,-33.87746,0 18.84295,-33.87827,0 18.8419,-33.87881,0 18.84071,-33.87936,0 18.83926,-33.88002,0 18.83812,-33.88053,0 18.83686,-33.88105,0 18.83514,-33.88179,0 18.834,-33.88226,0 18.83245,-33.88291,0 18.83152,-33.8833,0 18.83012,-33.8839,0 18.82851,-33.88458,0 18.82748,-33.88504,0 18.82599,-33.8856,0 18.82474,-33.88609,0 18.82373,-33.88641,0 18.82204,-33.88696,0 18.82078,-33.88733,0 18.81952,-33.8877,0 18.81824,-33.88806,0 18.81672,-33.88847,0 18.81552,-33.88882,0 18.81403,-33.88916,0 18.81289,-33.88947,0 18.81134,-33.88985,0 18.80997,-33.89022,0 18.80882,-33.89053,0 18.80719,-33.89095,0 18.80596,-33.89127,0 18.80442,-33.89166,0 18.80333,-33.89191,0 18.80176,-33.89214,0 18.80019,-33.89223,0 18.79898,-33.89217,0 18.79766,-33.89204,0 18.79618,-33.89175,0 18.79486,-33.89143,0 18.79337,-33.89101,0 18.792,-33.89058,0 18.79091,-33.89026,0 18.7896,-33.88984,0 18.78791,-33.88939,0 18.78662,-33.889,0 18.78531,-33.88868,0 18.78405,-33.88835,0 18.78262,-33.88798,0 18.78124,-33.8877,0 18.77962,-33.88728,0 18.77821,-33.887,0 18.77678,-33.88668,0 18.77558,-33.88646,0 18.77398,-33.88612,0 18.77278,-33.88586,0 18.77138,-33.88554,0 18.76975,-33.88527,0 18.76814,-33.885,0 18.76683,-33.88486,0 18.76511,-33.88467,0 18.76369,-33.88458,0 18.76224,-33.88454,0 18.76087,-33.88454,0 18.75944,-33.88454,0 18.75767,-33.88458,0 18.75612,-33.88467,0 18.75492,-33.88477,0 18.75321,-33.88504,0 18.75192,-33.88527,0 18.75029,-33.88565,0 18.74884,-33.88605,0 18.74754,-33.8864,0 18.74599,-33.88686,0 18.74464,-33.88724,0 18.74318,-33.88765,0 18.7417,-33.88807,0 18.74038,-33.88852,0 18.73931,-33.88879,0 18.7378,-33.8893,0 18.73661,-33.8897,0 18.73528,-33.89012,0 18.73375,-33.89063,0 18.73215,-33.89119,0 18.73096,-33.89159,0 18.72837,-33.8925,0 18.72705,-33.89296,0 18.72552,-33.89351,0 18.72423,-33.89397,0 18.72278,-33.89447,0 18.72182,-33.89484,0 18.71733,-33.89645,0 18.71599,-33.89694,0 18.71475,-33.89743,0 18.71347,-33.89786,0 18.71229,-33.89832,0 18.71092,-33.89883,0 18.70691,-33.90038,0 18.70565,-33.90088,0 18.70411,-33.90152,0 18.70277,-33.90207,0 18.7017,-33.90253,0 18.70058,-33.90298,0 18.69912,-33.90363,0 18.69804,-33.90404,0 18.69666,-33.90459,0 18.69576,-33.90491,0 18.69441,-33.90541,0 18.69329,-33.90587,0 18.69212,-33.90628,0 18.68769,-33.90797,0 18.68651,-33.90848,0 18.68219,-33.91023,0 18.67833,-33.91182,0 18.67327,-33.91396,0 18.66852,-33.91603,0 18.66594,-33.91704,0 18.66446,-33.9175,0 18.66319,-33.91786,0 18.66188,-33.91819,0 18.66056,-33.91852,0 18.6591,-33.91873,0 18.65748,-33.91887,0 18.65568,-33.91891,0 18.65445,-33.91887,0 18.65273,-33.91875,0 18.65152,-33.91861,0 18.64985,-33.91841,0 18.64855,-33.91824,0 18.647,-33.91805,0 18.64552,-33.91782,0 18.64369,-33.91759,0 18.6426,-33.9174,0 18.64082,-33.91712,0 18.63954,-33.9169,0 18.63773,-33.91666,0 18.6363,-33.91642,0 18.63489,-33.91617,0 18.63316,-33.91587,0 18.62915,-33.91521,0 18.62286,-33.91419,0 18.61788,-33.91359,0 18.6165,-33.91347,0 18.61502,-33.91335,0 18.61336,-33.91321,0 18.61185,-33.91301,0 18.61078,-33.91289,0 18.60884,-33.91261,0 18.60775,-33.91242,0 18.60602,-33.91209,0 18.60432,-33.91182,0 18.60305,-33.91164,0 18.60157,-33.9114,0 18.60025,-33.91121,0 18.59859,-33.91093,0 18.59734,-33.91074,0 18.59576,-33.91045,0 18.59408,-33.91017,0 18.59287,-33.90995,0 18.59145,-33.90976,0 18.58973,-33.90963,0 18.58847,-33.90953,0 18.58679,-33.90958,0 18.58555,-33.90963,0 18.58395,-33.90981,0 18.58237,-33.91008,0 18.58108,-33.91031,0 18.57979,-33.91058,0 18.57833,-33.911,0 18.57702,-33.91135,0 18.57594,-33.91172,0 18.57416,-33.91237,0 18.57306,-33.91278,0 18.57166,-33.91338,0 18.57079,-33.91372,0 18.56936,-33.91434,0 18.56802,-33.91498,0 18.56695,-33.91549,0 18.56552,-33.91619,0 18.56443,-33.91676,0 18.56319,-33.91736,0 18.56168,-33.91818,0 18.56089,-33.91861,0 18.55961,-33.91933,0 18.55831,-33.92006,0 18.55762,-33.92048,0 18.55602,-33.92141,0 18.55495,-33.92207,0 18.55413,-33.92257,0 18.55266,-33.92349,0 18.55182,-33.924,0 18.55047,-33.92487,0 18.54957,-33.92542,0 18.54692,-33.92704,0 18.54588,-33.92766,0 18.54481,-33.9283,0 18.5412,-33.93053,0 18.53788,-33.93258,0 18.53679,-33.93324,0 18.53556,-33.93407,0 18.53455,-33.93471,0 18.53348,-33.93537,0 18.53119,-33.93681,0 18.5269,-33.93951,0 18.52341,-33.94152,0 18.52261,-33.94189,0 18.52077,-33.94258,0 18.51964,-33.94299,0 18.51818,-33.94336,0 18.517,-33.94357,0 18.51538,-33.94373,0 18.51404,-33.94373,0 18.51308,-33.94363,0 18.51122,-33.94333,0 18.5099,-33.943,0 18.50843,-33.94263,0 18.5071,-33.94226,0 18.50555,-33.94175,0 18.50428,-33.94121,0 18.50304,-33.94063,0 18.50126,-33.93974,0 18.50019,-33.9391,0 18.49874,-33.93826,0 18.49784,-33.93764,0 18.4964,-33.93668,0 18.49554,-33.93608,0 18.49403,-33.93503,0 18.49268,-33.93411,0 18.49162,-33.93333,0 18.49049,-33.93256,0 18.48948,-33.93183,0 18.48814,-33.93082,0 18.48701,-33.92997,0 18.48545,-33.9288,0 18.48433,-33.92798,0 18.48324,-33.92709,0 18.48186,-33.92601,0 18.48074,-33.92514,0 18.47951,-33.92409,0 18.47855,-33.92322,0 18.4774,-33.9221,0 18.4762,-33.92097,0 18.47519,-33.92001,0 18.47424,-33.9191,0 18.47312,-33.918,0 18.47194,-33.9169,0 18.47088,-33.91589,0 18.46987,-33.91502,0 18.46853,-33.91386,0 18.46739,-33.91293,0 18.46617,-33.912,0 18.46504,-33.91116,0 18.46393,-33.91049,0 18.46281,-33.90991,0 18.46135,-33.9093,0 18.46001,-33.90893,0 18.45843,-33.90862,0 18.4568,-33.90856,0 18.45566,-33.90865,0 18.45434,-33.90893,0 18.45333,-33.9093,0 18.45255,-33.90967,0 18.45154,-33.91032,0 18.45068,-33.91107,0 18.45005,-33.91172,0 18.44946,-33.91246,0 18.44879,-33.91342,0 18.44823,-33.9142,0 18.44759,-33.91521,0 18.44696,-33.91615,0 18.44644,-33.91685,0 18.44599,-33.91759,0 18.4457,-33.91805,0 18.4452,-33.91891,0 18.44479,-33.91964,0 18.44431,-33.92047,0 18.44393,-33.92108,0 18.44335,-33.92203,0 18.44285,-33.9229,0 18.4425,-33.92359,0 18.44227,-33.92443,0 18.44218,-33.92523,0 18.44212,-33.92601,0 18.44195,-33.92665,0 18.4417,-33.92718,0 18.44123,-33.92766,0 18.44049,-33.92802,0 18.43946,-33.92806,0 18.4387,-33.92789,0 18.43798,-33.92751,0 18.43736,-33.92697,0 18.43689,-33.9262,0 18.43678,-33.92546,0 18.43683,-33.92471,0 18.43729,-33.9235,0 18.43781,-33.92262,0 18.43826,-33.92196,0 18.43895,-33.92094,0 18.43954,-33.9201,0 18.44038,-33.91898,0 18.441,-33.91823,0 18.44187,-33.91717,0 18.4425,-33.91647,0 18.44352,-33.9153,0 18.44433,-33.91442,0 18.44513,-33.91363,0 18.44599,-33.91279,0 18.44696,-33.91186,0 18.44773,-33.91109,0 18.44857,-33.91013,0 18.44924,-33.90912,0 18.44963,-33.90829,0 18.44991,-33.9072,0 18.45003,-33.90614,0 18.44994,-33.90497,0 18.44965,-33.90381,0 18.4493,-33.90276,0 18.44891,-33.90176,0 18.44834,-33.90033,0 18.44778,-33.89919,0 18.44725,-33.89808,0 18.44661,-33.89703,0 18.44604,-33.89598,0 18.44532,-33.89474,0 18.44473,-33.89375,0 18.44416,-33.89273,0 18.44341,-33.89149,0 18.44285,-33.89067,0 18.44201,-33.88943,0 18.44123,-33.88847,0 18.44044,-33.88752,0 18.43958,-33.88663,0 18.43853,-33.88554,0 18.43758,-33.88467,0 18.43663,-33.8839,0 18.43534,-33.88291,0 18.43422,-33.8822,0 18.4327,-33.88129,0 18.4317,-33.88074,0 18.43037,-33.88011,0 18.42916,-33.8796,0 18.42788,-33.87909,0 18.42632,-33.87859,0 18.42503,-33.87827,0 18.42402,-33.87797,0 18.42258,-33.87769,0 18.42133,-33.87744,0 18.4199,-33.87723,0 18.41869,-33.87703,0 18.41707,-33.87685,0 18.41544,-33.8768,0 18.41421,-33.87689,0 18.41286,-33.87712,0 18.41177,-33.87751,0 18.41108,-33.87793,0 18.41028,-33.87863,0 18.40978,-33.87946,0 18.4096,-33.88025,0 18.40971,-33.88109,0 18.41011,-33.88174,0 18.41056,-33.88229,0 18.41152,-33.88284,0 18.41213,-33.88316,0 18.41303,-33.88351,0 18.41359,-33.88371,0 18.41443,-33.88403,0 18.41537,-33.8844,0 18.41611,-33.88472,0 18.41669,-33.885,0 18.41743,-33.88537,0 18.41802,-33.88568,0 18.41858,-33.88607,0 18.41898,-33.88654,0 18.41921,-33.887,0 18.4192,-33.88751,0 18.41891,-33.88815,0 18.41829,-33.88868,0 18.41763,-33.88898,0 18.41669,-33.88919,0 18.41566,-33.88925,0 18.41432,-33.88911,0 18.4132,-33.88887,0 18.41168,-33.88852,0 18.41062,-33.88824,0 18.40916,-33.88788,0 18.40805,-33.88761,0 18.40664,-33.88728,0 18.40525,-33.88696,0 18.40372,-33.88669,0 18.40244,-33.88644,0 18.40115,-33.88628,0 18.40014,-33.88609,0 18.39855,-33.88589,0 18.39695,-33.88575,0 18.39558,-33.8856,0 18.39436,-33.88559,0 18.39263,-33.88559,0 18.39128,-33.88564,0 18.38982,-33.88577,0 18.38848,-33.88598,0 18.38682,-33.88631,0 18.38528,-33.88669,0 18.3836,-33.88728,0 18.38236,-33.88789,0 18.38127,-33.88845,0 18.38001,-33.88924,0 18.37912,-33.88985,0 18.37795,-33.89077,0 18.37693,-33.89163,0 18.37609,-33.89232,0 18.37531,-33.89301,0 18.37435,-33.89383,0 18.37362,-33.89456,0 18.37273,-33.89539,0 18.37189,-33.89626,0 18.3712,-33.89697,0 18.37043,-33.89777,0 18.36953,-33.89873,0 18.36875,-33.89969,0 18.36805,-33.90051,0 18.36724,-33.90157,0 18.36639,-33.90257,0 18.36576,-33.90343,0 18.36491,-33.90455,0 18.36428,-33.90539,0 18.36353,-33.90637,0 18.36275,-33.90742,0 18.36208,-33.90834,0 18.36152,-33.90921,0 18.36073,-33.91026,0 18.36012,-33.91113,0 18.35933,-33.91219,0 18.35724,-33.91517,0 18.35429,-33.9196,0 18.35169,-33.92378,0 18.35098,-33.92496,0 18.3506,-33.92574,0 18.34986,-33.92709,0 18.34911,-33.92862,0 18.34868,-33.92967,0 18.34829,-33.93059,0 18.34774,-33.93193,0 18.3474,-33.93286,0 18.34705,-33.93398,0 18.34688,-33.93481,0 18.34682,-33.93579,0 18.34682,-33.93658,0 18.34705,-33.93747,0 18.3474,-33.93802,0 18.34785,-33.93844,0 18.34848,-33.93872,0 18.34906,-33.93877,0 18.34963,-33.93869,0 18.35019,-33.93851,0 18.35066,-33.93821,0 18.3512,-33.93777,0 18.35152,-33.93737,0 18.35192,-33.93686,0 18.3522,-33.93644,0 18.35272,-33.93588,0 18.35306,-33.93542,0 18.35345,-33.93498,0 18.3539,-33.93457,0 18.35434,-33.93407,0 18.35485,-33.93352,0 18.35529,-33.93304,0 18.35575,-33.93248,0 18.35609,-33.93202,0 18.35647,-33.93155,0 18.35686,-33.93105,0 18.35735,-33.93053,0 18.35787,-33.92997,0 18.35838,-33.9296,0 18.35896,-33.92932,0 18.35972,-33.92921,0 18.36033,-33.92927,0 18.36107,-33.92958,0 18.36163,-33.92995,0 18.36227,-33.93053,0 18.36258,-33.931,0 18.36292,-33.93169,0 18.36314,-33.9326,0 18.36313,-33.93356,0 18.36308,-33.93425,0 18.36275,-33.9353,0 18.36245,-33.93612,0 18.36199,-33.937,0 18.36135,-33.93805,0 18.36073,-33.93909,0 18.36021,-33.93979,0 18.35956,-33.9407,0 18.35883,-33.94167,0 18.35815,-33.94249,0 18.35731,-33.94359,0 18.35681,-33.94423,0 18.3558,-33.94556,0 18.35512,-33.94645,0 18.35462,-33.94711,0 18.3539,-33.94812,0 18.35311,-33.94922,0 18.35221,-33.95036,0 18.35143,-33.95137,0 18.3507,-33.95238,0 18.34986,-33.95348,0 18.34923,-33.95441,0 18.34851,-33.95558,0 18.34785,-33.95665,0 18.34414,-33.96214,0 18.34242,-33.96451,0 18.34089,-33.96675,0 18.33943,-33.96922,0 18.33818,-33.97178,0 18.33708,-33.9744,0 18.33618,-33.97689,0 18.33515,-33.97955,0 18.33412,-33.98215,0 18.33327,-33.98451,0 18.33218,-33.98709,0 18.33158,-33.98836,0 18.33041,-33.99092,0 18.33,-33.99184,0 18.32949,-33.99295,0 18.32897,-33.99398,0 18.32857,-33.99487,0 18.32823,-33.99552,0 18.3276,-33.99677,0 18.32708,-33.9978,0 18.32668,-33.99859,0 18.32615,-33.99962,0 18.32577,-34.00059,0 18.32542,-34.0014,0 18.32503,-34.00232,0 18.32475,-34.00314,0 18.32445,-34.00413,0 18.32407,-34.00525,0 18.32382,-34.00608,0 18.32357,-34.00699,0 18.32325,-34.0079,0 18.32295,-34.00882,0 18.32267,-34.00969,0 18.32256,-34.0106,0 18.32256,-34.01144,0 18.32268,-34.01223,0 18.32296,-34.01302,0 18.32359,-34.0139,0 18.32428,-34.01451,0 18.32514,-34.01511,0 18.32592,-34.01559,0 18.32685,-34.01609,0 18.32794,-34.01656,0 18.32909,-34.01702,0 18.33002,-34.01743,0 18.3313,-34.01797,0 18.33237,-34.01852,0 18.33321,-34.01898,0 18.33422,-34.01976,0 18.33487,-34.02033,0 18.33555,-34.02107,0 18.33624,-34.02182,0 18.33675,-34.02247,0 18.33733,-34.02308,0 18.33803,-34.02388,0 18.33853,-34.02447,0 18.33921,-34.02521,0 18.33988,-34.02599,0 18.34044,-34.02672,0 18.34105,-34.0274,0 18.34179,-34.02832,0 18.34229,-34.02896,0 18.34285,-34.02979,0 18.34333,-34.03057,0 18.34379,-34.03141,0 18.34425,-34.03239,0 18.34465,-34.03336,0 18.34498,-34.03423,0 18.34534,-34.03518,0 18.3456,-34.03596,0 18.34599,-34.03706,0 18.34633,-34.03812,0 18.34672,-34.03922,0 18.34705,-34.04007,0 18.3474,-34.04095,0 18.34773,-34.04192,0 18.3482,-34.04309,0 18.34851,-34.04398,0 18.34888,-34.04514,0 18.34919,-34.04599,0 18.34957,-34.04714,0 18.34991,-34.04798,0 18.35025,-34.04892,0 18.35064,-34.05002,0 18.35132,-34.05199,0 18.35163,-34.05291,0 18.35197,-34.05403,0 18.35295,-34.0572,0 18.35369,-34.05925,0 18.35409,-34.06018,0 18.35445,-34.06105,0 18.35496,-34.06219,0 18.35541,-34.0632,0 18.35581,-34.06404,0 18.35619,-34.06485,0 18.35672,-34.06572,0 18.35737,-34.06682,0 18.35793,-34.06773,0 18.35838,-34.06846,0 18.3589,-34.0693,0 18.35956,-34.07034,0 18.36004,-34.07107,0 18.36073,-34.07205,0 18.36129,-34.07286,0 18.36197,-34.07382,0 18.36269,-34.07483,0 18.36309,-34.07542,0 18.3637,-34.07629,0 18.36438,-34.07735,0 18.36485,-34.07819,0 18.36527,-34.07904,0 18.36582,-34.08006,0 18.36623,-34.08087,0 18.36668,-34.08183,0 18.36712,-34.0827,0 18.3676,-34.08364,0 18.36808,-34.08476,0 18.36845,-34.08569,0 18.3688,-34.08678,0 18.36903,-34.08778,0 18.3692,-34.08876,0 18.36931,-34.08989,0 18.36937,-34.09122,0 18.36937,-34.09241,0 18.36931,-34.09369,0 18.36931,-34.09481,0 18.36925,-34.09621,0 18.3692,-34.09744,0 18.3692,-34.09872,0 18.36914,-34.0997,0 18.36914,-34.10068,0 18.36909,-34.10193,0 18.36903,-34.10289,0 18.36897,-34.10398,0 18.36897,-34.10519,0 18.36892,-34.10609,0 18.36892,-34.10847,0 18.36903,-34.10944,0 18.36926,-34.11045,0 18.36943,-34.11124,0 18.36976,-34.11246,0 18.37004,-34.11337,0 18.37026,-34.11424,0 18.37054,-34.1152,0 18.37088,-34.11649,0 18.3711,-34.11745,0 18.37133,-34.11859,0 18.37143,-34.11995,0 18.37137,-34.12088,0 18.3712,-34.12204,0 18.37086,-34.12312,0 18.37057,-34.12409,0 18.37017,-34.1254,0 18.36988,-34.12647,0 18.36953,-34.1277,0 18.36925,-34.12866,0 18.36892,-34.12999,0 18.36868,-34.13094,0 18.36836,-34.13205,0 18.36811,-34.13285,0 18.36754,-34.13406,0 18.36685,-34.13513,0 18.36623,-34.13576,0 18.36502,-34.13666,0 18.36353,-34.13741,0 18.36205,-34.13783,0 18.36073,-34.13809,0 18.35933,-34.13814,0 18.35776,-34.13805,0 18.35597,-34.13754,0 18.35478,-34.13704,0 18.35345,-34.13608,0 18.35261,-34.13512,0 18.35192,-34.13406,0 18.3514,-34.13271,0 18.35094,-34.13103,0 18.35077,-34.12977,0 18.35076,-34.1288,0 18.35089,-34.12759,0 18.3512,-34.12633,0 18.35169,-34.12531,0 18.35249,-34.12414,0 18.35345,-34.12321,0 18.35466,-34.12246,0 18.35597,-34.12212,0 18.35703,-34.12207,0 18.35827,-34.12239,0 18.35916,-34.12285,0 18.35999,-34.12358,0 18.36056,-34.12437,0 18.36113,-34.12541,0 18.36157,-34.12656,0 18.36182,-34.12745,0 18.3621,-34.12856,0 18.36236,-34.12976,0 18.36256,-34.13057,0 18.36273,-34.13177,0 18.36286,-34.13264,0 18.36303,-34.1337,0 18.36314,-34.13461,0 18.36331,-34.13576,0 18.36342,-34.13654,0 18.36359,-34.13745,0 18.36376,-34.1385,0 18.36387,-34.13942,0 18.36405,-34.14053,0 18.36421,-34.14153,0 18.36433,-34.14253,0 18.36502,-34.14667,0 18.36571,-34.15086,0 18.36605,-34.153,0 18.36617,-34.1537,0 18.36639,-34.15491,0 18.36656,-34.15576,0 18.36679,-34.15681,0 18.36702,-34.15794,0 18.36735,-34.15924,0 18.3676,-34.16017,0 18.36788,-34.1611,0 18.36823,-34.16217,0 18.36851,-34.16306,0 18.36897,-34.16446,0 18.36937,-34.16565,0 18.36971,-34.16669,0 18.37,-34.16753,0 18.37037,-34.16858,0 18.37063,-34.16948,0 18.37189,-34.17334,0 18.37275,-34.17604,0 18.37395,-34.1801,0 18.37491,-34.18336,0 18.37576,-34.18652,0 18.37604,-34.18758,0 18.37635,-34.18876,0 18.37665,-34.18973,0 18.37687,-34.19053,0 18.37727,-34.19173,0 18.37761,-34.19257,0 18.37794,-34.19362,0 18.37835,-34.19476,0 18.37864,-34.19564,0 18.37906,-34.19682,0 18.37938,-34.19788,0 18.37967,-34.19858,0 18.38007,-34.19975,0 18.38052,-34.20081,0 18.38093,-34.20179,0 18.38147,-34.20291,0 18.38186,-34.20374,0 18.38243,-34.20502,0 18.38287,-34.20593,0 18.38327,-34.20686,0 18.38379,-34.20794,0 18.38422,-34.20886,0 18.38476,-34.21003,0 18.38516,-34.21091,0 18.38562,-34.21208,0 18.38601,-34.21294,0 18.38646,-34.21399,0 18.38685,-34.2149,0 18.3873,-34.21596,0 18.38774,-34.21687,0 18.38808,-34.21776,0 18.38848,-34.21864,0 18.38904,-34.2198,0 18.38938,-34.22058,0 18.3898,-34.22157,0 18.39111,-34.22437,0 18.39266,-34.22758,0 18.39437,-34.23121,0 18.39577,-34.2339,0 18.39764,-34.23777,0 18.39855,-34.23968,0 18.39912,-34.24075,0 18.3997,-34.24187,0 18.40015,-34.24271,0 18.40059,-34.24352,0 18.40115,-34.24452,0 18.40164,-34.24536,0 18.4021,-34.2462,0 18.40261,-34.24699,0 18.40322,-34.24805,0 18.4037,-34.24881,0 18.40429,-34.24988,0 18.40479,-34.25072,0 18.40524,-34.25162,0 18.40574,-34.25253,0 18.40625,-34.25349,0 18.40673,-34.25439,0 18.40731,-34.25542,0 18.40787,-34.25652,0 18.40834,-34.25733,0 18.40879,-34.25816,0 18.40928,-34.25903,0 18.40982,-34.25998,0 18.41045,-34.26105,0 18.41084,-34.26187,0 18.41135,-34.26265,0 18.41286,-34.26547,0 18.4144,-34.26845,0 18.41486,-34.26925,0 18.41544,-34.27025,0 18.41611,-34.2713,0 18.41667,-34.27226,0 18.41732,-34.27329,0 18.41835,-34.27505,0 18.41881,-34.27581,0 18.41932,-34.27683,0 18.41981,-34.27766,0 18.42041,-34.27874,0 18.42087,-34.27953,0 18.42245,-34.28242,0 18.42385,-34.28499,0 18.42447,-34.286,0 18.42542,-34.2876,0 18.42603,-34.28865,0 18.42659,-34.28949,0 18.4271,-34.29039,0 18.42768,-34.29122,0 18.42822,-34.29204,0 18.42888,-34.29294,0 18.42968,-34.29396,0 18.43031,-34.29471,0 18.43097,-34.29547,0 18.43164,-34.29625,0 18.43237,-34.29698,0 18.43346,-34.29801,0 18.43426,-34.29876,0 18.435,-34.29946,0 18.43597,-34.30025,0 18.4368,-34.30096,0 18.43792,-34.30193,0 18.43878,-34.30262,0 18.4396,-34.30321,0 18.44049,-34.30392,0 18.44179,-34.30495,0 18.44261,-34.30555,0 18.44341,-34.30623,0 18.4447,-34.30724,0 18.44537,-34.30779,0 18.44857,-34.31026,0 18.45257,-34.31319,0 18.4568,-34.31607,0 18.45782,-34.3168,0 18.45877,-34.31744,0 18.45967,-34.31808,0 18.46084,-34.31895,0 18.46477,-34.32179,0 18.46807,-34.32422,0 18.47088,-34.32641,0 18.47397,-34.32878,0 18.47598,-34.33026,0 18.47946,-34.33279,0 18.48293,-34.33525,0 18.48656,-34.33777,0 18.48932,-34.33965,0 18.49352,-34.34253,0 18.4964,-34.34457,0 18.49722,-34.34518,0 18.50012,-34.34736,0 18.50075,-34.34784,0 18.50224,-34.34913,0 18.50344,-34.35027,0 18.50434,-34.35114,0 18.50504,-34.35192,0 18.50608,-34.3531,0 18.5067,-34.35387,0 18.50744,-34.35499,0 18.5079,-34.35588,0 18.50824,-34.35662,0 18.5086,-34.35782,0 18.50876,-34.35904,0 18.5087,-34.35997,0 18.50854,-34.36102,0 18.50798,-34.36235,0 18.50737,-34.36331,0 18.50676,-34.36403,0 18.50585,-34.36482,0 18.50355,-34.36631,0 18.50249,-34.36679,0 18.50103,-34.36733,0 18.5,-34.36761,0 18.49863,-34.36789,0 18.4966,-34.36807,0 18.49548,-34.36807,0 18.49365,-34.36798,0 18.49218,-34.36784,0 18.49045,-34.36761,0 18.48887,-34.36734,0 18.48719,-34.36711,0 18.48579,-34.36693,0 18.48438,-34.36674,0 18.48295,-34.36658,0 18.48125,-34.36638,0 18.47985,-34.36624,0 18.47799,-34.36601,0 18.47648,-34.36588,0 18.47528,-34.36575,0 18.47357,-34.36556,0 18.47197,-34.36538,0 18.47054,-34.36514,0 18.46897,-34.36478,0 18.4674,-34.36427,0 18.46596,-34.3637,0 18.46432,-34.3629,0 18.46298,-34.36221,0 18.46146,-34.36139,0 18.45984,-34.36058,0 18.45866,-34.36011,0 18.45709,-34.3597,0 18.45552,-34.35956,0 18.454,-34.3597,0 18.45271,-34.36011,0 18.45176,-34.36066,0 18.45081,-34.36153,0 18.45014,-34.36258,0 18.45016,-34.36617,0 18.45297,-34.36863,0 18.45412,-34.36899,0 18.45529,-34.36926,0 18.45675,-34.36942,0 18.45793,-34.36949,0 18.45915,-34.36952,0 18.46062,-34.36954,0 18.46196,-34.36954,0 18.46325,-34.36949,0 18.4647,-34.36938,0 18.4659,-34.36933,0 18.46745,-34.36919,0 18.46865,-34.3691,0 18.47025,-34.369,0 18.47155,-34.3689,0 18.47284,-34.36885,0 18.4739,-34.3688,0 18.47581,-34.36876,0 18.47712,-34.36872,0 18.47867,-34.36867,0 18.48021,-34.36868,0 18.48146,-34.36868,0 18.48295,-34.36863,0 18.48416,-34.36867,0 18.48541,-34.36868,0 18.48657,-34.36867,0 18.48775,-34.36867,0 18.48907,-34.36872,0 18.49033,-34.36877,0 18.49176,-34.36882,0 18.49325,-34.36887,0 18.49436,-34.3689,0 18.4956,-34.36891,0 18.49689,-34.3689,0 18.49851,-34.3688,0 18.49989,-34.36863,0 18.50126,-34.36844,0 18.50286,-34.36812,0 18.504,-34.36784,0 18.50518,-34.36748,0 18.50676,-34.36686,0 18.50801,-34.36621,0 18.50904,-34.36556,0 18.51,-34.36487,0 18.51112,-34.36386,0 18.51208,-34.36281,0 18.51259,-34.36207,0 18.51334,-34.36095,0 18.51398,-34.35965,0 18.51442,-34.35862,0 18.51493,-34.35754,0 18.51561,-34.35626,0 18.51622,-34.35548,0 18.51718,-34.35461,0 18.51814,-34.35416,0 18.51931,-34.35388,0 18.52071,-34.35402,0 18.52163,-34.35453,0 18.52228,-34.35521,0 18.52261,-34.35635,0 18.52245,-34.35727,0 18.52205,-34.35823,0 18.52129,-34.35918,0 18.52009,-34.36006,0 18.51841,-34.36061,0 18.51706,-34.36072,0 18.51566,-34.36061,0 18.51421,-34.3602,0 18.51271,-34.35951,0 18.51122,-34.35844,0 18.51028,-34.3575,0 18.50944,-34.35645,0 18.50859,-34.35527,0 18.50776,-34.35393,0 18.50704,-34.35262,0 18.50641,-34.35146,0 18.50569,-34.35008,0 18.50498,-34.34866,0 18.50441,-34.34759,0 18.50361,-34.34596,0 18.50304,-34.34475,0 18.50252,-34.34364,0 18.50189,-34.34229,0 18.50137,-34.3412,0 18.50063,-34.33968,0 18.50023,-34.33875,0 18.49969,-34.33759,0 18.49897,-34.33591,0 18.4984,-34.33465,0 18.49795,-34.33342,0 18.49745,-34.33218,0 18.497,-34.33095,0 18.49646,-34.32948,0 18.49604,-34.32825,0 18.49554,-34.32678,0 18.49514,-34.32562,0 18.49464,-34.32413,0 18.49431,-34.32312,0 18.49382,-34.32166,0 18.4933,-34.3201,0 18.49165,-34.31491,0 18.49033,-34.31076,0 18.48879,-34.3056,0 18.48758,-34.30138,0 18.48724,-34.30014,0 18.4869,-34.29862,0 18.48656,-34.29741,0 18.48621,-34.29606,0 18.48581,-34.29457,0 18.48541,-34.29308,0 18.48501,-34.29182,0 18.48461,-34.29071,0 18.48415,-34.28935,0 18.48358,-34.28782,0 18.48312,-34.28661,0 18.48267,-34.28549,0 18.48214,-34.28426,0 18.48147,-34.28288,0 18.48083,-34.28176,0 18.48013,-34.2805,0 18.47956,-34.27963,0 18.47889,-34.27853,0 18.47815,-34.27748,0 18.47723,-34.27627,0 18.47631,-34.2751,0 18.47558,-34.27419,0 18.47483,-34.27325,0 18.47407,-34.27235,0 18.47334,-34.27158,0 18.47256,-34.27071,0 18.47155,-34.26974,0 18.47065,-34.26887,0 18.46973,-34.26808,0 18.46858,-34.26709,0 18.46767,-34.26636,0 18.46664,-34.26557,0 18.46533,-34.26454,0 18.4643,-34.2638,0 18.46315,-34.26296,0 18.46213,-34.26224,0 18.46075,-34.26128,0 18.45961,-34.26054,0 18.45843,-34.25977,0 18.45726,-34.259,0 18.456,-34.25821,0 18.45497,-34.25756,0 18.45383,-34.25681,0 18.4524,-34.25593,0 18.45143,-34.25533,0 18.44999,-34.25444,0 18.44862,-34.25359,0 18.44753,-34.25295,0 18.44621,-34.25217,0 18.44481,-34.2513,0 18.44117,-34.24901,0 18.43887,-34.24754,0 18.43764,-34.24672,0 18.4362,-34.24569,0 18.43512,-34.24494,0 18.43369,-34.24387,0 18.43265,-34.2431,0 18.43136,-34.2421,0 18.43019,-34.24122,0 18.42912,-34.24045,0 18.42773,-34.23945,0 18.42648,-34.23847,0 18.42527,-34.23754,0 18.42413,-34.23666,0 18.42299,-34.23577,0 18.42166,-34.23468,0 18.42064,-34.23382,0 18.41921,-34.2327,0 18.41824,-34.23186,0 18.41726,-34.23103,0 18.41612,-34.23005,0 18.41486,-34.22893,0 18.41376,-34.22795,0 18.41286,-34.22707,0 18.41152,-34.22571,0 18.41074,-34.22478,0 18.40982,-34.22376,0 18.40851,-34.22218,0 18.40771,-34.2212,0 18.40664,-34.21985,0 18.40591,-34.21884,0 18.40501,-34.21765,0 18.40427,-34.21664,0 18.40353,-34.21557,0 18.40267,-34.21426,0 18.40187,-34.21305,0 18.40118,-34.21194,0 18.40033,-34.21059,0 18.39963,-34.20941,0 18.39872,-34.20784,0 18.39812,-34.20685,0 18.39734,-34.20547,0 18.39672,-34.20428,0 18.39603,-34.20291,0 18.39535,-34.20146,0 18.39478,-34.20025,0 18.3942,-34.19895,0 18.39369,-34.19783,0 18.39319,-34.19669,0 18.39252,-34.19504,0 18.39201,-34.19371,0 18.39151,-34.19243,0 18.39111,-34.19142,0 18.39061,-34.19009,0 18.39003,-34.18857,0 18.38963,-34.18745,0 18.3891,-34.18593,0 18.38871,-34.18475,0 18.38837,-34.18354,0 18.38803,-34.18199,0 18.38768,-34.18,0 18.38758,-34.1787,0 18.38769,-34.17746,0 18.38802,-34.17633,0 18.3887,-34.17513,0 18.38943,-34.17439,0 18.39033,-34.17389,0 18.3914,-34.17367,0 18.3922,-34.17376,0 18.39277,-34.17409,0 18.39323,-34.1746,0 18.39346,-34.17498,0 18.39357,-34.17563,0 18.39357,-34.17619,0 18.39352,-34.17686,0 18.3934,-34.17744,0 18.3933,-34.17778,0 18.39302,-34.17851,0 18.39277,-34.17907,0 18.39246,-34.17975,0 18.39226,-34.18024,0 18.39195,-34.18089,0 18.39179,-34.18144,0 18.39156,-34.18199,0 18.39134,-34.1825,0 18.39095,-34.183,0 18.39022,-34.18346,0 18.38957,-34.18364,0 18.38842,-34.18359,0 18.38739,-34.18322,0 18.38659,-34.18261,0 18.38585,-34.18176,0 18.38528,-34.18062,0 18.38511,-34.17954,0 18.38511,-34.17819,0 18.38533,-34.17688,0 18.38568,-34.17572,0 18.38629,-34.17426,0 18.38694,-34.17307,0 18.38757,-34.1719,0 18.38831,-34.17074,0 18.38905,-34.16967,0 18.38997,-34.16827,0 18.39072,-34.16711,0 18.39146,-34.16608,0 18.39243,-34.16464,0 18.39323,-34.16357,0 18.3942,-34.16227,0 18.3952,-34.16098,0 18.39598,-34.16003,0 18.39701,-34.15873,0 18.39787,-34.15775,0 18.39868,-34.15691,0 18.39993,-34.15561,0 18.40075,-34.15485,0 18.40204,-34.15361,0 18.403,-34.15274,0 18.40393,-34.15189,0 18.4053,-34.15063,0 18.40625,-34.14977,0 18.40748,-34.14867,0 18.40851,-34.14779,0 18.40954,-34.14695,0 18.41051,-34.1461,0 18.4118,-34.14505,0 18.41286,-34.14423,0 18.41394,-34.14337,0 18.41515,-34.14248,0 18.41645,-34.14148,0 18.41761,-34.14062,0 18.41869,-34.13979,0 18.4197,-34.13905,0 18.42081,-34.1382,0 18.42189,-34.13741,0 18.42333,-34.13634,0 18.42435,-34.13557,0 18.42553,-34.1347,0 18.42682,-34.13383,0 18.42811,-34.13292,0 18.42888,-34.13233,0 18.43008,-34.1315,0 18.43136,-34.13058,0 18.43248,-34.12982,0 18.43363,-34.12903,0 18.43466,-34.12838,0 18.43562,-34.1277,0 18.43689,-34.12689,0 18.43792,-34.12619,0 18.43895,-34.12554,0 18.43999,-34.12486,0 18.44118,-34.12409,0 18.44223,-34.1234,0 18.44336,-34.1227,0 18.44542,-34.12125,0 18.45025,-34.11795,0 18.45245,-34.11641,0 18.45463,-34.11492,0 18.45569,-34.11424,0 18.45681,-34.11356,0 18.45827,-34.11264,0 18.45933,-34.112,0 18.46064,-34.1112,0 18.46168,-34.11053,0 18.46281,-34.10989,0 18.46393,-34.1093,0 18.46521,-34.10883,0 18.46678,-34.10838,0 18.46779,-34.10822,0 18.46936,-34.10811,0 18.47054,-34.10808,0 18.47211,-34.10797,0 18.47322,-34.1078,0 18.47463,-34.10742,0 18.47586,-34.10682,0 18.47693,-34.10605,0 18.4778,-34.10515,0 18.47843,-34.10426,0 18.47906,-34.10284,0 18.47934,-34.10175,0 18.47946,-34.10044,0 18.47945,-34.09927,0 18.47923,-34.09776,0 18.47895,-34.09658,0 18.47856,-34.09534,0 18.47805,-34.09406,0 18.47743,-34.09273,0 18.47676,-34.09163,0 18.47609,-34.09062,0 18.47517,-34.08946,0 18.47437,-34.08848,0 18.47318,-34.08705,0 18.47237,-34.08611,0 18.47138,-34.08499,0 18.47059,-34.08401,0 18.46973,-34.08308,0 18.46891,-34.08211,0 18.46796,-34.08089,0 18.46704,-34.07982,0 18.466,-34.07854,0 18.46505,-34.07744,0 18.46426,-34.07657,0 18.46342,-34.07565,0 18.46258,-34.07475,0 18.46161,-34.07377,0 18.46062,-34.07277,0 18.45955,-34.07167,0 18.45877,-34.07085,0 18.45789,-34.07005,0 18.45698,-34.06911,0 18.45589,-34.06814,0 18.45496,-34.06728,0 18.454,-34.06641,0 18.45305,-34.06558,0 18.45194,-34.0646,0 18.45079,-34.06358,0 18.44959,-34.06255,0 18.44862,-34.06167,0 18.44759,-34.06078,0 18.44644,-34.05977,0 18.44559,-34.05897,0 18.44134,-34.05519,0 18.43735,-34.05147,0 18.4342,-34.04873,0 18.43094,-34.04584,0 18.428,-34.04343,0 18.42682,-34.04256,0 18.42573,-34.04179,0 18.42464,-34.041,0 18.42334,-34.03999,0 18.42241,-34.03923,0 18.42121,-34.03821,0 18.42043,-34.03743,0 18.41955,-34.03639,0 18.41909,-34.0356,0 18.41852,-34.03434,0 18.41819,-34.03322,0 18.41808,-34.03207,0 18.41813,-34.03061,0 18.4183,-34.02956,0 18.41864,-34.02843,0 18.41921,-34.02708,0 18.41981,-34.02603,0 18.4206,-34.02489,0 18.42138,-34.02388,0 18.42207,-34.02303,0 18.42299,-34.02205,0 18.42384,-34.02112,0 18.42493,-34.02005,0 18.42567,-34.01921,0 18.42676,-34.01811,0 18.42751,-34.0173,0 18.42831,-34.01646,0 18.42928,-34.01544,0 18.43014,-34.01446,0 18.43114,-34.0134,0 18.43185,-34.01255,0 18.43265,-34.01166,0 18.43338,-34.01074,0 18.43433,-34.0096,0 18.43494,-34.00869,0 18.43556,-34.00768,0 18.43615,-34.00664,0 18.43678,-34.00539,0 18.4373,-34.00433,0 18.43781,-34.00319,0 18.43832,-34.00217,0 18.43887,-34.00095,0 18.43929,-34.00017,0 18.43994,-33.99884,0 18.44044,-33.99775,0 18.44117,-33.99637,0 18.44167,-33.99536,0 18.44223,-33.99431,0 18.44278,-33.99324,0 18.44341,-33.99216,0 18.44513,-33.98877,0 18.44725,-33.98434,0 18.44885,-33.98095,0 18.45091,-33.97624,0 18.45137,-33.97517,0 18.45182,-33.97403,0 18.45227,-33.97298,0 18.45271,-33.97188,0 18.45322,-33.9706,0 18.45371,-33.96931,0 18.45417,-33.96812,0 18.45486,-33.96679,0 18.45546,-33.96579,0 18.45625,-33.96478,0 18.45737,-33.96368,0 18.45835,-33.96298,0 18.4595,-33.96236,0 18.46064,-33.96204,0 18.46219,-33.96194,0 18.46342,-33.96208,0 18.46465,-33.96249,0 18.46594,-33.96318,0 18.46676,-33.96386,0 18.46733,-33.96451,0 18.46807,-33.96558,0 18.46853,-33.96642,0 18.46903,-33.96748,0 18.46936,-33.96844,0 18.46973,-33.96931,0 18.47009,-33.97018,0 18.47048,-33.97112,0 18.47093,-33.97234,0 18.47132,-33.9733,0 18.47162,-33.9742,0 18.47194,-33.97527,0 18.47231,-33.97634,0 18.47261,-33.97728,0 18.47301,-33.97838,0 18.47334,-33.97932,0 18.47374,-33.98029,0 18.47413,-33.98122,0 18.47441,-33.98195,0 18.47483,-33.98309,0 18.47534,-33.98411,0 18.47575,-33.98497,0 18.4762,-33.98579,0 18.47676,-33.9868,0 18.47727,-33.98767,0 18.47794,-33.98868,0 18.47866,-33.98965,0 18.47923,-33.99046,0 18.4799,-33.99133,0 18.48063,-33.99229,0 18.48147,-33.9933,0 18.48214,-33.99408,0 18.48287,-33.9949,0 18.4836,-33.99559,0 18.48433,-33.99623,0 18.48534,-33.99696,0 18.48621,-33.99743,0 18.48713,-33.9978,0 18.48837,-33.9982,0 18.4896,-33.99847,0 18.49062,-33.99868,0 18.49182,-33.99887,0 18.49313,-33.99893,0 18.49436,-33.99889,0 18.49583,-33.99873,0 18.497,-33.99852,0 18.49834,-33.99815,0 18.49977,-33.99766,0 18.50069,-33.99738,0 18.50221,-33.99678,0 18.50333,-33.99637,0 18.50456,-33.99591,0 18.50573,-33.99547,0 18.50716,-33.99491,0 18.50826,-33.99454,0 18.50938,-33.99413,0 18.51082,-33.99361,0 18.51202,-33.99314,0 18.5132,-33.99275,0 18.51442,-33.99231,0 18.51919,-33.9906,0 18.52301,-33.98928,0 18.52783,-33.98758,0 18.53029,-33.98666,0 18.53147,-33.98625,0 18.53259,-33.98589,0 18.53382,-33.98543,0 18.53502,-33.98504,0 18.53851,-33.98378,0 18.54109,-33.9829,0 18.54363,-33.98209,0 18.54492,-33.98172,0 18.54612,-33.98137,0 18.54727,-33.98099,0 18.54847,-33.98067,0 18.54957,-33.98039,0 18.55075,-33.98007,0 18.55196,-33.97978,0 18.55333,-33.97941,0 18.55456,-33.97911,0 18.55591,-33.97874,0 18.5572,-33.97842,0 18.55837,-33.97811,0 18.55944,-33.97783,0 18.56089,-33.97746,0 18.56226,-33.97713,0 18.56336,-33.97687,0 18.56455,-33.97657,0 18.56569,-33.97624,0 18.56689,-33.97595,0 18.56824,-33.97554,0 18.57065,-33.97481,0 18.57177,-33.97449,0 18.57278,-33.97417,0 18.57393,-33.97373,0 18.57496,-33.9734,0 18.57599,-33.97303,0 18.57725,-33.97266,0 18.57838,-33.97234,0 18.57945,-33.97202,0 18.58051,-33.97179,0 18.58177,-33.9715,0 18.58281,-33.97128,0 18.58377,-33.97112,0 18.58494,-33.97096,0 18.58601,-33.97083,0 18.58704,-33.97075,0 18.58818,-33.9708,0 18.58921,-33.97084,0 18.59007,-33.97098,0 18.59089,-33.97115,0 18.59173,-33.97131,0 18.59247,-33.97159,0 18.59316,-33.97196,0 18.59385,-33.97238,0 18.59425,-33.97275,0 18.59475,-33.97321,0 18.59516,-33.97364,0 18.59548,-33.97403,0 18.59585,-33.97448,0 18.5961,-33.97481,0 18.59643,-33.97522,0 18.59666,-33.97554,0 18.59694,-33.97595,0 18.59734,-33.97652,0 18.59756,-33.97682,0 18.59768,-33.97704,0 18.59778,-33.97728,0 18.59785,-33.9775,0 18.59797,-33.97773,0 18.59802,-33.97797,0 18.59819,-33.97824,0 18.59834,-33.97847,0 18.59842,-33.97876,0 18.59842,-33.97898,0 18.59806,-33.97874,0 18.59756,-33.97866,0 18.59728,-33.97871,0 18.59694,-33.97884,0 18.59638,-33.9792,0 18.59599,-33.97952,0 18.59545,-33.98011,0 18.59514,-33.98053,0</coordinates>
      </LineString>
    </Placemark>
  </Document>
</kml>
