<?xml version="1.0" encoding="UTF-8"?>
<kml xmlns="http://www.opengis.net/kml/2.2">
  <Document>
    <name>FR24 41ab1060</name>
    <Placemark>
      <name>FR24 41ab1060</name>
      <Style><LineStyle><color>ff0000ff</color><width>4</width></LineStyle></Style>
      <LineString>
        <tessellate>1</tessellate>
        <coordinates>18.42727,-33.9001,0 18.42816,-33.89891,0 18.42884,-33.89809,0 18.42911,-33.89776,0 18.42962,-33.89713,0 18.43002,-33.89659,0 18.43035,-33.89616,0 18.43063,-33.89584,0 18.43114,-33.89516,0 18.43158,-33.89461,0 18.43209,-33.89401,0 18.43248,-33.89351,0 18.43293,-33.89296,0 18.43328,-33.8925,0 18.43374,-33.89194,0 18.43433,-33.89127,0 18.43472,-33.89076,0 18.43523,-33.89012,0 18.43557,-33.88966,0 18.43597,-33.8891,0 18.43632,-33.8884,0 18.43649,-33.88779,0 18.4366,-33.88728,0 18.43668,-33.8866,0 18.43668,-33.88591,0 18.43663,-33.88536,0 18.43643,-33.88486,0 18.43615,-33.8843,0 18.43575,-33.88388,0 18.43529,-33.88356,0 18.4345,-33.88316,0 18.43397,-33.88291,0 18.4334,-33.88272,0 18.43276,-33.88257,0 18.43208,-33.88239,0 18.43114,-33.88225,0 18.43054,-33.88216,0 18.42962,-33.88202,0 18.429,-33.88193,0 18.428,-33.88184,0 18.42716,-33.88174,0 18.42613,-33.88165,0 18.42536,-33.88161,0 18.4243,-33.88156,0 18.42351,-33.88152,0 18.42236,-33.88151,0 18.42155,-33.88147,0 18.42047,-33.88142,0 18.41938,-33.88137,0 18.41858,-33.88132,0 18.41743,-33.88123,0 18.41651,-33.8812,0 18.4155,-33.88115,0 18.4146,-33.8811,0 18.4132,-33.88101,0 18.41011,-33.88091,0 18.40883,-33.88092,0 18.40788,-33.88095,0 18.40668,-33.88105,0 18.40553,-33.88118,0 18.40462,-33.88129,0 18.40333,-33.88152,0 18.40221,-33.88174,0 18.40084,-33.88202,0 18.40019,-33.8822,0 18.39878,-33.88258,0 18.39758,-33.88295,0 18.39643,-33.88333,0 18.39535,-33.8837,0 18.39437,-33.88403,0 18.39317,-33.88449,0 18.39191,-33.885,0 18.39095,-33.88541,0 18.38988,-33.88586,0 18.38888,-33.88635,0 18.38779,-33.88696,0 18.38696,-33.88751,0 18.38602,-33.88812,0 18.38493,-33.88891,0 18.38405,-33.88962,0 18.38316,-33.89031,0 18.3822,-33.89113,0 18.38108,-33.89209,0 18.37979,-33.89323,0 18.37898,-33.89394,0 18.37778,-33.89496,0 18.37693,-33.8958,0 18.37598,-33.89662,0 18.37486,-33.89766,0 18.37389,-33.89864,0 18.37306,-33.89951,0 18.37212,-33.90046,0 18.37132,-33.90129,0 18.37037,-33.90239,0 18.36942,-33.90344,0 18.36885,-33.90409,0 18.36791,-33.90527,0 18.36718,-33.90619,0 18.36634,-33.90729,0 18.36548,-33.90856,0 18.36468,-33.90972,0 18.36405,-33.91065,0 18.36325,-33.91191,0 18.36273,-33.91275,0 18.36193,-33.9141,0 18.36135,-33.91512,0 18.36067,-33.91647,0 18.36021,-33.9175,0 18.35967,-33.91878,0 18.35918,-33.91982,0 18.35878,-33.92089,0 18.35827,-33.92221,0 18.35787,-33.92318,0 18.35737,-33.9245,0 18.3569,-33.92559,0 18.35638,-33.92709,0 18.35597,-33.92812,0 18.35552,-33.9294,0 18.35518,-33.93059,0 18.35496,-33.93173,0 18.35473,-33.93283,0 18.35455,-33.93425,0 18.35434,-33.93558,0 18.35412,-33.93668,0 18.35367,-33.93869,0 18.35329,-33.94007,0 18.35295,-33.94114,0 18.35249,-33.9424,0 18.35203,-33.94366,0 18.35157,-33.94477,0 18.35115,-33.94574,0 18.35043,-33.94729,0 18.34997,-33.94826,0 18.34935,-33.9494,0 18.34885,-33.95041,0 18.34818,-33.95169,0 18.34756,-33.95279,0 18.34677,-33.95422,0 18.34625,-33.95525,0 18.34551,-33.95669,0 18.34498,-33.95773,0 18.34219,-33.96316,0 18.33921,-33.96881,0 18.33607,-33.97453,0 18.33271,-33.98071,0 18.32949,-33.98672,0 18.32643,-33.99225,0 18.32314,-33.99803,0 18.3209,-34.00175,0 18.31881,-34.00488,0 18.31776,-34.00627,0 18.31472,-34.00967,0 18.31226,-34.01228,0 18.30984,-34.01495,0 18.30734,-34.01781,0 18.30334,-34.02292,0 18.30168,-34.02526,0 18.29812,-34.03093,0 18.29683,-34.03354,0 18.29655,-34.03441,0 18.29613,-34.03592,0 18.29594,-34.03711,0 18.29584,-34.03858,0 18.2959,-34.04128,0 18.2961,-34.04279,0 18.29644,-34.04494,0 18.29678,-34.0464,0 18.29711,-34.04782,0 18.29744,-34.0491,0 18.29784,-34.05048,0 18.2983,-34.05198,0 18.29887,-34.05357,0 18.29933,-34.05478,0 18.30003,-34.05643,0 18.30053,-34.05753,0 18.30137,-34.05931,0 18.3021,-34.06073,0 18.30288,-34.06218,0 18.30374,-34.06372,0 18.30465,-34.0652,0 18.30552,-34.0665,0 18.30654,-34.06781,0 18.30774,-34.06921,0 18.309,-34.07062,0 18.3102,-34.07191,0 18.31146,-34.07321,0 18.31295,-34.07475,0 18.31421,-34.07596,0 18.3157,-34.07745,0 18.31673,-34.07847,0 18.31796,-34.07973,0 18.31902,-34.0808,0 18.3205,-34.08238,0 18.3215,-34.08344,0 18.32256,-34.08466,0 18.32365,-34.08592,0 18.32468,-34.08722,0 18.32571,-34.08862,0 18.32671,-34.08994,0 18.32754,-34.09109,0 18.32834,-34.0923,0 18.32932,-34.09383,0 18.32994,-34.09495,0 18.33069,-34.09649,0 18.33125,-34.09781,0 18.33172,-34.09919,0 18.33209,-34.10042,0 18.33254,-34.10207,0 18.33281,-34.10329,0 18.3331,-34.10477,0 18.33326,-34.10627,0 18.33332,-34.10771,0 18.33332,-34.10916,0 18.33321,-34.11058,0 18.33298,-34.11199,0 18.33275,-34.11316,0 18.33231,-34.11429,0 18.33172,-34.11553,0 18.33091,-34.11671,0 18.33002,-34.11777,0 18.32926,-34.11851,0 18.32846,-34.11925,0 18.3272,-34.12023,0 18.32604,-34.12111,0 18.32491,-34.12186,0 18.32391,-34.12253,0 18.32301,-34.12312,0 18.32205,-34.12377,0 18.32096,-34.12451,0 18.31976,-34.12535,0 18.31881,-34.12601,0 18.31768,-34.12683,0 18.31661,-34.12768,0 18.31495,-34.12922,0 18.31381,-34.13033,0 18.31295,-34.1314,0 18.31232,-34.13233,0 18.31152,-34.13365,0 18.3109,-34.13489,0 18.31038,-34.13601,0 18.30978,-34.1375,0 18.30929,-34.13866,0 18.30889,-34.13978,0 18.30844,-34.1412,0 18.30804,-34.14272,0 18.30774,-34.14416,0 18.30754,-34.14555,0 18.30743,-34.14661,0 18.30731,-34.14803,0 18.3074,-34.14979,0 18.30746,-34.151,0 18.30763,-34.15235,0 18.30786,-34.15366,0 18.30814,-34.15487,0 18.30855,-34.15649,0 18.30888,-34.15768,0 18.30935,-34.15919,0 18.30992,-34.16087,0 18.31045,-34.16235,0 18.31113,-34.16391,0 18.31169,-34.16505,0 18.31253,-34.16684,0 18.31331,-34.16821,0 18.31415,-34.16967,0 18.31499,-34.17105,0 18.31598,-34.1726,0 18.31679,-34.1738,0 18.31785,-34.17522,0 18.31869,-34.17636,0 18.31953,-34.17739,0 18.32054,-34.17865,0 18.3217,-34.18014,0 18.32262,-34.18126,0 18.32374,-34.18263,0 18.32491,-34.18396,0 18.32611,-34.18536,0 18.32714,-34.18652,0 18.32823,-34.18764,0 18.32934,-34.18881,0 18.33057,-34.19011,0 18.33183,-34.19141,0 18.33281,-34.19248,0 18.33406,-34.19383,0 18.33512,-34.19495,0 18.33647,-34.19648,0 18.33755,-34.19778,0 18.33854,-34.19897,0 18.3396,-34.2003,0 18.34059,-34.20165,0 18.34145,-34.20287,0 18.34236,-34.20421,0 18.34319,-34.20543,0 18.34414,-34.20691,0 18.34509,-34.20836,0 18.34591,-34.20975,0 18.34694,-34.21147,0 18.34768,-34.21273,0 18.34831,-34.21394,0 18.34913,-34.21545,0 18.3498,-34.21678,0 18.35053,-34.21834,0 18.35115,-34.21957,0 18.35199,-34.2215,0 18.35249,-34.22269,0 18.353,-34.224,0 18.35378,-34.22598,0 18.35432,-34.22735,0 18.35495,-34.22902,0 18.35535,-34.23005,0 18.35602,-34.2318,0 18.35661,-34.2334,0 18.35726,-34.23541,0 18.35771,-34.23669,0 18.3581,-34.23801,0 18.35849,-34.23949,0 18.35884,-34.24085,0 18.35928,-34.24242,0 18.35956,-34.2437,0 18.35987,-34.24517,0 18.36017,-34.24663,0 18.36034,-34.24768,0 18.36068,-34.24933,0 18.3609,-34.25072,0 18.36118,-34.25221,0 18.3614,-34.25349,0 18.3617,-34.255,0 18.36199,-34.25672,0 18.3623,-34.25835,0 18.36247,-34.2594,0 18.36275,-34.26073,0 18.3632,-34.2627,0 18.36353,-34.26394,0 18.36404,-34.26567,0 18.36439,-34.26691,0 18.36494,-34.26851,0 18.36544,-34.27002,0 18.36578,-34.27094,0 18.36651,-34.27281,0 18.36702,-34.27413,0 18.36768,-34.27579,0 18.36834,-34.2773,0 18.36891,-34.27855,0 18.36948,-34.27968,0 18.37011,-34.28107,0 18.37074,-34.28228,0 18.37155,-34.28389,0 18.37234,-34.28535,0 18.37864,-34.29782,0 18.38081,-34.30215,0 18.38316,-34.30686,0 18.38556,-34.31117,0 18.38722,-34.31398,0 18.38797,-34.31514,0 18.38904,-34.31667,0 18.3902,-34.31826,0 18.39117,-34.31956,0 18.39209,-34.32064,0 18.39294,-34.32171,0 18.39415,-34.32306,0 18.39492,-34.3239,0 18.39655,-34.32564,0 18.3975,-34.3266,0 18.39947,-34.32852,0 18.40053,-34.32948,0 18.40204,-34.33083,0 18.4033,-34.3319,0 18.4044,-34.33287,0 18.40548,-34.33372,0 18.40691,-34.33484,0 18.40805,-34.33567,0 18.40954,-34.33675,0 18.41096,-34.33777,0 18.41246,-34.33879,0 18.41389,-34.33973,0 18.41516,-34.34056,0 18.41698,-34.34168,0 18.41835,-34.34252,0 18.41964,-34.34331,0 18.42133,-34.34428,0 18.42262,-34.34505,0 18.4239,-34.34578,0 18.4255,-34.34666,0 18.42704,-34.34752,0 18.42844,-34.3483,0 18.42991,-34.34908,0 18.4313,-34.34985,0 18.43288,-34.35076,0 18.4341,-34.35146,0 18.43534,-34.35223,0 18.43712,-34.35327,0 18.43918,-34.35448,0 18.44301,-34.35676,0 18.44759,-34.35946,0 18.45288,-34.36267,0 18.45692,-34.36505,0 18.45818,-34.3657,0 18.45955,-34.36642,0 18.46104,-34.36719,0 18.4623,-34.3678,0 18.46381,-34.36853,0 18.46499,-34.36908,0 18.46647,-34.36975,0 18.46796,-34.37036,0 18.46936,-34.37091,0 18.4706,-34.37132,0 18.47177,-34.37173,0 18.47351,-34.37226,0 18.47477,-34.37263,0 18.4762,-34.37305,0 18.47763,-34.37343,0 18.47883,-34.37375,0 18.48049,-34.37413,0 18.48164,-34.3744,0 18.48295,-34.37468,0 18.48438,-34.37498,0 18.48545,-34.37521,0 18.48685,-34.37558,0 18.4881,-34.37594,0 18.48965,-34.37636,0 18.49077,-34.37663,0 18.49205,-34.37678,0 18.49352,-34.37691,0 18.49498,-34.37691,0 18.49628,-34.37683,0 18.49733,-34.37668,0 18.49857,-34.37645,0 18.49957,-34.37622,0 18.5008,-34.3759,0 18.50189,-34.37561,0 18.50269,-34.37538,0 18.50389,-34.37503,0 18.50501,-34.37466,0 18.50608,-34.3743,0 18.50698,-34.37394,0 18.50793,-34.37347,0 18.50859,-34.37315,0 18.50945,-34.37259,0 18.51023,-34.37201,0 18.51088,-34.37147,0 18.51133,-34.37096,0 18.51179,-34.37049,0 18.5123,-34.36981,0 18.51276,-34.36914,0 18.51314,-34.36848,0 18.51342,-34.3678,0 18.51362,-34.36719,0 18.51376,-34.36661,0 18.51391,-34.36589,0 18.51398,-34.36533,0 18.51402,-34.36472,0 18.51402,-34.36416,0 18.51402,-34.36337,0 18.51402,-34.36281,0 18.51391,-34.36207,0 18.51379,-34.36151,0 18.5137,-34.36098,0 18.51353,-34.36047,0 18.51334,-34.35988,0 18.51322,-34.35942,0 18.51299,-34.35881,0 18.51275,-34.35818,0 18.51258,-34.35768,0 18.5123,-34.35709,0 18.51208,-34.35658,0 18.51174,-34.35608,0 18.51128,-34.35522,0 18.51101,-34.35466,0 18.51056,-34.35397,0 18.51019,-34.35332,0 18.50983,-34.35274,0 18.50944,-34.35205,0 18.5091,-34.35131,0 18.50877,-34.35068,0 18.50842,-34.34996,0 18.50813,-34.34936,0 18.50773,-34.34871,0 18.50742,-34.34821,0 18.50704,-34.34759,0 18.5067,-34.34703,0 18.50624,-34.34637,0 18.50597,-34.34596,0 18.50563,-34.34537,0 18.50535,-34.34496,0 18.50504,-34.34447,0 18.50464,-34.34396,0 18.50428,-34.34354,0 18.50395,-34.34308,0 18.5035,-34.34258,0 18.50304,-34.34205,0 18.50266,-34.34161,0 18.50221,-34.34106,0 18.50182,-34.34047,0 18.50148,-34.33997,0 18.50103,-34.33928,0 18.50069,-34.3387,0 18.5004,-34.33814,0 18.49997,-34.33731,0 18.4996,-34.33651,0 18.49924,-34.33575,0 18.4989,-34.33498,0 18.49857,-34.33418,0 18.49834,-34.33358,0 18.49812,-34.33293,0 18.49794,-34.33228,0 18.49766,-34.33158,0 18.49739,-34.33095,0 18.49711,-34.33031,0 18.49686,-34.32962,0 18.49663,-34.32897,0 18.49638,-34.32829,0 18.49623,-34.32757,0 18.49606,-34.32687,0 18.49599,-34.32623,0 18.49599,-34.32518,0 18.49606,-34.3245,0 18.49623,-34.3238,0 18.4964,-34.3232,0 18.49672,-34.32234,0 18.49694,-34.32179,0 18.49722,-34.32106,0 18.49749,-34.3204,0 18.49777,-34.31975,0 18.498,-34.31929,0 18.49829,-34.31859,0 18.49851,-34.31804,0 18.49886,-34.31719,0 18.49909,-34.31659,0 18.49926,-34.31607,0 18.49952,-34.31538,0 18.49969,-34.31488,0 18.49991,-34.31419,0 18.50008,-34.31369,0 18.50025,-34.31319,0 18.50036,-34.31268,0 18.50058,-34.31204,0 18.5008,-34.31147,0 18.50098,-34.31094,0 18.5012,-34.31026,0 18.50138,-34.3096,0 18.50154,-34.30902,0 18.50166,-34.3084,0 18.50183,-34.3077,0 18.50201,-34.30709,0 18.50224,-34.30625,0 18.50241,-34.3056,0 18.50258,-34.30472,0 18.50269,-34.30407,0 18.50281,-34.30327,0 18.50292,-34.30262,0 18.50304,-34.30178,0 18.50321,-34.30104,0 18.50327,-34.30046,0 18.50339,-34.29982,0 18.5035,-34.29918,0 18.50367,-34.29829,0 18.50384,-34.2975,0 18.50395,-34.2968,0 18.504,-34.29611,0 18.50406,-34.29524,0 18.50412,-34.2946,0 18.50418,-34.29382,0 18.50418,-34.29303,0 18.50423,-34.29245,0 18.5043,-34.29173,0 18.5043,-34.29108,0 18.50435,-34.29038,0 18.50435,-34.28968,0 18.50441,-34.28912,0 18.50445,-34.28856,0 18.50447,-34.28786,0 18.50451,-34.28714,0 18.50456,-34.28668,0 18.50458,-34.28596,0 18.50456,-34.28526,0 18.50458,-34.28465,0 18.50458,-34.28354,0 18.50458,-34.28293,0 18.50458,-34.28218,0 18.50462,-34.28142,0 18.50468,-34.28073,0 18.50468,-34.28018,0 18.50475,-34.27948,0 18.50481,-34.27893,0 18.50484,-34.27835,0 18.5049,-34.27762,0 18.50498,-34.27697,0 18.50501,-34.2762,0 18.5051,-34.27557,0 18.50513,-34.27501,0 18.50515,-34.27441,0 18.50524,-34.27386,0 18.50533,-34.27311,0 18.50538,-34.27241,0 18.50538,-34.27176,0 18.50544,-34.27106,0 18.5055,-34.27045,0 18.50546,-34.26974,0 18.50544,-34.2691,0 18.50541,-34.26846,0 18.50541,-34.26782,0 18.50535,-34.267,0 18.50533,-34.26631,0 18.50527,-34.26552,0 18.50521,-34.26468,0 18.50518,-34.26402,0 18.50513,-34.26324,0 18.50507,-34.26274,0 18.50492,-34.26194,0 18.50481,-34.26119,0 18.50473,-34.26073,0 18.50451,-34.25995,0 18.50434,-34.25935,0 18.50417,-34.25858,0 18.50395,-34.25789,0 18.50378,-34.25733,0 18.50355,-34.25658,0 18.50322,-34.25583,0 18.50299,-34.25523,0 18.50269,-34.25463,0 18.50241,-34.25402,0 18.50204,-34.25322,0 18.50171,-34.25258,0 18.50137,-34.25194,0 18.50098,-34.25116,0 18.50064,-34.25043,0 18.5003,-34.24956,0 18.5,-34.24876,0 18.49972,-34.24802,0 18.49943,-34.24722,0 18.49913,-34.24631,0 18.49885,-34.24557,0 18.49869,-34.24504,0 18.49834,-34.24406,0 18.49806,-34.24329,0 18.49777,-34.24248,0 18.49756,-34.24173,0 18.49726,-34.24085,0 18.49703,-34.24015,0 18.49677,-34.2393,0 18.49616,-34.23729,0 18.49498,-34.23413,0 18.49475,-34.23358,0 18.4944,-34.23275,0 18.49408,-34.23207,0 18.49371,-34.23126,0 18.4933,-34.23047,0 18.49302,-34.22983,0 18.49274,-34.22914,0 18.49239,-34.22842,0 18.49205,-34.22772,0 18.49184,-34.22722,0 18.49148,-34.22641,0 18.49119,-34.22581,0 18.49085,-34.22502,0 18.49061,-34.22456,0 18.49022,-34.22379,0 18.48988,-34.22302,0 18.48949,-34.22223,0 18.48909,-34.2215,0 18.48876,-34.22086,0 18.48831,-34.21999,0 18.48799,-34.21939,0 18.48764,-34.21869,0 18.48724,-34.21783,0 18.48679,-34.21701,0 18.48644,-34.21631,0 18.48598,-34.21552,0 18.48553,-34.21473,0 18.48507,-34.21399,0 18.48466,-34.21335,0 18.48427,-34.21268,0 18.48381,-34.21189,0 18.48335,-34.21105,0 18.48301,-34.21049,0 18.48255,-34.20961,0 18.4822,-34.20895,0 18.48169,-34.20807,0 18.4813,-34.2074,0 18.4808,-34.20667,0 18.48043,-34.20612,0 18.4799,-34.20534,0 18.4794,-34.20456,0 18.479,-34.20396,0 18.47855,-34.20314,0 18.47826,-34.20263,0 18.47786,-34.20188,0 18.47746,-34.20109,0 18.47704,-34.20021,0 18.47671,-34.19939,0 18.47643,-34.1987,0 18.47603,-34.19778,0 18.4758,-34.19718,0 18.47546,-34.1962,0 18.47519,-34.19559,0 18.47488,-34.19462,0 18.47466,-34.19387,0 18.47431,-34.19304,0 18.47403,-34.19215,0 18.4738,-34.19146,0 18.47351,-34.19055,0 18.47328,-34.18992,0 18.473,-34.18922,0 18.47261,-34.18831,0 18.47231,-34.18745,0 18.47205,-34.1868,0 18.47162,-34.18587,0 18.47128,-34.18503,0 18.47099,-34.18433,0 18.47065,-34.18364,0 18.47025,-34.18284,0 18.46973,-34.18196,0 18.46925,-34.1813,0 18.46891,-34.18085,0 18.4683,-34.18014,0 18.46756,-34.17954,0 18.46699,-34.17907,0 18.4663,-34.17875,0 18.4655,-34.17851,0 18.46481,-34.17847,0 18.46373,-34.17861,0 18.4628,-34.17911,0 18.46208,-34.17984,0 18.46161,-34.18079,0 18.46149,-34.18191,0 18.46168,-34.18295,0 18.46213,-34.1841,0 18.46269,-34.1851,0 18.46331,-34.18602,0 18.46424,-34.18726,0 18.46538,-34.18872,0 18.46624,-34.18983,0 18.46716,-34.19108,0 18.46819,-34.19243,0 18.46897,-34.19344,0 18.46996,-34.19481,0 18.47088,-34.19604,0 18.47179,-34.19732,0 18.47277,-34.19867,0 18.47368,-34.19984,0 18.47448,-34.2009,0 18.47734,-34.20486,0 18.48038,-34.20914,0 18.48382,-34.21413,0 18.48635,-34.2182,0 18.48896,-34.22246,0 18.48971,-34.22374,0 18.49028,-34.22483,0 18.49111,-34.22644,0 18.49159,-34.22753,0 18.49218,-34.22868,0 18.49274,-34.23005,0 18.49324,-34.23143,0 18.49358,-34.23248,0 18.49388,-34.23359,0 18.494,-34.23498,0 18.49397,-34.23596,0 18.49371,-34.23698,0 18.49342,-34.23777,0 18.49302,-34.23853,0 18.49245,-34.23931,0 18.49188,-34.23991,0 18.49128,-34.2404,0 18.49062,-34.24075,0 18.49005,-34.24099,0 18.48932,-34.24118,0 18.48865,-34.24127,0 18.48822,-34.24126,0 18.48764,-34.24122,0 18.48696,-34.24113,0 18.48639,-34.24099,0 18.4859,-34.24086,0 18.48551,-34.24077,0 18.48495,-34.24063,0 18.48438,-34.24045,0 18.48381,-34.24024,0 18.4833,-34.24006,0 18.48281,-34.2399,0 18.48238,-34.23973,0 18.48198,-34.23954,0 18.48147,-34.2393,0 18.48108,-34.23912,0 18.48057,-34.23889,0 18.48021,-34.2387,0 18.47973,-34.23853,0 18.47928,-34.23825,0 18.47895,-34.2381,0 18.47866,-34.23792,0 18.47837,-34.23773,0 18.47809,-34.23754,0 18.47788,-34.23738,0 18.47763,-34.23717,0 18.47738,-34.23701,0 18.47715,-34.23688,0 18.47694,-34.2367,0 18.47672,-34.23661,0 18.47637,-34.23633,0 18.47614,-34.23619,0 18.47591,-34.236,0 18.47569,-34.23582,0 18.47547,-34.23564,0 18.47525,-34.23546,0 18.47508,-34.23523,0 18.47534,-34.23507,0 18.47614,-34.23463,0 18.47649,-34.23442,0 18.47682,-34.23413,0 18.47712,-34.23391,0 18.47743,-34.23358,0 18.47777,-34.23322,0 18.47811,-34.2328,0 18.47839,-34.23235,0 18.47872,-34.23184,0 18.479,-34.23143,0 18.47923,-34.23103,0 18.47952,-34.23051,0 18.47969,-34.23,0 18.47986,-34.22958,0 18.48003,-34.22902,0 18.48021,-34.22837,0 18.48035,-34.22791,0 18.48043,-34.22725,0 18.48055,-34.22679,0 18.48061,-34.22609,0 18.48057,-34.22548,0 18.48052,-34.22498,0 18.48043,-34.22441,0 18.48032,-34.2239,0 18.48021,-34.2232,0 18.48009,-34.22255,0 18.47996,-34.22191,0 18.4798,-34.22125,0 18.47968,-34.22063,0 18.47958,-34.22009,0 18.47945,-34.21939,0 18.47929,-34.21878,0 18.47917,-34.2182,0 18.47906,-34.21761,0 18.4785,-34.21541,0 18.47816,-34.21422,0 18.47771,-34.21216,0 18.47763,-34.21133,0 18.47757,-34.21054,0 18.47757,-34.20961,0 18.4776,-34.20882,0 18.47763,-34.20807,0 18.47769,-34.20724,0 18.47775,-34.20635,0 18.4778,-34.20565,0 18.4778,-34.20496,0 18.47792,-34.20384,0 18.47797,-34.20309,0 18.47805,-34.20222,0 18.47811,-34.20135,0 18.47816,-34.20058,0 18.4782,-34.19983,0 18.47822,-34.1992,0 18.47826,-34.19835,0 18.47826,-34.19769,0 18.47832,-34.19676,0 18.47833,-34.19627,0 18.47832,-34.19541,0 18.47833,-34.19458,0 18.47837,-34.19383,0 18.47844,-34.19307,0 18.47849,-34.19239,0 18.47849,-34.19155,0 18.47856,-34.19092,0 18.47855,-34.19001,0 18.47856,-34.18918,0 18.47861,-34.18813,0 18.4786,-34.18647,0 18.4786,-34.18559,0 18.47861,-34.18488,0 18.4786,-34.18396,0 18.4786,-34.18322,0 18.47861,-34.18172,0 18.4786,-34.18079,0 18.47856,-34.17993,0 18.47856,-34.17902,0 18.47855,-34.17838,0 18.47855,-34.17721,0 18.47855,-34.17646,0 18.47855,-34.17558,0 18.47856,-34.17265,0 18.47855,-34.16981,0 18.47861,-34.16656,0 18.4786,-34.16352,0 18.47861,-34.16093,0 18.47872,-34.15789,0 18.47889,-34.1553,0 18.479,-34.1537,0 18.47912,-34.15283,0 18.47917,-34.15196,0 18.47928,-34.15118,0 18.47934,-34.15045,0 18.4794,-34.14977,0 18.47946,-34.14886,0 18.47952,-34.14821,0 18.47962,-34.14729,0 18.47973,-34.14629,0 18.47979,-34.14537,0 18.47986,-34.14458,0 18.47992,-34.14378,0 18.47996,-34.14281,0 18.48007,-34.14194,0 18.48013,-34.14098,0 18.48015,-34.14006,0 18.48024,-34.13924,0 18.48026,-34.13848,0 18.48035,-34.13754,0 18.48043,-34.13652,0 18.48055,-34.13573,0 18.48072,-34.13457,0 18.4808,-34.13388,0 18.48089,-34.13294,0 18.48101,-34.1321,0 18.48112,-34.13122,0 18.48119,-34.13045,0 18.48125,-34.12971,0 18.48136,-34.12875,0 18.48147,-34.12784,0 18.48147,-34.12692,0 18.48153,-34.12614,0 18.48158,-34.12505,0 18.48158,-34.12431,0 18.48164,-34.12331,0 18.48164,-34.12251,0 18.48164,-34.12106,0 18.48164,-34.12033,0 18.48158,-34.11958,0 18.48158,-34.11883,0 18.48158,-34.11795,0 18.48153,-34.11722,0 18.48152,-34.11627,0 18.48152,-34.11567,0 18.48147,-34.1147,0 18.48141,-34.11385,0 18.48135,-34.11311,0 18.4813,-34.11214,0 18.48124,-34.11148,0 18.48119,-34.11049,0 18.48112,-34.10962,0 18.48113,-34.10893,0 18.48112,-34.10803,0 18.48108,-34.10728,0 18.48106,-34.1065,0 18.48108,-34.10587,0 18.48106,-34.10492,0 18.48119,-34.10403,0 18.48135,-34.10324,0 18.48101,-34.10231,0 18.48102,-34.10143,0 18.48101,-34.10077,0 18.48101,-34.09928,0 18.48101,-34.09668,0 18.48097,-34.09392,0 18.48102,-34.09163,0 18.48102,-34.08769,0 18.48101,-34.08587,0 18.48095,-34.08517,0 18.48091,-34.08444,0 18.48091,-34.08357,0 18.48085,-34.08284,0 18.48083,-34.08196,0 18.48085,-34.08105,0 18.48083,-34.08038,0 18.4808,-34.07954,0 18.48078,-34.07875,0 18.48072,-34.07777,0 18.48072,-34.07698,0 18.48072,-34.07605,0 18.48072,-34.07531,0 18.48069,-34.07437,0 18.48074,-34.07153,0 18.48072,-34.07079,0 18.4808,-34.06979,0 18.4808,-34.06902,0 18.48085,-34.06815,0 18.48083,-34.06739,0 18.48089,-34.06646,0 18.48091,-34.06563,0 18.48091,-34.06494,0 18.48089,-34.06418,0 18.48089,-34.0633,0 18.48091,-34.06229,0 18.48097,-34.06142,0 18.48095,-34.06069,0 18.48097,-34.05986,0 18.48101,-34.05897,0 18.48102,-34.05821,0 18.48106,-34.05724,0 18.48106,-34.05622,0 18.48112,-34.05538,0 18.48113,-34.05455,0 18.48118,-34.0538,0 18.48119,-34.0529,0 18.48125,-34.0519,0 18.48129,-34.05096,0 18.4813,-34.04782,0 18.48129,-34.04696,0 18.48129,-34.04598,0 18.48124,-34.04519,0 18.48124,-34.04444,0 18.48124,-34.04342,0 18.48119,-34.04269,0 18.48119,-34.041,0 18.48118,-34.04021,0 18.48119,-34.03931,0 18.48119,-34.03835,0 18.48118,-34.03774,0 18.48119,-34.03679,0 18.48118,-34.03597,0 18.48113,-34.03491,0 18.48112,-34.03197,0 18.48118,-34.0289,0 18.48118,-34.02601,0 18.48113,-34.02246,0 18.48118,-34.02056,0 18.48119,-34.01967,0 18.48119,-34.01894,0 18.48118,-34.01823,0 18.48119,-34.01752,0 18.48119,-34.01642,0 18.48118,-34.01567,0 18.48119,-34.01454,0 18.48118,-34.01367,0 18.48119,-34.01303,0 18.48124,-34.0119,0 18.48129,-34.01134,0 18.48141,-34.01051,0 18.48146,-34.00957,0 18.48153,-34.00887,0 18.48164,-34.00822,0 18.4817,-34.00758,0 18.48181,-34.00655,0 18.48186,-34.00585,0 18.48198,-34.00511,0 18.48204,-34.00436,0 18.48209,-34.00385,0 18.4822,-34.00296,0 18.4822,-34.00232,0 18.48221,-34.00171,0 18.48227,-34.0011,0 18.48227,-34.00017,0 18.48232,-33.99947,0 18.48232,-33.99859,0 18.48232,-33.99789,0 18.48237,-33.99532,0 18.48238,-33.99472,0 18.48232,-33.99361,0 18.48238,-33.99142,0 18.48231,-33.98904,0 18.48227,-33.9884,0 18.48227,-33.98756,0 18.48225,-33.98676,0 18.48225,-33.98589,0 18.48231,-33.9852,0 18.48231,-33.9846,0 18.48238,-33.98392,0 18.48242,-33.98314,0 18.48244,-33.98257,0 18.48248,-33.98177,0 18.48249,-33.98118,0 18.48249,-33.98043,0 18.48255,-33.97974,0 18.48255,-33.97871,0 18.48253,-33.97792,0 18.48248,-33.97723,0 18.48248,-33.97655,0 18.48244,-33.97606,0 18.48242,-33.97527,0 18.48244,-33.97457,0 18.48238,-33.97285,0 18.48242,-33.97133,0 18.48238,-33.97047,0 18.48242,-33.96977,0 18.48248,-33.96877,0 18.48249,-33.96805,0 18.48253,-33.96735,0 18.48259,-33.96657,0 18.48265,-33.96519,0 18.48267,-33.96442,0 18.48272,-33.96368,0 18.4827,-33.96277,0 18.48272,-33.96214,0 18.4827,-33.96135,0 18.48272,-33.96065,0 18.48276,-33.95984,0 18.48281,-33.95782,0 18.48284,-33.95497,0 18.48272,-33.95329,0 18.48267,-33.95264,0 18.48255,-33.9519,0 18.48249,-33.95124,0 18.48238,-33.95055,0 18.48227,-33.94976,0 18.48214,-33.94904,0 18.48203,-33.94839,0 18.48192,-33.94766,0 18.48175,-33.94682,0 18.48158,-33.94617,0 18.48141,-33.94542,0 18.48125,-33.94473,0 18.48097,-33.94382,0 18.48072,-33.943,0 18.48052,-33.94226,0 18.48021,-33.94138,0 18.48001,-33.9407,0 18.47973,-33.93988,0 18.47956,-33.93924,0 18.47923,-33.93837,0 18.47906,-33.93787,0 18.47872,-33.93691,0 18.47844,-33.93613,0 18.4782,-33.93546,0 18.47786,-33.93467,0 18.47746,-33.93374,0 18.47721,-33.93311,0 18.47677,-33.93221,0 18.47654,-33.93165,0 18.47609,-33.93081,0 18.4757,-33.93008,0 18.47536,-33.92953,0 18.47494,-33.92881,0 18.47452,-33.92816,0 18.47414,-33.9276,0 18.47357,-33.9267,0 18.47312,-33.9261,0 18.47256,-33.92528,0 18.47222,-33.92482,0 18.47151,-33.92392,0 18.47105,-33.92331,0 18.47054,-33.92267,0 18.47008,-33.92215,0 18.46947,-33.92143,0 18.46905,-33.92099,0 18.46842,-33.92033,0 18.46773,-33.91968,0 18.4671,-33.91908,0 18.46647,-33.91847,0 18.46579,-33.91782,0 18.46516,-33.91722,0 18.46458,-33.91666,0 18.46395,-33.916,0 18.46337,-33.91539,0 18.46286,-33.91489,0 18.46208,-33.91415,0 18.46152,-33.91356,0 18.46095,-33.91301,0 18.45898,-33.91112,0 18.4572,-33.90944,0 18.45608,-33.90843,0 18.4548,-33.9073,0 18.45417,-33.90678,0 18.45348,-33.90628,0 18.45274,-33.90572,0 18.45211,-33.9053,0 18.45137,-33.90486,0 18.45064,-33.9045,0 18.44986,-33.90417,0 18.44913,-33.90395,0 18.44846,-33.90372,0 18.4475,-33.90344,0 18.44655,-33.90321,0 18.44576,-33.90308,0 18.44496,-33.90288,0 18.44404,-33.90274,0 18.4433,-33.90262,0 18.44246,-33.90253,0 18.4419,-33.90244,0 18.44118,-33.90237,0 18.44033,-33.90225,0 18.43954,-33.90216,0 18.43881,-33.90207,0 18.43797,-33.90198,0 18.43752,-33.90193,0 18.4368,-33.90184,0 18.43649,-33.90176,0 18.43575,-33.90167,0 18.43439,-33.90152,0 18.43334,-33.90134,0 18.43287,-33.90129,0 18.43226,-33.90115,0 18.43117,-33.90088,0 18.43085,-33.90079,0 18.43054,-33.90069,0 18.43019,-33.9006,0 18.42985,-33.90047,0 18.42957,-33.90036,0 18.42928,-33.90022,0 18.42906,-33.9001,0 18.42884,-33.90001,0 18.42861,-33.89987,0 18.42839,-33.89969,0 18.42819,-33.89934,0 18.42808,-33.89887,0 18.42822,-33.89832,0 18.42836,-33.89794,0 18.42867,-33.8974,0 18.42905,-33.89682,0 18.4294,-33.89639,0 18.42996,-33.89571,0 18.43035,-33.8952,0 18.43069,-33.89479,0 18.43136,-33.89401,0 18.43191,-33.89338,0 18.43242,-33.89282,0 18.43299,-33.89218,0 18.43357,-33.89152,0 18.43416,-33.89085,0 18.43467,-33.8903,0 18.43523,-33.88966,0 18.4359,-33.88879,0 18.43637,-33.88817,0 18.43685,-33.88742,0 18.43729,-33.88668,0 18.43763,-33.88589,0 18.43786,-33.88522,0 18.43792,-33.88454,0 18.43786,-33.8839,0 18.43752,-33.88307,0 18.43708,-33.88248,0 18.43666,-33.88207,0 18.43597,-33.8816,0 18.43529,-33.88128,0 18.43449,-33.88105,0 18.43338,-33.88078,0 18.43231,-33.88063,0 18.4314,-33.88058,0 18.43041,-33.8806,0 18.42928,-33.88067,0 18.42808,-33.88081,0 18.42687,-33.88101,0 18.42613,-33.88109,0 18.42475,-33.88129,0 18.4235,-33.88151,0 18.42256,-33.88165,0 18.42167,-33.88179,0 18.42043,-33.88202,0 18.41932,-33.88221,0 18.41806,-33.88244,0 18.41701,-33.88266,0 18.41566,-33.88295,0 18.41443,-33.88326,0 18.41342,-33.88353,0 18.41246,-33.88379,0 18.41135,-33.88412,0 18.40994,-33.88458,0 18.40911,-33.88495,0 18.40811,-33.88542,0 18.40709,-33.88591,0 18.40645,-33.88626,0 18.40563,-33.88669,0 18.40485,-33.8871,0 18.40405,-33.88756,0 18.40305,-33.88802,0 18.40227,-33.88838,0 18.40137,-33.88884,0 18.40047,-33.8893,0 18.39935,-33.88984,0 18.39846,-33.8903,0 18.39739,-33.89085,0 18.39632,-33.89147,0 18.39509,-33.89214,0 18.39408,-33.89273,0 18.39313,-33.89333,0 18.39209,-33.89403,0 18.39123,-33.89461,0 18.39003,-33.89548,0 18.38893,-33.89635,0 18.38797,-33.89706,0 18.38708,-33.89781,0 18.38608,-33.89869,0 18.385,-33.89964,0 18.38383,-33.90065,0 18.38282,-33.90161,0 18.38184,-33.90255,0 18.38097,-33.90349,0 18.38007,-33.90445,0 18.37921,-33.90539,0 18.37818,-33.9066,0 18.37749,-33.90752,0 18.37658,-33.9087,0 18.37587,-33.90958,0 18.37503,-33.91077,0 18.37412,-33.91196,0 18.3732,-33.91321,0 18.37245,-33.91425,0 18.37177,-33.91521,0 18.37088,-33.91635,0 18.37009,-33.91745,0 18.3692,-33.91864,0 18.36851,-33.91954,0 18.36582,-33.9235,0 18.36353,-33.92704,0 18.36136,-33.93048,0 18.35905,-33.93411,0 18.35701,-33.93742,0 18.35429,-33.94203,0 18.35295,-33.94459,0 18.35227,-33.94597,0 18.35175,-33.94715,0 18.35112,-33.94854,0 18.35064,-33.94972,0 18.35003,-33.95115,0 18.34947,-33.95256,0 18.34885,-33.95407,0 18.34829,-33.95544,0 18.34773,-33.95686,0 18.34728,-33.95804,0 18.34482,-33.96405,0 18.34246,-33.97,0 18.34047,-33.97536,0 18.33837,-33.98154,0 18.33641,-33.98802,0 18.33521,-33.99221,0 18.33418,-33.99598,0 18.33332,-33.9998,0 18.33321,-34.00073,0 18.33303,-34.00236,0 18.33298,-34.00394,0 18.33299,-34.00548,0 18.33303,-34.00687,0 18.33315,-34.00864,0 18.33332,-34.00992,0 18.33349,-34.01134,0 18.33377,-34.01266,0 18.33401,-34.01395,0 18.33433,-34.01541,0 18.33464,-34.01674,0 18.33495,-34.01793,0 18.33534,-34.01949,0 18.33579,-34.021,0 18.33618,-34.02233,0 18.33669,-34.0237,0 18.33698,-34.0247,0 18.33758,-34.02631,0 18.33814,-34.02763,0 18.3387,-34.02903,0 18.33933,-34.03062,0 18.34011,-34.0323,0 18.34072,-34.03377,0 18.34128,-34.035,0 18.34196,-34.03658,0 18.34259,-34.03797,0 18.34345,-34.03993,0 18.34409,-34.04128,0 18.34498,-34.04311,0 18.34571,-34.04448,0 18.34644,-34.0459,0 18.34728,-34.04741,0 18.34826,-34.04896,0 18.34906,-34.05035,0 18.35014,-34.05212,0 18.35098,-34.05336,0 18.35199,-34.05496,0 18.353,-34.05645,0 18.3539,-34.05785,0 18.35489,-34.0592,0 18.35581,-34.06046,0 18.3567,-34.06169,0 18.35793,-34.06325,0 18.35905,-34.06471,0 18.36017,-34.06604,0 18.36113,-34.06721,0 18.36245,-34.06879,0 18.36348,-34.06995,0 18.36477,-34.07144,0 18.366,-34.07286,0 18.36718,-34.07419,0 18.36817,-34.07531,0 18.36948,-34.07675,0 18.37065,-34.07803,0 18.37189,-34.0794,0 18.37561,-34.08341,0 18.37933,-34.08755,0 18.38461,-34.09341,0 18.3882,-34.09747,0 18.39203,-34.1017,0 18.39336,-34.10303,0 18.47138,-33.92395,0 18.46942,-33.92139,0 18.46891,-33.92079,0 18.46819,-33.92006,0 18.46762,-33.91942,0 18.46695,-33.91878,0 18.46647,-33.91829,0 18.46572,-33.91759,0 18.4651,-33.91708,0 18.46432,-33.9164,0 18.46355,-33.91573,0 18.46281,-33.91512,0 18.46235,-33.91465,0 18.46161,-33.91396,0 18.46084,-33.91324,0 18.46024,-33.9127,0 18.4595,-33.91196,0 18.45877,-33.91118,0 18.45823,-33.9107,0 18.45765,-33.91008,0 18.4568,-33.9093,0 18.45612,-33.90865,0 18.45531,-33.908,0 18.45463,-33.90744,0 18.45377,-33.90683,0 18.45303,-33.90637,0 18.45204,-33.90578,0 18.45125,-33.90539,0 18.45039,-33.90506,0 18.44918,-33.90463,0 18.44805,-33.90427,0 18.44722,-33.90399,0 18.44627,-33.90372,0 18.44542,-33.90348,0 18.44433,-33.9032,0 18.44318,-33.90297,0 18.44234,-33.9028,0 18.44164,-33.90265,0 18.44072,-33.90248,0 18.43937,-33.90225,0 18.43878,-33.90218,0 18.43758,-33.90198,0 18.4366,-33.90185,0 18.43586,-33.90185,0 18.43506,-33.90185,0 18.43427,-33.90198,0 18.43343,-33.90202,0 18.43282,-33.90202,0 18.43147,-33.90157,0 18.43102,-33.90129,0 18.43063,-33.90106,0 18.43035,-33.90088,0 18.42996,-33.90056,0 18.42968,-33.90041,0 18.42945,-33.90027,0 18.42916,-33.90013,0 18.42894,-33.89999,0 18.42872,-33.89983,0 18.42848,-33.89971,0</coordinates>
      </LineString>
    </Placemark>
  </Document>
</kml>
