<?xml version="1.0" encoding="UTF-8"?>
<kml xmlns="http://www.opengis.net/kml/2.2">
  <Document>
    <name>FR24 3f19a3ea</name>
    <Placemark>
      <name>FR24 3f19a3ea</name>
      <Style><LineStyle><color>ff0000ff</color><width>4</width></LineStyle></Style>
      <LineString>
        <tessellate>1</tessellate>
        <coordinates>18.43371,-33.88834,0 18.43512,-33.88626,0 18.43551,-33.88541,0 18.43563,-33.88477,0 18.43567,-33.88394,0 18.43556,-33.88316,0 18.43534,-33.88249,0 18.435,-33.88193,0 18.43456,-33.88129,0 18.43397,-33.88076,0 18.43323,-33.88016,0 18.4326,-33.87974,0 18.43181,-33.87932,0 18.43102,-33.879,0 18.43001,-33.87859,0 18.42928,-33.87839,0 18.42825,-33.87811,0 18.4271,-33.87793,0 18.42603,-33.87772,0 18.42514,-33.87758,0 18.42441,-33.87749,0 18.42306,-33.8773,0 18.42217,-33.87721,0 18.42098,-33.87709,0 18.42009,-33.87698,0 18.41891,-33.87685,0 18.41796,-33.87675,0 18.41679,-33.87666,0 18.41578,-33.87662,0 18.41482,-33.87657,0 18.41376,-33.87657,0 18.41257,-33.87658,0 18.41157,-33.87657,0 18.4104,-33.87658,0 18.40939,-33.87657,0 18.40816,-33.87662,0 18.40675,-33.87671,0 18.40588,-33.87681,0 18.40462,-33.877,0 18.40356,-33.87717,0 18.40244,-33.87746,0 18.40124,-33.87778,0 18.40027,-33.87811,0 18.3993,-33.87845,0 18.39827,-33.8789,0 18.39745,-33.87927,0 18.39644,-33.87978,0 18.39537,-33.88037,0 18.39436,-33.88092,0 18.39347,-33.88147,0 18.39252,-33.88206,0 18.39151,-33.88272,0 18.3906,-33.88328,0 18.38963,-33.88393,0 18.38894,-33.88444,0 18.38792,-33.88518,0 18.38708,-33.88582,0 18.38614,-33.88654,0 18.38556,-33.887,0 18.38444,-33.88792,0 18.38371,-33.88852,0 18.38293,-33.88914,0 18.38226,-33.88971,0 18.38121,-33.89059,0 18.38053,-33.89119,0 18.37978,-33.8918,0 18.3787,-33.89273,0 18.37795,-33.89333,0 18.37721,-33.89399,0 18.37632,-33.89479,0 18.37543,-33.89557,0 18.37463,-33.89636,0 18.37378,-33.89715,0 18.37286,-33.89804,0 18.37217,-33.89873,0 18.37155,-33.89932,0 18.37077,-33.9001,0 18.37011,-33.90074,0 18.36943,-33.90148,0 18.36868,-33.90227,0 18.36782,-33.90311,0 18.3672,-33.90376,0 18.36656,-33.9045,0 18.36583,-33.90518,0 18.36505,-33.9061,0 18.36433,-33.90683,0 18.3637,-33.90756,0 18.36292,-33.90848,0 18.36236,-33.90916,0 18.36023,-33.91168,0 18.35815,-33.91425,0 18.35764,-33.91489,0 18.35552,-33.9175,0 18.35358,-33.91996,0 18.35216,-33.9218,0 18.35032,-33.9242,0 18.34762,-33.92784,0 18.34608,-33.92983,0 18.34351,-33.93332,0 18.34093,-33.937,0 18.33842,-33.94052,0 18.33641,-33.94331,0 18.3345,-33.94606,0 18.33271,-33.94872,0 18.33074,-33.95164,0 18.32886,-33.95441,0 18.32598,-33.95892,0 18.32434,-33.96163,0 18.32251,-33.96484,0 18.31982,-33.97001,0 18.31864,-33.97234,0 18.31746,-33.97485,0 18.31535,-33.97969,0 18.31381,-33.98299,0 18.31209,-33.98653,0 18.31049,-33.98956,0 18.30872,-33.99263,0 18.3074,-33.995,0 18.30694,-33.99594,0 18.30636,-33.99696,0 18.30585,-33.99798,0 18.30547,-33.99889,0 18.30507,-33.9998,0 18.30448,-34.00119,0 18.30406,-34.00223,0 18.30362,-34.00333,0 18.30322,-34.00443,0 18.30282,-34.00539,0 18.30249,-34.00635,0 18.30214,-34.00729,0 18.30182,-34.00818,0 18.30137,-34.00937,0 18.30092,-34.01074,0 18.30065,-34.01162,0 18.29962,-34.01498,0 18.29935,-34.01596,0 18.29905,-34.01721,0 18.29882,-34.01819,0 18.29853,-34.0194,0 18.29835,-34.02054,0 18.29818,-34.0215,0 18.29801,-34.02255,0 18.2979,-34.02342,0 18.29773,-34.02461,0 18.29767,-34.02587,0 18.29762,-34.02676,0 18.29762,-34.02791,0 18.29762,-34.02896,0 18.29767,-34.03001,0 18.29779,-34.03099,0 18.2979,-34.03192,0 18.29807,-34.03308,0 18.29824,-34.0342,0 18.2984,-34.0351,0 18.29863,-34.03633,0 18.29885,-34.03729,0 18.29916,-34.03872,0 18.29941,-34.03963,0 18.29973,-34.04076,0 18.30008,-34.04182,0 18.30042,-34.04286,0 18.30065,-34.0437,0 18.30105,-34.04491,0 18.30139,-34.04579,0 18.30177,-34.04686,0 18.30227,-34.04828,0 18.30261,-34.04919,0 18.303,-34.05016,0 18.30334,-34.05101,0 18.30378,-34.05212,0 18.30414,-34.05296,0 18.3046,-34.05403,0 18.305,-34.05492,0 18.30563,-34.05627,0 18.3062,-34.05743,0 18.30675,-34.05853,0 18.30731,-34.05959,0 18.30786,-34.06069,0 18.30832,-34.06151,0 18.30888,-34.06261,0 18.30939,-34.06357,0 18.3098,-34.06441,0 18.3104,-34.06554,0 18.31095,-34.06656,0 18.31203,-34.0686,0 18.31432,-34.0724,0 18.31507,-34.07354,0 18.31564,-34.07438,0 18.31633,-34.0754,0 18.3169,-34.07625,0 18.31764,-34.07731,0 18.31839,-34.07833,0 18.31886,-34.07895,0 18.31976,-34.08014,0 18.32056,-34.08113,0 18.32136,-34.0821,0 18.32199,-34.08289,0 18.32267,-34.08371,0 18.32363,-34.08476,0 18.32451,-34.08574,0 18.32508,-34.08636,0 18.3262,-34.08755,0 18.32699,-34.08829,0 18.32794,-34.0892,0 18.32878,-34.08998,0 18.32977,-34.09085,0 18.33057,-34.09151,0 18.33158,-34.09232,0 18.33246,-34.093,0 18.33332,-34.09365,0 18.33418,-34.09425,0 18.33523,-34.09506,0 18.33635,-34.09579,0 18.33742,-34.09648,0 18.33859,-34.09721,0 18.33971,-34.09785,0 18.34044,-34.09831,0 18.34173,-34.099,0 18.3428,-34.0995,0 18.34379,-34.10003,0 18.34505,-34.10063,0 18.34602,-34.1011,0 18.34728,-34.1017,0 18.34831,-34.10217,0 18.34951,-34.10273,0 18.35048,-34.10316,0 18.35152,-34.10366,0 18.35277,-34.10422,0 18.35367,-34.10463,0 18.35512,-34.10533,0 18.35615,-34.10575,0 18.35724,-34.10627,0 18.3605,-34.10771,0 18.3637,-34.10915,0 18.36841,-34.11127,0 18.37284,-34.11328,0 18.37635,-34.11474,0 18.38097,-34.11653,0 18.3822,-34.11699,0 18.38345,-34.11744,0 18.38444,-34.11781,0 18.38562,-34.11823,0 18.38665,-34.11855,0 18.39005,-34.11974,0 18.39346,-34.12088,0 18.39705,-34.12216,0 18.40047,-34.12335,0 18.40344,-34.1245,0 18.40668,-34.12572,0 18.40782,-34.12619,0 18.40871,-34.12656,0 18.40994,-34.12703,0 18.41085,-34.1274,0 18.41185,-34.12784,0 18.41291,-34.12833,0 18.4137,-34.12871,0 18.41469,-34.12917,0 18.41555,-34.12958,0 18.41663,-34.1301,0 18.41743,-34.13047,0 18.41841,-34.13094,0 18.41921,-34.13131,0 18.42004,-34.13168,0 18.4211,-34.1321,0 18.422,-34.13246,0 18.42295,-34.13287,0 18.42379,-34.13322,0 18.42564,-34.13393,0 18.42648,-34.13424,0 18.42755,-34.13461,0 18.42833,-34.13489,0 18.42939,-34.13517,0 18.43037,-34.13545,0 18.43122,-34.13564,0 18.43214,-34.13583,0 18.43293,-34.13599,0 18.43416,-34.13612,0 18.43523,-34.13625,0 18.43626,-34.13625,0 18.43718,-34.13625,0 18.43831,-34.13622,0 18.43929,-34.1361,0 18.44027,-34.13601,0 18.44145,-34.1358,0 18.44261,-34.13559,0 18.44347,-34.13536,0 18.44439,-34.13508,0 18.44564,-34.13461,0 18.44644,-34.13425,0 18.4475,-34.13379,0 18.4484,-34.13329,0 18.44925,-34.1328,0 18.45011,-34.13229,0 18.45086,-34.13177,0 18.45177,-34.13112,0 18.45277,-34.13045,0 18.45354,-34.12987,0 18.45428,-34.12935,0 18.45531,-34.12856,0 18.45623,-34.12786,0 18.45697,-34.1273,0 18.45798,-34.12656,0 18.45888,-34.12587,0 18.4595,-34.12532,0 18.46046,-34.12456,0 18.46121,-34.12391,0 18.46208,-34.12317,0 18.46297,-34.12234,0 18.46367,-34.12172,0 18.46436,-34.12111,0 18.46498,-34.12046,0 18.46577,-34.11969,0 18.46651,-34.11891,0 18.46727,-34.11809,0 18.46785,-34.11744,0 18.46842,-34.11679,0 18.46914,-34.11594,0 18.46964,-34.11525,0 18.47031,-34.11436,0 18.47099,-34.11346,0 18.47155,-34.11259,0 18.47202,-34.1119,0 18.47261,-34.11086,0 18.47305,-34.11013,0 18.47351,-34.1092,0 18.4739,-34.10843,0 18.47435,-34.10742,0 18.4748,-34.10651,0 18.47514,-34.10568,0 18.47553,-34.10468,0 18.47581,-34.10381,0 18.4762,-34.10263,0 18.47643,-34.10194,0 18.47682,-34.10074,0 18.47706,-34.09993,0 18.47734,-34.09891,0 18.47766,-34.09772,0 18.47788,-34.09685,0 18.47816,-34.09543,0 18.47832,-34.09458,0 18.47849,-34.09356,0 18.47867,-34.09245,0 18.47878,-34.09158,0 18.47889,-34.09048,0 18.47895,-34.08971,0 18.47906,-34.08853,0 18.47912,-34.08778,0 18.47917,-34.08669,0 18.47923,-34.08606,0 18.47929,-34.0848,0 18.47934,-34.08389,0 18.47935,-34.08294,0 18.47946,-34.08196,0 18.47952,-34.08113,0 18.47958,-34.08033,0 18.47968,-34.07945,0 18.47986,-34.07843,0 18.48001,-34.07758,0 18.48018,-34.07675,0 18.48043,-34.07573,0 18.48066,-34.07479,0 18.48085,-34.07391,0 18.48108,-34.07314,0 18.48136,-34.07208,0 18.48158,-34.07126,0 18.48181,-34.07016,0 18.48203,-34.06911,0 18.48225,-34.06828,0 18.48244,-34.06725,0 18.48259,-34.06636,0 18.48276,-34.06554,0 18.48287,-34.06453,0 18.48298,-34.06371,0 18.4831,-34.06284,0 18.48324,-34.06181,0 18.48338,-34.061,0 18.48354,-34.05981,0 18.48377,-34.05872,0 18.48398,-34.05785,0 18.48416,-34.05693,0 18.48438,-34.0562,0 18.48461,-34.05515,0 18.48489,-34.05423,0 18.48511,-34.05331,0 18.48536,-34.05254,0 18.48567,-34.05125,0 18.4859,-34.05025,0 18.48607,-34.04942,0 18.48629,-34.04846,0 18.48652,-34.04755,0 18.48673,-34.04659,0 18.4869,-34.04565,0 18.48707,-34.04467,0 18.48719,-34.04365,0 18.4873,-34.04281,0 18.48742,-34.04198,0 18.48753,-34.04105,0 18.48764,-34.04013,0 18.48776,-34.03909,0 18.4878,-34.0383,0 18.48792,-34.03729,0 18.48797,-34.03629,0 18.48804,-34.03541,0 18.4881,-34.03457,0 18.4881,-34.03374,0 18.48816,-34.0329,0 18.4882,-34.0318,0 18.48816,-34.03076,0 18.4882,-34.02992,0 18.4882,-34.02892,0 18.48814,-34.028,0 18.4881,-34.02703,0 18.4881,-34.02615,0 18.48799,-34.02531,0 18.48792,-34.02434,0 18.4878,-34.02324,0 18.48769,-34.02242,0 18.48759,-34.02163,0 18.48747,-34.02024,0 18.48741,-34.01962,0 18.4873,-34.01839,0 18.48724,-34.01767,0 18.48713,-34.01669,0 18.48708,-34.01564,0 18.48701,-34.01474,0 18.48702,-34.01367,0 18.48696,-34.01293,0 18.48696,-34.01186,0 18.48696,-34.01088,0 18.48696,-34.01001,0 18.48696,-34.00897,0 18.48702,-34.00772,0 18.48707,-34.00674,0 18.48713,-34.00584,0 18.48713,-34.00506,0 18.48719,-34.00424,0 18.48724,-34.00334,0 18.48724,-34.00022,0 18.48713,-33.99924,0 18.48701,-33.9984,0 18.48684,-33.99761,0 18.48667,-33.99654,0 18.48652,-33.99568,0 18.48644,-33.99496,0 18.48633,-33.99412,0 18.48627,-33.9931,0 18.48621,-33.99216,0 18.48621,-33.99137,0 18.48621,-33.99035,0 18.48621,-33.98951,0 18.48629,-33.98845,0 18.4864,-33.98767,0 18.4865,-33.98676,0 18.48656,-33.98602,0 18.48667,-33.98523,0 18.48679,-33.98448,0 18.48684,-33.98369,0 18.48696,-33.98272,0 18.48702,-33.98199,0 18.48713,-33.98103,0 18.48713,-33.98029,0 18.48719,-33.97941,0 18.48719,-33.97866,0 18.48724,-33.97787,0 18.48724,-33.97704,0 18.48724,-33.97643,0 18.4873,-33.97549,0 18.4873,-33.9748,0 18.48724,-33.97406,0 18.48724,-33.97316,0 18.48724,-33.97238,0 18.48719,-33.97142,0 18.48708,-33.97064,0 18.48696,-33.96968,0 18.48691,-33.96895,0 18.4868,-33.96803,0 18.48673,-33.9674,0 18.48667,-33.96651,0 18.48656,-33.96582,0 18.48646,-33.96483,0 18.48633,-33.96395,0 18.48623,-33.96323,0 18.4861,-33.96242,0 18.48595,-33.96158,0 18.48553,-33.95902,0 18.48495,-33.95549,0 18.48444,-33.95293,0 18.48381,-33.94966,0 18.48347,-33.9485,0 18.48321,-33.94748,0 18.48293,-33.94661,0 18.48259,-33.9456,0 18.48225,-33.94455,0 18.48198,-33.94366,0 18.48175,-33.943,0 18.48136,-33.94199,0 18.48097,-33.94089,0 18.48061,-33.93998,0 18.48026,-33.93905,0 18.4799,-33.9381,0 18.47952,-33.93709,0 18.47923,-33.93631,0 18.47889,-33.93549,0 18.47843,-33.93444,0 18.47811,-33.9337,0 18.47763,-33.93258,0 18.47729,-33.93202,0 18.47665,-33.93082,0 18.47626,-33.93007,0 18.47564,-33.92908,0 18.47506,-33.92825,0 18.47448,-33.92741,0 18.47396,-33.92661,0 18.47346,-33.92592,0 18.47295,-33.92519,0 18.47237,-33.92443,0 18.47155,-33.9234,0 18.47105,-33.9228,0 18.47025,-33.92178,0 18.46976,-33.92111,0 18.46908,-33.92029,0 18.46848,-33.91959,0 18.46807,-33.91905,0 18.46734,-33.91818,0 18.46673,-33.9175,0 18.46617,-33.91685,0 18.46538,-33.91599,0 18.46476,-33.91535,0 18.46418,-33.9147,0 18.46333,-33.91386,0 18.46269,-33.91319,0 18.46196,-33.91251,0 18.46107,-33.91164,0 18.46039,-33.91095,0 18.45955,-33.91014,0 18.45898,-33.90944,0 18.45823,-33.9086,0 18.4577,-33.90788,0 18.4572,-33.9072,0 18.45657,-33.90618,0 18.45602,-33.90532,0 18.45554,-33.9046,0 18.45497,-33.90385,0 18.45434,-33.90311,0 18.45356,-33.90244,0 18.45277,-33.90189,0 18.45194,-33.90153,0 18.45119,-33.90125,0 18.45008,-33.90102,0 18.44908,-33.90088,0 18.44812,-33.90083,0 18.44767,-33.90088,0 18.44717,-33.90088,0 18.44633,-33.90102,0 18.4456,-33.90111,0 18.44536,-33.90115,0 18.44479,-33.90125,0 18.44408,-33.90138,0 18.44369,-33.90147,0 18.44324,-33.90152,0 18.44263,-33.90161,0 18.44229,-33.90166,0 18.44193,-33.90167,0 18.44128,-33.9017,0 18.4409,-33.90171,0 18.44032,-33.90171,0 18.43982,-33.90166,0 18.43935,-33.90162,0 18.43898,-33.90161,0 18.43861,-33.90157,0 18.43803,-33.90152,0 18.43758,-33.90148,0 18.43735,-33.90148,0 18.43674,-33.90143,0 18.43635,-33.90138,0 18.43592,-33.90139,0 18.43552,-33.90134,0 18.43506,-33.90129,0 18.43477,-33.90129,0 18.43454,-33.90129,0 18.43388,-33.90125,0 18.43357,-33.9012,0 18.43323,-33.90115,0 18.43299,-33.90115,0 18.43259,-33.90111,0 18.43191,-33.90097,0 18.43168,-33.90092,0 18.43142,-33.90088,0 18.43105,-33.90078,0 18.43065,-33.90064,0 18.43002,-33.90036,0 18.42979,-33.90028,0 18.42939,-33.90009,0 18.42911,-33.89999,0 18.42878,-33.89983,0 18.42854,-33.89971,0 18.42833,-33.8996,0 18.42808,-33.89943,0 18.42788,-33.89914,0 18.42779,-33.89892,0 18.42772,-33.89845,0 18.42777,-33.89809,0 18.42791,-33.89776,0 18.42802,-33.89753,0 18.42833,-33.89703,0 18.4285,-33.8968,0 18.42872,-33.89658,0 18.42889,-33.89635,0 18.42922,-33.89599,0 18.42968,-33.89548,0 18.43014,-33.89492,0 18.43037,-33.89468,0 18.43071,-33.89426,0 18.43114,-33.89383,0 18.4313,-33.89355,0 18.43164,-33.89314,0 18.43185,-33.89291,0 18.43209,-33.89264,0 18.43231,-33.89236,0 18.43248,-33.89208,0 18.43271,-33.89175,0 18.43293,-33.89145,0 18.4331,-33.89113,0 18.4338,-33.88989,0 18.43416,-33.88925,0 18.4346,-33.88849,0 18.43495,-33.88783,0 18.43523,-33.88715,0 18.4354,-33.88672,0 18.43557,-33.88575,0 18.43551,-33.88513,0 18.43534,-33.88449,0 18.43506,-33.88388,0 18.4346,-33.88328,0 18.43391,-33.88263,0 18.43323,-33.88221,0 18.43259,-33.88197,0 18.43174,-33.88174,0 18.4308,-33.88161,0 18.42974,-33.88146,0 18.42888,-33.88142,0 18.42805,-33.88138,0 18.42721,-33.88133,0 18.42607,-33.88128,0 18.42519,-33.88124,0 18.4243,-33.88124,0 18.42321,-33.88128,0 18.4223,-33.88132,0 18.42115,-33.88142,0 18.42037,-33.88152,0 18.41948,-33.88161,0 18.41852,-33.88169,0 18.41749,-33.88184,0 18.41645,-33.88193,0 18.41561,-33.88202,0 18.41466,-33.88216,0 18.41376,-33.88229,0 18.41269,-33.88244,0 18.4118,-33.88261,0 18.41068,-33.8828,0 18.40978,-33.88298,0 18.40897,-33.88314,0 18.40771,-33.88337,0 18.40685,-33.88356,0 18.40588,-33.88379,0 18.40524,-33.88394,0 18.40406,-33.88431,0 18.40344,-33.88449,0 18.40256,-33.88477,0 18.40153,-33.88514,0 18.40078,-33.88542,0 18.39981,-33.88579,0 18.39884,-33.88621,0 18.39801,-33.8866,0 18.39722,-33.88696,0 18.39643,-33.88733,0 18.39546,-33.88779,0 18.39453,-33.88829,0 18.39363,-33.88879,0 18.3928,-33.88925,0 18.39209,-33.88966,0 18.39117,-33.89026,0 18.3905,-33.89072,0 18.38971,-33.89122,0 18.38893,-33.89172,0 18.3882,-33.89218,0 18.38764,-33.89255,0 18.38676,-33.89315,0 18.38585,-33.89378,0 18.38511,-33.89431,0 18.38433,-33.89493,0 18.38366,-33.89548,0 18.38293,-33.89608,0 18.38224,-33.89664,0 18.3815,-33.89724,0 18.38063,-33.89795,0 18.37996,-33.89846,0 18.37901,-33.89919,0 18.37822,-33.89973,0 18.37755,-33.90028,0 18.37658,-33.90097,0 18.37592,-33.90147,0 18.37498,-33.90223,0 18.37424,-33.9028,0 18.37337,-33.90348,0 18.37267,-33.90408,0 18.37183,-33.90477,0 18.3711,-33.90541,0 18.37023,-33.90623,0 18.36948,-33.90688,0 18.36869,-33.90756,0 18.36791,-33.90829,0 18.36712,-33.90903,0 18.36617,-33.90999,0 18.36544,-33.91068,0 18.36473,-33.9114,0 18.36387,-33.91223,0 18.36313,-33.91293,0 18.36241,-33.91365,0 18.36021,-33.91582,0 18.3572,-33.91901,0 18.35524,-33.92125,0 18.35449,-33.9221,0 18.35384,-33.92294,0 18.35328,-33.92363,0 18.35249,-33.92462,0 18.35186,-33.92541,0 18.35109,-33.92642,0 18.35048,-33.9272,0 18.3498,-33.92806,0 18.34907,-33.92912,0 18.34846,-33.92995,0 18.34774,-33.93095,0 18.34717,-33.93173,0 18.34654,-33.93262,0 18.34381,-33.93654,0 18.34201,-33.93919,0 18.33939,-33.9431,0 18.33736,-33.94611,0 18.33555,-33.94887,0 18.3331,-33.95261,0 18.3312,-33.95548,0 18.32954,-33.95813,0 18.32749,-33.96153,0 18.32604,-33.96396,0 18.32211,-33.9708,0 18.31902,-33.97596,0 18.31678,-33.97992,0 18.31472,-33.98365,0 18.31278,-33.98732,0 18.31101,-33.9906,0 18.309,-33.99426,0 18.30694,-33.99821,0 18.30547,-34.0014,0 18.30505,-34.00241,0 18.3046,-34.00352,0 18.3042,-34.00459,0 18.30378,-34.00557,0 18.30334,-34.00669,0 18.30294,-34.00772,0 18.30259,-34.00874,0 18.30225,-34.00967,0 18.30177,-34.01088,0 18.30149,-34.01175,0 18.30104,-34.01289,0 18.3007,-34.01386,0 18.29933,-34.01786,0 18.29824,-34.02107,0 18.29756,-34.02335,0 18.29739,-34.02428,0 18.29717,-34.02548,0 18.29716,-34.02638,0 18.29728,-34.02708,0 18.29762,-34.02806,0 18.29813,-34.02871,0 18.29876,-34.02927,0 18.2995,-34.02964,0 18.3007,-34.02983,0 18.30149,-34.02979,0 18.30236,-34.02954,0 18.30334,-34.02905,0 18.30401,-34.02837,0 18.30448,-34.02773,0 18.30485,-34.02686,0 18.30511,-34.02605,0 18.30541,-34.02525,0 18.30568,-34.02443,0 18.30597,-34.02356,0 18.30625,-34.02278,0 18.30653,-34.02209,0 18.30694,-34.02107,0 18.30731,-34.02036,0 18.30776,-34.01939,0 18.30826,-34.01847,0 18.30877,-34.01763,0 18.30917,-34.01688,0 18.30963,-34.01604,0 18.31006,-34.01537,0 18.31078,-34.01405,0 18.31118,-34.01331,0 18.31174,-34.01239,0 18.31219,-34.01166,0 18.31275,-34.01065,0 18.31326,-34.00983,0 18.31382,-34.00891,0 18.31432,-34.00813,0 18.31488,-34.00726,0 18.31535,-34.00655,0 18.31595,-34.00562,0 18.31662,-34.00465,0 18.31707,-34.00392,0 18.3177,-34.00296,0 18.31827,-34.00203,0 18.31873,-34.00129,0 18.31937,-34.00026,0 18.31976,-33.99957,0 18.32033,-33.99854,0 18.32082,-33.99774,0 18.32142,-33.99673,0 18.32188,-33.99589,0 18.32376,-33.99249,0 18.32783,-33.98543,0 18.33057,-33.98076,0 18.3331,-33.97618,0 18.33562,-33.9716,0 18.3383,-33.96698,0 18.34106,-33.96254,0 18.34391,-33.95827,0 18.34549,-33.95586,0 18.34734,-33.95306,0 18.34902,-33.9505,0 18.35076,-33.94798,0 18.35283,-33.94496,0 18.35501,-33.9417,0 18.35741,-33.93826,0 18.35922,-33.93553,0 18.36159,-33.93206,0 18.36331,-33.92953,0 18.36519,-33.92671,0 18.36746,-33.9234,0 18.36937,-33.92075,0 18.37144,-33.918,0 18.37395,-33.91461,0 18.37643,-33.91132,0 18.37709,-33.91042,0 18.37783,-33.90953,0 18.37856,-33.90862,0 18.37927,-33.90781,0 18.38007,-33.90688,0 18.38076,-33.90609,0 18.38144,-33.9053,0 18.38259,-33.90408,0 18.38327,-33.9034,0 18.38385,-33.90288,0 18.38489,-33.90184,0 18.38556,-33.90129,0 18.38663,-33.90042,0 18.38739,-33.89981,0 18.3882,-33.89919,0 18.38887,-33.89868,0 18.39016,-33.89777,0 18.39106,-33.89715,0 18.39203,-33.89655,0 18.39319,-33.89584,0 18.39408,-33.89534,0 18.39523,-33.89468,0 18.39598,-33.89431,0 18.39717,-33.89369,0 18.39806,-33.89323,0 18.39896,-33.89282,0 18.40019,-33.89223,0 18.40115,-33.89182,0 18.40227,-33.89136,0 18.40324,-33.89091,0 18.40417,-33.89058,0 18.40524,-33.89017,0 18.40645,-33.8897,0 18.40726,-33.88939,0 18.40855,-33.88898,0 18.4096,-33.88863,0 18.41063,-33.88831,0 18.41191,-33.88792,0 18.41297,-33.88761,0 18.414,-33.88733,0 18.41499,-33.8871,0 18.41629,-33.88677,0 18.41757,-33.88646,0 18.41852,-33.88623,0 18.41955,-33.88602,0 18.42082,-33.88577,0 18.42196,-33.88556,0 18.42306,-33.88541,0 18.42413,-33.88527,0 18.42539,-33.88519,0 18.42636,-33.88519,0 18.42732,-33.88527,0 18.42867,-33.88541,0 18.42985,-33.88568,0 18.43091,-33.886,0 18.43209,-33.88641,0 18.43299,-33.88683,0 18.43397,-33.88733,0 18.43489,-33.88794,0 18.4358,-33.88863,0 18.43652,-33.8893,0 18.4373,-33.89012,0 18.43786,-33.89082,0 18.43838,-33.89157,0 18.43893,-33.89259,0 18.43932,-33.89346,0 18.4396,-33.89424,0 18.43969,-33.89478,0 18.43975,-33.89501,0 18.43982,-33.89539,0 18.43992,-33.89599,0 18.43994,-33.8963,0 18.43994,-33.89671,0 18.43992,-33.89729,0 18.43987,-33.89766,0 18.43982,-33.89809,0 18.43971,-33.89841,0 18.4396,-33.89891,0 18.43943,-33.89923,0 18.43924,-33.89957,0 18.43906,-33.89985,0 18.43878,-33.90022,0 18.43848,-33.90051,0 18.43826,-33.90069,0 18.43786,-33.90097,0 18.43763,-33.90106,0 18.43719,-33.90125,0 18.43685,-33.90138,0 18.43655,-33.90144,0 18.43626,-33.90144,0 18.43575,-33.90148,0 18.43545,-33.90143,0 18.43506,-33.90139,0 18.43478,-33.90134,0 18.4345,-33.9012,0 18.43409,-33.90106,0 18.43386,-33.90092,0 18.43363,-33.90078,0 18.43315,-33.90056,0 18.43288,-33.90051,0 18.43237,-33.90036,0 18.43214,-33.90032,0 18.43191,-33.90027,0 18.43168,-33.90022,0 18.43147,-33.90019,0 18.43119,-33.90015,0 18.43097,-33.9001,0 18.43019,-33.89999,0 18.42991,-33.8999,0 18.42968,-33.89987,0 18.42945,-33.89981,0 18.42912,-33.89969,0 18.42878,-33.89964,0 18.42856,-33.89964,0 18.42833,-33.8996,0</coordinates>
      </LineString>
    </Placemark>
  </Document>
</kml>
