<?xml version="1.0" encoding="UTF-8"?>
<kml xmlns="http://www.opengis.net/kml/2.2">
  <Document>
    <name>FR24 4173cc36</name>
    <Placemark>
      <name>FR24 4173cc36</name>
      <Style><LineStyle><color>ff0000ff</color><width>4</width></LineStyle></Style>
      <LineString>
        <tessellate>1</tessellate>
        <coordinates>18.43696,-33.88701,0 18.43758,-33.88523,0 18.43775,-33.88412,0 18.43775,-33.88305,0 18.43769,-33.88211,0 18.43752,-33.88123,0 18.43729,-33.88025,0 18.43696,-33.87941,0 18.43655,-33.87848,0 18.43609,-33.87774,0 18.43545,-33.8768,0 18.43494,-33.87611,0 18.43409,-33.87523,0 18.43327,-33.87456,0 18.43231,-33.87378,0 18.43153,-33.87328,0 18.43052,-33.87273,0 18.42945,-33.87218,0 18.42854,-33.87178,0 18.42721,-33.87131,0 18.42626,-33.87103,0 18.42486,-33.87067,0 18.42379,-33.87044,0 18.42287,-33.87029,0 18.4215,-33.87011,0 18.42041,-33.87006,0 18.41908,-33.87003,0 18.41795,-33.87006,0 18.41658,-33.87015,0 18.41533,-33.8703,0 18.41429,-33.87048,0 18.41331,-33.87067,0 18.4123,-33.8709,0 18.41108,-33.87127,0 18.41,-33.87159,0 18.40874,-33.87201,0 18.40776,-33.87236,0 18.40673,-33.87276,0 18.40569,-33.87318,0 18.40456,-33.87364,0 18.4037,-33.87402,0 18.40273,-33.87448,0 18.40165,-33.87502,0 18.40104,-33.87529,0 18.39964,-33.87597,0 18.39861,-33.87653,0 18.39758,-33.87709,0 18.39661,-33.8776,0 18.39577,-33.87804,0 18.39464,-33.87863,0 18.39358,-33.87918,0 18.3928,-33.87959,0 18.39139,-33.88033,0 18.39055,-33.88078,0 18.38982,-33.88115,0 18.3887,-33.88179,0 18.38745,-33.88253,0 18.38648,-33.88314,0 18.3854,-33.8838,0 18.38456,-33.88435,0 18.38371,-33.8849,0 18.38265,-33.88564,0 18.38164,-33.88632,0 18.38087,-33.88686,0 18.38007,-33.88747,0 18.37906,-33.88824,0 18.37833,-33.88879,0 18.37738,-33.88956,0 18.37652,-33.89022,0 18.37561,-33.89101,0 18.37486,-33.89161,0 18.374,-33.89236,0 18.3732,-33.89305,0 18.37223,-33.89389,0 18.37138,-33.89465,0 18.37074,-33.89524,0 18.36981,-33.89612,0 18.3688,-33.89706,0 18.36796,-33.89786,0 18.36729,-33.89854,0 18.36639,-33.89948,0 18.36544,-33.90038,0 18.36471,-33.90115,0 18.36393,-33.90198,0 18.36313,-33.90279,0 18.36222,-33.90367,0 18.36136,-33.9046,0 18.36061,-33.90535,0 18.35978,-33.90633,0 18.35907,-33.90716,0 18.35821,-33.90825,0 18.35759,-33.90903,0 18.3569,-33.91,0 18.35636,-33.91068,0 18.35569,-33.91168,0 18.35513,-33.91255,0 18.35445,-33.91356,0 18.35381,-33.91461,0 18.35311,-33.91566,0 18.35266,-33.91647,0 18.3521,-33.9174,0 18.35157,-33.91833,0 18.35112,-33.91922,0 18.35054,-33.92029,0 18.35003,-33.9212,0 18.34958,-33.92212,0 18.34891,-33.92349,0 18.34846,-33.92441,0 18.34801,-33.92555,0 18.34757,-33.92662,0 18.34717,-33.92755,0 18.34665,-33.92885,0 18.34627,-33.92976,0 18.34577,-33.931,0 18.34538,-33.93196,0 18.34498,-33.93288,0 18.34459,-33.93393,0 18.34414,-33.935,0 18.34362,-33.93621,0 18.34328,-33.93714,0 18.34308,-33.9381,0 18.34308,-33.93947,0 18.34333,-33.94035,0 18.34408,-33.94142,0 18.34499,-33.94217,0 18.34602,-33.94258,0 18.347,-33.94273,0 18.34863,-33.94254,0 18.34991,-33.94198,0 18.35087,-33.94135,0 18.35169,-33.94059,0 18.35244,-33.93974,0 18.3534,-33.93849,0 18.35403,-33.93765,0 18.35479,-33.93663,0 18.35552,-33.93556,0 18.35625,-33.93452,0 18.3569,-33.93356,0 18.35752,-33.93262,0 18.35821,-33.93155,0 18.35884,-33.93058,0 18.35941,-33.92965,0 18.3601,-33.92857,0 18.36073,-33.92757,0 18.36146,-33.92642,0 18.36219,-33.92532,0 18.36292,-33.92418,0 18.3637,-33.92299,0 18.36445,-33.92192,0 18.36684,-33.91841,0 18.36903,-33.9154,0 18.37217,-33.91109,0 18.37469,-33.90784,0 18.37635,-33.90577,0 18.37875,-33.90288,0 18.38144,-33.89976,0 18.38224,-33.89883,0 18.384,-33.89685,0 18.385,-33.89575,0 18.38685,-33.89378,0 18.38791,-33.89268,0 18.38887,-33.89182,0 18.38994,-33.89095,0 18.39123,-33.88994,0 18.3924,-33.88916,0 18.39358,-33.88838,0 18.39448,-33.88788,0 18.39615,-33.887,0 18.39752,-33.88635,0 18.39872,-33.88584,0 18.39986,-33.88536,0 18.40141,-33.88477,0 18.40296,-33.88421,0 18.40429,-33.8838,0 18.40542,-33.88346,0 18.40703,-33.88307,0 18.40866,-33.88271,0 18.41017,-33.88239,0 18.41171,-33.88211,0 18.41309,-33.88193,0 18.41429,-33.88174,0 18.41612,-33.88156,0 18.41738,-33.88146,0 18.41847,-33.88142,0 18.42007,-33.88142,0 18.42172,-33.88152,0 18.42304,-33.88165,0 18.4243,-33.88184,0 18.42558,-33.88206,0 18.42676,-33.88235,0 18.42828,-33.8828,0 18.42945,-33.88319,0 18.43063,-33.88362,0 18.4317,-33.88403,0 18.43323,-33.88477,0 18.4346,-33.88551,0 18.43562,-33.88614,0 18.43657,-33.88673,0 18.43746,-33.88733,0 18.43855,-33.88812,0 18.43937,-33.8887,0 18.44049,-33.88961,0 18.44118,-33.89022,0 18.44206,-33.89117,0 18.44268,-33.89191,0 18.44324,-33.89291,0 18.44358,-33.89369,0 18.4438,-33.89461,0 18.44387,-33.89543,0 18.44363,-33.89635,0 18.44324,-33.89717,0 18.44279,-33.89777,0 18.44201,-33.89836,0 18.44101,-33.89883,0 18.43994,-33.89909,0 18.43881,-33.89919,0 18.43775,-33.8992,0 18.43691,-33.89919,0 18.43615,-33.89915,0 18.43511,-33.89914,0 18.43472,-33.89914,0 18.43431,-33.89915,0 18.43371,-33.89914,0 18.4334,-33.89915,0 18.43299,-33.89919,0 18.43248,-33.8992,0 18.43214,-33.8992,0 18.43181,-33.89919,0 18.43147,-33.89923,0 18.43065,-33.89929,0 18.43031,-33.89929,0 18.42945,-33.89939,0 18.42916,-33.89943,0 18.42848,-33.89957,0 18.42822,-33.89964,0 18.428,-33.89973,0 18.42756,-33.8999,0 18.42727,-33.9001,0 18.4271,-33.90032,0 18.42704,-33.90056,0 18.42704,-33.90079,0 18.4271,-33.90102,0 18.4271,-33.90078,0 18.42715,-33.90033,0 18.42728,-33.90004,0 18.42755,-33.89969,0 18.42768,-33.89948,0 18.428,-33.899,0 18.42831,-33.89864,0 18.4285,-33.89832,0 18.42871,-33.89804,0 18.42888,-33.8978,0 18.42911,-33.89757,0 18.42929,-33.89726,0 18.42957,-33.8969,0 18.42979,-33.89659,0 18.43018,-33.89603,0 18.4306,-33.89543,0 18.43074,-33.8952,0 18.43094,-33.89492,0 18.43111,-33.89464,0 18.43128,-33.89436,0 18.43158,-33.89392,0 18.4318,-33.89361,0 18.43197,-33.89333,0 18.43226,-33.89296,0 18.43248,-33.89264,0 18.43388,-33.89049,0 18.43489,-33.88889,0 18.43534,-33.88807,0 18.43573,-33.88733,0 18.43597,-33.88682,0 18.43632,-33.88575,0 18.43655,-33.88486,0 18.43668,-33.88408,0 18.43678,-33.88323,0 18.43683,-33.88249,0 18.4368,-33.8817,0 18.4368,-33.88065,0 18.43674,-33.87964,0 18.43668,-33.87881,0 18.43657,-33.8779,0 18.43646,-33.87712,0 18.43632,-33.87611,0 18.4362,-33.87523,0 18.43601,-33.87378,0 18.43584,-33.87291,0 18.43563,-33.87183,0 18.43556,-33.87099,0 18.43579,-33.87016,0 18.43629,-33.86966,0 18.43678,-33.86945,0 18.43723,-33.86941,0 18.43781,-33.86954,0 18.43821,-33.86969,0 18.43861,-33.87001,0 18.43895,-33.87043,0 18.43912,-33.8708,0 18.43924,-33.87141,0 18.43918,-33.87192,0 18.43901,-33.87248,0 18.43865,-33.87305,0 18.43803,-33.87369,0 18.4373,-33.87415,0 18.43635,-33.8746,0 18.4354,-33.8749,0 18.4345,-33.87511,0 18.43321,-33.87543,0 18.43203,-33.87564,0 18.43094,-33.87583,0 18.42997,-33.87597,0 18.42856,-33.87611,0 18.42756,-33.87625,0 18.42625,-33.87634,0 18.42516,-33.87643,0 18.42402,-33.87653,0 18.42253,-33.87667,0 18.42115,-33.87676,0 18.41992,-33.8768,0 18.41864,-33.8769,0 18.41712,-33.87698,0 18.41566,-33.87709,0 18.41421,-33.87721,0 18.41274,-33.87732,0 18.40933,-33.87762,0 18.40462,-33.87816,0 18.40324,-33.87835,0 18.4021,-33.87854,0 18.40078,-33.87877,0 18.39924,-33.87909,0 18.39809,-33.87932,0 18.39695,-33.8796,0 18.39546,-33.88007,0 18.39432,-33.88044,0 18.39319,-33.88087,0 18.39169,-33.88146,0 18.3905,-33.88193,0 18.38904,-33.88266,0 18.38803,-33.88312,0 18.38705,-33.88365,0 18.38612,-33.88412,0 18.38522,-33.88463,0 18.38416,-33.88527,0 18.38315,-33.88586,0 18.3822,-33.88651,0 18.38116,-33.88714,0 18.38013,-33.88792,0 18.37945,-33.88838,0 18.37864,-33.889,0 18.37772,-33.88966,0 18.37687,-33.89031,0 18.37584,-33.89115,0 18.37515,-33.8917,0 18.3743,-33.89241,0 18.37334,-33.89328,0 18.37257,-33.89394,0 18.37166,-33.89482,0 18.37069,-33.8958,0 18.36987,-33.89662,0 18.36914,-33.8974,0 18.36841,-33.89818,0 18.36737,-33.89929,0 18.36651,-33.90027,0 18.36559,-33.90125,0 18.36482,-33.90216,0 18.36411,-33.90292,0 18.36331,-33.90381,0 18.36253,-33.90477,0 18.36157,-33.90587,0 18.3609,-33.90683,0 18.36023,-33.90775,0 18.35924,-33.9087,0 18.35827,-33.9093,0 18.35741,-33.90963,0 18.35602,-33.90981,0 18.35495,-33.90972,0 18.35352,-33.90911,0 18.35289,-33.90848,0 18.35255,-33.90784,0 18.35238,-33.90716,0 18.35243,-33.90632,0 18.35277,-33.90573,0 18.35339,-33.90509,0 18.35395,-33.90472,0 18.35468,-33.90445,0 18.35569,-33.90427,0 18.35658,-33.90422,0 18.35752,-33.90427,0 18.35838,-33.90422,0 18.35918,-33.9039,0 18.35964,-33.9032,0 18.35944,-33.90244,0 18.35878,-33.90195,0 18.35793,-33.90179,0 18.35701,-33.90181,0 18.35608,-33.90207,0 18.35518,-33.90244,0 18.35445,-33.90294,0 18.35345,-33.90376,0 18.35277,-33.9045,0 18.35205,-33.90536,0 18.35146,-33.90623,0 18.35083,-33.9073,0 18.35032,-33.90842,0 18.34986,-33.90935,0 18.34952,-33.91026,0 18.34902,-33.9115,0 18.34866,-33.91247,0 18.34814,-33.91372,0 18.3478,-33.91475,0 18.34745,-33.91571,0 18.34694,-33.91699,0 18.3466,-33.91796,0 18.34614,-33.91936,0 18.34574,-33.92043,0 18.34526,-33.92171,0 18.34482,-33.92285,0 18.34448,-33.92381,0 18.34397,-33.92514,0 18.34225,-33.92974,0 18.34064,-33.93393,0 18.33921,-33.93773,0 18.33767,-33.94207,0 18.33635,-33.94556,0 18.33456,-33.95082,0 18.33315,-33.95492,0 18.33187,-33.95847,0 18.33086,-33.96094,0 18.33041,-33.96199,0 18.32748,-33.96824,0 18.32663,-33.9707,0 18.32703,-33.97396,0 18.32789,-33.97572,0 18.32823,-33.9768,0 18.32834,-33.97927,0 18.32794,-33.98127,0 18.32714,-33.98383,0 18.32637,-33.98575,0 18.32588,-33.987,0 18.32542,-33.98807,0 18.32491,-33.98927,0 18.3243,-33.99078,0 18.32374,-33.99216,0 18.32336,-33.99295,0 18.32273,-33.99454,0 18.32234,-33.99568,0 18.32193,-33.99668,0 18.3201,-34.0014,0 18.31884,-34.00511,0 18.31712,-34.0101,0 18.31558,-34.01479,0 18.31421,-34.0187,0 18.31264,-34.02255,0 18.31146,-34.02582,0 18.31101,-34.02745,0 18.31083,-34.02852,0 18.31062,-34.02992,0 18.31055,-34.03113,0 18.3106,-34.03229,0 18.31089,-34.03369,0 18.31124,-34.03473,0 18.31169,-34.0362,0 18.31198,-34.03741,0 18.31221,-34.03848,0 18.31247,-34.04008,0 18.3127,-34.04118,0 18.31295,-34.04235,0 18.31324,-34.04346,0 18.31359,-34.04462,0 18.31398,-34.04602,0 18.31443,-34.04741,0 18.31484,-34.04845,0 18.31527,-34.04961,0 18.31578,-34.05093,0 18.31628,-34.05212,0 18.31678,-34.05324,0 18.31724,-34.05428,0 18.31774,-34.05537,0 18.31824,-34.05643,0 18.31897,-34.05785,0 18.31959,-34.05897,0 18.32043,-34.06036,0 18.32102,-34.06134,0 18.32188,-34.06269,0 18.32256,-34.06361,0 18.32325,-34.0646,0 18.32417,-34.06581,0 18.32491,-34.0667,0 18.32581,-34.06773,0 18.32668,-34.06879,0 18.32738,-34.06961,0 18.32833,-34.07066,0 18.3292,-34.07167,0 18.33002,-34.07254,0 18.33102,-34.0735,0 18.33198,-34.07423,0 18.33303,-34.07465,0 18.33412,-34.07484,0 18.33529,-34.07469,0 18.33607,-34.07433,0 18.33669,-34.07396,0 18.33704,-34.07354,0 18.3373,-34.07295,0 18.33725,-34.07254,0 18.33685,-34.07217,0 18.33618,-34.07208,0 18.33549,-34.07251,0 18.33512,-34.07318,0 18.335,-34.07382,0 18.33512,-34.07501,0 18.33549,-34.0761,0 18.33607,-34.07735,0 18.33674,-34.07854,0 18.33736,-34.0795,0 18.33818,-34.08071,0 18.33893,-34.08178,0 18.3396,-34.0827,0 18.34047,-34.08387,0 18.34134,-34.08499,0 18.34236,-34.08625,0 18.34328,-34.08736,0 18.34409,-34.08838,0 18.34498,-34.08948,0 18.34591,-34.09053,0 18.34682,-34.09151,0 18.34763,-34.09239,0 18.34879,-34.09355,0 18.34986,-34.09456,0 18.35076,-34.09534,0 18.35193,-34.09625,0 18.35323,-34.09719,0 18.35432,-34.09784,0 18.35546,-34.09854,0 18.35718,-34.09937,0 18.35866,-34.10005,0 18.36016,-34.10068,0 18.36164,-34.10128,0 18.36285,-34.10175,0 18.36462,-34.1024,0 18.36599,-34.10291,0 18.36757,-34.10349,0 18.36914,-34.10399,0 18.37054,-34.10445,0 18.37189,-34.1049,0 18.37326,-34.10538,0 18.37447,-34.10573,0 18.37612,-34.10627,0 18.37772,-34.10678,0 18.37873,-34.10706,0 18.38013,-34.10751,0 18.38167,-34.10799,0 18.38596,-34.10939,0 18.39008,-34.11069,0 18.39302,-34.11168,0 18.3942,-34.11223,0 18.39526,-34.11278,0 18.39684,-34.11362,0 18.39798,-34.11418,0 18.39918,-34.11483,0 18.40038,-34.11548,0 18.40176,-34.11618,0 18.40284,-34.11674,0 18.40422,-34.11739,0 18.40569,-34.11813,0 18.40714,-34.11879,0 18.40851,-34.11944,0 18.40948,-34.1199,0 18.41096,-34.12061,0 18.41217,-34.12116,0 18.41389,-34.12204,0 18.41503,-34.1226,0 18.41646,-34.12326,0 18.41795,-34.12405,0 18.41942,-34.12463,0 18.42116,-34.125,0 18.42228,-34.12514,0 18.42367,-34.12531,0 18.42542,-34.12564,0 18.42665,-34.12596,0 18.42777,-34.12642,0 18.42916,-34.12703,0 18.43042,-34.12763,0 18.43147,-34.12816,0 18.43282,-34.12885,0 18.43394,-34.12944,0 18.43539,-34.13017,0 18.43678,-34.13084,0 18.43797,-34.13136,0 18.43924,-34.13177,0 18.44106,-34.13228,0 18.44246,-34.13251,0 18.44386,-34.13264,0 18.44564,-34.13266,0 18.44728,-34.13255,0 18.44868,-34.13232,0 18.45047,-34.13196,0 18.45177,-34.13163,0 18.45348,-34.13103,0 18.45507,-34.1304,0 18.45629,-34.12982,0 18.45759,-34.12903,0 18.45892,-34.12819,0 18.46024,-34.12721,0 18.46135,-34.12637,0 18.4623,-34.12558,0 18.46342,-34.12463,0 18.46449,-34.12367,0 18.46544,-34.12285,0 18.46664,-34.12167,0 18.46746,-34.12079,0 18.46836,-34.11986,0 18.46931,-34.11877,0 18.47026,-34.11763,0 18.47104,-34.11667,0 18.47194,-34.11562,0 18.47284,-34.11447,0 18.47346,-34.11369,0 18.47429,-34.1125,0 18.47519,-34.11131,0 18.47586,-34.11031,0 18.47649,-34.10938,0 18.47723,-34.10813,0 18.47775,-34.10724,0 18.47839,-34.10605,0 18.47889,-34.10473,0 18.47923,-34.10367,0 18.47952,-34.10268,0 18.47975,-34.10124,0 18.47986,-34.10017,0 18.47996,-34.09914,0 18.48001,-34.09772,0 18.48003,-34.09621,0 18.48003,-34.095,0 18.48003,-34.09281,0 18.48009,-34.09151,0 18.48007,-34.09035,0 18.48015,-34.08899,0 18.48024,-34.08755,0 18.48026,-34.08643,0 18.48035,-34.08522,0 18.48043,-34.08411,0 18.48074,-34.08037,0 18.48118,-34.07577,0 18.48135,-34.0747,0 18.48153,-34.07359,0 18.48181,-34.0724,0 18.48209,-34.07103,0 18.48242,-34.06989,0 18.48267,-34.06888,0 18.48298,-34.06773,0 18.4833,-34.06641,0 18.48366,-34.06503,0 18.48399,-34.06361,0 18.48422,-34.06252,0 18.4845,-34.06119,0 18.48472,-34.06004,0 18.48495,-34.05885,0 18.48523,-34.05753,0 18.48539,-34.05629,0 18.48558,-34.0551,0 18.48581,-34.05389,0 18.48607,-34.05249,0 18.48623,-34.05139,0 18.4864,-34.05029,0 18.48657,-34.04915,0 18.48719,-34.04514,0 18.4878,-34.04063,0 18.48822,-34.03704,0 18.48839,-34.03467,0 18.48848,-34.03345,0 18.48848,-34.03258,0 18.48856,-34.03117,0 18.48856,-34.02978,0 18.48862,-34.02866,0 18.48862,-34.02759,0 18.48859,-34.02576,0 18.48859,-34.02457,0 18.48856,-34.02331,0 18.48853,-34.02214,0 18.48853,-34.02104,0 18.48845,-34.01982,0 18.48842,-34.01866,0 18.48827,-34.01735,0 18.48816,-34.01619,0 18.48808,-34.01509,0 18.48797,-34.01418,0 18.48787,-34.01307,0 18.4878,-34.01207,0 18.48769,-34.01079,0 18.48764,-34.00941,0 18.48759,-34.00841,0 18.48753,-34.00697,0 18.48747,-34.00598,0 18.48747,-34.00469,0 18.48742,-34.00334,0 18.48741,-34.00237,0 18.48747,-34.00017,0 18.48747,-33.99901,0 18.48753,-33.99784,0 18.48759,-33.99668,0 18.4877,-33.99552,0 18.48776,-33.99477,0 18.48786,-33.99358,0 18.48793,-33.99263,0 18.48804,-33.99137,0 18.48814,-33.98991,0 18.48822,-33.98872,0 18.48833,-33.98742,0 18.48848,-33.98602,0 18.48859,-33.98479,0 18.48873,-33.98355,0 18.48887,-33.98241,0 18.48898,-33.98112,0 18.48913,-33.9795,0 18.48926,-33.97842,0 18.48943,-33.97705,0 18.48959,-33.97569,0 18.48965,-33.97457,0 18.48976,-33.9735,0 18.48982,-33.97202,0 18.48988,-33.97087,0 18.48988,-33.96991,0 18.48988,-33.96776,0 18.48982,-33.96675,0 18.48977,-33.96533,0 18.4896,-33.96405,0 18.48942,-33.96298,0 18.48919,-33.96167,0 18.48893,-33.96053,0 18.48856,-33.95939,0 18.48814,-33.95805,0 18.4878,-33.95691,0 18.48736,-33.95544,0 18.48702,-33.95435,0 18.48668,-33.95297,0 18.48635,-33.95187,0 18.48598,-33.95045,0 18.48562,-33.94894,0 18.48528,-33.9478,0 18.48495,-33.94661,0 18.48467,-33.94543,0 18.48427,-33.94405,0 18.48398,-33.94287,0 18.4837,-33.9418,0 18.48338,-33.94061,0 18.48289,-33.93905,0 18.48259,-33.938,0 18.48215,-33.93686,0 18.48164,-33.93553,0 18.48119,-33.93457,0 18.48063,-33.93333,0 18.47992,-33.93206,0 18.47917,-33.93068,0 18.47861,-33.92967,0 18.47809,-33.92871,0 18.47746,-33.92778,0 18.47671,-33.92665,0 18.47591,-33.92569,0 18.475,-33.92457,0 18.47418,-33.92363,0 18.47312,-33.92249,0 18.47225,-33.92168,0 18.47116,-33.92065,0 18.47015,-33.91974,0 18.46928,-33.91898,0 18.46791,-33.91782,0 18.46695,-33.91704,0 18.46601,-33.91633,0 18.46482,-33.91534,0 18.46384,-33.91452,0 18.46269,-33.91356,0 18.4618,-33.91278,0 18.46069,-33.91177,0 18.45961,-33.91077,0 18.45875,-33.91005,0 18.4577,-33.90903,0 18.4568,-33.90814,0 18.45602,-33.90733,0 18.4552,-33.90651,0 18.454,-33.90532,0 18.45322,-33.9045,0 18.45228,-33.90348,0 18.45154,-33.90276,0 18.45053,-33.90184,0 18.44954,-33.90111,0 18.44846,-33.90042,0 18.4475,-33.89992,0 18.44633,-33.89946,0 18.44461,-33.89892,0 18.44364,-33.89869,0 18.44246,-33.8985,0 18.4413,-33.89841,0 18.44004,-33.89832,0 18.43929,-33.89832,0 18.43832,-33.89832,0 18.43719,-33.89836,0 18.43612,-33.89841,0 18.43506,-33.89846,0 18.43426,-33.8985,0 18.43355,-33.89859,0 18.43315,-33.89864,0 18.43254,-33.89874,0 18.43209,-33.89877,0 18.43157,-33.89887,0 18.43128,-33.89892,0 18.4308,-33.89905,0 18.43054,-33.89911,0 18.43008,-33.8992,0 18.42968,-33.89929,0 18.42939,-33.89934,0 18.42912,-33.89941,0 18.42882,-33.89948,0 18.42822,-33.89964,0 18.42794,-33.89973,0 18.42772,-33.89992,0 18.42756,-33.90013,0 18.42755,-33.90038,0 18.42756,-33.90064,0</coordinates>
      </LineString>
    </Placemark>
  </Document>
</kml>
