<?xml version="1.0" encoding="UTF-8"?>
<kml xmlns="http://www.opengis.net/kml/2.2">
  <Document>
    <name>FR24 420f3f85</name>
    <Placemark>
      <name>FR24 420f3f85</name>
      <Style><LineStyle><color>ff0000ff</color><width>4</width></LineStyle></Style>
      <LineString>
        <tessellate>1</tessellate>
        <coordinates>18.43382,-33.89117,0 18.43523,-33.8887,0 18.43569,-33.88779,0 18.43603,-33.88696,0 18.4364,-33.88596,0 18.43657,-33.88509,0 18.43663,-33.88403,0 18.43652,-33.88316,0 18.4362,-33.88226,0 18.43586,-33.88151,0 18.43528,-33.88065,0 18.43472,-33.88005,0 18.43405,-33.87946,0 18.43317,-33.87886,0 18.43231,-33.8784,0 18.43117,-33.87797,0 18.43018,-33.87767,0 18.42923,-33.87744,0 18.428,-33.87721,0 18.42665,-33.87704,0 18.42567,-33.87695,0 18.42441,-33.87689,0 18.42316,-33.87685,0 18.42205,-33.87689,0 18.42127,-33.8769,0 18.42004,-33.87694,0 18.41897,-33.87698,0 18.41768,-33.87708,0 18.41669,-33.87718,0 18.41544,-33.8773,0 18.41432,-33.8774,0 18.41342,-33.87753,0 18.41223,-33.87769,0 18.41074,-33.87788,0 18.40971,-33.87807,0 18.40839,-33.8783,0 18.4072,-33.87859,0 18.40619,-33.87877,0 18.40541,-33.87895,0 18.40395,-33.87932,0 18.40284,-33.87965,0 18.40182,-33.87996,0 18.40067,-33.88034,0 18.39975,-33.8806,0 18.39857,-33.88101,0 18.39741,-33.88142,0 18.39615,-33.88184,0 18.39523,-33.88216,0 18.39431,-33.88252,0 18.39317,-33.88295,0 18.39184,-33.88348,0 18.39089,-33.88385,0 18.38999,-33.88426,0 18.38881,-33.88477,0 18.38775,-33.88527,0 18.38691,-33.88568,0 18.3859,-33.88628,0 18.385,-33.88683,0 18.38408,-33.88742,0 18.38321,-33.88797,0 18.38224,-33.88863,0 18.38136,-33.88925,0 18.38058,-33.88984,0 18.37984,-33.8904,0 18.37887,-33.89119,0 18.37818,-33.89175,0 18.37755,-33.89232,0 18.3766,-33.89314,0 18.37598,-33.89374,0 18.37515,-33.89455,0 18.37446,-33.89524,0 18.37389,-33.8958,0 18.37329,-33.89648,0 18.37252,-33.89734,0 18.37189,-33.89813,0 18.3711,-33.89905,0 18.37046,-33.8999,0 18.36988,-33.9006,0 18.36925,-33.90138,0 18.36863,-33.90218,0 18.36796,-33.90308,0 18.36725,-33.90395,0 18.36662,-33.90477,0 18.36599,-33.90562,0 18.36508,-33.90679,0 18.36309,-33.90948,0 18.36068,-33.91306,0 18.35883,-33.91599,0 18.35703,-33.91869,0 18.35638,-33.91978,0 18.35569,-33.92088,0 18.35513,-33.92184,0 18.35451,-33.92294,0 18.35395,-33.92395,0 18.35345,-33.92491,0 18.35289,-33.92601,0 18.35232,-33.92718,0 18.35192,-33.9282,0 18.3514,-33.92927,0 18.35083,-33.93044,0 18.35043,-33.93132,0 18.34986,-33.93244,0 18.34946,-33.93332,0 18.349,-33.93421,0 18.34846,-33.93526,0 18.34801,-33.93613,0 18.34745,-33.93713,0 18.34694,-33.93802,0 18.34631,-33.93914,0 18.34571,-33.94016,0 18.34522,-33.94105,0 18.34476,-33.94194,0 18.34436,-33.94268,0 18.34381,-33.94373,0 18.34347,-33.94455,0 18.34324,-33.94565,0 18.3433,-33.94652,0 18.34373,-33.94775,0 18.34437,-33.94853,0 18.34534,-33.94929,0 18.34633,-33.94972,0 18.34728,-33.95,0 18.34863,-33.95004,0 18.34975,-33.94986,0 18.35117,-33.94929,0 18.35203,-33.94868,0 18.35289,-33.94785,0 18.35352,-33.94706,0 18.3544,-33.94601,0 18.35507,-33.94514,0 18.35587,-33.94412,0 18.35667,-33.9431,0 18.35743,-33.94217,0 18.35821,-33.94107,0 18.35901,-33.93993,0 18.3597,-33.93896,0 18.36028,-33.93796,0 18.36096,-33.93677,0 18.36153,-33.93575,0 18.36208,-33.93484,0 18.36267,-33.93374,0 18.3632,-33.93283,0 18.3637,-33.93196,0 18.36428,-33.9309,0 18.36479,-33.93007,0 18.36536,-33.92908,0 18.36582,-33.92825,0 18.36752,-33.92532,0 18.36931,-33.92262,0 18.37,-33.92168,0 18.37069,-33.92075,0 18.37149,-33.91978,0 18.37211,-33.91901,0 18.37267,-33.91832,0 18.3734,-33.9174,0 18.37423,-33.91652,0 18.37491,-33.91576,0 18.37555,-33.91507,0 18.37626,-33.91434,0 18.37699,-33.91365,0 18.378,-33.91278,0 18.37861,-33.91232,0 18.3799,-33.91154,0 18.38074,-33.91109,0 18.38186,-33.9104,0 18.38276,-33.90977,0 18.3835,-33.90907,0 18.38439,-33.90807,0 18.38493,-33.90739,0 18.38579,-33.90641,0 18.38663,-33.90559,0 18.3873,-33.90495,0 18.38808,-33.90423,0 18.38882,-33.90358,0 18.38977,-33.90276,0 18.39037,-33.90223,0 18.39111,-33.90162,0 18.39209,-33.90088,0 18.39283,-33.90032,0 18.3938,-33.89964,0 18.39478,-33.89906,0 18.39554,-33.89859,0 18.39643,-33.89808,0 18.39746,-33.89753,0 18.39815,-33.89711,0 18.3993,-33.8965,0 18.40015,-33.89608,0 18.40124,-33.89552,0 18.40221,-33.89501,0 18.40313,-33.89459,0 18.40395,-33.89415,0 18.4049,-33.89366,0 18.40611,-33.89305,0 18.40714,-33.89255,0 18.40827,-33.89195,0 18.40879,-33.8917,0 18.41023,-33.89108,0 18.41143,-33.89063,0 18.41269,-33.89022,0 18.41366,-33.88989,0 18.41471,-33.88953,0 18.41561,-33.88925,0 18.4169,-33.88889,0 18.41812,-33.88849,0 18.41925,-33.88815,0 18.42043,-33.88783,0 18.42155,-33.88751,0 18.42262,-33.88719,0 18.42361,-33.88696,0 18.42453,-33.88668,0 18.42547,-33.88646,0 18.42659,-33.88621,0 18.42777,-33.886,0 18.42882,-33.88589,0 18.42979,-33.88577,0 18.43111,-33.8857,0 18.43197,-33.8857,0 18.43323,-33.88575,0 18.43409,-33.88584,0 18.43517,-33.88602,0 18.43626,-33.88635,0 18.4374,-33.88686,0 18.4382,-33.88728,0 18.43887,-33.8877,0 18.43982,-33.88838,0 18.44055,-33.88896,0 18.44123,-33.88957,0 18.4417,-33.89003,0 18.44234,-33.89081,0 18.4429,-33.89166,0 18.44341,-33.89259,0 18.44364,-33.89333,0 18.4438,-33.89406,0 18.4438,-33.89493,0 18.44369,-33.89552,0 18.44336,-33.89636,0 18.44291,-33.89713,0 18.44246,-33.89763,0 18.44179,-33.89827,0 18.44128,-33.89868,0 18.44066,-33.89909,0 18.44032,-33.89929,0 18.43964,-33.89957,0 18.43901,-33.89976,0 18.43848,-33.89992,0 18.43797,-33.90001,0 18.43719,-33.90015,0 18.43672,-33.90022,0 18.43618,-33.90028,0 18.43573,-33.90033,0 18.43528,-33.90038,0 18.43483,-33.90041,0 18.43443,-33.90041,0 18.43409,-33.90036,0 18.43366,-33.90038,0 18.43338,-33.90038,0 18.43317,-33.90036,0 18.43287,-33.90033,0 18.43254,-33.90036,0 18.4322,-33.90036,0 18.43185,-33.90041,0 18.43164,-33.90042,0 18.43136,-33.90047,0 18.43108,-33.90051,0 18.43077,-33.90051,0 18.43042,-33.90051,0 18.43019,-33.90046,0 18.42996,-33.90047,0 18.42968,-33.90042,0 18.42945,-33.90046,0 18.42916,-33.90046,0 18.42888,-33.90046,0 18.42859,-33.90051,0 18.42833,-33.90056,0 18.42811,-33.9006,0 18.42785,-33.90069,0 18.42763,-33.90073,0 18.42756,-33.90036,0 18.42751,-33.89985,0 18.42755,-33.89964,0 18.4276,-33.89941,0 18.42768,-33.8992,0 18.42808,-33.89874,0 18.42833,-33.89845,0 18.42878,-33.89799,0 18.42916,-33.89762,0 18.42939,-33.89734,0 18.42973,-33.89699,0 18.42996,-33.89671,0 18.43019,-33.89641,0 18.43042,-33.89613,0 18.43102,-33.89543,0 18.43157,-33.89482,0 18.43192,-33.89433,0 18.4326,-33.89343,0 18.43311,-33.89278,0 18.43374,-33.89189,0 18.4342,-33.89115,0 18.43477,-33.89031,0 18.43517,-33.88956,0 18.43567,-33.88857,0 18.43603,-33.88775,0 18.4362,-33.88705,0 18.43629,-33.88609,0 18.43629,-33.88541,0 18.43607,-33.88445,0 18.43573,-33.88376,0 18.43523,-33.88291,0 18.43472,-33.88225,0 18.43414,-33.88169,0 18.43332,-33.88106,0 18.4327,-33.8806,0 18.43186,-33.88014,0 18.43085,-33.87968,0 18.42997,-33.87937,0 18.42867,-33.879,0 18.42779,-33.87881,0 18.42654,-33.87854,0 18.42539,-33.87835,0 18.42447,-33.87825,0 18.42351,-33.87813,0 18.4223,-33.87802,0 18.42121,-33.8779,0 18.42001,-33.87778,0 18.41903,-33.87772,0 18.41785,-33.87767,0 18.41686,-33.87765,0 18.41572,-33.87765,0 18.41449,-33.87772,0 18.41326,-33.87783,0 18.41236,-33.87794,0 18.41118,-33.87808,0 18.41006,-33.87822,0 18.40885,-33.87848,0 18.40771,-33.87868,0 18.40656,-33.87895,0 18.40552,-33.87918,0 18.4045,-33.87941,0 18.40328,-33.87968,0 18.40204,-33.87996,0 18.40084,-33.88025,0 18.3998,-33.88046,0 18.39874,-33.88069,0 18.39773,-33.88097,0 18.39655,-33.88124,0 18.39535,-33.8816,0 18.39443,-33.88193,0 18.3934,-33.88226,0 18.39268,-33.88248,0 18.39151,-33.88291,0 18.39033,-33.88335,0 18.38951,-33.88374,0 18.38837,-33.88426,0 18.38753,-33.88467,0 18.38657,-33.88518,0 18.38568,-33.88565,0 18.38465,-33.88621,0 18.38379,-33.88672,0 18.38293,-33.88728,0 18.3819,-33.88794,0 18.38086,-33.88861,0 18.38018,-33.88907,0 18.37915,-33.88975,0 18.37841,-33.89031,0 18.37744,-33.89099,0 18.37687,-33.89143,0 18.37589,-33.89217,0 18.37515,-33.89273,0 18.3743,-33.89346,0 18.37362,-33.89406,0 18.37278,-33.89474,0 18.37211,-33.89534,0 18.37127,-33.89612,0 18.37065,-33.89671,0 18.36994,-33.89743,0 18.36931,-33.89804,0 18.36863,-33.89878,0 18.3678,-33.89969,0 18.36724,-33.90038,0 18.36639,-33.90134,0 18.36572,-33.90202,0 18.36473,-33.90283,0 18.36393,-33.90335,0 18.36281,-33.90408,0 18.36191,-33.90463,0 18.36096,-33.9053,0 18.35993,-33.90595,0 18.35907,-33.90656,0 18.35821,-33.90716,0 18.3572,-33.90807,0 18.35647,-33.9088,0 18.35569,-33.90971,0 18.35495,-33.91061,0 18.35449,-33.91144,0 18.35417,-33.91237,0 18.35395,-33.91347,0 18.35392,-33.91428,0 18.35378,-33.91562,0 18.35356,-33.91649,0 18.35318,-33.9175,0 18.35272,-33.91843,0 18.35233,-33.91924,0 18.35182,-33.92033,0 18.3514,-33.92117,0 18.35083,-33.9222,0 18.35043,-33.92308,0 18.34997,-33.92404,0 18.34946,-33.92494,0 18.34888,-33.92616,0 18.34848,-33.92704,0 18.34785,-33.9283,0 18.34723,-33.92969,0 18.34677,-33.93058,0 18.34608,-33.93197,0 18.34562,-33.9329,0 18.34522,-33.93383,0 18.34322,-33.93793,0 18.34268,-33.93878,0 18.34212,-33.93979,0 18.34133,-33.9411,0 18.34064,-33.94212,0 18.34011,-33.94295,0 18.33927,-33.94431,0 18.3387,-33.94515,0 18.33801,-33.94626,0 18.33744,-33.9471,0 18.33669,-33.94826,0 18.33613,-33.94917,0 18.33538,-33.95027,0 18.33469,-33.95129,0 18.334,-33.95238,0 18.33326,-33.95348,0 18.3313,-33.95654,0 18.32932,-33.95976,0 18.32693,-33.9635,0 18.3248,-33.96712,0 18.32285,-33.97052,0 18.32189,-33.97211,0 18.32148,-33.97275,0 18.3193,-33.97638,0 18.31729,-33.97961,0 18.31535,-33.9829,0 18.31347,-33.98616,0 18.31186,-33.98909,0 18.31003,-33.99244,0 18.30944,-33.99362,0 18.30877,-33.99481,0 18.30827,-33.99577,0 18.30759,-33.99715,0 18.30706,-33.99826,0 18.30653,-33.99944,0 18.30602,-34.00063,0 18.30563,-34.00152,0 18.30502,-34.00296,0 18.30462,-34.00392,0 18.30408,-34.00506,0 18.30345,-34.00645,0 18.30294,-34.00754,0 18.30244,-34.00859,0 18.30202,-34.00948,0 18.30154,-34.0106,0 18.30115,-34.01134,0 18.30053,-34.01257,0 18.29997,-34.01349,0 18.29927,-34.01479,0 18.29857,-34.01591,0 18.2979,-34.01706,0 18.29727,-34.01814,0 18.29667,-34.0193,0 18.2959,-34.02079,0 18.29538,-34.02177,0 18.29493,-34.02289,0 18.29453,-34.02415,0 18.29425,-34.02548,0 18.29412,-34.02643,0 18.29403,-34.02818,0 18.29409,-34.02933,0 18.29414,-34.03033,0 18.2943,-34.03136,0 18.29448,-34.03253,0 18.29465,-34.03358,0 18.29481,-34.03467,0 18.2951,-34.03592,0 18.29532,-34.03693,0 18.29554,-34.03789,0 18.2959,-34.03923,0 18.29624,-34.0403,0 18.29655,-34.04132,0 18.29693,-34.04244,0 18.29733,-34.04374,0 18.29767,-34.0448,0 18.29801,-34.04604,0 18.29836,-34.0471,0 18.29882,-34.04836,0 18.29919,-34.04929,0 18.29962,-34.05054,0 18.30014,-34.05171,0 18.3007,-34.05291,0 18.30128,-34.05394,0 18.30188,-34.05487,0 18.30244,-34.05565,0 18.30305,-34.05659,0 18.30385,-34.05771,0 18.30457,-34.05872,0 18.30552,-34.06,0 18.30637,-34.06106,0 18.30717,-34.06209,0 18.30793,-34.06316,0 18.3086,-34.06404,0 18.30923,-34.06488,0 18.30989,-34.06581,0 18.31062,-34.06686,0 18.31141,-34.06801,0 18.31192,-34.06884,0 18.31264,-34.06998,0 18.31326,-34.07098,0 18.31393,-34.07208,0 18.31449,-34.07309,0 18.31507,-34.07405,0 18.3157,-34.07503,0 18.31633,-34.07615,0 18.31707,-34.07731,0 18.31768,-34.07826,0 18.31839,-34.07945,0 18.31896,-34.08038,0 18.31964,-34.0815,0 18.32085,-34.08331,0 18.32159,-34.08443,0 18.32256,-34.08572,0 18.32319,-34.08652,0 18.32413,-34.08769,0 18.32491,-34.08862,0 18.3257,-34.08957,0 18.32657,-34.09067,0 18.3272,-34.09142,0 18.32817,-34.0925,0 18.32906,-34.09341,0 18.32983,-34.09425,0 18.33102,-34.09534,0 18.33206,-34.09626,0 18.33287,-34.09694,0 18.33388,-34.09772,0 18.33498,-34.09849,0 18.33596,-34.09923,0 18.33715,-34.10003,0 18.33801,-34.10063,0 18.33927,-34.10147,0 18.34059,-34.10231,0 18.34133,-34.10282,0 18.34265,-34.10366,0 18.34358,-34.10422,0 18.34481,-34.1049,0 18.34605,-34.10559,0 18.34728,-34.10627,0 18.34866,-34.10701,0 18.34969,-34.10752,0 18.35098,-34.1082,0 18.35249,-34.10896,0 18.35386,-34.10962,0 18.3549,-34.11012,0 18.35586,-34.11058,0 18.35737,-34.11131,0 18.35861,-34.1119,0 18.3597,-34.11236,0 18.36107,-34.11297,0 18.36264,-34.11365,0 18.36382,-34.11413,0 18.36496,-34.11455,0 18.36605,-34.11497,0 18.36752,-34.11552,0 18.36875,-34.11598,0 18.36994,-34.11641,0 18.37126,-34.11683,0 18.37256,-34.11731,0 18.37368,-34.11772,0 18.37492,-34.11813,0 18.37637,-34.11864,0 18.37727,-34.11896,0 18.37887,-34.11944,0 18.38018,-34.11987,0 18.38186,-34.12047,0 18.38327,-34.12098,0 18.38467,-34.12148,0 18.3859,-34.12189,0 18.38674,-34.12221,0 18.38825,-34.12271,0 18.38905,-34.12302,0 18.3905,-34.12349,0 18.39437,-34.12484,0 18.39815,-34.12614,0 18.40193,-34.12754,0 18.40582,-34.12894,0 18.40954,-34.13042,0 18.4109,-34.13091,0 18.41213,-34.13136,0 18.41354,-34.13187,0 18.41471,-34.13232,0 18.41583,-34.13269,0 18.41735,-34.13315,0 18.41847,-34.13351,0 18.42009,-34.13406,0 18.42155,-34.13452,0 18.42273,-34.13493,0 18.42413,-34.13544,0 18.42514,-34.13576,0 18.42929,-34.13713,0 18.43069,-34.13754,0 18.43231,-34.13791,0 18.4338,-34.1382,0 18.435,-34.13841,0 18.43615,-34.13852,0 18.43775,-34.13869,0 18.43881,-34.13869,0 18.44038,-34.13864,0 18.4417,-34.13843,0 18.44301,-34.1382,0 18.44408,-34.13795,0 18.44554,-34.1375,0 18.44662,-34.13713,0 18.44759,-34.13671,0 18.44902,-34.13606,0 18.45014,-34.13553,0 18.45126,-34.13493,0 18.45266,-34.1342,0 18.45389,-34.13351,0 18.45509,-34.13285,0 18.4563,-34.1321,0 18.45759,-34.13136,0 18.45854,-34.13072,0 18.45944,-34.13013,0 18.46058,-34.12935,0 18.46161,-34.12852,0 18.46258,-34.12766,0 18.46337,-34.12692,0 18.46437,-34.12592,0 18.46516,-34.12503,0 18.46594,-34.12413,0 18.46687,-34.12293,0 18.46746,-34.12216,0 18.46813,-34.12111,0 18.46869,-34.12019,0 18.4691,-34.11935,0 18.46964,-34.11841,0 18.47019,-34.1173,0 18.47065,-34.11635,0 18.4711,-34.11534,0 18.47155,-34.11411,0 18.47185,-34.11301,0 18.47219,-34.1118,0 18.47239,-34.11081,0 18.4726,-34.11008,0 18.47288,-34.10855,0 18.47301,-34.10765,0 18.47317,-34.1064,0 18.47329,-34.1055,0 18.47334,-34.10445,0 18.47334,-34.10324,0 18.4734,-34.10217,0 18.4734,-34.1011,0 18.47346,-34.09991,0 18.47346,-34.09859,0 18.47351,-34.09732,0 18.47357,-34.09602,0 18.47363,-34.09509,0 18.47368,-34.09378,0 18.47368,-34.09286,0 18.47374,-34.09165,0 18.47379,-34.09058,0 18.47379,-34.08879,0 18.47374,-34.08755,0 18.47368,-34.08657,0 18.47362,-34.08531,0 18.47362,-34.08412,0 18.47357,-34.08308,0 18.47351,-34.08183,0 18.47345,-34.0808,0 18.4734,-34.07977,0 18.4734,-34.07843,0 18.47334,-34.07739,0 18.47329,-34.07643,0 18.47318,-34.07227,0 18.47311,-34.06907,0 18.47306,-34.06581,0 18.47295,-34.06105,0 18.47278,-34.05762,0 18.47273,-34.05423,0 18.47261,-34.05061,0 18.47256,-34.04663,0 18.47261,-34.04352,0 18.47277,-34.03886,0 18.47301,-34.03528,0 18.47311,-34.0342,0 18.47322,-34.03322,0 18.47346,-34.03207,0 18.47368,-34.03107,0 18.4739,-34.02983,0 18.47413,-34.02864,0 18.47435,-34.02754,0 18.4746,-34.02647,0 18.47491,-34.02534,0 18.47517,-34.02438,0 18.47542,-34.02342,0 18.47575,-34.02214,0 18.47609,-34.02113,0 18.47643,-34.01985,0 18.47671,-34.01884,0 18.477,-34.01781,0 18.47729,-34.0167,0 18.47757,-34.01544,0 18.47777,-34.01427,0 18.47792,-34.01316,0 18.47809,-34.0119,0 18.4782,-34.01088,0 18.47839,-34.00983,0 18.47855,-34.0086,0 18.47867,-34.00763,0 18.47883,-34.00641,0 18.47895,-34.00534,0 18.47912,-34.00415,0 18.47923,-34.00305,0 18.47935,-34.00203,0 18.47973,-33.99811,0 18.48009,-33.99463,0 18.48046,-33.99138,0 18.48085,-33.98758,0 18.48108,-33.98543,0 18.48113,-33.98442,0 18.48158,-33.98001,0 18.48181,-33.97797,0 18.48209,-33.97572,0 18.48237,-33.97394,0 18.48272,-33.97052,0 18.48287,-33.96927,0 18.48298,-33.96803,0 18.48315,-33.96716,0 18.4833,-33.96609,0 18.48341,-33.96479,0 18.48347,-33.96377,0 18.48349,-33.96286,0 18.48335,-33.96163,0 18.48321,-33.96053,0 18.48304,-33.95947,0 18.48284,-33.95855,0 18.48267,-33.95758,0 18.48242,-33.95659,0 18.48209,-33.95539,0 18.48186,-33.95448,0 18.48158,-33.95343,0 18.48119,-33.95233,0 18.48069,-33.95128,0 18.48021,-33.95031,0 18.47979,-33.94949,0 18.47929,-33.94868,0 18.47866,-33.94757,0 18.47815,-33.94668,0 18.47743,-33.94556,0 18.47694,-33.94473,0 18.47643,-33.94382,0 18.47575,-33.94267,0 18.47511,-33.94161,0 18.4746,-33.94077,0 18.47408,-33.93993,0 18.47345,-33.93882,0 18.47177,-33.93613,0 18.46976,-33.93292,0 18.46779,-33.92988,0 18.46712,-33.92885,0 18.46642,-33.92788,0 18.46577,-33.92697,0 18.4651,-33.92616,0 18.46424,-33.92504,0 18.4635,-33.9242,0 18.46252,-33.92313,0 18.46184,-33.92243,0 18.46073,-33.92134,0 18.45978,-33.92043,0 18.45892,-33.91964,0 18.45772,-33.91852,0 18.45681,-33.91782,0 18.45585,-33.91708,0 18.45486,-33.91638,0 18.45378,-33.91557,0 18.45268,-33.91475,0 18.45159,-33.91397,0 18.45064,-33.91324,0 18.44948,-33.91237,0 18.44874,-33.91187,0 18.44761,-33.91109,0 18.44667,-33.91051,0 18.44564,-33.90986,0 18.44481,-33.90939,0 18.44376,-33.90874,0 18.44291,-33.90834,0 18.44215,-33.90791,0 18.44107,-33.90739,0 18.44033,-33.90692,0 18.43966,-33.90642,0 18.4387,-33.90564,0 18.43803,-33.90511,0 18.43735,-33.9046,0 18.4366,-33.904,0 18.4359,-33.90349,0 18.43517,-33.90289,0 18.43439,-33.90221,0 18.4341,-33.90198,0 18.43366,-33.90157,0 18.43304,-33.90111,0 18.43277,-33.90097,0 18.43248,-33.90078,0 18.43197,-33.9006,0 18.43163,-33.90055,0 18.43128,-33.90046,0 18.431,-33.90041,0 18.43065,-33.90036,0 18.43037,-33.90036,0 18.42985,-33.90033,0 18.42951,-33.90032,0 18.42912,-33.90038,0 18.42876,-33.90041,0 18.4285,-33.90042,0 18.42828,-33.90047,0 18.42794,-33.90047,0 18.42772,-33.90051,0 18.42751,-33.90055,0</coordinates>
      </LineString>
    </Placemark>
  </Document>
</kml>
