<?xml version="1.0" encoding="UTF-8"?>
<kml xmlns="http://www.opengis.net/kml/2.2">
  <Document>
    <name>FR24 3f6c4397</name>
    <Placemark>
      <name>FR24 3f6c4397</name>
      <Style><LineStyle><color>ff0000ff</color><width>4</width></LineStyle></Style>
      <LineString>
        <tessellate>1</tessellate>
        <coordinates>18.4334,-33.88719,0 18.43405,-33.88559,0 18.43409,-33.88496,0 18.43399,-33.88426,0 18.43371,-33.88358,0 18.4331,-33.88289,0 18.43254,-33.88252,0 18.43175,-33.8822,0 18.431,-33.88207,0 18.43008,-33.88198,0 18.42951,-33.88198,0 18.42859,-33.88198,0 18.42808,-33.88202,0 18.42722,-33.88207,0 18.42643,-33.88216,0 18.42567,-33.88226,0 18.4251,-33.8823,0 18.42424,-33.88248,0 18.4234,-33.88261,0 18.42256,-33.8828,0 18.42184,-33.883,0 18.42099,-33.88321,0 18.42026,-33.88339,0 18.41936,-33.88371,0 18.41869,-33.88394,0 18.41806,-33.88416,0 18.41715,-33.88449,0 18.41645,-33.88472,0 18.41572,-33.88496,0 18.41497,-33.88523,0 18.41423,-33.88542,0 18.4132,-33.88564,0 18.41224,-33.88582,0 18.41129,-33.88596,0 18.41045,-33.88607,0 18.40961,-33.88614,0 18.40883,-33.88623,0 18.40811,-33.88631,0 18.40714,-33.88641,0 18.40633,-33.88649,0 18.40548,-33.88663,0 18.40473,-33.88673,0 18.40382,-33.88691,0 18.40328,-33.88705,0 18.40244,-33.88728,0 18.40158,-33.88761,0 18.4007,-33.88792,0 18.39991,-33.88824,0 18.39924,-33.88857,0 18.39834,-33.88902,0 18.39746,-33.88942,0 18.39677,-33.8898,0 18.39615,-33.89017,0 18.39532,-33.89063,0 18.3947,-33.89095,0 18.39375,-33.89145,0 18.39313,-33.89182,0 18.3922,-33.89231,0 18.39128,-33.89282,0 18.39071,-33.89315,0 18.38977,-33.89369,0 18.3891,-33.8941,0 18.3882,-33.8947,0 18.38741,-33.89525,0 18.38665,-33.89576,0 18.3859,-33.8963,0 18.38523,-33.89676,0 18.38433,-33.89745,0 18.38355,-33.89804,0 18.38287,-33.89855,0 18.38226,-33.89905,0 18.3815,-33.89976,0 18.38087,-33.90027,0 18.38007,-33.90097,0 18.37938,-33.90162,0 18.37867,-33.90225,0 18.37807,-33.90279,0 18.37738,-33.90343,0 18.37664,-33.90413,0 18.37606,-33.90465,0 18.37538,-33.9053,0 18.37463,-33.90605,0 18.37389,-33.90679,0 18.37312,-33.90756,0 18.37194,-33.90875,0 18.37127,-33.90939,0 18.36987,-33.9109,0 18.36926,-33.91158,0 18.36869,-33.91219,0 18.36808,-33.91292,0 18.36735,-33.91374,0 18.36679,-33.91433,0 18.36611,-33.91516,0 18.36559,-33.91582,0 18.36488,-33.91663,0 18.36433,-33.91731,0 18.36314,-33.91878,0 18.36253,-33.91956,0 18.36197,-33.92024,0 18.36152,-33.92084,0 18.36073,-33.92183,0 18.35958,-33.92331,0 18.35911,-33.924,0 18.35849,-33.92482,0 18.35798,-33.92555,0 18.35726,-33.92647,0 18.35672,-33.92709,0 18.35609,-33.92792,0 18.35552,-33.92867,0 18.35495,-33.92932,0 18.35432,-33.93011,0 18.35373,-33.93082,0 18.35305,-33.93164,0 18.35244,-33.93237,0 18.35175,-33.93318,0 18.35126,-33.93375,0 18.34997,-33.9353,0 18.34734,-33.93844,0 18.34532,-33.94102,0 18.34453,-33.94199,0 18.34391,-33.94287,0 18.34319,-33.94382,0 18.34268,-33.9445,0 18.34208,-33.94533,0 18.34134,-33.94633,0 18.3407,-33.9472,0 18.34007,-33.94813,0 18.3396,-33.94876,0 18.33904,-33.94954,0 18.33727,-33.95199,0 18.33562,-33.95439,0 18.33383,-33.95714,0 18.33203,-33.95984,0 18.33046,-33.96237,0 18.32748,-33.96721,0 18.32617,-33.96945,0 18.32402,-33.97302,0 18.32354,-33.97378,0 18.32306,-33.97444,0 18.32239,-33.97554,0 18.32038,-33.97879,0 18.31976,-33.97975,0 18.31679,-33.98479,0 18.31507,-33.98788,0 18.31375,-33.99039,0 18.31236,-33.9933,0 18.31095,-33.9964,0 18.31051,-33.99733,0 18.3095,-33.99966,0 18.309,-34.00073,0 18.30866,-34.00148,0 18.30832,-34.00218,0 18.30791,-34.00311,0 18.30757,-34.0038,0 18.30715,-34.00479,0 18.30683,-34.00552,0 18.30647,-34.00639,0 18.30545,-34.00879,0 18.3044,-34.01157,0 18.303,-34.01546,0 18.3021,-34.01811,0 18.30185,-34.01889,0 18.30149,-34.02003,0 18.3012,-34.02072,0 18.30093,-34.02163,0 18.30082,-34.022,0 18.30042,-34.0234,0 18.30025,-34.02405,0 18.30002,-34.02512,0 18.29992,-34.02571,0 18.29963,-34.02686,0 18.29952,-34.02754,0 18.29935,-34.02859,0 18.29927,-34.02945,0 18.29919,-34.03029,0 18.29913,-34.0313,0 18.29907,-34.03212,0 18.29905,-34.0329,0 18.29905,-34.03387,0 18.29907,-34.03505,0 18.29913,-34.03569,0 18.29919,-34.0367,0 18.2993,-34.03757,0 18.29939,-34.03835,0 18.29958,-34.0394,0 18.29975,-34.04036,0 18.29997,-34.04132,0 18.3002,-34.04228,0 18.30048,-34.04337,0 18.30076,-34.0443,0 18.30109,-34.0453,0 18.30145,-34.04617,0 18.30177,-34.047,0 18.30208,-34.04779,0 18.30244,-34.04865,0 18.30289,-34.04965,0 18.30339,-34.05068,0 18.30379,-34.05152,0 18.30418,-34.05231,0 18.30465,-34.0532,0 18.30511,-34.05417,0 18.30563,-34.05515,0 18.30614,-34.05611,0 18.30659,-34.05698,0 18.30706,-34.05785,0 18.30763,-34.05883,0 18.30916,-34.06169,0 18.3106,-34.06413,0 18.31214,-34.06664,0 18.31286,-34.06764,0 18.31335,-34.06833,0 18.31409,-34.06939,0 18.31467,-34.07014,0 18.31522,-34.07089,0 18.31593,-34.07172,0 18.31644,-34.07242,0 18.31724,-34.07336,0 18.31791,-34.07419,0 18.31858,-34.07501,0 18.3192,-34.07579,0 18.31987,-34.07656,0 18.32033,-34.07708,0 18.32116,-34.07799,0 18.32159,-34.07847,0 18.32245,-34.07936,0 18.32323,-34.08018,0 18.32399,-34.08099,0 18.32462,-34.08164,0 18.32531,-34.08229,0 18.32643,-34.08334,0 18.32708,-34.08401,0 18.32771,-34.08462,0 18.3285,-34.08536,0 18.32929,-34.08609,0 18.33007,-34.08682,0 18.3308,-34.08746,0 18.33166,-34.08825,0 18.33252,-34.08895,0 18.33303,-34.08941,0 18.334,-34.09021,0 18.33489,-34.09094,0 18.33557,-34.09149,0 18.33641,-34.09221,0 18.33714,-34.09277,0 18.33801,-34.09341,0 18.33887,-34.09402,0 18.33994,-34.09483,0 18.34076,-34.09542,0 18.34151,-34.09593,0 18.34242,-34.09649,0 18.34324,-34.09703,0 18.34402,-34.09751,0 18.34505,-34.09812,0 18.34585,-34.09858,0 18.34665,-34.099,0 18.34762,-34.0995,0 18.34834,-34.09987,0 18.34951,-34.10044,0 18.35037,-34.10082,0 18.3514,-34.10133,0 18.35226,-34.1017,0 18.35345,-34.10225,0 18.35423,-34.10262,0 18.35535,-34.10307,0 18.35636,-34.10344,0 18.35735,-34.1038,0 18.35832,-34.10417,0 18.3593,-34.10454,0 18.36016,-34.10487,0 18.3613,-34.10529,0 18.36239,-34.10571,0 18.36319,-34.10608,0 18.36405,-34.1064,0 18.36485,-34.10673,0 18.36589,-34.10715,0 18.36679,-34.10756,0 18.36987,-34.1088,0 18.37257,-34.10989,0 18.37547,-34.11104,0 18.37721,-34.11176,0 18.37795,-34.11204,0 18.37884,-34.11241,0 18.37978,-34.11283,0 18.38063,-34.11319,0 18.38144,-34.11353,0 18.38219,-34.11385,0 18.38316,-34.11427,0 18.38379,-34.11455,0 18.38472,-34.11497,0 18.38545,-34.1153,0 18.38635,-34.11571,0 18.38694,-34.11599,0 18.38797,-34.11644,0 18.38871,-34.11679,0 18.38966,-34.11717,0 18.39061,-34.11758,0 18.39156,-34.118,0 18.39231,-34.11832,0 18.39392,-34.11902,0 18.395,-34.11948,0 18.39745,-34.12051,0 18.40003,-34.12166,0 18.40075,-34.12198,0 18.4016,-34.12234,0 18.40232,-34.12262,0 18.40328,-34.12303,0 18.40412,-34.12335,0 18.40479,-34.12368,0 18.40553,-34.124,0 18.40651,-34.12442,0 18.40726,-34.12477,0 18.40799,-34.12514,0 18.40891,-34.12554,0 18.40971,-34.12586,0 18.41068,-34.12628,0 18.41143,-34.12661,0 18.41213,-34.12692,0 18.41314,-34.1274,0 18.41381,-34.1277,0 18.41475,-34.1281,0 18.4156,-34.12847,0 18.41634,-34.12875,0 18.41721,-34.12912,0 18.41824,-34.12958,0 18.42075,-34.1307,0 18.42321,-34.13177,0 18.4255,-34.1328,0 18.42811,-34.13393,0 18.43136,-34.13535,0 18.43366,-34.13626,0 18.43444,-34.13654,0 18.43556,-34.13695,0 18.43646,-34.13718,0 18.43736,-34.13741,0 18.43792,-34.13755,0 18.43898,-34.13777,0 18.4401,-34.13795,0 18.44094,-34.13809,0 18.44187,-34.13815,0 18.44263,-34.13818,0 18.4437,-34.13815,0 18.44473,-34.13811,0 18.44559,-34.13797,0 18.44661,-34.13777,0 18.44728,-34.13759,0 18.44816,-34.13731,0 18.44913,-34.13695,0 18.45011,-34.13652,0 18.45097,-34.1361,0 18.45171,-34.13571,0 18.45234,-34.13531,0 18.45308,-34.1349,0 18.45378,-34.13443,0 18.45469,-34.13382,0 18.45535,-34.13338,0 18.45617,-34.13285,0 18.45675,-34.13242,0 18.45755,-34.13187,0 18.45838,-34.13132,0 18.45898,-34.13084,0 18.45978,-34.13028,0 18.46045,-34.12981,0 18.46127,-34.12917,0 18.46185,-34.12871,0 18.46264,-34.12816,0 18.46325,-34.12761,0 18.46401,-34.12698,0 18.46454,-34.12651,0 18.46533,-34.12582,0 18.466,-34.12523,0 18.46647,-34.12479,0 18.46718,-34.12408,0 18.46767,-34.12363,0 18.46836,-34.12293,0 18.46893,-34.12233,0 18.46959,-34.12161,0 18.47019,-34.12102,0 18.47071,-34.12038,0 18.47121,-34.11978,0 18.47179,-34.11906,0 18.47239,-34.11827,0 18.47288,-34.11762,0 18.47345,-34.11688,0 18.47397,-34.11618,0 18.47441,-34.11548,0 18.47483,-34.11478,0 18.47525,-34.11411,0 18.47563,-34.11348,0 18.47609,-34.11259,0 18.47648,-34.11186,0 18.47689,-34.11111,0 18.47727,-34.11035,0 18.47757,-34.10966,0 18.47792,-34.10887,0 18.47832,-34.10799,0 18.47861,-34.10706,0 18.47889,-34.10619,0 18.47912,-34.10527,0 18.47935,-34.10435,0 18.47952,-34.10347,0 18.47963,-34.10277,0 18.47979,-34.10188,0 18.47996,-34.10101,0 18.48009,-34.10003,0 18.48021,-34.09914,0 18.48032,-34.09835,0 18.48043,-34.09756,0 18.48052,-34.09666,0 18.48061,-34.0957,0 18.48069,-34.09492,0 18.48078,-34.09402,0 18.48085,-34.09309,0 18.48091,-34.09222,0 18.48102,-34.09108,0 18.48106,-34.0903,0 18.48135,-34.08751,0 18.48146,-34.08657,0 18.48153,-34.08554,0 18.48164,-34.08476,0 18.48175,-34.08387,0 18.48209,-34.08094,0 18.48232,-34.07927,0 18.48244,-34.07861,0 18.48261,-34.07773,0 18.48272,-34.07689,0 18.48293,-34.07597,0 18.48307,-34.07512,0 18.48326,-34.07428,0 18.48347,-34.07326,0 18.48366,-34.0724,0 18.48394,-34.07121,0 18.4841,-34.07047,0 18.48433,-34.06952,0 18.4845,-34.0687,0 18.48507,-34.06614,0 18.48593,-34.06283,0 18.48661,-34.06018,0 18.48719,-34.05748,0 18.48776,-34.05459,0 18.48787,-34.05375,0 18.48803,-34.05281,0 18.48814,-34.05217,0 18.48827,-34.05115,0 18.48842,-34.05002,0 18.48853,-34.04919,0 18.48859,-34.04828,0 18.4887,-34.04718,0 18.48876,-34.04636,0 18.48885,-34.04533,0 18.48893,-34.04443,0 18.48893,-34.04361,0 18.48898,-34.04279,0 18.48904,-34.04178,0 18.48907,-34.04072,0 18.48909,-34.03967,0 18.48909,-34.0388,0 18.48913,-34.03583,0 18.48919,-34.03239,0 18.48913,-34.02861,0 18.48919,-34.02778,0 18.48921,-34.02672,0 18.48926,-34.02567,0 18.4893,-34.02489,0 18.48937,-34.02411,0 18.48943,-34.02301,0 18.48949,-34.02228,0 18.48953,-34.02126,0 18.4896,-34.0204,0 18.4896,-34.01958,0 18.48965,-34.01852,0 18.48971,-34.01775,0 18.48982,-34.01472,0 18.48988,-34.01181,0 18.48999,-34.00804,0 18.4901,-34.00534,0 18.49028,-34.00273,0 18.49056,-33.99994,0 18.49068,-33.99882,0 18.49072,-33.99797,0 18.49072,-33.99728,0 18.49073,-33.99612,0 18.49072,-33.99532,0 18.49072,-33.99431,0 18.49073,-33.99347,0 18.49072,-33.99243,0 18.49072,-33.99152,0 18.49068,-33.99068,0 18.49066,-33.98973,0 18.49066,-33.98895,0 18.49066,-33.98813,0 18.49068,-33.98709,0 18.49062,-33.98513,0 18.49056,-33.98434,0 18.49055,-33.98341,0 18.49045,-33.98253,0 18.49039,-33.98174,0 18.49039,-33.9809,0 18.49028,-33.97992,0 18.49022,-33.97913,0 18.49016,-33.9781,0 18.4901,-33.9771,0 18.49005,-33.97647,0 18.48999,-33.97531,0 18.48993,-33.97449,0 18.48982,-33.97348,0 18.48976,-33.97261,0 18.48965,-33.97156,0 18.48932,-33.96886,0 18.48893,-33.96616,0 18.48831,-33.96227,0 18.4877,-33.95869,0 18.48752,-33.95782,0 18.48708,-33.95609,0 18.4869,-33.9553,0 18.48663,-33.95444,0 18.4864,-33.95352,0 18.48601,-33.95233,0 18.4857,-33.95134,0 18.48534,-33.95036,0 18.48507,-33.94952,0 18.48478,-33.94873,0 18.48444,-33.94771,0 18.48422,-33.94711,0 18.48388,-33.94615,0 18.4836,-33.94537,0 18.4833,-33.94445,0 18.48298,-33.94354,0 18.48267,-33.94268,0 18.48237,-33.94185,0 18.48141,-33.93919,0 18.48041,-33.93672,0 18.47929,-33.93402,0 18.47906,-33.93352,0 18.47856,-33.93256,0 18.47816,-33.93187,0 18.4778,-33.93109,0 18.47723,-33.93011,0 18.47683,-33.92941,0 18.47643,-33.92876,0 18.47603,-33.92815,0 18.47553,-33.92734,0 18.47506,-33.92667,0 18.47452,-33.92583,0 18.47414,-33.92522,0 18.47357,-33.9245,0 18.47306,-33.92381,0 18.47245,-33.92294,0 18.47197,-33.92234,0 18.47144,-33.92166,0 18.47082,-33.92085,0 18.47025,-33.92015,0 18.4697,-33.91946,0 18.46919,-33.91882,0 18.46858,-33.91805,0 18.46819,-33.91759,0 18.46757,-33.91695,0 18.46673,-33.91599,0 18.46613,-33.91535,0 18.46544,-33.9147,0 18.46477,-33.91402,0 18.46401,-33.91326,0 18.46337,-33.9126,0 18.4628,-33.91209,0 18.46196,-33.91122,0 18.46132,-33.91056,0 18.46062,-33.90985,0 18.45978,-33.90903,0 18.45898,-33.90823,0 18.45815,-33.90752,0 18.45755,-33.90693,0 18.4567,-33.90619,0 18.45606,-33.90562,0 18.45518,-33.90491,0 18.45451,-33.90436,0 18.45377,-33.90381,0 18.45294,-33.90312,0 18.45221,-33.90266,0 18.45142,-33.90223,0 18.45047,-33.90179,0 18.44958,-33.90147,0 18.44868,-33.90125,0 18.44812,-33.90115,0 18.4477,-33.90115,0 18.4473,-33.90111,0 18.44661,-33.90111,0 18.44616,-33.90111,0 18.44582,-33.90111,0 18.44536,-33.90115,0 18.4449,-33.90115,0 18.44431,-33.90115,0 18.44391,-33.90115,0 18.44352,-33.90115,0 18.4429,-33.90111,0 18.44246,-33.90111,0 18.44206,-33.90106,0 18.44167,-33.90106,0 18.44128,-33.90102,0 18.4409,-33.90097,0 18.44066,-33.90097,0 18.44015,-33.90088,0 18.43994,-33.90088,0 18.43943,-33.90083,0 18.43889,-33.90074,0 18.43849,-33.90069,0 18.4382,-33.90065,0 18.43763,-33.9006,0 18.43713,-33.90051,0 18.43683,-33.90051,0 18.43646,-33.90047,0 18.43603,-33.90036,0 18.43573,-33.90033,0 18.43534,-33.90027,0 18.43489,-33.90024,0 18.4345,-33.90019,0 18.43414,-33.90013,0 18.43357,-33.90009,0 18.43334,-33.90004,0 18.43306,-33.90004,0 18.4327,-33.89996,0 18.43237,-33.89994,0 18.43097,-33.89978,0 18.43024,-33.89969,0 18.42985,-33.89967,0 18.42957,-33.89964,0 18.42929,-33.8996,0 18.429,-33.8996,0 18.42878,-33.89955,0 18.42858,-33.89954,0</coordinates>
      </LineString>
    </Placemark>
  </Document>
</kml>
