<?xml version="1.0" encoding="UTF-8"?>
<kml xmlns="http://www.opengis.net/kml/2.2">
  <Document>
    <name>FR24 4115a875</name>
    <Placemark>
      <name>FR24 4115a875</name>
      <Style><LineStyle><color>ff0000ff</color><width>4</width></LineStyle></Style>
      <LineString>
        <tessellate>1</tessellate>
        <coordinates>18.44067,-33.90171,0 18.44393,-33.90241,0 18.44553,-33.90283,0 18.44604,-33.90302,0 18.44694,-33.90344,0 18.44765,-33.90381,0 18.44823,-33.90417,0 18.44868,-33.90446,0 18.44942,-33.90497,0 18.44997,-33.90536,0 18.45047,-33.90578,0 18.45102,-33.90628,0 18.45148,-33.9067,0 18.4521,-33.90724,0 18.45263,-33.90772,0 18.45316,-33.90825,0 18.45384,-33.90884,0 18.45446,-33.90944,0 18.45509,-33.91005,0 18.45566,-33.91061,0 18.45636,-33.91132,0 18.45698,-33.91187,0 18.45755,-33.91242,0 18.45823,-33.91317,0 18.45877,-33.9137,0 18.45949,-33.91438,0 18.46,-33.91493,0 18.46073,-33.91557,0 18.46129,-33.91617,0 18.46201,-33.91689,0 18.46264,-33.9175,0 18.4632,-33.91809,0 18.46384,-33.9188,0 18.46441,-33.91945,0 18.4651,-33.9202,0 18.46555,-33.92079,0 18.46613,-33.92145,0 18.46678,-33.92221,0 18.46727,-33.92289,0 18.4679,-33.92369,0 18.46848,-33.92439,0 18.46897,-33.92505,0 18.46947,-33.92569,0 18.47008,-33.92643,0 18.47059,-33.92709,0 18.47099,-33.9276,0 18.47155,-33.92839,0 18.47197,-33.92899,0 18.47256,-33.92981,0 18.473,-33.93048,0 18.47351,-33.93127,0 18.47396,-33.9321,0 18.47437,-33.93272,0 18.47474,-33.93343,0 18.47519,-33.93434,0 18.47553,-33.93503,0 18.47586,-33.93571,0 18.47626,-33.93649,0 18.47654,-33.93719,0 18.47689,-33.93807,0 18.47723,-33.93891,0 18.47749,-33.93965,0 18.4778,-33.94035,0 18.47809,-33.94128,0 18.47833,-33.94212,0 18.47856,-33.9429,0 18.47866,-33.94357,0 18.47878,-33.94432,0 18.47889,-33.94519,0 18.47895,-33.94606,0 18.479,-33.94679,0 18.47906,-33.94757,0 18.47912,-33.9483,0 18.47912,-33.9491,0 18.47917,-33.94977,0 18.47912,-33.9505,0 18.47912,-33.95134,0 18.47906,-33.95227,0 18.479,-33.95297,0 18.47895,-33.95367,0 18.47889,-33.95453,0 18.47889,-33.95526,0 18.47883,-33.95613,0 18.47878,-33.95678,0 18.47866,-33.95762,0 18.4786,-33.95846,0 18.47855,-33.95906,0 18.47844,-33.95984,0 18.47833,-33.96066,0 18.47805,-33.96346,0 18.47792,-33.96507,0 18.47792,-33.96582,0 18.47786,-33.96675,0 18.47788,-33.96735,0 18.47786,-33.96828,0 18.47783,-33.96895,0 18.47786,-33.96987,0 18.47783,-33.9706,0 18.47786,-33.97136,0 18.47788,-33.97211,0 18.47786,-33.97289,0 18.47788,-33.97371,0 18.47788,-33.97604,0 18.4778,-33.97927,0 18.47766,-33.98264,0 18.47757,-33.98606,0 18.47746,-33.9883,0 18.47734,-33.99156,0 18.47727,-33.99413,0 18.47723,-33.99594,0 18.47721,-33.99673,0 18.47721,-33.99751,0 18.47721,-34.00095,0 18.47723,-34.0032,0 18.47727,-34.00584,0 18.47743,-34.00919,0 18.47752,-34.00999,0 18.47755,-34.01079,0 18.47752,-34.01167,0 18.47755,-34.01234,0 18.47755,-34.01326,0 18.47752,-34.01428,0 18.47749,-34.01518,0 18.47743,-34.01628,0 18.47738,-34.01697,0 18.47734,-34.01777,0 18.47732,-34.01871,0 18.47729,-34.01958,0 18.47723,-34.02042,0 18.47717,-34.02117,0 18.47706,-34.022,0 18.477,-34.02289,0 18.47687,-34.02383,0 18.47682,-34.0247,0 18.47677,-34.02545,0 18.47672,-34.0262,0 18.4766,-34.02722,0 18.47654,-34.02801,0 18.47654,-34.02882,0 18.47649,-34.02973,0 18.47648,-34.03047,0 18.47643,-34.03127,0 18.47643,-34.03217,0 18.47643,-34.03318,0 18.47643,-34.034,0 18.47637,-34.03485,0 18.47643,-34.03574,0 18.47643,-34.03648,0 18.47643,-34.03913,0 18.47643,-34.0416,0 18.47648,-34.04521,0 18.47637,-34.04768,0 18.47631,-34.05107,0 18.47631,-34.05357,0 18.47637,-34.05459,0 18.47637,-34.05565,0 18.47643,-34.0573,0 18.47649,-34.05827,0 18.47649,-34.0592,0 18.47649,-34.05994,0 18.47654,-34.06091,0 18.47654,-34.06167,0 18.47654,-34.06264,0 18.47659,-34.06325,0 18.47654,-34.06418,0 18.47659,-34.06517,0 18.4766,-34.06595,0 18.4766,-34.06674,0 18.4766,-34.06763,0 18.47659,-34.06847,0 18.47666,-34.07103,0 18.47659,-34.07387,0 18.47654,-34.07643,0 18.47654,-34.08001,0 18.47649,-34.08289,0 18.47643,-34.08555,0 18.47649,-34.08904,0 18.47648,-34.09186,0 18.47654,-34.09458,0 18.47659,-34.09726,0 18.4766,-34.09807,0 18.47665,-34.0995,0 18.47659,-34.10028,0 18.4766,-34.10124,0 18.47654,-34.10212,0 18.47643,-34.10298,0 18.47637,-34.10375,0 18.47626,-34.10472,0 18.47614,-34.10532,0 18.47603,-34.10622,0 18.47592,-34.10687,0 18.47586,-34.10766,0 18.47575,-34.10838,0 18.47563,-34.1092,0 18.47551,-34.10989,0 18.47546,-34.11069,0 18.47508,-34.11301,0 18.47474,-34.11525,0 18.47437,-34.11758,0 18.47391,-34.1206,0 18.47385,-34.12134,0 18.47374,-34.12228,0 18.47368,-34.12321,0 18.47362,-34.12413,0 18.47362,-34.12486,0 18.47357,-34.12564,0 18.47351,-34.12637,0 18.47345,-34.12749,0 18.4734,-34.12833,0 18.47329,-34.12917,0 18.47318,-34.13008,0 18.47306,-34.13086,0 18.47294,-34.13192,0 18.47284,-34.13278,0 18.47277,-34.13345,0 18.47271,-34.13433,0 18.47261,-34.13507,0 18.47256,-34.13608,0 18.47248,-34.1368,0 18.47242,-34.13783,0 18.47233,-34.13864,0 18.47219,-34.1396,0 18.47197,-34.14206,0 18.47166,-34.14528,0 18.47139,-34.14872,0 18.47127,-34.15114,0 18.4711,-34.15485,0 18.4711,-34.15723,0 18.47116,-34.15803,0 18.47116,-34.15901,0 18.47116,-34.15971,0 18.47121,-34.16066,0 18.47128,-34.16152,0 18.47128,-34.16241,0 18.47132,-34.16309,0 18.47149,-34.1656,0 18.47172,-34.16826,0 18.47183,-34.17087,0 18.47183,-34.1716,0 18.47177,-34.17261,0 18.47174,-34.17321,0 18.47162,-34.17423,0 18.47149,-34.17526,0 18.47138,-34.17604,0 18.47116,-34.177,0 18.47088,-34.17796,0 18.47065,-34.17851,0 18.46998,-34.17957,0 18.46947,-34.18025,0 18.46891,-34.18089,0 18.46807,-34.18163,0 18.46706,-34.18227,0 18.46624,-34.1827,0 18.46533,-34.18304,0 18.46387,-34.18341,0 18.46252,-34.18345,0 18.46135,-34.18332,0 18.45995,-34.18282,0 18.45838,-34.18199,0 18.45732,-34.18135,0 18.4563,-34.18085,0 18.45524,-34.18039,0 18.45384,-34.17989,0 18.45274,-34.17958,0 18.45154,-34.17935,0 18.45003,-34.17924,0 18.44918,-34.17929,0 18.44845,-34.17954,0 18.4477,-34.18005,0 18.44742,-34.18052,0 18.44745,-34.18117,0 18.44765,-34.18168,0 18.4481,-34.18233,0 18.44862,-34.183,0 18.44925,-34.18368,0 18.44971,-34.18428,0 18.45047,-34.1851,0 18.45098,-34.18565,0 18.45171,-34.18639,0 18.45227,-34.18694,0 18.45283,-34.18744,0 18.45344,-34.18794,0 18.45417,-34.18849,0 18.45497,-34.18903,0 18.45572,-34.18945,0 18.45675,-34.19009,0 18.45749,-34.19062,0 18.45818,-34.19118,0 18.45903,-34.19192,0 18.45983,-34.1927,0 18.46045,-34.19339,0 18.46112,-34.19421,0 18.46185,-34.19508,0 18.46241,-34.19577,0 18.46292,-34.1965,0 18.46361,-34.19746,0 18.46421,-34.1982,0 18.46487,-34.19913,0 18.46555,-34.20003,0 18.46605,-34.20076,0 18.46656,-34.20145,0 18.46712,-34.20222,0 18.46779,-34.20323,0 18.4683,-34.20392,0 18.47009,-34.20648,0 18.47162,-34.20891,0 18.47205,-34.20973,0 18.47245,-34.21042,0 18.47294,-34.21138,0 18.47334,-34.21225,0 18.47368,-34.21284,0 18.47408,-34.21385,0 18.47454,-34.21482,0 18.47491,-34.21577,0 18.47525,-34.21655,0 18.47564,-34.21747,0 18.47609,-34.21843,0 18.47637,-34.21915,0 18.47683,-34.22013,0 18.4771,-34.22086,0 18.47746,-34.22171,0 18.4778,-34.22269,0 18.47816,-34.22346,0 18.47843,-34.22427,0 18.47883,-34.22525,0 18.47912,-34.226,0 18.47946,-34.22693,0 18.47979,-34.22804,0 18.48009,-34.22879,0 18.48032,-34.22963,0 18.48066,-34.23056,0 18.48097,-34.23152,0 18.48158,-34.23368,0 18.48186,-34.23459,0 18.48209,-34.23537,0 18.48231,-34.23624,0 18.48307,-34.23898,0 18.48387,-34.24229,0 18.48478,-34.24569,0 18.4853,-34.24811,0 18.48547,-34.2489,0 18.48573,-34.24992,0 18.48587,-34.25072,0 18.48639,-34.25328,0 18.48673,-34.255,0 18.48691,-34.25601,0 18.48719,-34.25766,0 18.48724,-34.25839,0 18.48759,-34.26082,0 18.4881,-34.26412,0 18.48825,-34.26512,0 18.48839,-34.26608,0 18.48848,-34.26663,0 18.48867,-34.2678,0 18.48896,-34.26948,0 18.48913,-34.27031,0 18.4893,-34.27124,0 18.48943,-34.2719,0 18.48965,-34.2729,0 18.48982,-34.27394,0 18.48993,-34.27469,0 18.4901,-34.27544,0 18.49022,-34.27623,0 18.49033,-34.27702,0 18.49045,-34.27785,0 18.49055,-34.27876,0 18.49072,-34.27982,0 18.49085,-34.2806,0 18.491,-34.28174,0 18.49113,-34.28246,0 18.49125,-34.28321,0 18.49142,-34.28409,0 18.49162,-34.28513,0 18.49178,-34.28595,0 18.4919,-34.28664,0 18.49206,-34.2876,0 18.49222,-34.28838,0 18.49245,-34.2894,0 18.49257,-34.29024,0 18.49268,-34.29085,0 18.49296,-34.29204,0 18.49331,-34.29391,0 18.49342,-34.2948,0 18.49394,-34.2975,0 18.49447,-34.30023,0 18.49504,-34.30367,0 18.4952,-34.30463,0 18.49543,-34.3056,0 18.4956,-34.30646,0 18.49576,-34.30742,0 18.49588,-34.30825,0 18.4961,-34.30925,0 18.49628,-34.30998,0 18.49644,-34.31081,0 18.49663,-34.31174,0 18.49683,-34.3125,0 18.49703,-34.31356,0 18.49722,-34.31456,0 18.49743,-34.31552,0 18.49761,-34.31644,0 18.498,-34.31808,0 18.49817,-34.31886,0 18.4984,-34.31969,0 18.49909,-34.32217,0 18.49941,-34.32321,0 18.49966,-34.32413,0 18.49995,-34.32492,0 18.50025,-34.32578,0 18.5007,-34.32692,0 18.50098,-34.32776,0 18.50131,-34.32852,0 18.50165,-34.32944,0 18.50193,-34.33022,0 18.50227,-34.33099,0 18.5026,-34.33177,0 18.50299,-34.33273,0 18.50332,-34.33353,0 18.50367,-34.33432,0 18.50395,-34.33498,0 18.50434,-34.33598,0 18.5047,-34.33693,0 18.50496,-34.33772,0 18.50524,-34.33855,0 18.50555,-34.33949,0 18.5058,-34.34042,0 18.50608,-34.34116,0 18.50636,-34.34212,0 18.50658,-34.3429,0 18.50675,-34.34363,0 18.50698,-34.34457,0 18.50721,-34.34554,0 18.50733,-34.34624,0 18.50748,-34.34702,0 18.50761,-34.34782,0 18.50767,-34.34875,0 18.5077,-34.34981,0 18.50767,-34.35085,0 18.50765,-34.35168,0 18.50753,-34.35269,0 18.50742,-34.35365,0 18.50727,-34.35448,0 18.5071,-34.3555,0 18.50692,-34.35645,0 18.50664,-34.35745,0 18.50636,-34.35823,0 18.50585,-34.3591,0 18.50538,-34.35979,0 18.50445,-34.3607,0 18.50367,-34.36125,0 18.50241,-34.36198,0 18.50143,-34.3624,0 18.50047,-34.36276,0 18.49885,-34.36322,0 18.49767,-34.36345,0 18.4961,-34.36377,0 18.49457,-34.36403,0 18.4933,-34.36423,0 18.49173,-34.36446,0 18.49016,-34.36463,0 18.48904,-34.36473,0 18.48752,-34.36487,0 18.48635,-34.36491,0 18.48455,-34.36496,0 18.48304,-34.36496,0 18.48141,-34.36491,0 18.47973,-34.36482,0 18.47837,-34.36468,0 18.47729,-34.36458,0 18.47536,-34.36427,0 18.47368,-34.36388,0 18.47245,-34.36354,0 18.47076,-34.36319,0 18.46916,-34.363,0 18.46802,-34.36299,0 18.46699,-34.36323,0 18.46607,-34.3637,0 18.46555,-34.36427,0 18.46555,-34.36478,0 18.46605,-34.36537,0 18.46673,-34.3656,0 18.46762,-34.36574,0 18.46876,-34.36579,0 18.46987,-34.36578,0 18.47088,-34.36575,0 18.47217,-34.36574,0 18.47334,-34.3657,0 18.47474,-34.36565,0 18.47591,-34.36556,0 18.47699,-34.36551,0 18.47822,-34.36546,0 18.47975,-34.36538,0 18.48089,-34.36528,0 18.48214,-34.36519,0 18.4836,-34.36505,0 18.48478,-34.36496,0 18.48593,-34.36491,0 18.48713,-34.36482,0 18.4885,-34.36477,0 18.48993,-34.36478,0 18.49122,-34.36491,0 18.49257,-34.36509,0 18.4936,-34.36533,0 18.4947,-34.36565,0 18.49616,-34.3661,0 18.49728,-34.36652,0 18.49823,-34.36688,0 18.4992,-34.36719,0 18.50018,-34.36737,0 18.50131,-34.36739,0 18.50229,-34.36714,0 18.50338,-34.36658,0 18.50428,-34.36569,0 18.5047,-34.36505,0 18.50513,-34.36409,0 18.50552,-34.36253,0 18.50561,-34.36151,0 18.50552,-34.36002,0 18.50529,-34.35896,0 18.50492,-34.35793,0 18.50434,-34.35681,0 18.50361,-34.35558,0 18.50283,-34.35443,0 18.38164,-33.89346,0 18.38476,-33.89128,0 18.38802,-33.88919,0 18.38949,-33.88834,0 18.39054,-33.88775,0 18.39179,-33.8871,0 18.39272,-33.88663,0 18.39392,-33.88607,0 18.39509,-33.88554,0 18.39615,-33.88509,0 18.39717,-33.88463,0 18.39827,-33.88426,0 18.39918,-33.88393,0 18.40042,-33.88353,0 18.40158,-33.88323,0 18.40296,-33.88295,0 18.40401,-33.88271,0 18.40501,-33.88252,0 18.40628,-33.8823,0 18.40748,-33.88207,0 18.40868,-33.88188,0 18.41,-33.8817,0 18.41091,-33.88156,0 18.41191,-33.88147,0 18.41309,-33.88133,0 18.41421,-33.8812,0 18.41516,-33.88106,0 18.41618,-33.88091,0 18.4174,-33.88074,0 18.41852,-33.8806,0 18.41949,-33.88044,0 18.4206,-33.88033,0 18.42178,-33.88025,0 18.42267,-33.88019,0 18.4239,-33.88019,0 18.4248,-33.88023,0 18.42585,-33.88034,0 18.42682,-33.88053,0 18.42756,-33.88076,0 18.42819,-33.88109,0 18.42906,-33.88161,0 18.42957,-33.88198,0 18.43013,-33.88261,0 18.43037,-33.88309,0 18.43041,-33.88371,0 18.43025,-33.88412,0 18.42973,-33.88463,0 18.42916,-33.88486,0 18.4285,-33.88509,0 18.42783,-33.88527,0 18.42705,-33.88547,0 18.42642,-33.8856,0 18.42575,-33.88582,0 18.42522,-33.88607,0 18.42476,-33.8864,0 18.42458,-33.88673,0 18.42464,-33.88719,0 18.42482,-33.88761,0 18.42514,-33.88802,0 18.42539,-33.8884,0 18.42579,-33.88887,0 18.4262,-33.88939,0 18.42659,-33.88994,0 18.42699,-33.89058,0 18.4271,-33.89087,0 18.42722,-33.8911,0 18.42738,-33.89159,0 18.42745,-33.8918,0 18.42751,-33.89208,0 18.4276,-33.89236,0 18.4276,-33.89264,0 18.42772,-33.89301,0 18.42777,-33.89337,0 18.42777,-33.8936,0 18.42779,-33.89408,0 18.42783,-33.89429,0 18.42783,-33.89465,0 18.42777,-33.89497,0 18.42777,-33.89543,0 18.42772,-33.89566,0 18.42768,-33.89603,0 18.42766,-33.89626,0 18.42766,-33.89648,0 18.42762,-33.89697,0 18.42755,-33.8974,0 18.42751,-33.89771,0 18.42749,-33.89809,0 18.42743,-33.89859,0 18.42739,-33.89897,0 18.42738,-33.89932,0 18.42722,-33.89976,0 18.4271,-33.90004,0 18.42704,-33.90028,0 18.42693,-33.90055,0 18.42704,-33.90079,0 18.42727,-33.90079,0 18.42749,-33.90074,0 18.42772,-33.90074,0 18.42751,-33.90074,0 18.42889,-33.90088,0 18.43091,-33.90097,0 18.43125,-33.90092,0 18.43163,-33.90092,0 18.43198,-33.90088,0 18.4322,-33.90088,0 18.43276,-33.90079,0 18.43311,-33.90069,0 18.43363,-33.90051,0 18.43397,-33.90036,0 18.43427,-33.90019,0 18.43483,-33.89983,0 18.43523,-33.89957,0 18.43551,-33.89932,0 18.43601,-33.89877,0 18.43626,-33.89841,0 18.43655,-33.89804,0 18.4368,-33.89758,0 18.43724,-33.8963,0 18.43741,-33.89552,0 18.43752,-33.89406,0 18.43746,-33.8931,0 18.4373,-33.892,0 18.43689,-33.89063,0 18.43655,-33.88956,0 18.43592,-33.88831,0 18.43534,-33.88733,0 18.43454,-33.88602,0 18.43371,-33.88477,0 18.43304,-33.8839,0 18.43175,-33.88248,0 18.43085,-33.88156,0 18.42973,-33.88051,0 18.42865,-33.87965,0 18.42732,-33.87868,0 18.42619,-33.87797,0 18.4247,-33.87713,0 18.42362,-33.87662,0 18.42217,-33.87607,0 18.42052,-33.87555,0 18.41936,-33.87524,0 18.41806,-33.87504,0 18.41673,-33.87492,0 18.41549,-33.87485,0 18.41354,-33.87485,0 18.41269,-33.87492,0 18.41125,-33.87509,0 18.41017,-33.87527,0 18.40931,-33.87546,0 18.40771,-33.87588,0 18.40639,-33.87625,0 18.4053,-33.87658,0 18.40417,-33.87698,0 18.4029,-33.87741,0 18.40187,-33.87776,0 18.40084,-33.87816,0 18.39941,-33.87872,0 18.39829,-33.87914,0 18.397,-33.87964,0 18.39554,-33.88023,0 18.39436,-33.88074,0 18.39358,-33.8811,0 18.39223,-33.88174,0 18.391,-33.88229,0 18.38997,-33.88281,0 18.389,-33.88333,0 18.38781,-33.88399,0 18.38691,-33.88445,0 18.3859,-33.88504,0 18.38453,-33.88584,0 18.3836,-33.88641,0 18.38253,-33.887,0 18.3817,-33.88756,0 18.38053,-33.88826,0 18.37967,-33.88882,0 18.37858,-33.88956,0 18.37778,-33.89012,0 18.37676,-33.89085,0 18.37572,-33.89175,0 18.37481,-33.8925,0 18.37407,-33.89319,0 18.37334,-33.89388,0 18.37267,-33.89456,0 18.37183,-33.89543,0 18.37099,-33.89626,0 18.3702,-33.89713,0 18.36954,-33.8978,0 18.36891,-33.89855,0 18.36819,-33.89941,0 18.36746,-33.90019,0 18.36684,-33.90092,0 18.36606,-33.90179,0 18.36533,-33.90266,0 18.36468,-33.90343,0 18.36405,-33.90418,0 18.36348,-33.90486,0 18.36269,-33.90587,0 18.36205,-33.9067,0 18.36119,-33.90781,0 18.3593,-33.91028,0 18.35866,-33.91109,0 18.35798,-33.91205,0 18.35735,-33.91284,0 18.35661,-33.91382,0 18.35609,-33.91452,0 18.35535,-33.91554,0 18.35468,-33.91649,0 18.35409,-33.91731,0 18.3535,-33.91814,0 18.35283,-33.9191,0 18.35238,-33.91974,0 18.35171,-33.92065,0 18.35109,-33.92157,0 18.35048,-33.92244,0 18.34991,-33.92326,0 18.34846,-33.92555,0 18.3479,-33.92647,0 18.34757,-33.92699,0 18.347,-33.92792,0 18.34633,-33.92894,0 18.34585,-33.92969,0 18.34534,-33.93058,0 18.34476,-33.9315,0 18.34425,-33.93228,0 18.34386,-33.93297,0 18.34339,-33.93383,0 18.3427,-33.93491,0 18.34022,-33.9391,0 18.33803,-33.94299,0 18.33641,-33.94575,0 18.33492,-33.94841,0 18.3322,-33.95288,0</coordinates>
      </LineString>
    </Placemark>
  </Document>
</kml>
