<?xml version="1.0" encoding="UTF-8"?>
<kml xmlns="http://www.opengis.net/kml/2.2">
  <Document>
    <name>FR24 3e77fdf1</name>
    <Placemark>
      <name>FR24 3e77fdf1</name>
      <Style><LineStyle><color>ff0000ff</color><width>4</width></LineStyle></Style>
      <LineString>
        <tessellate>1</tessellate>
        <coordinates>18.43088,-33.89515,0 18.43259,-33.89273,0 18.43386,-33.89077,0 18.43416,-33.89026,0 18.43454,-33.88956,0 18.435,-33.88879,0 18.43539,-33.88802,0 18.43584,-33.88715,0 18.43629,-33.88618,0 18.43655,-33.88547,0 18.4366,-33.88472,0 18.43652,-33.88399,0 18.43618,-33.88326,0 18.4358,-33.88253,0 18.43546,-33.88207,0 18.43506,-33.88146,0 18.4346,-33.88086,0 18.43397,-33.88011,0 18.43355,-33.87959,0 18.4331,-33.87904,0 18.43248,-33.87844,0 18.43203,-33.8779,0 18.43151,-33.87732,0 18.43094,-33.87672,0 18.43048,-33.87625,0 18.42997,-33.87574,0 18.42922,-33.87518,0 18.42859,-33.89952,0 18.42856,-33.89923,0 18.42833,-33.89799,0 18.42828,-33.89763,0 18.42836,-33.89687,0 18.4285,-33.89653,0 18.42905,-33.89571,0 18.42974,-33.89487,0 18.43041,-33.89424,0 18.43097,-33.89369,0 18.43168,-33.89291,0 18.43225,-33.89222,0 18.43276,-33.89172,0 18.43334,-33.89101,0 18.43391,-33.89022,0 18.43461,-33.88934,0 18.43517,-33.88857,0 18.43573,-33.88788,0 18.43643,-33.88705,0 18.43689,-33.88644,0 18.43723,-33.8857,0 18.43741,-33.88509,0 18.4374,-33.8843,0 18.43718,-33.88346,0 18.43691,-33.88289,0 18.4366,-33.8823,0 18.43626,-33.88169,0 18.4359,-33.88101,0 18.43556,-33.88046,0 18.43517,-33.87987,0 18.43472,-33.87923,0 18.43437,-33.87872,0 18.43388,-33.87799,0 18.43355,-33.87758,0 18.43317,-33.87704,0 18.43283,-33.87653,0 18.43237,-33.87592,0 18.43198,-33.87543,0 18.43151,-33.87481,0 18.43097,-33.87424,0 18.43046,-33.87383,0 18.42997,-33.8735,0 18.42916,-33.87327,0 18.42839,-33.87323,0 18.42699,-33.8735,0 18.42592,-33.87378,0 18.42503,-33.87401,0 18.42396,-33.87433,0 18.42306,-33.87456,0 18.42222,-33.87479,0 18.42138,-33.87499,0 18.42052,-33.87523,0 18.41967,-33.87546,0 18.41858,-33.8757,0 18.41757,-33.87598,0 18.41662,-33.87616,0 18.4155,-33.87643,0 18.41457,-33.87667,0 18.41269,-33.87718,0 18.41194,-33.87737,0 18.41068,-33.87769,0 18.40978,-33.87794,0 18.40879,-33.87816,0 18.40804,-33.87836,0 18.40679,-33.87872,0 18.40588,-33.87895,0 18.40485,-33.87923,0 18.40382,-33.87946,0 18.40302,-33.87965,0 18.40204,-33.87982,0 18.40064,-33.88005,0 18.39958,-33.8803,0 18.39857,-33.88046,0 18.39758,-33.88067,0 18.39649,-33.88091,0 18.39504,-33.88129,0 18.39408,-33.88156,0 18.39285,-33.88193,0 18.39167,-33.88239,0 18.39033,-33.88289,0 18.38934,-33.88328,0 18.38775,-33.88394,0 18.38668,-33.88435,0 18.38545,-33.8849,0 18.38388,-33.88564,0 18.38276,-33.88626,0 18.38158,-33.88696,0 18.3803,-33.88779,0 18.3794,-33.88843,0 18.37824,-33.88924,0 18.37721,-33.89003,0 18.37629,-33.89082,0 18.37542,-33.89159,0 18.37446,-33.8925,0 18.37355,-33.89338,0 18.37262,-33.89442,0 18.372,-33.89511,0 18.37097,-33.89636,0 18.36998,-33.89754,0 18.36925,-33.89845,0 18.36834,-33.89967,0 18.36754,-33.90078,0 18.36679,-33.90175,0 18.36599,-33.90292,0 18.36536,-33.90385,0 18.36449,-33.90527,0 18.3637,-33.90651,0 18.36309,-33.90752,0 18.36225,-33.90889,0 18.36146,-33.91008,0 18.36073,-33.91122,0 18.35989,-33.91251,0 18.35901,-33.91396,0 18.35843,-33.91502,0 18.35592,-33.91973,0 18.35417,-33.92336,0 18.35305,-33.92574,0 18.35169,-33.92885,0 18.34923,-33.93458,0 18.34734,-33.93933,0 18.34677,-33.94217,0 18.34677,-33.94492,0 18.34734,-33.94789,0 18.34831,-33.95064,0 18.34975,-33.95311,0 18.35135,-33.95502,0 18.353,-33.95655,0 18.3549,-33.95723,0 18.3567,-33.95654,0 18.35775,-33.95469,0 18.35843,-33.95242,0 18.35907,-33.95031,0 18.35972,-33.94794,0 18.36033,-33.94575,0 18.36101,-33.9435,0 18.36247,-33.93896,0 18.36421,-33.9343,0 18.36531,-33.93188,0 18.36634,-33.92976,0 18.3676,-33.92769,0 18.36931,-33.92527,0 18.37088,-33.92322,0 18.37275,-33.92085,0 18.37704,-33.91608,0 18.37895,-33.91415,0 18.3799,-33.91324,0 18.38102,-33.91214,0 18.38173,-33.9114,0 18.38265,-33.91054,0 18.38522,-33.90805,0 18.38768,-33.90562,0 18.39037,-33.90297,0 18.3918,-33.90162,0 18.39277,-33.90078,0 18.39357,-33.90018,0 18.39448,-33.89941,0 18.39523,-33.89887,0 18.39626,-33.89813,0 18.39734,-33.89749,0 18.39832,-33.89692,0 18.39941,-33.89636,0 18.40064,-33.89575,0 18.40164,-33.89534,0 18.40296,-33.89478,0 18.40412,-33.89433,0 18.40542,-33.8938,0 18.40633,-33.89347,0 18.40748,-33.89305,0 18.40883,-33.89259,0 18.40984,-33.89223,0 18.41137,-33.8917,0 18.41247,-33.89131,0 18.41366,-33.89091,0 18.41482,-33.89049,0 18.41628,-33.88998,0 18.41732,-33.88961,0 18.4183,-33.8893,0 18.41953,-33.88889,0 18.4206,-33.88857,0 18.42194,-33.8882,0 18.42278,-33.88797,0 18.42447,-33.88756,0 18.42562,-33.88733,0 18.42722,-33.88714,0 18.42872,-33.8871,0 18.42996,-33.88719,0 18.43145,-33.88747,0 18.43293,-33.88792,0 18.43437,-33.88854,0 18.43573,-33.8893,0 18.4368,-33.89003,0 18.43797,-33.8909,0 18.43904,-33.89177,0 18.43999,-33.89259,0 18.44095,-33.89361,0 18.44173,-33.89452,0 18.44227,-33.89529,0 18.44279,-33.89607,0 18.44335,-33.89717,0 18.44363,-33.89804,0 18.44375,-33.89914,0 18.44347,-33.90009,0 18.4429,-33.90078,0 18.44204,-33.90115,0 18.44139,-33.90129,0 18.4401,-33.90138,0 18.43912,-33.90139,0 18.43786,-33.90129,0 18.43695,-33.90125,0 18.43567,-33.90125,0 18.43483,-33.90129,0 18.43386,-33.90139,0 18.43287,-33.90147,0 18.43175,-33.90147,0 18.43041,-33.9012,0 18.43001,-33.90102,0 18.42945,-33.90056,0 18.42923,-33.90024,0 18.42895,-33.89996,0 18.42871,-33.89971,0 18.42861,-33.89946,0 18.42848,-33.89911,0 18.42831,-33.89883,0 18.42819,-33.89855,0 18.42811,-33.89832,0 18.42802,-33.89799,0 18.42802,-33.89762,0 18.42813,-33.89697,0 18.42848,-33.89636,0 18.42889,-33.89584,0 18.42962,-33.8951,0 18.43057,-33.89424,0 18.43134,-33.89347,0 18.43191,-33.89291,0 18.43259,-33.89218,0 18.43315,-33.89159,0 18.43374,-33.89091,0 18.43431,-33.89022,0 18.435,-33.88939,0 18.43552,-33.88877,0 18.43596,-33.88815,0 18.43646,-33.88728,0 18.43678,-33.88663,0 18.43696,-33.88609,0 18.43706,-33.88537,0 18.43706,-33.88458,0 18.43695,-33.88398,0 18.43678,-33.88323,0 18.43652,-33.88261,0 18.43626,-33.88207,0 18.43597,-33.88142,0 18.43562,-33.88065,0 18.43529,-33.88002,0 18.43495,-33.87941,0 18.43466,-33.87881,0 18.43433,-33.87827,0 18.43391,-33.8776,0 18.43346,-33.87695,0 18.43304,-33.87648,0 18.43242,-33.87593,0 18.4318,-33.8756,0 18.43111,-33.87532,0 18.43035,-33.8752,0 18.42951,-33.8752,0 18.42848,-33.87527,0 18.42762,-33.87546,0 18.42659,-33.87564,0 18.4257,-33.87584,0 18.42476,-33.87611,0 18.42413,-33.87625,0 18.42301,-33.87653,0 18.42211,-33.87675,0 18.42093,-33.87703,0 18.4199,-33.87732,0 18.41904,-33.87751,0 18.41819,-33.87776,0 18.41729,-33.87799,0 18.41623,-33.87827,0 18.41544,-33.87845,0 18.41452,-33.87867,0 18.41135,-33.87932,0 18.40871,-33.87987,0 18.40675,-33.88028,0 18.40565,-33.88053,0 18.40485,-33.88072,0 18.40387,-33.88091,0 18.40305,-33.88115,0 18.40187,-33.88142,0 18.40078,-33.88169,0 18.39993,-33.88193,0 18.39907,-33.88216,0 18.39809,-33.88244,0 18.39728,-33.88271,0 18.39626,-33.883,0 18.39529,-33.88333,0 18.39437,-33.88365,0 18.39352,-33.88394,0 18.39229,-33.8844,0 18.39151,-33.88472,0 18.39054,-33.88505,0 18.38954,-33.8855,0 18.38877,-33.88584,0 18.38779,-33.88631,0 18.38699,-33.88672,0 18.38607,-33.88724,0 18.38522,-33.88775,0 18.3845,-33.88824,0 18.38373,-33.88882,0 18.38282,-33.88947,0 18.38209,-33.89003,0 18.38114,-33.89085,0 18.38052,-33.8914,0 18.37968,-33.89214,0 18.37889,-33.89282,0 18.37801,-33.89357,0 18.37738,-33.89415,0 18.37664,-33.89487,0 18.37592,-33.89552,0 18.37526,-33.89613,0 18.37452,-33.89687,0 18.37362,-33.89767,0 18.37303,-33.89827,0 18.3724,-33.89897,0 18.37189,-33.89943,0 18.37114,-33.90027,0 18.37054,-33.90083,0 18.37,-33.90144,0 18.3692,-33.9023,0 18.36864,-33.90294,0 18.36805,-33.90362,0 18.36731,-33.90442,0 18.36542,-33.90637,0 18.36281,-33.90912,0 18.3623,-33.90976,0 18.36152,-33.91072,0 18.3609,-33.9115,0 18.36033,-33.91233,0 18.35961,-33.91328,0 18.35905,-33.91415,0 18.3585,-33.91498,0 18.35776,-33.91603,0 18.3572,-33.91695,0 18.35638,-33.91815,0 18.35581,-33.91903,0 18.35512,-33.92015,0 18.35455,-33.92117,0 18.35398,-33.9221,0 18.35333,-33.92322,0 18.35277,-33.92427,0 18.35215,-33.92541,0 18.35152,-33.92653,0 18.35083,-33.92778,0 18.35026,-33.9289,0 18.34969,-33.92999,0 18.349,-33.93123,0 18.34843,-33.93225,0 18.3479,-33.93333,0 18.34728,-33.93439,0 18.34672,-33.93539,0 18.34605,-33.93668,0 18.34364,-33.9413,0 18.34208,-33.94454,0 18.34036,-33.94841,0 18.33977,-33.94986,0 18.33933,-33.95087,0 18.33893,-33.95199,0 18.33836,-33.95339,0 18.33796,-33.9545,0 18.3373,-33.95609,0 18.33658,-33.95772,0 18.33424,-33.96293,0 18.33132,-33.96945,0 18.32869,-33.97541,0 18.32626,-33.98126,0 18.32382,-33.98737,0 18.32166,-33.99312,0 18.32015,-33.99907,0 18.32005,-34.00208,0 18.32015,-34.00337,0 18.32045,-34.00557,0 18.32153,-34.0086,0 18.32319,-34.00985,0 18.32365,-34.0099,0 18.32576,-34.00914,0 18.32934,-34.00626,0 18.33149,-34.0045,0 18.33281,-34.00338,0 18.33372,-34.00254,0 18.33702,-33.99907,0 18.33854,-33.99738,0 18.34019,-33.99552,0 18.34162,-33.9938,0 18.34351,-33.99179,0 18.34528,-33.99002,0 18.34722,-33.98827,0 18.34917,-33.98653,0 18.3514,-33.98471,0 18.35373,-33.98273,0 18.35541,-33.9808,0 18.35678,-33.97843,0 18.35771,-33.97586,0 18.35855,-33.97316,0 18.35924,-33.97061,0 18.35989,-33.9678,0 18.36039,-33.96493,0 18.36073,-33.96228,0 18.36107,-33.95972,0 18.36136,-33.95697,0 18.36163,-33.95425,0 18.36222,-33.94883,0 18.36267,-33.94543,0 18.36337,-33.94116,0 18.36451,-33.93668,0 18.36527,-33.93448,0 18.36634,-33.93183,0 18.36674,-33.9309,0 18.36731,-33.92978,0 18.36768,-33.92903,0 18.36828,-33.92792,0 18.3688,-33.92704,0 18.36942,-33.92596,0 18.37009,-33.92487,0 18.37065,-33.92395,0 18.37121,-33.92308,0 18.37194,-33.92196,0 18.37262,-33.92107,0 18.3734,-33.92001,0 18.37503,-33.91805,0 18.37578,-33.91722,0 18.37682,-33.91612,0 18.37767,-33.91526,0 18.37858,-33.91442,0 18.37962,-33.91342,0 18.38053,-33.91256,0 18.38136,-33.91173,0 18.38209,-33.9109,0 18.38305,-33.90986,0 18.38377,-33.90907,0 18.3847,-33.908,0 18.38568,-33.90693,0 18.38648,-33.90604,0 18.38702,-33.90541,0 18.38814,-33.90427,0 18.38898,-33.90344,0 18.38968,-33.90279,0 18.39066,-33.90195,0 18.39151,-33.90125,0 18.39268,-33.90028,0 18.3938,-33.89937,0 18.3947,-33.89877,0 18.39586,-33.89799,0 18.39689,-33.89745,0 18.39781,-33.89697,0 18.39902,-33.89635,0 18.39991,-33.89594,0 18.40104,-33.89543,0 18.40221,-33.89493,0 18.4033,-33.89445,0 18.4045,-33.89384,0 18.40576,-33.89329,0 18.40658,-33.89296,0 18.40799,-33.89231,0 18.40885,-33.89189,0 18.41028,-33.89128,0 18.4116,-33.89068,0 18.41281,-33.89012,0 18.41618,-33.88868,0 18.41875,-33.8876,0 18.41978,-33.88719,0 18.42121,-33.88664,0 18.42239,-33.88623,0 18.42379,-33.88577,0 18.42519,-33.88536,0 18.42626,-33.88504,0 18.42762,-33.88472,0 18.42876,-33.88444,0 18.43019,-33.88421,0 18.43122,-33.88407,0 18.43287,-33.88399,0 18.43405,-33.88394,0 18.43512,-33.88398,0 18.4366,-33.88407,0 18.43781,-33.88422,0 18.4387,-33.88435,0 18.43988,-33.88467,0 18.44124,-33.88509,0 18.44244,-33.8856,0 18.44336,-33.88612,0 18.44427,-33.88672,0 18.44513,-33.88742,0 18.4461,-33.88843,0 18.44666,-33.88916,0 18.44725,-33.89022,0 18.44761,-33.89104,0 18.44799,-33.89212,0 18.4481,-33.89301,0 18.44806,-33.89378,0 18.44793,-33.89468,0 18.44753,-33.89566,0 18.44702,-33.89641,0 18.44616,-33.89731,0 18.44547,-33.8978,0 18.44442,-33.89841,0 18.44369,-33.89882,0 18.44255,-33.89925,0 18.44164,-33.89952,0 18.44078,-33.89978,0 18.43987,-33.90004,0 18.43872,-33.90036,0 18.43786,-33.9006,0 18.4368,-33.90088,0 18.43596,-33.90106,0 18.43517,-33.9012,0 18.43427,-33.90129,0 18.43349,-33.90134,0 18.43288,-33.90134,0 18.43197,-33.90134,0 18.43142,-33.90125,0 18.43091,-33.90106,0 18.43037,-33.90083,0 18.42979,-33.90051,0 18.42951,-33.90033,0 18.42928,-33.90013,0 18.429,-33.89987,0 18.42876,-33.89967,0 18.42854,-33.89948,0 18.42811,-33.89928,0 18.42791,-33.89915,0 18.42762,-33.89892,0 18.42733,-33.89859,0 18.42727,-33.89836,0 18.42716,-33.89794,0 18.42722,-33.89766,0 18.42727,-33.89726,0 18.42745,-33.89687,0 18.42791,-33.89631,0 18.42899,-33.8952,0 18.42951,-33.89473,0 18.43001,-33.89429,0 18.43057,-33.89383,0 18.4313,-33.89319,0 18.43186,-33.89268,0 18.43254,-33.89208,0 18.43311,-33.89161,0 18.43371,-33.89104,0 18.4342,-33.89059,0 18.43483,-33.88989,0 18.43523,-33.88942,0 18.43552,-33.88905,0 18.42756,-33.89967,0 18.42791,-33.89864,0 18.42833,-33.89795,0 18.42872,-33.89749,0 18.42945,-33.89671,0 18.43029,-33.89584,0 18.43071,-33.89538,0 18.43128,-33.89473,0 18.43203,-33.89392,0 18.43271,-33.8932,0 18.43323,-33.8925,0 18.43399,-33.89163,0 18.43461,-33.89081,0 18.435,-33.89026,0 18.43563,-33.88929,0 18.43612,-33.88847,0 18.43655,-33.8877,0 18.43685,-33.88701,0 18.43723,-33.88598,0 18.43741,-33.88522,0 18.43746,-33.88458,0 18.43741,-33.88399,0 18.4374,-33.88342,0 18.43729,-33.88272,0 18.43713,-33.88193,0 18.43706,-33.88151,0 18.43689,-33.88076,0 18.43672,-33.88016,0 18.43663,-33.87968,0 18.4364,-33.879,0 18.43626,-33.87844,0 18.43603,-33.87793,0 18.43579,-33.8773,0 18.43539,-33.87666,0 18.43506,-33.87621,0 18.43444,-33.87589,0 18.4338,-33.87574,0 18.43282,-33.8757,0 18.4322,-33.87574,0 18.43128,-33.87579,0 18.43031,-33.87583,0 18.42968,-33.87589,0 18.42878,-33.87593,0 18.42811,-33.87598,0 18.42721,-33.87607,0 18.4262,-33.87621,0 18.42556,-33.87625,0 18.42463,-33.87634,0 18.4239,-33.87643,0 18.42299,-33.87658,0 18.42217,-33.87671,0 18.4215,-33.87685,0 18.42076,-33.87698,0 18.41995,-33.87713,0 18.41931,-33.8773,0 18.41841,-33.87746,0 18.41763,-33.87762,0 18.4169,-33.87781,0 18.416,-33.87794,0 18.41526,-33.87807,0 18.41452,-33.8782,0 18.41377,-33.8783,0 18.41286,-33.87844,0 18.412,-33.87853,0 18.41108,-33.87862,0 18.41034,-33.87867,0 18.40933,-33.87877,0 18.40839,-33.87881,0 18.40759,-33.87886,0 18.40656,-33.8789,0 18.40576,-33.8789,0 18.4049,-33.87895,0 18.40406,-33.87895,0 18.40284,-33.879,0 18.4021,-33.87904,0 18.40126,-33.87909,0 18.40014,-33.87923,0 18.39907,-33.87936,0 18.39821,-33.87951,0 18.39739,-33.87968,0 18.39626,-33.87993,0 18.39518,-33.88016,0 18.39436,-33.88037,0 18.3934,-33.88067,0 18.39246,-33.88106,0 18.39174,-33.88137,0 18.39088,-33.88188,0 18.38991,-33.88249,0 18.38923,-33.88295,0 18.38837,-33.88361,0 18.38768,-33.88407,0 18.38682,-33.88472,0 18.38601,-33.88536,0 18.38545,-33.88577,0 18.38459,-33.8864,0 18.38371,-33.88701,0 18.3831,-33.88747,0 18.3822,-33.88811,0 18.38161,-33.88849,0 18.38058,-33.88924,0 18.37985,-33.8898,0 18.37915,-33.89026,0 18.37822,-33.8909,0 18.37669,-33.89198,0 18.37587,-33.89259,0 18.37486,-33.89337,0 18.3743,-33.89383,0 18.37334,-33.89456,0 18.37286,-33.89492,0 18.37206,-33.89552,0 18.37149,-33.89594,0 18.37071,-33.89648,0 18.37009,-33.89699,0 18.36953,-33.89754,0 18.36897,-33.89809,0 18.36851,-33.89864,0 18.36811,-33.89901,0 18.36757,-33.89964,0 18.36712,-33.90019,0 18.36651,-33.90088,0 18.36611,-33.90139,0 18.3655,-33.90207,0 18.36505,-33.90266,0 18.36445,-33.90334,0 18.36393,-33.9039,0 18.36342,-33.90451,0 18.36292,-33.90509,0 18.36227,-33.9059,0 18.36176,-33.90651,0 18.36118,-33.9072,0 18.36044,-33.90805,0 18.35984,-33.90875,0 18.3593,-33.90949,0 18.35873,-33.91023,0 18.35799,-33.91122,0 18.35737,-33.912,0 18.35678,-33.91279,0 18.35592,-33.91391,0 18.35529,-33.91475,0 18.35449,-33.91582,0 18.35378,-33.91672,0 18.35316,-33.91754,0 18.35243,-33.91856,0 18.35175,-33.9195,0 18.351,-33.92066,0 18.35037,-33.92154,0 18.34986,-33.92239,0 18.34911,-33.92359,0 18.34843,-33.92471,0 18.34785,-33.92564,0 18.34711,-33.92688,0 18.34665,-33.92774,0 18.34588,-33.92908,0 18.34538,-33.92999,0 18.34482,-33.9309,0 18.3442,-33.93205,0 18.34351,-33.93323,0 18.34296,-33.9342,0 18.34099,-33.9377,0 18.33915,-33.94107,0 18.33742,-33.94432,0 18.33578,-33.94757,0 18.33406,-33.95115,0 18.33293,-33.95343,0 18.33086,-33.9581,0 18.33018,-33.9597,0 18.32985,-33.96048,0 18.3296,-33.96102,0 18.3271,-33.96703,0 18.3252,-33.97137,0 18.32296,-33.97666,0 18.32094,-33.98163,0 18.31896,-33.98648,0 18.31701,-33.99096,0 18.3153,-33.99449,0 18.31364,-33.9978,0 18.31354,-33.99802,0 18.30961,-34.00493,0 18.30906,-34.0059,0 18.30838,-34.00703,0 18.30771,-34.00809,0 18.30698,-34.00914,0 18.3063,-34.01019,0 18.30425,-34.01335,0 18.30288,-34.01572,0 18.30219,-34.01693,0 18.30154,-34.01802,0 18.30099,-34.01898,0 18.30036,-34.02,0 18.29979,-34.02089,0 18.2987,-34.02275,0 18.29807,-34.02377,0 18.29745,-34.02489,0 18.29699,-34.02573,0 18.2965,-34.02681,0 18.29594,-34.02827,0 18.29566,-34.02924,0 18.29544,-34.03066,0 18.29533,-34.03159,0 18.29538,-34.03271,0 18.29544,-34.03355,0 18.29567,-34.03485,0 18.29594,-34.03592,0 18.29616,-34.03674,0 18.2965,-34.0378,0 18.29683,-34.03876,0 18.29717,-34.03954,0 18.29745,-34.04031,0 18.2979,-34.04123,0 18.29846,-34.04205,0 18.29896,-34.04279,0 18.29962,-34.04361,0 18.3003,-34.04454,0 18.30088,-34.04519,0 18.30145,-34.04589,0 18.30193,-34.04645,0 18.30255,-34.04704,0 18.303,-34.04741,0 18.30373,-34.048,0 18.30429,-34.04837,0 18.30485,-34.04869,0 18.3053,-34.04892,0 18.30591,-34.04906,0 18.3066,-34.04905,0 18.30711,-34.04882,0 18.30754,-34.04842,0 18.3078,-34.04765,0 18.30769,-34.04714,0 18.30729,-34.0464,0 18.30666,-34.04579,0 18.30597,-34.04512,0 18.30535,-34.0443,0 18.30502,-34.04352,0 18.3049,-34.04274,0 18.30496,-34.04169,0 18.30519,-34.04082,0 18.30569,-34.03963,0 18.3062,-34.03848,0 18.3067,-34.03738,0 18.3072,-34.03624,0 18.30787,-34.03482,0 18.30832,-34.03386,0 18.30877,-34.03285,0 18.3094,-34.03164,0 18.30984,-34.03079,0 18.3104,-34.02979,0 18.31089,-34.02894,0 18.31169,-34.02763,0 18.31247,-34.02654,0 18.3132,-34.02553,0 18.31415,-34.02434,0 18.31467,-34.02373,0 18.31628,-34.02182,0 18.31707,-34.02098,0 18.31791,-34.01999,0 18.31864,-34.01917,0 18.31886,-34.01894,0 18.31998,-34.01779,0 18.32216,-34.01563,0 18.32312,-34.01477,0 18.32413,-34.01385,0 18.32514,-34.01294,0 18.32605,-34.01213,0 18.32697,-34.0113,0 18.32788,-34.01051,0 18.32863,-34.00985,0 18.32985,-34.00868,0 18.33086,-34.00771,0 18.3317,-34.00685,0 18.33259,-34.00584,0 18.33355,-34.0047,0 18.33441,-34.00362,0 18.335,-34.00273,0 18.33876,-33.99719,0 18.34039,-33.99463,0 18.34201,-33.99211,0 18.34534,-33.98709,0 18.34846,-33.98232,0 18.35175,-33.97755,0 18.35489,-33.97266,0 18.35754,-33.96799,0 18.3589,-33.96512,0 18.35995,-33.9624,0 18.36084,-33.95976,0 18.36168,-33.957,0 18.36241,-33.95435,0 18.36302,-33.95162,0 18.36359,-33.94904,0 18.36382,-33.9478,0 18.36405,-33.94631,0 18.36426,-33.94524,0 18.36449,-33.94395,0 18.36471,-33.94276,0 18.36485,-33.9417,0 18.36505,-33.94043,0 18.36589,-33.93535,0 18.36617,-33.93411,0 18.36645,-33.93283,0 18.36679,-33.93183,0 18.3672,-33.93067,0 18.36757,-33.92967,0 18.368,-33.92867,0 18.36864,-33.92734,0 18.36914,-33.92642,0 18.36983,-33.92527,0 18.37034,-33.92439,0 18.37097,-33.92327,0 18.37154,-33.92229,0 18.37212,-33.92126,0 18.37257,-33.92052,0 18.37323,-33.91942,0 18.37385,-33.91837,0 18.37441,-33.9175,0 18.37503,-33.91652,0 18.37572,-33.9154,0 18.37629,-33.91456,0 18.37693,-33.9137,0 18.37766,-33.91269,0 18.37841,-33.91167,0 18.37904,-33.91084,0 18.37996,-33.90981,0 18.38069,-33.90907,0 18.38147,-33.90834,0 18.38236,-33.90753,0 18.38327,-33.90669,0 18.38405,-33.90596,0 18.38506,-33.905,0 18.38585,-33.90427,0 18.38665,-33.90353,0 18.38762,-33.90269,0 18.38842,-33.90193,0 18.38934,-33.90115,0 18.39038,-33.90033,0 18.39128,-33.89967,0 18.39231,-33.89892,0 18.39324,-33.89832,0 18.39436,-33.89758,0 18.39532,-33.89703,0 18.39655,-33.89626,0 18.39746,-33.89576,0 18.39884,-33.89496,0 18.39993,-33.89436,0 18.40126,-33.89369,0 18.4025,-33.8931,0 18.40384,-33.89255,0 18.40508,-33.89203,0 18.40636,-33.89154,0 18.40794,-33.89096,0 18.40928,-33.89049,0 18.4109,-33.88998,0 18.412,-33.88966,0 18.41381,-33.88911,0 18.41549,-33.88863,0 18.41715,-33.88821,0 18.41846,-33.88789,0 18.42015,-33.88747,0 18.42127,-33.88724,0 18.4231,-33.88686,0 18.42476,-33.88654,0 18.42613,-33.88631,0 18.42785,-33.88617,0 18.42929,-33.88618,0 18.43097,-33.88628,0 18.4326,-33.88649,0 18.43399,-33.88683,0 18.4354,-33.88733,0 18.43668,-33.88783,0 18.43821,-33.88854,0 18.43921,-33.88911,0 18.44067,-33.89008,0 18.44162,-33.89085,0 18.44261,-33.89185,0 18.44318,-33.89259,0 18.44381,-33.89375,0 18.44404,-33.89445,0 18.44414,-33.89557,0 18.44397,-33.89639,0 18.44352,-33.89735,0 18.44284,-33.89817,0 18.44223,-33.89868,0 18.44147,-33.89915,0 18.44055,-33.89948,0 18.43964,-33.89967,0 18.43853,-33.89983,0 18.43775,-33.8999,0 18.43666,-33.89994,0 18.4358,-33.89999,0 18.435,-33.89999,0 18.43397,-33.90004,0 18.4334,-33.90009,0 18.43237,-33.90015,0 18.43151,-33.90027,0 18.43085,-33.90033,0 18.43025,-33.90036,0 18.4294,-33.90047,0 18.429,-33.90056,0 18.4285,-33.9006,0 18.42819,-33.90064,0 18.42796,-33.90069,0 18.42773,-33.90069,0 18.42753,-33.90075,0 18.42749,-33.90033,0 18.42762,-33.89948,0 18.42791,-33.89883,0 18.42819,-33.89836,0 18.42889,-33.89735,0 18.42968,-33.89644,0 18.43025,-33.8958,0 18.43085,-33.89502,0 18.43147,-33.89429,0 18.43181,-33.89383,0 18.43259,-33.89287,0 18.43334,-33.89185,0 18.43382,-33.89117,0 18.43439,-33.8903,0 18.435,-33.88942,0 18.43539,-33.88875,0 18.43607,-33.8877,0 18.43646,-33.88692,0 18.4368,-33.88628,0 18.437,-33.88537,0 18.43706,-33.88477,0 18.437,-33.88407,0 18.43683,-33.88351,0 18.4366,-33.88295,0 18.43635,-33.88243,0 18.43592,-33.88179,0 18.43562,-33.88129,0 18.43529,-33.88081,0 18.43495,-33.88033,0 18.43437,-33.87955,0 18.43394,-33.87904,0 18.43351,-33.87862,0 18.43304,-33.87827,0 18.43243,-33.87793,0 18.43181,-33.87772,0 18.43122,-33.87755,0 18.43042,-33.87741,0 18.42997,-33.87732,0 18.42934,-33.87723,0 18.42895,-33.87721,0 18.42844,-33.87721,0 18.42785,-33.87723,0 18.42733,-33.87723,0 18.42676,-33.87723,0 18.42625,-33.87723,0 18.42562,-33.87727,0 18.42491,-33.87726,0 18.42436,-33.87727,0 18.42368,-33.8773,0 18.4231,-33.87732,0 18.42239,-33.87735,0 18.42172,-33.8774,0 18.42115,-33.87741,0 18.42043,-33.87744,0 18.41976,-33.87744,0 18.41829,-33.87751,0 18.41763,-33.87753,0 18.41639,-33.87753,0 18.41488,-33.87762,0 18.41423,-33.87765,0 18.41354,-33.87769,0 18.41275,-33.87772,0 18.41208,-33.87776,0 18.41157,-33.87781,0 18.41074,-33.87783,0 18.40989,-33.8779,0 18.40922,-33.8779,0 18.40834,-33.87793,0 18.40771,-33.87793,0 18.40685,-33.87793,0 18.40599,-33.87793,0 18.40548,-33.87793,0 18.40473,-33.87793,0 18.40399,-33.87793,0 18.40322,-33.87799,0 18.40266,-33.87808,0 18.40187,-33.87816,0 18.40126,-33.87827,0 18.40059,-33.8784,0 18.40003,-33.87845,0 18.39958,-33.87849,0 18.39896,-33.87854,0 18.39838,-33.87858,0 18.39795,-33.87868,0 18.39745,-33.87886,0 18.39678,-33.87923,0 18.39627,-33.87955,0 18.39563,-33.88002,0 18.39489,-33.88053,0 18.3942,-33.88101,0 18.39352,-33.88146,0 18.39266,-33.88207,0 18.39197,-33.88253,0 18.39117,-33.88309,0 18.39033,-33.88367,0 18.3896,-33.88417,0 18.38877,-33.88467,0 18.38785,-33.88528,0 18.38705,-33.88584,0 18.38629,-33.88632,0 18.38533,-33.887,0 18.38453,-33.88752,0 18.38362,-33.88817,0 18.38264,-33.88882,0 18.38179,-33.88947,0 18.38081,-33.89012,0 18.37996,-33.89081,0 18.37901,-33.89149,0 18.37818,-33.89212,0 18.37744,-33.89273,0 18.37595,-33.89389,0 18.37498,-33.89468,0 18.37334,-33.89598,0 18.37234,-33.89676,0 18.37149,-33.89753,0 18.37093,-33.89799,0 18.368,-33.90051,0 18.36645,-33.90189,0 18.36554,-33.90279,0 18.36466,-33.90367,0 18.36382,-33.90463,0 18.36325,-33.90525,0 18.36262,-33.906,0 18.36176,-33.90707,0 18.36107,-33.90791,0 18.36044,-33.9087,0 18.3597,-33.90968,0 18.35913,-33.91051,0 18.35855,-33.91127,0 18.35787,-33.91228,0 18.35712,-33.91335,0 18.35655,-33.91424,0 18.35574,-33.91544,0 18.35518,-33.91635,0 18.35451,-33.9175,0 18.35398,-33.91852,0 18.35328,-33.91969,0 18.35278,-33.92061,0 18.35209,-33.92187,0 18.3516,-33.92276,0 18.35092,-33.92404,0 18.35048,-33.925,0 18.34997,-33.92601,0 18.34946,-33.92718,0 18.34896,-33.92821,0 18.34843,-33.92941,0 18.34797,-33.93034,0 18.34745,-33.93142,0 18.34705,-33.9323,0 18.34644,-33.93356,0 18.34582,-33.93484,0 18.34539,-33.93579,0 18.34488,-33.93695,0 18.34442,-33.9381,0 18.34392,-33.93938,0 18.34364,-33.94048,0 18.34347,-33.94148,0 18.34341,-33.94235,0 18.34351,-33.94357,0 18.34379,-33.94463,0 18.34414,-33.94556,0 18.34454,-33.9464,0 18.34504,-33.94725,0 18.34566,-33.94817,0 18.34642,-33.94906,0 18.34723,-33.9498,0 18.3478,-33.95036,0 18.34863,-33.951,0 18.34947,-33.95174,0 18.35019,-33.95233,0 18.3507,-33.95274,0 18.35137,-33.95325,0 18.35199,-33.95366,0 18.35255,-33.95384,0 18.35322,-33.95389,0 18.35386,-33.95367,0 18.35455,-33.95311,0 18.35489,-33.95269,0 18.35546,-33.95169,0 18.35586,-33.951,0 18.3563,-33.95004,0 18.35684,-33.94892,0 18.3573,-33.94794,0 18.35776,-33.94688,0 18.35804,-33.94626,0 18.35855,-33.94505,0 18.35907,-33.94394,0 18.35944,-33.94299,0 18.35981,-33.94198,0 18.36027,-33.94086,0 18.36073,-33.9397,0 18.36113,-33.93874,0 18.36174,-33.93713,0 18.36213,-33.93617,0 18.36256,-33.93523,0</coordinates>
      </LineString>
    </Placemark>
  </Document>
</kml>
