<?xml version="1.0" encoding="UTF-8"?>
<kml xmlns="http://www.opengis.net/kml/2.2">
  <Document>
    <name>FR24 406e803b</name>
    <Placemark>
      <name>FR24 406e803b</name>
      <Style><LineStyle><color>ff0000ff</color><width>4</width></LineStyle></Style>
      <LineString>
        <tessellate>1</tessellate>
        <coordinates>18.4326,-33.89878,0 18.43397,-33.89822,0 18.43477,-33.89771,0 18.43523,-33.89724,0 18.43563,-33.89678,0 18.43597,-33.89622,0 18.43632,-33.89552,0 18.43663,-33.89484,0 18.43685,-33.89424,0 18.43696,-33.89365,0 18.43713,-33.89287,0 18.43723,-33.8924,0 18.43729,-33.89166,0 18.4374,-33.89063,0 18.4374,-33.8898,0 18.43746,-33.889,0 18.4374,-33.88817,0 18.43735,-33.88742,0 18.43724,-33.88664,0 18.43708,-33.886,0 18.43685,-33.88495,0 18.43657,-33.88422,0 18.43624,-33.88339,0 18.43586,-33.88263,0 18.43534,-33.88174,0 18.43477,-33.88081,0 18.43431,-33.88007,0 18.43386,-33.87951,0 18.43317,-33.87867,0 18.43231,-33.87778,0 18.43164,-33.87721,0 18.43065,-33.87648,0 18.42968,-33.87579,0 18.42872,-33.8752,0 18.42785,-33.87471,0 18.42687,-33.87428,0 18.4259,-33.87387,0 18.42505,-33.8735,0 18.42402,-33.87314,0 18.42276,-33.87271,0 18.42196,-33.87248,0 18.42071,-33.87213,0 18.41976,-33.8719,0 18.41841,-33.87167,0 18.4174,-33.87154,0 18.41612,-33.87141,0 18.41505,-33.8714,0 18.41381,-33.8714,0 18.41258,-33.8714,0 18.41148,-33.87146,0 18.41011,-33.87158,0 18.40933,-33.87172,0 18.40804,-33.8719,0 18.40702,-33.8721,0 18.40605,-33.87234,0 18.40508,-33.87257,0 18.40389,-33.87291,0 18.40302,-33.87322,0 18.4021,-33.87355,0 18.40092,-33.87396,0 18.40003,-33.87433,0 18.39907,-33.87469,0 18.39798,-33.87518,0 18.39706,-33.8756,0 18.39627,-33.87602,0 18.39518,-33.87653,0 18.3942,-33.87708,0 18.39312,-33.87765,0 18.39223,-33.87817,0 18.39134,-33.87867,0 18.3906,-33.87914,0 18.38957,-33.87974,0 18.38854,-33.88044,0 18.38769,-33.88106,0 18.3868,-33.88179,0 18.38596,-33.88244,0 18.38506,-33.88321,0 18.38425,-33.88388,0 18.38366,-33.88445,0 18.3827,-33.88528,0 18.38184,-33.88607,0 18.38116,-33.88682,0 18.38029,-33.8877,0 18.37951,-33.88847,0 18.37864,-33.88947,0 18.37801,-33.89017,0 18.37715,-33.89115,0 18.37648,-33.89191,0 18.3757,-33.89282,0 18.37503,-33.89366,0 18.37435,-33.89461,0 18.37357,-33.89571,0 18.37292,-33.89659,0 18.37206,-33.89772,0 18.37144,-33.89854,0 18.37065,-33.89969,0 18.36998,-33.9006,0 18.36937,-33.90153,0 18.36864,-33.90262,0 18.36796,-33.90367,0 18.36752,-33.9044,0 18.36685,-33.90553,0 18.36628,-33.90646,0 18.36561,-33.90761,0 18.36508,-33.90856,0 18.36451,-33.90968,0 18.36387,-33.91086,0 18.36337,-33.91187,0 18.36281,-33.91301,0 18.3623,-33.91406,0 18.36182,-33.91507,0 18.36136,-33.9161,0 18.36085,-33.91731,0 18.36045,-33.91827,0 18.35989,-33.91956,0 18.35941,-33.92075,0 18.35901,-33.92173,0 18.35866,-33.92267,0 18.35815,-33.92387,0 18.35781,-33.92485,0 18.35743,-33.92578,0 18.35703,-33.92697,0 18.35664,-33.92812,0 18.35627,-33.92918,0 18.35592,-33.93025,0 18.35564,-33.93123,0 18.35524,-33.93244,0 18.35501,-33.93332,0 18.35462,-33.93452,0 18.3544,-33.93535,0 18.35401,-33.93654,0 18.35369,-33.93756,0 18.35335,-33.93877,0 18.35261,-33.94102,0 18.35154,-33.94446,0 18.35049,-33.9478,0 18.3502,-33.94878,0 18.3498,-33.95013,0 18.34871,-33.95343,0 18.34757,-33.95702,0 18.34602,-33.96181,0 18.34482,-33.96531,0 18.34328,-33.9701,0 18.34167,-33.97513,0 18.34005,-33.98026,0 18.33836,-33.98523,0 18.33691,-33.98946,0 18.33567,-33.99277,0 18.334,-33.99701,0 18.33282,-34.00017,0 18.33164,-34.00356,0 18.33092,-34.0059,0 18.33052,-34.00716,0 18.33024,-34.00809,0 18.32983,-34.0092,0 18.32934,-34.01042,0 18.3289,-34.01147,0 18.3284,-34.01265,0 18.32794,-34.01363,0 18.32737,-34.01484,0 18.32688,-34.01582,0 18.32628,-34.01698,0 18.32564,-34.01807,0 18.32497,-34.01917,0 18.32435,-34.02013,0 18.32374,-34.02095,0 18.32301,-34.02196,0 18.32216,-34.02303,0 18.32142,-34.02401,0 18.32071,-34.02489,0 18.31993,-34.02587,0 18.31924,-34.02671,0 18.31847,-34.02768,0 18.31753,-34.0288,0 18.31673,-34.02983,0 18.31623,-34.03047,0 18.31539,-34.03162,0 18.31461,-34.03276,0 18.31393,-34.03386,0 18.31329,-34.03518,0 18.31286,-34.03633,0 18.31264,-34.03716,0 18.31249,-34.03848,0 18.31249,-34.0397,0 18.31266,-34.04109,0 18.31286,-34.04219,0 18.31337,-34.04366,0 18.31376,-34.04471,0 18.31421,-34.04565,0 18.31495,-34.0471,0 18.31544,-34.04805,0 18.31628,-34.04929,0 18.31701,-34.05029,0 18.31785,-34.05139,0 18.31867,-34.05231,0 18.31942,-34.05313,0 18.32062,-34.05431,0 18.32172,-34.05533,0 18.32273,-34.05627,0 18.32357,-34.05698,0 18.32458,-34.05785,0 18.32571,-34.05887,0 18.32693,-34.06004,0 18.3284,-34.06148,0 18.32901,-34.0621,0 18.33024,-34.06334,0 18.33109,-34.06423,0 18.33209,-34.06522,0 18.33286,-34.06609,0 18.33461,-34.06805,0 18.3359,-34.06947,0 18.33624,-34.06993,0 18.33753,-34.07144,0 18.33809,-34.07213,0 18.3391,-34.07341,0 18.3399,-34.07452,0 18.3407,-34.07559,0 18.34139,-34.07671,0 18.34196,-34.07762,0 18.34253,-34.07875,0 18.34311,-34.07996,0 18.34356,-34.08103,0 18.34402,-34.08229,0 18.34448,-34.08359,0 18.34488,-34.08485,0 18.34517,-34.08592,0 18.34543,-34.08687,0 18.34577,-34.08815,0 18.34608,-34.08941,0 18.34631,-34.09039,0 18.34666,-34.09163,0 18.34688,-34.09272,0 18.34711,-34.0937,0 18.34734,-34.09502,0 18.34757,-34.0963,0 18.34768,-34.09732,0 18.34778,-34.09863,0 18.34791,-34.10003,0 18.34797,-34.10105,0 18.34808,-34.10221,0 18.34812,-34.10335,0 18.34814,-34.10463,0 18.34812,-34.10596,0 18.34801,-34.10733,0 18.34791,-34.10841,0 18.34767,-34.10962,0 18.34734,-34.11073,0 18.34694,-34.112,0 18.34644,-34.11319,0 18.34582,-34.11438,0 18.34538,-34.11525,0 18.34459,-34.11644,0 18.34386,-34.11745,0 18.34316,-34.11842,0 18.34257,-34.11919,0 18.34162,-34.12028,0 18.34093,-34.12102,0 18.3399,-34.12209,0 18.33882,-34.12308,0 18.33814,-34.12372,0 18.33687,-34.12479,0 18.33567,-34.12572,0 18.33487,-34.12633,0 18.3336,-34.12729,0 18.33248,-34.12811,0 18.33149,-34.12884,0 18.33058,-34.12949,0 18.32945,-34.13031,0 18.32828,-34.13123,0 18.32733,-34.13196,0 18.32654,-34.13251,0 18.32536,-34.13342,0 18.32417,-34.13433,0 18.32256,-34.13583,0 18.32144,-34.13704,0 18.32079,-34.13778,0 18.31999,-34.13885,0 18.31913,-34.14006,0 18.31836,-34.14148,0 18.31793,-34.14239,0 18.31741,-34.14374,0 18.31712,-34.14491,0 18.31696,-34.14642,0 18.31696,-34.14765,0 18.31713,-34.14895,0 18.31729,-34.14995,0 18.31758,-34.15096,0 18.31802,-34.15237,0 18.31853,-34.15361,0 18.31903,-34.15462,0 18.3197,-34.1559,0 18.32027,-34.15691,0 18.3209,-34.15799,0 18.32155,-34.15897,0 18.32222,-34.16003,0 18.32285,-34.16092,0 18.32357,-34.1619,0 18.32457,-34.16324,0 18.32525,-34.16418,0 18.326,-34.16511,0 18.32677,-34.16611,0 18.32766,-34.1672,0 18.32863,-34.16827,0 18.32934,-34.16908,0 18.33013,-34.16995,0 18.3312,-34.17107,0 18.332,-34.17195,0 18.33282,-34.17279,0 18.33388,-34.1738,0 18.33495,-34.17467,0 18.33585,-34.1754,0 18.33675,-34.17604,0 18.33824,-34.17698,0 18.33915,-34.17755,0 18.34055,-34.17828,0 18.34167,-34.17889,0 18.3427,-34.17944,0 18.34375,-34.17998,0 18.34515,-34.18066,0 18.34648,-34.18126,0 18.34784,-34.1819,0 18.349,-34.18238,0 18.35031,-34.18282,0 18.35193,-34.18327,0 18.35318,-34.18359,0 18.35479,-34.18391,0 18.35632,-34.18415,0 18.35787,-34.18442,0 18.35883,-34.1846,0 18.3604,-34.18488,0 18.36191,-34.1851,0 18.36302,-34.18536,0 18.36454,-34.18565,0 18.36576,-34.18596,0 18.36712,-34.18634,0 18.36841,-34.1868,0 18.36983,-34.18722,0 18.37132,-34.1875,0 18.3725,-34.18758,0 18.37383,-34.18759,0 18.37503,-34.18759,0 18.37632,-34.18758,0 18.37777,-34.18767,0 18.37893,-34.18773,0 18.38029,-34.18794,0 18.38142,-34.18813,0 18.38248,-34.18835,0 18.38371,-34.18872,0 18.38484,-34.18909,0 18.38579,-34.18959,0 18.38659,-34.19015,0 18.3873,-34.19092,0 18.38774,-34.19173,0 18.38791,-34.19252,0 18.38785,-34.19322,0 18.38745,-34.19406,0 18.38691,-34.19458,0 18.38646,-34.19481,0 18.38478,-34.19518,0 18.38388,-34.19499,0 18.3831,-34.19467,0 18.38253,-34.1942,0</coordinates>
      </LineString>
    </Placemark>
  </Document>
</kml>
