<?xml version="1.0" encoding="UTF-8"?>
<kml xmlns="http://www.opengis.net/kml/2.2">
  <Document>
    <name>FR24 3f98e846</name>
    <Placemark>
      <name>FR24 3f98e846</name>
      <Style><LineStyle><color>ff0000ff</color><width>4</width></LineStyle></Style>
      <LineString>
        <tessellate>1</tessellate>
        <coordinates>18.3946,-33.88128,0 18.39093,-33.88385,0 18.38417,-33.88452,0 18.38227,-33.88461,0 18.38036,-33.88761,0 18.37957,-33.88843,0 18.37895,-33.88893,0 18.37811,-33.88971,0 18.37744,-33.89035,0 18.37676,-33.89099,0 18.37604,-33.89163,0 18.37521,-33.89245,0 18.3744,-33.89329,0 18.37355,-33.89408,0 18.37295,-33.89474,0 18.37217,-33.89557,0 18.37161,-33.8963,0 18.36976,-33.89841,0 18.36914,-33.89925,0 18.36851,-33.90004,0 18.36788,-33.90078,0 18.36712,-33.90175,0 18.36639,-33.90262,0 18.36583,-33.90326,0 18.36496,-33.90442,0 18.36426,-33.90536,0 18.36359,-33.90623,0 18.3629,-33.90716,0 18.36079,-33.91013,0 18.36016,-33.91098,0 18.35939,-33.91214,0 18.35878,-33.91302,0 18.35804,-33.9142,0 18.35741,-33.91521,0 18.3567,-33.91631,0 18.35602,-33.9174,0 18.35552,-33.91827,0 18.35472,-33.91954,0 18.35415,-33.92052,0 18.35363,-33.92145,0 18.35311,-33.92239,0 18.35243,-33.92359,0 18.3518,-33.92476,0 18.35109,-33.92596,0 18.35059,-33.92697,0 18.349,-33.92997,0 18.34831,-33.93123,0 18.3478,-33.93221,0 18.34711,-33.93337,0 18.34538,-33.93658,0 18.34364,-33.93983,0 18.34145,-33.94423,0 18.34007,-33.94729,0 18.3395,-33.94854,0 18.33893,-33.94968,0 18.33836,-33.95082,0 18.33773,-33.95213,0 18.33715,-33.9532,0 18.33663,-33.95421,0 18.33607,-33.95534,0 18.33538,-33.95674,0 18.335,-33.95746,0 18.33424,-33.95897,0 18.33383,-33.95993,0 18.33203,-33.96359,0 18.32954,-33.96833,0 18.32755,-33.97224,0 18.32554,-33.97606,0 18.32262,-33.98164,0 18.32085,-33.98555,0 18.31869,-33.99046,0 18.31819,-33.99156,0 18.31764,-33.99291,0 18.31595,-33.99701,0 18.31455,-34.00045,0 18.31301,-34.00413,0 18.39495,-33.87606,0 18.39123,-33.87772,0 18.38999,-33.87836,0 18.38905,-33.8789,0 18.38814,-33.87946,0 18.38725,-33.88005,0 18.38636,-33.88063,0 18.38539,-33.88132,0 18.3845,-33.88197,0 18.38356,-33.88268,0 18.38264,-33.88346,0 18.38184,-33.88412,0 18.3811,-33.88482,0 18.38007,-33.88577,0 18.37938,-33.88644,0 18.37844,-33.88737,0 18.37761,-33.8882,0 18.37669,-33.88914,0 18.37587,-33.89003,0 18.37508,-33.8909,0 18.37446,-33.89161,0 18.37355,-33.89264,0 18.37284,-33.89346,0 18.37228,-33.8941,0 18.37137,-33.89515,0 18.37069,-33.89594,0 18.36987,-33.8969,0 18.3692,-33.89772,0 18.36869,-33.89836,0 18.36794,-33.89934,0 18.3672,-33.90032,0 18.36657,-33.90111,0 18.36595,-33.90198,0 18.3651,-33.90312,0 18.36451,-33.9039,0 18.36365,-33.9052,0 18.36309,-33.9061,0 18.3623,-33.9072,0 18.3618,-33.90797,0 18.36107,-33.90907,0 18.3604,-33.91008,0 18.35978,-33.91104,0 18.35855,-33.91298,0 18.35804,-33.91382,0 18.35747,-33.91465,0 18.35569,-33.91768,0 18.35403,-33.92057,0 18.353,-33.92257,0 18.35249,-33.92349,0 18.35205,-33.92436,0 18.35109,-33.92615,0 18.34946,-33.92913,0 18.34728,-33.93333,0 18.34571,-33.93631,0 18.34385,-33.94003,0 18.34246,-33.94286,0 18.34083,-33.94588,0 18.33882,-33.94972,0 18.33727,-33.95264,0 18.33568,-33.95567,0 18.33389,-33.95911,0 18.33229,-33.96228,0 18.33069,-33.96542,0 18.3289,-33.96877,0 18.32726,-33.97187,0 18.32548,-33.97531,0 18.32382,-33.97839,0 18.32159,-33.98253,0 18.31998,-33.98584,0 18.31813,-33.98978,0 18.31615,-33.99407,0 18.31432,-33.99812,0 18.31281,-34.00131,0 18.31238,-34.00227,0 18.3118,-34.00337,0 18.31129,-34.00443,0 18.31085,-34.00543,0 18.31043,-34.00627,0 18.30929,-34.00846,0 18.30877,-34.00946,0 18.30677,-34.0133,0 18.30517,-34.01646,0 18.30378,-34.01953,0 18.30334,-34.02058,0 18.30294,-34.02172,0 18.30266,-34.02296,0 18.30255,-34.02425,0 18.30271,-34.0254,0 18.303,-34.02631,0 18.30357,-34.02736,0 18.30434,-34.02827,0 18.3054,-34.02917,0 18.30659,-34.02979,0 18.30799,-34.03024,0 18.30916,-34.03043,0 18.31034,-34.03047,0 18.31152,-34.03033,0 18.31289,-34.02996,0 18.31404,-34.02941,0 18.31522,-34.0285,0 18.31595,-34.02777,0 18.31668,-34.02676,0 18.3173,-34.02559,0 18.3178,-34.02461,0 18.31819,-34.02365,0 18.31873,-34.02233,0 18.31907,-34.02135,0 18.31942,-34.02036,0 18.31982,-34.01907,0 18.32021,-34.01779,0 18.3205,-34.01679,0 18.32088,-34.01559,0 18.32119,-34.01446,0 18.32159,-34.01293,0 18.32188,-34.01209,0 18.32216,-34.01097,0 18.32256,-34.00964,0 18.32302,-34.00804,0 18.32336,-34.00697,0 18.32382,-34.00566,0 18.32413,-34.00465,0 18.32458,-34.00323,0 18.32497,-34.00208,0 18.32542,-34.00076,0 18.32581,-33.99966,0 18.32632,-33.99825,0 18.32685,-33.99691,0 18.32737,-33.99561,0 18.32794,-33.99421,0 18.32846,-33.99295,0 18.32901,-33.99174,0 18.32945,-33.99069,0 18.33002,-33.98955,0 18.33052,-33.98849,0 18.33138,-33.98695,0 18.33209,-33.98566,0 18.33269,-33.98462,0 18.33326,-33.9836,0 18.33389,-33.98244,0 18.33461,-33.98117,0 18.33504,-33.98043,0 18.33584,-33.97904,0 18.33663,-33.9776,0 18.33747,-33.97609,0 18.33807,-33.97499,0 18.33864,-33.97401,0 18.3391,-33.97313,0 18.3411,-33.96945,0 18.34351,-33.96502,0 18.34672,-33.95874,0 18.34848,-33.95539,0 18.3498,-33.95297,0 18.35036,-33.95187,0 18.3522,-33.94845,0 18.3539,-33.94514,0 18.35575,-33.94165,0 18.35754,-33.93828,0 18.35913,-33.93495,0 18.36073,-33.93155,0 18.3621,-33.92848,0 18.36264,-33.92738,0 18.36313,-33.92639,0 18.36519,-33.9222,0 18.36622,-33.9201,0 18.36674,-33.91917,0 18.36808,-33.91681,0 18.36863,-33.91587,0 18.36914,-33.91498,0 18.36983,-33.91386,0 18.37043,-33.91292,0 18.3712,-33.91177,0 18.37183,-33.91086,0 18.3725,-33.90985,0 18.37309,-33.90907,0 18.37395,-33.90795,0 18.37458,-33.90715,0 18.37532,-33.90623,0 18.37624,-33.90516,0 18.3771,-33.90417,0 18.37783,-33.90335,0 18.37875,-33.90232,0 18.37968,-33.90134,0 18.38041,-33.90051,0 18.38139,-33.89952,0 18.38214,-33.89868,0 18.38299,-33.8979,0 18.38383,-33.89708,0 18.38493,-33.89608,0 18.38579,-33.89538,0 18.38691,-33.89452,0 18.38785,-33.89384,0 18.38881,-33.89314,0 18.3898,-33.89254,0 18.39106,-33.89182,0 18.39207,-33.89122,0 18.39313,-33.89067,0 18.39443,-33.89008,0 18.39552,-33.88961,0 18.39695,-33.88905,0 18.39804,-33.88868,0 18.39935,-33.88826,0 18.40059,-33.88788,0 18.40199,-33.88747,0 18.40316,-33.88715,0 18.40462,-33.88678,0 18.40586,-33.88646,0 18.40736,-33.88617,0 18.40839,-33.88598,0 18.40995,-33.88568,0 18.41154,-33.88547,0 18.41269,-33.88531,0 18.41409,-33.88513,0 18.41561,-33.88499,0 18.41715,-33.88486,0 18.41835,-33.88477,0 18.41972,-33.88472,0 18.4211,-33.88467,0 18.42262,-33.88472,0 18.4239,-33.88491,0 18.42545,-33.88509,0 18.42665,-33.88528,0 18.42802,-33.88565,0 18.42929,-33.88605,0 18.43065,-33.88659,0 18.43203,-33.88724,0 18.43294,-33.8877,0 18.43399,-33.88829,0 18.43511,-33.88911,0 18.43612,-33.88989,0 18.43696,-33.89058,0 18.43786,-33.89138,0 18.43855,-33.89208,0 18.43943,-33.89305,0 18.44005,-33.89374,0 18.44061,-33.89465,0 18.44094,-33.89548,0 18.44106,-33.8963,0 18.44095,-33.89706,0 18.44072,-33.89767,0 18.44049,-33.89859,0 18.43938,-33.89826,0 18.43713,-33.89845,0 18.4364,-33.89854,0 18.43569,-33.89864,0 18.43477,-33.89878,0 18.43416,-33.89877,0 18.43323,-33.89962,0 18.4327,-33.89964,0 18.4322,-33.89964,0 18.43164,-33.89964,0 18.43105,-33.89962,0 18.43052,-33.89964,0 18.43025,-33.89967,0 18.42973,-33.89969,0 18.42922,-33.89971,0 18.42739,-33.9006,0 18.42761,-33.87783,0 18.40708,-33.88291,0 18.40422,-33.88403,0 18.4012,-33.88513,0 18.39809,-33.88626,0 18.39598,-33.887,0 18.39481,-33.88747,0 18.39357,-33.88794,0 18.3928,-33.88824,0 18.39163,-33.88873,0 18.39066,-33.8891,0 18.38966,-33.88948,0 18.38837,-33.88998,0 18.38736,-33.89044,0 18.38629,-33.89095,0 18.38534,-33.89149,0 18.38422,-33.89218,0 18.38332,-33.89282,0 18.38219,-33.89357,0 18.38127,-33.89441,0 18.38139,-33.89373,0 18.3792,-33.89479,0 18.37584,-33.89518,0 18.3762,-33.89873,0 18.37532,-33.89957,0 18.3744,-33.9006,0 18.37374,-33.90138,0 18.37306,-33.90221,0 18.37273,-33.90714,0 18.36754,-33.90986,0 18.36916,-33.91121,0 18.3697,-33.91156,0 18.36873,-33.91267,0 18.36498,-33.91568,0 18.35961,-33.9223,0 18.3586,-33.92404,0 18.3581,-33.92494,0 18.35747,-33.92601,0 18.35703,-33.92688,0 18.35644,-33.92797,0 18.3549,-33.931,0 18.3534,-33.93379,0 18.35182,-33.93695,0 18.34997,-33.94086,0 18.34846,-33.94405,0 18.34767,-33.94574,0 18.34711,-33.94688,0 18.3466,-33.94794,0 18.34614,-33.94883,0 18.34568,-33.94985,0 18.34526,-33.95068,0 18.34386,-33.95366,0 18.34207,-33.95769,0 18.34072,-33.96094,0 18.33781,-33.96753,0 18.33512,-33.97284,0 18.33271,-33.97719,0 18.32983,-33.98225,0 18.32693,-33.98758,0 18.32503,-33.99101,0 18.32314,-33.99459,0 18.32088,-33.99875,0 18.31853,-34.0031,0 18.31684,-34.00621,0 18.31455,-34.01014,0 18.31387,-34.01134,0 18.31329,-34.01237,0 18.31275,-34.01335,0 18.3123,-34.01431,0 18.31186,-34.01527,0 18.31123,-34.01651,0 18.31072,-34.01758,0 18.31023,-34.01848,0 18.30969,-34.0194,0 18.30911,-34.02045,0 18.30837,-34.02168,0 18.30771,-34.02278,0 18.30698,-34.02397,0 18.30619,-34.02512,0 18.30547,-34.02621,0 18.3049,-34.02699,0 18.30423,-34.02795,0 18.30345,-34.02914,0 18.30265,-34.03024,0 18.30193,-34.03148,0 18.30145,-34.03257,0 18.30111,-34.03383,0 18.30098,-34.03496,0 18.30099,-34.03597,0 18.30122,-34.03741,0 18.30145,-34.03835,0 18.30191,-34.03946,0 18.30236,-34.04067,0 18.30277,-34.04173,0 18.30322,-34.04292,0 18.30356,-34.04384,0 18.30412,-34.04512,0 18.3046,-34.04612,0 18.30502,-34.04713,0 18.30563,-34.04837,0 18.30614,-34.04952,0 18.30659,-34.05043,0 18.30711,-34.05152,0 18.30765,-34.05267,0 18.30816,-34.05368,0 18.30872,-34.05478,0 18.30923,-34.05576,0 18.30986,-34.05683,0 18.31045,-34.05762,0 18.31123,-34.05869,0 18.31202,-34.05963,0 18.31275,-34.06041,0 18.31359,-34.06123,0 18.31461,-34.06213,0 18.31535,-34.06274,0 18.31617,-34.06343,0 18.31701,-34.06412,0 18.31787,-34.06483,0 18.31892,-34.06572,0 18.31976,-34.06641,0 18.32088,-34.06728,0 18.32176,-34.068,0 18.32245,-34.06856,0 18.3234,-34.06934,0 18.32434,-34.0701,0 18.3252,-34.07074,0 18.32626,-34.07153,0 18.32705,-34.07222,0 18.32794,-34.07295,0 18.32869,-34.07372,0 18.32949,-34.07475,0 18.33017,-34.07577,0 18.33069,-34.07666,0 18.3313,-34.07785,0 18.33181,-34.07904,0 18.33226,-34.08009,0 18.33259,-34.08105,0 18.33298,-34.0822,0 18.33327,-34.08298,0 18.3336,-34.08421,0 18.33394,-34.08545,0 18.33422,-34.08659,0 18.33447,-34.08783,0 18.33467,-34.08893,0 18.33484,-34.09016,0 18.33504,-34.09123,0 18.33515,-34.0923,0 18.33534,-34.09337,0 18.33549,-34.09439,0 18.33568,-34.09543,0 18.33584,-34.09681,0 18.33601,-34.09785,0 18.33624,-34.09927,0 18.33635,-34.10031,0 18.33647,-34.10147,0 18.33652,-34.10262,0 18.33652,-34.10375,0 18.33646,-34.1049,0 18.33641,-34.10628,0 18.33629,-34.10738,0 18.33624,-34.10868,0 18.33613,-34.1098,0 18.33601,-34.11134,0 18.33578,-34.11222,0 18.33549,-34.11325,0 18.33512,-34.11452,0 18.33464,-34.11548,0 18.33405,-34.11658,0 18.33338,-34.11758,0 18.33271,-34.11845,0 18.332,-34.11939,0 18.33114,-34.12051,0 18.33041,-34.12138,0 18.32954,-34.12237,0 18.32878,-34.12326,0 18.32788,-34.12432,0 18.32714,-34.12512,0 18.32632,-34.12601,0 18.32514,-34.12724,0 18.32413,-34.1283,0 18.32323,-34.12921,0 18.32233,-34.13015,0 18.32153,-34.13099,0 18.32071,-34.13191,0 18.31976,-34.13285,0 18.3189,-34.13359,0 18.31813,-34.13452,0 18.31522,-34.13786,0 18.31592,-34.13992,0 18.31261,-34.14248,0 18.31232,-34.14369,0 18.31214,-34.14519,0 18.31208,-34.14619,0 18.31238,-34.14849,0 18.31272,-34.14988,0 18.31303,-34.15077,0 18.31347,-34.15189,0 18.31398,-34.153,0 18.31461,-34.15407,0 18.31524,-34.15519,0 18.31578,-34.15613,0 18.31628,-34.15704,0 18.31684,-34.15789,0 18.31758,-34.15905,0 18.31819,-34.15997,0 18.31881,-34.16093,0 18.31947,-34.1619,0 18.32015,-34.1629,0 18.32073,-34.16376,0 18.32148,-34.16492,0 18.32206,-34.16574,0 18.32256,-34.16646,0 18.3234,-34.16766,0 18.32396,-34.16844,0 18.32645,-34.1719,0 18.3284,-34.17474,0 18.32912,-34.17577,0 18.33115,-34.17875,0 18.33315,-34.18158,0 18.33388,-34.18259,0 18.33596,-34.18547,0 18.33825,-34.1884,0 18.34042,-34.19108,0 18.34122,-34.19206,0 18.34213,-34.19313,0 18.34293,-34.19406,0 18.34381,-34.19513,0 18.34448,-34.19595,0 18.34539,-34.19714,0 18.34608,-34.19793,0 18.34689,-34.19897,0 18.34751,-34.19979,0 18.34814,-34.20063,0 18.34896,-34.20163,0 18.34975,-34.20273,0 18.35043,-34.20356,0 18.35106,-34.20444,0 18.35169,-34.20528,0 18.35233,-34.2063,0 18.35294,-34.20712,0 18.35358,-34.20817,0 18.35426,-34.20919,0 18.35489,-34.21026,0 18.35546,-34.2112,0 18.35602,-34.2123,0 18.35658,-34.21326,0 18.35703,-34.21408,0 18.35765,-34.21527,0 18.35827,-34.21627,0 18.35878,-34.21729,0 18.35936,-34.21836,0 18.35989,-34.2193,0 18.36034,-34.22021,0 18.3609,-34.22125,0 18.36142,-34.22213,0 18.36191,-34.2231,0 18.36241,-34.22411,0 18.36428,-34.22786,0 18.36572,-34.23074,0 18.3678,-34.23482,0 18.36931,-34.23784,0 18.37099,-34.24118,0 18.37301,-34.24512,0 18.37463,-34.24834,0 18.37688,-34.25258,0 18.3783,-34.2556,0 18.37985,-34.2588,0 18.38139,-34.26207,0 18.38282,-34.2651,0 18.3845,-34.26846,0 18.38596,-34.27143,0 18.38809,-34.27565,0 18.38974,-34.27865,0 18.39223,-34.28293,0 18.39285,-34.28394,0 18.39341,-34.28481,0 18.39397,-34.28577,0 18.39448,-34.28664,0 18.395,-34.28754,0 18.39554,-34.28851,0 18.39616,-34.28957,0 18.39661,-34.29029,0 18.39722,-34.2914,0 18.39795,-34.2925,0 18.39844,-34.29331,0 18.39907,-34.29424,0 18.39963,-34.29506,0 18.40027,-34.29592,0 18.40087,-34.2968,0 18.40153,-34.29773,0 18.40227,-34.29877,0 18.40296,-34.29969,0 18.40347,-34.30034,0 18.40423,-34.30138,0 18.40501,-34.30247,0 18.40557,-34.3033,0 18.40619,-34.30412,0 18.40851,-34.30718,0 18.41084,-34.31017,0 18.41135,-34.31081,0 18.41236,-34.31195,0 18.41309,-34.31282,0 18.41389,-34.31375,0 18.41475,-34.31468,0 18.41555,-34.31561,0 18.41629,-34.31635,0 18.41695,-34.31703,0 18.41755,-34.31766,0 18.41863,-34.31873,0 18.41959,-34.31964,0 18.42048,-34.32047,0 18.42115,-34.3211,0 18.42213,-34.32203,0 18.42278,-34.32262,0 18.42373,-34.32348,0 18.42459,-34.32422,0 18.42553,-34.32513,0 18.42648,-34.32596,0 18.42739,-34.32678,0 18.42822,-34.32756,0 18.42905,-34.32832,0 18.43163,-34.3306,0 18.435,-34.3336,0 18.43848,-34.33662,0 18.44221,-34.33982,0 18.44498,-34.34221,0 18.44736,-34.34428,0 18.45005,-34.34666,0 18.45367,-34.34985,0 18.45625,-34.3521,0 18.45905,-34.35452,0 18.46224,-34.35727,0 18.46498,-34.35946,0 18.466,-34.3602,0 18.46712,-34.36093,0 18.46819,-34.36157,0 18.46908,-34.36208,0 18.47031,-34.36263,0 18.47149,-34.36308,0 18.47273,-34.36345,0 18.47391,-34.36374,0 18.47502,-34.36404,0 18.47614,-34.3643,0 18.47727,-34.36455,0 18.47849,-34.36481,0 18.47985,-34.3651,0 18.4808,-34.36528,0 18.48198,-34.36551,0 18.48301,-34.3657,0 18.4841,-34.36589,0 18.48523,-34.36606,0 18.48685,-34.36629,0 18.48814,-34.36647,0 18.48937,-34.36656,0 18.49062,-34.36668,0 18.49171,-34.36677,0 18.49307,-34.36679,0 18.4944,-34.36677,0 18.4956,-34.36673,0 18.49669,-34.36663,0 18.49789,-34.36652,0 18.49896,-34.36633,0 18.50029,-34.36612,0 18.50165,-34.36592,0 18.5026,-34.36588,0 18.50372,-34.36589,0 18.50496,-34.36615,0 18.50585,-34.36647,0 18.50664,-34.36705,0 18.50733,-34.36789,0 18.50765,-34.36862,0 18.50776,-34.36972,0 18.50756,-34.37064,0 18.5083,-34.37163,0 18.50487,-34.37315,0 18.50372,-34.37347,0 18.50212,-34.37362,0 18.50098,-34.37343,0 18.49829,-34.36975,0 18.49879,-34.36876,0 18.49915,-34.36779,0 18.49966,-34.36682,0 18.50025,-34.36574,0 18.50064,-34.36491,0 18.50115,-34.36388,0 18.50161,-34.36295,0 18.50199,-34.36203,0 18.50232,-34.36102,0 18.5026,-34.35992,0 18.50281,-34.35876,0 18.50292,-34.35765,0 18.50298,-34.35658,0 18.50299,-34.3553,0 18.50292,-34.3542,0 18.50277,-34.3532,0 18.50255,-34.35223,0 18.50227,-34.35132,0 18.50166,-34.35043,0 18.50086,-34.34964,0 18.4998,-34.3488,0 18.49886,-34.3481,0 18.49777,-34.34731,0 18.49683,-34.34665,0 18.49588,-34.34596,0 18.49491,-34.34526,0 18.49354,-34.34424,0 18.4924,-34.34335,0 18.49159,-34.3427,0 18.49073,-34.34196,0 18.48965,-34.34098,0 18.4887,-34.33997,0 18.48792,-34.33905,0 18.48724,-34.33823,0 18.4865,-34.33726,0 18.48581,-34.33642,0 18.48518,-34.33558,0 18.48461,-34.33474,0 18.48387,-34.33367,0 18.48341,-34.33297,0 18.48276,-34.332,0 18.48203,-34.33095,0 18.48146,-34.33014,0 18.48083,-34.32911,0 18.48015,-34.32809,0 18.47963,-34.32729,0 18.47906,-34.32632,0 18.4785,-34.32536,0 18.47805,-34.32445,0 18.47755,-34.32335,0 18.4771,-34.32225,0 18.47677,-34.32133,0 18.47649,-34.32031,0 18.47631,-34.31937,0 18.4762,-34.31808,0 18.4762,-34.31694,0 18.4762,-34.31589,0 18.47626,-34.31477,0 18.47631,-34.3137,0 18.47637,-34.31259,0 18.47643,-34.31163,0 18.47654,-34.31044,0 18.47659,-34.30952,0 18.47671,-34.30856,0 18.47689,-34.30756,0 18.477,-34.30658,0 18.47723,-34.30527,0 18.4774,-34.3043,0 18.47752,-34.30332,0 18.47775,-34.30215,0 18.47797,-34.30099,0 18.47816,-34.29996,0 18.47833,-34.29895,0 18.4785,-34.29799,0 18.47872,-34.29694,0 18.47895,-34.29555,0 18.47912,-34.29452,0 18.47934,-34.29327,0 18.47945,-34.29231,0 18.47963,-34.29084,0 18.47973,-34.28998,0 18.47986,-34.28865,0 18.48001,-34.28737,0 18.48003,-34.28651,0 18.48015,-34.2854,0 18.48024,-34.2843,0 18.48029,-34.28307,0 18.48035,-34.28224,0 18.48043,-34.28093,0 18.48049,-34.27981,0 18.48052,-34.27867,0 18.48055,-34.27734,0 18.48055,-34.27609,0 18.48055,-34.27506,0 18.48052,-34.27373,0 18.48052,-34.27286,0 18.48049,-34.27176,0 18.48049,-34.27041,0 18.48049,-34.2691,0 18.48049,-34.26803,0 18.48041,-34.26695,0 18.48038,-34.26571,0 18.48035,-34.26443,0 18.48026,-34.26333,0 18.48026,-34.26184,0 18.48024,-34.26073,0 18.48026,-34.25965,0 18.48029,-34.25848,0 18.48026,-34.25742,0 18.48032,-34.25653,0 18.48032,-34.25309,0 18.48029,-34.25208,0 18.48029,-34.25107,0 18.48029,-34.25011,0 18.48032,-34.24886,0 18.48026,-34.24755,0 18.48021,-34.24667,0 18.48018,-34.24562,0 18.48007,-34.24429,0 18.48003,-34.24331,0 18.47996,-34.24214,0 18.47992,-34.24085,0 18.47986,-34.23973,0 18.4798,-34.23866,0 18.47969,-34.23764,0 18.47945,-34.23624,0 18.47917,-34.23528,0 18.47878,-34.23427,0 18.47828,-34.23312,0 18.47777,-34.23216,0 18.47712,-34.23093,0 18.47654,-34.22981,0 18.47592,-34.22873,0 18.47542,-34.22777,0 18.47491,-34.22681,0 18.47431,-34.22567,0 18.47374,-34.22474,0 18.47306,-34.22365,0 18.47242,-34.2226,0 18.47166,-34.22141,0 18.47111,-34.22041,0 18.4706,-34.21948,0 18.47004,-34.21838,0 18.46956,-34.21724,0 18.46899,-34.2159,0 18.46852,-34.21472,0 18.46807,-34.21358,0 18.46757,-34.21234,0 18.46716,-34.21128,0 18.4667,-34.21026,0 18.46622,-34.20909,0 18.46577,-34.20808,0 18.46533,-34.20705,0 18.46481,-34.20593,0 18.4643,-34.20496,0 18.46359,-34.20374,0 18.46286,-34.20255,0 18.4623,-34.20165,0 18.46155,-34.20049,0 18.46081,-34.19946,0 18.46001,-34.19835,0 18.45922,-34.19742,0 18.45829,-34.1963,0 18.45748,-34.19531,0 18.45647,-34.19417,0 18.45557,-34.19325,0 18.45474,-34.19239,0 18.45389,-34.19151,0 18.45291,-34.19048,0 18.45227,-34.18964,0 18.45154,-34.18857,0 18.45103,-34.18758,0 18.45074,-34.18657,0 18.45053,-34.18533,0 18.45045,-34.18424,0 18.45039,-34.18312,0 18.45042,-34.18231,0 18.45051,-34.18135,0 18.45062,-34.18024,0 18.45075,-34.17924,0 18.45086,-34.17815,0 18.45102,-34.1773,0 18.45114,-34.17646,0 18.45131,-34.17563,0 18.45154,-34.17465,0 18.45177,-34.17381,0 18.45205,-34.17283,0 18.45232,-34.17201,0 18.45255,-34.17101,0 18.45283,-34.17014,0 18.45308,-34.16925,0 18.45331,-34.16822,0 18.45354,-34.16739,0 18.45389,-34.16624,0 18.45417,-34.16543,0 18.45451,-34.16432,0 18.45479,-34.1635,0 18.45514,-34.16236,0 18.45549,-34.16129,0 18.4558,-34.16034,0 18.45613,-34.15938,0 18.45714,-34.15636,0 18.45748,-34.15544,0 18.45782,-34.15453,0 18.45815,-34.15366,0 18.45858,-34.15273,0 18.45903,-34.15165,0 18.45943,-34.15068,0 18.45984,-34.14979,0 18.46041,-34.14853,0 18.46087,-34.1476,0 18.46129,-34.1467,0 18.46172,-34.14583,0 18.4623,-34.14472,0 18.4628,-34.14377,0 18.46338,-34.14281,0 18.46398,-34.14194,0 18.46447,-34.14113,0 18.46527,-34.14011,0 18.46583,-34.13933,0 18.46656,-34.13846,0 18.46746,-34.13741,0 18.46813,-34.13657,0 18.4688,-34.13571,0 18.46956,-34.13475,0 18.47043,-34.13351,0 18.47104,-34.13269,0 18.47161,-34.13182,0 18.47233,-34.13049,0 18.47277,-34.12973,0 18.47329,-34.12871,0 18.47374,-34.12777,0 18.47424,-34.12679,0 18.47463,-34.12601,0 18.47514,-34.12495,0 18.47551,-34.12409,0 18.47609,-34.12299,0 18.47654,-34.12191,0 18.47689,-34.12121,0 18.4774,-34.11995,0 18.47777,-34.11896,0 18.47816,-34.118,0 18.47866,-34.11679,0 18.47906,-34.11576,0 18.47952,-34.11455,0 18.47996,-34.11328,0 18.48035,-34.11223,0 18.48063,-34.11122,0 18.48101,-34.11013,0 18.48135,-34.10892,0 18.48152,-34.10789,0 18.48158,-34.10664,0 18.48164,-34.10541,0 18.48164,-34.10417,0 18.48164,-34.103,0 18.48164,-34.10179,0 18.48164,-34.10077,0 18.48164,-34.09951,0 18.4817,-34.09859,0 18.48169,-34.09747,0 18.48175,-34.09612,0 18.48181,-34.09515,0 18.48186,-34.09388,0 18.48192,-34.09277,0 18.48192,-34.09163,0 18.48192,-34.09076,0 18.48192,-34.08857,0 18.48186,-34.0876,0 18.48186,-34.08611,0 18.48181,-34.08532,0 18.48175,-34.08398,0 18.48169,-34.08308,0 18.48164,-34.08188,0 18.48153,-34.08069,0 18.48141,-34.07945,0 18.48136,-34.07845,0 18.48124,-34.07731,0 18.48118,-34.07615,0 18.48118,-34.07531,0 18.48112,-34.07424,0 18.48112,-34.07317,0 18.48112,-34.07224,0 18.48112,-34.07107,0 18.48112,-34.07014,0 18.48113,-34.06924,0 18.48112,-34.06805,0 18.48118,-34.06707,0 18.48124,-34.066,0 18.4813,-34.06485,0 18.48135,-34.0639,0 18.48141,-34.06274,0 18.48141,-34.06183,0 18.48147,-34.06068,0 18.48152,-34.05967,0 18.48158,-34.05873,0 18.48158,-34.05776,0 18.48164,-34.05669,0 18.48164,-34.05565,0 18.48164,-34.05157,0 18.48175,-34.04775,0 18.48181,-34.0444,0 18.48209,-34.04018,0 18.48242,-34.03688,0 18.48281,-34.03354,0 18.48315,-34.02878,0 18.48347,-34.02415,0 18.4836,-34.01985,0 18.48398,-34.01535,0 18.48398,-34.01432,0 18.48422,-34.01331,0 18.4845,-34.01212,0 18.48489,-34.01097,0 18.48523,-34.00983,0 18.48556,-34.00868,0 18.48584,-34.00772,0 18.48623,-34.00658,0 18.48639,-34.00566,0 18.48663,-34.00456,0 18.4868,-34.00369,0 18.48701,-34.00245,0 18.48724,-34.00131,0 18.48736,-34.00031,0 18.48753,-33.99924,0 18.48764,-33.99821,0 18.4878,-33.99696,0 18.48797,-33.99596,0 18.4881,-33.99491,0 18.48827,-33.99379,0 18.48842,-33.99266,0 18.48867,-33.99049,0 18.48876,-33.98927,0 18.48881,-33.98827,0 18.48887,-33.98717,0 18.48907,-33.98606,0 18.48919,-33.9849,0 18.4893,-33.98392,0 18.48936,-33.98272,0 18.48949,-33.98149,0 18.48965,-33.98043,0 18.48976,-33.97932,0 18.49005,-33.97722,0 18.49016,-33.9761,0 18.49061,-33.97256,0 18.49083,-33.96927,0 18.49096,-33.96721,0 18.49102,-33.96586,0 18.49094,-33.96492,0 18.49083,-33.96382,0 18.49066,-33.96263,0 18.49044,-33.96144,0 18.49033,-33.9607,0 18.49016,-33.95947,0 18.48999,-33.95842,0 18.48982,-33.9573,0 18.48965,-33.95627,0 18.48949,-33.95512,0 18.48925,-33.9539,0 18.48907,-33.95292,0 18.48893,-33.95187,0 18.48876,-33.95091,0 18.4885,-33.94966,0 18.48831,-33.94876,0 18.4881,-33.94771,0 18.48776,-33.94659,0 18.48747,-33.94565,0 18.48713,-33.9445,0 18.48685,-33.94363,0 18.48652,-33.94263,0 18.48616,-33.94161,0 18.48576,-33.94068,0 18.4853,-33.93951,0 18.48478,-33.9384,0 18.48438,-33.9375,0 18.48382,-33.93649,0 18.48335,-33.93565,0 18.48267,-33.93449,0 18.48215,-33.93356,0 18.48158,-33.93267,0 18.48095,-33.93155,0 18.48026,-33.93062,0 18.47968,-33.92976,0 18.47884,-33.92876,0 18.47809,-33.92788,0 18.47721,-33.92697,0 18.4762,-33.92597,0 18.47536,-33.92519,0 18.47452,-33.92441,0 18.47346,-33.92345,0 18.47261,-33.92271,0 18.47151,-33.92178,0 18.47065,-33.92107,0 18.46964,-33.9202,0 18.4687,-33.9194,0 18.46779,-33.91866,0 18.46693,-33.91796,0 18.46589,-33.91704,0 18.46482,-33.91621,0 18.46398,-33.91548,0 18.46287,-33.91461,0 18.46212,-33.91401,0 18.46107,-33.9131,0 18.46034,-33.91255,0 18.45926,-33.91167,0 18.45843,-33.911,0 18.45743,-33.91014,0 18.45652,-33.90939,0 18.45566,-33.9087,0 18.45462,-33.90784,0 18.45371,-33.90716,0 18.4526,-33.90637,0 18.45171,-33.90578,0 18.45074,-33.90516,0 18.44988,-33.90465,0 18.4489,-33.90399,0 18.44795,-33.90349,0 18.44702,-33.90302,0 18.44593,-33.9025,0 18.44492,-33.90221,0 18.44398,-33.90185,0 18.4429,-33.90153,0 18.4421,-33.90125,0 18.44084,-33.90102,0 18.43998,-33.90092,0 18.43881,-33.90074,0 18.43786,-33.90056,0 18.43729,-33.90041,0 18.4354,-33.90041,0 18.43478,-33.90033,0 18.43449,-33.89985,0 18.43355,-33.89978,0 18.43276,-33.89973,0 18.43237,-33.89969,0 18.43163,-33.89985,0 18.43088,-33.89985,0 18.43057,-33.89983,0 18.43025,-33.89976,0 18.42997,-33.89976,0 18.42962,-33.89971,0 18.42939,-33.89981,0 18.42895,-33.89992,0 18.42872,-33.89992,0 18.42831,-33.89994,0 18.42802,-33.89994,0 18.42777,-33.90001,0 18.42756,-33.90004,0 18.42727,-33.9001,0 18.42704,-33.90024,0 18.42688,-33.90051,0 18.42682,-33.90083,0 18.42705,-33.90102,0 18.42725,-33.90098,0</coordinates>
      </LineString>
    </Placemark>
  </Document>
</kml>
