<?xml version="1.0" encoding="UTF-8"?>
<kml xmlns="http://www.opengis.net/kml/2.2">
  <Document>
    <name>FR24 40275a56</name>
    <Placemark>
      <name>FR24 40275a56</name>
      <Style><LineStyle><color>ff0000ff</color><width>4</width></LineStyle></Style>
      <LineString>
        <tessellate>1</tessellate>
        <coordinates>18.4379,-33.88475,0 18.43248,-33.87634,0 18.41155,-33.87217,0 18.41,-33.87217,0 18.41184,-33.87343,0 18.41034,-33.87914,0 18.40874,-33.87974,0 18.40799,-33.88005,0 18.40541,-33.8811,0 18.40277,-33.8822,0 18.39947,-33.88374,0 18.39861,-33.88412,0 18.39769,-33.88458,0 18.39694,-33.88495,0 18.39616,-33.88531,0 18.39543,-33.88573,0 18.39363,-33.8866,0 18.39294,-33.88696,0 18.39027,-33.88829,0 18.38951,-33.88873,0 18.38881,-33.88916,0 18.38803,-33.88962,0 18.3873,-33.89008,0 18.38652,-33.89058,0 18.38556,-33.89117,0 18.38489,-33.89163,0 18.38402,-33.89227,0 18.38332,-33.89278,0 18.38259,-33.89333,0 18.38184,-33.89399,0 18.38119,-33.89447,0 18.38053,-33.89506,0 18.3799,-33.89561,0 18.37917,-33.8963,0 18.37844,-33.89699,0 18.37788,-33.89758,0 18.37727,-33.89817,0 18.37646,-33.89897,0 18.37592,-33.89955,0 18.37531,-33.90019,0 18.37463,-33.90092,0 18.37406,-33.90157,0 18.37332,-33.9025,0 18.37262,-33.9034,0 18.37211,-33.90399,0 18.37144,-33.90486,0 18.37074,-33.90577,0 18.37011,-33.9066,0 18.36943,-33.90753,0 18.36897,-33.90818,0 18.36841,-33.90903,0 18.36788,-33.90977,0 18.36731,-33.9107,0 18.36679,-33.91149,0 18.36617,-33.91251,0 18.36572,-33.91319,0 18.36527,-33.91397,0 18.36468,-33.91498,0 18.36421,-33.91571,0 18.36365,-33.91667,0 18.3632,-33.91745,0 18.36258,-33.91855,0 18.36222,-33.91927,0 18.36176,-33.92006,0 18.36124,-33.92107,0 18.36067,-33.9221,0 18.35933,-33.92473,0 18.35752,-33.92834,0 18.3558,-33.93192,0 18.35406,-33.93544,0 18.35272,-33.9384,0 18.35154,-33.94089,0 18.35089,-33.9424,0 18.35053,-33.94327,0 18.35019,-33.94418,0 18.34986,-33.94537,0 18.34963,-33.94622,0 18.34957,-33.94724,0 18.34963,-33.94821,0 18.34991,-33.94929,0 18.35048,-33.95023,0 18.35117,-33.95111,0 18.35209,-33.95181,0 18.35345,-33.95247,0 18.35484,-33.95283,0 18.35642,-33.95293,0 18.35776,-33.95284,0 18.35928,-33.95238,0 18.36044,-33.95181,0 18.36157,-33.95105,0 18.36241,-33.95023,0 18.36313,-33.94934,0 18.36376,-33.94822,0 18.36428,-33.94687,0 18.36456,-33.94575,0 18.36477,-33.94455,0 18.36491,-33.94319,0 18.36499,-33.94185,0 18.36505,-33.9407,0 18.3651,-33.93942,0 18.36519,-33.93821,0 18.36525,-33.93705,0 18.36544,-33.93558,0 18.36559,-33.93435,0 18.36588,-33.93318,0 18.36617,-33.93202,0 18.36662,-33.93062,0 18.36708,-33.92946,0 18.36768,-33.92802,0 18.36817,-33.92694,0 18.36869,-33.92587,0 18.36937,-33.92455,0 18.37004,-33.92336,0 18.37088,-33.92194,0 18.37149,-33.92097,0 18.37223,-33.91987,0 18.37306,-33.91869,0 18.37385,-33.91768,0 18.37469,-33.91661,0 18.37566,-33.9154,0 18.37654,-33.91438,0 18.37732,-33.91344,0 18.37818,-33.91247,0 18.37921,-33.9113,0 18.38013,-33.91023,0 18.38116,-33.90911,0 18.38203,-33.90811,0 18.38287,-33.90716,0 18.38388,-33.9061,0 18.38484,-33.90504,0 18.38573,-33.90413,0 18.38691,-33.90289,0 18.38791,-33.90195,0 18.38887,-33.90111,0 18.38988,-33.90019,0 18.39106,-33.8992,0 18.39249,-33.89804,0 18.39357,-33.8972,0 18.39478,-33.89636,0 18.39627,-33.89539,0 18.39756,-33.89461,0 18.39912,-33.89366,0 18.4005,-33.89301,0 18.4021,-33.89227,0 18.40344,-33.89168,0 18.40508,-33.89105,0 18.40675,-33.89044,0 18.40816,-33.89003,0 18.40971,-33.88961,0 18.41143,-33.88919,0 18.41309,-33.88882,0 18.41503,-33.8884,0 18.41651,-33.88811,0 18.41806,-33.88779,0 18.41961,-33.88752,0 18.42161,-33.88719,0 18.4229,-33.88701,0 18.42476,-33.88677,0 18.4262,-33.8866,0 18.42813,-33.88649,0 18.42968,-33.88646,0 18.43122,-33.88654,0 18.43276,-33.88669,0 18.43454,-33.887,0 18.43584,-33.88737,0 18.43723,-33.88784,0 18.43876,-33.88852,0 18.44004,-33.88924,0 18.44151,-33.8903,0 18.4424,-33.89108,0 18.44307,-33.89186,0 18.44376,-33.89282,0 18.44433,-33.89403,0 18.44464,-33.89493,0 18.44479,-33.89613,0 18.44459,-33.89694,0 18.44419,-33.89795,0 18.44296,-33.89941,0 18.44135,-33.89868,0 18.43926,-33.90019,0 18.43832,-33.90018,0 18.43723,-33.90013,0 18.43635,-33.90005,0 18.43523,-33.89996,0 18.4345,-33.89992,0 18.43343,-33.89983,0 18.43304,-33.89983,0 18.4326,-33.89976,0 18.43225,-33.89976,0 18.43203,-33.89976,0 18.43147,-33.89973,0 18.43114,-33.89969,0 18.43057,-33.89969,0 18.43024,-33.89969,0 18.42985,-33.89967,0 18.42957,-33.89969,0 18.42934,-33.89967,0 18.42888,-33.89971,0 18.42816,-33.89978,0 18.42768,-33.89985,0 18.42733,-33.89999,0 18.4271,-33.90009,0 18.42687,-33.90033,0 18.42676,-33.90056,0 18.42687,-33.90083,0 18.42687,-33.90106,0 18.42699,-33.90066,0 18.42713,-33.90038,0 18.42731,-33.90009,0 18.42759,-33.89977,0 18.42821,-33.89933,0 18.42865,-33.8992,0 18.42906,-33.89914,0 18.42974,-33.89864,0 18.43025,-33.89841,0 18.43069,-33.89818,0 18.431,-33.89804,0 18.4313,-33.89786,0 18.43157,-33.89771,0 18.43181,-33.89763,0 18.43203,-33.89743,0 18.43231,-33.89722,0 18.43282,-33.89676,0 18.43327,-33.8963,0 18.43355,-33.89607,0 18.43374,-33.89585,0 18.43397,-33.89561,0 18.4342,-33.89534,0 18.4346,-33.89492,0 18.43517,-33.89413,0 18.43556,-33.89365,0 18.43573,-33.89323,0 18.43609,-33.89264,0 18.43655,-33.89189,0 18.43691,-33.89113,0 18.43719,-33.89044,0 18.43758,-33.88962,0 18.43786,-33.88861,0 18.43798,-33.88789,0 18.43809,-33.88719,0 18.43803,-33.88649,0 18.43798,-33.88579,0 18.43383,-33.88272,0 18.43646,-33.88293,0 18.43584,-33.88234,0 18.43529,-33.88188,0 18.43467,-33.88147,0 18.43374,-33.88095,0 18.43306,-33.88063,0 18.4322,-33.88028,0 18.43153,-33.88,0 18.43074,-33.87978,0 18.42996,-33.87955,0 18.42916,-33.87932,0 18.42833,-33.87918,0 18.42755,-33.87909,0 18.42682,-33.87904,0 18.4259,-33.879,0 18.4251,-33.879,0 18.4243,-33.879,0 18.42361,-33.87904,0 18.42262,-33.87909,0 18.42172,-33.87918,0 18.42081,-33.87928,0 18.42004,-33.87936,0 18.41938,-33.87941,0 18.41863,-33.87955,0 18.4178,-33.87968,0 18.41701,-33.87987,0 18.41612,-33.88007,0 18.41538,-33.88023,0 18.41452,-33.88044,0 18.41381,-33.88065,0 18.41291,-33.88086,0 18.41224,-33.88106,0 18.41152,-33.88124,0 18.4108,-33.88146,0 18.40989,-33.88174,0 18.40919,-33.88202,0 18.40851,-33.8823,0 18.40782,-33.88258,0 18.40708,-33.883,0 18.40622,-33.88342,0 18.40553,-33.88379,0 18.4049,-33.88416,0 18.40423,-33.88458,0 18.40347,-33.88505,0 18.40294,-33.88541,0 18.40221,-33.88589,0 18.4017,-33.88631,0 18.40113,-33.88677,0 18.40053,-33.88719,0 18.39998,-33.88765,0 18.39941,-33.88803,0 18.39867,-33.88858,0 18.39806,-33.88902,0 18.39728,-33.88962,0 18.39666,-33.89003,0 18.39598,-33.89054,0 18.39532,-33.89104,0 18.3946,-33.89152,0 18.39392,-33.89204,0 18.39317,-33.89259,0 18.39246,-33.8931,0 18.39167,-33.89365,0 18.39094,-33.89417,0 18.38963,-33.8952,0 18.38871,-33.89576,0 18.38775,-33.89639,0 18.38696,-33.89685,0 18.38618,-33.89735,0 18.38523,-33.89795,0 18.38456,-33.89841,0 18.38379,-33.89892,0 18.38293,-33.89952,0 18.38226,-33.90001,0 18.3813,-33.90065,0 18.38063,-33.9012,0 18.37985,-33.90175,0 18.37917,-33.90225,0 18.37844,-33.90276,0 18.37766,-33.9034,0 18.37704,-33.9039,0 18.37624,-33.90455,0 18.37572,-33.90497,0 18.37491,-33.90573,0 18.3743,-33.90633,0 18.37349,-33.90707,0 18.37292,-33.90772,0 18.37234,-33.90833,0 18.37172,-33.90911,0 18.37103,-33.90981,0 18.37051,-33.91037,0 18.37006,-33.91088,0 18.36937,-33.91168,0 18.36885,-33.91228,0 18.36817,-33.91326,0 18.36768,-33.91397,0 18.3672,-33.9147,0 18.36679,-33.91544,0 18.36634,-33.91619,0 18.36594,-33.91693,0 18.36548,-33.91782,0 18.36502,-33.9187,0 18.36468,-33.9195,0 18.36426,-33.92038,0 18.36388,-33.92122,0 18.36348,-33.92221,0 18.36313,-33.92308,0 18.36281,-33.92395,0 18.3625,-33.92476,0 18.36222,-33.9255,0 18.36182,-33.92657,0 18.36152,-33.92734,0 18.36118,-33.92816,0 18.3609,-33.92904,0 18.36045,-33.93013,0 18.36017,-33.93095,0 18.35989,-33.93169,0 18.3595,-33.93279,0 18.35922,-33.93361,0 18.35894,-33.93443,0 18.3586,-33.93539,0 18.35833,-33.93644,0 18.3581,-33.93728,0 18.35781,-33.9383,0 18.35703,-33.94107,0 18.35632,-33.9438,0 18.35602,-33.94482,0 18.35563,-33.9467,0 18.35546,-33.94743,0 18.35524,-33.94854,0 18.35506,-33.94952,0 18.35496,-33.95041,0 18.35479,-33.95132,0 18.35468,-33.95219,0 18.35451,-33.95306,0 18.35434,-33.95421,0 18.35423,-33.95508,0 18.35333,-33.96071,0 18.35278,-33.96358,0 18.35227,-33.9657,0 18.35197,-33.96679,0 18.35188,-33.96703,0 18.35129,-33.96926,0 18.35094,-33.97033,0 18.35064,-33.97147,0 18.35042,-33.97234,0 18.35008,-33.97353,0 18.34986,-33.97438,0 18.34957,-33.97527,0 18.3493,-33.97636,0 18.3482,-33.98011,0 18.34734,-33.98318,0 18.3462,-33.98686,0 18.34534,-33.98997,0 18.34515,-33.99097,0 18.34504,-33.99207,0 18.34499,-33.99314,0 18.34498,-33.99426,0 18.34505,-33.99533,0 18.34517,-33.99631,0 18.34534,-33.99752,0 18.34549,-33.99847,0 18.34562,-33.99952,0 18.34588,-34.00076,0 18.34614,-34.00203,0 18.34637,-34.00306,0 18.34661,-34.0041,0 18.34689,-34.00525,0 18.34723,-34.00664,0 18.34756,-34.00781,0 18.34784,-34.00882,0 18.34814,-34.0099,0 18.34834,-34.01088,0 18.3486,-34.01204,0 18.34877,-34.01339,0 18.34891,-34.01436,0 18.34902,-34.01555,0 18.34911,-34.01651,0 18.34923,-34.01754,0 18.3493,-34.01857,0 18.34941,-34.01971,0 18.34951,-34.02075,0 18.34963,-34.02191,0 18.3498,-34.02298,0 18.34997,-34.02433,0 18.35009,-34.02526,0 18.35031,-34.02654,0 18.35053,-34.02759,0 18.35076,-34.02887,0 18.35094,-34.02983,0 18.3512,-34.03093,0 18.3514,-34.03201,0 18.35171,-34.03331,0 18.35199,-34.03432,0 18.3522,-34.03541,0 18.35249,-34.03639,0 18.35278,-34.0376,0 18.35316,-34.03889,0 18.35346,-34.03993,0 18.35378,-34.04091,0 18.35415,-34.04202,0 18.35457,-34.04329,0 18.35484,-34.04416,0 18.3553,-34.04544,0 18.35569,-34.04645,0 18.35609,-34.04752,0 18.35649,-34.04854,0 18.35701,-34.04984,0 18.35737,-34.0508,0 18.35776,-34.0518,0 18.35815,-34.05278,0 18.35878,-34.05408,0 18.35936,-34.05529,0 18.35981,-34.05622,0 18.36034,-34.05725,0 18.36084,-34.05832,0 18.36135,-34.0594,0 18.36187,-34.06055,0 18.36233,-34.06157,0 18.36296,-34.06302,0 18.36342,-34.06413,0 18.36382,-34.06507,0 18.36438,-34.06645,0 18.36488,-34.06769,0 18.36531,-34.06879,0 18.36582,-34.07005,0 18.36623,-34.07112,0 18.36679,-34.07236,0 18.36724,-34.07341,0 18.36782,-34.07475,0 18.36823,-34.07573,0 18.36875,-34.07684,0 18.36926,-34.07796,0 18.36992,-34.07927,0 18.37046,-34.08038,0 18.37114,-34.08168,0 18.37177,-34.08275,0 18.37257,-34.08387,0 18.37332,-34.08485,0 18.37419,-34.08582,0 18.37525,-34.08691,0 18.3762,-34.08788,0 18.37727,-34.0889,0 18.37824,-34.08979,0 18.37934,-34.0909,0 18.38029,-34.09181,0 18.38133,-34.09286,0 18.3822,-34.09373,0 18.38321,-34.09479,0 18.38436,-34.09598,0 18.38528,-34.09695,0 18.38624,-34.09795,0 18.38728,-34.09905,0 18.3901,-34.10197,0 18.39414,-34.10614,0 18.39829,-34.1104,0 18.40154,-34.11337,0 18.40279,-34.11451,0 18.40389,-34.11543,0 18.40473,-34.11618,0 18.40597,-34.11717,0 18.40708,-34.11809,0 18.40839,-34.11911,0 18.40948,-34.11995,0 18.41091,-34.12107,0 18.41206,-34.12186,0 18.41331,-34.12271,0 18.41454,-34.12358,0 18.41572,-34.12436,0 18.41698,-34.12516,0 18.41801,-34.12586,0 18.41931,-34.12665,0 18.42052,-34.12745,0 18.42205,-34.12834,0 18.42329,-34.12903,0 18.42459,-34.12977,0 18.4257,-34.13045,0 18.42722,-34.13136,0 18.42848,-34.13201,0 18.43007,-34.13283,0 18.43145,-34.1335,0 18.43282,-34.13406,0 18.4346,-34.13485,0 18.43544,-34.13524,0 18.43698,-34.13581,0 18.43867,-34.13608,0 18.43995,-34.13628,0 18.4416,-34.1369,0 18.44278,-34.13707,0 18.44478,-34.13723,0 18.4464,-34.13709,0 18.44803,-34.13716,0 18.44958,-34.13717,0 18.45122,-34.13706,0 18.45292,-34.13678,0 18.45442,-34.13649,0 18.45586,-34.13617,0 18.45733,-34.1357,0 18.45891,-34.13519,0 18.4604,-34.1346,0 18.46185,-34.13387,0 18.46312,-34.13327,0 18.46461,-34.13247,0 18.4658,-34.13174,0 18.46702,-34.13107,0 18.46847,-34.13025,0 18.46969,-34.12945,0 18.47082,-34.12862,0 18.47194,-34.12774,0 18.47314,-34.12665,0 18.47391,-34.12591,0 18.47485,-34.12502,0 18.47584,-34.12406,0 18.47678,-34.12299,0 18.47748,-34.12194,0 18.47823,-34.12084,0 18.47892,-34.11974,0 18.47964,-34.11856,0 18.48021,-34.11741,0 18.48078,-34.1163,0 18.48127,-34.11516,0 18.4818,-34.11399,0 18.48236,-34.11273,0 18.48291,-34.11155,0 18.48344,-34.11019,0 18.48381,-34.10926,0 18.48417,-34.10821,0 18.48461,-34.10711,0 18.48511,-34.10571,0 18.48556,-34.10467,0 18.48594,-34.1035,0 18.48619,-34.10236,0 18.48648,-34.10111,0 18.48682,-34.09977,0 18.48715,-34.09855,0 18.48733,-34.09731,0 18.48756,-34.09609,0 18.4878,-34.09485,0 18.48793,-34.09392,0 18.488,-34.09282,0 18.48809,-34.09171,0 18.48929,-34.09022,0 18.48816,-34.08958,0 18.48819,-34.08854,0 18.48663,-34.08804,0 18.48943,-34.08499,0 18.4896,-34.0838,0 18.4901,-34.08069,0 18.49028,-34.07964,0 18.49038,-34.07858,0 18.49055,-34.07744,0 18.49072,-34.07538,0 18.49083,-34.07442,0 18.49091,-34.07344,0 18.49094,-34.07236,0 18.49102,-34.07121,0 18.49102,-34.07028,0 18.49105,-34.06938,0 18.49111,-34.06847,0 18.49111,-34.06746,0 18.49113,-34.06632,0 18.49117,-34.06544,0 18.49119,-34.06246,0 18.49113,-34.05836,0 18.49125,-34.05524,0 18.49125,-34.05128,0 18.49128,-34.05038,0 18.49122,-34.04919,0 18.49122,-34.04828,0 18.49113,-34.04742,0 18.49108,-34.04631,0 18.49102,-34.04547,0 18.49096,-34.0443,0 18.49096,-34.04356,0 18.49091,-34.04239,0 18.49091,-34.0416,0 18.49083,-34.04045,0 18.49083,-34.03963,0 18.49077,-34.03867,0 18.49068,-34.0369,0 18.49066,-34.03464,0 18.49068,-34.03178,0 18.49066,-34.03098,0 18.49073,-34.03001,0 18.49077,-34.02901,0 18.49085,-34.02815,0 18.49096,-34.02717,0 18.49105,-34.02603,0 18.49113,-34.02526,0 18.49119,-34.02424,0 18.49131,-34.02349,0 18.49142,-34.02224,0 18.4915,-34.02136,0 18.49156,-34.02045,0 18.49159,-34.01944,0 18.49176,-34.0174,0 18.49182,-34.01628,0 18.4919,-34.01253,0 18.49188,-34.01148,0 18.49188,-34.01051,0 18.49184,-34.00932,0 18.49182,-34.00846,0 18.49184,-34.00758,0 18.49178,-34.00639,0 18.49178,-34.00548,0 18.49171,-34.00464,0 18.49165,-34.00366,0 18.49165,-34.00278,0 18.49159,-34.0018,0 18.49159,-34.00059,0 18.49154,-33.99696,0 18.49139,-33.99399,0 18.49133,-33.99307,0 18.49131,-33.99193,0 18.49122,-33.99078,0 18.49111,-33.98987,0 18.49102,-33.98886,0 18.49085,-33.98765,0 18.49072,-33.98689,0 18.49068,-33.98597,0 18.49056,-33.98476,0 18.49045,-33.98397,0 18.49038,-33.98286,0 18.49033,-33.98195,0 18.49027,-33.98085,0 18.49022,-33.97993,0 18.49016,-33.97902,0 18.49016,-33.97811,0 18.49016,-33.97696,0 18.49016,-33.97604,0 18.49016,-33.97508,0 18.49016,-33.97415,0 18.49022,-33.97089,0 18.4901,-33.96689,0 18.48993,-33.96474,0 18.48982,-33.96381,0 18.4897,-33.96288,0 18.48959,-33.96186,0 18.48949,-33.96075,0 18.48937,-33.95984,0 18.48921,-33.9586,0 18.48907,-33.95758,0 18.4889,-33.9565,0 18.48876,-33.95567,0 18.48862,-33.95474,0 18.48853,-33.9538,0 18.48837,-33.95293,0 18.48814,-33.95187,0 18.48792,-33.951,0 18.48764,-33.94994,0 18.48736,-33.94896,0 18.48713,-33.94812,0 18.4868,-33.94698,0 18.48652,-33.94611,0 18.48616,-33.94505,0 18.48584,-33.94423,0 18.48545,-33.94331,0 18.48513,-33.94249,0 18.48461,-33.94152,0 18.48416,-33.94066,0 18.4837,-33.9397,0 18.48326,-33.93896,0 18.48267,-33.93789,0 18.48221,-33.93705,0 18.48169,-33.93616,0 18.48112,-33.93523,0 18.48066,-33.93444,0 18.48009,-33.93351,0 18.47968,-33.93274,0 18.47917,-33.93196,0 18.47861,-33.93095,0 18.47816,-33.93022,0 18.4778,-33.92965,0 18.47715,-33.92857,0 18.47666,-33.92788,0 18.47591,-33.92694,0 18.47519,-33.92615,0 18.47458,-33.92551,0 18.47391,-33.9248,0 18.47305,-33.92397,0 18.47248,-33.92336,0 18.47172,-33.92267,0 18.47099,-33.92194,0 18.47026,-33.9213,0 18.46945,-33.92048,0 18.46869,-33.91978,0 18.46802,-33.91922,0 18.46716,-33.91852,0 18.4663,-33.91782,0 18.46555,-33.91713,0 18.46458,-33.91642,0 18.46373,-33.91577,0 18.46297,-33.91507,0 18.46201,-33.91428,0 18.46135,-33.9137,0 18.46039,-33.91287,0 18.45961,-33.91228,0 18.45863,-33.91149,0 18.45793,-33.9109,0 18.45686,-33.91008,0 18.45608,-33.90944,0 18.4552,-33.9087,0 18.45446,-33.90805,0 18.45354,-33.90734,0 18.45249,-33.90651,0 18.45165,-33.90587,0 18.45086,-33.90527,0 18.44969,-33.90445,0 18.44873,-33.90385,0 18.44788,-33.9033,0 18.44679,-33.90269,0 18.44576,-33.90216,0 18.44507,-33.90181,0 18.44391,-33.90125,0 18.44291,-33.90083,0 18.44193,-33.90046,0 18.4409,-33.90022,0 18.43975,-33.89985,0 18.43884,-33.89957,0 18.43809,-33.89943,0 18.437,-33.89929,0 18.43596,-33.89914,0 18.43506,-33.89905,0 18.43386,-33.89901,0 18.43346,-33.89901,0 18.43306,-33.89906,0 18.43259,-33.89905,0 18.43225,-33.89911,0 18.43186,-33.89914,0 18.43147,-33.89919,0 18.43114,-33.89923,0 18.4308,-33.89928,0 18.43042,-33.89929,0 18.43014,-33.89934,0 18.42968,-33.89941,0 18.42945,-33.89943,0 18.42911,-33.89952,0 18.42856,-33.8996,0 18.42766,-33.89987,0 18.42738,-33.89996,0 18.4271,-33.9001,0 18.42688,-33.90036,0 18.42682,-33.90065,0 18.42693,-33.90088,0 18.42734,-33.90113,0 18.42713,-33.90107,0 18.42692,-33.901,0 18.42595,-33.90072,0 18.42567,-33.90064,0 18.42676,-33.90097,0 18.42648,-33.90056,0 18.4267,-33.90064,0 18.42676,-33.90041,0 18.42699,-33.90036,0 18.42705,-33.90009,0 18.4271,-33.89983,0 18.42705,-33.89948,0 18.42733,-33.89939,0 18.42794,-33.89914,0 18.42796,-33.89883,0 18.40558,-33.87366,0 18.42032,-33.87759,0 18.39327,-33.88494,0 18.38941,-33.88613,0 18.38595,-33.88654,0 18.39164,-33.88839,0 18.38102,-33.8887,0 18.37814,-33.88937,0 18.38067,-33.89118,0 18.37495,-33.89125,0 18.37925,-33.8949,0 18.38197,-33.89799,0 18.37702,-33.90139,0 18.38206,-33.90431,0 18.37962,-33.90486,0 18.37326,-33.90654,0 18.36984,-33.90737,0 18.36822,-33.90765,0 18.37058,-33.90908,0 18.36722,-33.90913,0 18.369,-33.91056,0 18.37614,-33.91149,0 18.36877,-33.91172,0 18.36611,-33.91175,0 18.35721,-33.91227,0 18.35945,-33.91314,0 18.36872,-33.91632,0 18.37287,-33.91991,0 18.37535,-33.92041,0 18.35329,-33.93747,0 18.35165,-33.94002,0 18.35077,-33.94161,0 18.35053,-33.94244,0 18.35053,-33.9435,0 18.35076,-33.94432,0 18.3512,-33.94505,0 18.35192,-33.94585,0 18.35272,-33.9464,0 18.35417,-33.94698,0 18.35518,-33.94715,0 18.3563,-33.94707,0 18.35752,-33.94668,0 18.35844,-33.94617,0 18.35933,-33.94542,0 18.36,-33.9446,0 18.3605,-33.94361,0 18.3609,-33.94263,0 18.3613,-33.94147,0 18.36168,-33.94038,0 18.36202,-33.93933,0 18.36236,-33.93832,0 18.36279,-33.937,0 18.36314,-33.93604,0 18.36348,-33.935,0 18.36393,-33.93384,0 18.36439,-33.93258,0 18.36477,-33.93164,0 18.36522,-33.9305,0 18.36578,-33.92931,0 18.36628,-33.92825,0 18.36679,-33.92734,0 18.36735,-33.92615,0 18.36785,-33.92519,0 18.36834,-33.92424,0 18.36885,-33.92327,0 18.36942,-33.92216,0 18.37004,-33.92111,0 18.37054,-33.92015,0 18.37121,-33.91901,0 18.37177,-33.9181,0 18.37234,-33.91713,0 18.36071,-33.91276,0 18.36923,-33.90942,0 18.36711,-33.90725,0 18.3813,-33.9055,0 18.38236,-33.90442,0 18.38345,-33.90334,0 18.38461,-33.90225,0 18.38551,-33.90143,0 18.38642,-33.90064,0 18.38753,-33.89964,0 18.38854,-33.89878,0 18.38966,-33.8979,0 18.39043,-33.89734,0 18.3918,-33.89636,0 18.39313,-33.89548,0 18.39408,-33.89493,0 18.39571,-33.89401,0 18.39684,-33.89347,0 18.39812,-33.89287,0 18.39963,-33.89218,0 18.4012,-33.89154,0 18.4025,-33.89105,0 18.40372,-33.89063,0 18.40541,-33.89008,0 18.4067,-33.88966,0 18.40827,-33.88925,0 18.40961,-33.88893,0 18.41112,-33.88857,0 18.41275,-33.88815,0 18.41421,-33.88783,0 18.4156,-33.88752,0 18.41703,-33.88724,0 18.4183,-33.88696,0 18.41972,-33.88672,0 18.42138,-33.88641,0 18.42273,-33.88618,0 18.42424,-33.886,0 18.42547,-33.88582,0 18.42722,-33.8857,0 18.42859,-33.8857,0 18.43029,-33.88577,0 18.43157,-33.88589,0 18.4331,-33.88609,0 18.43449,-33.88635,0 18.43584,-33.88669,0 18.43718,-33.88705,0 18.43859,-33.88751,0 18.43977,-33.88797,0 18.44107,-33.88854,0 18.44218,-33.88916,0 18.44347,-33.88989,0 18.44444,-33.89054,0 18.44537,-33.89122,0 18.44633,-33.89212,0 18.44713,-33.89305,0 18.44761,-33.89378,0 18.44823,-33.8947,0 18.44857,-33.89571,0 18.44873,-33.8965,0 18.44874,-33.8974,0 18.44856,-33.89813,0 18.44822,-33.89897,0 18.44773,-33.89973,0 18.44705,-33.90038,0 18.4465,-33.90088,0 18.4456,-33.90147,0 18.4447,-33.90193,0 18.44398,-33.90227,0 18.44313,-33.9025,0 18.44221,-33.90265,0 18.44112,-33.90269,0 18.44005,-33.90271,0 18.44022,-33.90211,0 18.43825,-33.90225,0 18.43893,-33.90079,0 18.43494,-33.9012,0 18.4346,-33.90111,0 18.43405,-33.90092,0 18.43371,-33.90083,0 18.43343,-33.90074,0 18.43294,-33.90064,0 18.43265,-33.90056,0 18.43231,-33.90051,0 18.43198,-33.90047,0 18.4317,-33.90047,0 18.43134,-33.90051,0 18.43108,-33.90051,0 18.43065,-33.90055,0 18.43037,-33.90055,0 18.42985,-33.90055,0 18.42962,-33.90056,0 18.42934,-33.90056,0 18.429,-33.90056,0 18.42867,-33.90047,0 18.42811,-33.90038,0 18.42745,-33.90078,0 18.42721,-33.90083,0 18.42699,-33.90097,0 18.42678,-33.90097,0 18.42696,-33.90074,0 18.42706,-33.90031,0 18.42715,-33.90001,0 18.42728,-33.89965,0 18.42739,-33.89943,0 18.42749,-33.8992,0 18.42768,-33.89883,0 18.42779,-33.89859,0 18.42791,-33.89832,0 18.42828,-33.89763,0 18.42842,-33.89738,0 18.42859,-33.89715,0 18.42878,-33.89676,0 18.42889,-33.89653,0 18.42906,-33.8963,0 18.42928,-33.89594,0 18.42951,-33.89561,0 18.42968,-33.89534,0 18.4299,-33.89497,0 18.43008,-33.89473,0 18.43024,-33.89447,0 18.43037,-33.89426,0 18.43065,-33.89384,0 18.43097,-33.89346,0 18.43142,-33.89282,0 18.43181,-33.89227,0 18.4322,-33.89177,0 18.4326,-33.89124,0 18.43311,-33.89059,0 18.4336,-33.88989,0 18.43409,-33.88933,0 18.43444,-33.88879,0 18.43506,-33.88797,0 18.43539,-33.88742,0 18.43569,-33.88691,0 18.43601,-33.88609,0 18.43609,-33.88542,0 18.43612,-33.88481,0 18.43603,-33.88412,0 18.43584,-33.88344,0 18.43545,-33.88261,0 18.43512,-33.88216,0 18.43461,-33.88147,0 18.43403,-33.881,0 18.43334,-33.88049,0 18.43277,-33.88011,0 18.43214,-33.87974,0 18.43125,-33.87936,0 18.43071,-33.87914,0 18.42991,-33.8789,0 18.42923,-33.87868,0 18.42844,-33.87849,0 18.42755,-33.87836,0 18.42682,-33.87827,0 18.42613,-33.8782,0 18.42533,-33.87816,0 18.42447,-33.87811,0 18.42351,-33.87808,0 18.42267,-33.87808,0 18.422,-33.87804,0 18.4211,-33.87804,0 18.42024,-33.87797,0 18.41949,-33.87797,0 18.41858,-33.87794,0 18.4178,-33.87794,0 18.41692,-33.87797,0 18.41606,-33.87802,0 18.41497,-33.87802,0 18.41406,-33.87811,0 18.41331,-33.87817,0 18.4124,-33.8783,0 18.41137,-33.87848,0 18.41057,-33.87872,0 18.40982,-33.87886,0 18.40883,-33.87918,0 18.40811,-33.87937,0 18.4072,-33.87968,0 18.40639,-33.87997,0 18.40569,-33.88028,0 18.40473,-33.88065,0 18.40389,-33.88101,0 18.40319,-33.88137,0 18.40221,-33.88184,0 18.40147,-33.88221,0 18.40078,-33.88258,0 18.39975,-33.88316,0 18.39902,-33.88358,0 18.39832,-33.88403,0 18.39756,-33.88449,0 18.39661,-33.88513,0 18.39586,-33.88565,0 18.39504,-33.88618,0 18.39437,-33.88668,0 18.39352,-33.88724,0 18.39283,-33.88775,0 18.39214,-33.88821,0 18.39117,-33.88889,0 18.39038,-33.88943,0 18.38957,-33.89003,0 18.38888,-33.89054,0 18.3882,-33.89104,0 18.38751,-33.89161,0 18.38685,-33.89214,0 18.38612,-33.89273,0 18.38545,-33.89333,0 18.3847,-33.89403,0 18.38408,-33.89459,0 18.38327,-33.89539,0 18.38287,-33.8958,0 18.38198,-33.89667,0 18.38133,-33.89734,0 18.38076,-33.8979,0 18.38018,-33.8985,0 18.37945,-33.89919,0 18.37898,-33.89962,0 18.37818,-33.90036,0 18.37761,-33.90097,0 18.37682,-33.9017,0 18.3762,-33.9023,0 18.37553,-33.90298,0 18.37491,-33.90363,0 18.37424,-33.90431,0 18.37297,-33.90558,0 18.37217,-33.90641,0 18.37086,-33.90781,0 18.37026,-33.90848,0 18.36948,-33.90935,0 18.36891,-33.91,0 18.3684,-33.91056,0 18.3676,-33.91149,0 18.36695,-33.91219,0 18.36639,-33.91279,0 18.36565,-33.91368,0 18.3651,-33.91429,0 18.36449,-33.91502,0 18.36388,-33.91573,0 18.36331,-33.91644,0 18.36273,-33.91717,0 18.36208,-33.91795,0 18.36153,-33.91866,0 18.36096,-33.9194,0 18.3604,-33.92015,0 18.35981,-33.92089,0 18.35933,-33.92162,0 18.35877,-33.92239,0 18.35827,-33.92308,0 18.35759,-33.92404,0 18.35701,-33.9249,0 18.35649,-33.92559,0 18.35591,-33.92651,0 18.35535,-33.92732,0 18.35472,-33.92825,0 18.35426,-33.92899,0 18.35358,-33.93002,0 18.35305,-33.93086,0 18.35255,-33.93169,0 18.35197,-33.93281,0 18.3516,-33.93384,0 18.35146,-33.93467,0 18.35148,-33.93571,0 18.35186,-33.93677,0 18.35243,-33.93761,0 18.35311,-33.93819,0 18.35429,-33.93883,0 18.35558,-33.93915,0 18.35661,-33.93919,0 18.35799,-33.93892,0 18.35896,-33.93854,0 18.35993,-33.93784,0 18.36067,-33.93705,0 18.36118,-33.93622,0 18.36164,-33.93523,0 18.36213,-33.9343,0 18.36256,-33.93341,0 18.36296,-33.93253,0 18.36348,-33.93146,0 18.36399,-33.93058,0 18.36445,-33.92969,0 18.36499,-33.9288,0 18.3655,-33.92784,0 18.36605,-33.9269,0 18.36662,-33.92592,0 18.36712,-33.92505,0 18.36765,-33.92411,0 18.36823,-33.92322,0 18.3688,-33.92225,0 18.36937,-33.9213,0 18.37004,-33.92024,0 18.3706,-33.91933,0 18.37133,-33.91827,0 18.372,-33.9174,0 18.37262,-33.91649,0 18.37337,-33.91545,0 18.37407,-33.91452,0 18.37475,-33.91351,0 18.37543,-33.91261,0 18.37629,-33.91144,0 18.37693,-33.91063,0 18.37778,-33.90949,0 18.37844,-33.90866,0 18.37917,-33.90779,0 18.38001,-33.90669,0 18.38099,-33.90558,0 18.38179,-33.9046,0 18.38248,-33.90381,0 18.38327,-33.90297,0 18.38408,-33.90213,0 18.38506,-33.90111,0 18.38585,-33.90036,0 18.38671,-33.89957,0 18.38791,-33.89855,0 18.38882,-33.8978,0 18.3901,-33.8968,0 18.39111,-33.89608,0 18.39226,-33.89534,0 18.39329,-33.89464,0 18.39432,-33.89399,0 18.3954,-33.89338,0 18.39649,-33.89278,0 18.39792,-33.89203,0 18.39902,-33.89154,0 18.40021,-33.89101,0 18.40165,-33.8904,0 18.40279,-33.88998,0 18.40422,-33.88947,0 18.40525,-33.8891,0 18.40685,-33.88858,0 18.4081,-33.8882,0 18.40933,-33.88783,0 18.41079,-33.88742,0 18.41202,-33.8871,0 18.41343,-33.88672,0 18.4148,-33.8864,0 18.41595,-33.88614,0 18.41723,-33.88591,0 18.4188,-33.88559,0 18.42009,-33.88541,0 18.42133,-33.88523,0 18.42278,-33.88504,0 18.42424,-33.88496,0 18.42573,-33.88486,0 18.4271,-33.8849,0 18.42831,-33.88496,0 18.42973,-33.88509,0 18.43134,-33.88528,0 18.43254,-33.88551,0 18.43386,-33.88575,0 18.43495,-33.886,0 18.43609,-33.88635,0 18.43713,-33.88664,0 18.43832,-33.88705,0 18.4396,-33.88751,0 18.44038,-33.88788,0 18.44156,-33.88843,0 18.44263,-33.88893,0 18.44347,-33.88942,0 18.44459,-33.89012,0 18.44554,-33.89081,0 18.44622,-33.89143,0 18.44696,-33.89231,0 18.44833,-33.89482,0 18.44851,-33.89571,0 18.44857,-33.89644,0 18.4484,-33.89745,0 18.44818,-33.89818,0 18.44784,-33.89886,0 18.44739,-33.89955,0 18.44667,-33.90036,0 18.44622,-33.90078,0 18.44543,-33.90129,0 18.44461,-33.90171,0 18.44387,-33.90199,0 18.44307,-33.90213,0 18.44201,-33.90211,0 18.44123,-33.90216,0 18.44027,-33.90176,0 18.43958,-33.90157,0 18.43884,-33.90129,0 18.43815,-33.90097,0 18.43724,-33.9006,0 18.43632,-33.90032,0 18.43573,-33.90015,0 18.43534,-33.90004,0 18.435,-33.89994,0 18.43439,-33.89996,0 18.4341,-33.89992,0 18.4338,-33.89985,0 18.4334,-33.89981,0 18.43287,-33.89969,0 18.43254,-33.89967,0 18.4322,-33.89969,0 18.43186,-33.89969,0 18.43158,-33.89969,0 18.43122,-33.89962,0 18.43094,-33.89976,0 18.43069,-33.89983,0 18.43024,-33.90001,0 18.43002,-33.90009,0 18.42974,-33.90013,0 18.42945,-33.90018,0 18.42923,-33.90019,0 18.42715,-33.90047,0 18.42699,-33.9007,0 18.42671,-33.90097,0 18.42693,-33.90097,0 18.4267,-33.90108,0 18.42696,-33.90089,0 18.42702,-33.90064,0 18.42709,-33.90041,0 18.42716,-33.9001,0 18.42728,-33.89971,0 18.42742,-33.89923,0 18.42752,-33.89892,0 18.42772,-33.89841,0 18.42785,-33.89813,0 18.428,-33.89767,0 18.42822,-33.89722,0 18.42828,-33.89699,0 18.42844,-33.89667,0 18.42856,-33.89639,0 18.42871,-33.89613,0 18.42882,-33.89589,0 18.42895,-33.89561,0 18.42922,-33.89506,0 18.42939,-33.89478,0 18.42951,-33.89455,0 18.42968,-33.89431,0 18.42985,-33.89397,0 18.43007,-33.8936,0 18.43019,-33.89333,0 18.43035,-33.8931,0 18.4306,-33.89278,0 18.43085,-33.89236,0 18.43125,-33.89182,0 18.43163,-33.89124,0 18.43203,-33.89068,0 18.43248,-33.89008,0 18.43304,-33.88925,0 18.4334,-33.88877,0 18.43397,-33.88794,0 18.43437,-33.88733,0 18.43478,-33.88669,0 18.43512,-33.88593,0 18.43523,-33.88528,0 18.43529,-33.8844,0 18.43523,-33.8837,0 18.435,-33.88303,0 18.43467,-33.88243,0 18.43414,-33.88179,0 18.43343,-33.88129,0 18.43277,-33.88091,0 18.43186,-33.88065,0 18.43108,-33.88046,0 18.43025,-33.88039,0 18.42951,-33.88033,0 18.42861,-33.88033,0 18.42783,-33.88033,0 18.4271,-33.88033,0 18.42636,-33.88034,0 18.4255,-33.88034,0 18.4247,-33.88039,0 18.42396,-33.88044,0 18.42306,-33.88051,0 18.42217,-33.88065,0 18.42144,-33.88072,0 18.4207,-33.88086,0 18.41995,-33.88095,0 18.41898,-33.88114,0 18.41808,-33.88133,0 18.41751,-33.88147,0 18.41667,-33.88165,0 18.41566,-33.88184,0 18.41499,-33.88202,0 18.41398,-33.88225,0 18.41314,-33.88249,0 18.41236,-33.88266,0 18.41152,-33.88289,0 18.41045,-33.88316,0 18.40972,-33.88339,0 18.40866,-33.88371,0 18.40788,-33.88398,0 18.40708,-33.88426,0 18.40619,-33.88458,0 18.40529,-33.88495,0 18.40433,-33.88533,0 18.40344,-33.88573,0 18.40238,-33.88623,0 18.4016,-33.8866,0 18.40101,-33.88691,0 18.39993,-33.88747,0 18.3989,-33.88806,0 18.39812,-33.88852,0 18.39718,-33.88914,0 18.39638,-33.88966,0 18.39565,-33.89017,0 18.39483,-33.89068,0 18.39397,-33.89128,0 18.39324,-33.89182,0 18.3924,-33.89236,0 18.3918,-33.89273,0 18.39088,-33.89333,0 18.39016,-33.89374,0 18.38932,-33.8942,0 18.38831,-33.8947,0 18.38769,-33.89502,0 18.38674,-33.89557,0 18.38596,-33.89603,0 18.38522,-33.8965,0 18.38453,-33.89697,0 18.38383,-33.89749,0 18.38299,-33.89808,0 18.38237,-33.89854,0 18.38156,-33.8992,0 18.38108,-33.8996,0 18.38035,-33.90024,0 18.37961,-33.90092,0 18.37898,-33.90148,0 18.37835,-33.90204,0 18.37766,-33.90266,0 18.37693,-33.90335,0 18.37635,-33.90395,0 18.37555,-33.90465,0 18.37498,-33.90525,0 18.37435,-33.90586,0 18.37372,-33.90646,0 18.37306,-33.9071,0 18.37228,-33.90788,0 18.37043,-33.90985,0 18.36765,-33.91261,0 18.36559,-33.91465,0 18.36313,-33.91717,0 18.36118,-33.91924,0 18.36051,-33.92001,0 18.35976,-33.92089,0 18.35928,-33.92157,0 18.35861,-33.92234,0 18.3581,-33.92303,0 18.35758,-33.92369,0 18.35695,-33.92453,0 18.35632,-33.92546,0 18.3558,-33.92619,0 18.35524,-33.92699,0 18.35473,-33.92766,0 18.35423,-33.92839,0 18.35375,-33.92913,0 18.35311,-33.93004,0 18.35261,-33.93073,0 18.35197,-33.93165,0 18.35146,-33.93244,0 18.35112,-33.93304,0 18.3506,-33.93388,0 18.35009,-33.93476,0 18.34974,-33.93575,0 18.34963,-33.9364,0 18.34969,-33.93747,0 18.34997,-33.93835,0 18.35054,-33.93924,0 18.35157,-33.94017,0 18.35255,-33.94068,0 18.35356,-33.94098,0 18.35468,-33.94112,0 18.35658,-33.94098,0 18.35781,-33.94054,0 18.35905,-33.93979,0 18.36,-33.93887,0 18.36067,-33.93793,0 18.36124,-33.93681,0 18.36159,-33.93579,0 18.36191,-33.93503,0 18.36239,-33.93379,0 18.36285,-33.93286,0 18.36337,-33.93173,0 18.36387,-33.93082,0 18.36439,-33.92978,0 18.36491,-33.92881,0 18.36561,-33.92761,0 18.36628,-33.92667,0 18.36702,-33.92555,0 18.36765,-33.92457,0 18.36836,-33.92363,0 18.36909,-33.92253,0 18.36966,-33.92173,0 18.37043,-33.92065,0 18.37116,-33.91969,0 18.37189,-33.91875,0 18.37252,-33.91787,0 18.37334,-33.91676,0 18.37406,-33.91587,0 18.3748,-33.91493,0 18.37564,-33.91393,0 18.37629,-33.91312,0 18.37716,-33.91205,0 18.3779,-33.91116,0 18.37852,-33.91037,0 18.37923,-33.90958,0 18.38013,-33.90856,0 18.38091,-33.90765,0 18.38196,-33.90651,0 18.38264,-33.90572,0 18.38349,-33.90486,0 18.38512,-33.90308,0 18.38618,-33.90198,0 18.38694,-33.9012,0 18.38785,-33.90032,0 18.38888,-33.89939,0 18.3898,-33.89859,0 18.39089,-33.89772,0 18.39195,-33.8969,0 18.39289,-33.89618,0 18.39415,-33.89529,0 18.39509,-33.89461,0 18.39599,-33.89397,0 18.39711,-33.89323,0 18.39838,-33.8924,0 18.39924,-33.89189,0 18.40067,-33.8911,0 18.40171,-33.89053,0 18.40307,-33.88984,0 18.40445,-33.88919,0 18.40559,-33.88873,0 18.40714,-33.88807,0 18.40857,-33.88756,0 18.40647,-33.88636,0 18.41314,-33.886,0 18.41438,-33.88564,0 18.41572,-33.88527,0 18.41732,-33.88486,0 18.41869,-33.88454,0 18.41995,-33.88435,0 18.4215,-33.88412,0 18.42293,-33.88398,0 18.42396,-33.8839,0 18.42533,-33.88384,0 18.42722,-33.88384,0 18.4285,-33.88394,0 18.42968,-33.88412,0 18.4313,-33.88445,0 18.43231,-33.88467,0 18.43366,-33.88509,0 18.43467,-33.8855,0 18.43575,-33.88602,0 18.437,-33.88682,0 18.43792,-33.88742,0 18.43881,-33.88806,0 18.43964,-33.88868,0 18.44038,-33.88925,0 18.44152,-33.89017,0 18.44223,-33.89085,0 18.44285,-33.8914,0 18.44358,-33.89214,0 18.44444,-33.89305,0 18.44509,-33.89378,0 18.44564,-33.8945,0 18.44604,-33.8952,0 18.44649,-33.89612,0 18.44683,-33.89708,0 18.44694,-33.89772,0 18.44702,-33.89859,0 18.44696,-33.89934,0 18.44673,-33.90013,0 18.44633,-33.90074,0 18.44587,-33.90125,0 18.44519,-33.90162,0 18.44444,-33.90185,0 18.44347,-33.90198,0 18.44268,-33.90193,0 18.4419,-33.90179,0 18.44094,-33.9017,0 18.44061,-33.90167,0 18.44005,-33.90157,0 18.43982,-33.90157,0 18.43941,-33.90148,0 18.43901,-33.90144,0 18.43838,-33.90134,0 18.43797,-33.90125,0 18.43775,-33.90125,0 18.43712,-33.9012,0 18.43672,-33.90115,0 18.43632,-33.90111,0 18.43643,-33.90083,0 18.43603,-33.90083,0 18.43557,-33.90083,0 18.43579,-33.90051,0 18.43539,-33.90051,0 18.43467,-33.90065,0 18.43346,-33.90102,0 18.43294,-33.90102,0 18.43259,-33.90097,0 18.43226,-33.90042,0 18.43157,-33.90064,0 18.43094,-33.90064,0 18.43065,-33.90064,0 18.43029,-33.9006,0 18.42928,-33.90064,0 18.42905,-33.9006,0 18.42865,-33.9006,0 18.42819,-33.9006,0 18.42794,-33.9006,0 18.42762,-33.9006,0 18.42722,-33.90074,0 18.42693,-33.90092,0 18.42673,-33.90112,0 18.42686,-33.9009,0 18.42708,-33.9006,0 18.42724,-33.90033,0 18.42748,-33.90002,0 18.43069,-33.89731,0 18.43111,-33.89682,0 18.43136,-33.89658,0 18.43186,-33.89607,0 18.43203,-33.89585,0 18.43225,-33.89566,0 18.43248,-33.89543,0 18.43277,-33.89506,0 18.43294,-33.89482,0 18.43311,-33.89455,0 18.4334,-33.89417,0 18.43386,-33.89347,0 18.4342,-33.89296,0 18.4346,-33.89227,0 18.435,-33.89163,0 18.4354,-33.89091,0 18.43569,-33.89045,0 18.43603,-33.8897,0 18.4364,-33.88884,0 18.43655,-33.88826,0 18.43672,-33.88747,0 18.43672,-33.88677,0 18.4366,-33.88602,0 18.43643,-33.88542,0 18.43609,-33.88463,0 18.43523,-33.88321,0 18.43403,-33.88165,0 18.43351,-33.88118,0 18.43306,-33.88067,0 18.43254,-33.88021,0 18.43175,-33.87968,0 18.4313,-33.87941,0 18.4306,-33.87904,0 18.42985,-33.87868,0 18.42923,-33.87845,0 18.42836,-33.8782,0 18.42768,-33.87807,0 18.42693,-33.87788,0 18.42642,-33.87778,0 18.42558,-33.87767,0 18.42491,-33.87758,0 18.42402,-33.87751,0 18.42333,-33.87751,0 18.42264,-33.87746,0 18.42178,-33.87751,0 18.42087,-33.87755,0 18.41998,-33.87758,0 18.41921,-33.87765,0 18.41841,-33.87767,0 18.41761,-33.87774,0 18.41684,-33.87781,0 18.416,-33.8779,0 18.41532,-33.87797,0 18.41457,-33.87807,0 18.41383,-33.87816,0 18.41286,-33.87825,0 18.41213,-33.8784,0 18.41143,-33.87848,0 18.41074,-33.87862,0 18.40977,-33.87881,0 18.40908,-33.879,0 18.40834,-33.87918,0 18.40742,-33.87937,0 18.40673,-33.87955,0 18.40614,-33.87973,0 18.40518,-33.88005,0 18.40445,-33.88033,0 18.4037,-33.88058,0 18.40296,-33.88086,0 18.40227,-33.88114,0 18.4013,-33.88156,0 18.40061,-33.88188,0 18.39987,-33.88226,0 18.39901,-33.88272,0 18.39827,-33.88309,0 18.3975,-33.88353,0 18.39666,-33.88403,0 18.39599,-33.8844,0 18.39529,-33.88482,0 18.39437,-33.88542,0 18.39375,-33.88582,0 18.39291,-33.88637,0 18.39218,-33.88683,0 18.39157,-33.88728,0 18.39071,-33.88789,0 18.38985,-33.88854,0 18.38921,-33.88902,0 18.38854,-33.88956,0 18.38792,-33.89008,0 18.38711,-33.89082,0 18.38648,-33.89143,0 18.38585,-33.89208,0 18.38512,-33.89278,0 18.38456,-33.89342,0 18.38379,-33.89422,0 18.38321,-33.89488,0 18.38259,-33.89552,0 18.38196,-33.89622,0 18.38119,-33.89708,0 18.38053,-33.8978,0 18.37996,-33.89846,0 18.37917,-33.89932,0 18.37873,-33.89983,0 18.37637,-33.90234,0 18.37435,-33.9046,0 18.37154,-33.90772,0 18.36948,-33.91005,0 18.36691,-33.91302,0 18.36415,-33.91626,0 18.3621,-33.9188,0 18.36096,-33.92015,0 18.35972,-33.92171,0 18.35907,-33.92266,0 18.3585,-33.92345,0 18.35804,-33.92424,0 18.35743,-33.92528,0 18.35692,-33.9261,0 18.35638,-33.92709,0 18.35586,-33.92793,0 18.35524,-33.92904,0 18.35473,-33.92995,0 18.35429,-33.93077,0 18.35384,-33.93164,0 18.35328,-33.93265,0 18.35266,-33.93374,0 18.35215,-33.93481,0 18.3516,-33.93585,0 18.35112,-33.93677,0 18.35025,-33.93855,0 18.3498,-33.93961,0 18.3494,-33.94059,0 18.349,-33.94165,0 18.34879,-33.94267,0 18.34874,-33.94363,0 18.34894,-33.94505,0 18.3494,-33.94636,0 18.34986,-33.94729,0 18.35036,-33.94803,0 18.35135,-33.94906,0 18.35232,-33.94971,0 18.35316,-33.95013,0 18.35479,-33.95073,0 18.35574,-33.95091,0 18.35758,-33.95106,0 18.3589,-33.95087,0 18.36045,-33.9505,0 18.36157,-33.95,0 18.36262,-33.94934,0 18.36387,-33.94826,0 18.36466,-33.94725,0 18.36536,-33.94617,0 18.36582,-33.9451,0 18.36617,-33.94405,0 18.36651,-33.94295,0 18.36679,-33.94165,0 18.36707,-33.94011,0 18.36729,-33.9391,0 18.36754,-33.93793,0 18.36794,-33.93649,0 18.36823,-33.93537,0 18.36863,-33.93402,0 18.36908,-33.93258,0 18.36954,-33.93123,0 18.36994,-33.93011,0 18.37032,-33.92889,0 18.37082,-33.92766,0 18.37126,-33.92648,0 18.37189,-33.92504,0 18.3724,-33.92392,0 18.37295,-33.92276,0 18.37351,-33.92166,0 18.37407,-33.92052,0 18.37463,-33.91956,0 18.37543,-33.91819,0 18.37606,-33.91712,0 18.37681,-33.91591,0 18.37767,-33.91465,0 18.37844,-33.91356,0 18.3791,-33.91256,0 18.38001,-33.91136,0 18.38087,-33.91028,0 18.38175,-33.90907,0 18.38259,-33.90807,0 18.38355,-33.90697,0 18.3847,-33.90586,0 18.38579,-33.90472,0 18.38671,-33.90372,0 18.38769,-33.90285,0 18.38881,-33.90184,0 18.39025,-33.90078,0 18.3914,-33.8999,0 18.39285,-33.89891,0 18.3942,-33.89804,0 18.3952,-33.89745,0 18.39661,-33.89662,0 18.39818,-33.89575,0 18.39941,-33.89506,0 18.40073,-33.89436,0 18.40244,-33.89355,0 18.40395,-33.89287,0 18.40546,-33.89223,0 18.40708,-33.89161,0 18.40851,-33.8911,0 18.41028,-33.89054,0 18.41171,-33.89008,0 18.4132,-33.88966,0 18.41494,-33.88921,0 18.41652,-33.88887,0 18.41858,-33.88843,0 18.42026,-33.88811,0 18.42177,-33.88779,0 18.42367,-33.88752,0 18.42514,-33.88728,0 18.42705,-33.88705,0 18.42856,-33.88692,0 18.43041,-33.88692,0 18.43158,-33.88701,0 18.43349,-33.88728,0 18.43495,-33.8876,0 18.43635,-33.88806,0 18.43758,-33.88843,0 18.43912,-33.88924,0 18.44022,-33.89017,0 18.44118,-33.8911,0 18.44201,-33.89214,0 18.44263,-33.89333,0 18.4429,-33.89417,0 18.44301,-33.8952,0 18.4429,-33.89664,0 18.44246,-33.89731,0 18.44167,-33.89841,0 18.44095,-33.89906,0 18.43946,-33.89952,0 18.43866,-33.89971,0 18.43821,-33.89906,0 18.4267,-33.90097,0</coordinates>
      </LineString>
    </Placemark>
  </Document>
</kml>
