<?xml version="1.0" encoding="UTF-8"?>
<kml xmlns="http://www.opengis.net/kml/2.2">
  <Document>
    <name>FR24 4173cc05</name>
    <Placemark>
      <name>FR24 4173cc05</name>
      <Style><LineStyle><color>ff0000ff</color><width>4</width></LineStyle></Style>
      <LineString>
        <tessellate>1</tessellate>
        <coordinates>18.4341,-33.89131,0 18.43551,-33.88902,0 18.43657,-33.88701,0 18.43695,-33.88607,0 18.43719,-33.88509,0 18.43723,-33.8844,0 18.43719,-33.88362,0 18.43706,-33.88286,0 18.43685,-33.88216,0 18.43649,-33.88128,0 18.43615,-33.88072,0 18.43546,-33.87983,0 18.43483,-33.87914,0 18.43405,-33.8784,0 18.43311,-33.87774,0 18.43231,-33.87723,0 18.43157,-33.87681,0 18.43074,-33.87643,0 18.42968,-33.87607,0 18.42888,-33.87579,0 18.42777,-33.87552,0 18.42693,-33.87532,0 18.42607,-33.87518,0 18.42497,-33.87502,0 18.42407,-33.87492,0 18.42293,-33.87485,0 18.42183,-33.87483,0 18.42093,-33.87483,0 18.41978,-33.87485,0 18.41891,-33.87492,0 18.41761,-33.87509,0 18.41646,-33.87527,0 18.41555,-33.87543,0 18.41457,-33.8756,0 18.41359,-33.87575,0 18.41274,-33.87592,0 18.41185,-33.87611,0 18.41062,-33.87639,0 18.40977,-33.87662,0 18.40899,-33.87685,0 18.40794,-33.87718,0 18.40708,-33.87751,0 18.40628,-33.87778,0 18.40536,-33.87816,0 18.40456,-33.87848,0 18.40378,-33.87881,0 18.40279,-33.87923,0 18.40221,-33.87951,0 18.40126,-33.87996,0 18.40036,-33.88037,0 18.39963,-33.88074,0 18.39868,-33.88124,0 18.39798,-33.8816,0 18.39724,-33.88202,0 18.39644,-33.88248,0 18.39558,-33.88291,0 18.3946,-33.88342,0 18.39363,-33.88393,0 18.39291,-33.88426,0 18.39197,-33.88477,0 18.39123,-33.88513,0 18.39033,-33.88559,0 18.38954,-33.886,0 18.38854,-33.88654,0 18.38791,-33.88686,0 18.38696,-33.88742,0 18.38602,-33.88803,0 18.38539,-33.8884,0 18.38444,-33.88907,0 18.38373,-33.88952,0 18.3827,-33.89022,0 18.38175,-33.89085,0 18.38093,-33.89143,0 18.37996,-33.89212,0 18.3791,-33.89273,0 18.37812,-33.89343,0 18.37738,-33.89399,0 18.37664,-33.89455,0 18.37595,-33.89515,0 18.37515,-33.89585,0 18.37429,-33.89659,0 18.37362,-33.89722,0 18.37275,-33.89808,0 18.372,-33.89877,0 18.37126,-33.89962,0 18.3706,-33.90028,0 18.36981,-33.90115,0 18.36897,-33.90218,0 18.36852,-33.90271,0 18.3678,-33.90367,0 18.3672,-33.90446,0 18.36656,-33.90536,0 18.36606,-33.90619,0 18.36533,-33.9072,0 18.36485,-33.908,0 18.36432,-33.90884,0 18.3637,-33.90986,0 18.36319,-33.9107,0 18.36264,-33.91164,0 18.36213,-33.91255,0 18.3617,-33.91335,0 18.36118,-33.91425,0 18.36068,-33.91525,0 18.36017,-33.91626,0 18.35961,-33.9174,0 18.35922,-33.91823,0 18.35867,-33.9194,0 18.35827,-33.92024,0 18.35799,-33.92093,0 18.3573,-33.92234,0 18.3569,-33.92322,0 18.35653,-33.92404,0 18.35602,-33.92519,0 18.35472,-33.92802,0 18.35305,-33.93182,0 18.3516,-33.93521,0 18.35026,-33.9383,0 18.34894,-33.94161,0 18.34734,-33.94556,0 18.34602,-33.94859,0 18.34482,-33.95148,0 18.34316,-33.95548,0 18.34173,-33.95865,0 18.33865,-33.96552,0 18.33658,-33.97042,0 18.33452,-33.97564,0 18.33366,-33.97765,0 18.33299,-33.97897,0 18.33215,-33.9803,0 18.33172,-33.98095,0 18.33102,-33.98209,0 18.3304,-33.98309,0 18.32983,-33.98397,0 18.32914,-33.98509,0 18.3285,-33.98611,0 18.32789,-33.98717,0 18.32727,-33.98822,0 18.32674,-33.98919,0 18.32617,-33.99016,0 18.32565,-33.99105,0 18.32502,-33.99212,0 18.32312,-33.99545,0 18.32153,-33.99845,0 18.32099,-33.99966,0 18.3206,-34.00072,0 18.32032,-34.00191,0 18.32021,-34.00314,0 18.32022,-34.00422,0 18.32032,-34.00516,0 18.3205,-34.00632,0 18.32067,-34.00716,0 18.32096,-34.00841,0 18.3213,-34.00948,0 18.32176,-34.01065,0 18.32228,-34.01166,0 18.32301,-34.01294,0 18.32374,-34.01399,0 18.32458,-34.01518,0 18.3252,-34.01604,0 18.326,-34.01707,0 18.32677,-34.01811,0 18.3276,-34.01926,0 18.32828,-34.02017,0 18.32897,-34.02103,0 18.32979,-34.022,0 18.33052,-34.02287,0 18.33149,-34.02405,0 18.3322,-34.02489,0 18.33315,-34.02601,0 18.33394,-34.02699,0 18.33469,-34.02792,0 18.33527,-34.02866,0 18.33612,-34.02978,0 18.33693,-34.03099,0 18.3375,-34.03197,0 18.3382,-34.03331,0 18.33858,-34.03415,0 18.33916,-34.03537,0 18.33973,-34.03653,0 18.34019,-34.03755,0 18.34064,-34.03853,0 18.34105,-34.03965,0 18.34156,-34.04105,0 18.34196,-34.04224,0 18.34225,-34.04323,0 18.34259,-34.04449,0 18.34282,-34.04551,0 18.34302,-34.04663,0 18.34324,-34.04778,0 18.34339,-34.04887,0 18.34358,-34.05002,0 18.34373,-34.05115,0 18.34386,-34.0524,0 18.34396,-34.05338,0 18.34409,-34.0545,0 18.34414,-34.05574,0 18.34414,-34.05702,0 18.34414,-34.05799,0 18.34408,-34.05934,0 18.34403,-34.06046,0 18.34392,-34.06146,0 18.34381,-34.06252,0 18.34358,-34.06384,0 18.34333,-34.06511,0 18.34319,-34.06609,0 18.34291,-34.06741,0 18.34263,-34.06865,0 18.3424,-34.06947,0 18.34202,-34.07107,0 18.34179,-34.07195,0 18.34145,-34.07332,0 18.34122,-34.07442,0 18.34099,-34.07568,0 18.34078,-34.0768,0 18.34061,-34.07817,0 18.34047,-34.07973,0 18.34039,-34.08105,0 18.34027,-34.08243,0 18.34022,-34.08385,0 18.34013,-34.08504,0 18.34007,-34.08634,0 18.34005,-34.08746,0 18.33999,-34.08847,0 18.33988,-34.08971,0 18.33984,-34.09062,0 18.33971,-34.09213,0 18.33961,-34.09318,0 18.3395,-34.09439,0 18.33927,-34.0977,0 18.33893,-34.10147,0 18.33854,-34.10522,0 18.3383,-34.10645,0 18.33809,-34.10751,0 18.33764,-34.1088,0 18.33715,-34.10999,0 18.33641,-34.11124,0 18.33579,-34.11205,0 18.33495,-34.11314,0 18.33444,-34.11383,0 18.3336,-34.11484,0 18.33281,-34.11572,0 18.33175,-34.11694,0 18.33086,-34.118,0 18.3299,-34.11909,0 18.32909,-34.12009,0 18.32822,-34.12106,0 18.32733,-34.12207,0 18.32663,-34.12288,0 18.32588,-34.12372,0 18.32508,-34.12463,0 18.32188,-34.12833,0 18.32005,-34.13047,0 18.3181,-34.13303,0 18.31712,-34.13434,0 18.31656,-34.13517,0 18.31593,-34.13615,0 18.31535,-34.13708,0 18.31471,-34.13809,0 18.31409,-34.13923,0 18.31354,-34.14034,0 18.31312,-34.14141,0 18.31284,-34.14244,0 18.31266,-34.14351,0 18.31261,-34.14444,0 18.31266,-34.1456,0 18.31284,-34.14653,0 18.31312,-34.14779,0 18.31337,-34.14876,0 18.31352,-34.14919,0 18.31544,-34.15384,0 18.31593,-34.15472,0 18.31651,-34.15581,0 18.31713,-34.15687,0 18.31764,-34.1577,0 18.31821,-34.15868,0 18.31896,-34.15975,0 18.31953,-34.16059,0 18.32027,-34.16171,0 18.32088,-34.16258,0 18.32148,-34.16348,0 18.32216,-34.16441,0 18.32279,-34.16525,0 18.32357,-34.16629,0 18.32441,-34.16739,0 18.32491,-34.16799,0 18.32581,-34.16899,0 18.32668,-34.16999,0 18.32743,-34.17078,0 18.32823,-34.17158,0 18.32943,-34.1726,0 18.33024,-34.17329,0 18.33136,-34.17412,0 18.33209,-34.17462,0 18.36777,-34.22069,0 18.36808,-34.22383,0 18.36819,-34.22612,0 18.36813,-34.22717,0 18.36811,-34.22842,0 18.36811,-34.22949,0 18.36808,-34.23079,0 18.36802,-34.23175,0 18.36796,-34.23285,0 18.36794,-34.234,0 18.36791,-34.23468,0 18.36782,-34.23591,0 18.36782,-34.23712,0 18.36777,-34.23829,0 18.3678,-34.23999,0 18.36785,-34.24155,0 18.36791,-34.24265,0 18.368,-34.24378,0 18.36811,-34.24471,0 18.36824,-34.2458,0 18.36834,-34.24676,0 18.36845,-34.24783,0 18.36864,-34.24896,0 18.3688,-34.25011,0 18.36897,-34.25118,0 18.36914,-34.2523,0 18.36931,-34.25351,0 18.36942,-34.25446,0 18.36948,-34.25556,0 18.36959,-34.25684,0 18.36966,-34.25765,0 18.36983,-34.25886,0 18.36992,-34.25972,0 18.37011,-34.26101,0 18.37032,-34.26215,0 18.37049,-34.26288,0 18.37074,-34.26412,0 18.37099,-34.26526,0 18.3712,-34.26612,0 18.3716,-34.26748,0 18.37189,-34.26836,0 18.37234,-34.26956,0 18.37269,-34.27045,0 18.37301,-34.2713,0 18.3734,-34.27217,0 18.37402,-34.27341,0 18.37446,-34.27441,0 18.37498,-34.2753,0 18.37559,-34.27643,0 18.37612,-34.27739,0 18.3766,-34.27826,0 18.37738,-34.27953,0 18.37783,-34.28032,0 18.38396,-34.29057,0 18.38568,-34.29373,0 18.38751,-34.29718,0 18.38951,-34.30109,0 18.38991,-34.30192,0 18.39055,-34.30334,0 18.39095,-34.30426,0 18.39145,-34.30531,0 18.39191,-34.30635,0 18.39249,-34.30742,0 18.39289,-34.30811,0 18.39358,-34.3093,0 18.39414,-34.31017,0 18.39481,-34.31117,0 18.39552,-34.31216,0 18.39609,-34.313,0 18.39695,-34.31407,0 18.39775,-34.3151,0 18.39851,-34.31593,0 18.39981,-34.31733,0 18.40078,-34.31826,0 18.40181,-34.31929,0 18.40273,-34.32022,0 18.40356,-34.32106,0 18.40433,-34.3218,0 18.40546,-34.32289,0 18.40653,-34.32385,0 18.40731,-34.32463,0 18.40793,-34.32523,0 18.40916,-34.32632,0 18.41,-34.32706,0 18.41073,-34.32779,0 18.41421,-34.33076,0 18.41712,-34.33328,0 18.41835,-34.33428,0 18.41936,-34.33507,0 18.42047,-34.33595,0 18.42253,-34.33754,0 18.42344,-34.33823,0 18.42659,-34.34066,0 18.42794,-34.34166,0 18.43111,-34.34401,0 18.43431,-34.34638,0 18.43752,-34.34857,0 18.44084,-34.35085,0 18.44436,-34.35329,0 18.44868,-34.3564,0 18.45199,-34.35869,0 18.45291,-34.35932,0 18.45417,-34.36015,0 18.45518,-34.36079,0 18.45663,-34.36165,0 18.45787,-34.36244,0 18.45886,-34.363,0 18.46024,-34.36379,0 18.46144,-34.36449,0 18.46275,-34.36519,0 18.46393,-34.36578,0 18.46522,-34.36638,0 18.46639,-34.36693,0 18.46756,-34.36742,0 18.46876,-34.36784,0 18.4702,-34.3683,0 18.47138,-34.36862,0 18.4725,-34.36894,0 18.47368,-34.36922,0 18.47514,-34.36954,0 18.4762,-34.36975,0 18.47763,-34.37008,0 18.47878,-34.37026,0 18.48001,-34.37045,0 18.48136,-34.37064,0 18.48238,-34.37077,0 18.48381,-34.37087,0 18.4853,-34.37091,0 18.48639,-34.37096,0 18.48797,-34.37096,0 18.4893,-34.37091,0 18.49044,-34.37086,0 18.49182,-34.37082,0 18.49325,-34.37073,0 18.49463,-34.37059,0 18.49599,-34.37045,0 18.49722,-34.37032,0 18.49817,-34.37018,0 18.49926,-34.36998,0 18.50047,-34.36967,0 18.50155,-34.36933,0 18.50255,-34.36894,0 18.50332,-34.36854,0 18.50424,-34.36798,0 18.50475,-34.36761,0 18.50555,-34.36696,0 18.50608,-34.36647,0 18.50681,-34.36565,0 18.50727,-34.36496,0 18.50761,-34.36435,0 18.5079,-34.36388,0 18.50824,-34.36295,0 18.50849,-34.36226,0 18.50864,-34.36151,0 18.50877,-34.3607,0 18.50882,-34.36006,0 18.50882,-34.35932,0 18.50876,-34.35867,0 18.50859,-34.35783,0 18.50836,-34.35723,0 18.50804,-34.35649,0 18.50776,-34.35585,0 18.50737,-34.35521,0 18.50692,-34.35443,0 18.50658,-34.35387,0 18.50607,-34.35313,0 18.50552,-34.35242,0 18.50501,-34.35182,0 18.50441,-34.35122,0 18.50372,-34.35063,0 18.50299,-34.34999,0 18.50212,-34.34931,0 18.50148,-34.3488,0 18.50053,-34.34821,0 18.49969,-34.3477,0 18.49874,-34.34722,0 18.49773,-34.34669,0 18.49691,-34.34624,0 18.49599,-34.34569,0 18.49514,-34.34508,0 18.49436,-34.3445,0 18.49341,-34.34363,0 18.49296,-34.34308,0 18.49223,-34.34216,0 18.49159,-34.34103,0 18.49133,-34.34029,0 18.49102,-34.33921,0 18.49083,-34.33813,0 18.49066,-34.33713,0 18.49056,-34.33623,0 18.49044,-34.3353,0 18.49033,-34.33447,0 18.49022,-34.33316,0 18.49016,-34.33204,0 18.4901,-34.33118,0 18.49005,-34.33009,0 18.48999,-34.32892,0 18.48999,-34.32811,0 18.48993,-34.32687,0 18.48993,-34.32596,0 18.48993,-34.32473,0 18.48988,-34.32352,0 18.48988,-34.32259,0 18.48988,-34.32143,0 18.48988,-34.3204,0 18.48982,-34.31929,0 18.48982,-34.31854,0 18.48976,-34.31719,0 18.48977,-34.31616,0 18.48965,-34.313,0 18.4896,-34.30966,0 18.48965,-34.30574,0 18.4897,-34.30239,0 18.48982,-34.29909,0 18.48999,-34.29606,0 18.49022,-34.29263,0 18.49038,-34.28856,0 18.49073,-34.28451,0 18.49091,-34.28121,0 18.49094,-34.27803,0 18.49094,-34.27478,0 18.491,-34.27373,0 18.49102,-34.27078,0 18.49102,-34.26952,0 18.49096,-34.26594,0 18.49094,-34.26498,0 18.49094,-34.26375,0 18.49091,-34.26152,0 18.49091,-34.2583,0 18.49089,-34.25729,0 18.49072,-34.25418,0 18.49045,-34.251,0 18.4901,-34.24763,0 18.48993,-34.24648,0 18.48976,-34.24541,0 18.48965,-34.24466,0 18.48948,-34.24345,0 18.48926,-34.24232,0 18.48909,-34.24146,0 18.4889,-34.24052,0 18.48867,-34.23945,0 18.48845,-34.23838,0 18.48827,-34.2374,0 18.48804,-34.23633,0 18.48786,-34.2356,0 18.48752,-34.2345,0 18.4873,-34.23381,0 18.48691,-34.23276,0 18.48639,-34.23182,0 18.48581,-34.23084,0 18.48524,-34.23019,0 18.4845,-34.22937,0 18.4837,-34.22865,0 18.48301,-34.22809,0 18.48221,-34.22767,0 18.48129,-34.22735,0 18.48035,-34.22731,0 18.47956,-34.2274,0 18.47884,-34.22768,0 18.4782,-34.22828,0 18.47792,-34.22884,0 18.47777,-34.22937,0 18.4778,-34.23,0 18.47794,-34.2307,0 18.47815,-34.23121,0 18.47849,-34.23191,0 18.47872,-34.23244,0 18.47878,-34.23275,0 18.47872,-34.23322,0 18.47849,-34.23363,0 18.4782,-34.23386,0 18.47777,-34.23413,0 18.47721,-34.23431,0 18.477,-34.23438,0 18.47677,-34.23447,0 18.47654,-34.23452,0 18.47614,-34.23468,0 18.47586,-34.23482,0 18.47563,-34.23498,0 18.4754,-34.23512,0 18.47514,-34.23528,0 18.47508,-34.23505,0 18.47528,-34.23447,0 18.47536,-34.23418,0 18.47534,-34.23386,0 18.47536,-34.23344,0 18.4753,-34.23303,0 18.47534,-34.23279,0 18.47528,-34.23247,0 18.47528,-34.23214,0 18.47508,-34.23161,0 18.47488,-34.23116,0 18.47469,-34.23079,0 18.47448,-34.23042,0 18.47431,-34.23014,0 18.47413,-34.22983,0 18.4739,-34.22951,0 18.47357,-34.22902,0 18.47334,-34.22869,0 18.47312,-34.22841,0 18.47288,-34.22814,0 18.47242,-34.22753,0 18.47214,-34.22721,0 18.47189,-34.22694,0 18.47162,-34.22665,0 18.47134,-34.22632,0 18.47082,-34.22575,0 18.4706,-34.22548,0 18.47026,-34.22511,0 18.46991,-34.22469,0 18.46962,-34.22432,0 18.46928,-34.2239,0 18.46899,-34.22353,0 18.4687,-34.22316,0 18.46848,-34.22279,0 18.46824,-34.22237,0 18.46802,-34.22195,0 18.46779,-34.22131,0 18.46785,-34.22069,0 18.46802,-34.22032,0 18.46819,-34.22003,0 18.46865,-34.21967,0 18.46931,-34.21921,0 18.47002,-34.21869,0 18.47048,-34.21834,0 18.47134,-34.21776,0 18.47189,-34.21724,0 18.47239,-34.21674,0 18.47294,-34.21613,0 18.47346,-34.21555,0 18.47391,-34.21487,0 18.47431,-34.21413,0 18.47458,-34.21317,0 18.47469,-34.21248,0 18.47483,-34.21143,0 18.47491,-34.2106,0 18.47494,-34.20984,0 18.47502,-34.20905,0 18.47508,-34.20818,0 18.47511,-34.20742,0 18.47519,-34.20648,0 18.47525,-34.20566,0 18.47534,-34.20481,0 18.47553,-34.20392,0 18.4757,-34.20305,0 18.47591,-34.20226,0 18.47614,-34.20128,0 18.47637,-34.2003,0 18.47654,-34.19952,0 18.47672,-34.19862,0 18.47687,-34.19783,0 18.477,-34.19685,0 18.47715,-34.19572,0 18.47729,-34.19481,0 18.47738,-34.19398,0 18.47749,-34.19307,0 18.47757,-34.1922,0 18.47769,-34.19118,0 18.47771,-34.19041,0 18.4778,-34.18917,0 18.47788,-34.18817,0 18.47797,-34.18713,0 18.47799,-34.18634,0 18.47809,-34.1855,0 18.47816,-34.18446,0 18.4782,-34.18312,0 18.47826,-34.18229,0 18.47833,-34.18126,0 18.47832,-34.18042,0 18.47843,-34.17735,0 18.4785,-34.17448,0 18.47849,-34.17088,0 18.47839,-34.1678,0 18.47826,-34.16515,0 18.47828,-34.16409,0 18.47826,-34.1632,0 18.47826,-34.16208,0 18.47826,-34.16129,0 18.47826,-34.15808,0 18.47826,-34.15496,0 18.47832,-34.15096,0 18.47844,-34.14706,0 18.47849,-34.1443,0 18.47855,-34.14118,0 18.47856,-34.13736,0 18.47855,-34.1341,0 18.47856,-34.13104,0 18.47855,-34.12772,0 18.47856,-34.12386,0 18.47861,-34.11996,0 18.47861,-34.11717,0 18.47872,-34.11427,0 18.47878,-34.11076,0 18.47883,-34.10715,0 18.47889,-34.10385,0 18.479,-34.10042,0 18.47906,-34.09653,0 18.479,-34.09346,0 18.47889,-34.08929,0 18.47889,-34.08531,0 18.47895,-34.08261,0 18.47906,-34.07875,0 18.47912,-34.07587,0 18.47923,-34.07167,0 18.47935,-34.06739,0 18.47945,-34.06348,0 18.47952,-34.06032,0 18.47958,-34.05701,0 18.47973,-34.05304,0 18.47986,-34.04882,0 18.48009,-34.04463,0 18.48029,-34.04173,0 18.48041,-34.03981,0 18.48049,-34.03876,0 18.48055,-34.03788,0 18.48063,-34.03693,0 18.48072,-34.03583,0 18.48083,-34.03495,0 18.48091,-34.03381,0 18.48097,-34.03285,0 18.48108,-34.03189,0 18.48118,-34.03076,0 18.48125,-34.02992,0 18.48152,-34.02671,0 18.48169,-34.02368,0 18.48198,-34.02054,0 18.48215,-34.01833,0 18.4822,-34.01729,0 18.48225,-34.01656,0 18.48225,-34.01532,0 18.48227,-34.01442,0 18.48231,-34.01317,0 18.48237,-34.01193,0 18.48237,-34.01074,0 18.48261,-34.00674,0 18.48276,-34.00337,0 18.48289,-34.00017,0 18.4831,-33.99605,0 18.48332,-33.99161,0 18.48366,-33.98726,0 18.48387,-33.98416,0 18.48422,-33.98044,0 18.48467,-33.97704,0 18.485,-33.97458,0 18.48518,-33.97308,0 18.48528,-33.97206,0 18.48547,-33.97066,0 18.48564,-33.96949,0 18.48576,-33.96814,0 18.4859,-33.96693,0 18.48595,-33.96574,0 18.48604,-33.96451,0 18.48607,-33.9635,0 18.4861,-33.96237,0 18.48604,-33.96098,0 18.48595,-33.95984,0 18.48587,-33.95855,0 18.48579,-33.95755,0 18.4857,-33.9566,0 18.48556,-33.95558,0 18.48539,-33.9543,0 18.48523,-33.95316,0 18.48506,-33.95229,0 18.48478,-33.95097,0 18.4845,-33.94981,0 18.48421,-33.94892,0 18.48377,-33.94743,0 18.48352,-33.94664,0 18.48304,-33.94542,0 18.48265,-33.94441,0 18.48231,-33.9435,0 18.48204,-33.94258,0 18.48164,-33.94157,0 18.48118,-33.94035,0 18.48083,-33.93947,0 18.48029,-33.93842,0 18.4798,-33.93751,0 18.47923,-33.93649,0 18.47872,-33.93565,0 18.47828,-33.93494,0 18.47757,-33.93393,0 18.47694,-33.9329,0 18.47626,-33.93192,0 18.47557,-33.93085,0 18.475,-33.92992,0 18.47437,-33.92899,0 18.47379,-33.92802,0 18.47323,-33.92715,0 18.47261,-33.9261,0 18.47205,-33.92528,0 18.47132,-33.92418,0 18.47082,-33.9235,0 18.47009,-33.92271,0 18.46916,-33.92178,0 18.4683,-33.92103,0 18.4674,-33.9202,0 18.46645,-33.91933,0 18.46579,-33.91875,0 18.46488,-33.91795,0 18.46415,-33.91727,0 18.46321,-33.91642,0 18.46264,-33.91594,0 18.46161,-33.91503,0 18.4609,-33.91438,0 18.46,-33.91356,0 18.45916,-33.91283,0 18.45843,-33.91219,0 18.45753,-33.91136,0 18.45675,-33.91065,0 18.45583,-33.90986,0 18.4552,-33.90935,0 18.4544,-33.90862,0 18.45337,-33.90772,0 18.4526,-33.90701,0 18.45182,-33.90633,0 18.45079,-33.90553,0 18.44997,-33.90486,0 18.44936,-33.90437,0 18.44829,-33.90363,0 18.44713,-33.90292,0 18.44622,-33.90241,0 18.44504,-33.90184,0 18.44419,-33.90143,0 18.44302,-33.90102,0 18.44184,-33.90065,0 18.44049,-33.90046,0 18.43592,-33.90041,0 18.43444,-33.90047,0 18.43386,-33.90051,0 18.43363,-33.90051,0 18.43321,-33.90051,0 18.43254,-33.90055,0 18.43147,-33.90065,0 18.43091,-33.9007,0 18.43041,-33.90074,0 18.42957,-33.90078,0 18.42894,-33.90078,0 18.42788,-33.90074,0 18.42762,-33.90078,0 18.42733,-33.90088,0 18.4271,-33.90106,0</coordinates>
      </LineString>
    </Placemark>
  </Document>
</kml>
