<?xml version="1.0" encoding="UTF-8"?>
<kml xmlns="http://www.opengis.net/kml/2.2">
  <Document>
    <name>FR24 415bb3fb</name>
    <Placemark>
      <name>FR24 415bb3fb</name>
      <Style><LineStyle><color>ff0000ff</color><width>4</width></LineStyle></Style>
      <LineString>
        <tessellate>1</tessellate>
        <coordinates>18.43718,-33.90083,0 18.43876,-33.90019,0 18.43966,-33.89951,0 18.44021,-33.89883,0 18.44072,-33.89794,0 18.44101,-33.89692,0 18.44106,-33.8958,0 18.44094,-33.89461,0 18.44072,-33.89355,0 18.44038,-33.89259,0 18.43994,-33.89149,0 18.43946,-33.8905,0 18.43904,-33.88957,0 18.43855,-33.88877,0 18.43781,-33.88761,0 18.43718,-33.88672,0 18.43652,-33.88591,0 18.43569,-33.88509,0 18.43478,-33.88431,0 18.4342,-33.88384,0 18.43304,-33.88307,0 18.4322,-33.88253,0 18.431,-33.88193,0 18.43002,-33.88151,0 18.42872,-33.88101,0 18.4276,-33.88069,0 18.42665,-33.88042,0 18.42545,-33.88011,0 18.42441,-33.87991,0 18.42333,-33.87979,0 18.42178,-33.8796,0 18.42098,-33.87955,0 18.41944,-33.87951,0 18.41869,-33.87951,0 18.41715,-33.87955,0 18.41611,-33.87964,0 18.41515,-33.87974,0 18.41377,-33.87993,0 18.41303,-33.88005,0 18.41163,-33.88033,0 18.41057,-33.88058,0 18.4095,-33.88083,0 18.40832,-33.88115,0 18.40725,-33.88142,0 18.40614,-33.88179,0 18.4049,-33.88216,0 18.40389,-33.88243,0 18.40267,-33.88286,0 18.40158,-33.88323,0 18.40064,-33.88358,0 18.39941,-33.88407,0 18.39832,-33.88449,0 18.39745,-33.8849,0 18.39627,-33.88545,0 18.39529,-33.88593,0 18.39414,-33.88655,0 18.39317,-33.8871,0 18.39218,-33.8876,0 18.39094,-33.88835,0 18.39005,-33.88893,0 18.38915,-33.88953,0 18.38802,-33.89026,0 18.38717,-33.89087,0 18.38619,-33.89157,0 18.3854,-33.89218,0 18.38459,-33.89282,0 18.38371,-33.89351,0 18.38293,-33.8942,0 18.38192,-33.89502,0 18.38099,-33.8958,0 18.38024,-33.89648,0 18.37923,-33.89745,0 18.37839,-33.89827,0 18.37766,-33.89905,0 18.37699,-33.89973,0 18.37626,-33.90051,0 18.37521,-33.90162,0 18.37446,-33.90246,0 18.37368,-33.90331,0 18.3728,-33.90432,0 18.37212,-33.90516,0 18.37132,-33.90618,0 18.37063,-33.90702,0 18.36988,-33.90795,0 18.36914,-33.90898,0 18.36847,-33.90985,0 18.36782,-33.91079,0 18.36712,-33.91182,0 18.36628,-33.91301,0 18.36554,-33.91414,0 18.36508,-33.91484,0 18.36433,-33.91605,0 18.36359,-33.91718,0 18.36308,-33.91805,0 18.36256,-33.91889,0 18.36187,-33.9201,0 18.3613,-33.92103,0 18.36079,-33.92196,0 18.36012,-33.92317,0 18.3589,-33.92527,0 18.35827,-33.92647,0 18.3577,-33.92755,0 18.35718,-33.92853,0 18.35653,-33.92981,0 18.35608,-33.93063,0 18.35451,-33.93388,0 18.353,-33.93704,0 18.35137,-33.94061,0 18.3498,-33.94394,0 18.34791,-33.94822,0 18.34644,-33.95164,0 18.34509,-33.95499,0 18.34364,-33.95869,0 18.34305,-33.96023,0 18.34036,-33.9673,0 18.34024,-33.97038,0 18.34128,-33.97293,0 18.34313,-33.97481,0 18.34591,-33.97601,0 18.34896,-33.97609,0 18.35137,-33.97527,0 18.35238,-33.97458,0 18.3526,-33.97443,0 18.35661,-33.96768,0 18.35703,-33.96652,0 18.35815,-33.96274,0 18.35941,-33.95809,0 18.36023,-33.95494,0 18.36056,-33.95371,0 18.36084,-33.95255,0 18.36164,-33.94934,0 18.36241,-33.94606,0 18.36308,-33.94287,0 18.36376,-33.93951,0 18.36404,-33.93846,0 18.36421,-33.93755,0 18.36473,-33.93546,0 18.36559,-33.93248,0 18.36582,-33.93165,0 18.36611,-33.93081,0 18.36645,-33.92969,0 18.36679,-33.92867,0 18.36707,-33.92798,0 18.36748,-33.9269,0 18.36782,-33.92611,0 18.36823,-33.92513,0 18.36864,-33.92432,0 18.36903,-33.9235,0 18.36943,-33.92257,0 18.36998,-33.92152,0 18.37043,-33.92079,0 18.37099,-33.91988,0 18.37155,-33.91901,0 18.37206,-33.91829,0 18.37273,-33.9174,0 18.37329,-33.91663,0 18.37389,-33.91591,0 18.37446,-33.91531,0 18.37521,-33.91447,0 18.3757,-33.91397,0 18.37646,-33.91317,0 18.37716,-33.91251,0 18.37788,-33.91182,0 18.3787,-33.91107,0 18.37938,-33.91047,0 18.38007,-33.90986,0 18.38076,-33.90926,0 18.38186,-33.90834,0 18.38259,-33.9077,0 18.38332,-33.9071,0 18.38408,-33.90651,0 18.38517,-33.90569,0 18.3859,-33.90509,0 18.38665,-33.90451,0 18.38736,-33.90399,0 18.38825,-33.90334,0 18.389,-33.90283,0 18.3901,-33.90211,0 18.39089,-33.90157,0 18.39201,-33.90092,0 18.39289,-33.90036,0 18.3938,-33.89985,0 18.39492,-33.89919,0 18.39605,-33.89859,0 18.39694,-33.89809,0 18.39795,-33.89758,0 18.39913,-33.89699,0 18.40027,-33.89645,0 18.40154,-33.89589,0 18.40267,-33.89543,0 18.40378,-33.89497,0 18.40507,-33.89442,0 18.40645,-33.89394,0 18.40799,-33.89338,0 18.40967,-33.89282,0 18.41074,-33.89245,0 18.41219,-33.892,0 18.4132,-33.89168,0 18.4146,-33.89122,0 18.41612,-33.89073,0 18.41709,-33.89045,0 18.41869,-33.88994,0 18.41992,-33.88957,0 18.42088,-33.8893,0 18.42256,-33.88879,0 18.42367,-33.8884,0 18.42503,-33.88797,0 18.42609,-33.88765,0 18.42716,-33.88728,0 18.4285,-33.88696,0 18.42974,-33.88682,0 18.43082,-33.88682,0 18.43192,-33.88696,0 18.43293,-33.88715,0 18.43394,-33.88742,0 18.43512,-33.88789,0 18.43626,-33.8884,0 18.43736,-33.88902,0 18.43837,-33.88966,0 18.43932,-33.89035,0 18.44015,-33.8911,0 18.44094,-33.89182,0 18.44164,-33.89268,0 18.44206,-33.89342,0 18.44233,-33.89431,0 18.44234,-33.89497,0 18.44206,-33.89607,0 18.44156,-33.89671,0 18.44083,-33.89717,0 18.44016,-33.89745,0 18.43865,-33.89763,0 18.43781,-33.89757,0 18.43637,-33.8972,0 18.43551,-33.8969,0 18.4345,-33.89653,0 18.43315,-33.89626,0 18.43226,-33.8963,0 18.43163,-33.89645,0 18.43134,-33.89655,0 18.43105,-33.89669,0 18.43071,-33.89687,0 18.43046,-33.89703,0 18.43008,-33.89743,0 18.42974,-33.8978,0 18.42962,-33.89804,0 18.42945,-33.89832,0 18.42922,-33.89869,0 18.42911,-33.89892,0 18.42895,-33.89914,0 18.42871,-33.89948,0 18.42842,-33.89976,0 18.42808,-33.90009,0 18.42777,-33.90028,0 18.42756,-33.90046,0 18.42733,-33.9006,0 18.42755,-33.9006,0 18.42878,-33.90088,0 18.42905,-33.90097,0 18.42945,-33.90106,0 18.42979,-33.90115,0 18.43013,-33.90125,0 18.43054,-33.90134,0 18.43091,-33.90143,0 18.43125,-33.90152,0 18.43157,-33.90157,0 18.43198,-33.90166,0 18.43231,-33.90176,0 18.43283,-33.90185,0 18.43338,-33.90189,0 18.43377,-33.90193,0 18.43416,-33.90193,0 18.43456,-33.90193,0 18.43517,-33.90189,0 18.43567,-33.90179,0 18.43607,-33.90175,0 18.43672,-33.90157,0 18.43763,-33.9012,0 18.43843,-33.90088,0 18.43926,-33.90038,0 18.43982,-33.89992,0 18.44038,-33.89939,0 18.44094,-33.89864,0 18.4413,-33.89794,0 18.44147,-33.89729,0 18.44164,-33.89631,0 18.44162,-33.89539,0 18.44151,-33.89442,0 18.44135,-33.89371,0 18.44107,-33.89278,0 18.44089,-33.89218,0 18.44049,-33.89115,0 18.44016,-33.8903,0 18.43987,-33.88966,0 18.43937,-33.8887,0 18.43904,-33.88802,0 18.43859,-33.88719,0 18.43803,-33.88626,0 18.43763,-33.88556,0 18.43702,-33.88467,0 18.43626,-33.88384,0 18.43567,-33.88326,0 18.43489,-33.88266,0 18.43399,-33.88202,0 18.433,-33.88142,0 18.4322,-33.88101,0 18.43111,-33.88058,0 18.43008,-33.88021,0 18.42911,-33.87997,0 18.42777,-33.87968,0 18.42676,-33.87955,0 18.42545,-33.87941,0 18.42419,-33.87932,0 18.42323,-33.87927,0 18.42194,-33.87927,0 18.42076,-33.87932,0 18.41978,-33.87937,0 18.41869,-33.87941,0 18.41766,-33.87951,0 18.41634,-33.87964,0 18.41527,-33.87978,0 18.41398,-33.87996,0 18.41275,-33.88019,0 18.41148,-33.88039,0 18.41051,-33.8806,0 18.40931,-33.88091,0 18.40822,-33.88114,0 18.40679,-33.88156,0 18.40565,-33.88188,0 18.40456,-33.88221,0 18.40361,-33.88252,0 18.40199,-33.88305,0 18.40126,-33.88335,0 18.3998,-33.88385,0 18.39868,-33.88426,0 18.39752,-33.88472,0 18.39661,-33.88513,0 18.39558,-33.8856,0 18.39403,-33.88628,0 18.393,-33.88677,0 18.39201,-33.88728,0 18.39094,-33.88789,0 18.38999,-33.88843,0 18.3891,-33.88898,0 18.38808,-33.88966,0 18.38717,-33.89035,0 18.38625,-33.89105,0 18.38545,-33.8917,0 18.38453,-33.8925,0 18.38373,-33.8932,0 18.38276,-33.89408,0 18.38202,-33.89473,0 18.38119,-33.89557,0 18.38052,-33.89626,0 18.37961,-33.89715,0 18.37901,-33.89786,0 18.3783,-33.89864,0 18.37761,-33.89941,0 18.37681,-33.90036,0 18.3762,-33.90111,0 18.37532,-33.90213,0 18.37475,-33.90289,0 18.37418,-33.90362,0 18.3734,-33.90468,0 18.3729,-33.90541,0 18.37222,-33.90633,0 18.37149,-33.90738,0 18.37088,-33.90829,0 18.37034,-33.90916,0 18.36977,-33.91,0 18.36914,-33.91104,0 18.36857,-33.91191,0 18.36805,-33.91275,0 18.36742,-33.91377,0 18.36697,-33.91465,0 18.36634,-33.91571,0 18.36571,-33.9168,0 18.36525,-33.91768,0 18.3646,-33.91887,0 18.36411,-33.91978,0 18.36376,-33.92052,0 18.36313,-33.92168,0 18.36264,-33.92271,0 18.36219,-33.92358,0 18.3617,-33.92466,0 18.36136,-33.92536,0 18.36079,-33.92651,0 18.36034,-33.92743,0 18.35984,-33.92862,0 18.3589,-33.93072,0 18.35849,-33.93169,0 18.35799,-33.93279,0 18.35748,-33.93388,0 18.35707,-33.93486,0 18.35672,-33.9357,0 18.35619,-33.93686,0 18.35574,-33.93805,0 18.35529,-33.93905,0 18.35495,-33.93998,0 18.35363,-33.94319,0 18.35238,-33.94656,0 18.35109,-33.95013,0 18.34986,-33.95371,0 18.34874,-33.95718,0 18.34734,-33.9613,0 18.34648,-33.96409,0 18.34494,-33.96865,0 18.34381,-33.97151,0 18.34339,-33.97252,0 18.34117,-33.97842,0 18.33921,-33.98373,0 18.33773,-33.98788,0 18.33607,-33.99298,0 18.33492,-33.99682,0 18.33433,-33.99911,0 18.33406,-34.00017,0 18.33349,-34.00264,0 18.33327,-34.00374,0 18.3331,-34.00511,0 18.33298,-34.00641,0 18.33293,-34.00772,0 18.33293,-34.00891,0 18.33299,-34.01038,0 18.33303,-34.01148,0 18.33309,-34.01279,0 18.33321,-34.01405,0 18.33338,-34.01559,0 18.33349,-34.01656,0 18.33372,-34.01797,0 18.33389,-34.01907,0 18.33406,-34.02,0 18.33433,-34.02132,0 18.33458,-34.02247,0 18.33489,-34.02351,0 18.33532,-34.0248,0 18.33561,-34.02578,0 18.33601,-34.02681,0 18.33647,-34.02806,0 18.3368,-34.02901,0 18.33725,-34.03011,0 18.33769,-34.0313,0 18.33797,-34.03217,0 18.33836,-34.03322,0 18.33876,-34.03445,0 18.33916,-34.0356,0 18.33956,-34.03667,0 18.33996,-34.03765,0 18.34036,-34.03867,0 18.341,-34.04004,0 18.34156,-34.04091,0 18.34257,-34.04201,0 18.34373,-34.04281,0 18.34476,-34.04324,0 18.3461,-34.04352,0 18.34728,-34.04356,0 18.34868,-34.04333,0 18.34963,-34.04295,0 18.35077,-34.04221,0 18.3516,-34.04137,0 18.35203,-34.04053,0 18.35233,-34.03967,0 18.35238,-34.03807,0 18.35199,-34.03665,0 18.35148,-34.03564,0 18.351,-34.03485,0 18.35014,-34.03369,0 18.34952,-34.0329,0 18.34877,-34.03197,0 18.34784,-34.03093,0 18.34722,-34.03024,0 18.34638,-34.02933,0 18.34539,-34.02824,0 18.34454,-34.02722,0 18.34375,-34.02635,0 18.34299,-34.02545,0 18.34225,-34.02443,0 18.34145,-34.02319,0 18.34078,-34.02209,0 18.34033,-34.02118,0 18.33988,-34.02003,0 18.33944,-34.01851,0 18.33921,-34.01754,0 18.3391,-34.01669,0 18.3387,-34.01372,0 18.33865,-34.01271,0 18.3387,-34.01134,0 18.33876,-34.0099,0 18.33893,-34.00873,0 18.3391,-34.00758,0 18.33933,-34.00641,0 18.33956,-34.00552,0 18.3399,-34.00431,0 18.34019,-34.00343,0 18.34047,-34.0025,0 18.34087,-34.00134,0 18.34728,-33.98728,0 18.34946,-33.98257,0 18.35157,-33.97792,0 18.35373,-33.97307,0 18.35574,-33.9684,0 18.35759,-33.96387,0 18.35936,-33.95921,0 18.36045,-33.95622,0 18.36142,-33.95329,0 18.3623,-33.95036,0 18.36256,-33.94957,0 18.36365,-33.94583,0 18.36445,-33.94287,0 18.36471,-33.94194,0 18.36514,-33.94054,0 18.36548,-33.93947,0 18.36589,-33.9381,0 18.36617,-33.93723,0 18.36651,-33.93621,0 18.36691,-33.93509,0 18.36737,-33.93402,0 18.3678,-33.93297,0 18.36819,-33.9321,0 18.36868,-33.93113,0 18.36914,-33.93013,0 18.3697,-33.92903,0 18.37011,-33.9282,0 18.37063,-33.92736,0 18.37126,-33.9262,0 18.37177,-33.92536,0 18.37246,-33.9242,0 18.37303,-33.92327,0 18.37357,-33.92244,0 18.3743,-33.9213,0 18.37486,-33.92048,0 18.37561,-33.91936,0 18.3762,-33.9185,0 18.37692,-33.91745,0 18.37749,-33.91661,0 18.37807,-33.91582,0 18.37864,-33.91503,0 18.37938,-33.91405,0 18.38013,-33.91302,0 18.3807,-33.91224,0 18.38198,-33.91054,0 18.38265,-33.90967,0 18.38327,-33.90894,0 18.38408,-33.908,0 18.38472,-33.9072,0 18.38556,-33.90632,0 18.38629,-33.90555,0 18.38691,-33.90491,0 18.38781,-33.90404,0 18.38853,-33.90335,0 18.38943,-33.90253,0 18.39014,-33.9019,0 18.39106,-33.9012,0 18.39207,-33.90038,0 18.39302,-33.89973,0 18.39392,-33.89915,0 18.39464,-33.89868,0 18.39581,-33.89804,0 18.39689,-33.89743,0 18.39781,-33.89692,0 18.39885,-33.89644,0 18.39986,-33.89598,0 18.40087,-33.89557,0 18.40187,-33.89511,0 18.40342,-33.89455,0 18.40456,-33.89417,0 18.40582,-33.89371,0 18.40686,-33.89337,0 18.40816,-33.89296,0 18.40944,-33.89259,0 18.41062,-33.89223,0 18.41194,-33.89185,0 18.41309,-33.89149,0 18.41423,-33.89119,0 18.41561,-33.89076,0 18.41663,-33.89045,0 18.41795,-33.89008,0 18.41904,-33.88975,0 18.42178,-33.88891,0 18.4229,-33.88857,0 18.42688,-33.88737,0 18.42794,-33.88715,0 18.42957,-33.88686,0 18.43088,-33.88682,0 18.43203,-33.88691,0 18.4334,-33.88714,0 18.43454,-33.88752,0 18.43545,-33.88788,0 18.43668,-33.88857,0 18.43781,-33.88938,0 18.43881,-33.89026,0 18.43958,-33.8911,0 18.44038,-33.89212,0 18.44106,-33.8931,0 18.44152,-33.89394,0 18.44184,-33.89479,0 18.44198,-33.89594,0 18.44173,-33.89708,0 18.44095,-33.89804,0 18.4401,-33.89854,0 18.43918,-33.89883,0 18.43798,-33.89892,0 18.437,-33.89887,0 18.43584,-33.89868,0 18.43472,-33.89845,0 18.43382,-33.89827,0 18.43293,-33.89818,0 18.43203,-33.89813,0 18.4317,-33.89813,0 18.43117,-33.89822,0 18.43091,-33.89827,0 18.43031,-33.89846,0 18.42996,-33.89868,0 18.42973,-33.89877,0 18.42951,-33.89891,0 18.42922,-33.89911,0 18.42894,-33.89929,0 18.42859,-33.89957,0 18.42833,-33.89973,0 18.428,-33.90005,0 18.42779,-33.90022,0 18.42745,-33.90051,0 18.42805,-33.90019,0 18.42962,-33.89967,0 18.43134,-33.8992,0 18.43168,-33.89911,0 18.43214,-33.89901,0 18.43248,-33.89892,0 18.43271,-33.89887,0 18.43346,-33.89864,0 18.43426,-33.89846,0 18.43512,-33.89822,0 18.43601,-33.89799,0 18.4368,-33.89781,0 18.43752,-33.89772,0 18.43825,-33.89767,0 18.43912,-33.89776,0 18.43999,-33.89804,0 18.44067,-33.89832,0 18.44145,-33.89882,0 18.44204,-33.89925,0 18.44261,-33.89976,0 18.44324,-33.90028,0 18.44376,-33.90078,0 18.44444,-33.90148,0 18.44507,-33.90208,0 18.44571,-33.9028,0 18.44633,-33.90344,0 18.44689,-33.90399,0 18.44748,-33.90455,0 18.44829,-33.90527,0 18.44902,-33.90587,0 18.44976,-33.90646,0 18.45042,-33.90701,0 18.45131,-33.90776,0 18.45199,-33.90829,0 18.45271,-33.90894,0 18.4535,-33.90958,0 18.45434,-33.91032,0 18.4552,-33.91103,0 18.45613,-33.91173,0 18.45697,-33.91247,0 18.45778,-33.91307,0 18.45875,-33.91382,0 18.45944,-33.91434,0 18.46028,-33.91502,0 18.46124,-33.91571,0 18.46195,-33.91624,0 18.46275,-33.91681,0 18.46361,-33.9174,0 18.46447,-33.91805,0 18.46533,-33.9187,0 18.46607,-33.91922,0 18.46704,-33.91987,0 18.46785,-33.92038,0 18.46888,-33.92108,0 18.46959,-33.92157,0 18.4706,-33.92226,0 18.47134,-33.92276,0 18.47312,-33.92395,0 18.47575,-33.92574,0 18.47906,-33.92788,0 18.48158,-33.92953,0 18.48421,-33.93118,0 18.48792,-33.93356,0 18.49195,-33.93613,0 18.49554,-33.93828,0 18.49977,-33.94077,0 18.5007,-33.94135,0 18.50183,-33.94203,0 18.50299,-33.94267,0 18.50395,-33.94327,0 18.50507,-33.94386,0 18.50607,-33.94445,0 18.50681,-33.94487,0 18.50796,-33.94547,0 18.50938,-33.94615,0 18.51067,-33.94675,0 18.51173,-33.9472,0 18.51271,-33.94757,0 18.51398,-33.94807,0 18.51528,-33.94854,0 18.51625,-33.94887,0 18.51757,-33.94934,0 18.51866,-33.94966,0 18.51969,-33.95004,0 18.52076,-33.95036,0 18.52205,-33.95078,0 18.52335,-33.9512,0 18.52438,-33.95152,0 18.52564,-33.9519,0 18.5269,-33.95227,0 18.52781,-33.95259,0 18.52923,-33.95302,0 18.53147,-33.9537,0 18.53245,-33.95399,0 18.53331,-33.95422,0 18.53691,-33.95535,0 18.54139,-33.95668,0 18.54576,-33.9581,0 18.55064,-33.95967,0 18.55484,-33.96103,0 18.55832,-33.96217,0 18.56043,-33.96298,0 18.56157,-33.96346,0 18.56243,-33.96391,0 18.56353,-33.96446,0 18.56443,-33.96497,0 18.56529,-33.96554,0 18.56609,-33.96605,0 18.56712,-33.96675,0 18.56774,-33.96721,0 18.56873,-33.96791,0 18.56947,-33.96849,0 18.57048,-33.96927,0 18.57121,-33.96986,0 18.57194,-33.9705,0 18.57296,-33.97136,0 18.5737,-33.97201,0 18.57452,-33.97275,0 18.57548,-33.97355,0 18.57616,-33.9742,0 18.57693,-33.97495,0 18.5776,-33.97563,0 18.57845,-33.97647,0 18.57925,-33.97731,0 18.57988,-33.97801,0 18.58051,-33.97871,0 18.58114,-33.9796,0 18.58158,-33.98035,0 18.58197,-33.98131,0 18.58223,-33.98215,0 18.5824,-33.98318,0 18.5824,-33.98397,0 18.58234,-33.98476,0 18.58214,-33.98584,0 18.58183,-33.98663,0 18.58136,-33.98753,0 18.58074,-33.98835,0 18.58028,-33.98881,0 18.57948,-33.98946,0 18.57868,-33.98993,0 18.57749,-33.99037,0 18.57656,-33.99054,0 18.57547,-33.99055,0 18.57439,-33.99044,0 18.57342,-33.99021,0 18.57233,-33.98978,0 18.57141,-33.98928,0 18.57067,-33.98872,0 18.56987,-33.98793,0 18.56936,-33.98717,0 18.56891,-33.98616,0 18.56873,-33.98537,0 18.56869,-33.98428,0 18.56884,-33.98351,0 18.56908,-33.98264,0 18.56953,-33.98172,0 18.57004,-33.9809,0 18.57054,-33.98026,0 18.5713,-33.97941,0 18.57199,-33.97879,0 18.57278,-33.9781,0 18.57365,-33.97755,0 18.57435,-33.97719,0 18.57553,-33.97689,0 18.57645,-33.97685,0 18.57754,-33.97694,0 18.57833,-33.97719,0 18.5792,-33.97759,0 18.5799,-33.97806,0 18.58063,-33.97866,0 18.5812,-33.97922,0 18.58171,-33.97978,0 18.5822,-33.9803,0 18.58257,-33.98071,0 18.58315,-33.98131,0 18.5836,-33.98174,0 18.58405,-33.98218,0 18.58463,-33.98272,0 18.58509,-33.98318,0 18.58562,-33.9836,0 18.58612,-33.98401,0 18.58669,-33.98444,0 18.58715,-33.98481,0 18.58767,-33.98518,0 18.58829,-33.9856,0 18.58887,-33.98602,0 18.58954,-33.98634,0 18.59041,-33.98676,0 18.59117,-33.98708,0 18.59196,-33.98742,0 18.59282,-33.98774,0 18.59367,-33.98802,0 18.59476,-33.9884,0 18.59573,-33.98872,0 18.5966,-33.98904,0 18.59785,-33.98942,0 18.59882,-33.98974,0 18.59985,-33.9901,0 18.60106,-33.99049,0 18.60203,-33.99081,0 18.60305,-33.99115,0 18.60426,-33.99156,0 18.60647,-33.99229,0 18.60741,-33.99268,0 18.60837,-33.99303,0 18.61164,-33.9943,0 18.61261,-33.99468,0 18.61364,-33.99509,0 18.61462,-33.99547,0 18.61559,-33.9958,0 18.61678,-33.99623,0 18.61771,-33.99659,0 18.61885,-33.99701,0 18.61981,-33.99738,0 18.62303,-33.9985,0 18.62698,-33.99976,0 18.63035,-34.00082,0 18.63236,-34.0015,0 18.63354,-34.00191,0 18.6343,-34.00213,0 18.6355,-34.00255,0 18.63657,-34.00291,0 18.63774,-34.00328,0 18.63864,-34.0036,0 18.63993,-34.00401,0 18.64206,-34.00479,0 18.64323,-34.0052,0 18.64397,-34.00548,0 18.64514,-34.00594,0 18.64733,-34.00676,0 18.64843,-34.0072,0 18.64957,-34.00768,0 18.65055,-34.00804,0 18.6517,-34.0085,0 18.65265,-34.00891,0 18.65378,-34.00937,0 18.65467,-34.00974,0 18.65587,-34.01023,0 18.65696,-34.01069,0 18.65787,-34.01106,0 18.65896,-34.01148,0 18.65983,-34.01184,0 18.66095,-34.01225,0 18.6619,-34.01262,0 18.66314,-34.01311,0 18.66417,-34.01348,0 18.66628,-34.01427,0 18.6692,-34.0154,0 18.67161,-34.01628,0 18.67252,-34.01665,0 18.67575,-34.01793,0 18.67785,-34.01884,0 18.67882,-34.01926,0 18.68001,-34.01976,0 18.68111,-34.02019,0 18.68214,-34.02061,0 18.68608,-34.02219,0 18.6873,-34.02264,0 18.68825,-34.02301,0 18.68959,-34.02351,0 18.69295,-34.02475,0 18.69501,-34.02545,0 18.69604,-34.02578,0 18.69727,-34.02617,0 18.69833,-34.02647,0 18.69959,-34.02689,0 18.70079,-34.02726,0 18.70211,-34.02768,0 18.70314,-34.02801,0 18.70434,-34.02837,0 18.7056,-34.0288,0 18.70674,-34.02913,0 18.70809,-34.02951,0 18.7091,-34.02983,0 18.7105,-34.0302,0 18.71258,-34.03079,0 18.71389,-34.03122,0 18.71515,-34.03164,0 18.71622,-34.03203,0 18.71738,-34.03243,0 18.71835,-34.03281,0 18.71958,-34.03322,0 18.72076,-34.03363,0 18.72185,-34.03402,0 18.72305,-34.03448,0 18.72435,-34.03491,0 18.72552,-34.03528,0 18.7266,-34.03564,0 18.72771,-34.03601,0 18.73135,-34.0372,0 18.73289,-34.03765,0 18.73409,-34.03802,0 18.73764,-34.03904,0 18.74136,-34.04016,0 18.74577,-34.0416,0 18.74817,-34.04249,0 18.74954,-34.04305,0 18.75069,-34.04347,0 18.75172,-34.04384,0 18.75292,-34.04426,0 18.75389,-34.04457,0 18.75549,-34.04505,0 18.75669,-34.04539,0 18.75767,-34.0457,0 18.75881,-34.04598,0 18.76016,-34.04636,0 18.76162,-34.04672,0 18.76286,-34.04704,0 18.76403,-34.04732,0 18.76504,-34.04759,0 18.76627,-34.04787,0 18.76734,-34.0481,0 18.76842,-34.04831,0 18.76963,-34.04854,0 18.77081,-34.04874,0 18.77226,-34.049,0 18.77329,-34.04919,0 18.77474,-34.04947,0 18.77575,-34.0497,0 18.77709,-34.05002,0 18.77821,-34.05026,0 18.77964,-34.05063,0 18.78067,-34.05091,0 18.78199,-34.05128,0 18.78319,-34.05166,0 18.78404,-34.0519,0 18.78513,-34.05227,0 18.78629,-34.05267,0 18.78757,-34.05313,0 18.78862,-34.05352,0 18.79004,-34.054,0 18.79105,-34.05437,0 18.79228,-34.05482,0 18.7932,-34.05524,0 18.79441,-34.05579,0 18.79536,-34.05624,0 18.79643,-34.05675,0 18.79761,-34.05729,0 18.79869,-34.05785,0 18.79991,-34.05849,0 18.80097,-34.05904,0 18.80209,-34.05954,0 18.8031,-34.06004,0 18.80416,-34.06059,0 18.80493,-34.06097,0 18.80613,-34.06153,0 18.80688,-34.06186,0 18.81022,-34.06343,0 18.81449,-34.0653,0 18.8154,-34.06572,0 18.81655,-34.06628,0 18.81762,-34.06677,0 18.81849,-34.06721,0 18.81964,-34.06781,0 18.82061,-34.06837,0 18.82153,-34.06888,0 18.82256,-34.06949,0 18.82356,-34.07007,0 18.8244,-34.07062,0 18.82552,-34.0713,0 18.82653,-34.07195,0 18.82765,-34.07263,0 18.82874,-34.07331,0 18.82984,-34.07401,0 18.83074,-34.07461,0 18.83177,-34.07526,0 18.83253,-34.07579,0 18.83365,-34.07652,0 18.83463,-34.07712,0 18.83549,-34.07768,0 18.83663,-34.07843,0 18.83752,-34.07899,0 18.83869,-34.07973,0 18.83949,-34.08029,0 18.8406,-34.08105,0 18.84161,-34.08179,0 18.84287,-34.08271,0 18.8435,-34.08322,0 18.84476,-34.08415,0 18.84581,-34.08495,0 18.84682,-34.08568,0 18.84766,-34.08632,0 18.84865,-34.08713,0 18.84968,-34.08788,0 18.8526,-34.09011,0 18.85551,-34.09232,0 18.85849,-34.09449,0 18.86118,-34.09644,0 18.86504,-34.09914,0 18.86805,-34.10124,0 18.87211,-34.1038,0 18.87496,-34.10559,0 18.87815,-34.10765,0 18.88201,-34.11003,0 18.88487,-34.1118,0 18.88784,-34.11376,0 18.89066,-34.11562,0 18.89357,-34.11749,0 18.89548,-34.11877,0 18.89654,-34.11948,0 18.89833,-34.12083,0 18.89912,-34.12143,0 18.90009,-34.12218,0 18.90089,-34.12279,0 18.90158,-34.1234,0 18.90261,-34.12423,0 18.90341,-34.12493,0 18.90422,-34.12564,0 18.90495,-34.12628,0 18.90585,-34.12706,0 18.90657,-34.1277,0 18.90736,-34.12842,0 18.90816,-34.12912,0 18.90907,-34.12987,0 18.90999,-34.1307,0 18.91072,-34.13132,0 18.91171,-34.1321,0 18.91245,-34.13271,0 18.91331,-34.1334,0 18.9142,-34.13411,0 18.91514,-34.1349,0 18.91588,-34.1355,0 18.91661,-34.13608,0 18.91756,-34.1369,0 18.91829,-34.1375,0 18.91902,-34.13814,0 18.92,-34.13904,0 18.92092,-34.13983,0 18.9216,-34.14047,0 18.92252,-34.14127,0 18.92344,-34.14211,0 18.92595,-34.14444,0 18.9267,-34.14514,0 18.9275,-34.14593,0 18.92807,-34.14653,0 18.92877,-34.1472,0 18.92933,-34.14775,0 18.93012,-34.14848,0 18.93087,-34.14909,0 18.9315,-34.14965,0 18.93236,-34.15035,0 18.93288,-34.15077,0 18.93373,-34.15147,0 18.93449,-34.1521,0 18.93538,-34.15279,0 18.93608,-34.15342,0 18.93682,-34.15403,0 18.93763,-34.15471,0 18.93843,-34.15542,0 18.93929,-34.15612,0 18.94228,-34.15865,0 18.94435,-34.16039,0 18.94747,-34.16301,0 18.95084,-34.16581,0 18.95338,-34.16794,0 18.95582,-34.16999,0 18.95674,-34.17078,0 18.95949,-34.17297,0 18.96308,-34.17599,0 18.964,-34.1767,0 18.96486,-34.17735,0 18.96589,-34.17823,0 18.96672,-34.17888,0 18.96784,-34.17975,0 18.96875,-34.18047,0 18.96984,-34.1813,0 18.9707,-34.182,0 18.97148,-34.18268,0 18.9726,-34.18364,0 18.97362,-34.18452,0 18.97419,-34.18503,0 18.97551,-34.1861,0 18.97648,-34.18689,0 18.97739,-34.18759,0 18.97848,-34.18843,0 18.97957,-34.18922,0 18.98039,-34.18987,0 18.98157,-34.19078,0 18.98269,-34.1916,0 18.9837,-34.19238,0 18.98578,-34.19389,0 18.98666,-34.19457,0 18.99004,-34.19701,0</coordinates>
      </LineString>
    </Placemark>
  </Document>
</kml>
