<?xml version="1.0" encoding="UTF-8"?>
<kml xmlns="http://www.opengis.net/kml/2.2">
  <Document>
    <name>FR24 4082f5e4</name>
    <Placemark>
      <name>FR24 4082f5e4</name>
      <Style><LineStyle><color>ff0000ff</color><width>4</width></LineStyle></Style>
      <LineString>
        <tessellate>1</tessellate>
        <coordinates>18.42974,-33.8958,0 18.43114,-33.89287,0 18.43157,-33.89189,0 18.43186,-33.89122,0 18.4322,-33.89044,0 18.43254,-33.88966,0 18.43283,-33.88882,0 18.4331,-33.88802,0 18.43328,-33.88719,0 18.4334,-33.88626,0 18.4334,-33.88547,0 18.43327,-33.88449,0 18.4331,-33.88371,0 18.43282,-33.88275,0 18.43248,-33.88198,0 18.43197,-33.88105,0 18.43147,-33.88033,0 18.43094,-33.87965,0 18.43025,-33.87886,0 18.42962,-33.87811,0 18.42889,-33.87749,0 18.42811,-33.87694,0 18.42733,-33.87643,0 18.42648,-33.87602,0 18.42531,-33.87566,0 18.42447,-33.87556,0 18.42312,-33.87556,0 18.42211,-33.87566,0 18.42082,-33.87579,0 18.4199,-33.87597,0 18.41887,-33.87611,0 18.41757,-33.87639,0 18.41681,-33.87653,0 18.41572,-33.87676,0 18.4146,-33.87703,0 18.41309,-33.87753,0 18.41234,-33.87793,0 18.41154,-33.87853,0 18.41103,-33.87918,0 18.41068,-33.8801,0 18.41063,-33.88086,0 18.4109,-33.88179,0 18.4112,-33.8823,0 18.41183,-33.88295,0 18.41269,-33.88353,0 18.41353,-33.8839,0 18.41446,-33.88416,0 18.4155,-33.88435,0 18.41628,-33.88445,0 18.41735,-33.88445,0 18.41808,-33.88435,0 18.41875,-33.88416,0 18.41932,-33.88384,0 18.4197,-33.88339,0 18.41981,-33.88298,0 18.41972,-33.88253,0 18.41927,-33.88202,0 18.41869,-33.88179,0 18.41801,-33.88165,0 18.4169,-33.88161,0 18.416,-33.8817,0 18.4151,-33.88184,0 18.41393,-33.88206,0 18.41291,-33.8823,0 18.41188,-33.88258,0 18.41068,-33.88291,0 18.40994,-33.88314,0 18.40839,-33.88356,0 18.40731,-33.88388,0 18.40588,-33.88435,0 18.40502,-33.88463,0 18.4037,-33.88505,0 18.40256,-33.88547,0 18.40154,-33.88586,0 18.40025,-33.88637,0 18.39902,-33.88683,0 18.3979,-33.88733,0 18.39678,-33.88784,0 18.39546,-33.88845,0 18.39432,-33.88905,0 18.39323,-33.88966,0 18.39226,-33.89022,0 18.39077,-33.89105,0 18.38999,-33.89154,0 18.3886,-33.8924,0 18.38762,-33.89305,0 18.38676,-33.89361,0 18.38562,-33.89441,0 18.38442,-33.89524,0 18.38349,-33.89598,0 18.38219,-33.89701,0 18.3811,-33.8979,0 18.38018,-33.89869,0 18.37904,-33.89976,0 18.37811,-33.90056,0 18.37698,-33.90157,0 18.37612,-33.90241,0 18.37525,-33.90326,0 18.37435,-33.90413,0 18.37334,-33.90523,0 18.37273,-33.90591,0 18.3716,-33.90725,0 18.37088,-33.90811,0 18.37,-33.90926,0 18.36903,-33.91051,0 18.36851,-33.91126,0 18.36768,-33.91241,0 18.36708,-33.91335,0 18.36639,-33.91442,0 18.36559,-33.91573,0 18.36496,-33.91675,0 18.36445,-33.91768,0 18.36376,-33.91898,0 18.36319,-33.92001,0 18.36258,-33.92111,0 18.36193,-33.92243,0 18.36135,-33.92368,0 18.36079,-33.92504,0 18.36034,-33.9261,0 18.35984,-33.92738,0 18.35941,-33.92839,0 18.35894,-33.92976,0 18.35838,-33.93113,0 18.35798,-33.93221,0 18.35748,-33.93338,0 18.3569,-33.93486,0 18.35655,-33.93653,0 18.35664,-33.93787,0 18.35698,-33.93896,0 18.35754,-33.93974,0 18.35838,-33.9404,0 18.35901,-33.94063,0 18.35987,-33.94059,0 18.36033,-33.94044,0 18.36084,-33.94003,0 18.36119,-33.93956,0 18.36146,-33.9391,0 18.36174,-33.93846,0 18.3621,-33.93774,0 18.36236,-33.937,0 18.36262,-33.93639,0 18.36296,-33.9356,0 18.36313,-33.93509,0 18.36342,-33.93425,0 18.36365,-33.93356,0 18.36393,-33.93265,0 18.3641,-33.93187,0 18.36416,-33.93109,0 18.36416,-33.93048,0 18.36399,-33.92974,0 18.36365,-33.92921,0 18.36319,-33.92881,0 18.36241,-33.92844,0 18.36157,-33.92834,0 18.36057,-33.92853,0 18.35956,-33.92899,0 18.35888,-33.92953,0 18.35804,-33.93044,0 18.35748,-33.93132,0 18.35698,-33.93224,0 18.35638,-33.9336,0 18.35598,-33.93467,0 18.35564,-33.93575,0 18.35524,-33.93714,0 18.35495,-33.93821,0 18.35455,-33.93979,0 18.35421,-33.94114,0 18.35395,-33.94231,0 18.35363,-33.94361,0 18.35329,-33.9451,0 18.35294,-33.94656,0 18.35266,-33.9478,0 18.35238,-33.94906,0 18.35203,-33.95045,0 18.35175,-33.95157,0 18.35137,-33.95302,0 18.35104,-33.9543,0 18.3507,-33.95549,0 18.34837,-33.962,0 18.34689,-33.96561,0 18.34562,-33.96856,0 18.34408,-33.97178,0 18.34288,-33.97452,0 18.42705,-33.90115,0</coordinates>
      </LineString>
    </Placemark>
  </Document>
</kml>
