<?xml version="1.0" encoding="UTF-8"?>
<kml xmlns="http://www.opengis.net/kml/2.2">
  <Document>
    <name>FR24 3f15509b</name>
    <Placemark>
      <name>FR24 3f15509b</name>
      <Style><LineStyle><color>ff0000ff</color><width>4</width></LineStyle></Style>
      <LineString>
        <tessellate>1</tessellate>
        <coordinates>18.43226,-33.89314,0 18.43403,-33.89035,0 18.43573,-33.8876,0 18.43601,-33.88705,0 18.43637,-33.88635,0 18.43666,-33.88537,0 18.43678,-33.88458,0 18.43678,-33.88407,0 18.4366,-33.88305,0 18.4364,-33.8822,0 18.43603,-33.88123,0 18.43557,-33.8803,0 18.43517,-33.87951,0 18.43477,-33.87881,0 18.43414,-33.87783,0 18.43357,-33.87709,0 18.43294,-33.87625,0 18.43237,-33.87561,0 18.43174,-33.87485,0 18.43147,-33.87401,0 18.43158,-33.87332,0 18.43191,-33.87276,0 18.43231,-33.87245,0 18.43294,-33.87215,0 18.43338,-33.87209,0 18.43399,-33.87204,0 18.43444,-33.87213,0 18.43483,-33.87229,0 18.43506,-33.87252,0 18.43523,-33.87277,0 18.43523,-33.87323,0 18.435,-33.87369,0 18.4346,-33.87411,0 18.43397,-33.87444,0 18.433,-33.87476,0 18.43209,-33.87492,0 18.43108,-33.87511,0 18.43008,-33.87523,0 18.42876,-33.87532,0 18.42755,-33.87543,0 18.42632,-33.87556,0 18.42476,-33.87569,0 18.42344,-33.87579,0 18.42228,-33.87589,0 18.42115,-33.87602,0 18.41978,-33.87616,0 18.41824,-33.87634,0 18.41698,-33.87648,0 18.41572,-33.87666,0 18.41426,-33.87685,0 18.41303,-33.87709,0 18.41135,-33.87735,0 18.41006,-33.87758,0 18.40894,-33.87776,0 18.40742,-33.87807,0 18.40628,-33.87835,0 18.40513,-33.87859,0 18.40364,-33.87895,0 18.40227,-33.87932,0 18.40109,-33.87964,0 18.39997,-33.87996,0 18.39846,-33.88042,0 18.39729,-33.88081,0 18.39615,-33.88118,0 18.39518,-33.88151,0 18.39392,-33.88198,0 18.39254,-33.88249,0 18.39123,-33.88305,0 18.38994,-33.88358,0 18.389,-33.88403,0 18.38803,-33.88445,0 18.38685,-33.88504,0 18.38551,-33.8857,0 18.38456,-33.88614,0 18.38333,-33.88654,0 18.3822,-33.88683,0 18.38076,-33.887,0 18.37973,-33.88696,0 18.37822,-33.88655,0 18.37738,-33.88618,0 18.37629,-33.88547,0 18.37547,-33.88486,0 18.37452,-33.8844,0 18.37355,-33.8843,0 18.3725,-33.88445,0 18.37143,-33.88486,0 18.37065,-33.88541,0 18.36998,-33.88591,0 18.36931,-33.88654,0 18.36857,-33.88728,0 18.36796,-33.88797,0 18.36718,-33.88898,0 18.36657,-33.88984,0 18.366,-33.89058,0 18.36468,-33.89166,0 18.36359,-33.89198,0 18.36236,-33.89195,0 18.36118,-33.89172,0 18.35981,-33.89119,0 18.3589,-33.89082,0 18.35748,-33.8904,0 18.35615,-33.89017,0 18.35478,-33.89017,0 18.35358,-33.8904,0 18.35233,-33.8909,0 18.35094,-33.89194,0 18.35043,-33.89259,0 18.34957,-33.8945,0 18.34924,-33.89575,0 18.34907,-33.89703,0 18.34894,-33.89808,0 18.34885,-33.89891,0 18.34868,-33.9001,0 18.34857,-33.90106,0 18.34837,-33.90241,0 18.34823,-33.9034,0 18.34801,-33.90459,0 18.34785,-33.90567,0 18.34768,-33.90665,0 18.34751,-33.90767,0 18.34722,-33.90889,0 18.347,-33.90981,0 18.34671,-33.91112,0 18.34642,-33.91214,0 18.34621,-33.91292,0 18.34585,-33.91438,0 18.34562,-33.91531,0 18.34538,-33.91644,0 18.34521,-33.91736,0 18.34499,-33.91856,0 18.34494,-33.91885,0 18.3447,-33.92065,0 18.34459,-33.92139,0 18.34459,-33.92267,0 18.34471,-33.92355,0 18.34504,-33.92436,0 18.34549,-33.925,0 18.34614,-33.92555,0 18.34711,-33.92597,0 18.34791,-33.92606,0 18.34874,-33.92596,0 18.34957,-33.92578,0 18.3502,-33.92555,0 18.35109,-33.925,0 18.3516,-33.9245,0 18.3521,-33.92395,0 18.35278,-33.92341,0 18.3535,-33.92313,0 18.35415,-33.92303,0 18.35512,-33.92327,0 18.35564,-33.92359,0 18.35614,-33.92441,0 18.35636,-33.92519,0 18.3563,-33.92619,0 18.35614,-33.92711,0 18.35581,-33.92802,0 18.35529,-33.92927,0 18.35478,-33.93034,0 18.35434,-33.93123,0 18.35401,-33.93187,0 18.35335,-33.93314,0 18.3526,-33.93463,0 18.35203,-33.93575,0 18.35169,-33.93649,0 18.351,-33.93774,0 18.35054,-33.93867,0 18.34991,-33.93993,0 18.34941,-33.94093,0 18.34883,-33.94207,0 18.34723,-33.94533,0 18.34543,-33.94876,0 18.34369,-33.95187,0 18.34185,-33.9553,0 18.3399,-33.95906,0 18.33764,-33.96336,0 18.33492,-33.96903,0 18.45532,-34.12473,0 18.46083,-34.1225,0 18.46206,-34.12183,0 18.46304,-34.12131,0 18.46425,-34.12069,0 18.46551,-34.12,0 18.46663,-34.11929,0 18.46779,-34.11851,0 18.46905,-34.11755,0 18.47011,-34.11676,0 18.47121,-34.11599,0 18.4724,-34.11533,0 18.47359,-34.1147,0 18.47478,-34.11417,0 18.47593,-34.11361,0 18.47714,-34.11282,0 18.47803,-34.11201,0 18.47878,-34.11103,0 18.47929,-34.10982,0 18.47973,-34.10844,0 18.48002,-34.1069,0 18.47997,-34.10564,0 18.48,-34.1042,0 18.47992,-34.10272,0 18.47932,-34.1016,0 18.47916,-34.1002,0 18.47874,-34.09901,0 18.47809,-34.09791,0 18.47721,-34.09685,0 18.47659,-34.09568,0 18.47643,-34.09445,0 18.476,-34.09303,0 18.47568,-34.09175,0 18.47504,-34.09056,0 18.47442,-34.08947,0 18.47418,-34.0882,0 18.47365,-34.08697,0 18.47283,-34.08566,0 18.47095,-34.08519,0 18.47135,-34.08342,0 18.46946,-34.08269,0 18.46965,-34.08127,0 18.46884,-34.08025,0 18.46822,-34.07898,0 18.4667,-34.07774,0 18.46597,-34.07671,0 18.46494,-34.0756,0 18.46383,-34.07462,0 18.46249,-34.07358,0 18.46116,-34.07267,0 18.46043,-34.07173,0 18.45968,-34.07064,0 18.45773,-34.06853,0 18.45656,-34.06753,0 18.45485,-34.06392,0 18.45407,-34.06277,0 18.45313,-34.06174,0 18.45204,-34.06049,0 18.45266,-34.05898,0 18.45116,-34.05827,0 18.45053,-34.05719,0 18.44879,-34.05635,0 18.44843,-34.05506,0 18.44785,-34.05391,0 18.44741,-34.05261,0 18.447,-34.05139,0 18.4465,-34.05013,0 18.44607,-34.04876,0 18.44576,-34.04753,0 18.44562,-34.04637,0 18.44554,-34.04531,0 18.44548,-34.04419,0 18.44535,-34.04295,0 18.44529,-34.0418,0 18.44523,-34.04054,0 18.44529,-34.0396,0 18.44543,-34.03847,0 18.4455,-34.03737,0 18.44551,-34.03629,0 18.44559,-34.03529,0 18.44567,-34.03416,0 18.44572,-34.03309,0 18.44601,-34.03228,0 18.44617,-34.03133,0 18.44628,-34.03045,0 18.44644,-34.02944,0 18.44656,-34.02853,0 18.44676,-34.02768,0 18.44694,-34.02676,0 18.44718,-34.02584,0 18.44733,-34.02491,0 18.44751,-34.024,0 18.44769,-34.02314,0 18.44785,-34.02235,0 18.44797,-34.02157,0 18.4481,-34.02066,0 18.44777,-34.01977,0 18.44761,-34.01882,0 18.44751,-34.01794,0 18.44736,-34.01709,0 18.44718,-34.01627,0 18.44666,-34.0156,0 18.44522,-34.01521,0 18.44439,-34.01463,0 18.44331,-34.01414,0 18.44226,-34.01387,0 18.44118,-34.01363,0 18.4399,-34.01345,0 18.43888,-34.01325,0 18.43785,-34.0133,0 18.43689,-34.01327,0 18.43432,-34.01329,0 18.43374,-34.01334,0 18.43082,-34.01679,0 18.43008,-34.01777,0 18.42957,-34.01889,0 18.42923,-34.01994,0 18.42917,-34.0209,0 18.42917,-34.02182,0 18.42884,-34.02283,0 18.42839,-34.02333,0 18.42766,-34.02361,0 18.42688,-34.02345,0 18.42636,-34.02298,0 18.42615,-34.02242,0 18.42625,-34.02177,0 18.42659,-34.02112,0 18.42716,-34.02037,0 18.42796,-34.01949,0 18.42888,-34.0187,0 18.42962,-34.01809,0 18.43029,-34.01761,0 18.43136,-34.01688,0 18.43237,-34.01619,0 18.43346,-34.0153,0 18.43437,-34.01456,0 18.43517,-34.01372,0 18.43624,-34.01262,0 18.43702,-34.0117,0 18.43781,-34.01079,0 18.43872,-34.00957,0 18.43949,-34.00859,0 18.44044,-34.00749,0 18.44124,-34.00655,0 18.44221,-34.00548,0 18.44302,-34.00452,0 18.44375,-34.00365,0 18.44484,-34.00231,0 18.4456,-34.00136,0 18.44633,-34.0004,0 18.447,-33.99944,0 18.44784,-33.99825,0 18.44862,-33.9971,0 18.44931,-33.99603,0 18.44988,-33.9951,0 18.45062,-33.99379,0 18.45131,-33.99257,0 18.45193,-33.99115,0 18.45234,-33.98997,0 18.45274,-33.98881,0 18.45305,-33.98767,0 18.45343,-33.98611,0 18.45372,-33.98488,0 18.454,-33.98374,0 18.45434,-33.98259,0 18.45469,-33.98132,0 18.45514,-33.97987,0 18.45543,-33.97885,0 18.45585,-33.97737,0 18.45613,-33.97632,0 18.45652,-33.97517,0 18.45686,-33.9742,0 18.45737,-33.97289,0 18.45782,-33.97188,0 18.45827,-33.9706,0 18.45886,-33.96935,0 18.45938,-33.96824,0 18.45995,-33.9673,0 18.46062,-33.96643,0 18.46163,-33.96538,0 18.46252,-33.96447,0 18.46348,-33.96341,0 18.46418,-33.96256,0 18.46504,-33.96153,0 18.46583,-33.96034,0 18.46651,-33.95929,0 18.46699,-33.95823,0 18.46757,-33.95682,0 18.46785,-33.95562,0 18.46807,-33.95436,0 18.46819,-33.95292,0 18.46819,-33.9516,0 18.46813,-33.95008,0 18.46796,-33.94878,0 18.46773,-33.94752,0 18.46746,-33.94624,0 18.46716,-33.94515,0 18.46687,-33.94394,0 18.46639,-33.94235,0 18.46601,-33.94114,0 18.46561,-33.93993,0 18.46521,-33.93872,0 18.46471,-33.9375,0 18.46415,-33.93604,0 18.4637,-33.93484,0 18.46309,-33.93333,0 18.46264,-33.93221,0 18.46219,-33.93109,0 18.46167,-33.92978,0 18.46118,-33.92848,0 18.46064,-33.92694,0 18.46023,-33.92569,0 18.45983,-33.92464,0 18.45944,-33.92345,0 18.45898,-33.9222,0 18.45852,-33.9208,0 18.45806,-33.91959,0 18.45765,-33.91837,0 18.4572,-33.91717,0 18.45681,-33.91599,0 18.45636,-33.91475,0 18.45591,-33.91351,0 18.45529,-33.912,0 18.45491,-33.91093,0 18.4544,-33.90972,0 18.45395,-33.90871,0 18.45331,-33.90739,0 18.45277,-33.90633,0 18.45204,-33.90518,0 18.45143,-33.90431,0 18.45085,-33.90362,0 18.44988,-33.90269,0 18.44885,-33.90195,0 18.44799,-33.90144,0 18.44711,-33.90106,0 18.4461,-33.90065,0 18.44496,-33.90027,0 18.44408,-33.89996,0 18.44307,-33.89973,0 18.44227,-33.89962,0 18.44094,-33.89941,0 18.44022,-33.89937,0 18.43958,-33.89929,0 18.43878,-33.89929,0 18.43803,-33.89923,0 18.43724,-33.89923,0 18.43649,-33.8992,0 18.43586,-33.8992,0 18.43483,-33.8992,0 18.43426,-33.8992,0 18.43349,-33.89919,0 18.43287,-33.89923,0 18.43237,-33.89923,0 18.43174,-33.89925,0 18.43117,-33.89929,0 18.43085,-33.89932,0 18.4306,-33.89934,0 18.42996,-33.89937,0 18.42878,-33.89964,0 18.42828,-33.89987,0 18.42773,-33.90036,0 18.42762,-33.90064,0</coordinates>
      </LineString>
    </Placemark>
  </Document>
</kml>
