<?xml version="1.0" encoding="UTF-8"?>
<kml xmlns="http://www.opengis.net/kml/2.2">
  <Document>
    <name>FR24 41e6ea9b</name>
    <Placemark>
      <name>FR24 41e6ea9b</name>
      <Style><LineStyle><color>ff0000ff</color><width>4</width></LineStyle></Style>
      <LineString>
        <tessellate>1</tessellate>
        <coordinates>18.43668,-33.89717,0 18.43713,-33.89534,0 18.43729,-33.89441,0 18.43735,-33.89361,0 18.43746,-33.89278,0 18.43746,-33.89194,0 18.43752,-33.89105,0 18.43752,-33.89008,0 18.43752,-33.88914,0 18.43747,-33.88824,0 18.43735,-33.8871,0 18.43723,-33.88626,0 18.437,-33.88542,0 18.4366,-33.88435,0 18.43618,-33.88353,0 18.43573,-33.88284,0 18.43523,-33.88216,0 18.43466,-33.88146,0 18.43382,-33.88065,0 18.4331,-33.8801,0 18.43191,-33.87937,0 18.43102,-33.87895,0 18.42985,-33.87859,0 18.42859,-33.8783,0 18.42755,-33.87808,0 18.42653,-33.87797,0 18.42531,-33.8779,0 18.42424,-33.87785,0 18.42301,-33.87785,0 18.42155,-33.87788,0 18.42015,-33.87794,0 18.41892,-33.87802,0 18.41772,-33.87811,0 18.41681,-33.8782,0 18.41537,-33.87839,0 18.41421,-33.87854,0 18.41274,-33.87881,0 18.41146,-33.87904,0 18.40995,-33.87932,0 18.40851,-33.8796,0 18.40685,-33.88002,0 18.40588,-33.88025,0 18.40429,-33.88069,0 18.40313,-33.88109,0 18.4016,-33.88161,0 18.40021,-33.88211,0 18.39861,-33.88268,0 18.39741,-33.88314,0 18.39586,-33.8837,0 18.39453,-33.88422,0 18.39329,-33.88467,0 18.39169,-33.88533,0 18.39038,-33.88596,0 18.38911,-33.88659,0 18.38797,-33.88719,0 18.38691,-33.88779,0 18.38573,-33.88849,0 18.38436,-33.88933,0 18.38332,-33.89008,0 18.38254,-33.89063,0 18.38125,-33.89154,0 18.38007,-33.89245,0 18.37915,-33.8931,0 18.37811,-33.89397,0 18.37688,-33.89497,0 18.37609,-33.89561,0 18.37497,-33.89658,0 18.37372,-33.89766,0 18.37267,-33.89864,0 18.37154,-33.89967,0 18.37037,-33.9007,0 18.36937,-33.90171,0 18.36852,-33.90253,0 18.36757,-33.90349,0 18.36651,-33.90455,0 18.36571,-33.90544,0 18.36482,-33.90637,0 18.36388,-33.90744,0 18.36308,-33.90833,0 18.36208,-33.90944,0 18.36107,-33.91063,0 18.36034,-33.91154,0 18.35958,-33.91251,0 18.35861,-33.91386,0 18.35793,-33.91475,0 18.35709,-33.91594,0 18.35642,-33.9169,0 18.3558,-33.91786,0 18.35489,-33.91922,0 18.35421,-33.92029,0 18.3535,-33.92148,0 18.35272,-33.92276,0 18.3521,-33.92372,0 18.35135,-33.92504,0 18.35064,-33.9261,0 18.3498,-33.92751,0 18.34917,-33.92853,0 18.34848,-33.92978,0 18.34784,-33.93091,0 18.34717,-33.93221,0 18.34661,-33.93333,0 18.34591,-33.93481,0 18.34543,-33.93585,0 18.34476,-33.93727,0 18.34431,-33.93837,0 18.34369,-33.93979,0 18.34319,-33.94089,0 18.3424,-33.94249,0 18.34185,-33.94361,0 18.34111,-33.94487,0 18.34053,-33.94585,0 18.33996,-33.94682,0 18.33933,-33.9478,0 18.33858,-33.94906,0 18.33778,-33.95027,0 18.33697,-33.95151,0 18.33635,-33.9525,0 18.33561,-33.95371,0 18.33484,-33.95494,0 18.33428,-33.95586,0 18.33212,-33.95948,0 18.32817,-33.96651,0 18.3252,-33.97169,0 18.32346,-33.97495,0 18.32039,-33.98062,0 18.31758,-33.98588,0 18.31495,-33.99086,0 18.31301,-33.99468,0 18.31101,-33.99879,0 18.30946,-34.00185,0 18.3072,-34.00626,0 18.30479,-34.01074,0 18.30412,-34.0118,0 18.30328,-34.01302,0 18.30149,-34.01564,0 18.30087,-34.0166,0 18.30003,-34.01788,0 18.29933,-34.01889,0 18.29857,-34.01999,0 18.29532,-34.02493,0 18.29407,-34.0275,0 18.29378,-34.02871,0 18.29384,-34.02983,0 18.29409,-34.03075,0 18.29464,-34.03169,0 18.29549,-34.03244,0 18.29706,-34.0329,0 18.29807,-34.03285,0 18.29896,-34.03258,0 18.29975,-34.03212,0 18.30076,-34.0313,0 18.30132,-34.03065,0 18.30193,-34.03001,0 18.30249,-34.02933,0 18.30328,-34.02846,0 18.30378,-34.02786,0 18.30442,-34.02708,0 18.305,-34.02643,0 18.3058,-34.0255,0 18.30625,-34.02493,0 18.30711,-34.02391,0 18.3086,-34.02191,0 18.309,-34.02131,0 18.3095,-34.02058,0 18.31023,-34.01962,0 18.31072,-34.01898,0 18.31141,-34.01809,0 18.31198,-34.0173,0 18.31238,-34.01674,0 18.31449,-34.01395,0 18.3161,-34.01181,0 18.31746,-34.0101,0 18.31802,-34.00941,0 18.31864,-34.00854,0 18.31914,-34.0079,0 18.31987,-34.0069,0 18.32045,-34.00613,0 18.32113,-34.00529,0 18.32182,-34.00441,0 18.32239,-34.00371,0 18.32314,-34.00278,0 18.32371,-34.00199,0 18.32434,-34.0011,0 18.32508,-34.00003,0 18.3257,-33.99921,0 18.32632,-33.99829,0 18.32733,-33.99683,0 18.32817,-33.99559,0 18.33102,-33.99147,0 18.33259,-33.98946,0 18.33412,-33.98756,0 18.33561,-33.9856,0 18.3387,-33.98155,0 18.34162,-33.97778,0 18.34442,-33.97387,0 18.34717,-33.96991,0 18.34952,-33.96625,0 18.353,-33.96004,0 18.35367,-33.95869,0 18.35478,-33.95618,0 18.35529,-33.95506,0 18.35564,-33.95427,0 18.35615,-33.95316,0 18.35759,-33.94963,0 18.3586,-33.94707,0 18.359,-33.94606,0 18.35928,-33.94524,0 18.35956,-33.9445,0 18.35989,-33.94363,0 18.36021,-33.94277,0 18.36057,-33.94189,0 18.3609,-33.94114,0 18.36129,-33.94011,0 18.36163,-33.93919,0 18.36199,-33.9383,0 18.36225,-33.93764,0 18.36256,-33.93672,0 18.36292,-33.9359,0 18.3632,-33.93521,0 18.36365,-33.93416,0 18.36393,-33.93356,0 18.36432,-33.93265,0 18.36466,-33.93178,0 18.36488,-33.93123,0 18.36514,-33.93053,0 18.36554,-33.9295,0 18.36589,-33.92871,0 18.36623,-33.92789,0 18.36656,-33.9272,0 18.3669,-33.92647,0 18.36724,-33.92587,0 18.3676,-33.92517,0 18.36802,-33.92436,0 18.3684,-33.92364,0 18.36897,-33.92285,0 18.36937,-33.92229,0 18.37009,-33.92162,0 18.37069,-33.92103,0 18.37137,-33.92029,0 18.37183,-33.91978,0 18.37252,-33.91894,0 18.37303,-33.91824,0 18.3736,-33.9174,0 18.37413,-33.91667,0 18.37463,-33.91599,0 18.37514,-33.91539,0 18.37578,-33.91461,0 18.37637,-33.91393,0 18.37698,-33.91321,0 18.37749,-33.91265,0 18.378,-33.91209,0 18.37864,-33.9114,0 18.37923,-33.91072,0 18.37978,-33.91009,0 18.38041,-33.90944,0 18.38104,-33.90874,0 18.38158,-33.9082,0 18.38231,-33.90742,0 18.38282,-33.90683,0 18.3835,-33.90618,0 18.38402,-33.90558,0 18.38465,-33.90493,0 18.38528,-33.90427,0 18.38601,-33.90358,0 18.38663,-33.90298,0 18.38736,-33.9023,0 18.38814,-33.90157,0 18.38871,-33.90102,0 18.3894,-33.90036,0 18.38988,-33.89992,0 18.39077,-33.8992,0 18.39139,-33.89873,0 18.39231,-33.89808,0 18.39329,-33.89748,0 18.39403,-33.89701,0 18.39476,-33.89658,0 18.39558,-33.89608,0 18.39677,-33.89548,0 18.39741,-33.8951,0 18.39849,-33.89459,0 18.39912,-33.89426,0 18.40021,-33.89375,0 18.40124,-33.89324,0 18.40227,-33.89282,0 18.40305,-33.89246,0 18.40372,-33.89218,0 18.4049,-33.89166,0 18.4057,-33.89133,0 18.40647,-33.89099,0 18.40754,-33.89053,0 18.40855,-33.89017,0 18.4095,-33.88985,0 18.41045,-33.88962,0 18.41112,-33.88939,0 18.41223,-33.88914,0 18.41303,-33.88889,0 18.41409,-33.88861,0 18.4151,-33.88834,0 18.41583,-33.88815,0 18.41684,-33.88788,0 18.41801,-33.88756,0 18.41898,-33.88733,0 18.41987,-33.8871,0 18.42088,-33.88683,0 18.42361,-33.88612,0 18.42643,-33.88554,0 18.42905,-33.885,0 18.43001,-33.88495,0 18.43071,-33.88496,0 18.43151,-33.88505,0 18.43208,-33.88533,0 18.43259,-33.88568,0 18.43293,-33.88632,0 18.43294,-33.88696,0 18.43276,-33.88756,0 18.43225,-33.88826,0 18.43168,-33.88877,0 18.43088,-33.88924,0 18.43029,-33.88962,0 18.42951,-33.89003,0 18.42899,-33.89035,0 18.42828,-33.89076,0 18.42772,-33.89113,0 18.42688,-33.89152,0 18.42637,-33.89172,0 18.42556,-33.89203,0 18.42493,-33.89231,0 18.42419,-33.89278,0 18.42361,-33.89315,0 18.42306,-33.89355,0 18.42262,-33.89406,0 18.42222,-33.89479,0 18.42228,-33.89529,0 18.42253,-33.89566,0 18.4229,-33.89594,0 18.42356,-33.89622,0 18.42402,-33.89639,0 18.42475,-33.89662,0 18.42525,-33.89685,0 18.42585,-33.89711,0 18.4262,-33.89735,0 18.42648,-33.89757,0 18.42676,-33.8979,0 18.4271,-33.89841,0 18.42721,-33.89864,0 18.42733,-33.89901,0 18.42743,-33.89928,0 18.42743,-33.89955,0 18.42739,-33.89985,0 18.42732,-33.90019,0 18.42721,-33.90042,0 18.42745,-33.90064,0 18.42791,-33.90064,0 18.42876,-33.90064,0 18.42905,-33.9006,0 18.43013,-33.90051,0 18.43082,-33.90041,0 18.43125,-33.90038,0 18.43158,-33.90033,0 18.43198,-33.90024,0 18.43237,-33.90019,0 18.433,-33.90009,0 18.4334,-33.89999,0 18.43382,-33.89987,0 18.43403,-33.89981,0 18.43461,-33.89955,0 18.43494,-33.89939,0 18.43529,-33.89915,0 18.43579,-33.89877,0 18.43607,-33.89845,0 18.43629,-33.89813,0 18.43672,-33.8972,0 18.43683,-33.89618,0 18.43685,-33.8952,0 18.43689,-33.89431,0 18.43691,-33.89337,0 18.43691,-33.8925,0 18.43696,-33.8914,0 18.437,-33.89031,0 18.43695,-33.88947,0 18.43689,-33.88831,0 18.43678,-33.88737,0 18.4366,-33.88621,0 18.43632,-33.88514,0 18.43603,-33.8843,0 18.43552,-33.88333,0 18.435,-33.88249,0 18.4345,-33.88179,0 18.43377,-33.88078,0 18.43323,-33.88007,0 18.43254,-33.87927,0 18.43186,-33.87849,0 18.43108,-33.87762,0 18.43024,-33.87694,0 18.42939,-33.87639,0 18.42831,-33.87588,0 18.4271,-33.87556,0 18.4259,-33.87541,0 18.42482,-33.87537,0 18.42368,-33.87538,0 18.42256,-33.87547,0 18.4211,-33.87566,0 18.4197,-33.87579,0 18.41824,-33.87602,0 18.41707,-33.87621,0 18.41566,-33.87648,0 18.41446,-33.87672,0 18.41314,-33.877,0 18.41224,-33.87721,0 18.41045,-33.87769,0 18.40905,-33.87804,0 18.40782,-33.8784,0 18.40625,-33.87881,0 18.40501,-33.87918,0 18.40384,-33.87955,0 18.40227,-33.88005,0 18.40101,-33.88053,0 18.3997,-33.881,0 18.39868,-33.88138,0 18.39712,-33.88202,0 18.39598,-33.88253,0 18.39425,-33.88335,0 18.39285,-33.88408,0 18.39203,-33.88449,0 18.39066,-33.88523,0 18.3894,-33.88598,0 18.38785,-33.88696,0 18.38691,-33.88756,0 18.38585,-33.88831,0 18.38476,-33.8891,0 18.38377,-33.88989,0 18.38247,-33.89091,0 18.38139,-33.89175,0 18.38041,-33.89255,0 18.37951,-33.89323,0 18.37852,-33.89403,0 18.37738,-33.89501,0 18.37629,-33.89599,0 18.37542,-33.89676,0 18.37452,-33.89766,0 18.37357,-33.89859,0 18.37252,-33.89967,0 18.37166,-33.9006,0 18.37054,-33.90179,0 18.36977,-33.90269,0 18.36874,-33.90381,0 18.36794,-33.90474,0 18.36695,-33.90569,0 18.36611,-33.90656,0 18.3651,-33.90765,0 18.36428,-33.90865,0 18.36348,-33.90977,0 18.36281,-33.91072,0 18.36187,-33.912,0 18.36062,-33.91319,0 18.35961,-33.91393,0 18.35855,-33.91457,0 18.35731,-33.91544,0 18.35627,-33.91642,0 18.35552,-33.91726,0 18.35472,-33.91833,0 18.35412,-33.91919,0 18.35339,-33.92024,0 18.35283,-33.92116,0 18.3522,-33.92225,0 18.35175,-33.92318,0 18.35115,-33.92427,0 18.35072,-33.92517,0 18.35014,-33.92642,0 18.34957,-33.92764,0 18.349,-33.92881,0 18.34854,-33.92992,0 18.34797,-33.93109,0 18.34745,-33.93237,0 18.34694,-33.93347,0 18.34644,-33.93471,0 18.3461,-33.93562,0 18.34557,-33.937,0 18.34509,-33.93819,0 18.34471,-33.93919,0 18.34414,-33.94057,0 18.34369,-33.94162,0 18.34308,-33.94295,0 18.34257,-33.94395,0 18.34207,-33.94492,0 18.34162,-33.94583,0 18.34099,-33.94706,0 18.3403,-33.94831,0 18.33979,-33.94925,0 18.33939,-33.95022,0 18.33915,-33.95142,0 18.33932,-33.95251,0 18.33984,-33.95348,0 18.34067,-33.9543,0 18.34167,-33.95483,0 18.34274,-33.95512,0 18.34391,-33.95515,0 18.34504,-33.9549,0 18.34585,-33.95455,0 18.34665,-33.95395,0 18.34717,-33.95348,0 18.34773,-33.9527,0 18.34831,-33.9519,0 18.34877,-33.95129,0 18.34947,-33.95041,0 18.34997,-33.94976,0 18.35042,-33.94922,0 18.35109,-33.94835,0 18.35169,-33.94752,0 18.35232,-33.94668,0 18.35278,-33.94603,0 18.35328,-33.94533,0 18.35386,-33.94454,0 18.35432,-33.94389,0 18.35496,-33.94308,0 18.35552,-33.94226,0 18.35609,-33.94152,0 18.35712,-33.94007,0 18.3586,-33.93796,0 18.35901,-33.93732,0 18.35956,-33.93649,0 18.35995,-33.9359,0 18.36068,-33.93494,0 18.36124,-33.93411,0 18.3617,-33.93341,0 18.36213,-33.93274,0 18.36258,-33.93205,0 18.36302,-33.93113,0 18.36353,-33.93025,0 18.36398,-33.92935,0 18.36433,-33.92871,0 18.36485,-33.92778,0 18.36531,-33.92694,0 18.36567,-33.92638,0 18.36617,-33.9255,0 18.36662,-33.92476,0 18.36714,-33.92392,0 18.36757,-33.92322,0 18.368,-33.92262,0 18.36857,-33.92178,0 18.36909,-33.92111,0 18.3696,-33.92038,0 18.37009,-33.91969,0 18.37057,-33.91912,0 18.3711,-33.9185,0 18.37177,-33.91768,0 18.37252,-33.9168,0 18.37303,-33.91624,0 18.37351,-33.91576,0 18.37407,-33.91521,0 18.37469,-33.91456,0 18.37536,-33.91393,0 18.37604,-33.91328,0 18.37664,-33.91275,0 18.37721,-33.91224,0 18.3779,-33.91158,0 18.37844,-33.91109,0 18.37904,-33.91056,0 18.37973,-33.90999,0 18.38035,-33.90948,0 18.38108,-33.90889,0 18.38179,-33.90823,0 18.38231,-33.90775,0 18.38299,-33.90721,0 18.38362,-33.90665,0 18.38419,-33.90614,0 18.38484,-33.90564,0 18.3854,-33.90514,0 18.38614,-33.90451,0 18.38685,-33.90385,0 18.38739,-33.90339,0 18.38797,-33.90288,0 18.38871,-33.90223,0 18.38926,-33.90175,0 18.39014,-33.90097,0 18.39067,-33.90047,0 18.39134,-33.89985,0 18.39191,-33.89939,0 18.39266,-33.89883,0 18.3934,-33.89827,0 18.39415,-33.89785,0 18.39476,-33.89745,0 18.39581,-33.89692,0 18.39644,-33.89658,0 18.39712,-33.89627,0 18.39818,-33.89584,0 18.3989,-33.89557,0 18.39975,-33.89529,0 18.40073,-33.89492,0 18.40176,-33.89452,0 18.4026,-33.89415,0 18.40339,-33.89383,0 18.40427,-33.89352,0 18.40513,-33.89319,0 18.40593,-33.89291,0 18.40692,-33.89259,0 18.40776,-33.89231,0 18.40877,-33.892,0 18.40977,-33.8917,0 18.41056,-33.89145,0 18.41163,-33.89108,0 18.4124,-33.89087,0 18.41349,-33.89054,0 18.41438,-33.8903,0 18.41503,-33.89012,0 18.41583,-33.88989,0 18.41669,-33.88966,0 18.41761,-33.88938,0 18.41841,-33.88911,0 18.41927,-33.88882,0 18.4202,-33.88852,0 18.42105,-33.8882,0 18.42177,-33.88797,0 18.42253,-33.8877,0 18.4234,-33.88742,0 18.42476,-33.88691,0 18.42558,-33.8866,0 18.42625,-33.88635,0 18.4271,-33.88607,0 18.42794,-33.88582,0 18.42865,-33.88565,0 18.42951,-33.88547,0 18.43025,-33.88537,0 18.43111,-33.88542,0 18.4318,-33.88551,0 18.43248,-33.88579,0 18.43338,-33.88641,0 18.4338,-33.88705,0 18.43399,-33.88783,0 18.43403,-33.88835,0 18.4336,-33.88943,0 18.4331,-33.89003,0 18.43243,-33.89054,0 18.43163,-33.89101,0 18.4306,-33.89147,0 18.43002,-33.89175,0 18.42899,-33.89208,0 18.42831,-33.89231,0 18.42738,-33.89259,0 18.42659,-33.89282,0 18.42585,-33.89305,0 18.42525,-33.89328,0 18.42447,-33.89355,0 18.42373,-33.8938,0 18.42316,-33.89408,0 18.42281,-33.89436,0 18.42264,-33.89473,0 18.42267,-33.89507,0 18.4229,-33.89548,0 18.42321,-33.89576,0 18.42362,-33.89607,0 18.42396,-33.8963,0 18.42441,-33.89658,0 18.4247,-33.89678,0 18.42499,-33.89701,0 18.42522,-33.89724,0 18.42542,-33.89735,0 18.4257,-33.89763,0 18.42602,-33.8979,0 18.42625,-33.89808,0 18.42648,-33.89832,0 18.42671,-33.89859,0 18.42687,-33.89882,0 18.4271,-33.89915,0 18.42722,-33.89943,0 18.42722,-33.89967,0 18.42722,-33.89999,0 18.42715,-33.90019,0 18.4271,-33.90041,0 18.42733,-33.90055,0 18.4276,-33.90079,0 18.42934,-33.90144,0 18.42957,-33.90148,0 18.42979,-33.90153,0 18.43029,-33.90161,0 18.43052,-33.90161,0 18.43102,-33.90161,0 18.43163,-33.90153,0 18.43209,-33.90147,0 18.43248,-33.90139,0 18.43293,-33.90129,0 18.43334,-33.90115,0 18.43394,-33.90092,0 18.43431,-33.90074,0 18.43467,-33.90051,0 18.43511,-33.90019,0 18.43551,-33.89987,0 18.43579,-33.8996,0 18.43607,-33.89928,0 18.43629,-33.89896,0 18.43649,-33.89855,0 18.43666,-33.89822,0 18.43678,-33.89799,0 18.43713,-33.89708,0 18.43729,-33.89673,0 18.43741,-33.89639,0 18.43775,-33.8952,0 18.43797,-33.89438,0 18.43815,-33.89329,0 18.4382,-33.89241,0 18.43821,-33.8917,0 18.43809,-33.89045,0 18.43798,-33.88975,0 18.43781,-33.88868,0 18.43764,-33.8876,0 18.43736,-33.88646,0 18.43712,-33.88575,0 18.4368,-33.88463,0 18.43655,-33.88393,0 18.43612,-33.8828,0 18.43567,-33.88197,0 18.43511,-33.88092,0 18.4345,-33.88005,0 18.43374,-33.87914,0 18.43311,-33.87844,0 18.4322,-33.87762,0 18.43119,-33.87685,0 18.43031,-33.87634,0 18.42922,-33.87588,0 18.42822,-33.87561,0 18.42693,-33.87546,0 18.42567,-33.87537,0 18.42459,-33.87537,0 18.42323,-33.87547,0 18.42213,-33.87564,0 18.42093,-33.87583,0 18.41984,-33.87611,0 18.41835,-33.87653,0 18.41695,-33.87694,0 18.41533,-33.87744,0 18.41421,-33.87781,0 18.41309,-33.87816,0 18.41183,-33.87858,0 18.41074,-33.8789,0 18.40939,-33.87927,0 18.40832,-33.87959,0 18.40698,-33.87996,0 18.40602,-33.88028,0 18.4049,-33.88058,0 18.40372,-33.88097,0 18.40239,-33.88137,0 18.40132,-33.8817,0 18.39993,-33.88211,0 18.39862,-33.88248,0 18.39739,-33.88289,0 18.39638,-33.88326,0 18.39489,-33.88384,0 18.39357,-33.88435,0 18.3924,-33.88486,0 18.39106,-33.88545,0 18.38991,-33.88598,0 18.38865,-33.88663,0 18.3873,-33.88733,0 18.38629,-33.88792,0 18.38511,-33.88858,0 18.38383,-33.88939,0 18.38282,-33.89003,0 18.38173,-33.89077,0 18.38081,-33.89152,0 18.37945,-33.89268,0 18.3785,-33.89351,0 18.37761,-33.89429,0 18.37658,-33.89529,0 18.37595,-33.89594,0 18.37498,-33.89692,0 18.37396,-33.89804,0 18.3732,-33.89883,0 18.37234,-33.89978,0 18.37154,-33.90064,0 18.37049,-33.90175,0 18.36966,-33.9026,0 18.36886,-33.90344,0 18.36805,-33.90427,0 18.36712,-33.90518,0 18.36622,-33.90609,0 18.36539,-33.90692,0 18.36208,-33.9104,0 18.36124,-33.91136,0 18.36044,-33.91228,0 18.35953,-33.91344,0 18.35888,-33.91429,0 18.35798,-33.91545,0 18.35724,-33.91647,0 18.35644,-33.91763,0 18.35569,-33.91859,0 18.35501,-33.91959,0 18.35421,-33.92071,0 18.35352,-33.92168,0 18.35283,-33.92262,0 18.35203,-33.92373,0 18.35129,-33.92476,0 18.35059,-33.92574,0 18.3486,-33.92881,0 18.34638,-33.93219,0 18.34448,-33.93523,0 18.34253,-33.93826,0 18.34184,-33.93942,0 18.33996,-33.94235,0 18.33781,-33.94579,0 18.33607,-33.94885,0 18.33562,-33.94972,0 18.33355,-33.95334,0 18.33287,-33.95448,0 18.33237,-33.9554,0 18.3317,-33.95654,0 18.33109,-33.95758,0 18.33041,-33.95874,0 18.32968,-33.95993,0 18.3289,-33.96112,0 18.32744,-33.96346,0 18.32726,-33.96368,0 18.32424,-33.96835,0 18.32365,-33.96926,0 18.32183,-33.9722,0 18.31947,-33.97592,0 18.31757,-33.97902,0 18.31595,-33.98199,0 18.31454,-33.9847,0 18.31398,-33.98584,0 18.31352,-33.98686,0 18.31292,-33.98804,0 18.31232,-33.98914,0 18.31169,-33.99039,0 18.31118,-33.99147,0 18.31057,-33.99266,0 18.30984,-33.99403,0 18.30922,-33.99527,0 18.30866,-33.9964,0 18.30816,-33.99738,0 18.30751,-33.99878,0 18.30694,-34.00003,0 18.30642,-34.00108,0 18.30597,-34.00209,0 18.30552,-34.0031,0 18.30429,-34.00562,0 18.30368,-34.00678,0 18.30196,-34.01014,0 18.30053,-34.01302,0 18.2995,-34.01535,0 18.29896,-34.01665,0 18.29846,-34.01802,0 18.29807,-34.01889,0 18.29762,-34.02028,0 18.29728,-34.02118,0 18.29689,-34.02237,0 18.29647,-34.02368,0 18.29616,-34.0247,0 18.29578,-34.02601,0 18.29543,-34.02736,0 18.2951,-34.02864,0 18.29493,-34.02969,0 18.2947,-34.03071,0 18.29448,-34.03217,0 18.29435,-34.0335,0 18.29418,-34.03476,0 18.29412,-34.03592,0 18.29412,-34.03695,0 18.29414,-34.03793,0 18.2942,-34.03931,0 18.29431,-34.04022,0 18.29447,-34.04142,0 18.2947,-34.04244,0 18.29504,-34.04384,0 18.29538,-34.04491,0 18.29577,-34.04617,0 18.29624,-34.04747,0 18.29667,-34.04855,0 18.2971,-34.04956,0 18.29767,-34.05096,0 18.2983,-34.05222,0 18.29885,-34.05341,0 18.29945,-34.0545,0 18.30002,-34.05561,0 18.30064,-34.05675,0 18.30122,-34.05766,0 18.30177,-34.05858,0 18.30236,-34.05962,0 18.303,-34.06073,0 18.3035,-34.06151,0 18.30425,-34.06269,0 18.30496,-34.06375,0 18.30552,-34.06462,0 18.30626,-34.06572,0 18.30694,-34.06679,0 18.30751,-34.06763,0 18.30838,-34.06897,0 18.30889,-34.06981,0 18.30963,-34.07098,0 18.31026,-34.07205,0 18.3109,-34.07304,0 18.31146,-34.07401,0 18.31208,-34.07487,0 18.31289,-34.076,0 18.31358,-34.07703,0 18.31466,-34.07854,0 18.31558,-34.07978,0 18.31617,-34.08055,0 18.31684,-34.08151,0 18.3174,-34.08229,0 18.31813,-34.08321,0 18.31886,-34.08421,0 18.31965,-34.08522,0 18.32032,-34.08604,0 18.3211,-34.08705,0 18.32178,-34.08788,0 18.32285,-34.08913,0 18.32359,-34.08997,0 18.32445,-34.09095,0 18.32514,-34.09169,0 18.32611,-34.09272,0 18.32688,-34.09355,0 18.3276,-34.0943,0 18.32845,-34.09511,0 18.32923,-34.09589,0 18.33046,-34.09708,0 18.33136,-34.0979,0 18.3322,-34.09863,0 18.33327,-34.0995,0 18.33412,-34.10017,0 18.33538,-34.1011,0 18.33641,-34.10184,0 18.33747,-34.10262,0 18.33899,-34.10357,0 18.34019,-34.10435,0 18.34156,-34.10513,0 18.34285,-34.10587,0 18.34409,-34.10655,0 18.34526,-34.10719,0 18.34638,-34.10779,0 18.34768,-34.10845,0 18.34891,-34.10907,0 18.35036,-34.1098,0 18.35148,-34.11035,0 18.35311,-34.11113,0 18.35451,-34.11172,0 18.35569,-34.11223,0 18.35718,-34.11287,0 18.35838,-34.11337,0 18.35987,-34.11395,0 18.36107,-34.11441,0 18.36269,-34.11502,0 18.36415,-34.11552,0 18.36555,-34.11603,0 18.3669,-34.11649,0 18.36796,-34.11685,0 18.36954,-34.11739,0 18.37082,-34.11786,0 18.37234,-34.11837,0 18.37357,-34.11877,0 18.37475,-34.11914,0 18.37618,-34.11958,0 18.37738,-34.11996,0 18.37889,-34.12042,0 18.38024,-34.12083,0 18.38202,-34.12135,0 18.38362,-34.12181,0 18.38534,-34.1223,0 18.38674,-34.12267,0 18.38831,-34.12308,0 18.38926,-34.12331,0 18.39083,-34.12372,0 18.39195,-34.12399,0 18.39346,-34.12442,0 18.39487,-34.12477,0 18.39616,-34.12514,0 18.39762,-34.1255,0 18.39913,-34.12592,0 18.40053,-34.12633,0 18.40311,-34.12706,0 18.40726,-34.12825,0 18.4124,-34.12973,0 18.41645,-34.13095,0 18.4178,-34.13141,0 18.41892,-34.13177,0 18.42041,-34.13229,0 18.42184,-34.1328,0 18.42333,-34.13336,0 18.42475,-34.13393,0 18.42579,-34.13433,0 18.42728,-34.13494,0 18.42861,-34.13548,0 18.43025,-34.1362,0 18.43174,-34.13676,0 18.43293,-34.13718,0 18.43394,-34.1375,0 18.43551,-34.13795,0 18.43649,-34.13824,0 18.43798,-34.13862,0 18.43909,-34.13882,0 18.44061,-34.1391,0 18.44204,-34.13932,0 18.44324,-34.13937,0 18.44421,-34.13941,0 18.4456,-34.13937,0 18.44689,-34.13924,0 18.44823,-34.13896,0 18.44941,-34.13869,0 18.45057,-34.13834,0 18.45182,-34.13787,0 18.45271,-34.1375,0 18.4536,-34.13708,0 18.45473,-34.13654,0 18.45583,-34.13587,0 18.45675,-34.13531,0 18.45787,-34.13452,0 18.45875,-34.13387,0 18.45972,-34.1331,0 18.46052,-34.13238,0 18.46127,-34.13163,0 18.46195,-34.13094,0 18.46281,-34.13005,0 18.4635,-34.12931,0 18.46437,-34.12839,0 18.4651,-34.12752,0 18.46579,-34.12675,0 18.46645,-34.12596,0 18.46716,-34.12503,0 18.46785,-34.12409,0 18.46853,-34.12312,0 18.46903,-34.12234,0 18.46956,-34.12153,0 18.47015,-34.12056,0 18.47065,-34.11981,0 18.47128,-34.11869,0 18.47189,-34.11772,0 18.47239,-34.11685,0 18.47278,-34.11603,0 18.47318,-34.1152,0 18.47351,-34.11436,0 18.47397,-34.11329,0 18.47425,-34.1125,0 18.47452,-34.11172,0 18.47474,-34.1109,0 18.475,-34.10985,0 18.47517,-34.10901,0 18.47534,-34.10803,0 18.47546,-34.10729,0 18.47553,-34.10641,0 18.47563,-34.10552,0 18.47564,-34.10463,0 18.47563,-34.10366,0 18.47564,-34.10239,0 18.47563,-34.10156,0 18.47557,-34.1004,0 18.47557,-34.09951,0 18.47551,-34.09835,0 18.47542,-34.09749,0 18.4754,-34.09649,0 18.47528,-34.09537,0 18.47519,-34.09442,0 18.47502,-34.09328,0 18.47491,-34.09236,0 18.47471,-34.09118,0 18.47452,-34.09007,0 18.47431,-34.0889,0 18.47413,-34.08788,0 18.47396,-34.08682,0 18.47368,-34.0854,0 18.47351,-34.08443,0 18.47334,-34.08336,0 18.47318,-34.08247,0 18.473,-34.0815,0 18.47278,-34.08018,0 18.47267,-34.07932,0 18.47242,-34.07805,0 18.47228,-34.07712,0 18.47208,-34.076,0 18.47194,-34.07497,0 18.47179,-34.07386,0 18.47166,-34.07268,0 18.47157,-34.07186,0 18.47138,-34.07066,0 18.47128,-34.06958,0 18.47116,-34.0687,0 18.47099,-34.06659,0 18.47088,-34.06572,0 18.47082,-34.0648,0 18.47076,-34.06367,0 18.47076,-34.06292,0 18.4706,-34.06059,0 18.47054,-34.05952,0 18.47048,-34.05855,0 18.47037,-34.05725,0 18.47026,-34.05606,0 18.47013,-34.05501,0 18.47002,-34.05352,0 18.46991,-34.05254,0 18.46985,-34.05157,0 18.46981,-34.05034,0 18.4697,-34.04919,0 18.46968,-34.0484,0 18.46959,-34.04736,0 18.46953,-34.04626,0 18.46942,-34.04503,0 18.46933,-34.04407,0 18.46931,-34.04297,0 18.46922,-34.04202,0 18.46916,-34.0409,0 18.4691,-34.03979,0 18.46908,-34.03894,0 18.46914,-34.03697,0 18.46914,-34.0356,0 18.46919,-34.0345,0 18.46925,-34.03349,0 18.46928,-34.03239,0 18.46931,-34.03152,0 18.46928,-34.02954,0 18.46928,-34.02861,0 18.46933,-34.02778,0 18.46939,-34.0268,0 18.46942,-34.02589,0 18.46951,-34.0248,0 18.46956,-34.02391,0 18.46959,-34.02296,0 18.46973,-34.01907,0 18.46976,-34.01797,0 18.46973,-34.01693,0 18.46976,-34.0161,0 18.46991,-34.01498,0 18.46998,-34.01404,0 18.47008,-34.01307,0 18.47019,-34.01218,0 18.47025,-34.01102,0 18.47036,-34.01023,0 18.47048,-34.00905,0 18.4706,-34.00832,0 18.47076,-34.00722,0 18.47088,-34.00621,0 18.47105,-34.00515,0 18.47116,-34.0042,0 18.47128,-34.00311,0 18.47139,-34.00227,0 18.47151,-34.00119,0 18.47194,-33.99815,0 18.47211,-33.99696,0 18.47231,-33.99598,0 18.47248,-33.99496,0 18.47265,-33.99407,0 18.47289,-33.99294,0 18.47305,-33.99207,0 18.47328,-33.991,0 18.47345,-33.99012,0 18.4738,-33.98895,0 18.47396,-33.98813,0 18.47429,-33.98694,0 18.47448,-33.98616,0 18.4748,-33.98506,0 18.47508,-33.98419,0 18.47547,-33.98305,0 18.47575,-33.98222,0 18.47609,-33.98131,0 18.47631,-33.98057,0 18.47666,-33.9796,0 18.47706,-33.97866,0 18.47732,-33.97787,0 18.47775,-33.97685,0 18.47799,-33.97609,0 18.47832,-33.97527,0 18.47878,-33.9741,0 18.479,-33.9735,0 18.4794,-33.97247,0 18.47969,-33.97173,0 18.48001,-33.97087,0 18.48032,-33.97015,0 18.48061,-33.96917,0 18.48083,-33.96847,0 18.48113,-33.96748,0 18.48136,-33.96661,0 18.48152,-33.96596,0 18.48175,-33.96506,0 18.48198,-33.96428,0 18.48215,-33.96344,0 18.48231,-33.96263,0 18.48244,-33.96209,0 18.48255,-33.96107,0 18.48255,-33.96051,0 18.48249,-33.95953,0 18.48238,-33.95865,0 18.4822,-33.95769,0 18.48192,-33.95669,0 18.48164,-33.95572,0 18.48141,-33.95499,0 18.48108,-33.95416,0 18.48066,-33.95311,0 18.48038,-33.95227,0 18.48007,-33.95151,0 18.47968,-33.95064,0 18.47918,-33.94962,0 18.47872,-33.94862,0 18.47815,-33.94748,0 18.47775,-33.94668,0 18.47721,-33.94565,0 18.47676,-33.94478,0 18.47609,-33.94361,0 18.47558,-33.94267,0 18.47514,-33.9418,0 18.47463,-33.94089,0 18.47401,-33.93974,0 18.47351,-33.93883,0 18.47301,-33.93791,0 18.47245,-33.93704,0 18.47177,-33.93599,0 18.47099,-33.93491,0 18.4702,-33.93384,0 18.46928,-33.93267,0 18.46858,-33.93178,0 18.46785,-33.93085,0 18.46712,-33.92995,0 18.46645,-33.92912,0 18.46556,-33.92802,0 18.46471,-33.92706,0 18.46409,-33.92638,0 18.46315,-33.92532,0 18.46235,-33.92448,0 18.46132,-33.92345,0 18.46052,-33.92262,0 18.4595,-33.92162,0 18.45843,-33.92061,0 18.45742,-33.91965,0 18.45634,-33.9187,0 18.45557,-33.918,0 18.45428,-33.91693,0 18.45348,-33.91619,0 18.4526,-33.91539,0 18.45188,-33.91452,0 18.45102,-33.9134,0 18.45039,-33.91247,0 18.44965,-33.9114,0 18.44902,-33.91031,0 18.4484,-33.90935,0 18.44759,-33.908,0 18.44707,-33.90711,0 18.44639,-33.906,0 18.44582,-33.90504,0 18.44507,-33.90381,0 18.44439,-33.9026,0 18.4437,-33.90139,0 18.44324,-33.9007,0 18.4425,-33.89939,0 18.44175,-33.89822,0 18.44106,-33.89717,0 18.44027,-33.89616,0 18.43946,-33.89534,0 18.43861,-33.89468,0 18.43769,-33.89413,0 18.43643,-33.89371,0 18.43534,-33.89357,0 18.43427,-33.89365,0 18.43282,-33.89392,0 18.43186,-33.89429,0 18.43088,-33.89482,0 18.43007,-33.89543,0 18.42973,-33.89575,0 18.42939,-33.89608,0 18.42917,-33.89639,0 18.42872,-33.89685,0 18.42813,-33.89738,0 18.42749,-33.89777,0 18.42721,-33.89786,0 18.42699,-33.89799,0 18.42676,-33.89818,0 18.42654,-33.89841,0 18.42653,-33.89883,0 18.42665,-33.89906,0 18.42687,-33.89937,0 18.42705,-33.89962,0 18.42716,-33.90009,0 18.42721,-33.90033,0 18.42733,-33.90055,0</coordinates>
      </LineString>
    </Placemark>
  </Document>
</kml>
