<?xml version="1.0" encoding="UTF-8"?>
<kml xmlns="http://www.opengis.net/kml/2.2">
  <Document>
    <name>FR24 3f978b84</name>
    <Placemark>
      <name>FR24 3f978b84</name>
      <Style><LineStyle><color>ff0000ff</color><width>4</width></LineStyle></Style>
      <LineString>
        <tessellate>1</tessellate>
        <coordinates>18.43145,-33.90092,0 18.43397,-33.90083,0 18.43483,-33.90074,0 18.43567,-33.90056,0 18.43649,-33.90036,0 18.43724,-33.9001,0 18.43814,-33.89969,0 18.43887,-33.89923,0 18.43943,-33.89886,0 18.44032,-33.89817,0 18.44106,-33.89735,0 18.44156,-33.89667,0 18.44195,-33.89589,0 18.44229,-33.89493,0 18.4424,-33.89415,0 18.4424,-33.89328,0 18.44223,-33.89232,0 18.44193,-33.89152,0 18.44134,-33.89044,0 18.44084,-33.88956,0 18.44033,-33.88884,0 18.43964,-33.88789,0 18.43909,-33.88724,0 18.43831,-33.88641,0 18.43752,-33.88584,0 18.43637,-33.88533,0 18.4354,-33.88509,0 18.43443,-33.88496,0 18.43328,-33.88477,0 18.43237,-33.88449,0 18.4314,-33.88421,0 18.43054,-33.88388,0 18.42962,-33.88351,0 18.42867,-33.88312,0 18.42766,-33.88271,0 18.42676,-33.88234,0 18.42575,-33.88197,0 18.42475,-33.88152,0 18.42385,-33.8811,0 18.42295,-33.88069,0 18.42205,-33.88028,0 18.42099,-33.87978,0 18.41998,-33.87927,0 18.41908,-33.87886,0 18.41818,-33.87835,0 18.41726,-33.87778,0 18.41675,-33.87746,0 18.41572,-33.87666,0 18.41515,-33.8762,0 18.41429,-33.87541,0 18.4137,-33.87483,0 18.41309,-33.8742,0 18.41224,-33.87346,0 18.41166,-33.87299,0 18.4109,-33.87254,0 18.41028,-33.87231,0 18.40967,-33.87209,0 18.40888,-33.8719,0 18.40822,-33.87187,0 18.40771,-33.87186,0 18.40708,-33.87192,0 18.40656,-33.87206,0 18.40622,-33.87215,0 18.40588,-33.87243,0 18.40588,-33.87271,0 18.40608,-33.87282,0 18.40642,-33.87286,0 18.4067,-33.87286,0 18.40703,-33.87286,0 18.40736,-33.87294,0 18.40782,-33.87323,0 18.40821,-33.87355,0 18.4086,-33.87387,0 18.40905,-33.87428,0 18.40937,-33.87471,0 18.4095,-33.87529,0 18.40937,-33.87592,0 18.40894,-33.87675,0 18.40843,-33.87735,0 18.40748,-33.87799,0 18.40658,-33.87849,0 18.40565,-33.8789,0 18.40429,-33.87946,0 18.40356,-33.87968,0 18.4025,-33.88007,0 18.40118,-33.88049,0 18.40021,-33.88081,0 18.39913,-33.8811,0 18.39806,-33.88142,0 18.39722,-33.8817,0 18.39593,-33.88206,0 18.39492,-33.88239,0 18.39386,-33.88272,0 18.39266,-33.88309,0 18.39173,-33.88339,0 18.39048,-33.88384,0 18.38943,-33.88417,0 18.38837,-33.88454,0 18.38705,-33.88505,0 18.38607,-33.88541,0 18.38516,-33.88575,0 18.38405,-33.88618,0 18.38304,-33.8866,0 18.38203,-33.88701,0 18.38114,-33.88737,0 18.38007,-33.88783,0 18.37887,-33.88835,0 18.3779,-33.88877,0 18.37664,-33.88933,0 18.37595,-33.88966,0 18.37452,-33.89026,0 18.3732,-33.89087,0 18.37256,-33.89117,0 18.37126,-33.8918,0 18.37046,-33.89212,0 18.36959,-33.89255,0 18.36875,-33.89296,0 18.36768,-33.89346,0 18.3669,-33.89383,0 18.36605,-33.89431,0 18.36542,-33.89464,0 18.36456,-33.8951,0 18.36376,-33.89557,0 18.36303,-33.89598,0 18.36208,-33.89658,0 18.36136,-33.89701,0 18.36034,-33.89767,0 18.35967,-33.89813,0 18.35872,-33.89882,0 18.35804,-33.89932,0 18.3572,-33.90001,0 18.35661,-33.90046,0 18.35569,-33.90125,0 18.35506,-33.90181,0 18.35434,-33.90244,0 18.35358,-33.90316,0 18.35294,-33.90381,0 18.35205,-33.90468,0 18.35143,-33.90536,0 18.3506,-33.90623,0 18.35003,-33.90688,0 18.34935,-33.9077,0 18.34877,-33.90842,0 18.34791,-33.90939,0 18.34728,-33.91019,0 18.34654,-33.91116,0 18.34599,-33.91191,0 18.34539,-33.9127,0 18.34454,-33.91382,0 18.34391,-33.9147,0 18.3433,-33.91557,0 18.34263,-33.91658,0 18.34184,-33.91768,0 18.34123,-33.91859,0 18.34061,-33.91946,0 18.33973,-33.92052,0 18.33915,-33.92116,0 18.33809,-33.92194,0 18.33704,-33.92257,0 18.33601,-33.92299,0 18.33492,-33.92331,0 18.33355,-33.92349,0 18.33243,-33.92354,0 18.33114,-33.92345,0 18.32996,-33.92313,0 18.3288,-33.92262,0 18.32788,-33.92192,0 18.32705,-33.92107,0 18.32654,-33.92029,0 18.32617,-33.9194,0 18.32604,-33.91832,0 18.32609,-33.91745,0 18.32632,-33.9164,0 18.32674,-33.9154,0 18.32727,-33.91457,0 18.32777,-33.91386,0 18.32851,-33.91307,0 18.32923,-33.91237,0 18.33007,-33.91159,0 18.33086,-33.911,0 18.33218,-33.91023,0 18.33315,-33.90981,0 18.33401,-33.90958,0 18.3354,-33.90944,0 18.33641,-33.90949,0 18.33761,-33.90977,0 18.33864,-33.91014,0 18.33966,-33.91072,0 18.34064,-33.91158,0 18.34127,-33.91237,0 18.34179,-33.91321,0 18.34218,-33.91429,0 18.3423,-33.91535,0 18.34224,-33.91653,0 18.34201,-33.91754,0 18.34162,-33.91855,0 18.34117,-33.91951,0 18.34053,-33.92061,0 18.33999,-33.92148,0 18.33939,-33.92248,0 18.33876,-33.92354,0 18.33807,-33.92476,0 18.33758,-33.92555,0 18.33698,-33.92671,0 18.33664,-33.92741,0 18.33607,-33.92857,0 18.33545,-33.92981,0 18.33504,-33.93067,0 18.3345,-33.93201,0 18.33412,-33.93281,0 18.33344,-33.9343,0 18.33304,-33.93521,0 18.33265,-33.93617,0 18.33226,-33.93718,0 18.33183,-33.93835,0 18.33149,-33.93919,0 18.33108,-33.94034,0 18.33063,-33.94161,0 18.3304,-33.94226,0 18.32962,-33.94441,0 18.32918,-33.94565,0 18.32851,-33.94752,0 18.32811,-33.94873,0 18.32783,-33.94954,0 18.32663,-33.95287,0 18.32536,-33.95654,0 18.32365,-33.96135,0 18.32166,-33.96671,0 18.32016,-33.97042,0 18.31856,-33.97429,0 18.31701,-33.97792,0 18.31541,-33.9815,0 18.31376,-33.98524,0 18.3123,-33.98863,0 18.31146,-33.99086,0 18.31106,-33.99189,0 18.31015,-33.99412,0 18.30975,-33.9951,0 18.30935,-33.99607,0 18.30877,-33.99733,0 18.30837,-33.99845,0 18.30797,-33.99938,0 18.30759,-34.00035,0 18.30717,-34.00129,0 18.3067,-34.00241,0 18.30643,-34.00306,0 18.30608,-34.00394,0 18.30574,-34.00469,0 18.30534,-34.00566,0 18.30502,-34.00639,0 18.30479,-34.00699,0 18.30448,-34.00767,0 18.30412,-34.00845,0 18.3039,-34.00905,0 18.30356,-34.00983,0 18.30322,-34.01056,0 18.30299,-34.0112,0 18.30271,-34.012,0 18.30248,-34.0126,0 18.30225,-34.01325,0 18.30191,-34.01405,0 18.3016,-34.01491,0 18.30137,-34.0155,0 18.30111,-34.01633,0 18.30081,-34.01706,0 18.30053,-34.018,0 18.30025,-34.0187,0 18.29996,-34.01972,0 18.29967,-34.02061,0 18.29939,-34.02149,0 18.29902,-34.02246,0 18.29857,-34.02361,0 18.29823,-34.02452,0 18.29784,-34.02536,0 18.2975,-34.02643,0 18.29727,-34.02736,0 18.29706,-34.02827,0 18.29693,-34.02913,0 18.29681,-34.03024,0 18.29676,-34.03108,0 18.2967,-34.03215,0 18.29678,-34.03299,0 18.29683,-34.03381,0 18.297,-34.03468,0 18.29723,-34.03551,0 18.2975,-34.03633,0 18.29784,-34.03729,0 18.29829,-34.03821,0 18.2987,-34.039,0 18.29913,-34.0399,0 18.29958,-34.04063,0 18.29992,-34.04128,0 18.30036,-34.04211,0 18.30081,-34.04288,0 18.30137,-34.04366,0 18.30208,-34.0444,0 18.30272,-34.04489,0 18.30345,-34.04538,0 18.30418,-34.04572,0 18.30496,-34.04599,0 18.30591,-34.04617,0 18.30698,-34.04617,0 18.30774,-34.04602,0 18.30843,-34.04579,0 18.309,-34.04544,0 18.30975,-34.04482,0 18.31015,-34.0443,0 18.31045,-34.04379,0 18.31072,-34.04319,0 18.3109,-34.04233,0 18.31095,-34.04169,0 18.31095,-34.041,0 18.31085,-34.04031,0 18.31068,-34.03954,0 18.3104,-34.03889,0 18.30978,-34.03825,0 18.30889,-34.03783,0 18.30774,-34.03788,0 18.30683,-34.03835,0 18.30619,-34.03899,0 18.30563,-34.04018,0 18.30541,-34.04114,0 18.3054,-34.04239,0 18.30552,-34.04356,0 18.30568,-34.04463,0 18.30597,-34.04604,0 18.3062,-34.04724,0 18.30648,-34.04868,0 18.30675,-34.04988,0 18.30703,-34.05098,0 18.30723,-34.05208,0 18.30757,-34.05357,0 18.30786,-34.05473,0 18.30816,-34.05611,0 18.30855,-34.05762,0 18.30883,-34.0589,0 18.30916,-34.06013,0 18.31034,-34.06499,0 18.31146,-34.07021,0 18.31186,-34.07247,0 18.31198,-34.07363,0 18.31214,-34.07492,0 18.3123,-34.07607,0 18.31244,-34.07717,0 18.31253,-34.07826,0 18.31266,-34.07954,0 18.31275,-34.08073,0 18.31292,-34.08197,0 18.31303,-34.08334,0 18.31314,-34.08467,0 18.31337,-34.0871,0 18.31371,-34.0919,0 18.31387,-34.0957,0 18.31387,-34.09812,0 18.31387,-34.09932,0 18.31387,-34.10044,0 18.31387,-34.10138,0 18.31382,-34.10262,0 18.31376,-34.1039,0 18.31371,-34.10495,0 18.31365,-34.10596,0 18.31352,-34.10706,0 18.31343,-34.10834,0 18.31329,-34.10966,0 18.31314,-34.1109,0 18.31301,-34.11213,0 18.31286,-34.11319,0 18.3127,-34.1142,0</coordinates>
      </LineString>
    </Placemark>
  </Document>
</kml>
