<?xml version="1.0" encoding="UTF-8"?>
<kml xmlns="http://www.opengis.net/kml/2.2">
  <Document>
    <name>FR24 4206aab2</name>
    <Placemark>
      <name>FR24 4206aab2</name>
      <Style><LineStyle><color>ff0000ff</color><width>4</width></LineStyle></Style>
      <LineString>
        <tessellate>1</tessellate>
        <coordinates>18.43128,-33.89436,0 18.43242,-33.8931,0 18.433,-33.89236,0 18.4334,-33.89185,0 18.4338,-33.89124,0 18.43409,-33.89077,0 18.4345,-33.89026,0 18.43495,-33.88953,0 18.4354,-33.88891,0 18.4358,-33.88821,0 18.43612,-33.88765,0 18.43629,-33.88719,0 18.43643,-33.88644,0 18.43643,-33.88547,0 18.43629,-33.88495,0 18.43601,-33.88431,0 18.43567,-33.88376,0 18.43523,-33.88333,0 18.43472,-33.88291,0 18.43414,-33.88253,0 18.43332,-33.88216,0 18.43248,-33.88188,0 18.43181,-33.88165,0 18.43091,-33.88152,0 18.43024,-33.88138,0 18.42917,-33.8812,0 18.42859,-33.88105,0 18.42756,-33.88076,0 18.42659,-33.88044,0 18.42602,-33.88025,0 18.42499,-33.87993,0 18.42418,-33.87968,0 18.42333,-33.87941,0 18.42233,-33.87914,0 18.42144,-33.87886,0 18.42047,-33.87858,0 18.41964,-33.87831,0 18.41863,-33.87804,0 18.4178,-33.87776,0 18.41669,-33.87746,0 18.41572,-33.87718,0 18.41457,-33.8769,0 18.4137,-33.87666,0 18.41264,-33.87639,0 18.41168,-33.87621,0 18.41051,-33.87597,0 18.4095,-33.87579,0 18.40868,-33.87569,0 18.40742,-33.8755,0 18.40658,-33.87543,0 18.40553,-33.87537,0 18.40427,-33.87532,0 18.403,-33.87529,0 18.40204,-33.87527,0 18.40084,-33.87532,0 18.39986,-33.87534,0 18.39861,-33.87546,0 18.39758,-33.8755,0 18.39621,-33.8757,0 18.39515,-33.87584,0 18.39397,-33.87607,0 18.3926,-33.87639,0 18.39167,-33.87666,0 18.39043,-33.877,0 18.38968,-33.87727,0 18.38859,-33.87772,0 18.38753,-33.87813,0 18.38635,-33.87868,0 18.38534,-33.87918,0 18.38436,-33.8797,0 18.38321,-33.88028,0 18.38231,-33.88078,0 18.38121,-33.88137,0 18.38024,-33.88193,0 18.3795,-33.88244,0 18.37841,-33.88309,0 18.37738,-33.8838,0 18.37643,-33.88445,0 18.37549,-33.88509,0 18.37458,-33.88579,0 18.37379,-33.88637,0 18.37295,-33.88701,0 18.37222,-33.8876,0 18.37133,-33.88829,0 18.37063,-33.88887,0 18.36983,-33.88956,0 18.36891,-33.89031,0 18.3683,-33.89085,0 18.36746,-33.89159,0 18.36685,-33.89217,0 18.36605,-33.89296,0 18.36533,-33.89369,0 18.36466,-33.89438,0 18.36411,-33.89496,0 18.36336,-33.8958,0 18.36281,-33.89639,0 18.36208,-33.89717,0 18.36146,-33.89781,0 18.3609,-33.8985,0 18.36012,-33.89937,0 18.35944,-33.90015,0 18.35884,-33.90088,0 18.35821,-33.90166,0 18.3577,-33.90232,0 18.35712,-33.90297,0 18.35658,-33.90372,0 18.35591,-33.90459,0 18.35535,-33.90536,0 18.35484,-33.90604,0 18.35417,-33.90697,0 18.35356,-33.90784,0 18.35294,-33.90875,0 18.35227,-33.90967,0 18.35171,-33.91054,0 18.3512,-33.91136,0 18.35066,-33.91233,0 18.35003,-33.9133,0 18.3494,-33.91442,0 18.34885,-33.91534,0 18.34837,-33.91619,0 18.34768,-33.91735,0 18.34717,-33.91824,0 18.34648,-33.91936,0 18.34588,-33.92043,0 18.34539,-33.92126,0 18.34482,-33.92238,0 18.34425,-33.92359,0 18.34386,-33.92445,0 18.34336,-33.92551,0 18.34285,-33.92651,0 18.34213,-33.92783,0 18.34139,-33.92885,0 18.3407,-33.92965,0 18.33999,-33.9304,0 18.33899,-33.93137,0 18.33831,-33.93192,0 18.33714,-33.93283,0 18.3363,-33.9336,0 18.33573,-33.93434,0 18.3354,-33.93517,0 18.33523,-33.93626,0 18.33534,-33.93723,0 18.33561,-33.93812,0 18.33624,-33.93915,0 18.33697,-33.94011,0 18.33773,-33.94086,0 18.33853,-33.94156,0 18.33943,-33.94226,0 18.34055,-33.94304,0 18.3415,-33.94361,0 18.34276,-33.94426,0 18.34386,-33.94478,0 18.34554,-33.94524,0 18.34672,-33.94537,0 18.34837,-33.94533,0 18.34951,-33.94505,0 18.35104,-33.94446,0 18.35233,-33.94368,0 18.3534,-33.94273,0 18.35401,-33.94212,0 18.35478,-33.94124,0 18.3558,-33.93997,0 18.35661,-33.93886,0 18.35724,-33.93798,0 18.35804,-33.93677,0 18.35872,-33.93562,0 18.35933,-33.93457,0 18.36016,-33.93323,0 18.36079,-33.93216,0 18.36136,-33.93118,0 18.3621,-33.93002,0 18.36275,-33.92885,0 18.36353,-33.92764,0 18.36415,-33.92661,0 18.36485,-33.9255,0 18.36554,-33.92443,0 18.36634,-33.92331,0 18.36774,-33.92125,0 18.36857,-33.92015,0 18.36937,-33.9191,0 18.37011,-33.9181,0 18.37086,-33.91722,0 18.37177,-33.91617,0 18.37257,-33.91526,0 18.37366,-33.9141,0 18.37458,-33.91312,0 18.37543,-33.91224,0 18.37648,-33.91113,0 18.37749,-33.91014,0 18.37833,-33.9093,0 18.37938,-33.90818,0 18.38036,-33.90721,0 18.38116,-33.90641,0 18.38231,-33.90523,0 18.38333,-33.90423,0 18.38648,-33.90129,0 18.38764,-33.90024,0 18.38865,-33.89934,0 18.38963,-33.8985,0 18.39095,-33.89749,0 18.39207,-33.89667,0 18.39324,-33.89584,0 18.39437,-33.89515,0 18.39569,-33.89436,0 18.39689,-33.89369,0 18.39827,-33.89301,0 18.3993,-33.89259,0 18.40055,-33.89208,0 18.40204,-33.89154,0 18.40356,-33.89099,0 18.40479,-33.89063,0 18.40633,-33.89017,0 18.40736,-33.88984,0 18.40911,-33.88934,0 18.41062,-33.88893,0 18.41191,-33.88861,0 18.41342,-33.8882,0 18.41503,-33.88784,0 18.41675,-33.88747,0 18.41824,-33.88719,0 18.4199,-33.88691,0 18.42099,-33.88678,0 18.42245,-33.88655,0 18.42419,-33.8864,0 18.42556,-33.88626,0 18.42716,-33.88617,0 18.42889,-33.88609,0 18.43029,-33.88605,0 18.43198,-33.88605,0 18.4334,-33.88607,0 18.43517,-33.88609,0 18.43652,-33.88618,0 18.43815,-33.88631,0 18.43954,-33.88646,0 18.44083,-33.88664,0 18.44229,-33.88687,0 18.44375,-33.88724,0 18.44467,-33.88765,0 18.44587,-33.88845,0 18.44661,-33.88934,0 18.44696,-33.88993,0 18.44713,-33.89073,0 18.447,-33.89191,0 18.44667,-33.89264,0 18.4461,-33.89333,0 18.44554,-33.89378,0 18.44487,-33.8942,0 18.44444,-33.89445,0 18.44369,-33.89474,0 18.44296,-33.89497,0 18.44233,-33.8952,0 18.44162,-33.89539,0 18.44107,-33.89552,0 18.4405,-33.89571,0 18.43988,-33.89589,0 18.43924,-33.89613,0 18.4387,-33.8963,0 18.43803,-33.89655,0 18.43746,-33.89673,0 18.43678,-33.89692,0 18.43629,-33.89708,0 18.43592,-33.8972,0 18.43569,-33.89724,0 18.43546,-33.89734,0 18.43512,-33.89743,0 18.43489,-33.89748,0 18.43454,-33.89762,0 18.43431,-33.89766,0 18.43399,-33.89777,0 18.43377,-33.89781,0 18.43351,-33.8979,0 18.43327,-33.89799,0 18.43277,-33.89813,0 18.43242,-33.89827,0 18.43208,-33.89836,0 18.43185,-33.89841,0 18.43142,-33.89859,0 18.43102,-33.89873,0 18.4308,-33.89877,0 18.43048,-33.89892,0 18.43018,-33.899,0 18.4299,-33.89914,0 18.42968,-33.89923,0 18.42945,-33.89934,0 18.42923,-33.89951,0 18.42878,-33.89987,0 18.42854,-33.90009,0 18.42831,-33.90036,0 18.428,-33.9006,0 18.42773,-33.90074,0 18.42739,-33.90092,0 18.42716,-33.90097,0 18.42693,-33.90102,0 18.42671,-33.9007,0 18.42659,-33.90027,0 18.42676,-33.8996,0 18.42687,-33.89932,0 18.42738,-33.89868,0 18.4276,-33.89845,0 18.42783,-33.89822,0 18.42813,-33.8979,0 18.42836,-33.89762,0 18.42867,-33.89735,0 18.42888,-33.89715,0 18.42922,-33.89682,0 18.42945,-33.89653,0 18.42968,-33.89635,0 18.43001,-33.89598,0 18.43024,-33.89575,0 18.43048,-33.89543,0 18.43102,-33.89488,0 18.4314,-33.89445,0 18.43164,-33.89415,0 18.43197,-33.8938,0 18.43242,-33.89323,0 18.43306,-33.8925,0 18.43349,-33.89191,0 18.43391,-33.89128,0 18.43433,-33.89072,0 18.43494,-33.88975,0 18.43545,-33.88893,0 18.4359,-33.88829,0 18.43632,-33.88761,0 18.43678,-33.88682,0 18.43741,-33.88564,0 18.43763,-33.88496,0 18.43775,-33.88407,0 18.43763,-33.88319,0 18.43736,-33.88234,0 18.43696,-33.88165,0 18.43646,-33.88097,0 18.4358,-33.88034,0 18.43506,-33.87987,0 18.43422,-33.87936,0 18.43328,-33.87895,0 18.43254,-33.87862,0 18.43157,-33.8783,0 18.43065,-33.87797,0 18.42991,-33.87774,0 18.42911,-33.87751,0 18.42802,-33.87723,0 18.42732,-33.87708,0 18.4263,-33.87676,0 18.4255,-33.87658,0 18.42463,-33.87634,0 18.42384,-33.87616,0 18.42276,-33.87592,0 18.4219,-33.87574,0 18.42104,-33.87555,0 18.41984,-33.87537,0 18.41898,-33.87523,0 18.41802,-33.87506,0 18.41701,-33.87488,0 18.41583,-33.87469,0 18.41475,-33.87453,0 18.41359,-33.87437,0 18.41263,-33.8742,0 18.41163,-33.8741,0 18.41034,-33.87396,0 18.40939,-33.87387,0 18.40821,-33.87383,0 18.4072,-33.87378,0 18.40611,-33.87374,0 18.40468,-33.87369,0 18.40376,-33.87369,0 18.40244,-33.87374,0 18.4012,-33.87373,0 18.4001,-33.87378,0 18.39867,-33.87378,0 18.39735,-33.87387,0 18.39633,-33.87392,0 18.39495,-33.87406,0 18.39392,-33.87419,0 18.39249,-33.87439,0 18.3914,-33.87457,0 18.39027,-33.87483,0 18.38915,-33.87506,0 18.38785,-33.87546,0 18.38654,-33.87588,0 18.38556,-33.87625,0 18.38442,-33.87676,0 18.38349,-33.87721,0 18.38259,-33.87769,0 18.38142,-33.87836,0 18.38053,-33.87895,0 18.37962,-33.87959,0 18.37875,-33.88025,0 18.37767,-33.88105,0 18.37687,-33.88169,0 18.37587,-33.88252,0 18.37503,-33.88323,0 18.37391,-33.88422,0 18.37312,-33.88495,0 18.37234,-33.88564,0 18.37137,-33.88659,0 18.3704,-33.88747,0 18.3696,-33.88831,0 18.36858,-33.8893,0 18.36796,-33.88989,0 18.36701,-33.8909,0 18.36617,-33.89182,0 18.36536,-33.89268,0 18.36454,-33.89369,0 18.36376,-33.89464,0 18.36292,-33.89561,0 18.36227,-33.89645,0 18.36152,-33.89745,0 18.3609,-33.89822,0 18.36006,-33.89932,0 18.35933,-33.90033,0 18.35878,-33.90111,0 18.35798,-33.90223,0 18.35747,-33.90302,0 18.35675,-33.90408,0 18.35615,-33.90497,0 18.35546,-33.9061,0 18.35489,-33.90702,0 18.35426,-33.90805,0 18.35356,-33.90912,0 18.35289,-33.91017,0 18.3522,-33.91121,0 18.35165,-33.91214,0 18.35104,-33.91315,0 18.35049,-33.91405,0 18.34986,-33.91516,0 18.34934,-33.91615,0 18.34891,-33.91708,0 18.34843,-33.91805,0 18.3479,-33.91914,0 18.34751,-33.92006,0 18.347,-33.9212,0 18.34648,-33.92234,0 18.3461,-33.92308,0 18.34539,-33.92424,0 18.34492,-33.92487,0 18.34392,-33.92601,0 18.34322,-33.9268,0 18.34246,-33.92784,0 18.34185,-33.92871,0 18.34123,-33.92972,0 18.34082,-33.93053,0 18.3403,-33.9316,0 18.33979,-33.93239,0 18.3391,-33.9332,0 18.33837,-33.93379,0 18.33721,-33.93449,0 18.33624,-33.935,0 18.33523,-33.93562,0 18.33458,-33.93621,0 18.33405,-33.93713,0 18.33383,-33.93823,0 18.33401,-33.93919,0 18.33467,-33.94034,0 18.33544,-33.94124,0 18.33601,-33.94171,0 18.33753,-33.94267,0 18.33876,-33.94328,0 18.33984,-33.94366,0 18.3415,-33.94412,0 18.34259,-33.94422,0 18.3442,-33.94423,0 18.34545,-33.94408,0 18.34688,-33.9437,0 18.34834,-33.94308,0 18.34946,-33.94245,0 18.35083,-33.94138,0 18.35182,-33.94052,0 18.35294,-33.93933,0 18.35375,-33.93849,0 18.35468,-33.93745,0 18.35564,-33.9363,0 18.35649,-33.93533,0 18.35724,-33.93439,0 18.35815,-33.93318,0 18.35905,-33.93205,0 18.35981,-33.93104,0 18.36056,-33.93007,0 18.36142,-33.9289,0 18.3621,-33.92792,0 18.36302,-33.92667,0 18.36382,-33.92559,0 18.36473,-33.92443,0 18.36554,-33.9235,0 18.36639,-33.92249,0 18.36725,-33.92145,0 18.36823,-33.92029,0 18.36931,-33.91905,0 18.37023,-33.91792,0 18.372,-33.91594,0 18.3728,-33.91503,0 18.37378,-33.91396,0 18.37481,-33.91279,0 18.37566,-33.91182,0 18.37873,-33.90857,0 18.38254,-33.90463,0 18.38379,-33.90343,0 18.38482,-33.90246,0 18.38585,-33.90162,0 18.3868,-33.90083,0 18.38803,-33.89987,0 18.389,-33.89911,0 18.39031,-33.89817,0 18.3918,-33.89711,0 18.39317,-33.89627,0 18.39459,-33.89534,0 18.39569,-33.89468,0 18.39717,-33.89383,0 18.39867,-33.89301,0 18.39975,-33.8925,0 18.40124,-33.89175,0 18.40296,-33.89091,0 18.4045,-33.89026,0 18.40576,-33.88975,0 18.40714,-33.88924,0 18.40857,-33.88868,0 18.40982,-33.88821,0 18.41143,-33.88765,0 18.41281,-33.88719,0 18.41417,-33.88672,0 18.41589,-33.88614,0 18.41695,-33.88582,0 18.41864,-33.88537,0 18.42024,-33.88505,0 18.42155,-33.88477,0 18.42293,-33.88454,0 18.42442,-33.88435,0 18.42581,-33.88422,0 18.42743,-33.88412,0 18.42878,-33.88408,0 18.43041,-33.88412,0 18.4318,-33.88421,0 18.4334,-33.8844,0 18.43456,-33.88454,0 18.43637,-33.88482,0 18.43792,-33.88509,0 18.43929,-33.88537,0 18.44066,-33.88573,0 18.4421,-33.88612,0 18.44347,-33.88664,0 18.44453,-33.8871,0 18.4456,-33.88779,0 18.44644,-33.88852,0 18.44707,-33.88924,0 18.4475,-33.89003,0 18.44776,-33.89073,0 18.44793,-33.8918,0 18.44782,-33.8925,0 18.44759,-33.8931,0 18.44722,-33.89355,0 18.4465,-33.89408,0 18.44576,-33.89438,0 18.4453,-33.89455,0 18.44479,-33.89468,0 18.44427,-33.89482,0 18.44364,-33.89501,0 18.44313,-33.89516,0 18.44267,-33.89529,0 18.4421,-33.89548,0 18.4417,-33.89557,0 18.44107,-33.89576,0 18.44055,-33.89589,0 18.43998,-33.89603,0 18.43952,-33.89618,0 18.43898,-33.8963,0 18.43853,-33.89644,0 18.43809,-33.89655,0 18.43746,-33.89673,0 18.43696,-33.8969,0 18.43643,-33.89706,0 18.43597,-33.8972,0 18.43545,-33.8974,0 18.43517,-33.89748,0 18.43495,-33.89754,0 18.43472,-33.89763,0 18.43449,-33.89766,0 18.43416,-33.89777,0 18.43366,-33.8979,0 18.43338,-33.89799,0 18.43315,-33.89809,0 18.43293,-33.89813,0 18.4327,-33.89822,0 18.43242,-33.89827,0 18.43209,-33.89841,0 18.43168,-33.8985,0 18.43125,-33.89868,0 18.43041,-33.89896,0 18.43019,-33.89901,0 18.42997,-33.89906,0 18.42962,-33.8992,0 18.42939,-33.89929,0 18.42916,-33.89934,0 18.42889,-33.89941,0 18.42854,-33.89957,0 18.42825,-33.89967,0 18.42788,-33.89983,0 18.4276,-33.90001,0 18.42738,-33.90019,0 18.4271,-33.90051,0 18.42705,-33.90074,0 18.42693,-33.90097,0 18.42693,-33.90064,0 18.42722,-33.89976,0 18.42733,-33.89952,0 18.42756,-33.89925,0 18.42773,-33.89897,0 18.42796,-33.89864,0 18.42819,-33.89822,0 18.42848,-33.89785,0 18.42867,-33.89754,0 18.42889,-33.89713,0 18.42916,-33.89673,0 18.4294,-33.8963,0 18.42979,-33.89566,0 18.42996,-33.89539,0 18.43014,-33.89506,0 18.43031,-33.89478,0 18.43041,-33.89456,0 18.43071,-33.89408,0 18.43102,-33.89346,0 18.43114,-33.89314,0 18.43128,-33.89287,0 18.43145,-33.89259,0 18.4317,-33.89214,0 18.43186,-33.89182,0 18.43214,-33.89119,0 18.43231,-33.89085,0 18.43283,-33.88984,0 18.4331,-33.88925,0 18.43351,-33.88831,0 18.43374,-33.88765,0 18.43397,-33.88691,0 18.4341,-33.88614,0 18.43426,-33.88519,0 18.43433,-33.88435,0 18.43422,-33.88326,0 18.43409,-33.88253,0 18.43374,-33.8816,0 18.43328,-33.88067,0 18.43276,-33.87991,0 18.43203,-33.87914,0 18.4314,-33.87848,0 18.43069,-33.8779,0 18.42997,-33.87741,0 18.429,-33.87675,0 18.42822,-33.87625,0 18.42687,-33.87566,0 18.42615,-33.87538,0 18.42491,-33.87502,0 18.42413,-33.87488,0 18.42281,-33.87471,0 18.42155,-33.8746,0 18.42024,-33.87457,0 18.41914,-33.87451,0 18.41806,-33.87457,0 18.41681,-33.87462,0 18.4155,-33.87474,0 18.41452,-33.8749,0 18.4132,-33.87513,0 18.41208,-33.87538,0 18.41103,-33.87564,0 18.40977,-33.87597,0 18.40874,-33.8763,0 18.40782,-33.87657,0 18.40702,-33.87685,0 18.40591,-33.87726,0 18.40485,-33.87767,0 18.40395,-33.87799,0 18.40302,-33.87839,0 18.40216,-33.87877,0 18.40109,-33.87923,0 18.40015,-33.87965,0 18.39958,-33.87993,0 18.39829,-33.8806,0 18.39728,-33.8811,0 18.39621,-33.88169,0 18.39543,-33.88211,0 18.39449,-33.88268,0 18.39346,-33.88333,0 18.39263,-33.8839,0 18.39179,-33.88449,0 18.391,-33.88504,0 18.39031,-33.88556,0 18.38938,-33.88623,0 18.38837,-33.88701,0 18.38751,-33.88765,0 18.38668,-33.88829,0 18.38601,-33.88879,0 18.38505,-33.88956,0 18.38428,-33.89021,0 18.38343,-33.8909,0 18.3827,-33.89152,0 18.38196,-33.89217,0 18.38108,-33.89291,0 18.38007,-33.89378,0 18.37944,-33.89441,0 18.37873,-33.89497,0 18.37772,-33.89589,0 18.37698,-33.89659,0 18.3762,-33.89726,0 18.37547,-33.89795,0 18.37379,-33.89951,0 18.37309,-33.90022,0 18.37054,-33.90276,0 18.36987,-33.90349,0 18.36897,-33.90442,0 18.36823,-33.9052,0 18.36746,-33.90596,0 18.36679,-33.9067,0 18.36589,-33.90765,0 18.3651,-33.90857,0 18.36443,-33.90939,0 18.36376,-33.91017,0 18.36285,-33.9114,0 18.36227,-33.91224,0 18.36164,-33.91317,0 18.3609,-33.91433,0 18.36016,-33.91568,0 18.35961,-33.91663,0 18.35916,-33.91745,0 18.35866,-33.91855,0 18.35815,-33.9195,0 18.35776,-33.92038,0 18.35726,-33.92157,0 18.35684,-33.92257,0 18.35636,-33.92372,0 18.35592,-33.92457,0 18.35541,-33.92578,0 18.35479,-33.92711,0 18.35432,-33.92806,0 18.35386,-33.92899,0 18.35346,-33.92988,0 18.35295,-33.9309,0 18.35243,-33.93206,0 18.35205,-33.93283,0 18.35152,-33.93402,0 18.35112,-33.93491,0 18.3506,-33.93612,0 18.34874,-33.9402,0 18.34682,-33.94412,0 18.34476,-33.94853,0 18.34313,-33.95183,0 18.34167,-33.95497,0 18.34002,-33.95842,0 18.33848,-33.96199,0 18.33725,-33.96666,0 18.33882,-33.96886,0 18.34156,-33.96922,0 18.34333,-33.96819,0 18.34403,-33.96725,0 18.34453,-33.9662,0 18.3461,-33.96112,0 18.34577,-33.96217,0 18.34734,-33.95767,0 18.34784,-33.95641,0 18.3484,-33.95508,0 18.34894,-33.9538,0 18.3494,-33.95269,0 18.3498,-33.9519,0 18.35043,-33.95059,0 18.35098,-33.9494,0 18.35146,-33.94836,0 18.3521,-33.94711,0 18.35272,-33.94583,0 18.35328,-33.94473,0 18.35381,-33.94375,0 18.35438,-33.94258,0 18.35507,-33.9413,0 18.35707,-33.93765,0 18.359,-33.93416,0 18.36113,-33.93045,0 18.36313,-33.92694,0 18.36502,-33.92364,0 18.36695,-33.92038,0 18.36964,-33.91603,0 18.37161,-33.91306,0 18.3725,-33.91182,0 18.37318,-33.91086,0 18.37385,-33.90994,0 18.37458,-33.90889,0 18.37525,-33.90807,0 18.37612,-33.90697,0 18.37709,-33.90577,0 18.378,-33.90477,0 18.37895,-33.90372,0 18.37973,-33.90288,0 18.38076,-33.90176,0 18.38144,-33.90111,0 18.38253,-33.90004,0 18.38333,-33.89925,0 18.38436,-33.89827,0 18.38523,-33.89749,0 18.38618,-33.89662,0 18.3873,-33.89566,0 18.38825,-33.89482,0 18.3894,-33.89389,0 18.39044,-33.8931,0 18.39162,-33.89223,0 18.39274,-33.89145,0 18.3938,-33.89082,0 18.39537,-33.88989,0 18.39649,-33.8893,0 18.39781,-33.88863,0 18.39912,-33.88803,0 18.40033,-33.88752,0 18.40153,-33.887,0 18.40316,-33.88637,0 18.40468,-33.88586,0 18.40588,-33.88547,0 18.40742,-33.88499,0 18.40894,-33.88458,0 18.41028,-33.88421,0 18.41152,-33.88394,0 18.41286,-33.88361,0 18.41443,-33.88326,0 18.41595,-33.88298,0 18.41732,-33.88277,0 18.41908,-33.88252,0 18.42043,-33.88243,0 18.42166,-33.88239,0 18.42316,-33.88235,0 18.42491,-33.88243,0 18.42648,-33.88258,0 18.42779,-33.88272,0 18.42957,-33.883,0 18.43088,-33.88328,0 18.43254,-33.8837,0 18.43377,-33.88408,0 18.43511,-33.88458,0 18.43635,-33.88513,0 18.43769,-33.88589,0 18.43889,-33.88668,0 18.43982,-33.88742,0 18.44072,-33.88821,0 18.44139,-33.88893,0 18.44229,-33.89003,0 18.44291,-33.89095,0 18.4433,-33.89172,0 18.4437,-33.89282,0 18.44376,-33.89389,0 18.44358,-33.89479,0 18.44307,-33.89552,0 18.44251,-33.89607,0 18.44175,-33.8965,0 18.44106,-33.8968,0 18.44033,-33.89708,0 18.43924,-33.89743,0 18.43848,-33.89767,0 18.43781,-33.89786,0 18.43683,-33.89813,0 18.43592,-33.89832,0 18.43517,-33.8985,0 18.43449,-33.89869,0 18.4338,-33.89883,0 18.43332,-33.89891,0 18.43299,-33.899,0 18.43265,-33.89905,0 18.4322,-33.89914,0 18.43186,-33.89923,0 18.43158,-33.89928,0 18.4313,-33.89932,0 18.43105,-33.89939,0 18.43063,-33.89946,0 18.43035,-33.89951,0 18.43008,-33.89957,0 18.42968,-33.89967,0 18.42945,-33.89971,0 18.42917,-33.89973,0 18.42888,-33.89981,0 18.42811,-33.89996,0 18.42791,-33.89999,0 18.4276,-33.90001,0 18.42738,-33.9001,0 18.42705,-33.90027,0 18.42688,-33.90051,0 18.42693,-33.90074,0 18.42715,-33.90092,0 18.42699,-33.90115,0 18.4271,-33.90083,0 18.4271,-33.90042,0 18.42722,-33.90004,0 18.42733,-33.89981,0 18.42743,-33.8996,0 18.42756,-33.89934,0 18.42777,-33.89896,0 18.42796,-33.89874,0 18.42839,-33.89809,0 18.42854,-33.89785,0 18.42895,-33.89726,0 18.42917,-33.89694,0 18.42939,-33.89659,0 18.42962,-33.89626,0 18.43002,-33.89557,0 18.43019,-33.89534,0 18.43041,-33.89502,0 18.43074,-33.89447,0 18.43105,-33.89403,0 18.43134,-33.89352,0 18.43158,-33.89314,0 18.43208,-33.8924,0 18.43231,-33.89209,0 18.4326,-33.89152,0 18.43287,-33.89113,0 18.43311,-33.89073,0 18.43363,-33.8898,0 18.43409,-33.88905,0 18.43456,-33.88815,0 18.435,-33.88728,0 18.43534,-33.88632,0 18.43552,-33.88547,0 18.43557,-33.88444,0 18.43545,-33.88348,0 18.43511,-33.88257,0 18.43478,-33.88179,0 18.43427,-33.88097,0 18.43363,-33.88011,0 18.43306,-33.87941,0 18.4322,-33.87848,0 18.43157,-33.87788,0 18.43091,-33.8773,0 18.43008,-33.87667,0 18.42939,-33.87616,0 18.42856,-33.87566,0 18.42751,-33.87509,0 18.42625,-33.87448,0 18.42533,-33.87415,0 18.42418,-33.87383,0 18.42299,-33.8735,0 18.4219,-33.87332,0 18.42087,-33.87313,0 18.41961,-33.87304,0 18.41852,-33.87299,0 18.41763,-33.87296,0 18.41652,-33.87304,0 18.41532,-33.87318,0 18.41398,-33.87341,0 18.41303,-33.8736,0 18.41194,-33.87383,0 18.41085,-33.87411,0 18.40967,-33.87442,0 18.40855,-33.87479,0 18.40736,-33.87523,0 18.40645,-33.87555,0 18.40518,-33.87607,0 18.40422,-33.87648,0 18.40333,-33.87685,0 18.40221,-33.87737,0 18.40113,-33.87788,0 18.40021,-33.87835,0 18.39935,-33.87881,0 18.39829,-33.87936,0 18.39735,-33.87988,0 18.39621,-33.8806,0 18.39526,-33.8812,0 18.39425,-33.88184,0 18.39341,-33.88239,0 18.3924,-33.88307,0 18.3918,-33.88351,0 18.39088,-33.88421,0 18.38988,-33.88495,0 18.3891,-33.88559,0 18.38825,-33.88623,0 18.38728,-33.887,0 18.38636,-33.88775,0 18.38562,-33.88843,0 18.38482,-33.8891,0 18.384,-33.8898,0 18.38315,-33.89053,0 18.38236,-33.89124,0 18.38156,-33.89194,0 18.3808,-33.89264,0 18.38001,-33.89333,0 18.37671,-33.8963,0 18.37379,-33.89914,0 18.3716,-33.90134,0 18.37093,-33.90202,0 18.37,-33.90302,0 18.36931,-33.90376,0 18.36851,-33.9046,0 18.3678,-33.90541,0 18.36708,-33.90628,0 18.36645,-33.90707,0 18.36559,-33.90805,0 18.36485,-33.90902,0 18.36421,-33.90985,0 18.36342,-33.91084,0 18.36281,-33.91159,0 18.36216,-33.91251,0 18.36146,-33.91347,0 18.36079,-33.91447,0 18.36034,-33.91512,0 18.35961,-33.91631,0 18.35907,-33.91712,0 18.3585,-33.91805,0 18.35787,-33.9191,0 18.35731,-33.92001,0 18.35684,-33.92085,0 18.35609,-33.9221,0 18.35563,-33.92294,0 18.35518,-33.92377,0 18.35478,-33.92457,0 18.35421,-33.92569,0 18.35375,-33.92657,0 18.35322,-33.9277,0 18.35261,-33.92908,0 18.35221,-33.92999,0 18.35171,-33.93109,0 18.35115,-33.93242,0 18.35066,-33.93346,0 18.35032,-33.93435,0 18.34975,-33.93571,0 18.34919,-33.93704,0 18.34883,-33.93789,0 18.34831,-33.93914,0 18.34785,-33.9403,0 18.34734,-33.94156,0 18.34597,-33.94501,0 18.34442,-33.94868,0 18.34291,-33.95251,0 18.34156,-33.95599,0 18.34019,-33.95948,0 18.33858,-33.96349,0 18.3405,-33.97037,0 18.34259,-33.96922,0 18.34333,-33.96777,0 18.34515,-33.96368,0 18.34599,-33.9619,0 18.34654,-33.9607,0 18.34694,-33.9599,0 18.34763,-33.95842,0 18.34814,-33.95744,0 18.34871,-33.95627,0 18.35054,-33.95264,0 18.35261,-33.94872,0 18.35461,-33.94496,0 18.35695,-33.94044,0 18.35872,-33.93681,0 18.36039,-33.93332,0 18.36222,-33.92978,0 18.36415,-33.92596,0 18.36606,-33.92249,0 18.36695,-33.92102,0 18.36737,-33.92029,0 18.36824,-33.91891,0 18.36885,-33.91801,0 18.36966,-33.91675,0 18.37037,-33.91562,0 18.37105,-33.9147,0 18.37194,-33.91342,0 18.3728,-33.91224,0 18.37368,-33.91109,0 18.37446,-33.91,0 18.37503,-33.90921,0 18.37581,-33.90825,0 18.37682,-33.90692,0 18.37766,-33.90587,0 18.37864,-33.90474,0 18.3795,-33.90372,0 18.38041,-33.90266,0 18.38114,-33.90184,0 18.3822,-33.90079,0 18.38304,-33.89987,0 18.38413,-33.89878,0 18.38511,-33.8978,0 18.38629,-33.89667,0 18.38717,-33.89585,0 18.38831,-33.89487,0 18.38926,-33.89415,0 18.39055,-33.89314,0 18.39156,-33.89241,0 18.393,-33.89147,0 18.39409,-33.89082,0 18.39506,-33.89026,0 18.39661,-33.88943,0 18.39809,-33.88873,0 18.39935,-33.8882,0 18.4007,-33.88765,0 18.40227,-33.88705,0 18.40347,-33.88659,0 18.40473,-33.88617,0 18.40636,-33.88568,0 18.40771,-33.88528,0 18.40933,-33.8849,0 18.41068,-33.88458,0 18.41236,-33.88422,0 18.41366,-33.88398,0 18.41533,-33.88371,0 18.41669,-33.88351,0 18.41802,-33.88335,0 18.41948,-33.88321,0 18.42121,-33.88312,0 18.42236,-33.88309,0 18.42407,-33.88307,0 18.42573,-33.88309,0 18.42715,-33.88316,0 18.4285,-33.88326,0 18.42991,-33.88333,0 18.43151,-33.88361,0 18.43277,-33.88393,0 18.43394,-33.88435,0 18.43517,-33.88486,0 18.4366,-33.88575,0 18.43752,-33.88637,0 18.43837,-33.8871,0 18.43941,-33.88812,0 18.44009,-33.88896,0 18.4409,-33.88993,0 18.44145,-33.89072,0 18.44201,-33.89177,0 18.44229,-33.89246,0 18.44263,-33.89351,0 18.44273,-33.89441,0 18.44257,-33.8952,0 18.44218,-33.89603,0 18.44152,-33.89669,0 18.44084,-33.89706,0 18.44004,-33.89738,0 18.43941,-33.89753,0 18.43866,-33.89766,0 18.43769,-33.89781,0 18.43695,-33.89794,0 18.43624,-33.89809,0 18.4354,-33.89827,0 18.4346,-33.89846,0 18.43405,-33.89864,0 18.43328,-33.89883,0 18.43304,-33.89891,0 18.4327,-33.89896,0 18.43225,-33.89906,0 18.43197,-33.89915,0 18.43163,-33.89929,0 18.4313,-33.89937,0 18.43082,-33.89948,0 18.43057,-33.89951,0 18.43025,-33.89952,0 18.42979,-33.89969,0 18.42957,-33.89969,0 18.42928,-33.89971,0 18.42876,-33.89981,0 18.42856,-33.89983,0 18.42813,-33.8999,0 18.42783,-33.89992,0 18.4276,-33.89996,0 18.42733,-33.90004,0 18.4271,-33.90018,0 18.42688,-33.90046,0 18.42705,-33.90074,0 18.42716,-33.90097,0 18.42705,-33.90074,0 18.4271,-33.90027,0 18.42728,-33.89994,0 18.42745,-33.89962,0 18.42756,-33.89939,0 18.42772,-33.89914,0 18.42785,-33.89892,0 18.42811,-33.89859,0 18.42831,-33.89832,0 18.42854,-33.89794,0 18.42867,-33.89772,0 18.42884,-33.89745,0 18.42906,-33.89703,0 18.42923,-33.89676,0 18.42939,-33.89645,0 18.42957,-33.89621,0 18.42979,-33.89589,0 18.43002,-33.89543,0 18.43024,-33.89511,0 18.43048,-33.89478,0 18.43063,-33.89447,0 18.43085,-33.89415,0 18.43105,-33.8938,0 18.43134,-33.89329,0 18.43157,-33.89296,0 18.4318,-33.89254,0 18.43208,-33.89208,0 18.43248,-33.89143,0 18.43288,-33.89073,0 18.43346,-33.8898,0 18.43391,-33.88887,0 18.43431,-33.88803,0 18.43467,-33.88719,0 18.43494,-33.88607,0 18.435,-33.88523,0 18.43494,-33.8844,0 18.43472,-33.88337,0 18.43443,-33.88258,0 18.43409,-33.88184,0 18.43343,-33.88078,0 18.43287,-33.8801,0 18.43203,-33.87927,0 18.43122,-33.87862,0 18.43052,-33.87817,0 18.42957,-33.87762,0 18.42867,-33.87721,0 18.42777,-33.87689,0 18.42687,-33.87662,0 18.42567,-33.87639,0 18.42463,-33.87621,0 18.42374,-33.87607,0 18.42276,-33.87592,0 18.42167,-33.87574,0 18.42093,-33.87564,0 18.41953,-33.87552,0 18.41852,-33.87541,0 18.4174,-33.87534,0 18.41639,-33.87529,0 18.41526,-33.87527,0 18.41417,-33.87527,0 18.4128,-33.87527,0 18.41191,-33.87529,0 18.41079,-33.87538,0 18.40954,-33.87546,0 18.40839,-33.8756,0 18.40748,-33.87575,0 18.40616,-33.87597,0 18.40524,-33.87616,0 18.40422,-33.87639,0 18.40294,-33.87671,0 18.40165,-33.87708,0 18.40031,-33.87749,0 18.39935,-33.87778,0 18.39815,-33.8782,0 18.39718,-33.87858,0 18.39593,-33.87909,0 18.39476,-33.87955,0 18.39386,-33.87997,0 18.39285,-33.88042,0 18.39169,-33.88105,0 18.39077,-33.88151,0 18.38974,-33.88211,0 18.38871,-33.88268,0 18.38781,-33.88326,0 18.38674,-33.88394,0 18.38601,-33.88445,0 18.38493,-33.88519,0 18.38379,-33.88598,0 18.38282,-33.88669,0 18.38202,-33.88728,0 18.38076,-33.88821,0 18.37996,-33.88882,0 18.37917,-33.88943,0 18.37805,-33.89035,0 18.37744,-33.89082,0 18.37646,-33.89161,0 18.37566,-33.89227,0 18.37475,-33.89305,0 18.37396,-33.89378,0 18.37297,-33.89464,0 18.37217,-33.89543,0 18.37127,-33.89639,0 18.37051,-33.89715,0 18.36992,-33.89781,0 18.36909,-33.89877,0 18.36847,-33.89946,0 18.36771,-33.90041,0 18.36702,-33.90125,0 18.36628,-33.90218,0 18.36572,-33.90294,0 18.36494,-33.90399,0 18.36449,-33.90463,0 18.36376,-33.90562,0 18.36319,-33.90646,0 18.36258,-33.90729,0 18.36202,-33.90811,0 18.36124,-33.90935,0 18.36073,-33.91019,0 18.36023,-33.91104,0 18.35972,-33.91191,0 18.35907,-33.91307,0 18.35855,-33.91391,0 18.35793,-33.91507,0 18.35741,-33.91596,0 18.35686,-33.91708,0 18.35642,-33.91795,0 18.35592,-33.91889,0 18.35541,-33.91978,0 18.35489,-33.92085,0 18.35443,-33.92173,0 18.35392,-33.92289,0 18.35352,-33.92373,0 18.35306,-33.9248,0 18.3526,-33.92597,0 18.35216,-33.92693,0 18.35186,-33.92778,0 18.3514,-33.9289,0 18.351,-33.92988,0 18.35042,-33.93118,0 18.34997,-33.93225,0 18.34958,-33.93324,0 18.34911,-33.93439,0 18.34857,-33.93571,0 18.3482,-33.93668,0 18.34767,-33.93791,0 18.34608,-33.94161,0 18.34476,-33.94473,0 18.34324,-33.94835,0 18.34196,-33.95192,0 18.34064,-33.95581,0 18.34016,-33.95728,0 18.33977,-33.95847,0 18.33944,-33.95976,0 18.33938,-33.96002,0 18.33882,-33.96199,0 18.33841,-33.96358,0 18.33818,-33.96465,0 18.33744,-33.96805,0 18.33715,-33.96912,0 18.33693,-33.97015,0 18.33523,-33.97824,0 18.33487,-33.98099,0 18.33444,-33.9841,0 18.33406,-33.98705,0 18.33332,-33.99291,0 18.33299,-33.99651,0 18.33275,-34.00013,0 18.33271,-34.0015,0 18.33269,-34.00269,0 18.33271,-34.00401,0 18.33265,-34.00511,0 18.33269,-34.0079,0 18.33281,-34.0092,0 18.33292,-34.01065,0 18.33309,-34.01195,0 18.33332,-34.01311,0 18.33349,-34.01423,0 18.33366,-34.01546,0 18.33395,-34.01684,0 18.33422,-34.0182,0 18.33461,-34.01958,0 18.33498,-34.02066,0 18.33561,-34.02219,0 18.33607,-34.02315,0 18.33657,-34.02415,0 18.33719,-34.02539,0 18.33781,-34.02644,0 18.3383,-34.02736,0 18.33887,-34.02834,0 18.33956,-34.02959,0 18.34016,-34.03061,0 18.34072,-34.03162,0 18.34122,-34.03252,0 18.34196,-34.03392,0 18.34248,-34.03495,0 18.34311,-34.03625,0 18.34369,-34.03757,0 18.34414,-34.03867,0 18.34448,-34.03967,0 18.34481,-34.04073,0 18.34517,-34.04211,0 18.34534,-34.04337,0 18.34543,-34.04457,0 18.34549,-34.04544,0 18.34549,-34.04663,0 18.34539,-34.04761,0 18.34522,-34.04924,0 18.34511,-34.05026,0 18.34498,-34.05148,0 18.34476,-34.05268,0 18.34459,-34.05386,0 18.34442,-34.05478,0 18.3442,-34.05597,0 18.34396,-34.05692,0 18.34381,-34.0583,0 18.34379,-34.05929,0 18.34386,-34.0605,0 18.34414,-34.06134,0 18.34465,-34.06238,0 18.34545,-34.06325,0 18.34627,-34.06375,0 18.34711,-34.064,0 18.34801,-34.06412,0 18.34888,-34.064,0 18.34991,-34.06348,0 18.35042,-34.06288,0 18.3506,-34.06246,0 18.35076,-34.0616,0 18.35072,-34.06069,0 18.3506,-34.05967,0 18.35042,-34.05876,0 18.35026,-34.05776,0 18.35008,-34.05688,0 18.34986,-34.05552,0 18.34969,-34.05459,0 18.34946,-34.05333,0 18.3493,-34.05226,0 18.34906,-34.05128,0 18.34891,-34.05034,0 18.34871,-34.04914,0 18.34846,-34.048,0 18.3482,-34.04691,0 18.34745,-34.04398,0 18.34677,-34.0416,0 18.34654,-34.04067,0 18.3462,-34.03946,0 18.34585,-34.03848,0 18.3456,-34.03766,0 18.34509,-34.03633,0 18.34465,-34.03541,0 18.34425,-34.03457,0 18.34381,-34.03368,0 18.3433,-34.03285,0 18.34274,-34.03203,0 18.34208,-34.03117,0 18.34145,-34.03038,0 18.34064,-34.0295,0 18.33979,-34.02848,0 18.33916,-34.02782,0 18.33814,-34.02676,0 18.33747,-34.02599,0 18.33669,-34.02521,0 18.33601,-34.02443,0 18.33515,-34.02349,0 18.3345,-34.02269,0 18.33372,-34.02168,0 18.3331,-34.02086,0 18.33246,-34.01991,0 18.33183,-34.01875,0 18.3313,-34.01765,0 18.33097,-34.01661,0 18.33063,-34.01525,0 18.33052,-34.01427,0 18.3304,-34.01325,0 18.33041,-34.01225,0 18.33046,-34.01116,0 18.33063,-34.00953,0 18.3308,-34.00832,0 18.33097,-34.00734,0 18.33119,-34.00644,0 18.33149,-34.0052,0 18.33172,-34.00436,0 18.33203,-34.00337,0 18.33237,-34.00214,0 18.33265,-34.00117,0 18.33456,-33.99568,0 18.33544,-33.99333,0 18.33658,-33.99072,0 18.33775,-33.98822,0 18.33988,-33.98318,0 18.34201,-33.97838,0 18.34414,-33.9734,0 18.34625,-33.96828,0 18.34818,-33.96318,0 18.35019,-33.95805,0 18.35146,-33.95474,0 18.353,-33.95114,0 18.35398,-33.94901,0 18.35445,-33.94803,0 18.3549,-33.94693,0 18.35524,-33.94594,0 18.35569,-33.94473,0 18.35597,-33.94382,0 18.35625,-33.9429,0 18.35672,-33.94147,0 18.35707,-33.94035,0 18.35737,-33.93938,0 18.35771,-33.93828,0 18.35804,-33.93732,0 18.35838,-33.93635,0 18.35888,-33.93507,0 18.35924,-33.93411,0 18.35972,-33.93297,0 18.36006,-33.93201,0 18.36051,-33.93082,0 18.36135,-33.92871,0 18.36191,-33.92757,0 18.36245,-33.92639,0 18.36292,-33.92551,0 18.36342,-33.92441,0 18.3641,-33.92313,0 18.36462,-33.92215,0 18.36514,-33.92113,0 18.36559,-33.9202,0 18.36622,-33.91908,0 18.36667,-33.91818,0 18.36729,-33.91704,0 18.36802,-33.91585,0 18.36869,-33.91475,0 18.36926,-33.91377,0 18.37,-33.9127,0 18.37065,-33.91173,0 18.37133,-33.91077,0 18.37228,-33.90948,0 18.37284,-33.90871,0 18.37362,-33.9077,0 18.37458,-33.90646,0 18.37521,-33.90562,0 18.37615,-33.9044,0 18.37688,-33.90353,0 18.37772,-33.90257,0 18.37867,-33.90161,0 18.37973,-33.9006,0 18.38069,-33.89969,0 18.38181,-33.89864,0 18.38287,-33.89766,0 18.38379,-33.89692,0 18.38505,-33.89594,0 18.3859,-33.89525,0 18.38711,-33.89441,0 18.38837,-33.89357,0 18.38957,-33.89278,0 18.39061,-33.89218,0 18.39186,-33.89147,0 18.39283,-33.89096,0 18.39425,-33.89026,0 18.39558,-33.88961,0 18.39672,-33.88914,0 18.39801,-33.88861,0 18.39952,-33.88803,0 18.40073,-33.88761,0 18.40233,-33.88705,0 18.40367,-33.88664,0 18.40536,-33.88617,0 18.40698,-33.88573,0 18.40822,-33.88542,0 18.40984,-33.88504,0 18.4112,-33.88472,0 18.41251,-33.88444,0 18.41387,-33.88417,0 18.41527,-33.88394,0 18.41645,-33.88376,0 18.41813,-33.88353,0 18.41978,-33.88333,0 18.42127,-33.88321,0 18.42241,-33.88314,0 18.42418,-33.88307,0 18.42603,-33.88312,0 18.42772,-33.88316,0 18.42911,-33.88328,0 18.43065,-33.88351,0 18.4322,-33.88374,0 18.43377,-33.88412,0 18.43523,-33.88458,0 18.4364,-33.88499,0 18.43786,-33.88568,0 18.4387,-33.88618,0 18.44004,-33.88724,0 18.44095,-33.88821,0 18.44164,-33.889,0 18.44227,-33.88998,0 18.44369,-33.8941,0 18.44313,-33.89575,0 18.44238,-33.89636,0 18.44147,-33.89669,0 18.44061,-33.89692,0 18.43981,-33.89711,0 18.43893,-33.89735,0 18.43825,-33.89749,0 18.43741,-33.89772,0 18.43683,-33.89785,0 18.43603,-33.89804,0 18.4354,-33.89817,0 18.43472,-33.89836,0 18.4341,-33.89854,0 18.43374,-33.89864,0 18.43346,-33.89874,0 18.43317,-33.89878,0 18.43248,-33.89896,0 18.43197,-33.89911,0 18.43168,-33.89915,0 18.43117,-33.89929,0 18.43097,-33.89937,0 18.43054,-33.89948,0 18.43013,-33.8996,0 18.42991,-33.89967,0 18.42968,-33.89973,0 18.42945,-33.89981,0 18.42912,-33.89992,0 18.42888,-33.89994,0 18.42859,-33.89999,0 18.42831,-33.89999,0 18.42805,-33.90001,0 18.42773,-33.89999,0 18.42745,-33.90004,0 18.42716,-33.90018,0 18.42699,-33.90042,0 18.42705,-33.90069,0 18.42716,-33.90092,0 18.42704,-33.90115,0 18.42687,-33.90074,0 18.42671,-33.90047,0 18.42659,-33.90013,0 18.42659,-33.8999,0 18.42659,-33.89941,0 18.42676,-33.89887,0 18.42693,-33.89854,0 18.42722,-33.89817,0 18.42743,-33.89795,0 18.42783,-33.89772,0 18.42791,-33.89748,0 18.42813,-33.89729,0 18.42839,-33.89713,0 18.42878,-33.8968,0 18.42905,-33.89664,0 18.42934,-33.89644,0 18.42979,-33.89616,0 18.43008,-33.89599,0 18.43037,-33.89585,0 18.43088,-33.89552,0 18.43134,-33.89529,0 18.4326,-33.89473,0 18.43357,-33.89436,0 18.43472,-33.89403,0 18.43567,-33.89378,0 18.43646,-33.89369,0 18.43752,-33.89357,0 18.43855,-33.89361,0 18.43926,-33.89369,0 18.44038,-33.89394,0 18.44111,-33.89429,0 18.44179,-33.89465,0 18.44244,-33.89506,0 18.44313,-33.89557,0 18.44352,-33.89589,0 18.44421,-33.8965,0 18.44473,-33.89692,0 18.44536,-33.89743,0 18.44587,-33.89785,0 18.44655,-33.89841,0 18.44736,-33.89901,0 18.44799,-33.89948,0 18.44874,-33.90001,0 18.44946,-33.90042,0 18.45036,-33.9007,0 18.45131,-33.90074,0 18.45204,-33.9006,0 18.45257,-33.90027,0 18.45297,-33.89985,0 18.45303,-33.89943,0 18.45285,-33.89911,0 18.45251,-33.89883,0 18.45199,-33.89868,0 18.45142,-33.89874,0 18.45075,-33.89891,0 18.45014,-33.89914,0 18.44954,-33.89943,0 18.44873,-33.89994,0 18.44812,-33.90038,0 18.44742,-33.90111,0 18.44702,-33.90171,0 18.44673,-33.90246,0 18.44656,-33.90343,0 18.44656,-33.90427,0 18.44679,-33.90544,0 18.44736,-33.90651,0 18.44795,-33.90733,0 18.44896,-33.90837,0 18.44986,-33.90907,0 18.45075,-33.90971,0 18.45194,-33.91051,0 18.45291,-33.91116,0 18.45394,-33.91186,0 18.4549,-33.91246,0 18.45602,-33.91324,0 18.45698,-33.91383,0 18.458,-33.91452,0 18.4591,-33.91525,0 18.46028,-33.91603,0 18.46121,-33.91666,0 18.46258,-33.91754,0 18.46359,-33.91818,0 18.4646,-33.91887,0 18.4659,-33.91964,0 18.46682,-33.92024,0 18.47036,-33.92243,0 18.47271,-33.92387,0 18.47374,-33.92453,0 18.47514,-33.92546,0 18.47723,-33.9269,0 18.47837,-33.92769,0 18.47975,-33.92871,0 18.48102,-33.92972,0 18.48204,-33.93053,0 18.48301,-33.93132,0 18.4841,-33.93221,0 18.485,-33.93297,0 18.48621,-33.93398,0 18.4873,-33.93495,0 18.48822,-33.93575,0 18.48932,-33.93677,0 18.49045,-33.93774,0 18.49162,-33.93878,0 18.49251,-33.93956,0 18.49337,-33.9403,0 18.49457,-33.94128,0 18.49548,-33.94203,0 18.49666,-33.94295,0 18.4976,-33.94366,0 18.49869,-33.94445,0 18.49989,-33.94533,0 18.50114,-33.94624,0 18.50201,-33.94682,0 18.50339,-33.94775,0 18.50417,-33.94826,0 18.50569,-33.94917,0 18.50681,-33.94981,0 18.50787,-33.95041,0 18.50933,-33.95111,0 18.51028,-33.95155,0 18.51185,-33.95222,0 18.51328,-33.95264,0 18.51425,-33.95292,0 18.51577,-33.95334,0 18.51718,-33.95366,0 18.51875,-33.95407,0 18.51997,-33.95432,0 18.52152,-33.9545,0 18.52289,-33.9546,0 18.52452,-33.95467,0 18.52587,-33.95469,0 18.52699,-33.95467,0 18.52827,-33.95467,0 18.52999,-33.95469,0 18.53147,-33.95467,0 18.5327,-33.95471,0 18.53377,-33.95471,0 18.53525,-33.95464,0 18.53645,-33.95464,0 18.53752,-33.95462,0 18.53898,-33.95457,0 18.54023,-33.95455,0 18.5415,-33.95448,0 18.5428,-33.95441,0 18.5456,-33.9543,0 18.54688,-33.95421,0 18.54834,-33.95407,0 18.54957,-33.95398,0 18.55098,-33.9538,0 18.55243,-33.95366,0 18.55383,-33.95348,0 18.55539,-33.95329,0 18.55686,-33.95311,0 18.55809,-33.95293,0 18.55968,-33.95269,0 18.56107,-33.95247,0 18.56266,-33.95218,0 18.56392,-33.95194,0 18.5651,-33.95174,0 18.56644,-33.95148,0 18.5677,-33.9512,0 18.56947,-33.95087,0 18.57071,-33.95064,0 18.57193,-33.95041,0 18.57328,-33.95013,0 18.57502,-33.9498,0 18.57628,-33.94957,0 18.57748,-33.94938,0 18.57908,-33.9491,0 18.58035,-33.9489,0 18.58208,-33.94858,0 18.58343,-33.94839,0 18.58517,-33.94807,0 18.58786,-33.94766,0 18.58943,-33.94739,0 18.59122,-33.94711,0 18.59247,-33.94691,0 18.59385,-33.94668,0 18.59548,-33.94643,0 18.59705,-33.94613,0 18.59882,-33.94585,0 18.59985,-33.94561,0 18.60111,-33.94538,0 18.60277,-33.94505,0 18.60383,-33.94482,0 18.60529,-33.9445,0 18.60669,-33.94414,0 18.60804,-33.94382,0 18.60918,-33.94357,0 18.61022,-33.94331,0 18.61141,-33.943,0 18.61246,-33.94276,0 18.61393,-33.9424,0 18.61547,-33.94198,0 18.61684,-33.94167,0 18.61799,-33.94138,0 18.61942,-33.94102,0 18.62051,-33.94072,0 18.62457,-33.93965,0 18.62841,-33.93858,0 18.63001,-33.93816,0 18.63124,-33.93782,0 18.63293,-33.93732,0 18.63419,-33.937,0 18.6355,-33.93663,0 18.63668,-33.93631,0 18.63785,-33.93593,0 18.63892,-33.93562,0 18.64037,-33.93514,0 18.64157,-33.93476,0 18.64262,-33.93443,0 18.64391,-33.93402,0 18.64758,-33.93281,0 18.65142,-33.93155,0 18.65484,-33.93034,0 18.65899,-33.9288,0 18.66016,-33.92834,0 18.66089,-33.92802,0 18.6619,-33.92757,0 18.66314,-33.92693,0 18.66394,-33.92648,0 18.66471,-33.92606,0 18.66549,-33.9256,0 18.66629,-33.92513,0 18.66745,-33.92441,0 18.66812,-33.92401,0 18.66915,-33.92336,0 18.66986,-33.9229,0 18.6711,-33.92212,0 18.67199,-33.92157,0 18.67292,-33.92099,0 18.67384,-33.92043,0 18.6751,-33.91973,0 18.67624,-33.91903,0 18.6795,-33.91722,0 18.68076,-33.91656,0 18.68179,-33.91605,0 18.68305,-33.91549,0 18.68449,-33.91484,0 18.68561,-33.91429,0 18.68689,-33.91363,0 18.6878,-33.91301,0 18.68917,-33.91205,0 18.6901,-33.91132,0 18.69122,-33.91054,0 18.69204,-33.91,0 18.69346,-33.90907,0 18.69447,-33.90848,0 18.69581,-33.90772,0 18.69707,-33.90702,0 18.69804,-33.90651,0 18.69912,-33.90591,0 18.7003,-33.90527,0 18.70153,-33.90463,0 18.70262,-33.90404,0 18.70388,-33.90339,0 18.7049,-33.90285,0 18.70585,-33.90234,0 18.70686,-33.90184,0 18.70794,-33.90125,0 18.70916,-33.90065,0 18.71022,-33.90019,0 18.71134,-33.89973,0 18.71263,-33.89919,0 18.71372,-33.89869,0 18.71493,-33.89813,0 18.71618,-33.89753,0 18.71721,-33.89706,0 18.71836,-33.8965,0 18.71941,-33.89598,0 18.72047,-33.89548,0 18.72154,-33.89493,0 18.72271,-33.89436,0 18.72395,-33.89378,0 18.7254,-33.89324,0 18.72631,-33.89291,0 18.72799,-33.89246,0 18.72923,-33.89222,0 18.73029,-33.89195,0 18.73158,-33.89168,0 18.73275,-33.89145,0 18.73382,-33.89122,0 18.73495,-33.89105,0 18.73589,-33.8909,0 18.73684,-33.89073,0 18.73797,-33.89058,0 18.7389,-33.8904,0 18.74004,-33.89026,0 18.74099,-33.89012,0 18.74217,-33.88989,0 18.7434,-33.88966,0 18.74458,-33.88948,0 18.74542,-33.88929,0 18.74643,-33.88911,0 18.74788,-33.88887,0 18.7489,-33.8887,0 18.75,-33.88854,0 18.75125,-33.88838,0 18.75235,-33.88826,0 18.75366,-33.88812,0 18.75467,-33.88797,0 18.75596,-33.88788,0 18.75742,-33.88774,0 18.75858,-33.88765,0 18.7596,-33.88756,0 18.76081,-33.88747,0 18.76225,-33.88742,0 18.76369,-33.88733,0 18.76482,-33.88728,0 18.76596,-33.88724,0 18.76717,-33.88719,0 18.76871,-33.88714,0 18.76997,-33.88715,0 18.77123,-33.8871,0 18.77249,-33.88714,0 18.77395,-33.88715,0 18.77502,-33.88719,0 18.77615,-33.88728,0 18.77752,-33.88737,0 18.77855,-33.88742,0 18.77958,-33.88752,0 18.78107,-33.88765,0 18.78222,-33.88779,0 18.78365,-33.88798,0 18.78472,-33.88815,0 18.78612,-33.88838,0 18.78729,-33.88861,0 18.78853,-33.88884,0 18.78971,-33.8891,0 18.79071,-33.88934,0 18.79211,-33.88961,0 18.79349,-33.88989,0 18.79463,-33.89012,0 18.79581,-33.89035,0 18.79693,-33.89058,0 18.79841,-33.89087,0 18.79961,-33.8911,0 18.80104,-33.89138,0 18.80241,-33.89161,0 18.80501,-33.89209,0 18.80887,-33.89287,0 18.81397,-33.89389,0 18.81807,-33.89465,0 18.82221,-33.89543,0 18.82451,-33.89589,0 18.82599,-33.89622,0 18.82736,-33.8965,0 18.83012,-33.89708,0 18.83148,-33.89738,0 18.83258,-33.89763,0 18.83399,-33.89799,0 18.83509,-33.89827,0 18.83628,-33.89854,0 18.83774,-33.89891,0 18.83903,-33.89923,0 18.84021,-33.89937,0 18.84161,-33.89929,0 18.84241,-33.89911,0 18.84368,-33.89864,0 18.8447,-33.89817,0 18.84567,-33.8978,0 18.84705,-33.89745,0 18.84811,-33.89726,0 18.84951,-33.89726,0 18.85071,-33.89738,0 18.85192,-33.89767,0 18.85305,-33.89799,0 18.85428,-33.89841,0 18.85523,-33.89873,0 18.85663,-33.89928,0 18.85803,-33.89981,0 18.85918,-33.90022,0 18.86003,-33.90055,0 18.86173,-33.90111,0 18.86308,-33.90157,0 18.8642,-33.90193,0 18.86554,-33.90234,0 18.86696,-33.90283,0 18.86801,-33.90321,0 18.86913,-33.90358,0 18.87068,-33.90404,0 18.87182,-33.90437,0 18.87289,-33.90463,0 18.87418,-33.905,0 18.8756,-33.90535,0 18.87692,-33.90569,0 18.87827,-33.90601,0 18.87966,-33.90632,0 18.88098,-33.9066,0 18.88258,-33.90693,0 18.88395,-33.90721,0 18.88589,-33.90761,0 18.88744,-33.90795,0 18.88897,-33.90834,0 18.89038,-33.90871,0 18.89151,-33.90898,0 18.89299,-33.90935,0 18.8958,-33.91014,0 18.89716,-33.91054,0 18.89856,-33.911,0 18.89997,-33.91149,0 18.90089,-33.91182,0 18.90232,-33.91233,0 18.90329,-33.91275,0 18.90472,-33.91335,0 18.90593,-33.91386,0 18.90702,-33.91438,0 18.90816,-33.91484,0 18.90921,-33.9153,0 18.91061,-33.91589,0 18.91193,-33.91638,0 18.91302,-33.91667,0 18.91428,-33.91703,0 18.9156,-33.91731,0 18.91694,-33.91759,0 18.91811,-33.91782,0 18.91941,-33.918,0 18.92046,-33.91815,0 18.92229,-33.91829,0 18.92311,-33.91837,0 18.92468,-33.91846,0 18.92618,-33.91847,0 18.92738,-33.91843,0 18.92877,-33.91841,0 18.9304,-33.91837,0 18.93163,-33.91827,0 18.93316,-33.91819,0 18.93436,-33.91805,0 18.93583,-33.91786,0 18.93701,-33.91768,0 18.93848,-33.9174,0 18.93976,-33.91708,0 18.94105,-33.91681,0 18.94232,-33.91647,0 18.94363,-33.91605,0 18.94463,-33.91576,0 18.94592,-33.91531,0 18.94735,-33.91479,0 18.94844,-33.91433,0 18.94953,-33.91386,0 18.95096,-33.91326,0 18.9521,-33.91279,0 18.9536,-33.91209,0 18.9545,-33.91173,0 18.9559,-33.91109,0 18.9572,-33.91051,0 18.95837,-33.90999,0 18.95948,-33.90944,0 18.96078,-33.90884,0 18.96194,-33.90828,0 18.96302,-33.90775,0 18.96423,-33.90716,0 18.96532,-33.9066,0 18.96624,-33.90609,0 18.96721,-33.90558,0 18.96847,-33.90488,0 18.9698,-33.90417,0 18.9707,-33.90367,0 18.97188,-33.90308,0 18.97289,-33.90257,0 18.97413,-33.90199,0 18.97518,-33.90152,0 18.97631,-33.90097,0 18.97751,-33.90041,0 18.97848,-33.89994,0 18.97951,-33.89948,0 18.98083,-33.89892,0 18.98196,-33.89841,0 18.98352,-33.89785,0 18.98466,-33.89738,0 18.98598,-33.89692,0 18.98724,-33.89641,0 18.98809,-33.89608,0 18.98941,-33.89561,0 18.99054,-33.89529,0 18.99204,-33.89478,0 18.99357,-33.89433,0 18.9945,-33.89408,0 18.99714,-33.89343,0 18.99828,-33.8931,0 18.99951,-33.89282,0 19.00177,-33.89227,0 19.00304,-33.892,0 19.00444,-33.89177,0 19.00612,-33.89147,0 19.00724,-33.89136,0 19.0087,-33.89117,0 19.01134,-33.89099,0 19.01285,-33.89085,0 19.01442,-33.89063,0 19.01582,-33.8904,0 19.01705,-33.89012,0 19.01808,-33.88993,0 19.02575,-33.88863,0 19.02933,-33.8882,0 19.0323,-33.8877,0 19.03393,-33.88751,0 19.0351,-33.88737,0 19.0374,-33.88719,0 19.03925,-33.88715,0 19.04125,-33.88714,0 19.0424,-33.88719,0 19.04374,-33.88724,0 19.04525,-33.88733,0 19.04652,-33.88737,0 19.04805,-33.88751,0 19.04984,-33.88761,0 19.0508,-33.88765,0 19.05254,-33.88774,0 19.05458,-33.88784,0 19.05601,-33.88792,0 19.05724,-33.88802,0 19.05904,-33.8882,0 19.06027,-33.88829,0 19.0619,-33.88847,0 19.06481,-33.8887,0 19.06643,-33.88882,0 19.0678,-33.88887,0 19.06918,-33.88889,0 19.07042,-33.88893,0 19.07199,-33.88893,0 19.07335,-33.88896,0 19.07428,-33.88898,0 19.07619,-33.88884,0 19.07747,-33.88873,0 19.07913,-33.88854,0 19.08068,-33.88845,0 19.08194,-33.8884,0 19.08353,-33.88847,0 19.08468,-33.88858,0 19.0864,-33.88887,0 19.08757,-33.88916,0 19.08886,-33.88961,0 19.08992,-33.89008,0 19.09138,-33.89095,0 19.09281,-33.89208,0 19.09367,-33.89296,0 19.09447,-33.89384,0 19.09544,-33.89501,0</coordinates>
      </LineString>
    </Placemark>
  </Document>
</kml>
