<?xml version="1.0" encoding="UTF-8"?>
<kml xmlns="http://www.opengis.net/kml/2.2">
  <Document>
    <name>FR24 3fdbf4f8</name>
    <Placemark>
      <name>FR24 3fdbf4f8</name>
      <Style><LineStyle><color>ff0000ff</color><width>4</width></LineStyle></Style>
      <LineString>
        <tessellate>1</tessellate>
        <coordinates>18.43426,-33.889,0 18.43534,-33.88691,0 18.43567,-33.88614,0 18.4359,-33.88536,0 18.43586,-33.88463,0 18.43556,-33.88385,0 18.43512,-33.88333,0 18.43461,-33.8828,0 18.43399,-33.88225,0 18.43349,-33.88174,0 18.43277,-33.88114,0 18.4322,-33.88065,0 18.43175,-33.88033,0 18.43102,-33.87982,0 18.43029,-33.87946,0 18.42951,-33.879,0 18.42884,-33.87868,0 18.42766,-33.87813,0 18.42699,-33.87783,0 18.4259,-33.87741,0 18.42508,-33.87712,0 18.42435,-33.87689,0 18.42361,-33.87667,0 18.4227,-33.87648,0 18.42166,-33.8763,0 18.4206,-33.87621,0 18.41972,-33.87616,0 18.41869,-33.87616,0 18.41751,-33.87621,0 18.41667,-33.87621,0 18.41583,-33.8763,0 18.4148,-33.87639,0 18.41394,-33.87648,0 18.41309,-33.87662,0 18.41208,-33.8768,0 18.41124,-33.87694,0 18.41,-33.87723,0 18.40922,-33.87744,0 18.40834,-33.87774,0 18.40742,-33.87808,0 18.40668,-33.87835,0 18.40563,-33.87886,0 18.4049,-33.87918,0 18.4041,-33.8796,0 18.40319,-33.88007,0 18.40244,-33.88049,0 18.40153,-33.88105,0 18.40075,-33.88152,0 18.40019,-33.88188,0 18.39935,-33.88239,0 18.39851,-33.88293,0 18.39767,-33.88353,0 18.39695,-33.88403,0 18.39621,-33.88454,0 18.39546,-33.88505,0 18.39455,-33.8857,0 18.39369,-33.88632,0 18.39296,-33.88683,0 18.39223,-33.88737,0 18.39156,-33.88792,0 18.39043,-33.88882,0 18.38968,-33.88942,0 18.389,-33.88998,0 18.3882,-33.89068,0 18.38751,-33.89128,0 18.38682,-33.89189,0 18.38618,-33.8925,0 18.38539,-33.8932,0 18.3845,-33.8941,0 18.38385,-33.89478,0 18.38327,-33.89534,0 18.38264,-33.89603,0 18.3819,-33.89687,0 18.38114,-33.89767,0 18.38058,-33.89832,0 18.37978,-33.8992,0 18.37915,-33.8999,0 18.37841,-33.90078,0 18.37772,-33.90157,0 18.37709,-33.90223,0 18.37618,-33.90325,0 18.37383,-33.90581,0 18.37149,-33.90833,0 18.36914,-33.91109,0 18.36851,-33.912,0 18.36765,-33.91317,0 18.36701,-33.91402,0 18.36628,-33.91502,0 18.36561,-33.91599,0 18.36494,-33.91685,0 18.36432,-33.91768,0 18.36353,-33.91875,0 18.36296,-33.9195,0 18.36225,-33.92061,0 18.36146,-33.92171,0 18.36085,-33.92276,0 18.36027,-33.92369,0 18.35976,-33.92462,0 18.35911,-33.92574,0 18.3586,-33.92674,0 18.35799,-33.92784,0 18.35758,-33.92862,0 18.35698,-33.9299,0 18.35649,-33.931,0 18.35602,-33.93187,0 18.35558,-33.93292,0 18.35501,-33.93411,0 18.35449,-33.93514,0 18.35406,-33.93608,0 18.35363,-33.93709,0 18.353,-33.93844,0 18.35249,-33.93965,0 18.35115,-33.9429,0 18.35077,-33.9438,0 18.34907,-33.94839,0 18.34834,-33.95036,0 18.34705,-33.95376,0 18.34614,-33.95618,0 18.34386,-33.96194,0 18.34139,-33.96847,0 18.33943,-33.9733,0 18.33641,-33.9803,0 18.33484,-33.98424,0 18.33435,-33.98569,0 18.334,-33.98676,0 18.33366,-33.98798,0 18.33338,-33.989,0 18.33315,-33.99005,0 18.33304,-33.99101,0 18.33293,-33.99216,0 18.3331,-33.9933,0 18.33338,-33.99399,0 18.33395,-33.99463,0 18.33475,-33.99496,0 18.33578,-33.99491,0 18.33646,-33.99454,0 18.33714,-33.99394,0 18.33784,-33.99295,0 18.33859,-33.99197,0 18.33916,-33.99105,0 18.33967,-33.99016,0 18.3403,-33.98904,0 18.34076,-33.98811,0 18.34139,-33.98686,0 18.3419,-33.98575,0 18.34236,-33.98486,0 18.34246,-33.9846,0 18.34509,-33.97833,0 18.34631,-33.97554,0 18.349,-33.96987,0 18.35175,-33.96437,0 18.35457,-33.95865,0 18.35632,-33.95469,0 18.35793,-33.95068,0 18.35843,-33.94936,0 18.35894,-33.94817,0 18.35936,-33.94696,0 18.36073,-33.94336,0 18.36258,-33.93869,0 18.36398,-33.93517,0 18.3655,-33.931,0 18.36707,-33.92674,0 18.36742,-33.92583,0 18.36796,-33.92464,0 18.36845,-33.92345,0 18.36892,-33.92253,0 18.36943,-33.92145,0 18.36992,-33.92043,0 18.37065,-33.9191,0 18.3712,-33.9181,0 18.37183,-33.91695,0 18.37234,-33.91605,0 18.37295,-33.91489,0 18.37351,-33.91397,0 18.37413,-33.91287,0 18.37463,-33.912,0 18.37532,-33.91084,0 18.37572,-33.91009,0 18.37643,-33.90898,0 18.37699,-33.90807,0 18.37777,-33.90692,0 18.37839,-33.90605,0 18.37917,-33.90504,0 18.38007,-33.90395,0 18.3807,-33.90316,0 18.38147,-33.9023,0 18.3823,-33.90148,0 18.38315,-33.9007,0 18.38436,-33.89971,0 18.38533,-33.89897,0 18.38629,-33.89827,0 18.38757,-33.89743,0 18.38859,-33.89676,0 18.3896,-33.89612,0 18.39089,-33.89539,0 18.3919,-33.89479,0 18.39302,-33.89424,0 18.39453,-33.89346,0 18.39563,-33.89296,0 18.397,-33.89236,0 18.39821,-33.89185,0 18.39941,-33.89136,0 18.40053,-33.89085,0 18.40193,-33.89026,0 18.40296,-33.88984,0 18.40433,-33.88929,0 18.40557,-33.88884,0 18.40703,-33.88838,0 18.40838,-33.88797,0 18.40984,-33.88751,0 18.41107,-33.88715,0 18.41246,-33.88677,0 18.41389,-33.8864,0 18.41505,-33.88614,0 18.4164,-33.88584,0 18.41802,-33.88554,0 18.41949,-33.88528,0 18.42075,-33.88509,0 18.4225,-33.88481,0 18.42396,-33.88467,0 18.42525,-33.88458,0 18.42682,-33.88449,0 18.42831,-33.88449,0 18.42957,-33.88449,0 18.43125,-33.88454,0 18.43265,-33.88463,0 18.43416,-33.88477,0 18.43575,-33.88496,0 18.43696,-33.88513,0 18.43849,-33.88542,0 18.43964,-33.88565,0 18.4409,-33.88602,0 18.44223,-33.88646,0 18.4433,-33.88696,0 18.44419,-33.88751,0 18.44526,-33.88847,0 18.44588,-33.88925,0 18.44627,-33.89008,0 18.4465,-33.89063,0 18.44666,-33.89163,0 18.44667,-33.8924,0 18.44649,-33.89314,0 18.44604,-33.89403,0 18.4456,-33.89452,0 18.44473,-33.8951,0 18.44404,-33.89543,0 18.44296,-33.89576,0 18.4419,-33.89607,0 18.44094,-33.89635,0 18.44009,-33.89655,0 18.43937,-33.89676,0 18.43859,-33.89699,0 18.43764,-33.89722,0 18.43689,-33.89743,0 18.43603,-33.89762,0 18.435,-33.89785,0 18.43466,-33.89794,0 18.43422,-33.89804,0 18.43391,-33.89813,0 18.4334,-33.89827,0 18.43306,-33.89836,0 18.43265,-33.89845,0 18.43231,-33.89855,0 18.43191,-33.89864,0 18.4314,-33.89878,0 18.43091,-33.89891,0 18.42876,-33.89948,0 18.42825,-33.89967,0 18.42791,-33.89976,0 18.42715,-33.90015,0 18.42693,-33.90036,0 18.42682,-33.9006,0 18.42704,-33.90079,0 18.42727,-33.90079,0 18.42749,-33.90074,0 18.42743,-33.90051,0 18.4276,-33.90015,0 18.42779,-33.89981,0 18.42811,-33.89932,0 18.42828,-33.89909,0 18.42848,-33.89878,0 18.42871,-33.89846,0 18.42884,-33.89822,0 18.42905,-33.89794,0 18.42934,-33.89754,0 18.42951,-33.89717,0 18.42968,-33.89697,0 18.42996,-33.89653,0 18.43024,-33.89612,0 18.43046,-33.8958,0 18.43065,-33.89548,0 18.43088,-33.89515,0 18.43119,-33.89465,0 18.43157,-33.89403,0 18.43185,-33.89361,0 18.43226,-33.89305,0 18.43259,-33.8925,0 18.43338,-33.89131,0 18.43456,-33.8893,0 18.43494,-33.88858,0 18.43557,-33.88752,0 18.43597,-33.88668,0 18.43626,-33.88598,0 18.43649,-33.88519,0 18.43643,-33.88435,0 18.43629,-33.88376,0 18.43607,-33.88307,0 18.43584,-33.88239,0 18.43556,-33.8817,0 18.43523,-33.881,0 18.43472,-33.88023,0 18.43422,-33.87964,0 18.43343,-33.87904,0 18.43293,-33.87872,0 18.4318,-33.87825,0 18.43119,-33.87808,0 18.42997,-33.87788,0 18.42906,-33.87776,0 18.42619,-33.8776,0 18.42531,-33.87753,0 18.42442,-33.87755,0 18.4234,-33.87753,0 18.42247,-33.87755,0 18.42133,-33.87758,0 18.42037,-33.87762,0 18.41955,-33.87769,0 18.41841,-33.87783,0 18.41755,-33.87793,0 18.4164,-33.87807,0 18.41544,-33.87822,0 18.41423,-33.87839,0 18.41342,-33.87854,0 18.41234,-33.87872,0 18.41152,-33.87891,0 18.41022,-33.87918,0 18.40908,-33.87941,0 18.40822,-33.87965,0 18.40725,-33.87993,0 18.40619,-33.88019,0 18.40518,-33.88051,0 18.40433,-33.88072,0 18.40356,-33.88097,0 18.4025,-33.88128,0 18.40154,-33.88156,0 18.40067,-33.88188,0 18.39981,-33.88216,0 18.39913,-33.88243,0 18.39812,-33.8828,0 18.39741,-33.88314,0 18.39638,-33.88361,0 18.3956,-33.88399,0 18.39498,-33.88435,0 18.39415,-33.88482,0 18.39329,-33.88528,0 18.39252,-33.88577,0 18.3918,-33.88621,0 18.39128,-33.88654,0 18.39027,-33.88724,0 18.38957,-33.8877,0 18.3887,-33.88834,0 18.38831,-33.88861,0 18.38734,-33.88929,0 18.38646,-33.88994,0 18.38562,-33.89058,0 18.38476,-33.89124,0 18.38408,-33.8918,0 18.38327,-33.8924,0 18.38236,-33.8931,0 18.3817,-33.89365,0 18.38125,-33.89401,0 18.38018,-33.89488,0 18.37951,-33.89548,0 18.37884,-33.89612,0 18.37807,-33.89682,0 18.37738,-33.89749,0 18.37671,-33.89818,0 18.37584,-33.89906,0 18.37521,-33.89971,0 18.37441,-33.90056,0 18.37378,-33.90115,0 18.37318,-33.90179,0 18.37239,-33.90262,0 18.3716,-33.90348,0 18.37097,-33.90418,0 18.37023,-33.90497,0 18.36964,-33.90569,0 18.36903,-33.90646,0 18.36823,-33.90744,0 18.36768,-33.90816,0 18.36714,-33.90888,0 18.36634,-33.90991,0 18.36576,-33.91065,0 18.36502,-33.91172,0 18.36456,-33.91233,0 18.36382,-33.9134,0 18.36313,-33.91428,0 18.36256,-33.91512,0 18.36185,-33.91612,0 18.36119,-33.91698,0 18.36044,-33.91805,0 18.35984,-33.91882,0 18.35916,-33.91983,0 18.35855,-33.9207,0 18.35793,-33.92159,0 18.35726,-33.92258,0 18.35658,-33.92358,0 18.35574,-33.92491,0 18.35507,-33.92606,0 18.35455,-33.92699,0 18.35395,-33.92802,0 18.35335,-33.92918,0 18.35295,-33.93002,0 18.35232,-33.93123,0 18.35188,-33.93219,0 18.35137,-33.93315,0 18.35083,-33.9343,0 18.35037,-33.93523,0 18.34991,-33.93616,0 18.34934,-33.93742,0 18.34896,-33.93832,0 18.3484,-33.93947,0 18.34797,-33.94044,0 18.34644,-33.94373,0 18.34509,-33.94684,0 18.34373,-33.95031,0 18.34347,-33.95137,0 18.34336,-33.95256,0 18.34351,-33.95385,0 18.34402,-33.95488,0 18.34488,-33.95581,0 18.34605,-33.95645,0 18.34907,-33.9565,0 18.35008,-33.95581,0 18.3506,-33.95511,0 18.35109,-33.95416,0 18.35143,-33.95329,0 18.3518,-33.95236,0 18.35233,-33.95123,0 18.35294,-33.94995,0 18.35352,-33.94878,0 18.35409,-33.94775,0 18.35468,-33.94675,0 18.35524,-33.9458,0 18.35598,-33.9445,0 18.35649,-33.94357,0 18.35715,-33.9424,0 18.35776,-33.94139,0 18.35821,-33.94066,0 18.35884,-33.93951,0 18.35953,-33.9384,0 18.36017,-33.93723,0 18.36174,-33.9343,0 18.36359,-33.93068,0 18.36539,-33.92725,0 18.36763,-33.92313,0 18.36937,-33.92006,0 18.37155,-33.91653,0 18.37222,-33.91553,0 18.37278,-33.91466,0 18.37355,-33.91363,0 18.37418,-33.9127,0 18.37492,-33.91167,0 18.37576,-33.91054,0 18.3766,-33.90935,0 18.37727,-33.90848,0 18.37816,-33.90729,0 18.37884,-33.90637,0 18.37973,-33.90527,0 18.38047,-33.90437,0 18.38139,-33.9033,0 18.38214,-33.90248,0 18.38333,-33.9012,0 18.38416,-33.90042,0 18.3854,-33.89937,0 18.38642,-33.8985,0 18.38745,-33.89776,0 18.38876,-33.8968,0 18.38999,-33.89598,0 18.39111,-33.89524,0 18.39252,-33.89438,0 18.39363,-33.89375,0 18.3952,-33.89291,0 18.39632,-33.89236,0 18.39778,-33.89163,0 18.39913,-33.89099,0 18.40027,-33.89045,0 18.40204,-33.88966,0 18.40296,-33.88933,0 18.40457,-33.8887,0 18.40574,-33.88834,0 18.40714,-33.88789,0 18.40885,-33.88737,0 18.40994,-33.88705,0 18.412,-33.88649,0 18.41342,-33.88618,0 18.41503,-33.88584,0 18.41639,-33.88564,0 18.41818,-33.88537,0 18.41978,-33.88523,0 18.4211,-33.88514,0 18.42312,-33.88504,0 18.42453,-33.885,0 18.4262,-33.88504,0 18.42779,-33.88509,0 18.42951,-33.88522,0 18.43134,-33.88537,0 18.43293,-33.88554,0 18.43449,-33.8857,0 18.43618,-33.88591,0 18.43786,-33.88617,0 18.43906,-33.8864,0 18.4409,-33.88682,0 18.44227,-33.88728,0 18.44398,-33.88807,0 18.44548,-33.88893,0 18.44638,-33.88953,0 18.4475,-33.89049,0 18.44856,-33.89166,0 18.44918,-33.89268,0 18.44969,-33.89374,0 18.44994,-33.89496,0 18.44986,-33.89635,0 18.4493,-33.89772,0 18.44846,-33.89868,0 18.44736,-33.89939,0 18.44627,-33.89976,0 18.4449,-33.89999,0 18.44363,-33.9001,0 18.44273,-33.90013,0 18.44123,-33.90015,0 18.44072,-33.90015,0 18.43603,-33.90004,0 18.43391,-33.89999,0 18.43197,-33.89999,0 18.43091,-33.90005,0 18.42985,-33.90015,0 18.42962,-33.90018,0 18.42929,-33.90019,0 18.429,-33.90024,0 18.42876,-33.90032,0 18.4285,-33.90033,0 18.42819,-33.90041,0 18.42794,-33.90047,0 18.42762,-33.90051,0 18.42738,-33.9006,0 18.42743,-33.90033,0 18.42751,-33.89999,0 18.42762,-33.89967,0 18.42785,-33.89929,0 18.42816,-33.89886,0 18.42844,-33.89854,0 18.42871,-33.89817,0 18.42889,-33.8979,0 18.42906,-33.89767,0 18.42923,-33.89745,0 18.42945,-33.89715,0 18.42962,-33.89694,0 18.43001,-33.89639,0 18.43018,-33.89612,0 18.43048,-33.89566,0 18.43088,-33.89492,0 18.43108,-33.89465,0 18.43125,-33.89429,0 18.43142,-33.89397,0 18.43168,-33.89352,0 18.43181,-33.89323,0 18.43197,-33.89291,0 18.43214,-33.89259,0 18.4326,-33.89175,0 18.433,-33.89091,0 18.43332,-33.89021,0 18.43374,-33.88919,0 18.43399,-33.88847,0 18.43416,-33.8877,0 18.43433,-33.88669,0 18.43431,-33.88589,0 18.4342,-33.88528,0 18.43399,-33.88463,0 18.43346,-33.88361,0 18.43277,-33.88291,0 18.43209,-33.88234,0 18.4313,-33.88193,0 18.43063,-33.88165,0 18.42929,-33.88124,0 18.42848,-33.88105,0 18.42756,-33.88091,0 18.42542,-33.88078,0 18.42447,-33.88086,0 18.42334,-33.88115,0 18.42256,-33.88142,0 18.42194,-33.88184,0 18.42116,-33.88257,0 18.42071,-33.88353,0 18.42081,-33.88454,0 18.42121,-33.88514,0 18.42213,-33.88575,0 18.42306,-33.886,0 18.42447,-33.88621,0 18.42553,-33.88632,0 18.42653,-33.88635,0 18.42751,-33.88644,0 18.42844,-33.88646,0 18.42945,-33.88651,0 18.43057,-33.8866,0 18.43147,-33.8866,0 18.43259,-33.88673,0 18.43332,-33.88692,0 18.4342,-33.88728,0 18.43506,-33.88779,0 18.43546,-33.88826,0 18.43579,-33.88902,0 18.4358,-33.88975,0 18.43552,-33.89035,0 18.435,-33.8909,0 18.43427,-33.89122,0 18.43306,-33.89124,0 18.4322,-33.89095,0 18.43145,-33.89059,0 18.43052,-33.89003,0 18.42968,-33.88948,0 18.42882,-33.88891,0 18.42805,-33.88843,0 18.42722,-33.88794,0 18.42625,-33.88737,0 18.42527,-33.88682,0 18.42441,-33.88628,0 18.42339,-33.88575,0 18.42256,-33.88531,0 18.42178,-33.88496,0 18.42064,-33.88454,0 18.41932,-33.88407,0 18.41847,-33.88385,0 18.41743,-33.88361,0 18.41663,-33.88346,0 18.41527,-33.88326,0 18.41429,-33.88314,0 18.41342,-33.88303,0 18.41234,-33.88291,0 18.41131,-33.88281,0 18.41062,-33.8828,0 18.40916,-33.88275,0 18.40828,-33.88277,0 18.40714,-33.88284,0 18.40628,-33.88291,0 18.4049,-33.88305,0 18.40378,-33.88326,0 18.40283,-33.88339,0 18.40187,-33.88365,0 18.40047,-33.88399,0 18.3993,-33.88435,0 18.39832,-33.88463,0 18.39728,-33.88499,0 18.3961,-33.88541,0 18.395,-33.88584,0 18.39386,-33.88631,0 18.39274,-33.88678,0 18.39186,-33.88719,0 18.39088,-33.88765,0 18.38968,-33.88826,0 18.38882,-33.88873,0 18.38762,-33.88938,0 18.38671,-33.88993,0 18.38579,-33.89049,0 18.38484,-33.89113,0 18.38377,-33.89186,0 18.38282,-33.89259,0 18.38192,-33.89323,0 18.3811,-33.89394,0 18.38007,-33.89474,0 18.37945,-33.89529,0 18.37844,-33.89621,0 18.37755,-33.89701,0 18.37665,-33.8979,0 18.37578,-33.89887,0 18.37514,-33.89955,0 18.37435,-33.90046,0 18.37362,-33.90129,0 18.37292,-33.90218,0 18.37222,-33.90303,0 18.37161,-33.90381,0 18.37099,-33.90463,0 18.37015,-33.90569,0 18.3696,-33.90637,0 18.36874,-33.90758,0 18.36811,-33.90837,0 18.3674,-33.90944,0 18.36679,-33.91028,0 18.36623,-33.91118,0 18.36571,-33.912,0 18.36514,-33.91289,0 18.36445,-33.91405,0 18.36398,-33.91489,0 18.36336,-33.916,0 18.36279,-33.91698,0 18.36239,-33.91777,0 18.3618,-33.91882,0 18.36135,-33.91974,0 18.36085,-33.92075,0 18.36027,-33.92192,0 18.35978,-33.9229,0 18.35933,-33.92381,0 18.35878,-33.92499,0 18.35833,-33.92601,0 18.35793,-33.9269,0 18.35743,-33.92812,0 18.3569,-33.92932,0 18.35655,-33.9303,0 18.35609,-33.93146,0 18.35575,-33.93235,0 18.35529,-33.9336,0 18.35485,-33.93466,0 18.3544,-33.93562,0 18.35373,-33.93672,0 18.35289,-33.93777,0 18.35186,-33.93872,0 18.35094,-33.93933,0 18.34991,-33.93975,0 18.34891,-33.93997,0 18.3479,-33.94006,0 18.347,-33.93997,0 18.34599,-33.93965,0 18.34511,-33.93909,0 18.34453,-33.93851,0 18.34414,-33.93774,0 18.34402,-33.93709,0 18.34403,-33.93649,0 18.34414,-33.9359,0 18.34437,-33.93517,0 18.34459,-33.93462,0 18.34488,-33.93407,0 18.34517,-33.93346,0 18.34543,-33.93292,0 18.34597,-33.93221,0 18.34648,-33.93165,0 18.347,-33.93123,0 18.34751,-33.9309,0 18.34831,-33.93048,0 18.34919,-33.93018,0 18.35003,-33.93002,0 18.35092,-33.9299,0 18.35186,-33.92992,0 18.35278,-33.93011,0 18.35369,-33.93044,0 18.35462,-33.93109,0 18.35535,-33.93193,0 18.35569,-33.93274,0 18.35586,-33.93398,0 18.3558,-33.93498,0 18.35564,-33.9363,0 18.35546,-33.93745,0 18.35518,-33.93849,0 18.35489,-33.93975,0 18.35445,-33.94125,0 18.35406,-33.94235,0 18.35361,-33.94368,0 18.35318,-33.94487,0 18.35266,-33.94624,0 18.35221,-33.94739,0 18.35169,-33.94887,0 18.35123,-33.94999,0 18.35072,-33.95134,0 18.35026,-33.95269,0 18.3498,-33.95389,0 18.34946,-33.95492,0 18.34896,-33.95622,0 18.34843,-33.958,0 18.34705,-33.96218,0 18.34562,-33.96661,0 18.34454,-33.97028,0 18.34196,-33.97932,0 18.34036,-33.98597,0 18.33899,-33.99063,0 18.33755,-33.99538,0 18.42732,-33.9006,0 18.42739,-33.90036,0 18.42751,-33.89985,0 18.42772,-33.89941,0 18.42794,-33.89896,0 18.42811,-33.89873,0 18.42828,-33.8985,0 18.42844,-33.89827,0 18.42859,-33.89804,0 18.42889,-33.89763,0 18.42906,-33.89735,0 18.42945,-33.89682,0 18.42962,-33.89658,0 18.4299,-33.89612,0 18.43008,-33.89585,0 18.43029,-33.89552,0 18.43046,-33.89516,0 18.43063,-33.89488,0 18.43082,-33.89441,0 18.431,-33.89408,0 18.43117,-33.89371,0 18.43147,-33.89291,0 18.43181,-33.89209,0 18.43231,-33.89104,0 18.43271,-33.8904,0 18.43343,-33.88971,0 18.43422,-33.8893,0 18.43552,-33.8891,0 18.43695,-33.88924,0 18.43809,-33.88961,0 18.43912,-33.89008,0 18.44015,-33.89063,0 18.44107,-33.89115,0 18.44187,-33.8917,0 18.44268,-33.89236,0 18.44347,-33.89305,0 18.44448,-33.89392,0 18.4453,-33.89464,0 18.44604,-33.8952,0 18.44685,-33.89585,0 18.44759,-33.89645,0 18.44868,-33.89726,0 18.44948,-33.8979,0 18.45025,-33.8985,0 18.45126,-33.89928,0 18.45227,-33.9001,0 18.4532,-33.90083,0 18.45389,-33.90138,0 18.45503,-33.90227,0 18.45589,-33.90292,0 18.45692,-33.90367,0 18.45778,-33.90432,0 18.45892,-33.9052,0 18.45978,-33.9059,0 18.46073,-33.90674,0 18.46168,-33.90761,0 18.46258,-33.90837,0 18.46331,-33.90907,0 18.46437,-33.91008,0 18.46533,-33.91109,0 18.46605,-33.91191,0 18.46676,-33.9127,0 18.46767,-33.91377,0 18.46842,-33.91465,0 18.46922,-33.91568,0 18.46996,-33.91666,0 18.47054,-33.91745,0 18.47134,-33.9187,0 18.47177,-33.91942,0 18.47256,-33.9207,0 18.47305,-33.92154,0 18.47368,-33.92276,0 18.4742,-33.92373,0 18.4746,-33.92466,0 18.47525,-33.92592,0 18.47581,-33.92725,0 18.47626,-33.92821,0 18.47666,-33.92923,0 18.4771,-33.93031,0 18.47755,-33.93141,0 18.47792,-33.93235,0 18.47844,-33.93361,0 18.47872,-33.93434,0 18.47917,-33.93549,0 18.47963,-33.93668,0 18.48001,-33.93777,0 18.48043,-33.93896,0 18.4808,-33.93997,0 18.48106,-33.94086,0 18.48146,-33.94217,0 18.48181,-33.94336,0 18.48209,-33.94459,0 18.48237,-33.94565,0 18.48259,-33.94684,0 18.48278,-33.9478,0 18.48298,-33.94885,0 18.48312,-33.94999,0 18.48321,-33.95096,0 18.48332,-33.95206,0 18.48341,-33.95362,0 18.48347,-33.9546,0 18.48352,-33.95557,0 18.48354,-33.95682,0 18.48364,-33.95795,0 18.48371,-33.95897,0 18.48381,-33.96023,0 18.48387,-33.96121,0 18.48394,-33.96227,0 18.48399,-33.96346,0 18.48404,-33.96465,0 18.48421,-33.96819,0 18.48427,-33.97163,0 18.48438,-33.97572,0 18.4845,-33.98016,0 18.48455,-33.98369,0 18.48455,-33.98703,0 18.4845,-33.99049,0 18.48444,-33.99376,0 18.48427,-33.99715,0 18.48433,-33.99902,0 18.48438,-33.99998,0 18.48444,-34.00129,0 18.48444,-34.00218,0 18.4845,-34.00314,0 18.4845,-34.00431,0 18.4845,-34.00529,0 18.4845,-34.00627,0 18.4845,-34.00763,0 18.48455,-34.00836,0 18.48455,-34.00948,0 18.48455,-34.01038,0 18.48455,-34.01157,0 18.4845,-34.01465,0 18.4845,-34.01772,0 18.4845,-34.02049,0 18.48444,-34.02447,0 18.48433,-34.02864,0 18.48415,-34.03141,0 18.48394,-34.03473,0 18.48387,-34.03797,0 18.48377,-34.04187,0 18.48371,-34.04489,0 18.48354,-34.04837,0 18.48338,-34.05153,0 18.48318,-34.0558,0 18.48293,-34.05908,0 18.48265,-34.06265,0 18.48238,-34.06595,0 18.48227,-34.06693,0 18.48221,-34.06818,0 18.48209,-34.06916,0 18.48198,-34.07042,0 18.48186,-34.07167,0 18.41101,-34.01064,0 18.41124,-34.0096,0 18.41582,-34.00739,0 18.4164,-34.00684,0 18.41763,-34.00639,0 18.41871,-34.00563,0 18.41956,-34.00488,0 18.42053,-34.00417,0 18.42125,-34.00359,0 18.42231,-34.00276,0 18.42352,-34.00197,0 18.42418,-34.00133,0 18.42483,-34.00062,0 18.42624,-33.99977,0 18.42714,-33.99906,0 18.42831,-33.99816,0 18.4292,-33.99724,0 18.42963,-33.99633,0 18.43016,-33.9957,0 18.43084,-33.99475,0 18.4314,-33.99396,0 18.43177,-33.99318,0 18.43257,-33.99226,0 18.43303,-33.99145,0 18.43384,-33.9906,0 18.43475,-33.9895,0 18.43534,-33.98853,0 18.43493,-33.98731,0 18.43499,-33.98672,0 18.43559,-33.98598,0 18.43596,-33.98513,0 18.43655,-33.98413,0 18.43762,-33.98323,0 18.43906,-33.98233,0 18.44007,-33.98148,0 18.44154,-33.98033,0 18.44311,-33.97927,0 18.44423,-33.97811,0 18.44464,-33.97595,0 18.4453,-33.97494,0 18.44582,-33.97408,0 18.44649,-33.97298,0 18.44696,-33.97215,0 18.44756,-33.9711,0 18.44806,-33.97023,0 18.44851,-33.96936,0 18.44913,-33.96822,0 18.44965,-33.9673,0 18.45014,-33.96638,0 18.45051,-33.96558,0 18.45103,-33.96451,0 18.45159,-33.96332,0 18.45204,-33.96245,0 18.45255,-33.9613,0 18.45285,-33.96046,0 18.45328,-33.95934,0 18.4535,-33.95842,0 18.45372,-33.95755,0 18.454,-33.95627,0 18.45423,-33.95517,0 18.45434,-33.95425,0 18.45457,-33.95306,0 18.45474,-33.95213,0 18.4549,-33.9511,0 18.45503,-33.95018,0 18.45518,-33.94894,0 18.45518,-33.94798,0 18.4552,-33.9471,0 18.45513,-33.94615,0 18.45497,-33.94505,0 18.45469,-33.94394,0 18.45445,-33.94308,0 18.45412,-33.94212,0 18.45377,-33.94114,0 18.45344,-33.94029,0 18.45311,-33.93933,0 18.45283,-33.93837,0 18.45245,-33.93723,0 18.45217,-33.93626,0 18.45182,-33.93512,0 18.45148,-33.93425,0 18.45114,-33.93328,0 18.45074,-33.93221,0 18.45034,-33.93113,0 18.45005,-33.9302,0 18.44963,-33.92908,0 18.44941,-33.92812,0 18.44931,-33.9269,0 18.44931,-33.92592,0 18.44942,-33.92494,0 18.44965,-33.92345,0 18.44994,-33.92229,0 18.45022,-33.92108,0 18.45045,-33.9202,0 18.4507,-33.91905,0 18.45081,-33.91782,0 18.45074,-33.91684,0 18.45053,-33.91589,0 18.44994,-33.91461,0 18.44919,-33.91359,0 18.44845,-33.91279,0 18.44765,-33.91209,0 18.44672,-33.91141,0 18.44576,-33.91072,0 18.44453,-33.90985,0 18.44353,-33.90916,0 18.44274,-33.90862,0 18.44152,-33.90781,0 18.4405,-33.9071,0 18.43969,-33.90651,0 18.43876,-33.90578,0 18.43815,-33.90516,0 18.43775,-33.90468,0 18.43747,-33.90436,0 18.43695,-33.90367,0 18.43674,-33.9034,0 18.43624,-33.90276,0 18.43603,-33.90241,0 18.43575,-33.90204,0 18.43546,-33.90176,0 18.43517,-33.90147,0 18.43494,-33.90125,0 18.43456,-33.90097,0 18.43426,-33.90078,0 18.43391,-33.9006,0 18.43363,-33.90046,0 18.43311,-33.90027,0 18.43271,-33.90013,0 18.43237,-33.90005,0 18.43203,-33.90001,0 18.4308,-33.89987,0 18.42973,-33.89983,0 18.42951,-33.89987,0 18.42917,-33.89992,0 18.4285,-33.90015,0 18.42808,-33.90032,0 18.42772,-33.90047,0 18.42745,-33.9006,0 18.42721,-33.90074,0 18.42699,-33.90092,0 18.42693,-33.9007,0 18.42705,-33.90022,0 18.42715,-33.90001,0 18.42749,-33.89951,0 18.42768,-33.89929,0 18.42791,-33.89897,0 18.42822,-33.8985,0 18.4285,-33.89813,0 18.42872,-33.89786,0 18.42894,-33.89757,0 18.42922,-33.89715,0 18.42945,-33.89685,0 18.42962,-33.89658,0 18.43007,-33.89598,0 18.43029,-33.89571,0 18.4306,-33.89524,0 18.43091,-33.89479,0 18.43164,-33.89374,0 18.43203,-33.89314,0 18.43265,-33.89227,0 18.43306,-33.89161,0 18.4336,-33.89076,0 18.4341,-33.88989,0 18.4346,-33.8891,0 18.435,-33.88834,0 18.43563,-33.88719,0 18.43597,-33.8864,0 18.43624,-33.88545,0 18.43626,-33.88458,0 18.43615,-33.88384,0 18.43584,-33.88312,0 18.43528,-33.88234,0 18.43472,-33.88179,0 18.43369,-33.88109,0 18.43282,-33.88055,0 18.43203,-33.88016,0 18.43111,-33.87974,0 18.43019,-33.87941,0 18.42929,-33.87918,0 18.42856,-33.87904,0 18.42779,-33.87886,0 18.42682,-33.87877,0 18.42575,-33.87868,0 18.42505,-33.87867,0 18.42356,-33.87872,0 18.4227,-33.87881,0 18.42166,-33.87895,0 18.42048,-33.87909,0 18.41959,-33.87923,0 18.41841,-33.87946,0 18.41749,-33.87965,0 18.41634,-33.87991,0 18.41544,-33.88014,0 18.41429,-33.88053,0 18.41372,-33.88076,0 18.41219,-33.88129,0 18.4112,-33.88169,0 18.41011,-33.88211,0 18.40911,-33.88252,0 18.40804,-33.88298,0 18.40714,-33.88342,0 18.40622,-33.88379,0 18.40507,-33.88431,0 18.4041,-33.88472,0 18.40319,-33.88509,0 18.40221,-33.88554,0 18.40096,-33.88607,0 18.3998,-33.88655,0 18.3989,-33.88696,0 18.39778,-33.88747,0 18.39701,-33.88779,0 18.39324,-33.88953,0 18.38938,-33.89136,0 18.38745,-33.89236,0 18.38652,-33.89291,0 18.38551,-33.89352,0 18.38484,-33.89392,0 18.3835,-33.89473,0 18.38265,-33.89525,0 18.38175,-33.89584,0 18.38069,-33.89658,0 18.37984,-33.89715,0 18.37884,-33.89777,0 18.37772,-33.89859,0 18.37682,-33.89923,0 18.37572,-33.90009,0 18.37509,-33.90064,0 18.37402,-33.90157,0 18.37326,-33.90227,0 18.37223,-33.90325,0 18.37132,-33.90418,0 18.37032,-33.90527,0 18.3696,-33.90614,0 18.36886,-33.90701,0 18.36823,-33.90791,0 18.36742,-33.90907,0 18.36685,-33.90995,0 18.36617,-33.91109,0 18.36565,-33.91209,0 18.36496,-33.91317,0 18.36445,-33.9141,0 18.36382,-33.91525,0 18.36337,-33.91621,0 18.3629,-33.91708,0 18.36222,-33.91843,0 18.36185,-33.91914,0 18.36136,-33.92015,0 18.36073,-33.92143,0 18.36034,-33.9223,0 18.35987,-33.92331,0 18.35933,-33.92459,0 18.3589,-33.92559,0 18.35855,-33.92639,0 18.3581,-33.92747,0 18.35758,-33.92881,0 18.3572,-33.92972,0 18.35678,-33.931,0 18.35638,-33.93206,0 18.35608,-33.93301,0 18.35564,-33.93449,0 18.35546,-33.93526,0 18.35506,-33.93649,0 18.35484,-33.93742,0 18.35445,-33.93878,0 18.35417,-33.93974,0 18.35384,-33.94084,0 18.35356,-33.94185,0 18.35323,-33.9431,0 18.35289,-33.94454,0 18.35272,-33.94547,0 18.35244,-33.94679,0 18.35227,-33.9478,0 18.3521,-33.94881,0 18.35192,-33.95008,0 18.35175,-33.95129,0 18.35157,-33.95264,0 18.35129,-33.95427,0 18.35112,-33.9553,0 18.35094,-33.9566,0 18.35076,-33.95769,0 18.34963,-33.96323,0 18.34785,-33.97159,0 18.34734,-33.97458,0 18.4774,-34.07743,0 18.47604,-34.07426,0 18.47644,-34.07093,0 18.47696,-34.06704,0 18.47703,-34.06379,0 18.47725,-34.06278,0 18.47756,-34.06172,0 18.47791,-34.06046,0 18.4776,-34.05933,0 18.47744,-34.05862,0 18.47754,-34.05753,0 18.47762,-34.05642,0 18.47779,-34.05533,0 18.4779,-34.05424,0 18.4779,-34.05308,0 18.47789,-34.05199,0 18.47811,-34.05091,0 18.47827,-34.04963,0 18.47859,-34.04735,0 18.47851,-34.04631,0 18.47826,-34.04522,0 18.47814,-34.04422,0 18.47824,-34.04318,0 18.47829,-34.04218,0 18.47855,-34.04113,0 18.47886,-34.03992,0 18.47876,-34.03878,0 18.47875,-34.03788,0 18.47879,-34.03676,0 18.47919,-34.03564,0 18.47923,-34.0345,0 18.47938,-34.03347,0 18.47973,-34.0323,0 18.47962,-34.03106,0 18.48007,-34.02995,0 18.48,-34.02891,0 18.48005,-34.02781,0 18.48038,-34.02657,0 18.48056,-34.02542,0 18.48062,-34.02441,0 18.48081,-34.02344,0 18.4812,-34.02223,0 18.48162,-34.0211,0 18.48189,-34.0197,0 18.48162,-34.01906,0 18.48147,-34.01802,0 18.48068,-34.01712,0 18.48086,-34.01607,0 18.48102,-34.01489,0 18.48112,-34.01374,0 18.48096,-34.0127,0 18.48104,-34.01154,0 18.4814,-34.01048,0 18.48174,-34.00932,0 18.48167,-34.00788,0 18.48177,-34.0072,0 18.48192,-34.00625,0 18.48198,-34.0053,0 18.48215,-34.00423,0 18.48239,-34.00307,0 18.48281,-34.00191,0 18.48307,-34.00087,0 18.48322,-33.99931,0 18.4833,-33.99809,0 18.48344,-33.99698,0 18.48388,-33.99584,0 18.48405,-33.99491,0 18.48411,-33.99398,0 18.48407,-33.99257,0 18.48395,-33.99168,0 18.48377,-33.99058,0 18.48392,-33.98825,0 18.48398,-33.9869,0 18.48405,-33.98584,0 18.48416,-33.98245,0 18.48433,-33.97797,0 18.48438,-33.9733,0 18.48433,-33.97229,0 18.48427,-33.97133,0 18.48415,-33.97005,0 18.48398,-33.96889,0 18.48387,-33.96772,0 18.48371,-33.9668,0 18.48349,-33.96556,0 18.4833,-33.96456,0 18.4831,-33.96336,0 18.48298,-33.96245,0 18.48281,-33.96121,0 18.48276,-33.96025,0 18.48281,-33.95915,0 18.48301,-33.95813,0 18.48335,-33.95707,0 18.48358,-33.95632,0 18.48388,-33.9554,0 18.48415,-33.95441,0 18.48433,-33.9532,0 18.48438,-33.95229,0 18.48427,-33.95134,0 18.48405,-33.95023,0 18.48387,-33.94957,0 18.48343,-33.94853,0 18.48298,-33.94771,0 18.48214,-33.94656,0 18.48141,-33.94592,0 18.48049,-33.94524,0 18.47962,-33.94478,0 18.47849,-33.94422,0 18.47777,-33.94391,0 18.47654,-33.94328,0 18.47563,-33.94277,0 18.47486,-33.94226,0 18.47357,-33.9413,0 18.47277,-33.94063,0 18.47205,-33.93993,0 18.47054,-33.93828,0 18.47002,-33.93751,0 18.46922,-33.93635,0 18.4688,-33.93567,0 18.46802,-33.9343,0 18.46756,-33.93346,0 18.46693,-33.93253,0 18.46628,-33.93159,0 18.46583,-33.931,0 18.46499,-33.93004,0 18.4643,-33.92923,0 18.46367,-33.92848,0 18.46286,-33.92752,0 18.46207,-33.92662,0 18.46121,-33.92574,0 18.46041,-33.92485,0 18.45984,-33.92429,0 18.45881,-33.92318,0 18.4581,-33.92244,0 18.45743,-33.92173,0 18.45658,-33.92079,0 18.4556,-33.9194,0 18.45529,-33.91869,0 18.45491,-33.91759,0 18.45474,-33.91656,0 18.45463,-33.91563,0 18.45451,-33.91452,0 18.4544,-33.91368,0 18.45417,-33.91251,0 18.45389,-33.91159,0 18.45354,-33.91079,0 18.45305,-33.90994,0 18.4524,-33.90902,0 18.45177,-33.90823,0 18.45102,-33.90744,0 18.45034,-33.90679,0 18.44952,-33.90605,0 18.44873,-33.90539,0 18.44784,-33.90482,0 18.44679,-33.90418,0 18.44582,-33.90376,0 18.44467,-33.9033,0 18.44353,-33.90292,0 18.44234,-33.90262,0 18.44135,-33.90237,0 18.44027,-33.90213,0 18.43954,-33.90193,0 18.43838,-33.90171,0 18.43764,-33.90157,0 18.43724,-33.90147,0 18.43649,-33.90134,0 18.43612,-33.90125,0 18.43569,-33.90115,0 18.43534,-33.90111,0 18.43477,-33.90102,0 18.43439,-33.90092,0 18.43388,-33.90083,0 18.43306,-33.90064,0 18.4326,-33.9006,0 18.43147,-33.90047,0 18.43119,-33.90042,0 18.43063,-33.90042,0 18.42968,-33.90038,0 18.4294,-33.90038,0 18.42917,-33.90038,0 18.42895,-33.90038,0 18.42861,-33.90038,0 18.42839,-33.90038,0 18.42811,-33.90042,0 18.42791,-33.90041,0 18.42768,-33.90051,0 18.42743,-33.90056,0 18.43355,-33.88893,0 18.43575,-33.88617,0 18.43629,-33.88541,0 18.43672,-33.88454,0 18.437,-33.88384,0 18.43702,-33.88289,0 18.43689,-33.88239,0 18.4364,-33.88165,0 18.43567,-33.8812,0 18.43517,-33.881,0 18.4341,-33.88069,0 18.43332,-33.88051,0 18.43242,-33.88033,0 18.43163,-33.88016,0 18.43065,-33.87997,0 18.42979,-33.87983,0 18.42876,-33.87965,0 18.42813,-33.87951,0 18.4271,-33.87932,0 18.42648,-33.87923,0 18.42545,-33.87904,0 18.42436,-33.87886,0 18.42361,-33.87872,0 18.42241,-33.87858,0 18.42149,-33.87849,0 18.42064,-33.87844,0 18.41964,-33.87836,0 18.41835,-33.87831,0 18.41732,-33.8783,0 18.41634,-33.87827,0 18.41515,-33.87825,0 18.41449,-33.87822,0 18.41314,-33.87825,0 18.4123,-33.87827,0 18.41118,-33.87831,0 18.41028,-33.87836,0 18.40914,-33.87848,0 18.40787,-33.87859,0 18.40709,-33.87868,0 18.40616,-33.87881,0 18.40508,-33.87904,0 18.40422,-33.87923,0 18.40336,-33.87946,0 18.40232,-33.87973,0 18.40148,-33.88,0 18.40055,-33.88034,0 18.39975,-33.88063,0 18.39902,-33.88092,0 18.39806,-33.88133,0 18.39712,-33.88174,0 18.39638,-33.88211,0 18.39552,-33.88258,0 18.39483,-33.88305,0 18.39415,-33.88351,0 18.39324,-33.88412,0 18.39277,-33.88449,0 18.39191,-33.88519,0 18.39111,-33.88579,0 18.39055,-33.88632,0 18.3896,-33.88715,0 18.38905,-33.88761,0 18.38848,-33.88815,0 18.38803,-33.88857,0 18.38751,-33.88914,0 18.38708,-33.88957,0 18.38652,-33.89021,0 18.38612,-33.89058,0 18.38562,-33.89105,0 18.38495,-33.89168,0 18.38442,-33.89217,0 18.38383,-33.89264,0 18.38327,-33.8931,0 18.38282,-33.89346,0 18.38213,-33.89408,0 18.38161,-33.8945,0 18.38087,-33.8951,0 18.38024,-33.89566,0 18.37962,-33.89612,0 18.37893,-33.89669,0 18.37805,-33.89726,0 18.37738,-33.89776,0 18.37648,-33.89841,0 18.37572,-33.89897,0 18.37509,-33.89948,0 18.37429,-33.90018,0 18.37346,-33.90102,0 18.37275,-33.90185,0 18.372,-33.90279,0 18.3716,-33.90339,0 18.37088,-33.90454,0 18.37034,-33.90539,0 18.36988,-33.90609,0 18.36925,-33.9071,0 18.36875,-33.90793,0 18.36813,-33.90894,0 18.3676,-33.90981,0 18.3672,-33.91051,0 18.36656,-33.91159,0 18.36594,-33.91265,0 18.36548,-33.91354,0 18.36496,-33.91442,0 18.36451,-33.91531,0 18.36388,-33.91642,0 18.36342,-33.91722,0 18.36267,-33.91843,0 18.36213,-33.91933,0 18.36157,-33.92029,0 18.3609,-33.92136,0 18.36044,-33.92225,0 18.35993,-33.92318,0 18.35947,-33.92406,0 18.35888,-33.92528,0 18.35843,-33.9261,0 18.35798,-33.92709,0 18.35737,-33.92821,0 18.35686,-33.92935,0 18.35649,-33.93025,0 18.35602,-33.93137,0 18.35558,-33.93235,0 18.35518,-33.93333,0 18.35462,-33.93457,0 18.35412,-33.93571,0 18.35363,-33.93686,0 18.35318,-33.93779,0 18.35266,-33.93909,0 18.35215,-33.94026,0 18.3518,-33.94105,0 18.35123,-33.94254,0 18.35089,-33.94357,0 18.35048,-33.94473,0 18.35014,-33.94588,0 18.3498,-33.94706,0 18.34952,-33.94849,0 18.34946,-33.94976,0 18.34941,-33.9511,0 18.34957,-33.95227,0 18.34986,-33.95362,0 18.35026,-33.95464,0 18.35146,-33.95627,0 18.35283,-33.95711,0 18.35647,-33.95677,0 18.35726,-33.95609,0 18.35787,-33.95506,0 18.35821,-33.95399,0 18.35861,-33.95274,0 18.35896,-33.95148,0 18.35936,-33.95022,0 18.35989,-33.94876,0 18.36023,-33.94785,0 18.36061,-33.94654,0 18.36096,-33.9456,0 18.36135,-33.94437,0 18.36164,-33.94333,0 18.36193,-33.94231,0 18.3623,-33.94107,0 18.36258,-33.94006,0 18.36296,-33.93867,0 18.36319,-33.93789,0 18.36353,-33.93654,0 18.36388,-33.93537,0 18.36416,-33.93435,0 18.36449,-33.93329,0 18.36496,-33.93169,0 18.36533,-33.93063,0 18.36576,-33.9296,0 18.36611,-33.92871,0 18.36668,-33.92722,0 18.36718,-33.92615,0 18.36771,-33.92504,0 18.36824,-33.9239,0 18.36892,-33.92262,0 18.36954,-33.9215,0 18.37009,-33.92047,0 18.37093,-33.91924,0 18.37155,-33.91841,0 18.37252,-33.91731,0 18.37332,-33.91642,0 18.37429,-33.91535,0 18.37508,-33.91452,0 18.37601,-33.91363,0 18.37693,-33.91273,0 18.37801,-33.91167,0 18.37893,-33.91079,0 18.37985,-33.9099,0 18.38093,-33.90884,0 18.38202,-33.90781,0 18.38293,-33.90688,0 18.38394,-33.90587,0 18.38488,-33.90497,0 18.38601,-33.90381,0 18.38682,-33.90292,0 18.38769,-33.90198,0 18.38854,-33.90106,0 18.38949,-33.89996,0 18.39027,-33.89909,0 18.39095,-33.89841,0 18.39197,-33.89738,0 18.39306,-33.89641,0 18.39409,-33.89571,0 18.39518,-33.89506,0 18.39661,-33.89441,0 18.39798,-33.8938,0 18.39941,-33.8932,0 18.40064,-33.89273,0 18.40193,-33.89222,0 18.40313,-33.8918,0 18.40439,-33.89133,0 18.40602,-33.89072,0 18.40731,-33.89022,0 18.4086,-33.88971,0 18.40977,-33.88929,0 18.41143,-33.88873,0 18.41269,-33.88838,0 18.41429,-33.88803,0 18.41578,-33.88774,0 18.41695,-33.88751,0 18.41841,-33.88719,0 18.42007,-33.88686,0 18.42138,-33.88659,0 18.4229,-33.88632,0 18.4243,-33.88612,0 18.42613,-33.88598,0 18.42762,-33.88598,0 18.42928,-33.88607,0 18.43035,-33.88618,0 18.43231,-33.88644,0 18.43397,-33.88668,0 18.43534,-33.88696,0 18.43689,-33.88737,0 18.43843,-33.88798,0 18.43937,-33.88843,0 18.44084,-33.88929,0 18.44201,-33.89017,0 18.44307,-33.89096,0 18.44397,-33.89172,0 18.44484,-33.8925,0 18.44576,-33.89346,0 18.44645,-33.89431,0 18.44728,-33.89571,0 18.4477,-33.89664,0 18.44805,-33.8978,0 18.44823,-33.89882,0 18.44822,-33.90004,0 18.44805,-33.90097,0 18.4477,-33.90185,0 18.44717,-33.90262,0 18.44638,-33.90326,0 18.44524,-33.90367,0 18.44442,-33.90367,0 18.44341,-33.90331,0 18.44267,-33.90279,0 18.4419,-33.90198,0 18.44135,-33.90129,0 18.44083,-33.90074,0 18.44027,-33.90019,0 18.43926,-33.89941,0 18.43832,-33.89892,0 18.43752,-33.89869,0 18.43672,-33.8985,0 18.43562,-33.8985,0 18.43483,-33.89859,0 18.43433,-33.89873,0 18.43323,-33.89901,0 18.43287,-33.89909,0 18.43254,-33.8992,0 18.43208,-33.89929,0 18.43147,-33.89946,0 18.43117,-33.89952,0 18.43097,-33.8996,0 18.43031,-33.89971,0 18.43001,-33.89983,0 18.42962,-33.89992,0 18.42922,-33.90004,0 18.42889,-33.9001,0 18.42865,-33.90013,0 18.42836,-33.90022,0 18.42816,-33.90028,0 18.42785,-33.90041,0 18.42755,-33.90051,0 18.42733,-33.9006,0 18.42722,-33.90036,0 18.42728,-33.89985,0 18.42739,-33.89957,0 18.42762,-33.89911,0 18.42779,-33.89887,0 18.42819,-33.89822,0 18.42833,-33.89799,0 18.42854,-33.89766,0 18.42872,-33.89735,0 18.42889,-33.89708,0 18.42939,-33.89631,0 18.42957,-33.89603,0 18.42979,-33.89571,0 18.43002,-33.89538,0 18.43037,-33.89492,0 18.43071,-33.89441,0 18.43094,-33.89408,0 18.43125,-33.89369,0 18.43163,-33.89324,0 18.43209,-33.89259,0 18.43254,-33.89191,0 18.43304,-33.89122,0 18.43351,-33.89059,0 18.4341,-33.8898,0 18.4346,-33.88919,0 18.43512,-33.88849,0 18.43557,-33.88789,0 18.43597,-33.88728,0 18.43646,-33.88655,0 18.4368,-33.88596,0 18.43719,-33.88513,0 18.43741,-33.88449,0 18.43758,-33.88365,0 18.43747,-33.88298,0 18.43719,-33.88225,0 18.4366,-33.88156,0 18.43607,-33.88101,0 18.43552,-33.88058,0 18.43477,-33.88007,0 18.43386,-33.87955,0 18.43328,-33.87932,0 18.4322,-33.87904,0 18.4313,-33.87895,0 18.42996,-33.87895,0 18.42906,-33.87895,0 18.42791,-33.87895,0 18.42676,-33.87891,0 18.42607,-33.8789,0 18.4247,-33.8789,0 18.42362,-33.87891,0 18.42276,-33.87895,0 18.42161,-33.87904,0 18.42093,-33.87914,0 18.4197,-33.87927,0 18.41858,-33.87946,0 18.41749,-33.87965,0 18.41652,-33.87979,0 18.41533,-33.88005,0 18.41429,-33.8803,0 18.41343,-33.88049,0 18.41224,-33.88078,0 18.41131,-33.88105,0 18.41017,-33.88142,0 18.40925,-33.88174,0 18.40828,-33.88207,0 18.40737,-33.88239,0 18.40636,-33.88275,0 18.40542,-33.88314,0 18.40422,-33.88361,0 18.40339,-33.8839,0 18.40238,-33.88426,0 18.40113,-33.88472,0 18.40021,-33.88505,0 18.39918,-33.88547,0 18.39806,-33.88591,0 18.39722,-33.88628,0 18.39638,-33.88664,0 18.3954,-33.88714,0 18.39466,-33.88747,0 18.39386,-33.88792,0 18.39306,-33.8884,0 18.39226,-33.88887,0 18.39151,-33.88938,0 18.39066,-33.88993,0 18.38999,-33.8904,0 18.38923,-33.89091,0 18.38848,-33.89145,0 18.38802,-33.8918,0 18.38719,-33.8925,0 18.38659,-33.89296,0 18.38596,-33.89347,0 18.38511,-33.89413,0 18.38467,-33.89452,0 18.38377,-33.89529,0 18.38322,-33.89576,0 18.38243,-33.89658,0 18.38186,-33.89717,0 18.38127,-33.89785,0 18.38053,-33.89864,0 18.37996,-33.89932,0 18.37951,-33.89987,0 18.37884,-33.90065,0 18.37833,-33.90129,0 18.37766,-33.90207,0 18.3771,-33.90276,0 18.3766,-33.90344,0 18.37601,-33.90423,0 18.37547,-33.90495,0 18.37486,-33.90595,0 18.37429,-33.90674,0 18.37378,-33.90749,0 18.37318,-33.90848,0 18.37269,-33.90921,0 18.37206,-33.91014,0 18.37138,-33.91109,0 18.37086,-33.91186,0 18.37034,-33.91265,0 18.36964,-33.91374,0 18.36909,-33.91457,0 18.36863,-33.91531,0 18.36785,-33.91644,0 18.36724,-33.9174,0 18.36477,-33.92125,0 18.36253,-33.92505,0 18.36034,-33.92903,0 18.35987,-33.92992,0 18.35944,-33.93082,0 18.35884,-33.93193,0 18.35838,-33.93286,0 18.35793,-33.93383,0 18.3573,-33.93504,0 18.35686,-33.93604,0 18.35638,-33.937,0 18.35586,-33.9381,0 18.35546,-33.93906,0 18.35501,-33.94017,0 18.35449,-33.94147,0 18.35423,-33.94221,0 18.35375,-33.94375,0 18.35335,-33.94496,0 18.353,-33.94598,0 18.3526,-33.9472,0 18.35226,-33.94831,0 18.35186,-33.94952,0 18.35154,-33.95059,0 18.3512,-33.95178,0 18.35087,-33.95302,0 18.35059,-33.95403,0 18.35025,-33.9554,0 18.34997,-33.9565,0 18.34969,-33.95773,0 18.34946,-33.95883,0 18.43735,-33.89194,0 18.44263,-33.89461,0 18.44352,-33.8952,0 18.4445,-33.89603,0 18.44498,-33.89667,0 18.44537,-33.89786,0 18.44513,-33.89869,0 18.44439,-33.89925,0 18.44353,-33.89948,0 18.44278,-33.89952,0 18.44193,-33.89948,0 18.44089,-33.89937,0 18.44015,-33.89929,0 18.43906,-33.89915,0 18.43843,-33.89906,0 18.43775,-33.899,0 18.43736,-33.89896,0 18.43666,-33.89887,0 18.43626,-33.89883,0 18.43596,-33.89877,0 18.43551,-33.89873,0 18.43477,-33.89869,0 18.43437,-33.89869,0 18.43374,-33.89869,0 18.43351,-33.89874,0 18.43304,-33.89873,0 18.43282,-33.89877,0 18.43203,-33.89883,0 18.4313,-33.89896,0 18.431,-33.89901,0 18.43052,-33.89914,0 18.43024,-33.89919,0 18.42974,-33.89929,0 18.42888,-33.89952,0 18.42839,-33.89969,0 18.42813,-33.89976,0 18.42783,-33.89992,0 18.42738,-33.90005,0 18.42705,-33.90032,0 18.42699,-33.90064,0 18.42699,-33.90092,0 18.43569,-33.88747,0 18.43689,-33.88477,0 18.43702,-33.88408,0 18.437,-33.88328,0 18.43685,-33.88252,0 18.43649,-33.88165,0 18.43597,-33.88086,0 18.4354,-33.88021,0 18.43477,-33.8796,0 18.43397,-33.879,0 18.43321,-33.87849,0 18.43231,-33.87799,0 18.4317,-33.87767,0 18.43057,-33.87726,0 18.42962,-33.87694,0 18.42871,-33.87667,0 18.42779,-33.87643,0 18.42665,-33.87616,0 18.42573,-33.87597,0 18.42475,-33.87579,0 18.42321,-33.8755,0 18.42222,-33.87534,0 18.4197,-33.87497,0 18.41858,-33.87485,0 18.41766,-33.87481,0 18.4164,-33.87476,0 18.41544,-33.87469,0 18.41454,-33.87474,0 18.41372,-33.87476,0 18.41251,-33.8749,0 18.41146,-33.87502,0 18.41057,-33.87518,0 18.4095,-33.87538,0 18.40862,-33.87555,0 18.40759,-33.87579,0 18.40673,-33.87602,0 18.40563,-33.87634,0 18.40473,-33.87667,0 18.40401,-33.87698,0 18.40316,-33.87735,0 18.40232,-33.87772,0 18.40141,-33.8782,0 18.4005,-33.87872,0 18.39975,-33.87914,0 18.39902,-33.87955,0 18.39815,-33.88011,0 18.39746,-33.88058,0 18.39666,-33.88114,0 18.39598,-33.88165,0 18.39515,-33.88229,0 18.39437,-33.88295,0 18.39369,-33.88351,0 18.39306,-33.88407,0 18.39229,-33.88481,0 18.39151,-33.88556,0 18.39077,-33.88631,0 18.39003,-33.88705,0 18.38934,-33.88775,0 18.38853,-33.88857,0 18.38803,-33.88911,0 18.38725,-33.88994,0 18.38671,-33.89054,0 18.38602,-33.89128,0 18.38528,-33.89208,0 18.38448,-33.89291,0 18.38371,-33.89374,0 18.38304,-33.89452,0 18.38237,-33.89525,0 18.38175,-33.89594,0 18.38116,-33.89659,0 18.38041,-33.89745,0 18.37978,-33.89817,0 18.37841,-33.89981,0 18.3766,-33.90211,0 18.37598,-33.90289,0 18.37538,-33.90376,0 18.37475,-33.9046,0 18.37418,-33.90548,0 18.37349,-33.90641,0 18.37269,-33.90763,0 18.37229,-33.90823,0 18.37166,-33.90921,0 18.3711,-33.91008,0 18.37051,-33.91103,0 18.36987,-33.912,0 18.36937,-33.91283,0 18.36875,-33.91383,0 18.36836,-33.91447,0 18.36774,-33.91557,0 18.36729,-33.9164,0 18.36679,-33.91722,0 18.36628,-33.91815,0 18.36576,-33.91922,0 18.36525,-33.92024,0 18.36468,-33.92141,0 18.36411,-33.92257,0 18.3637,-33.92349,0 18.36337,-33.92427,0 18.36279,-33.9255,0 18.36239,-33.92643,0 18.36185,-33.92757,0 18.36153,-33.9283,0 18.3609,-33.92978,0 18.35956,-33.93269,0 18.35821,-33.9359,0 18.35675,-33.93924,0 18.35501,-33.94333,0 18.35369,-33.94645,0 18.35233,-33.94981,0 18.35188,-33.95096,0 18.351,-33.95306,0 18.35053,-33.95412,0 18.35003,-33.95531,0 18.34907,-33.95746,0 18.34649,-33.96327,0 18.34419,-33.9687,0 18.34235,-33.97298,0 18.33949,-33.97884,0 18.33704,-33.98392,0 18.33506,-33.98854,0 18.33252,-33.99463,0 18.33136,-33.9987,0 18.33153,-33.99989,0 18.33203,-34.0009,0 18.33263,-34.00161,0 18.33366,-34.00227,0 18.33487,-34.00264,0 18.33607,-34.00254,0 18.33714,-34.00227,0 18.33807,-34.00171,0 18.33881,-34.0011,0 18.33966,-33.99998,0 18.34201,-33.99532,0 18.34305,-33.993,0 18.34431,-33.99028,0 18.34528,-33.98807,0 18.34739,-33.98309,0 18.34917,-33.97843,0 18.35106,-33.97331,0 18.35283,-33.96867,0 18.35501,-33.96302,0 18.35681,-33.9581,0 18.35838,-33.9538,0 18.35956,-33.95045,0 18.3609,-33.94647,0 18.36205,-33.9431,0 18.36319,-33.93886,0 18.36342,-33.938,0 18.3637,-33.93695,0 18.36398,-33.93594,0 18.36428,-33.93476,0 18.36462,-33.93365,0 18.36494,-33.93265,0 18.36525,-33.93165,0 18.36565,-33.93048,0 18.36606,-33.92949,0 18.36656,-33.92825,0 18.36697,-33.92732,0 18.36752,-33.92615,0 18.368,-33.92513,0 18.3684,-33.92424,0 18.36891,-33.92318,0 18.36959,-33.92189,0 18.37006,-33.92099,0 18.37065,-33.91978,0 18.37116,-33.91882,0 18.37189,-33.91763,0 18.37245,-33.91663,0 18.37323,-33.91534,0 18.37378,-33.91447,0 18.37446,-33.9134,0 18.37508,-33.91246,0 18.37566,-33.91154,0 18.37629,-33.91065,0 18.37704,-33.90958,0 18.37772,-33.90875,0 18.37861,-33.9077,0 18.37933,-33.90688,0 18.38018,-33.90591,0 18.3811,-33.90493,0 18.38209,-33.90385,0 18.38299,-33.90292,0 18.3836,-33.90225,0 18.38482,-33.90111,0 18.38568,-33.90033,0 18.38642,-33.89967,0 18.38757,-33.89874,0 18.38859,-33.89799,0 18.38988,-33.89726,0 18.391,-33.89667,0 18.39249,-33.89599,0 18.39392,-33.89538,0 18.3954,-33.89478,0 18.39643,-33.89436,0 18.39781,-33.8938,0 18.39947,-33.89314,0 18.4007,-33.89268,0 18.40182,-33.89227,0 18.40322,-33.89172,0 18.40473,-33.89122,0 18.40599,-33.89073,0 18.40742,-33.89022,0 18.40874,-33.8897,0 18.40989,-33.8893,0 18.41114,-33.88882,0 18.41247,-33.88834,0 18.41381,-33.88783,0 18.41527,-33.88733,0 18.41651,-33.88696,0 18.41806,-33.88654,0 18.41949,-33.88626,0 18.42093,-33.88607,0 18.42201,-33.88593,0 18.42362,-33.88577,0 18.42536,-33.88564,0 18.42699,-33.8856,0 18.42828,-33.88568,0 18.43007,-33.88586,0 18.43145,-33.88602,0 18.43287,-33.88628,0 18.43439,-33.8866,0 18.43575,-33.88691,0 18.43736,-33.88733,0 18.43884,-33.8877,0 18.44016,-33.88806,0 18.44135,-33.88845,0 18.44284,-33.88896,0 18.44421,-33.88947,0 18.44571,-33.89008,0 18.44707,-33.89068,0 18.4484,-33.89131,0 18.44925,-33.89175,0 18.45064,-33.89268,0 18.45148,-33.89351,0 18.4521,-33.89438,0 18.45249,-33.89534,0 18.45257,-33.89669,0 18.45232,-33.89772,0 18.45188,-33.89841,0 18.45103,-33.89923,0 18.44969,-33.89996,0 18.44862,-33.90027,0 18.44759,-33.90036,0 18.44593,-33.90032,0 18.44498,-33.90015,0 18.4437,-33.89994,0 18.4425,-33.8999,0 18.44117,-33.89992,0 18.44016,-33.89992,0 18.43901,-33.89994,0 18.43831,-33.89992,0 18.43689,-33.8999,0 18.43637,-33.89985,0 18.43584,-33.89983,0 18.43563,-33.89981,0 18.43277,-33.89962,0 18.43046,-33.89946,0 18.42894,-33.89952,0 18.42871,-33.89952,0 18.42816,-33.89964,0 18.42794,-33.89973,0 18.42773,-33.89981,0 18.42745,-33.89994,0 18.42722,-33.90013,0 18.42693,-33.90032,0 18.42676,-33.90055,0 18.42682,-33.90078,0 18.42687,-33.90102,0</coordinates>
      </LineString>
    </Placemark>
  </Document>
</kml>
