<?xml version="1.0" encoding="UTF-8"?>
<kml xmlns="http://www.opengis.net/kml/2.2">
  <Document>
    <name>FR24 3efecbf0</name>
    <Placemark>
      <name>FR24 3efecbf0</name>
      <Style><LineStyle><color>ff0000ff</color><width>4</width></LineStyle></Style>
      <LineString>
        <tessellate>1</tessellate>
        <coordinates>18.42912,-33.89648,0 18.43007,-33.89447,0 18.43065,-33.8931,0 18.43097,-33.89236,0 18.43119,-33.89182,0 18.43147,-33.89095,0 18.43168,-33.89026,0 18.43186,-33.88957,0 18.43208,-33.88877,0 18.43231,-33.88792,0 18.43242,-33.88705,0 18.43254,-33.88632,0 18.43248,-33.88551,0 18.43231,-33.88454,0 18.43209,-33.8838,0 18.43174,-33.883,0 18.4313,-33.88216,0 18.43074,-33.88138,0 18.43025,-33.88076,0 18.42951,-33.87997,0 18.42884,-33.87932,0 18.42802,-33.87867,0 18.42705,-33.87802,0 18.42603,-33.8774,0 18.42508,-33.87694,0 18.42418,-33.87657,0 18.42327,-33.8763,0 18.42236,-33.87606,0 18.42121,-33.87583,0 18.41998,-33.8757,0 18.41875,-33.87561,0 18.41751,-33.87561,0 18.41646,-33.8756,0 18.41555,-33.87566,0 18.41429,-33.87574,0 18.41297,-33.87589,0 18.41183,-33.87611,0 18.41085,-33.8763,0 18.40954,-33.87662,0 18.40843,-33.87689,0 18.40731,-33.87723,0 18.40636,-33.87749,0 18.40513,-33.87788,0 18.40412,-33.87822,0 18.40319,-33.87853,0 18.40227,-33.8789,0 18.40101,-33.87941,0 18.40003,-33.87987,0 18.3993,-33.88019,0 18.39806,-33.88083,0 18.39701,-33.88137,0 18.39616,-33.88184,0 18.39495,-33.88253,0 18.39409,-33.88305,0 18.39319,-33.88362,0 18.39207,-33.88435,0 18.39128,-33.88486,0 18.39016,-33.88559,0 18.38932,-33.88614,0 18.38808,-33.88696,0 18.38717,-33.88761,0 18.38648,-33.88807,0 18.38551,-33.88877,0 18.3847,-33.88933,0 18.38367,-33.89012,0 18.38276,-33.89087,0 18.38198,-33.89149,0 18.38125,-33.89209,0 18.38035,-33.89287,0 18.37955,-33.89352,0 18.37889,-33.89415,0 18.37812,-33.89487,0 18.37721,-33.89571,0 18.37632,-33.89658,0 18.37538,-33.89748,0 18.37469,-33.89817,0 18.37395,-33.89892,0 18.37309,-33.89985,0 18.37234,-33.90069,0 18.37172,-33.90139,0 18.37088,-33.9023,0 18.36998,-33.90335,0 18.36925,-33.90422,0 18.36857,-33.90502,0 18.36771,-33.90609,0 18.36708,-33.90697,0 18.36639,-33.90781,0 18.36565,-33.90879,0 18.36508,-33.90958,0 18.36428,-33.91074,0 18.3637,-33.91159,0 18.36296,-33.91275,0 18.36239,-33.91368,0 18.36176,-33.91475,0 18.36118,-33.91571,0 18.36067,-33.91675,0 18.35999,-33.91801,0 18.35944,-33.9191,0 18.35884,-33.92038,0 18.35827,-33.92154,0 18.35781,-33.92257,0 18.3572,-33.92386,0 18.35686,-33.92464,0 18.35627,-33.92592,0 18.35575,-33.92718,0 18.35524,-33.92839,0 18.35478,-33.92955,0 18.35426,-33.93076,0 18.35384,-33.93187,0 18.35339,-33.93311,0 18.35294,-33.93439,0 18.35261,-33.93544,0 18.3522,-33.93658,0 18.35176,-33.93805,0 18.35137,-33.9391,0 18.35094,-33.94044,0 18.35053,-33.94171,0 18.35009,-33.94305,0 18.34975,-33.94409,0 18.34935,-33.94528,0 18.34896,-33.94661,0 18.34763,-33.95064,0 18.3461,-33.95457,0 18.34499,-33.95697,0 18.34448,-33.95823,0 18.34397,-33.95929,0 18.34362,-33.96004,0 18.34105,-33.96498,0 18.33956,-33.96777,0 18.33876,-33.97046,0 18.33961,-33.97275,0 18.3419,-33.97406,0 18.34448,-33.97368,0 18.34627,-33.97206,0 18.34728,-33.96996,0 18.34829,-33.96721,0 18.3493,-33.96446,0 18.35037,-33.96195,0 18.35143,-33.95938,0 18.35215,-33.95772,0 18.35255,-33.95686,0 18.35412,-33.95316,0 18.35552,-33.94976,0 18.3572,-33.94547,0 18.35844,-33.94221,0 18.35993,-33.93849,0 18.36163,-33.93416,0 18.36302,-33.93081,0 18.36348,-33.92974,0 18.36405,-33.92857,0 18.36451,-33.9276,0 18.3651,-33.92628,0 18.36559,-33.92536,0 18.36617,-33.92427,0 18.36668,-33.92322,0 18.3672,-33.92229,0 18.36774,-33.92116,0 18.36828,-33.92015,0 18.36897,-33.91889,0 18.36943,-33.9181,0 18.37011,-33.91689,0 18.37065,-33.91599,0 18.37133,-33.91484,0 18.37189,-33.91388,0 18.37378,-33.91065,0 18.37581,-33.90747,0 18.37699,-33.90569,0 18.37772,-33.90459,0 18.37844,-33.90363,0 18.37904,-33.90279,0 18.37985,-33.90175,0 18.38053,-33.90092,0 18.38139,-33.89994,0 18.3822,-33.89909,0 18.38316,-33.89813,0 18.38396,-33.89734,0 18.38482,-33.89659,0 18.38596,-33.89557,0 18.38663,-33.89502,0 18.38779,-33.89403,0 18.38865,-33.89337,0 18.38982,-33.89255,0 18.39083,-33.89189,0 18.39179,-33.89136,0 18.39312,-33.89059,0 18.39397,-33.89012,0 18.39569,-33.88933,0 18.39678,-33.88882,0 18.39787,-33.8884,0 18.39918,-33.88789,0 18.40044,-33.88742,0 18.40165,-33.88701,0 18.40307,-33.88654,0 18.40417,-33.88618,0 18.40574,-33.88573,0 18.40692,-33.88541,0 18.40849,-33.88504,0 18.40948,-33.88482,0 18.41131,-33.88444,0 18.41257,-33.88416,0 18.41409,-33.8839,0 18.41537,-33.8837,0 18.41663,-33.88351,0 18.41789,-33.88337,0 18.41915,-33.88328,0 18.42081,-33.88319,0 18.4223,-33.88309,0 18.42361,-33.88305,0 18.42491,-33.88303,0 18.42613,-33.88305,0 18.42756,-33.88314,0 18.42882,-33.88323,0 18.43029,-33.88339,0 18.43185,-33.88361,0 18.43315,-33.88385,0 18.43466,-33.88412,0 18.43592,-33.8844,0 18.43713,-33.88472,0 18.43826,-33.88509,0 18.43966,-33.88559,0 18.44067,-33.88607,0 18.44193,-33.88686,0 18.44274,-33.88751,0 18.44358,-33.8884,0 18.44439,-33.88947,0 18.44481,-33.89035,0 18.44515,-33.89122,0 18.44536,-33.89203,0 18.44547,-33.89301,0 18.44536,-33.89399,0 18.44513,-33.89482,0 18.44479,-33.89548,0 18.44408,-33.89626,0 18.44341,-33.89676,0 18.44278,-33.89715,0 18.44184,-33.89758,0 18.44089,-33.89786,0 18.43999,-33.89799,0 18.43912,-33.89817,0 18.43843,-33.89827,0 18.43769,-33.89836,0 18.437,-33.89846,0 18.43637,-33.89855,0 18.43573,-33.89864,0 18.435,-33.89877,0 18.43443,-33.89887,0 18.43351,-33.89897,0 18.43265,-33.89905,0 18.43192,-33.89914,0 18.43142,-33.89923,0 18.43063,-33.89937,0 18.43025,-33.89939,0 18.42979,-33.89946,0 18.42934,-33.89952,0 18.42889,-33.89955,0 18.4285,-33.8996,0 18.42836,-33.89934,0 18.42844,-33.89859,0 18.4285,-33.89836,0 18.42861,-33.89799,0 18.42867,-33.89772,0 18.42882,-33.89743,0 18.42899,-33.89687,0 18.42922,-33.89641,0 18.4294,-33.89598,0 18.42957,-33.89557,0 18.42985,-33.89484,0 18.43014,-33.89408,0 18.43037,-33.89347,0 18.43063,-33.89264,0 18.43091,-33.89182,0 18.43117,-33.89101,0 18.43136,-33.89044,0 18.43163,-33.88952,0 18.43181,-33.88879,0 18.43198,-33.88815,0 18.43214,-33.88742,0 18.43231,-33.88663,0 18.43243,-33.88584,0 18.43243,-33.88509,0 18.43231,-33.88394,0 18.43214,-33.88326,0 18.43192,-33.88243,0 18.43164,-33.88174,0 18.43122,-33.88081,0 18.43094,-33.88025,0 18.43029,-33.87936,0 18.42979,-33.87877,0 18.42911,-33.87807,0 18.42844,-33.87749,0 18.42749,-33.87689,0 18.42648,-33.87634,0 18.42562,-33.87602,0 18.42463,-33.87579,0 18.4235,-33.8756,0 18.42256,-33.87556,0 18.42121,-33.87569,0 18.42015,-33.87584,0 18.41915,-33.87602,0 18.41818,-33.8762,0 18.41718,-33.87639,0 18.41618,-33.87662,0 18.41503,-33.87685,0 18.41365,-33.87721,0 18.41246,-33.87755,0 18.41118,-33.8779,0 18.41022,-33.8782,0 18.40897,-33.87858,0 18.40799,-33.8789,0 18.40668,-33.87932,0 18.40574,-33.87968,0 18.40445,-33.88014,0 18.4035,-33.88051,0 18.40232,-33.88097,0 18.40147,-33.88128,0 18.40036,-33.88179,0 18.39924,-33.8823,0 18.39798,-33.88291,0 18.39718,-33.88328,0 18.39599,-33.8839,0 18.395,-33.88444,0 18.39386,-33.88509,0 18.39296,-33.88559,0 18.39195,-33.88623,0 18.39117,-33.88673,0 18.39027,-33.88733,0 18.38917,-33.88803,0 18.38803,-33.88879,0 18.38702,-33.88953,0 18.38602,-33.89022,0 18.38512,-33.89085,0 18.38396,-33.8917,0 18.3831,-33.89231,0 18.3823,-33.89287,0 18.38125,-33.89365,0 18.38041,-33.89415,0 18.37923,-33.89493,0 18.37824,-33.89552,0 18.37732,-33.89608,0 18.37646,-33.89669,0 18.37561,-33.89734,0 18.37452,-33.89813,0 18.37366,-33.89883,0 18.3728,-33.89971,0 18.37222,-33.90047,0 18.37166,-33.90139,0 18.37127,-33.90248,0 18.37114,-33.90343,0 18.37114,-33.90451,0 18.37116,-33.90578,0 18.3711,-33.90688,0 18.37086,-33.90781,0 18.37043,-33.90903,0 18.36981,-33.91013,0 18.36931,-33.91104,0 18.36874,-33.91196,0 18.36805,-33.91298,0 18.36742,-33.91382,0 18.36668,-33.91479,0 18.36582,-33.91587,0 18.36508,-33.91675,0 18.36428,-33.91782,0 18.36342,-33.91894,0 18.36281,-33.91978,0 18.36205,-33.9208,0 18.36153,-33.92164,0 18.36079,-33.92276,0 18.36016,-33.92382,0 18.35964,-33.92471,0 18.35911,-33.92564,0 18.35844,-33.92676,0 18.35798,-33.92769,0 18.35735,-33.92885,0 18.35681,-33.92986,0 18.35621,-33.93109,0 18.35569,-33.9321,0 18.35501,-33.93343,0 18.35451,-33.93439,0 18.35392,-33.93556,0 18.35335,-33.93663,0 18.35115,-33.94121,0 18.34975,-33.94432,0 18.34797,-33.94803,0 18.34631,-33.95166,0 18.3447,-33.95494,0 18.34293,-33.95916,0 18.34259,-33.9613,0 18.34288,-33.96242,0 18.347,-33.96373,0 18.34874,-33.96222,0 18.34951,-33.9607,0 18.35009,-33.95893,0 18.35042,-33.95801,0 18.35087,-33.9565,0 18.3512,-33.95544,0 18.3516,-33.95425,0 18.35203,-33.95306,0 18.35244,-33.95201,0 18.35294,-33.95068,0 18.35333,-33.94968,0 18.35395,-33.94817,0 18.35449,-33.94678,0 18.35506,-33.94547,0 18.35552,-33.94445,0 18.35608,-33.94318,0 18.35649,-33.94212,0 18.35754,-33.93965,0 18.35849,-33.93732,0 18.35905,-33.93613,0 18.35953,-33.93509,0 18.35993,-33.93421,0 18.36102,-33.93197,0 18.36163,-33.93077,0 18.36216,-33.92978,0 18.36262,-33.92881,0 18.36325,-33.92761,0 18.36382,-33.92648,0 18.36428,-33.92555,0 18.36477,-33.92455,0 18.36533,-33.9234,0 18.36691,-33.91982,0 18.36752,-33.91864,0 18.36794,-33.91777,0 18.36845,-33.91666,0 18.36897,-33.91563,0 18.36942,-33.91475,0 18.37006,-33.91363,0 18.37071,-33.9126,0 18.37127,-33.91173,0 18.37206,-33.91058,0 18.37286,-33.90949,0 18.37351,-33.90862,0 18.37418,-33.90781,0 18.37498,-33.90688,0 18.37578,-33.906,0 18.37671,-33.905,0 18.37761,-33.90404,0 18.37858,-33.90306,0 18.37945,-33.90225,0 18.38029,-33.90147,0 18.38116,-33.90069,0 18.38214,-33.89992,0 18.38321,-33.89909,0 18.38436,-33.89822,0 18.38506,-33.89772,0 18.38618,-33.89694,0 18.38753,-33.89603,0 18.38854,-33.89534,0 18.38949,-33.89474,0 18.39071,-33.89399,0 18.39169,-33.89338,0 18.39272,-33.89282,0 18.3938,-33.89227,0 18.39498,-33.89168,0 18.39632,-33.89105,0 18.39741,-33.89054,0 18.39849,-33.89008,0 18.39991,-33.88948,0 18.40107,-33.88896,0 18.40221,-33.88854,0 18.40336,-33.88812,0 18.4049,-33.88761,0 18.40633,-33.88719,0 18.40787,-33.88678,0 18.40944,-33.88637,0 18.41063,-33.88607,0 18.41236,-33.88573,0 18.41366,-33.88547,0 18.41509,-33.88523,0 18.41635,-33.885,0 18.41766,-33.88482,0 18.41903,-33.88467,0 18.42071,-33.88449,0 18.422,-33.88445,0 18.42357,-33.88435,0 18.42486,-33.88435,0 18.42648,-33.88435,0 18.42772,-33.88435,0 18.42917,-33.8844,0 18.43069,-33.88449,0 18.43192,-33.88463,0 18.43328,-33.88486,0 18.43443,-33.88509,0 18.43546,-33.88533,0 18.43683,-33.8857,0 18.43815,-33.88617,0 18.43952,-33.88677,0 18.4405,-33.88724,0 18.44151,-33.88783,0 18.4425,-33.88858,0 18.44341,-33.88952,0 18.44414,-33.8904,0 18.44459,-33.89127,0 18.44487,-33.89232,0 18.4449,-33.8932,0 18.44461,-33.89413,0 18.44425,-33.89479,0 18.44347,-33.89552,0 18.44273,-33.89594,0 18.44193,-33.89627,0 18.44118,-33.89655,0 18.44027,-33.89678,0 18.43937,-33.89699,0 18.43866,-33.89711,0 18.43752,-33.89734,0 18.43683,-33.89748,0 18.43596,-33.89767,0 18.43477,-33.89794,0 18.43416,-33.89813,0 18.43321,-33.89836,0 18.43254,-33.89854,0 18.43197,-33.89874,0 18.43147,-33.89886,0 18.4308,-33.89905,0 18.43035,-33.89914,0 18.42991,-33.89925,0 18.42962,-33.89932,0 18.42906,-33.89941,0 18.42876,-33.89948,0 18.42854,-33.89952,0 18.42833,-33.8996,0 18.42831,-33.89929,0 18.42836,-33.89901,0 18.42836,-33.89874,0 18.42844,-33.89818,0 18.4285,-33.8979,0 18.42859,-33.89757,0 18.42867,-33.89726,0 18.42878,-33.89685,0 18.42888,-33.89645,0 18.42906,-33.89598,0 18.42912,-33.89571,0 18.42934,-33.89516,0 18.42962,-33.89429,0 18.42985,-33.89366,0 18.43014,-33.89305,0 18.43046,-33.89232,0 18.43071,-33.89166,0 18.43094,-33.89101,0 18.43128,-33.88993,0 18.43142,-33.88939,0 18.43163,-33.88854,0 18.4318,-33.88775,0 18.43192,-33.88687,0 18.43192,-33.88614,0 18.4318,-33.88519,0 18.43164,-33.8844,0 18.4313,-33.88358,0 18.43085,-33.88275,0 18.43024,-33.88188,0 18.42962,-33.88118,0 18.42894,-33.88049,0 18.42825,-33.87988,0 18.42756,-33.87932,0 18.42693,-33.87886,0 18.42596,-33.87816,0 18.42499,-33.87755,0 18.42402,-33.87703,0 18.42304,-33.87658,0 18.42217,-33.87625,0 18.42093,-33.87593,0 18.41981,-33.8757,0 18.41881,-33.8756,0 18.4178,-33.87556,0 18.4164,-33.8756,0 18.41566,-33.87569,0 18.41443,-33.87589,0 18.41331,-33.87611,0 18.41234,-33.8763,0 18.41112,-33.87662,0 18.41017,-33.8769,0 18.40897,-33.87727,0 18.40788,-33.87765,0 18.40692,-33.87794,0 18.40597,-33.87831,0 18.40479,-33.87872,0 18.40387,-33.87909,0 18.40284,-33.87951,0 18.40199,-33.87987,0 18.40092,-33.88037,0 18.39958,-33.88101,0 18.39868,-33.88147,0 18.39781,-33.88188,0 18.39672,-33.88244,0 18.3956,-33.88307,0 18.39472,-33.88361,0 18.3938,-33.88417,0 18.39283,-33.88482,0 18.39195,-33.88541,0 18.39117,-33.88591,0 18.39014,-33.88659,0 18.38926,-33.88719,0 18.38848,-33.88775,0 18.38739,-33.88849,0 18.38635,-33.88925,0 18.38562,-33.8898,0 18.3845,-33.89067,0 18.3836,-33.89145,0 18.38282,-33.89203,0 18.38184,-33.89291,0 18.38097,-33.89369,0 18.38018,-33.89438,0 18.37923,-33.89525,0 18.37841,-33.89599,0 18.37767,-33.89664,0 18.37676,-33.89754,0 18.37604,-33.89822,0 18.37521,-33.89906,0 18.37447,-33.89983,0 18.3736,-33.90074,0 18.37292,-33.90148,0 18.37211,-33.90248,0 18.37149,-33.90326,0 18.37091,-33.90404,0 18.37006,-33.90506,0 18.36931,-33.906,0 18.36875,-33.90678,0 18.36805,-33.90772,0 18.36718,-33.90884,0 18.36656,-33.90967,0 18.36583,-33.91068,0 18.3651,-33.91173,0 18.36451,-33.91261,0 18.36376,-33.9137,0 18.3632,-33.91457,0 18.36264,-33.91544,0 18.3621,-33.91638,0 18.36153,-33.91735,0 18.36096,-33.91837,0 18.36044,-33.91945,0 18.35987,-33.92052,0 18.35939,-33.92152,0 18.35878,-33.92266,0 18.35827,-33.92369,0 18.35782,-33.92468,0 18.35724,-33.92578,0 18.35678,-33.92671,0 18.35619,-33.92789,0 18.35552,-33.92932,0 18.35507,-33.93013,0 18.3534,-33.9336,0 18.35186,-33.93714,0 18.35129,-33.93835,0 18.34997,-33.94161,0 18.34946,-33.94296,0 18.34894,-33.94431,0 18.34843,-33.94556,0 18.34806,-33.94666,0 18.34655,-33.95059,0 18.34528,-33.95404,0 18.34385,-33.95758,0 18.34219,-33.96149,0 18.3403,-33.96628,0 18.33809,-33.97174,0 18.3363,-33.97727,0 18.33447,-33.98285,0 18.33304,-33.98726,0 18.33147,-33.99239,0 18.33115,-33.99361,0 18.33086,-33.99491,0 18.33063,-33.99598,0 18.33029,-33.99733,0 18.33006,-33.9984,0 18.32973,-33.99976,0 18.32945,-34.00099,0 18.32918,-34.00209,0 18.3288,-34.00338,0 18.3285,-34.00461,0 18.32811,-34.00584,0 18.32788,-34.00674,0 18.32755,-34.00804,0 18.3272,-34.00934,0 18.32693,-34.01024,0 18.32663,-34.01167,0 18.32643,-34.01276,0 18.32623,-34.014,0 18.326,-34.01521,0 18.32581,-34.01656,0 18.32564,-34.0177,0 18.32548,-34.01861,0 18.32514,-34.02013,0 18.32491,-34.02132,0 18.32474,-34.02229,0 18.32475,-34.02315,0 18.32491,-34.02397,0 18.32537,-34.02475,0 18.32581,-34.02502,0 18.32637,-34.02498,0 18.32674,-34.0247,0 18.32697,-34.02405,0 18.32708,-34.02345,0 18.32721,-34.02264,0 18.32733,-34.02168,0 18.32738,-34.02095,0 18.32754,-34.01977,0 18.32766,-34.01889,0 18.32783,-34.01796,0 18.32806,-34.01661,0 18.32822,-34.01541,0 18.32839,-34.0144,0 18.32863,-34.01321,0 18.32886,-34.01218,0 18.32906,-34.01111,0 18.32937,-34.00985,0 18.3296,-34.00883,0 18.33002,-34.00726,0 18.3303,-34.00639,0 18.33063,-34.00534,0 18.33097,-34.00424,0 18.33153,-34.00273,0 18.33189,-34.00171,0 18.33226,-34.00063,0 18.33271,-33.99953,0 18.33344,-33.99756,0 18.33509,-33.99361,0 18.33612,-33.99123,0 18.33858,-33.98597,0 18.34072,-33.98122,0 18.34308,-33.976,0 18.34539,-33.97066,0 18.34757,-33.96554,0 18.34947,-33.96039,0 18.35048,-33.95796,0 18.35094,-33.95683,0 18.35152,-33.95548,0 18.35209,-33.95422,0 18.3526,-33.95297,0 18.353,-33.95192,0 18.35339,-33.95105,0 18.35375,-33.95018,0 18.35558,-33.94579,0 18.35597,-33.94487,0 18.35653,-33.94363,0 18.35686,-33.94286,0 18.35764,-33.94105,0 18.35936,-33.93723,0 18.35999,-33.9357,0 18.3605,-33.93458,0 18.3609,-33.9336,0 18.36267,-33.92965,0 18.36456,-33.92541,0 18.366,-33.92235,0 18.368,-33.91861,0 18.36847,-33.91768,0 18.36908,-33.91661,0 18.3696,-33.91573,0 18.37043,-33.91443,0 18.37097,-33.91359,0 18.37149,-33.91275,0 18.37222,-33.91164,0 18.3728,-33.91074,0 18.37346,-33.90985,0 18.37406,-33.90893,0 18.37491,-33.90779,0 18.37553,-33.90692,0 18.37615,-33.90605,0 18.37699,-33.90495,0 18.37767,-33.90404,0 18.37828,-33.90326,0 18.3791,-33.90223,0 18.37978,-33.90144,0 18.38053,-33.90064,0 18.38136,-33.89973,0 18.38226,-33.89882,0 18.38315,-33.89795,0 18.38405,-33.89713,0 18.38488,-33.89636,0 18.38568,-33.89566,0 18.38646,-33.89497,0 18.38775,-33.89401,0 18.38865,-33.89337,0 18.38968,-33.89268,0 18.39067,-33.89214,0 18.39179,-33.89145,0 18.39294,-33.89082,0 18.39459,-33.88994,0 18.3956,-33.88948,0 18.39677,-33.88893,0 18.39812,-33.88834,0 18.39964,-33.8877,0 18.40067,-33.88728,0 18.40199,-33.88673,0 18.40322,-33.88628,0 18.40434,-33.88582,0 18.40563,-33.88536,0 18.40708,-33.88486,0 18.40822,-33.88449,0 18.40961,-33.88408,0 18.41108,-33.8837,0 18.41224,-33.88344,0 18.41359,-33.88316,0 18.41505,-33.88289,0 18.41635,-33.88268,0 18.41784,-33.88244,0 18.41932,-33.8823,0 18.42052,-33.88216,0 18.422,-33.88206,0 18.42323,-33.88202,0 18.42469,-33.88202,0 18.42562,-33.88207,0 18.4271,-33.88216,0 18.42865,-33.88235,0 18.42985,-33.88248,0 18.43147,-33.8828,0 18.4327,-33.88307,0 18.43388,-33.88339,0 18.43511,-33.8838,0 18.43632,-33.88426,0 18.43758,-33.88482,0 18.43881,-33.88545,0 18.43998,-33.88612,0 18.44112,-33.88691,0 18.44206,-33.8876,0 18.44291,-33.88834,0 18.4438,-33.88911,0 18.44476,-33.89003,0 18.44542,-33.89073,0 18.44622,-33.89152,0 18.44696,-33.89245,0 18.44745,-33.8931,0 18.44776,-33.89384,0 18.4479,-33.89479,0 18.44778,-33.89529,0 18.44739,-33.89589,0 18.44661,-33.89621,0 18.44582,-33.89612,0 18.44504,-33.89571,0 18.44414,-33.89516,0 18.44313,-33.89464,0 18.44198,-33.89436,0 18.44128,-33.89438,0 18.44067,-33.89459,0 18.44009,-33.89487,0 18.43954,-33.89543,0 18.43909,-33.89589,0 18.43853,-33.89644,0 18.43803,-33.8969,0 18.43747,-33.89735,0 18.43685,-33.89777,0 18.43635,-33.89804,0 18.43569,-33.89827,0 18.43494,-33.89846,0 18.43426,-33.89855,0 18.43371,-33.89859,0 18.43311,-33.89864,0 18.43242,-33.89877,0 18.43181,-33.89886,0 18.43108,-33.899,0 18.43082,-33.89906,0 18.43052,-33.89909,0 18.43024,-33.89919,0 18.42861,-33.89955,0 18.42836,-33.89957,0 18.42833,-33.89928,0 18.42833,-33.89836,0 18.42836,-33.89813,0 18.42839,-33.8979,0 18.4285,-33.89745,0 18.42856,-33.89708,0 18.42867,-33.8968,0 18.42872,-33.89653,0 18.42876,-33.89622,0 18.42888,-33.89585,0 18.42894,-33.89557,0 18.42911,-33.89492,0 18.42928,-33.89431,0 18.42951,-33.89366,0 18.42973,-33.89301,0 18.42996,-33.89241,0 18.43025,-33.89161,0 18.43054,-33.89077,0 18.4308,-33.89008,0 18.43105,-33.88929,0 18.4313,-33.88861,0 18.43157,-33.88775,0 18.43168,-33.88705,0 18.4317,-33.88628,0 18.43164,-33.88568,0 18.43145,-33.88496,0 18.43105,-33.88412,0 18.43063,-33.88348,0 18.43018,-33.88293,0 18.42957,-33.88221,0 18.42889,-33.88156,0 18.42811,-33.88087,0 18.42739,-33.88034,0 18.42665,-33.87988,0 18.4259,-33.87941,0 18.42493,-33.87886,0 18.42407,-33.8784,0 18.42334,-33.87808,0 18.42217,-33.87767,0 18.42138,-33.87741,0 18.42026,-33.87712,0 18.41944,-33.87695,0 18.41824,-33.87676,0 18.41686,-33.87662,0 18.41583,-33.87662,0 18.41471,-33.87662,0 18.41376,-33.87662,0 18.41269,-33.87672,0 18.41157,-33.8768,0 18.41068,-33.87695,0 18.40995,-33.87712,0 18.40883,-33.87735,0 18.40794,-33.8776,0 18.40664,-33.87804,0 18.40557,-33.8784,0 18.40462,-33.87877,0 18.4037,-33.87918,0 18.4026,-33.87968,0 18.40171,-33.88014,0 18.40087,-33.88055,0 18.39986,-33.8811,0 18.3989,-33.88156,0 18.39801,-33.88206,0 18.39712,-33.88253,0 18.39605,-33.88312,0 18.395,-33.88374,0 18.39414,-33.88431,0 18.39329,-33.88486,0 18.39257,-33.88527,0 18.39134,-33.88609,0 18.39054,-33.88663,0 18.38954,-33.88733,0 18.3887,-33.88792,0 18.38785,-33.88854,0 18.3868,-33.88939,0 18.38602,-33.88998,0 18.38523,-33.89058,0 18.38425,-33.89138,0 18.38343,-33.89209,0 18.38248,-33.89291,0 18.38184,-33.89347,0 18.38102,-33.8942,0 18.38013,-33.89501,0 18.37929,-33.89575,0 18.37852,-33.8965,0 18.37744,-33.89754,0 18.37669,-33.89827,0 18.37601,-33.89892,0 18.37514,-33.89983,0 18.3743,-33.90074,0 18.37357,-33.90147,0 18.37301,-33.90207,0 18.37211,-33.90312,0 18.37126,-33.90409,0 18.37063,-33.90483,0 18.36981,-33.90582,0 18.36903,-33.90683,0 18.3684,-33.90767,0 18.36777,-33.90851,0 18.36714,-33.90935,0 18.36651,-33.91028,0 18.36576,-33.9114,0 18.36527,-33.91214,0 18.36456,-33.91321,0 18.36405,-33.9141,0 18.36353,-33.91498,0 18.36285,-33.91615,0 18.36236,-33.91708,0 18.36185,-33.91786,0 18.36118,-33.91901,0 18.36068,-33.91988,0 18.36006,-33.92097,0 18.35958,-33.92183,0 18.35905,-33.92285,0 18.35855,-33.92382,0 18.35804,-33.92477,0 18.35758,-33.92574,0 18.35703,-33.92679,0 18.35649,-33.92797,0 18.35592,-33.92908,0 18.35552,-33.93007,0 18.35496,-33.93127,0 18.35449,-33.9323,0 18.35409,-33.93328,0 18.35358,-33.93444,0 18.35318,-33.93542,0 18.3526,-33.93668,0 18.35165,-33.93892,0 18.35014,-33.94226,0 18.3482,-33.94687,0 18.34678,-33.95055,0 18.34638,-33.95151,0 18.34588,-33.95279,0 18.34532,-33.95398,0 18.34494,-33.95492,0 18.34437,-33.95645,0 18.34414,-33.95758,0 18.34414,-33.95851,0 18.34442,-33.95952,0 18.34534,-33.9607,0 18.34631,-33.96121,0 18.34734,-33.9614,0 18.34877,-33.96116,0 18.34969,-33.96062,0 18.35025,-33.95993,0 18.351,-33.95874,0 18.35129,-33.95804,0 18.35169,-33.95707,0 18.35215,-33.9559,0 18.35249,-33.9549,0 18.35289,-33.9539,0 18.35328,-33.95297,0 18.35369,-33.95181,0 18.35412,-33.95082,0 18.35455,-33.94966,0 18.35501,-33.94854,0 18.35541,-33.94761,0 18.35591,-33.94629,0 18.35638,-33.94505,0 18.35678,-33.94403,0 18.35799,-33.94102,0 18.35958,-33.93709,0 18.3609,-33.93379,0 18.36213,-33.93054,0 18.36348,-33.92711,0 18.36485,-33.92387,0 18.36628,-33.92061,0 18.36691,-33.9194,0 18.36737,-33.91847,0 18.36788,-33.91754,0 18.36852,-33.91631,0 18.36914,-33.91521,0 18.36966,-33.91433,0 18.37051,-33.91298,0 18.3712,-33.91186,0 18.37189,-33.91079,0 18.37245,-33.90994,0 18.37329,-33.9088,0 18.37383,-33.90809,0 18.37475,-33.90688,0 18.37559,-33.90578,0 18.37641,-33.90483,0 18.37716,-33.90395,0 18.37812,-33.90288,0 18.3791,-33.90185,0 18.37996,-33.90102,0 18.38097,-33.90005,0 18.38198,-33.89914,0 18.38293,-33.89832,0 18.38396,-33.89743,0 18.38488,-33.89673,0 18.38601,-33.89584,0 18.38711,-33.89506,0 18.38814,-33.89431,0 18.38923,-33.89357,0 18.39031,-33.89287,0 18.39134,-33.89227,0 18.39252,-33.89159,0 18.39346,-33.89105,0 18.39476,-33.8904,0 18.39569,-33.88989,0 18.39677,-33.88939,0 18.39806,-33.88879,0 18.39941,-33.8882,0 18.40047,-33.88774,0 18.40176,-33.88728,0 18.40284,-33.88686,0 18.40412,-33.88641,0 18.4057,-33.88593,0 18.40686,-33.88559,0 18.40799,-33.88528,0 18.40911,-33.88499,0 18.4104,-33.88467,0 18.41188,-33.8844,0 18.41303,-33.88416,0 18.41417,-33.88398,0 18.41537,-33.88379,0 18.41723,-33.88358,0 18.41819,-33.88348,0 18.41948,-33.88339,0 18.42098,-33.88333,0 18.42247,-33.88333,0 18.42374,-33.88335,0 18.42522,-33.88342,0 18.42642,-33.88351,0 18.42772,-33.88362,0 18.42923,-33.8838,0 18.43063,-33.88403,0 18.43181,-33.88426,0 18.43306,-33.88454,0 18.43433,-33.88486,0 18.43563,-33.88523,0 18.43646,-33.8855,0 18.43781,-33.88598,0 18.43915,-33.88651,0 18.44016,-33.88701,0 18.44135,-33.88775,0 18.44223,-33.88843,0 18.44307,-33.88925,0 18.44375,-33.88998,0 18.44425,-33.89081,0 18.44481,-33.89204,0 18.4449,-33.89296,0 18.44484,-33.89375,0 18.44448,-33.8947,0 18.44403,-33.89539,0 18.44324,-33.89612,0 18.44255,-33.8965,0 18.44156,-33.8969,0 18.44072,-33.89715,0 18.43971,-33.8974,0 18.43884,-33.89762,0 18.43775,-33.89786,0 18.43695,-33.89804,0 18.4362,-33.89822,0 18.43523,-33.89841,0 18.43449,-33.89855,0 18.43371,-33.89873,0 18.43277,-33.89892,0 18.43214,-33.89905,0 18.43128,-33.89925,0 18.43057,-33.89937,0 18.43001,-33.89946,0 18.42957,-33.89955,0 18.42894,-33.89967,0 18.42854,-33.89971,0 18.42772,-33.89987,0 18.42745,-33.89999,0 18.4271,-33.90019,0 18.42688,-33.90041,0 18.42682,-33.90069,0 18.42693,-33.90092,0 18.42699,-33.90065,0 18.4271,-33.90018,0 18.42722,-33.89994,0 18.42738,-33.89973,0 18.42762,-33.89934,0 18.42779,-33.89906,0 18.42794,-33.89882,0 18.42811,-33.89859,0 18.42839,-33.89818,0 18.42884,-33.89749,0 18.42905,-33.8972,0 18.42929,-33.8969,0 18.42962,-33.89635,0 18.43001,-33.89575,0 18.43046,-33.89507,0 18.43088,-33.89441,0 18.43136,-33.8936,0 18.43185,-33.89278,0 18.4322,-33.89218,0 18.43265,-33.89131,0 18.43306,-33.89035,0 18.43328,-33.88966,0 18.43351,-33.88882,0 18.43369,-33.88794,0 18.43382,-33.8871,0 18.43386,-33.88635,0 18.43382,-33.8855,0 18.43366,-33.88458,0 18.43343,-33.88371,0 18.43306,-33.88272,0 18.43276,-33.88202,0 18.43242,-33.88129,0 18.43203,-33.8806,0 18.43145,-33.87965,0 18.43094,-33.87886,0 18.43052,-33.87827,0 18.42979,-33.87737,0 18.42899,-33.87658,0 18.42828,-33.87593,0 18.4276,-33.87538,0 18.42659,-33.87479,0 18.42567,-33.87439,0 18.42487,-33.87415,0 18.42402,-33.87392,0 18.42218,-33.87374,0 18.42133,-33.87374,0 18.42009,-33.87378,0 18.4192,-33.87387,0 18.4183,-33.87401,0 18.41735,-33.87415,0 18.41651,-33.87428,0 18.41572,-33.87444,0 18.41466,-33.87465,0 18.41389,-33.87485,0 18.41291,-33.87509,0 18.41191,-33.87538,0 18.41112,-33.87561,0 18.41034,-33.87589,0 18.40965,-33.87625,0 18.40905,-33.87689,0 18.40877,-33.87753,0 18.40879,-33.87825,0 18.40902,-33.87877,0 18.4095,-33.87927,0 18.41022,-33.87974,0 18.41108,-33.88016,0 18.41166,-33.88034,0 18.41241,-33.8806,0 18.41343,-33.88081,0 18.41438,-33.88097,0 18.41516,-33.8811,0 18.41611,-33.8812,0 18.41684,-33.88124,0 18.41757,-33.88129,0 18.41841,-33.88129,0 18.41903,-33.88124,0 18.41961,-33.88109,0 18.42004,-33.88078,0 18.4202,-33.88033,0 18.42001,-33.87993,0 18.41942,-33.8795,0 18.41869,-33.87928,0 18.41795,-33.87918,0 18.41675,-33.87914,0 18.41566,-33.87918,0 18.41426,-33.87932,0 18.41326,-33.87946,0 18.41183,-33.8797,0 18.41074,-33.87988,0 18.40939,-33.88014,0 18.40832,-33.88042,0 18.40686,-33.88078,0 18.40559,-33.88109,0 18.4045,-33.88142,0 18.40316,-33.88179,0 18.40216,-33.88207,0 18.40078,-33.88253,0 18.39941,-33.88293,0 18.39832,-33.88333,0 18.39717,-33.88371,0 18.39621,-33.88412,0 18.39487,-33.88463,0 18.39363,-33.88513,0 18.3924,-33.88568,0 18.39134,-33.88621,0 18.39037,-33.88668,0 18.38905,-33.88737,0 18.38785,-33.88798,0 18.38688,-33.88854,0 18.38591,-33.8891,0 18.38478,-33.8898,0 18.38388,-33.8904,0 18.38287,-33.89108,0 18.38184,-33.89185,0 18.38099,-33.8925,0 18.38013,-33.8932,0 18.37893,-33.89422,0 18.37805,-33.89497,0 18.37721,-33.89571,0 18.37646,-33.89645,0 18.37543,-33.89743,0 18.37458,-33.89827,0 18.37374,-33.89914,0 18.3728,-33.90004,0 18.37177,-33.90115,0 18.37105,-33.90198,0 18.37023,-33.90283,0 18.36931,-33.9039,0 18.36847,-33.90486,0 18.36771,-33.90581,0 18.3669,-33.90683,0 18.36623,-33.90775,0 18.36555,-33.90862,0 18.36491,-33.90949,0 18.36388,-33.91098,0 18.36337,-33.91177,0 18.36262,-33.91293,0 18.36197,-33.91402,0 18.36136,-33.91498,0 18.36079,-33.91596,0 18.35989,-33.91745,0 18.3593,-33.91852,0 18.35877,-33.91946,0 18.35821,-33.92048,0 18.35764,-33.92164,0 18.35709,-33.92267,0 18.35664,-33.92363,0 18.35604,-33.9248,0 18.35558,-33.92578,0 18.35495,-33.92704,0 18.35451,-33.92798,0 18.35398,-33.92918,0 18.35363,-33.92997,0 18.35312,-33.93113,0 18.35261,-33.93228,0 18.35205,-33.93356,0 18.35123,-33.9356,0 18.35077,-33.93691,0 18.35043,-33.93789,0 18.35014,-33.93891,0 18.34991,-33.94003,0 18.34991,-33.94112,0 18.35008,-33.94208,0 18.35054,-33.94315,0 18.351,-33.94394,0 18.3516,-33.94464,0 18.35255,-33.94547,0 18.35328,-33.94588,0 18.3544,-33.94629,0 18.3553,-33.94638,0 18.3563,-33.94624,0 18.35703,-33.94597,0 18.3577,-33.94547,0 18.35827,-33.94473,0 18.3586,-33.94391,0 18.35878,-33.94315,0 18.35907,-33.94231,0 18.35933,-33.94135,0 18.35958,-33.94049,0 18.35981,-33.93979,0 18.36006,-33.93892,0 18.36023,-33.93791,0 18.36034,-33.93718,0 18.36033,-33.9363,0 18.36023,-33.93553,0 18.35995,-33.93466,0 18.35967,-33.93416,0 18.35918,-33.93365,0 18.35838,-33.93323,0 18.35747,-33.93314,0 18.35664,-33.93329,0 18.3558,-33.9337,0 18.35506,-33.93435,0 18.35432,-33.93537,0 18.35369,-33.93668,0 18.35335,-33.93774,0 18.35283,-33.93937,0 18.35238,-33.94086,0 18.35199,-33.94221,0 18.35146,-33.94389,0 18.35104,-33.94524,0 18.35066,-33.94636,0 18.35019,-33.9478,0 18.34991,-33.94878,0 18.34935,-33.95036,0 18.34894,-33.95157,0 18.34851,-33.95293,0 18.34801,-33.95421,0 18.34762,-33.95535,0 18.34723,-33.9566,0 18.34591,-33.96041,0 18.34362,-33.96698,0 18.34308,-33.96844,0 18.33988,-33.97774,0 18.33761,-33.98411,0 18.33567,-33.98997,0 18.33429,-33.9944,0 18.43888,-34.13329,0 18.44131,-34.13389,0 18.44264,-34.13404,0 18.444,-34.13417,0 18.44545,-34.13406,0 18.44687,-34.13376,0 18.44803,-34.13332,0 18.44918,-34.13292,0 18.45035,-34.13255,0 18.4516,-34.13213,0 18.4529,-34.13163,0 18.45402,-34.13096,0 18.45514,-34.13033,0 18.45623,-34.12965,0 18.45729,-34.12889,0 18.45833,-34.12819,0 18.45948,-34.12733,0 18.46034,-34.12661,0 18.46126,-34.12584,0 18.46234,-34.12504,0 18.46345,-34.12423,0 18.46454,-34.12338,0 18.46545,-34.12257,0 18.46645,-34.1216,0 18.46739,-34.1208,0 18.46844,-34.11991,0 18.46931,-34.11897,0 18.47008,-34.11827,0 18.47102,-34.11747,0 18.47195,-34.11655,0 18.47274,-34.11567,0 18.47345,-34.11464,0 18.47411,-34.11364,0 18.47492,-34.11263,0 18.47572,-34.11155,0 18.47641,-34.11055,0 18.47705,-34.10966,0 18.47777,-34.10851,0 18.47833,-34.10751,0 18.47899,-34.10631,0 18.47941,-34.10537,0 18.47976,-34.1043,0 18.48005,-34.10311,0 18.48014,-34.10198,0 18.48012,-34.1007,0 18.47966,-34.09993,0 18.47736,-34.09958,0 18.479,-34.09711,0 18.47933,-34.09566,0 18.47923,-34.09462,0 18.47855,-34.09391,0 18.47874,-34.09269,0 18.47937,-34.09146,0 18.47932,-34.09036,0 18.47896,-34.08921,0 18.47924,-34.08798,0 18.47964,-34.08641,0 18.47889,-34.08581,0 18.47892,-34.08465,0 18.47927,-34.0833,0 18.47935,-34.08212,0 18.47939,-34.08114,0 18.4791,-34.07999,0 18.47918,-34.07885,0 18.47959,-34.0777,0 18.47991,-34.07628,0 18.47929,-34.07537,0 18.47913,-34.0745,0 18.47952,-34.07327,0 18.47984,-34.07207,0 18.48037,-34.07085,0 18.48054,-34.06976,0 18.48064,-34.06871,0 18.48099,-34.06763,0 18.48123,-34.06624,0 18.48142,-34.06509,0 18.48164,-34.06399,0 18.48178,-34.0628,0 18.48197,-34.06164,0 18.48222,-34.06026,0 18.4821,-34.05613,0 18.48231,-34.05275,0 18.48269,-34.04839,0 18.48334,-34.04495,0 18.484,-34.04152,0 18.48466,-34.03683,0 18.48466,-34.03352,0 18.48433,-34.03138,0 18.48462,-34.03028,0 18.48464,-34.02905,0 18.48466,-34.02801,0 18.4843,-34.02694,0 18.4843,-34.02594,0 18.48431,-34.02452,0 18.48443,-34.02348,0 18.48468,-34.02231,0 18.48477,-34.02126,0 18.48487,-34.0201,0 18.48473,-34.01899,0 18.48438,-34.01786,0 18.4842,-34.01674,0 18.48438,-34.01566,0 18.48478,-34.01451,0 18.48482,-34.01353,0 18.48493,-34.01252,0 18.48475,-34.0113,0 18.48444,-34.01023,0 18.48438,-34.00919,0 18.48455,-34.00817,0 18.48478,-34.00698,0 18.48471,-34.00599,0 18.4846,-34.00471,0 18.48461,-34.00345,0 18.48487,-34.00121,0 18.48466,-34.00029,0 18.48461,-33.99883,0 18.48449,-33.99788,0 18.48442,-33.99686,0 18.48443,-33.99574,0 18.48446,-33.99457,0 18.48459,-33.99349,0 18.48443,-33.99243,0 18.48445,-33.9914,0 18.48434,-33.99038,0 18.4843,-33.98919,0 18.48453,-33.98662,0 18.48444,-33.98252,0 18.48404,-33.97809,0 18.48383,-33.97502,0 18.48427,-33.96852,0 18.4841,-33.96628,0 18.48398,-33.96535,0 18.48381,-33.96414,0 18.48364,-33.96312,0 18.48349,-33.96222,0 18.48332,-33.96098,0 18.48312,-33.96009,0 18.48284,-33.95888,0 18.48265,-33.95787,0 18.48242,-33.95695,0 18.48215,-33.95576,0 18.48198,-33.95478,0 18.48169,-33.95367,0 18.48152,-33.95269,0 18.48135,-33.95143,0 18.48118,-33.95045,0 18.48102,-33.94908,0 18.48083,-33.94775,0 18.48074,-33.9467,0 18.48063,-33.94569,0 18.48052,-33.94464,0 18.48035,-33.94331,0 18.48021,-33.94221,0 18.48007,-33.94121,0 18.47986,-33.93989,0 18.47975,-33.93886,0 18.47956,-33.93755,0 18.4794,-33.9363,0 18.47923,-33.9353,0 18.47895,-33.93407,0 18.47872,-33.93292,0 18.47839,-33.93155,0 18.47815,-33.93058,0 18.47783,-33.92931,0 18.47749,-33.92816,0 18.47723,-33.92709,0 18.47694,-33.92625,0 18.47654,-33.92504,0 18.47614,-33.92392,0 18.47563,-33.92276,0 18.47517,-33.92178,0 18.47452,-33.92075,0 18.47357,-33.91951,0 18.47289,-33.91878,0 18.47202,-33.91796,0 18.47076,-33.91698,0 18.46992,-33.91631,0 18.46863,-33.9153,0 18.46773,-33.91465,0 18.46676,-33.91391,0 18.46561,-33.91307,0 18.46449,-33.91223,0 18.46337,-33.91145,0 18.46241,-33.91077,0 18.46121,-33.90995,0 18.46029,-33.9093,0 18.45905,-33.90848,0 18.45789,-33.90763,0 18.4567,-33.90683,0 18.45271,-33.90399,0 18.44891,-33.90129,0 18.44593,-33.89923,0 18.44509,-33.89868,0 18.44421,-33.89817,0 18.44324,-33.89771,0 18.44206,-33.89731,0 18.44107,-33.89715,0 18.44021,-33.89715,0 18.43915,-33.89726,0 18.43842,-33.89745,0 18.43747,-33.89767,0 18.43655,-33.8979,0 18.4359,-33.89809,0 18.435,-33.89832,0 18.43422,-33.8985,0 18.43338,-33.89868,0 18.43259,-33.89882,0 18.43185,-33.89897,0 18.43114,-33.89914,0 18.43048,-33.89929,0 18.42974,-33.89943,0 18.42923,-33.89955,0 18.42895,-33.8996,0 18.42831,-33.89971,0 18.42779,-33.89985,0 18.42756,-33.89994,0 18.42732,-33.90005,0 18.42704,-33.90024,0 18.42682,-33.90046,0 18.42687,-33.9007,0 18.42699,-33.90092,0 18.42687,-33.9006,0 18.42693,-33.90032,0 18.42704,-33.9001,0 18.42722,-33.8999,0 18.42738,-33.89964,0 18.42772,-33.89928,0 18.42805,-33.89882,0 18.42822,-33.89859,0 18.42833,-33.89836,0 18.42856,-33.89804,0 18.42889,-33.89745,0 18.42922,-33.89697,0 18.42962,-33.89627,0 18.42996,-33.89566,0 18.43037,-33.89482,0 18.4306,-33.89436,0 18.43094,-33.89352,0 18.43119,-33.89305,0 18.43153,-33.89218,0 18.4318,-33.89138,0 18.43209,-33.89053,0 18.43237,-33.88976,0 18.43254,-33.88907,0 18.43276,-33.88815,0 18.43287,-33.88728,0 18.43283,-33.88612,0 18.4327,-33.88545,0 18.43248,-33.88458,0 18.4322,-33.88388,0 18.43168,-33.88291,0 18.4313,-33.88229,0 18.4308,-33.88161,0 18.43019,-33.88086,0 18.42957,-33.88021,0 18.42906,-33.87973,0 18.42831,-33.87904,0 18.42766,-33.87854,0 18.42687,-33.87799,0 18.42653,-33.87778,0 18.42547,-33.87721,0 18.42491,-33.87698,0 18.42407,-33.87671,0 18.4229,-33.87653,0 18.42213,-33.87648,0 18.42116,-33.87648,0 18.42012,-33.87658,0 18.41903,-33.87671,0 18.41824,-33.8769,0 18.41746,-33.87708,0 18.41623,-33.87735,0 18.41544,-33.87758,0 18.41457,-33.87783,0 18.41372,-33.87807,0 18.41297,-33.8783,0 18.41206,-33.87862,0 18.41108,-33.87895,0 18.41028,-33.87928,0 18.40948,-33.8796,0 18.40845,-33.88007,0 18.40748,-33.88051,0 18.4067,-33.88087,0 18.4057,-33.88137,0 18.4049,-33.88179,0 18.40405,-33.88221,0 18.403,-33.88275,0 18.40199,-33.8833,0 18.40124,-33.8837,0 18.40021,-33.8843,0 18.39941,-33.88477,0 18.39867,-33.88519,0 18.39784,-33.88568,0 18.39701,-33.88621,0 18.39616,-33.88678,0 18.3952,-33.88737,0 18.39459,-33.88779,0 18.3938,-33.88831,0 18.39306,-33.88882,0 18.39218,-33.88943,0 18.39123,-33.89008,0 18.39066,-33.8905,0 18.3896,-33.89127,0 18.38882,-33.8918,0 18.38792,-33.89246,0 18.38722,-33.89296,0 18.38562,-33.89415,0 18.38416,-33.89525,0 18.38345,-33.89585,0 18.38282,-33.89631,0 18.38214,-33.8969,0 18.38142,-33.89749,0 18.3807,-33.89813,0 18.3799,-33.89882,0 18.37912,-33.8996,0 18.37844,-33.90019,0 18.37783,-33.90083,0 18.37704,-33.90162,0 18.37637,-33.9023,0 18.37559,-33.90312,0 18.3748,-33.90399,0 18.37406,-33.90479,0 18.37343,-33.90548,0 18.37262,-33.90646,0 18.37189,-33.9073,0 18.3712,-33.90814,0 18.37029,-33.90921,0 18.3696,-33.91009,0 18.36869,-33.91113,0 18.36805,-33.91196,0 18.36718,-33.91306,0 18.36645,-33.91393,0 18.36559,-33.91507,0 18.36494,-33.91599,0 18.36428,-33.91689,0 18.36353,-33.91796,0 18.3629,-33.91894,0 18.36213,-33.9201,0 18.36163,-33.92097,0 18.36096,-33.9222,0 18.3604,-33.92322,0 18.35976,-33.92448,0 18.35924,-33.92546,0 18.35867,-33.92657,0 18.3581,-33.92769,0 18.35759,-33.92871,0 18.35698,-33.92995,0 18.35644,-33.931,0 18.3558,-33.93224,0 18.35529,-33.93328,0 18.35473,-33.93443,0 18.35426,-33.93537,0 18.35369,-33.93653,0 18.3521,-33.93979,0 18.35003,-33.944,0 18.34863,-33.94684,0 18.34655,-33.95123,0 18.34488,-33.95469,0 18.34311,-33.95855,0 18.34252,-33.96368,0 18.34459,-33.96531,0 18.34717,-33.96526,0 18.34924,-33.96373,0 18.35048,-33.96162,0 18.35171,-33.95911,0 18.34952,-33.96336,0 18.35289,-33.95673,0 18.35352,-33.9553,0 18.35406,-33.95412,0 18.35449,-33.9532,0 18.35496,-33.95215,0 18.35541,-33.95101,0 18.35586,-33.95,0 18.35636,-33.94881,0 18.35675,-33.94794,0 18.3572,-33.94675,0 18.3577,-33.94547,0 18.35804,-33.94459,0 18.35843,-33.94354,0 18.35964,-33.94026,0 18.3609,-33.93686,0 18.36136,-33.93565,0 18.36256,-33.93272,0 18.36393,-33.9295,0 18.3651,-33.92693,0 18.36561,-33.92583,0 18.36606,-33.92496,0 18.36718,-33.92276,0 18.36774,-33.92171,0 18.36817,-33.92094,0 18.3688,-33.91983,0 18.36943,-33.91875,0 18.37004,-33.91772,0 18.37057,-33.9168,0 18.37116,-33.91589,0 18.37166,-33.91507,0 18.3724,-33.91391,0 18.37306,-33.91283,0 18.37368,-33.91187,0 18.37418,-33.91116,0 18.37481,-33.91009,0 18.37715,-33.9066,0 18.378,-33.90546,0 18.3794,-33.90358,0 18.38007,-33.90276,0 18.38093,-33.90176,0 18.38186,-33.90074,0 18.38271,-33.89987,0 18.38332,-33.89928,0 18.3845,-33.89822,0 18.38533,-33.89743,0 18.3864,-33.89653,0 18.38722,-33.89585,0 18.38837,-33.89497,0 18.38951,-33.89408,0 18.39067,-33.89323,0 18.39163,-33.89264,0 18.39289,-33.8918,0 18.39397,-33.89117,0 18.39526,-33.89044,0 18.39661,-33.88975,0 18.39778,-33.88921,0 18.39913,-33.88866,0 18.40031,-33.8882,0 18.40158,-33.88775,0 18.40302,-33.88728,0 18.40473,-33.88677,0 18.4063,-33.88632,0 18.40731,-33.88607,0 18.40888,-33.88568,0 18.41017,-33.88536,0 18.41148,-33.88509,0 18.41274,-33.88486,0 18.41409,-33.88463,0 18.41566,-33.88435,0 18.41695,-33.88422,0 18.41818,-33.88407,0 18.4199,-33.88388,0 18.42116,-33.8838,0 18.42299,-33.88374,0 18.4247,-33.88374,0 18.4262,-33.8838,0 18.42755,-33.8839,0 18.42905,-33.88403,0 18.4306,-33.88421,0 18.43214,-33.88449,0 18.43349,-33.88477,0 18.435,-33.88513,0 18.43609,-33.88547,0 18.43781,-33.88614,0 18.43893,-33.88669,0 18.44021,-33.88737,0 18.4413,-33.88807,0 18.44238,-33.88896,0 18.4433,-33.8898,0 18.44397,-33.89067,0 18.44464,-33.89191,0 18.4449,-33.89287,0 18.44487,-33.89383,0 18.44453,-33.8947,0 18.44397,-33.89534,0 18.44319,-33.89589,0 18.44227,-33.89631,0 18.44128,-33.89667,0 18.44027,-33.89694,0 18.43949,-33.89717,0 18.4387,-33.89735,0 18.43815,-33.89748,0 18.43708,-33.89772,0 18.43637,-33.89785,0 18.43528,-33.89813,0 18.43449,-33.89832,0 18.43366,-33.8985,0 18.4327,-33.89877,0 18.43209,-33.89896,0 18.4313,-33.89909,0 18.43042,-33.89929,0 18.42945,-33.89962,0 18.429,-33.89983,0 18.42859,-33.90004,0 18.42802,-33.90032,0 18.42755,-33.9006,0 18.42727,-33.90074,0 18.42699,-33.90092,0 18.42693,-33.9006,0 18.42704,-33.90024,0 18.42716,-33.89999,0 18.42745,-33.89962,0 18.42785,-33.89929,0 18.42805,-33.89909,0 18.4285,-33.89882,0 18.42895,-33.89864,0 18.42923,-33.89845,0 18.42957,-33.89832,0 18.43052,-33.89795,0 18.43147,-33.89763,0 18.43231,-33.89738,0 18.4331,-33.89726,0 18.43403,-33.89715,0 18.435,-33.89715,0 18.43586,-33.89724,0 18.43672,-33.89748,0 18.43763,-33.8979,0 18.43848,-33.89841,0 18.43912,-33.89883,0 18.43987,-33.89939,0 18.44072,-33.89999,0 18.44141,-33.90046,0 18.44204,-33.90092,0 18.44291,-33.90157,0 18.44369,-33.90211,0 18.44464,-33.9028,0 18.44548,-33.9034,0 18.44622,-33.9039,0 18.44705,-33.9045,0 18.4477,-33.90493,0 18.44868,-33.90559,0 18.45227,-33.90793,0 18.45491,-33.90972,0 18.45899,-33.91228,0 18.46213,-33.91425,0 18.46589,-33.91653,0 18.46897,-33.91846,0 18.47013,-33.91917,0 18.47093,-33.91965,0 18.47219,-33.92048,0 18.47334,-33.92125,0 18.47431,-33.92187,0 18.47534,-33.92257,0 18.47637,-33.92322,0 18.48063,-33.92606,0 18.48495,-33.9288,0 18.48915,-33.93146,0 18.49239,-33.9336,0 18.4956,-33.93579,0 18.49749,-33.93705,0 18.49862,-33.93791,0 18.49946,-33.9386,0 18.50052,-33.93942,0 18.50126,-33.94006,0 18.50195,-33.94068,0 18.50288,-33.94144,0 18.50372,-33.94203,0 18.50456,-33.94258,0 18.50535,-33.94299,0 18.50641,-33.94342,0 18.50721,-33.94361,0 18.50842,-33.94366,0 18.50916,-33.94357,0 18.51006,-33.94322,0 18.51073,-33.94276,0 18.51129,-33.94217,0 18.51168,-33.94142,0 18.51191,-33.94091,0 18.51248,-33.94021,0 18.51316,-33.93989,0 18.51381,-33.93983,0 18.51454,-33.93998,0 18.51533,-33.94048,0 18.51608,-33.94105,0 18.51684,-33.94176,0 18.5174,-33.94231,0 18.5183,-33.94318,0 18.519,-33.94389,0 18.51992,-33.94473,0 18.52083,-33.94561,0 18.52177,-33.94647,0 18.52267,-33.94725,0 18.5234,-33.94789,0 18.52455,-33.94883,0 18.52553,-33.94958,0 18.52638,-33.95022,0 18.52727,-33.95087,0 18.52861,-33.95174,0 18.52956,-33.95229,0 18.53062,-33.95287,0 18.53169,-33.95343,0 18.53285,-33.95404,0 18.53399,-33.95457,0 18.53511,-33.95508,0 18.53612,-33.95554,0 18.53719,-33.95599,0 18.53819,-33.95645,0 18.53949,-33.95697,0 18.54057,-33.95744,0 18.54195,-33.95801,0 18.54302,-33.95847,0 18.54425,-33.95892,0 18.54532,-33.95939,0 18.5466,-33.95988,0 18.54767,-33.9603,0 18.54904,-33.96079,0 18.55013,-33.96121,0 18.55133,-33.96167,0 18.55242,-33.962,0 18.5535,-33.9624,0 18.55476,-33.96274,0 18.55596,-33.96313,0 18.55711,-33.96344,0 18.55815,-33.96373,0 18.55917,-33.96405,0 18.56054,-33.96442,0 18.56163,-33.96474,0 18.56275,-33.96506,0 18.56392,-33.96542,0 18.56524,-33.96577,0 18.56632,-33.966,0 18.56774,-33.96625,0 18.56886,-33.96643,0 18.57004,-33.96661,0 18.57113,-33.96675,0 18.57222,-33.96693,0 18.5734,-33.96707,0 18.57452,-33.96721,0 18.57586,-33.96735,0 18.57702,-33.96749,0 18.57834,-33.96763,0 18.57954,-33.96772,0 18.58068,-33.9678,0 18.58177,-33.96791,0 18.58287,-33.96803,0 18.58388,-33.96817,0 18.58517,-33.9684,0 18.58612,-33.96863,0 18.58704,-33.96889,0 18.58789,-33.96926,0 18.58875,-33.96973,0 18.58938,-33.97015,0 18.58995,-33.97057,0 18.59053,-33.97112,0 18.59105,-33.9716,0 18.59145,-33.97206,0 18.59173,-33.97238,0 18.59213,-33.9728,0 18.59253,-33.97331,0 18.59282,-33.97364,0 18.59316,-33.9741,0 18.59341,-33.97444,0 18.59367,-33.9748,0 18.59386,-33.97508,0 18.59419,-33.9755,0 18.59436,-33.97578,0 18.59464,-33.97609,0 18.59482,-33.97634,0 18.59505,-33.97662,0 18.59516,-33.97685,0</coordinates>
      </LineString>
    </Placemark>
  </Document>
</kml>
