<?xml version="1.0" encoding="UTF-8"?>
<kml xmlns="http://www.opengis.net/kml/2.2">
  <Document>
    <name>FR24 41643b56</name>
    <Placemark>
      <name>FR24 41643b56</name>
      <Style><LineStyle><color>ff0000ff</color><width>4</width></LineStyle></Style>
      <LineString>
        <tessellate>1</tessellate>
        <coordinates>18.43287,-33.90134,0 18.43431,-33.90115,0 18.43517,-33.90092,0 18.43584,-33.90065,0 18.43649,-33.90022,0 18.43708,-33.89969,0 18.43752,-33.89919,0 18.43798,-33.8985,0 18.43826,-33.8979,0 18.43853,-33.89703,0 18.43866,-33.89636,0 18.43872,-33.89557,0 18.43876,-33.89474,0 18.4387,-33.89406,0 18.43866,-33.89324,0 18.43859,-33.89268,0 18.43843,-33.8917,0 18.43826,-33.89101,0 18.43809,-33.89008,0 18.43786,-33.88933,0 18.43763,-33.8884,0 18.43735,-33.88765,0 18.43702,-33.88678,0 18.43663,-33.88609,0 18.43609,-33.88519,0 18.43562,-33.88458,0 18.43495,-33.88371,0 18.43431,-33.88305,0 18.43369,-33.88244,0 18.43299,-33.88193,0 18.43197,-33.88132,0 18.431,-33.88086,0 18.43014,-33.88053,0 18.42917,-33.88023,0 18.42808,-33.87997,0 18.42693,-33.87982,0 18.42587,-33.87968,0 18.42475,-33.87959,0 18.42361,-33.87951,0 18.42253,-33.87951,0 18.42105,-33.8795,0 18.41955,-33.87955,0 18.41818,-33.8796,0 18.41679,-33.87973,0 18.41549,-33.87988,0 18.41432,-33.88,0 18.4128,-33.88025,0 18.4116,-33.88049,0 18.41022,-33.88076,0 18.40899,-33.8811,0 18.40737,-33.88152,0 18.40611,-33.88188,0 18.40496,-33.88221,0 18.40344,-33.88266,0 18.40227,-33.88303,0 18.40096,-33.88346,0 18.39935,-33.88399,0 18.39806,-33.88445,0 18.39615,-33.88514,0 18.39489,-33.88565,0 18.3934,-33.88626,0 18.3924,-33.88673,0 18.39095,-33.88737,0 18.38949,-33.88811,0 18.38831,-33.88873,0 18.38728,-33.88929,0 18.3859,-33.89003,0 18.3847,-33.89063,0 18.38333,-33.89143,0 18.3823,-33.89203,0 18.38121,-33.89264,0 18.37996,-33.89342,0 18.37898,-33.89408,0 18.37772,-33.89493,0 18.37676,-33.89566,0 18.37581,-33.89639,0 18.37491,-33.89713,0 18.37378,-33.89804,0 18.37286,-33.89883,0 18.37154,-33.89999,0 18.37071,-33.90074,0 18.3697,-33.9017,0 18.36836,-33.90308,0 18.36746,-33.90417,0 18.36668,-33.90506,0 18.366,-33.90596,0 18.3651,-33.9071,0 18.36433,-33.90809,0 18.36365,-33.90907,0 18.36281,-33.91035,0 18.36213,-33.91136,0 18.36147,-33.91242,0 18.36079,-33.91354,0 18.36,-33.91475,0 18.3593,-33.91596,0 18.35855,-33.91722,0 18.35804,-33.9181,0 18.35726,-33.91942,0 18.35653,-33.92061,0 18.35574,-33.92198,0 18.35512,-33.92299,0 18.35443,-33.92424,0 18.35386,-33.92532,0 18.35322,-33.92665,0 18.35255,-33.92802,0 18.35199,-33.92917,0 18.35148,-33.93022,0 18.35089,-33.93142,0 18.35036,-33.93256,0 18.34986,-33.93361,0 18.34935,-33.93466,0 18.34874,-33.9359,0 18.34818,-33.93695,0 18.34757,-33.93826,0 18.34694,-33.93956,0 18.34638,-33.94066,0 18.34585,-33.9418,0 18.34539,-33.94287,0 18.34482,-33.94417,0 18.34431,-33.94528,0 18.34373,-33.94659,0 18.34319,-33.94794,0 18.34257,-33.94936,0 18.34201,-33.95064,0 18.34151,-33.95178,0 18.34099,-33.95292,0 18.34027,-33.95435,0 18.33971,-33.9554,0 18.33887,-33.95695,0 18.33831,-33.95801,0 18.33773,-33.95911,0 18.33721,-33.96014,0 18.33562,-33.96451,0 18.33773,-33.97005,0 18.3405,-33.97142,0 18.34379,-33.97126,0 18.34649,-33.96968,0 18.33561,-33.96558,0 18.34951,-33.96493,0 18.35036,-33.96236,0 18.35146,-33.95772,0 18.3518,-33.95618,0 18.35221,-33.95453,0 18.35249,-33.95329,0 18.35272,-33.9525,0 18.35312,-33.95101,0 18.35339,-33.94995,0 18.35378,-33.94858,0 18.35406,-33.94757,0 18.35535,-33.94324,0 18.3558,-33.94203,0 18.35614,-33.94107,0 18.35653,-33.94002,0 18.35701,-33.93872,0 18.35743,-33.93768,0 18.35775,-33.93677,0 18.35821,-33.93556,0 18.35855,-33.93458,0 18.35894,-33.93356,0 18.3593,-33.93244,0 18.35978,-33.93105,0 18.36017,-33.92986,0 18.3613,-33.92667,0 18.36247,-33.92354,0 18.36296,-33.92234,0 18.36342,-33.92136,0 18.36388,-33.92043,0 18.36454,-33.91914,0 18.36514,-33.91815,0 18.36583,-33.91708,0 18.36645,-33.9161,0 18.36708,-33.91517,0 18.36794,-33.91401,0 18.36868,-33.91302,0 18.36942,-33.91209,0 18.3702,-33.91104,0 18.37109,-33.90991,0 18.37177,-33.90907,0 18.37256,-33.9082,0 18.37349,-33.90716,0 18.37423,-33.90632,0 18.37508,-33.90546,0 18.37587,-33.90468,0 18.37658,-33.90395,0 18.37767,-33.90292,0 18.37864,-33.90204,0 18.37955,-33.9012,0 18.38064,-33.90022,0 18.3813,-33.8996,0 18.38236,-33.89874,0 18.38327,-33.89795,0 18.38436,-33.89711,0 18.38522,-33.89645,0 18.38596,-33.89589,0 18.3873,-33.89502,0 18.38831,-33.89442,0 18.38923,-33.89389,0 18.39054,-33.89315,0 18.39151,-33.89264,0 18.39277,-33.89203,0 18.3942,-33.89138,0 18.39537,-33.8909,0 18.39649,-33.89044,0 18.3979,-33.88994,0 18.3993,-33.88948,0 18.4007,-33.88907,0 18.40193,-33.88868,0 18.40307,-33.88835,0 18.40423,-33.88802,0 18.4058,-33.8876,0 18.40696,-33.88728,0 18.40828,-33.88696,0 18.40916,-33.88669,0 18.41068,-33.88632,0 18.41183,-33.88607,0 18.41291,-33.88579,0 18.41406,-33.88556,0 18.4152,-33.88533,0 18.41651,-33.88504,0 18.41768,-33.88481,0 18.41875,-33.88458,0 18.41972,-33.8844,0 18.42088,-33.88417,0 18.42213,-33.88393,0 18.4234,-33.88367,0 18.42475,-33.88344,0 18.42573,-33.88333,0 18.42705,-33.88337,0 18.42822,-33.88362,0 18.42899,-33.88393,0 18.42985,-33.88458,0 18.43031,-33.88519,0 18.43065,-33.88612,0 18.43077,-33.887,0 18.43069,-33.88779,0 18.43042,-33.88896,0 18.43018,-33.88989,0 18.42991,-33.89073,0 18.42968,-33.89149,0 18.42945,-33.89218,0 18.42929,-33.89282,0 18.42911,-33.89357,0 18.42899,-33.89399,0 18.42882,-33.89455,0 18.42861,-33.8952,0 18.42859,-33.89543,0 18.42848,-33.89576,0 18.42842,-33.89599,0 18.42833,-33.89635,0 18.42828,-33.89658,0 18.42816,-33.89694,0 18.42805,-33.89735,0 18.42802,-33.89757,0 18.42791,-33.89794,0 18.42788,-33.89818,0 18.42779,-33.89855,0 18.42772,-33.89886,0 18.4276,-33.89928,0 18.42749,-33.89964,0 18.42733,-33.8999,0 18.4271,-33.90018,0 18.42688,-33.90041,0 18.42687,-33.9007,0 18.4271,-33.90088,0 18.4271,-33.90111,0 18.4276,-33.90106,0 18.42934,-33.90102,0 18.43035,-33.90092,0 18.43065,-33.90088,0 18.43111,-33.90083,0 18.43157,-33.90078,0 18.4318,-33.90074,0 18.43214,-33.90069,0 18.43306,-33.9006,0 18.43386,-33.90051,0 18.43454,-33.90027,0 18.43539,-33.89992,0 18.43603,-33.89943,0 18.43668,-33.89882,0 18.43712,-33.89827,0 18.43763,-33.89753,0 18.43803,-33.89669,0 18.43832,-33.89589,0 18.43848,-33.89497,0 18.43853,-33.89424,0 18.43853,-33.89337,0 18.43853,-33.8925,0 18.43848,-33.89168,0 18.43843,-33.89096,0 18.43832,-33.89003,0 18.43821,-33.88929,0 18.43797,-33.88843,0 18.43764,-33.88747,0 18.43736,-33.88673,0 18.437,-33.88607,0 18.43637,-33.88519,0 18.43584,-33.88454,0 18.43523,-33.8839,0 18.43466,-33.88342,0 18.43386,-33.88277,0 18.43321,-33.88234,0 18.43226,-33.88174,0 18.43157,-33.88137,0 18.43054,-33.88086,0 18.42991,-33.88063,0 18.42895,-33.88028,0 18.42811,-33.88,0 18.4271,-33.87968,0 18.42613,-33.87946,0 18.42525,-33.87927,0 18.42413,-33.87904,0 18.42306,-33.87891,0 18.42184,-33.87877,0 18.42065,-33.87868,0 18.41953,-33.87859,0 18.41841,-33.87854,0 18.4169,-33.87854,0 18.41555,-33.87853,0 18.41412,-33.87858,0 18.41297,-33.87862,0 18.41146,-33.87872,0 18.41022,-33.87886,0 18.40899,-33.879,0 18.40754,-33.87918,0 18.40628,-33.87937,0 18.40479,-33.87964,0 18.40333,-33.87991,0 18.40204,-33.88021,0 18.40084,-33.88053,0 18.39958,-33.88086,0 18.3979,-33.88138,0 18.39666,-33.88184,0 18.39523,-33.88235,0 18.39403,-33.88281,0 18.39252,-33.88344,0 18.39106,-33.88412,0 18.39014,-33.88458,0 18.38876,-33.88531,0 18.38774,-33.88589,0 18.3864,-33.88669,0 18.385,-33.88751,0 18.38385,-33.88826,0 18.38264,-33.8891,0 18.3817,-33.8898,0 18.38041,-33.89082,0 18.3794,-33.89159,0 18.37861,-33.89232,0 18.37744,-33.89333,0 18.37669,-33.89413,0 18.37555,-33.8952,0 18.37486,-33.89594,0 18.37391,-33.8969,0 18.37286,-33.89808,0 18.37211,-33.89886,0 18.37109,-33.89994,0 18.37023,-33.90092,0 18.36937,-33.90199,0 18.36845,-33.90306,0 18.36791,-33.90376,0 18.36691,-33.90506,0 18.36606,-33.90623,0 18.36516,-33.90747,0 18.36449,-33.90843,0 18.36382,-33.90939,0 18.36308,-33.91051,0 18.3623,-33.91173,0 18.36159,-33.91293,0 18.36101,-33.91388,0 18.36028,-33.91516,0 18.35961,-33.91635,0 18.35911,-33.91713,0 18.35838,-33.91833,0 18.35764,-33.91954,0 18.35692,-33.92079,0 18.35608,-33.92221,0 18.35546,-33.92317,0 18.35484,-33.92424,0 18.35412,-33.92551,0 18.35335,-33.92676,0 18.35272,-33.92788,0 18.35199,-33.92931,0 18.35135,-33.93044,0 18.3507,-33.93169,0 18.34997,-33.93306,0 18.34934,-33.93416,0 18.34871,-33.93537,0 18.34818,-33.93631,0 18.3475,-33.93764,0 18.34694,-33.93863,0 18.34621,-33.94002,0 18.34557,-33.94142,0 18.34481,-33.94295,0 18.34425,-33.94414,0 18.34368,-33.94543,0 18.34308,-33.94684,0 18.3424,-33.9483,0 18.34185,-33.94957,0 18.34116,-33.95111,0 18.34061,-33.95224,0 18.34002,-33.95353,0 18.33949,-33.95467,0 18.33753,-33.95865,0 18.33568,-33.96259,0 18.33458,-33.96586,0 18.33721,-33.97089,0 18.3395,-33.97182,0 18.34375,-33.97197,0 18.34655,-33.9706,0 18.34791,-33.96903,0 18.34848,-33.96796,0 18.34911,-33.96661,0 18.34957,-33.9654,0 18.34991,-33.96432,0 18.35019,-33.96364,0 18.35042,-33.96295,0 18.35117,-33.96074,0 18.3514,-33.96,0 18.35238,-33.95688,0 18.35266,-33.95586,0 18.35294,-33.9549,0 18.35318,-33.95399,0 18.35346,-33.95292,0 18.35384,-33.95151,0 18.35412,-33.95055,0 18.3544,-33.94949,0 18.35484,-33.94813,0 18.35506,-33.94724,0 18.35541,-33.94622,0 18.3558,-33.9451,0 18.35609,-33.94417,0 18.35658,-33.94286,0 18.35692,-33.94185,0 18.35735,-33.94063,0 18.35787,-33.9391,0 18.35821,-33.93821,0 18.35867,-33.93686,0 18.35913,-33.9356,0 18.35941,-33.93486,0 18.35999,-33.93346,0 18.36051,-33.93233,0 18.36101,-33.93118,0 18.3614,-33.93027,0 18.3618,-33.92935,0 18.36241,-33.92802,0 18.36285,-33.92718,0 18.36348,-33.92587,0 18.36387,-33.925,0 18.36451,-33.92387,0 18.36502,-33.92289,0 18.36554,-33.92192,0 18.36605,-33.92103,0 18.36651,-33.92015,0 18.36712,-33.91901,0 18.3683,-33.9169,0 18.36886,-33.91594,0 18.36937,-33.91512,0 18.37116,-33.91205,0 18.37234,-33.91017,0 18.37303,-33.90916,0 18.3736,-33.90833,0 18.37429,-33.90725,0 18.37503,-33.90619,0 18.37587,-33.90504,0 18.3766,-33.90408,0 18.37727,-33.90326,0 18.37794,-33.90248,0 18.37889,-33.90138,0 18.37967,-33.90046,0 18.3807,-33.89939,0 18.38161,-33.8985,0 18.38242,-33.89771,0 18.38355,-33.89676,0 18.38467,-33.89589,0 18.38568,-33.89515,0 18.3868,-33.89452,0 18.38781,-33.89388,0 18.38917,-33.8932,0 18.39033,-33.89264,0 18.39173,-33.89204,0 18.39285,-33.89159,0 18.39403,-33.89115,0 18.39515,-33.89076,0 18.39672,-33.89026,0 18.39792,-33.88989,0 18.39924,-33.88947,0 18.40078,-33.88905,0 18.40204,-33.88866,0 18.40347,-33.88826,0 18.4044,-33.88802,0 18.40597,-33.88765,0 18.40703,-33.88742,0 18.40827,-33.88715,0 18.40977,-33.88682,0 18.41125,-33.88654,0 18.41236,-33.88632,0 18.41359,-33.88605,0 18.41475,-33.88584,0 18.41618,-33.88556,0 18.41729,-33.88536,0 18.41846,-33.88514,0 18.41949,-33.88496,0 18.42065,-33.88477,0 18.42149,-33.88463,0 18.42304,-33.8844,0 18.42407,-33.88426,0 18.42558,-33.88417,0 18.42665,-33.88426,0 18.42755,-33.88445,0 18.42856,-33.88481,0 18.42945,-33.88545,0 18.43014,-33.88621,0 18.43052,-33.88683,0 18.43077,-33.88765,0 18.43088,-33.88849,0 18.43069,-33.88939,0 18.43048,-33.89008,0 18.43029,-33.89058,0 18.42997,-33.89138,0 18.42973,-33.89218,0 18.42945,-33.89296,0 18.42916,-33.8938,0 18.42899,-33.89445,0 18.42884,-33.89497,0 18.42876,-33.89534,0 18.42867,-33.89561,0 18.42856,-33.89594,0 18.4285,-33.89616,0 18.42844,-33.89639,0 18.42828,-33.89685,0 18.42822,-33.89713,0 18.42813,-33.89743,0 18.42805,-33.89781,0 18.42794,-33.89809,0 18.42783,-33.89854,0 18.42773,-33.89887,0 18.42762,-33.8992,0 18.42749,-33.89951,0 18.42739,-33.89976,0 18.42727,-33.89996,0 18.42705,-33.90027,0 18.42687,-33.9006,0 18.4271,-33.90083,0 18.42716,-33.90106,0 18.42743,-33.90106,0 18.42859,-33.90115,0 18.42884,-33.90115,0 18.42939,-33.90115,0 18.42979,-33.9012,0 18.43024,-33.9012,0 18.4306,-33.9012,0 18.43082,-33.9012,0 18.43114,-33.9012,0 18.43145,-33.9012,0 18.43231,-33.9012,0 18.43293,-33.9012,0 18.43382,-33.90106,0 18.43449,-33.90088,0 18.43512,-33.9006,0 18.4359,-33.90015,0 18.43646,-33.89964,0 18.437,-33.8992,0 18.43752,-33.8985,0 18.43792,-33.89794,0 18.43837,-33.89713,0 18.43861,-33.89641,0 18.43881,-33.89548,0 18.43895,-33.89473,0 18.43904,-33.89397,0 18.43906,-33.8932,0 18.43904,-33.89227,0 18.43893,-33.89154,0 18.43884,-33.89077,0 18.43866,-33.89003,0 18.43842,-33.88934,0 18.43809,-33.88845,0 18.43769,-33.88756,0 18.43735,-33.88696,0 18.43683,-33.88621,0 18.43626,-33.88542,0 18.43573,-33.88481,0 18.43512,-33.88421,0 18.43454,-33.8837,0 18.43366,-33.88307,0 18.43287,-33.88257,0 18.43208,-33.88216,0 18.43119,-33.88179,0 18.43019,-33.88142,0 18.42922,-33.88109,0 18.42813,-33.88081,0 18.42699,-33.88051,0 18.42592,-33.88028,0 18.42469,-33.88005,0 18.42374,-33.87991,0 18.4223,-33.87965,0 18.42105,-33.8795,0 18.41995,-33.87937,0 18.41869,-33.87927,0 18.41743,-33.87914,0 18.41583,-33.87904,0 18.41463,-33.879,0 18.41309,-33.87895,0 18.41163,-33.87895,0 18.4104,-33.87895,0 18.40919,-33.879,0 18.40754,-33.87914,0 18.40593,-33.87937,0 18.40479,-33.87955,0 18.40364,-33.87974,0 18.40215,-33.88005,0 18.40098,-33.88033,0 18.39958,-33.88067,0 18.39812,-33.88106,0 18.39655,-33.88151,0 18.39543,-33.88184,0 18.39431,-33.88225,0 18.39308,-33.88266,0 18.39163,-33.88323,0 18.39044,-33.88367,0 18.3894,-33.88412,0 18.38797,-33.88472,0 18.38663,-33.88536,0 18.38551,-33.88596,0 18.38459,-33.8864,0 18.3836,-33.88696,0 18.38237,-33.8877,0 18.3811,-33.88854,0 18.37985,-33.88939,0 18.37904,-33.88998,0 18.378,-33.89081,0 18.37688,-33.89172,0 18.37547,-33.89291,0 18.37463,-33.89366,0 18.37349,-33.89473,0 18.3724,-33.89585,0 18.37155,-33.89676,0 18.37071,-33.89763,0 18.37004,-33.89845,0 18.36897,-33.89967,0 18.36823,-33.9006,0 18.36748,-33.90153,0 18.36651,-33.90283,0 18.36578,-33.90385,0 18.36505,-33.905,0 18.36443,-33.90596,0 18.36382,-33.90702,0 18.36314,-33.90825,0 18.36258,-33.90921,0 18.36193,-33.91042,0 18.36135,-33.91145,0 18.36085,-33.91246,0 18.36033,-33.9134,0 18.35964,-33.9147,0 18.35901,-33.91596,0 18.35844,-33.91708,0 18.35787,-33.91815,0 18.35726,-33.91933,0 18.35535,-33.92308,0 18.35346,-33.9268,0 18.35165,-33.93045,0 18.35036,-33.93297,0 18.34986,-33.93411,0 18.34935,-33.93521,0 18.34874,-33.93649,0 18.34814,-33.93784,0 18.34756,-33.9391,0 18.34705,-33.94026,0 18.3466,-33.94133,0 18.34599,-33.94267,0 18.3456,-33.94359,0 18.34498,-33.94487,0 18.34328,-33.94883,0 18.34106,-33.95398,0 18.33921,-33.95874,0 18.33758,-33.96295,0 18.33854,-33.97078,0 18.34162,-33.97219,0 18.34482,-33.97215,0 18.34795,-33.97055,0 18.33675,-33.96609,0 18.35066,-33.96619,0 18.351,-33.96512,0 18.35123,-33.96409,0 18.35152,-33.96284,0 18.3522,-33.95851,0 18.35238,-33.95718,0 18.35255,-33.95613,0 18.35272,-33.95485,0 18.353,-33.95348,0 18.35318,-33.95246,0 18.35335,-33.95129,0 18.35367,-33.94986,0 18.35398,-33.94845,0 18.35432,-33.94729,0 18.35462,-33.94601,0 18.35496,-33.94478,0 18.3553,-33.94368,0 18.35558,-33.94267,0 18.35592,-33.94142,0 18.35632,-33.94026,0 18.35664,-33.93924,0 18.35701,-33.93821,0 18.35752,-33.93672,0 18.35787,-33.93575,0 18.35832,-33.93452,0 18.35873,-33.93328,0 18.35907,-33.9323,0 18.35953,-33.93081,0 18.35981,-33.93002,0 18.36021,-33.92867,0 18.36056,-33.92755,0 18.36096,-33.92625,0 18.36124,-33.92551,0 18.36157,-33.92445,0 18.36208,-33.92317,0 18.36239,-33.92243,0 18.36292,-33.92125,0 18.36353,-33.92006,0 18.36405,-33.91912,0 18.36456,-33.91824,0 18.36527,-33.91722,0 18.36611,-33.91626,0 18.36701,-33.91553,0 18.36791,-33.91489,0 18.36903,-33.91391,0 18.36977,-33.91312,0 18.37057,-33.91214,0 18.3712,-33.9114,0 18.37183,-33.91056,0 18.37275,-33.90949,0 18.3736,-33.90846,0 18.3744,-33.90753,0 18.37509,-33.90683,0 18.37601,-33.90577,0 18.37675,-33.90502,0 18.37777,-33.90395,0 18.37852,-33.9032,0 18.37945,-33.90239,0 18.38046,-33.90147,0 18.38153,-33.90056,0 18.38265,-33.8996,0 18.38349,-33.89886,0 18.38422,-33.89827,0 18.38534,-33.89735,0 18.38648,-33.8965,0 18.38753,-33.89571,0 18.38837,-33.89506,0 18.38934,-33.89445,0 18.39067,-33.89365,0 18.39169,-33.89315,0 18.39285,-33.89264,0 18.3942,-33.89212,0 18.39554,-33.89168,0 18.39666,-33.89131,0 18.39801,-33.8909,0 18.39913,-33.89063,0 18.40064,-33.89026,0 18.40181,-33.88998,0 18.40342,-33.88961,0 18.40467,-33.88933,0 18.40625,-33.88902,0 18.40714,-33.88879,0 18.40879,-33.88845,0 18.41,-33.88815,0 18.41125,-33.88789,0 18.41241,-33.88765,0 18.41404,-33.88733,0 18.41791,-33.88651,0 18.42138,-33.88579,0 18.42626,-33.88486,0 18.42755,-33.88481,0 18.42867,-33.88499,0 18.42957,-33.88527,0 18.43052,-33.88582,0 18.43108,-33.88646,0 18.43153,-33.88733,0 18.43164,-33.88806,0 18.43157,-33.88891,0 18.4314,-33.88975,0 18.43111,-33.89059,0 18.43091,-33.89117,0 18.43063,-33.89191,0 18.43037,-33.8925,0 18.43014,-33.89305,0 18.42985,-33.89374,0 18.42962,-33.89429,0 18.42934,-33.89493,0 18.42912,-33.89548,0 18.429,-33.89575,0 18.42884,-33.89612,0 18.42867,-33.89648,0 18.42848,-33.89706,0 18.42836,-33.89729,0 18.42825,-33.89766,0 18.42816,-33.8979,0 18.42808,-33.89813,0 18.42794,-33.89859,0 18.42779,-33.89897,0 18.42772,-33.89928,0 18.4276,-33.89955,0 18.42745,-33.89985,0 18.42728,-33.90009,0 18.42699,-33.90032,0 18.42682,-33.90056,0 18.42699,-33.90079,0 18.42721,-33.90102,0 18.42699,-33.9012,0 18.4271,-33.90097,0 18.42699,-33.90069,0 18.42699,-33.90038,0 18.4271,-33.90005,0 18.42728,-33.89971,0 18.42745,-33.89943,0 18.42772,-33.89891,0 18.42794,-33.89845,0 18.42808,-33.89817,0 18.42831,-33.89776,0 18.42844,-33.89745,0 18.42871,-33.89706,0 18.42888,-33.89678,0 18.42906,-33.89644,0 18.42929,-33.89603,0 18.42951,-33.89571,0 18.42985,-33.89506,0 18.43024,-33.89438,0 18.43071,-33.89361,0 18.43108,-33.89291,0 18.43145,-33.89227,0 18.43191,-33.89133,0 18.43237,-33.89053,0 18.43283,-33.88975,0 18.43321,-33.88902,0 18.43355,-33.88847,0 18.43399,-33.88756,0 18.43433,-33.88692,0 18.43483,-33.88602,0 18.43523,-33.88518,0 18.43567,-33.88422,0 18.43597,-33.88342,0 18.43632,-33.88268,0 18.43668,-33.88174,0 18.43695,-33.88095,0 18.4373,-33.87991,0 18.43775,-33.879,0 18.4382,-33.8784,0 18.43884,-33.87788,0 18.43964,-33.87751,0 18.44072,-33.87737,0 18.44152,-33.87751,0 18.44215,-33.87783,0 18.44273,-33.87835,0 18.44313,-33.87909,0 18.44324,-33.87968,0 18.44318,-33.88039,0 18.44291,-33.88115,0 18.44255,-33.88169,0 18.44212,-33.88206,0 18.44139,-33.88252,0 18.44049,-33.88286,0 18.43977,-33.88303,0 18.43884,-33.88309,0 18.43803,-33.88307,0 18.43689,-33.88286,0 18.43609,-33.88268,0 18.43495,-33.88239,0 18.43391,-33.88207,0 18.43304,-33.88184,0 18.43203,-33.88161,0 18.43102,-33.88142,0 18.42997,-33.88123,0 18.42856,-33.88101,0 18.42745,-33.88091,0 18.42632,-33.88078,0 18.42516,-33.88072,0 18.42396,-33.88067,0 18.42256,-33.88065,0 18.42116,-33.8806,0 18.41998,-33.88055,0 18.41846,-33.88053,0 18.41721,-33.88053,0 18.41595,-33.88055,0 18.41421,-33.8806,0 18.41258,-33.88065,0 18.41103,-33.88072,0 18.40994,-33.88081,0 18.40811,-33.88095,0 18.40681,-33.88106,0 18.4053,-33.88118,0 18.40395,-33.88138,0 18.40227,-33.88161,0 18.4007,-33.88193,0 18.39935,-33.88221,0 18.39827,-33.88249,0 18.39666,-33.88293,0 18.39543,-33.8833,0 18.39426,-33.88374,0 18.39272,-33.88435,0 18.39128,-33.88504,0 18.39008,-33.88565,0 18.389,-33.88626,0 18.38775,-33.8871,0 18.38657,-33.88792,0 18.38556,-33.88873,0 18.38465,-33.88947,0 18.38367,-33.89026,0 18.38243,-33.89136,0 18.38144,-33.89217,0 18.38041,-33.8931,0 18.37944,-33.89389,0 18.37852,-33.89473,0 18.37755,-33.89557,0 18.37635,-33.89664,0 18.37536,-33.89749,0 18.37435,-33.89846,0 18.37323,-33.89951,0 18.37229,-33.90036,0 18.37103,-33.90153,0 18.3702,-33.90234,0 18.36931,-33.90311,0 18.36813,-33.90422,0 18.36724,-33.90504,0 18.36639,-33.90587,0 18.36555,-33.90669,0 18.36432,-33.90784,0 18.3633,-33.90888,0 18.36262,-33.90958,0 18.36164,-33.91056,0 18.36061,-33.91172,0 18.35981,-33.91256,0 18.35883,-33.9137,0 18.35793,-33.91466,0 18.3572,-33.91544,0 18.35627,-33.91642,0 18.35558,-33.91718,0 18.35443,-33.91843,0 18.35367,-33.91924,0 18.35289,-33.9201,0 18.35188,-33.92125,0 18.35115,-33.92221,0 18.35059,-33.92326,0 18.35032,-33.9242,0 18.35031,-33.92519,0 18.3506,-33.92616,0 18.3512,-33.92697,0 18.35182,-33.92747,0 18.35255,-33.92789,0 18.35352,-33.92811,0 18.35443,-33.92806,0 18.35541,-33.92774,0 18.35597,-33.92738,0 18.3567,-33.92679,0 18.35741,-33.9262,0 18.3581,-33.92555,0 18.35878,-33.92513,0 18.35989,-33.92473,0 18.36073,-33.92466,0 18.36202,-33.92487,0 18.36275,-33.92519,0 18.36382,-33.92596,0 18.36449,-33.92679,0 18.36488,-33.92761,0 18.36508,-33.92839,0 18.3651,-33.92967,0 18.36488,-33.93082,0 18.36462,-33.93169,0 18.36422,-33.93262,0 18.36365,-33.93375,0 18.36297,-33.93507,0 18.36253,-33.93581,0 18.36187,-33.93691,0 18.36113,-33.93821,0 18.36057,-33.93919,0 18.35989,-33.94038,0 18.35924,-33.94147,0 18.3586,-33.94267,0 18.35787,-33.94405,0 18.35724,-33.9451,0 18.35681,-33.94601,0 18.35608,-33.94739,0 18.35363,-33.95199,0 18.35117,-33.95683,0 18.34923,-33.96056,0 18.34728,-33.96432,0 18.34528,-33.96819,0 18.34276,-33.9734,0 18.34106,-33.97705,0 18.33932,-33.98058,0 18.3375,-33.98416,0 18.33573,-33.98785,0 18.33429,-33.99096,0 18.33259,-33.99486,0 18.33218,-33.99607,0 18.33164,-33.9976,0 18.33132,-33.99873,0 18.33097,-33.99994,0 18.33063,-34.00129,0 18.3304,-34.00273,0 18.33023,-34.0038,0 18.33013,-34.00493,0 18.33007,-34.00603,0 18.33007,-34.00713,0 18.33013,-34.00868,0 18.33024,-34.00978,0 18.33052,-34.0112,0 18.33075,-34.01228,0 18.33109,-34.01344,0 18.33153,-34.01472,0 18.33192,-34.01582,0 18.33243,-34.01688,0 18.33303,-34.01823,0 18.33355,-34.01921,0 18.33412,-34.02028,0 18.33472,-34.02136,0 18.33538,-34.02252,0 18.33607,-34.02374,0 18.33681,-34.02498,0 18.33755,-34.02615,0 18.33818,-34.02722,0 18.33898,-34.02859,0 18.33982,-34.03001,0 18.34044,-34.03116,0 18.34106,-34.03235,0 18.34167,-34.03355,0 18.34225,-34.03467,0 18.34293,-34.03602,0 18.34358,-34.03743,0 18.34414,-34.03862,0 18.34465,-34.03974,0 18.34521,-34.04091,0 18.34588,-34.04237,0 18.34644,-34.0437,0 18.34694,-34.04485,0 18.34763,-34.04626,0 18.34924,-34.04984,0 18.3518,-34.05515,0 18.35244,-34.05634,0 18.35322,-34.05771,0 18.35386,-34.05878,0 18.35472,-34.06009,0 18.35546,-34.06123,0 18.35642,-34.0627,0 18.3573,-34.06404,0 18.35821,-34.0654,0 18.35896,-34.06656,0 18.35989,-34.06787,0 18.36085,-34.06915,0 18.36164,-34.07028,0 18.36241,-34.07126,0 18.36331,-34.0724,0 18.36439,-34.07372,0 18.36533,-34.07487,0 18.36623,-34.07593,0 18.36708,-34.07703,0 18.36811,-34.07824,0 18.36897,-34.07941,0 18.36983,-34.08057,0 18.37069,-34.08192,0 18.37133,-34.08298,0 18.37217,-34.08443,0 18.37284,-34.08568,0 18.3734,-34.08673,0 18.37429,-34.08844,0 18.37498,-34.0896,0 18.37549,-34.09053,0 18.37637,-34.09213,0 18.37693,-34.09314,0 18.37778,-34.09458,0 18.37841,-34.0956,0 18.37938,-34.09705,0 18.38013,-34.09816,0 18.3808,-34.09923,0 18.38164,-34.10042,0 18.38276,-34.10203,0 18.38377,-34.10339,0 18.38467,-34.10454,0 18.38545,-34.10556,0 18.3864,-34.10674,0 18.3873,-34.10783,0 18.38837,-34.10901,0 18.38949,-34.11021,0 18.3906,-34.11139,0 18.39134,-34.11213,0 18.39252,-34.11324,0 18.39357,-34.11418,0 18.39448,-34.11502,0 18.39571,-34.11603,0 18.39672,-34.11685,0 18.39778,-34.11768,0 18.39913,-34.11873,0 18.40019,-34.11951,0 18.40153,-34.12046,0 18.40284,-34.1213,0 18.40429,-34.12216,0 18.40569,-34.12294,0 18.40679,-34.12349,0 18.40815,-34.12422,0 18.40961,-34.12495,0 18.41074,-34.12549,0 18.41219,-34.12619,0 18.41353,-34.12683,0 18.41477,-34.12743,0 18.41623,-34.12814,0 18.41768,-34.12885,0 18.41891,-34.12935,0 18.42018,-34.12991,0 18.4215,-34.13057,0 18.42318,-34.13123,0 18.4243,-34.13168,0 18.42579,-34.13229,0 18.4271,-34.13274,0 18.42825,-34.13317,0 18.4299,-34.13379,0 18.43088,-34.1342,0 18.43226,-34.1348,0 18.43369,-34.13545,0 18.43517,-34.13612,0 18.43649,-34.13671,0 18.43747,-34.13708,0 18.43884,-34.13764,0 18.44021,-34.13815,0 18.44158,-34.13866,0 18.44273,-34.13913,0 18.44391,-34.13956,0 18.44543,-34.14011,0 18.44672,-34.14056,0 18.4479,-34.14093,0 18.44907,-34.14134,0 18.45057,-34.14178,0 18.45177,-34.14211,0 18.45308,-34.14244,0 18.45428,-34.14262,0 18.45574,-34.14267,0 18.45737,-34.14253,0 18.45875,-34.1422,0 18.45984,-34.14183,0 18.4609,-34.1413,0 18.46218,-34.14039,0 18.46292,-34.13979,0 18.46381,-34.13887,0 18.4647,-34.13778,0 18.46544,-34.13672,0 18.46607,-34.13564,0 18.46656,-34.1347,0 18.46699,-34.13378,0 18.46734,-34.13287,0 18.46773,-34.13173,0 18.46802,-34.13075,0 18.46819,-34.12977,0 18.46842,-34.12861,0 18.46858,-34.12752,0 18.46869,-34.12637,0 18.4688,-34.12532,0 18.46886,-34.12454,0 18.46893,-34.12339,0 18.46897,-34.12248,0 18.46893,-34.12135,0 18.46882,-34.12041,0 18.46865,-34.11916,0 18.46852,-34.11827,0 18.4683,-34.11697,0 18.46825,-34.11613,0 18.46825,-34.11483,0 18.46841,-34.11351,0 18.46847,-34.11264,0 18.46863,-34.1114,0 18.46876,-34.11041,0 18.46888,-34.10929,0 18.46897,-34.10838,0 18.46903,-34.1071,0 18.46903,-34.10619,0 18.46903,-34.10513,0 18.46893,-34.10394,0 18.46888,-34.10296,0 18.46875,-34.10188,0 18.46865,-34.10072,0 18.46858,-34.09982,0 18.46842,-34.09872,0 18.4683,-34.09763,0 18.46819,-34.09663,0 18.46802,-34.0952,0 18.4679,-34.0943,0 18.46773,-34.09309,0 18.46757,-34.092,0 18.46739,-34.09109,0 18.46722,-34.09002,0 18.46678,-34.08774,0 18.46664,-34.08694,0 18.46619,-34.08471,0 18.46596,-34.08378,0 18.46572,-34.08257,0 18.4655,-34.08141,0 18.46527,-34.08038,0 18.46499,-34.07959,0 18.46458,-34.07847,0 18.46421,-34.07767,0 18.46361,-34.07656,0 18.46315,-34.07568,0 18.46269,-34.07478,0 18.46212,-34.07354,0 18.46172,-34.07242,0 18.46144,-34.07149,0 18.46121,-34.07033,0 18.46109,-34.06939,0 18.46092,-34.06842,0 18.46084,-34.06728,0 18.46081,-34.06628,0 18.46081,-34.0652,0 18.4609,-34.06389,0 18.46101,-34.06293,0 18.46109,-34.06204,0 18.46124,-34.06105,0 18.46132,-34.05999,0 18.46138,-34.05906,0 18.46138,-34.05813,0 18.46138,-34.05701,0 18.46135,-34.05606,0 18.46127,-34.0551,0 18.46121,-34.05417,0 18.46118,-34.05304,0 18.46107,-34.05212,0 18.46101,-34.05121,0 18.4609,-34.05029,0 18.46073,-34.04915,0 18.46062,-34.04832,0 18.46041,-34.04724,0 18.46012,-34.04635,0 18.45966,-34.04509,0 18.45933,-34.04425,0 18.45882,-34.04311,0 18.45838,-34.04224,0 18.45787,-34.04114,0 18.45748,-34.04027,0 18.45698,-34.03922,0 18.45657,-34.0383,0 18.45608,-34.0372,0 18.45572,-34.03634,0 18.45524,-34.03532,0 18.45486,-34.03448,0 18.45445,-34.03354,0 18.45411,-34.03257,0 18.45384,-34.03162,0 18.45354,-34.03057,0 18.45322,-34.02937,0 18.45294,-34.02827,0 18.45277,-34.02731,0 18.45251,-34.0261,0 18.45232,-34.02512,0 18.45215,-34.02415,0 18.45199,-34.02301,0 18.45187,-34.02205,0 18.45176,-34.02095,0 18.45165,-34.01986,0 18.45154,-34.01889,0 18.45148,-34.0177,0 18.45142,-34.01661,0 18.45137,-34.0154,0 18.45137,-34.01445,0 18.45137,-34.01321,0 18.45131,-34.01253,0 18.45126,-34.01115,0 18.45114,-34.01014,0 18.45103,-34.00928,0 18.45079,-34.00813,0 18.45068,-34.00743,0 18.45051,-34.00632,0 18.45034,-34.00529,0 18.45019,-34.00443,0 18.44999,-34.00324,0 18.44982,-34.00213,0 18.4498,-34.00127,0 18.44975,-34.00035,0 18.44975,-33.99934,0 18.44982,-33.99826,0 18.44999,-33.99738,0 18.45022,-33.99631,0 18.45042,-33.99545,0 18.45075,-33.99435,0 18.45103,-33.99348,0 18.45142,-33.99244,0 18.45182,-33.99161,0 18.45232,-33.99051,0 18.45266,-33.98987,0 18.45308,-33.98891,0 18.45356,-33.98781,0 18.45389,-33.98698,0 18.45434,-33.98579,0 18.45473,-33.98474,0 18.45503,-33.98383,0 18.45546,-33.98273,0 18.45577,-33.98192,0 18.45613,-33.98103,0 18.45657,-33.97997,0 18.45697,-33.97918,0 18.45737,-33.97824,0 18.45783,-33.97731,0 18.45829,-33.97629,0 18.45877,-33.97522,0 18.45916,-33.9744,0 18.4595,-33.97353,0 18.45984,-33.97266,0 18.46018,-33.97173,0 18.46051,-33.97083,0 18.46081,-33.96977,0 18.46101,-33.96899,0 18.46109,-33.96814,0 18.46112,-33.96712,0 18.46109,-33.96628,0 18.46098,-33.96531,0 18.46098,-33.9647,0 18.4609,-33.96368,0 18.46081,-33.96293,0 18.46073,-33.96208,0 18.46056,-33.96112,0 18.46039,-33.96048,0 18.46023,-33.95956,0 18.45995,-33.95874,0 18.45961,-33.95762,0 18.45927,-33.95677,0 18.45899,-33.9559,0 18.45858,-33.95483,0 18.45827,-33.95398,0 18.45787,-33.95311,0 18.45748,-33.95206,0 18.45709,-33.95119,0 18.45675,-33.95032,0 18.4563,-33.94931,0 18.45585,-33.94826,0 18.45549,-33.94743,0 18.45513,-33.94652,0 18.45468,-33.94533,0 18.45434,-33.94446,0 18.45406,-33.9435,0 18.45371,-33.94249,0 18.45339,-33.9413,0 18.45314,-33.94035,0 18.45294,-33.93947,0 18.4528,-33.93854,0 18.45257,-33.93742,0 18.45245,-33.93649,0 18.45234,-33.93537,0 18.45228,-33.93439,0 18.45221,-33.93338,0 18.45217,-33.93244,0 18.45221,-33.93127,0 18.45222,-33.93025,0 18.45221,-33.92935,0 18.45227,-33.92848,0 18.45232,-33.92752,0 18.45234,-33.92667,0 18.4524,-33.92592,0 18.45243,-33.92505,0 18.45251,-33.92411,0 18.45255,-33.92308,0 18.4526,-33.92244,0 18.4526,-33.92148,0 18.4526,-33.92061,0 18.45263,-33.91968,0 18.45271,-33.91873,0 18.45274,-33.91815,0 18.4528,-33.91703,0 18.45283,-33.91617,0 18.45294,-33.91374,0 18.45291,-33.91126,0 18.45285,-33.91051,0 18.45271,-33.90981,0 18.45249,-33.90884,0 18.45222,-33.90809,0 18.45188,-33.90734,0 18.45143,-33.9066,0 18.45097,-33.90586,0 18.45039,-33.90516,0 18.44986,-33.90459,0 18.44936,-33.90409,0 18.44862,-33.90344,0 18.44801,-33.90294,0 18.44742,-33.90255,0 18.44673,-33.90208,0 18.44616,-33.9017,0 18.44532,-33.90129,0 18.44431,-33.90079,0 18.44347,-33.90047,0 18.44285,-33.90028,0 18.44195,-33.90001,0 18.44101,-33.89985,0 18.4401,-33.89969,0 18.43941,-33.89962,0 18.43872,-33.89952,0 18.43786,-33.89943,0 18.43706,-33.89939,0 18.43649,-33.89934,0 18.43569,-33.89929,0 18.43506,-33.89925,0 18.43433,-33.89928,0 18.43405,-33.89928,0 18.43374,-33.89925,0 18.43346,-33.89925,0 18.43317,-33.89929,0 18.43283,-33.89929,0 18.43254,-33.89929,0 18.43231,-33.89934,0 18.43208,-33.89934,0 18.43181,-33.89937,0 18.43153,-33.89941,0 18.4313,-33.89946,0 18.43094,-33.89952,0 18.43069,-33.89955,0 18.43035,-33.89969,0 18.43002,-33.89976,0 18.42962,-33.89992,0 18.42934,-33.90004,0 18.42906,-33.9001,0 18.42884,-33.90019,0 18.42859,-33.90027,0 18.42836,-33.90036,0 18.42813,-33.90051,0 18.42773,-33.90064,0 18.42749,-33.90079,0 18.42727,-33.90097,0 18.42704,-33.90111,0 18.42732,-33.90111,0 18.42756,-33.9012,0 18.42777,-33.90125,0 18.42802,-33.90129,0 18.42822,-33.90134,0 18.42842,-33.90134,0 18.42884,-33.90134,0 18.42905,-33.90134,0 18.42934,-33.90134,0 18.42957,-33.90129,0 18.42997,-33.90125,0 18.43025,-33.9012,0 18.43077,-33.90111,0 18.4314,-33.90097,0 18.43209,-33.90088,0 18.43271,-33.90078,0 18.43327,-33.9007,0 18.43403,-33.90051,0 18.43472,-33.90032,0 18.43539,-33.90001,0 18.43612,-33.89955,0 18.4368,-33.89905,0 18.43736,-33.8985,0 18.43781,-33.89799,0 18.43825,-33.8974,0 18.43872,-33.89669,0 18.43898,-33.89603,0 18.43926,-33.89525,0 18.43941,-33.89455,0 18.43954,-33.89365,0 18.43958,-33.89278,0 18.4396,-33.89214,0 18.43954,-33.89113,0 18.43946,-33.89045,0 18.43924,-33.88947,0 18.43906,-33.88887,0 18.43887,-33.88815,0 18.43843,-33.88724,0 18.43803,-33.88654,0 18.43746,-33.88584,0 18.43678,-33.88509,0 18.43601,-33.8844,0 18.43523,-33.88384,0 18.43444,-33.88335,0 18.43346,-33.88286,0 18.43266,-33.88253,0 18.4317,-33.88216,0 18.43085,-33.88193,0 18.43014,-33.88169,0 18.42905,-33.88142,0 18.42822,-33.88124,0 18.42721,-33.8811,0 18.42636,-33.88095,0 18.42533,-33.88086,0 18.42442,-33.88081,0 18.42327,-33.88072,0 18.42241,-33.88067,0 18.42138,-33.88065,0 18.42004,-33.8806,0 18.41909,-33.88058,0 18.41778,-33.88058,0 18.41675,-33.88058,0 18.41537,-33.88063,0 18.41443,-33.88065,0 18.41309,-33.88072,0 18.41208,-33.88074,0 18.41074,-33.88086,0 18.40933,-33.88101,0 18.4081,-33.88115,0 18.40662,-33.88137,0 18.40559,-33.88151,0 18.40416,-33.88174,0 18.40284,-33.88202,0 18.40182,-33.88229,0 18.40067,-33.88258,0 18.39941,-33.88298,0 18.39795,-33.88344,0 18.39684,-33.88379,0 18.39565,-33.88426,0 18.39464,-33.88467,0 18.39341,-33.88518,0 18.39243,-33.8856,0 18.39117,-33.88623,0 18.3902,-33.88668,0 18.38898,-33.88733,0 18.38797,-33.88783,0 18.38694,-33.8884,0 18.38596,-33.88896,0 18.38472,-33.88962,0 18.38349,-33.89035,0 18.38254,-33.89085,0 18.38108,-33.89172,0 18.38013,-33.89232,0 18.37927,-33.89287,0 18.37824,-33.89352,0 18.37727,-33.8942,0 18.37629,-33.89487,0 18.37509,-33.89566,0 18.37419,-33.89639,0 18.37315,-33.8972,0 18.37229,-33.89785,0 18.37116,-33.89877,0 18.37049,-33.89941,0 18.36948,-33.90027,0 18.36874,-33.90097,0 18.3678,-33.90189,0 18.3669,-33.9028,0 18.36611,-33.90367,0 18.36544,-33.9045,0 18.36494,-33.90518,0 18.36428,-33.90604,0 18.36342,-33.90725,0 18.36273,-33.90828,0 18.36219,-33.90912,0 18.36146,-33.91026,0 18.3609,-33.91113,0 18.36027,-33.91209,0 18.35964,-33.91317,0 18.359,-33.91434,0 18.35843,-33.91544,0 18.35793,-33.91649,0 18.35747,-33.91759,0 18.35703,-33.91864,0 18.3567,-33.91965,0 18.35632,-33.9208,0 18.35587,-33.9221,0 18.35558,-33.92313,0 18.35524,-33.92424,0 18.35473,-33.92601,0 18.35445,-33.92702,0 18.35406,-33.92821,0 18.35373,-33.9294,0 18.35335,-33.93048,0 18.35283,-33.93192,0 18.35238,-33.933,0 18.35205,-33.93393,0 18.35152,-33.93518,0 18.35104,-33.93626,0 18.35053,-33.93745,0 18.35008,-33.93837,0 18.34952,-33.93956,0 18.34888,-33.94091,0 18.34843,-33.94194,0 18.34774,-33.94333,0 18.34705,-33.94463,0 18.3466,-33.94566,0 18.34509,-33.94894,0 18.34333,-33.95297,0 18.34184,-33.95654,0 18.34007,-33.96153,0 18.34005,-33.96204,0 18.34213,-33.96717,0 18.34511,-33.96856,0 18.34818,-33.9684,0 18.35037,-33.96707,0 18.35112,-33.96605,0 18.35171,-33.96487,0 18.35216,-33.96382,0 18.35249,-33.96291,0 18.35311,-33.9608,0 18.35333,-33.95961,0 18.35363,-33.95786,0 18.35373,-33.95682,0 18.35386,-33.95544,0 18.35395,-33.95467,0 18.35403,-33.95334,0 18.35415,-33.95232,0 18.35432,-33.95082,0 18.35449,-33.94948,0 18.35473,-33.94839,0 18.35501,-33.94716,0 18.35546,-33.9456,0 18.35591,-33.94418,0 18.3563,-33.94299,0 18.35675,-33.94171,0 18.3572,-33.94066,0 18.35787,-33.93892,0 18.35832,-33.93787,0 18.35888,-33.93663,0 18.3593,-33.93565,0 18.35981,-33.93439,0 18.36039,-33.93309,0 18.36084,-33.93188,0 18.36118,-33.931,0 18.36174,-33.92958,0 18.36216,-33.92848,0 18.36258,-33.92752,0 18.36303,-33.92642,0 18.36359,-33.92523,0 18.36422,-33.92397,0 18.36468,-33.92294,0 18.36542,-33.92154,0 18.36599,-33.92057,0 18.36679,-33.91924,0 18.36729,-33.91846,0 18.36808,-33.91722,0 18.36886,-33.91612,0 18.3696,-33.91507,0 18.3702,-33.9142,0 18.3711,-33.91301,0 18.37161,-33.91232,0 18.37273,-33.911,0 18.37343,-33.91009,0 18.3743,-33.90912,0 18.37521,-33.90805,0 18.37595,-33.90721,0 18.37675,-33.90628,0 18.37755,-33.90541,0 18.3783,-33.90455,0 18.37929,-33.90349,0 18.38024,-33.90246,0 18.38108,-33.90161,0 18.38214,-33.90047,0 18.38299,-33.89964,0 18.38383,-33.89886,0 18.38488,-33.89785,0 18.38608,-33.89687,0 18.38682,-33.89627,0 18.38814,-33.89529,0 18.38915,-33.89465,0 18.39038,-33.89388,0 18.39184,-33.89314,0 18.39294,-33.89264,0 18.39453,-33.892,0 18.39581,-33.89157,0 18.39694,-33.89117,0 18.39838,-33.89077,0 18.39986,-33.8904,0 18.40118,-33.89003,0 18.40215,-33.8898,0 18.40347,-33.88942,0 18.40485,-33.8891,0 18.40616,-33.88873,0 18.40725,-33.8884,0 18.40843,-33.88811,0 18.4095,-33.88783,0 18.41101,-33.88742,0 18.4123,-33.88705,0 18.41583,-33.88614,0 18.41931,-33.88527,0 18.42281,-33.88449,0 18.4239,-33.88426,0 18.4248,-33.88417,0 18.42615,-33.88417,0 18.42722,-33.88435,0 18.42808,-33.88463,0 18.42876,-33.88491,0 18.42934,-33.88528,0 18.42979,-33.88573,0 18.43019,-33.88631,0 18.43041,-33.88678,0 18.43052,-33.88719,0 18.43063,-33.88779,0 18.43069,-33.88824,0 18.43063,-33.88879,0 18.43057,-33.88934,0 18.43046,-33.8898,0 18.43041,-33.89021,0 18.43025,-33.89073,0 18.43019,-33.89105,0 18.43002,-33.89157,0 18.42996,-33.89204,0 18.42985,-33.89241,0 18.42974,-33.89287,0 18.42951,-33.89338,0 18.42929,-33.89397,0 18.42916,-33.89422,0 18.42888,-33.89501,0 18.42872,-33.89539,0 18.42856,-33.89598,0 18.42842,-33.89636,0 18.42831,-33.89687,0 18.42816,-33.89726,0 18.42811,-33.89758,0 18.428,-33.89804,0 18.42791,-33.89836,0 18.42779,-33.89864,0 18.42773,-33.89887,0 18.42768,-33.89911,0 18.42755,-33.89941,0 18.42745,-33.89967,0 18.42728,-33.89999,0 18.42704,-33.90024,0 18.42682,-33.90046,0 18.42687,-33.9007,0 18.4271,-33.90092,0 18.42705,-33.90115,0</coordinates>
      </LineString>
    </Placemark>
  </Document>
</kml>
