<?xml version="1.0" encoding="UTF-8"?>
<kml xmlns="http://www.opengis.net/kml/2.2">
  <Document>
    <name>FR24 41df2ab6</name>
    <Placemark>
      <name>FR24 41df2ab6</name>
      <Style><LineStyle><color>ff0000ff</color><width>4</width></LineStyle></Style>
      <LineString>
        <tessellate>1</tessellate>
        <coordinates>18.43214,-33.90166,0 18.43399,-33.90147,0 18.4359,-33.9012,0 18.43652,-33.90102,0 18.43723,-33.90069,0 18.43792,-33.90018,0 18.43859,-33.89932,0 18.43893,-33.89873,0 18.43926,-33.89781,0 18.43954,-33.89658,0 18.43966,-33.89575,0 18.43971,-33.89456,0 18.4396,-33.89319,0 18.43935,-33.89185,0 18.43906,-33.89063,0 18.43865,-33.88943,0 18.43809,-33.8882,0 18.43752,-33.8871,0 18.4368,-33.88591,0 18.43597,-33.88477,0 18.4354,-33.88403,0 18.43443,-33.88281,0 18.43351,-33.88188,0 18.43237,-33.88078,0 18.43151,-33.88007,0 18.43042,-33.87923,0 18.42894,-33.87825,0 18.42777,-33.87753,0 18.42665,-33.87698,0 18.4251,-33.8763,0 18.4239,-33.87588,0 18.42205,-33.87529,0 18.42071,-33.87492,0 18.4192,-33.8746,0 18.41768,-33.87437,0 18.41635,-33.87425,0 18.41486,-33.87415,0 18.41365,-33.8741,0 18.41246,-33.87411,0 18.41051,-33.87424,0 18.40933,-33.87437,0 18.40822,-33.87457,0 18.40651,-33.87485,0 18.40546,-33.87511,0 18.40422,-33.87541,0 18.4029,-33.87579,0 18.40193,-33.87606,0 18.40061,-33.87653,0 18.39964,-33.87685,0 18.39832,-33.87737,0 18.39705,-33.87785,0 18.39615,-33.87825,0 18.3952,-33.87868,0 18.3942,-33.87914,0 18.39302,-33.87973,0 18.39203,-33.88025,0 18.39117,-33.88076,0 18.39043,-33.88114,0 18.38898,-33.88206,0 18.3882,-33.88257,0 18.38711,-33.88323,0 18.38614,-33.88393,0 18.38534,-33.88445,0 18.38436,-33.88514,0 18.3835,-33.88579,0 18.38287,-33.88626,0 18.38181,-33.88705,0 18.38127,-33.88752,0 18.38036,-33.88826,0 18.37945,-33.88907,0 18.37875,-33.8897,0 18.37794,-33.8904,0 18.37704,-33.89124,0 18.37626,-33.89195,0 18.37532,-33.89291,0 18.37452,-33.89369,0 18.37389,-33.89436,0 18.37303,-33.89524,0 18.37228,-33.89594,0 18.37149,-33.89676,0 18.37071,-33.89758,0 18.36983,-33.89855,0 18.36909,-33.89937,0 18.36819,-33.90042,0 18.36752,-33.9012,0 18.36667,-33.90216,0 18.36589,-33.90317,0 18.36539,-33.90376,0 18.36454,-33.90482,0 18.36388,-33.90572,0 18.36319,-33.90656,0 18.36245,-33.90763,0 18.36182,-33.90842,0 18.36101,-33.90962,0 18.36044,-33.91047,0 18.35981,-33.91144,0 18.35913,-33.91251,0 18.3586,-33.91342,0 18.35793,-33.91452,0 18.35737,-33.91548,0 18.35686,-33.9164,0 18.3563,-33.91731,0 18.35563,-33.91841,0 18.35507,-33.91942,0 18.35461,-33.92024,0 18.35395,-33.92143,0 18.35345,-33.9223,0 18.35289,-33.92327,0 18.35232,-33.92439,0 18.3518,-33.92532,0 18.35126,-33.92633,0 18.35077,-33.92732,0 18.35014,-33.92848,0 18.34963,-33.92953,0 18.34801,-33.93274,0 18.3475,-33.93411,0 18.34728,-33.9353,0 18.34734,-33.93617,0 18.34757,-33.93695,0 18.34814,-33.93774,0 18.34888,-33.93826,0 18.34991,-33.93842,0 18.35077,-33.93821,0 18.3514,-33.93774,0 18.35197,-33.93705,0 18.35255,-33.93613,0 18.353,-33.93544,0 18.35335,-33.93472,0 18.35384,-33.93375,0 18.35423,-33.93288,0 18.35457,-33.9321,0 18.35507,-33.93105,0 18.35546,-33.93022,0 18.35591,-33.92912,0 18.35632,-33.92811,0 18.35667,-33.92722,0 18.35712,-33.92559,0 18.35737,-33.9245,0 18.35741,-33.92364,0 18.35737,-33.92267,0 18.35707,-33.92159,0 18.35655,-33.92061,0 18.35597,-33.91988,0 18.35518,-33.91917,0 18.35403,-33.91852,0 18.353,-33.91819,0 18.3516,-33.91809,0 18.35003,-33.91832,0 18.34879,-33.91882,0 18.34774,-33.91959,0 18.347,-33.92043,0 18.3462,-33.92159,0 18.34545,-33.92289,0 18.34481,-33.92413,0 18.34431,-33.92509,0 18.34373,-33.92616,0 18.34308,-33.92747,0 18.34257,-33.92848,0 18.34213,-33.92937,0 18.34145,-33.93076,0 18.34099,-33.93174,0 18.34036,-33.93314,0 18.33956,-33.93495,0 18.33904,-33.93607,0 18.33858,-33.93714,0 18.33801,-33.93835,0 18.33641,-33.94203,0 18.33601,-33.94305,0 18.3345,-33.94661,0 18.33281,-33.95078,0 18.33138,-33.95436,0 18.33023,-33.95753,0 18.32985,-33.95865,0 18.3294,-33.95998,0 18.32912,-33.9608,0 18.32869,-33.96246,0 18.3284,-33.96358,0 18.32811,-33.96492,0 18.32794,-33.96593,0 18.32777,-33.96707,0 18.32761,-33.96844,0 18.32749,-33.96954,0 18.32733,-33.97092,0 18.32721,-33.97197,0 18.3271,-33.97316,0 18.32697,-33.97457,0 18.32688,-33.97568,0 18.32677,-33.97687,0 18.32668,-33.97811,0 18.32663,-33.97941,0 18.32663,-33.98025,0 18.32657,-33.98174,0 18.32654,-33.98282,0 18.32651,-33.98392,0 18.32651,-33.985,0 18.32648,-33.98634,0 18.32645,-33.98853,0 18.32648,-33.98996,0 18.32654,-33.99124,0 18.32657,-33.99231,0 18.32665,-33.99376,0 18.32677,-33.99495,0 18.32682,-33.99586,0 18.32697,-33.99719,0 18.32716,-33.99829,0 18.32731,-33.99943,0 18.32748,-34.0005,0 18.32772,-34.00159,0 18.32789,-34.00241,0 18.32817,-34.00376,0 18.32845,-34.00475,0 18.32878,-34.00603,0 18.32903,-34.00692,0 18.32934,-34.00809,0 18.32966,-34.00902,0 18.32989,-34.00972,0 18.33035,-34.01102,0 18.3308,-34.01221,0 18.33119,-34.01321,0 18.3317,-34.01431,0 18.33212,-34.01521,0 18.33263,-34.01623,0 18.33309,-34.01721,0 18.33361,-34.01838,0 18.33416,-34.01944,0 18.33461,-34.02049,0 18.33498,-34.02145,0 18.33544,-34.02252,0 18.33584,-34.02364,0 18.33613,-34.02443,0 18.33646,-34.02539,0 18.3367,-34.0262,0 18.3371,-34.02722,0 18.33742,-34.02805,0 18.33775,-34.02896,0 18.33813,-34.03006,0 18.33841,-34.03076,0 18.33887,-34.03185,0 18.33927,-34.0329,0 18.33971,-34.03391,0 18.34005,-34.03482,0 18.34053,-34.03597,0 18.34087,-34.03695,0 18.34127,-34.03788,0 18.34179,-34.03913,0 18.34224,-34.04013,0 18.34288,-34.04151,0 18.34333,-34.04249,0 18.34379,-34.04346,0 18.34442,-34.04475,0 18.34492,-34.04581,0 18.34545,-34.04677,0 18.34591,-34.04775,0 18.34661,-34.04906,0 18.34706,-34.05002,0 18.34762,-34.05116,0 18.34812,-34.05222,0 18.34857,-34.05327,0 18.34913,-34.05446,0 18.34963,-34.05557,0 18.35008,-34.05652,0 18.35054,-34.05748,0 18.35109,-34.05849,0 18.35169,-34.05971,0 18.35232,-34.06087,0 18.35295,-34.06195,0 18.35352,-34.06288,0 18.35421,-34.06395,0 18.35484,-34.06493,0 18.35546,-34.06581,0 18.35625,-34.06686,0 18.3569,-34.06776,0 18.3577,-34.06874,0 18.35844,-34.06977,0 18.35924,-34.07084,0 18.35999,-34.07177,0 18.36084,-34.07289,0 18.36153,-34.07382,0 18.36241,-34.07492,0 18.36331,-34.07607,0 18.36393,-34.07693,0 18.36519,-34.07875,0 18.36565,-34.07945,0 18.36714,-34.0815,0 18.36771,-34.08229,0 18.3683,-34.08311,0 18.36897,-34.08408,0 18.36971,-34.08517,0 18.37032,-34.08604,0 18.37105,-34.0871,0 18.37172,-34.08811,0 18.37228,-34.08893,0 18.37284,-34.08971,0 18.37351,-34.09058,0 18.37412,-34.09137,0 18.37486,-34.09239,0 18.37549,-34.09318,0 18.37624,-34.09411,0 18.37699,-34.09511,0 18.37749,-34.09575,0 18.37833,-34.09676,0 18.37917,-34.09767,0 18.37979,-34.09836,0 18.38063,-34.09923,0 18.38136,-34.09996,0 18.38198,-34.1006,0 18.38293,-34.10143,0 18.38367,-34.10207,0 18.38442,-34.10273,0 18.38511,-34.10329,0 18.38585,-34.10389,0 18.38674,-34.10463,0 18.38757,-34.10524,0 18.38842,-34.10587,0 18.38921,-34.10646,0 18.38988,-34.10692,0 18.39088,-34.10757,0 18.39173,-34.10811,0 18.39254,-34.10868,0 18.3934,-34.10915,0 18.3942,-34.10966,0 18.39512,-34.11022,0 18.39605,-34.11076,0 18.39711,-34.11136,0 18.39792,-34.11185,0 18.3989,-34.11241,0 18.39969,-34.11287,0 18.40084,-34.11348,0 18.40164,-34.11395,0 18.40277,-34.11461,0 18.4037,-34.11511,0 18.40656,-34.11665,0 18.4095,-34.11823,0 18.41023,-34.11864,0 18.41125,-34.11925,0 18.41208,-34.11969,0 18.41309,-34.12028,0 18.41412,-34.12083,0 18.41499,-34.12129,0 18.41583,-34.12177,0 18.41679,-34.1223,0 18.41791,-34.12289,0 18.41898,-34.12349,0 18.41987,-34.12404,0 18.42071,-34.1245,0 18.42166,-34.12505,0 18.4227,-34.12558,0 18.42374,-34.12619,0 18.42458,-34.12665,0 18.42562,-34.12721,0 18.42642,-34.12763,0 18.42715,-34.12802,0 18.42813,-34.12856,0 18.429,-34.12903,0 18.43001,-34.12949,0 18.43088,-34.12991,0 18.43192,-34.13036,0 18.43299,-34.13077,0 18.43394,-34.13109,0 18.43494,-34.1314,0 18.43584,-34.13168,0 18.437,-34.13201,0 18.43803,-34.13219,0 18.43941,-34.13233,0 18.44044,-34.13233,0 18.44156,-34.13228,0 18.44261,-34.13215,0 18.44364,-34.13192,0 18.44461,-34.13163,0 18.44576,-34.13127,0 18.44661,-34.13091,0 18.44756,-34.13045,0 18.44873,-34.12987,0 18.44963,-34.12939,0 18.45085,-34.12865,0 18.45176,-34.12816,0 18.4528,-34.12754,0 18.45371,-34.12693,0 18.45479,-34.12628,0 18.45572,-34.12568,0 18.45663,-34.12512,0 18.45748,-34.1245,0 18.4586,-34.12372,0 18.45943,-34.12307,0 18.46029,-34.12237,0 18.46107,-34.1217,0 18.46196,-34.12083,0 18.46275,-34.12004,0 18.46353,-34.11923,0 18.46443,-34.11818,0 18.46527,-34.11713,0 18.46577,-34.11649,0 18.46645,-34.11552,0 18.46723,-34.11443,0 18.46779,-34.11362,0 18.46841,-34.11264,0 18.46886,-34.11177,0 18.46945,-34.11064,0 18.46991,-34.10971,0 18.47042,-34.1085,0 18.47076,-34.10765,0 18.47121,-34.10641,0 18.47155,-34.10518,0 18.47189,-34.10413,0 18.47214,-34.103,0 18.47237,-34.10198,0 18.47261,-34.10106,0 18.47282,-34.10007,0 18.473,-34.09886,0 18.47317,-34.09798,0 18.47334,-34.09689,0 18.47357,-34.09579,0 18.47374,-34.09491,0 18.4739,-34.09383,0 18.47414,-34.09277,0 18.47431,-34.09169,0 18.47443,-34.09076,0 18.47458,-34.08971,0 18.47466,-34.08848,0 18.47474,-34.08751,0 18.47483,-34.08625,0 18.47488,-34.08527,0 18.47491,-34.08403,0 18.47497,-34.08302,0 18.47502,-34.08202,0 18.47514,-34.08069,0 18.47514,-34.07964,0 18.47517,-34.07861,0 18.47517,-34.0774,0 18.47519,-34.07643,0 18.47534,-34.07298,0 18.4753,-34.07076,0 18.47525,-34.06989,0 18.47508,-34.06879,0 18.47486,-34.06755,0 18.47463,-34.06645,0 18.47437,-34.06507,0 18.47418,-34.06412,0 18.47408,-34.06274,0 18.47401,-34.06169,0 18.47397,-34.0605,0 18.47396,-34.05917,0 18.4739,-34.05812,0 18.47385,-34.05698,0 18.47385,-34.05571,0 18.47385,-34.05459,0 18.47385,-34.05217,0 18.47385,-34.0505,0 18.47379,-34.04919,0 18.4738,-34.04794,0 18.47362,-34.04416,0 18.47357,-34.04305,0 18.47345,-34.04184,0 18.47334,-34.04076,0 18.47322,-34.0396,0 18.47318,-34.03848,0 18.47306,-34.03734,0 18.47305,-34.03579,0 18.47305,-34.03444,0 18.47323,-34.03313,0 18.47351,-34.03155,0 18.4738,-34.03043,0 18.4742,-34.02913,0 18.4746,-34.02782,0 18.47494,-34.02662,0 18.4754,-34.02503,0 18.47575,-34.02374,0 18.47609,-34.02252,0 18.47649,-34.02107,0 18.47693,-34.01958,0 18.47727,-34.01834,0 18.47757,-34.01721,0 18.47794,-34.01578,0 18.47828,-34.01463,0 18.47855,-34.01353,0 18.47928,-34.01115,0 18.47968,-34.00974,0 18.48009,-34.00827,0 18.48029,-34.0074,0 18.48069,-34.00589,0 18.48095,-34.00483,0 18.48129,-34.00343,0 18.48152,-34.00227,0 18.48181,-34.00082,0 18.48204,-33.99966,0 18.48225,-33.99857,0 18.48253,-33.99715,0 18.4827,-33.99591,0 18.48298,-33.9944,0 18.48318,-33.9931,0 18.48338,-33.99174,0 18.48358,-33.99039,0 18.4837,-33.98923,0 18.48388,-33.98795,0 18.48404,-33.98648,0 18.48416,-33.98524,0 18.48427,-33.98392,0 18.48438,-33.98225,0 18.48444,-33.98126,0 18.48455,-33.9798,0 18.48461,-33.97824,0 18.48467,-33.97704,0 18.48472,-33.97591,0 18.48483,-33.97444,0 18.48484,-33.97317,0 18.48489,-33.97183,0 18.48495,-33.97057,0 18.48495,-33.96941,0 18.48495,-33.96791,0 18.485,-33.96291,0 18.48495,-33.96186,0 18.48489,-33.96034,0 18.48483,-33.95911,0 18.48473,-33.95772,0 18.48466,-33.9565,0 18.48461,-33.95499,0 18.48455,-33.95395,0 18.48444,-33.95279,0 18.48433,-33.9512,0 18.48421,-33.94989,0 18.48404,-33.94878,0 18.48387,-33.94743,0 18.48364,-33.9458,0 18.48341,-33.94459,0 18.48321,-33.94341,0 18.48298,-33.94221,0 18.48261,-33.94068,0 18.48221,-33.93937,0 18.48186,-33.93823,0 18.48141,-33.93704,0 18.48089,-33.93556,0 18.48024,-33.93411,0 18.47968,-33.93288,0 18.479,-33.93169,0 18.47844,-33.93077,0 18.47771,-33.92958,0 18.47683,-33.92834,0 18.47603,-33.92732,0 18.47494,-33.92601,0 18.47408,-33.92504,0 18.47295,-33.92386,0 18.47214,-33.92294,0 18.47093,-33.9218,0 18.4702,-33.92107,0 18.46869,-33.91969,0 18.46762,-33.9187,0 18.46662,-33.91772,0 18.46538,-33.91663,0 18.46449,-33.91576,0 18.46337,-33.91466,0 18.46235,-33.91372,0 18.46135,-33.91273,0 18.46024,-33.91167,0 18.45703,-33.90862,0 18.45406,-33.90569,0 18.4498,-33.90134,0 18.44655,-33.89813,0 18.4429,-33.89455,0 18.44175,-33.89361,0 18.44044,-33.89278,0 18.43926,-33.89232,0 18.43746,-33.89203,0 18.43683,-33.89208,0 18.43635,-33.89214,0 18.43483,-33.89273,0 18.43439,-33.89301,0 18.43338,-33.89383,0 18.43294,-33.89417,0 18.43248,-33.89459,0 18.43192,-33.89516,0 18.43128,-33.89576,0 18.43077,-33.89627,0 18.43014,-33.89687,0 18.4294,-33.89763,0 18.42884,-33.89818,0 18.42848,-33.89855,0 18.42825,-33.89878,0 18.42791,-33.89925,0 18.42766,-33.89951,0 18.42745,-33.89976,0 18.42728,-33.90004,0 18.4271,-33.90032,0 18.42705,-33.90064,0 18.42715,-33.90092,0 18.42707,-33.90114,0 18.43069,-33.90097,0 18.43265,-33.90065,0 18.43323,-33.90051,0 18.43386,-33.90032,0 18.43439,-33.90005,0 18.43512,-33.89962,0 18.43579,-33.89914,0 18.43649,-33.89846,0 18.43696,-33.89777,0 18.43752,-33.89682,0 18.43786,-33.89599,0 18.43809,-33.89515,0 18.43821,-33.89445,0 18.43838,-33.89329,0 18.43843,-33.89212,0 18.43837,-33.89095,0 18.43825,-33.88994,0 18.43809,-33.88884,0 18.43781,-33.88765,0 18.43752,-33.8866,0 18.437,-33.88533,0 18.43649,-33.8843,0 18.4359,-33.88326,0 18.43511,-33.88211,0 18.43409,-33.88095,0 18.43328,-33.88007,0 18.43225,-33.879,0 18.43119,-33.87808,0 18.43035,-33.87735,0 18.42906,-33.87639,0 18.42808,-33.87574,0 18.42704,-33.87511,0 18.4259,-33.87448,0 18.42424,-33.87374,0 18.42278,-33.87323,0 18.4215,-33.87285,0 18.42012,-33.87252,0 18.41847,-33.87227,0 18.41681,-33.87206,0 18.41561,-33.87204,0 18.41421,-33.87204,0 18.41263,-33.87215,0 18.41112,-33.87231,0 18.40956,-33.87254,0 18.40851,-33.87276,0 18.40714,-33.87305,0 18.4057,-33.87341,0 18.40445,-33.87378,0 18.40339,-33.8741,0 18.40181,-33.87471,0 18.40078,-33.87513,0 18.39935,-33.87575,0 18.39846,-33.87611,0 18.39724,-33.87672,0 18.39649,-33.87712,0 18.39529,-33.87778,0 18.3942,-33.87839,0 18.39334,-33.8789,0 18.3924,-33.87946,0 18.39134,-33.88016,0 18.3906,-33.88067,0 18.38963,-33.88137,0 18.38876,-33.88193,0 18.38758,-33.8828,0 18.38688,-33.88328,0 18.3859,-33.88399,0 18.38506,-33.88463,0 18.38422,-33.88527,0 18.38321,-33.88605,0 18.38253,-33.88668,0 18.38167,-33.88733,0 18.38099,-33.88794,0 18.3803,-33.88858,0 18.37978,-33.8891,0 18.37875,-33.89012,0 18.37788,-33.89099,0 18.37704,-33.89177,0 18.37604,-33.89287,0 18.37519,-33.89374,0 18.37458,-33.89447,0 18.37378,-33.89538,0 18.37318,-33.89607,0 18.37245,-33.89685,0 18.37161,-33.89781,0 18.37097,-33.89846,0 18.37037,-33.89909,0 18.36954,-33.89999,0 18.36886,-33.90074,0 18.36819,-33.90152,0 18.36748,-33.90232,0 18.36668,-33.9033,0 18.36611,-33.90395,0 18.36536,-33.90488,0 18.36468,-33.90567,0 18.3641,-33.90646,0 18.36353,-33.90715,0 18.36285,-33.908,0 18.36227,-33.90879,0 18.36159,-33.90981,0 18.36101,-33.91058,0 18.36039,-33.91158,0 18.3597,-33.91256,0 18.35916,-33.91338,0 18.35849,-33.91443,0 18.35799,-33.91516,0 18.3573,-33.91629,0 18.35681,-33.91708,0 18.35619,-33.91814,0 18.35574,-33.91896,0 18.35518,-33.91996,0 18.35455,-33.92103,0 18.35409,-33.92196,0 18.35346,-33.92299,0 18.35289,-33.92411,0 18.35243,-33.92499,0 18.35182,-33.92606,0 18.35123,-33.92713,0 18.35077,-33.92802,0 18.35032,-33.9289,0 18.34975,-33.92999,0 18.34919,-33.93105,0 18.34868,-33.93187,0 18.34814,-33.9329,0 18.34762,-33.93379,0 18.34711,-33.93475,0 18.34665,-33.9356,0 18.34616,-33.93649,0 18.34566,-33.9375,0 18.34532,-33.93828,0 18.34482,-33.93924,0 18.34454,-33.93989,0 18.34392,-33.94116,0 18.34339,-33.94235,0 18.34302,-33.94327,0 18.34259,-33.94412,0 18.34224,-33.94505,0 18.34179,-33.94613,0 18.34133,-33.94706,0 18.34093,-33.94799,0 18.34039,-33.94904,0 18.34005,-33.94981,0 18.33956,-33.95092,0 18.33926,-33.95146,0 18.33876,-33.95256,0 18.33796,-33.95427,0 18.33755,-33.9552,0 18.33715,-33.95609,0 18.33674,-33.957,0 18.334,-33.96355,0 18.33215,-33.96835,0 18.33153,-33.97092,0 18.3313,-33.97206,0 18.33119,-33.97279,0 18.33097,-33.97403,0 18.3308,-33.97517,0 18.33069,-33.9761,0 18.33046,-33.9775,0 18.33029,-33.97852,0 18.33012,-33.97969,0 18.33002,-33.98067,0 18.32985,-33.98163,0 18.32972,-33.98276,0 18.3296,-33.98388,0 18.32951,-33.98474,0 18.32937,-33.98583,0 18.32926,-33.98676,0 18.32912,-33.98795,0 18.32901,-33.98914,0 18.32886,-33.99007,0 18.32874,-33.99114,0 18.32856,-33.99234,0 18.3284,-33.99305,0 18.32817,-33.99431,0 18.32794,-33.99529,0 18.32772,-33.99646,0 18.32754,-33.99743,0 18.32733,-33.99861,0 18.32714,-33.99957,0 18.32699,-34.00053,0 18.3268,-34.00143,0 18.32668,-34.00264,0 18.3266,-34.00365,0 18.32651,-34.00455,0 18.32645,-34.00539,0 18.32643,-34.00639,0 18.32645,-34.00767,0 18.32648,-34.00859,0 18.32657,-34.00962,0 18.32671,-34.0107,0 18.32691,-34.01162,0 18.32714,-34.01255,0 18.32754,-34.01372,0 18.32789,-34.01477,0 18.32811,-34.01537,0 18.32851,-34.01633,0 18.32895,-34.01733,0 18.32934,-34.01811,0 18.3299,-34.01903,0 18.33041,-34.01981,0 18.3312,-34.02098,0 18.33181,-34.02177,0 18.33235,-34.02252,0 18.33299,-34.02333,0 18.33349,-34.0241,0 18.33412,-34.02498,0 18.33478,-34.02599,0 18.33545,-34.02699,0 18.33601,-34.02782,0 18.33657,-34.02873,0 18.33714,-34.0296,0 18.33773,-34.03048,0 18.33837,-34.03152,0 18.33881,-34.03234,0 18.33939,-34.03341,0 18.3399,-34.03448,0 18.34036,-34.03569,0 18.34072,-34.03661,0 18.341,-34.03766,0 18.34133,-34.03881,0 18.3415,-34.03974,0 18.34167,-34.04058,0 18.34185,-34.04156,0 18.34202,-34.04295,0 18.34207,-34.04384,0 18.34208,-34.04486,0 18.34196,-34.04631,0 18.34179,-34.04723,0 18.34162,-34.04826,0 18.34145,-34.04942,0 18.34134,-34.05052,0 18.34139,-34.05162,0 18.34162,-34.05249,0 18.34225,-34.05357,0 18.34291,-34.05414,0 18.34379,-34.05459,0 18.34504,-34.05473,0 18.34608,-34.05459,0 18.34717,-34.05408,0 18.34791,-34.05352,0 18.34857,-34.05272,0 18.34896,-34.05185,0 18.34923,-34.05077,0 18.34924,-34.05011,0 18.34919,-34.04915,0 18.349,-34.04826,0 18.34883,-34.04747,0 18.34854,-34.04654,0 18.34812,-34.04549,0 18.34773,-34.04453,0 18.34739,-34.04375,0 18.347,-34.04283,0 18.34648,-34.04174,0 18.34605,-34.04077,0 18.34551,-34.03974,0 18.34499,-34.03876,0 18.34442,-34.03788,0 18.34369,-34.03674,0 18.34305,-34.03579,0 18.34242,-34.0349,0 18.34179,-34.03397,0 18.34087,-34.03276,0 18.34022,-34.03185,0 18.33938,-34.03075,0 18.33876,-34.02992,0 18.33792,-34.02878,0 18.33725,-34.02791,0 18.33669,-34.02718,0 18.33596,-34.02621,0 18.33532,-34.02531,0 18.33467,-34.02452,0 18.334,-34.02361,0 18.33338,-34.02278,0 18.33258,-34.02163,0 18.33189,-34.02056,0 18.33132,-34.01968,0 18.33074,-34.0188,0 18.33012,-34.01767,0 18.3296,-34.0167,0 18.3292,-34.01567,0 18.3288,-34.01479,0 18.3284,-34.01358,0 18.32805,-34.01244,0 18.32783,-34.01147,0 18.3276,-34.01051,0 18.32731,-34.0092,0 18.32708,-34.00822,0 18.32685,-34.00697,0 18.32668,-34.00599,0 18.32648,-34.00479,0 18.32637,-34.00374,0 18.32628,-34.00245,0 18.32626,-34.00136,0 18.32628,-34.00008,0 18.32632,-33.99893,0 18.3264,-33.99798,0 18.32654,-33.99664,0 18.32671,-33.99554,0 18.32685,-33.99472,0 18.32705,-33.99367,0 18.32733,-33.99234,0 18.32766,-33.99114,0 18.32788,-33.99016,0 18.32817,-33.98895,0 18.32845,-33.9879,0 18.32878,-33.98689,0 18.3292,-33.98565,0 18.32957,-33.9846,0 18.33006,-33.98337,0 18.33046,-33.98234,0 18.33102,-33.98112,0 18.33149,-33.98006,0 18.332,-33.97881,0 18.33254,-33.97778,0 18.33309,-33.97666,0 18.3336,-33.97549,0 18.33411,-33.97449,0 18.33475,-33.97317,0 18.33527,-33.97215,0 18.33578,-33.97112,0 18.33629,-33.97009,0 18.33698,-33.9688,0 18.33864,-33.96544,0 18.34016,-33.96245,0 18.34072,-33.9614,0 18.34139,-33.96014,0 18.34179,-33.95935,0 18.3424,-33.9581,0 18.34308,-33.95682,0 18.34362,-33.95581,0 18.34408,-33.95478,0 18.3447,-33.95361,0 18.34522,-33.9525,0 18.34585,-33.95124,0 18.34631,-33.95027,0 18.34689,-33.94904,0 18.3474,-33.94799,0 18.34958,-33.94336,0 18.35193,-33.93878,0 18.35457,-33.93411,0 18.35658,-33.93068,0 18.35724,-33.9296,0 18.35849,-33.92757,0 18.36118,-33.92326,0 18.36197,-33.92212,0 18.36258,-33.92116,0 18.36325,-33.9202,0 18.36405,-33.91898,0 18.36471,-33.91809,0 18.36539,-33.91704,0 18.36611,-33.91594,0 18.36673,-33.91507,0 18.36735,-33.91406,0 18.36823,-33.91284,0 18.36903,-33.91177,0 18.36964,-33.91086,0 18.37043,-33.9099,0 18.37114,-33.90893,0 18.372,-33.90779,0 18.37273,-33.90688,0 18.37349,-33.9059,0 18.37419,-33.90504,0 18.37503,-33.90404,0 18.37606,-33.90288,0 18.37687,-33.90204,0 18.37777,-33.90106,0 18.37867,-33.90019,0 18.37979,-33.89909,0 18.38074,-33.89827,0 18.3817,-33.89745,0 18.38293,-33.89641,0 18.38413,-33.89548,0 18.38517,-33.89474,0 18.38608,-33.89408,0 18.38722,-33.89333,0 18.38854,-33.8925,0 18.38988,-33.89177,0 18.39111,-33.89104,0 18.39229,-33.89044,0 18.39347,-33.88985,0 18.39489,-33.88914,0 18.39609,-33.88863,0 18.39775,-33.88798,0 18.39884,-33.88756,0 18.40014,-33.8871,0 18.4013,-33.88668,0 18.40277,-33.88614,0 18.40399,-33.8857,0 18.4053,-33.88533,0 18.40653,-33.88499,0 18.40776,-33.88472,0 18.40905,-33.88449,0 18.41023,-33.88431,0 18.41146,-33.88417,0 18.41303,-33.88403,0 18.41417,-33.88393,0 18.41537,-33.88393,0 18.41686,-33.88393,0 18.41796,-33.88403,0 18.41898,-33.88416,0 18.42032,-33.88454,0 18.42127,-33.88486,0 18.42194,-33.88518,0 18.4229,-33.88582,0 18.42356,-33.88649,0 18.42419,-33.88724,0 18.42453,-33.88775,0 18.42503,-33.88861,0 18.42539,-33.88952,0 18.42567,-33.89022,0 18.42598,-33.89108,0 18.42626,-33.89209,0 18.42642,-33.89273,0 18.42654,-33.89328,0 18.42671,-33.89401,0 18.42682,-33.89452,0 18.42693,-33.89529,0 18.42704,-33.89598,0 18.42704,-33.8963,0 18.4271,-33.89659,0 18.4271,-33.8969,0 18.4271,-33.89711,0 18.42716,-33.89762,0 18.42716,-33.89794,0 18.42715,-33.89832,0 18.42715,-33.89864,0 18.42716,-33.89906,0 18.42715,-33.89951,0 18.4271,-33.89983,0 18.4271,-33.90019,0 18.42704,-33.90047,0 18.42699,-33.90074,0 18.42699,-33.90097,0 18.42732,-33.9011,0 18.42888,-33.90129,0 18.43024,-33.90143,0 18.43102,-33.90147,0 18.43157,-33.90153,0 18.43225,-33.90148,0 18.43293,-33.90143,0 18.43369,-33.90129,0 18.43439,-33.90106,0 18.43523,-33.90064,0 18.4359,-33.90019,0 18.43652,-33.89964,0 18.437,-33.89901,0 18.43769,-33.89794,0 18.43809,-33.89708,0 18.43837,-33.89616,0 18.43859,-33.89488,0 18.43866,-33.89352,0 18.43855,-33.8925,0 18.43842,-33.89145,0 18.43815,-33.89017,0 18.43792,-33.8893,0 18.43758,-33.88824,0 18.43695,-33.88691,0 18.43637,-33.88589,0 18.43545,-33.88454,0 18.43477,-33.88356,0 18.43399,-33.88257,0 18.43294,-33.88128,0 18.43191,-33.88016,0 18.43094,-33.87932,0 18.42985,-33.87839,0 18.42878,-33.87767,0 18.42745,-33.87685,0 18.42596,-33.87611,0 18.42458,-33.87556,0 18.42333,-33.87513,0 18.42205,-33.87479,0 18.42087,-33.87453,0 18.41964,-33.87433,0 18.41841,-33.87419,0 18.41658,-33.87411,0 18.41446,-33.8742,0 18.41325,-33.87428,0 18.41241,-33.87442,0 18.41073,-33.87465,0 18.40961,-33.87483,0 18.40845,-33.87504,0 18.40736,-33.87527,0 18.40597,-33.87561,0 18.40479,-33.87589,0 18.40361,-33.87621,0 18.4026,-33.87653,0 18.40118,-33.87695,0 18.40019,-33.8773,0 18.39884,-33.87778,0 18.39781,-33.8782,0 18.39655,-33.87868,0 18.39569,-33.87904,0 18.39466,-33.87951,0 18.39352,-33.88,0 18.39249,-33.88053,0 18.39134,-33.88114,0 18.39016,-33.88179,0 18.38945,-33.88216,0 18.38809,-33.88293,0 18.38702,-33.88358,0 18.38619,-33.88407,0 18.38506,-33.88477,0 18.38416,-33.88536,0 18.3831,-33.88607,0 18.38219,-33.88672,0 18.38114,-33.88747,0 18.38041,-33.88797,0 18.3794,-33.88875,0 18.37861,-33.88934,0 18.37772,-33.89008,0 18.37692,-33.89077,0 18.37618,-33.89143,0 18.37536,-33.89218,0 18.37458,-33.89287,0 18.37372,-33.89371,0 18.37301,-33.89442,0 18.372,-33.89548,0 18.37127,-33.89626,0 18.37063,-33.89697,0 18.37,-33.89766,0 18.36914,-33.89859,0 18.36852,-33.89932,0 18.36785,-33.9001,0 18.36724,-33.90088,0 18.36639,-33.90199,0 18.36572,-33.90289,0 18.36505,-33.90381,0 18.3646,-33.90454,0 18.36398,-33.9055,0 18.36337,-33.90637,0 18.36281,-33.90729,0 18.36219,-33.90816,0 18.3617,-33.90893,0 18.36113,-33.90985,0 18.36051,-33.91086,0 18.35987,-33.91191,0 18.35924,-33.91284,0 18.35867,-33.91372,0 18.35804,-33.91461,0 18.3573,-33.91568,0 18.35681,-33.9164,0 18.35614,-33.9174,0 18.35558,-33.91829,0 18.35501,-33.91905,0 18.35438,-33.9201,0 18.35386,-33.92099,0 18.35322,-33.92194,0 18.3526,-33.92303,0 18.3521,-33.92395,0 18.35169,-33.92476,0 18.35117,-33.92574,0 18.3507,-33.92661,0 18.35014,-33.9277,0 18.34958,-33.92885,0 18.34917,-33.92969,0 18.34863,-33.93073,0 18.34814,-33.93179,0 18.3478,-33.93244,0 18.34694,-33.93421,0 18.34642,-33.93528,0 18.34593,-33.93636,0 18.34549,-33.93723,0 18.34509,-33.938,0 18.34442,-33.93928,0 18.34397,-33.9402,0 18.34364,-33.94093,0 18.34311,-33.94212,0 18.34253,-33.94324,0 18.34212,-33.94405,0 18.34162,-33.94505,0 18.34116,-33.94598,0 18.34067,-33.94684,0 18.34013,-33.9479,0 18.3396,-33.94894,0 18.33904,-33.94986,0 18.33858,-33.95069,0 18.33796,-33.95181,0 18.33733,-33.95283,0 18.33669,-33.95384,0 18.33618,-33.95469,0</coordinates>
      </LineString>
    </Placemark>
  </Document>
</kml>
