<?xml version="1.0" encoding="UTF-8"?>
<kml xmlns="http://www.opengis.net/kml/2.2">
  <Document>
    <name>FR24 420eed9c</name>
    <Placemark>
      <name>FR24 420eed9c</name>
      <Style><LineStyle><color>ff0000ff</color><width>4</width></LineStyle></Style>
      <LineString>
        <tessellate>1</tessellate>
        <coordinates>18.43065,-33.89529,0 18.43208,-33.89343,0 18.43439,-33.8904,0 18.43597,-33.88821,0 18.43646,-33.88728,0 18.43666,-33.88663,0 18.43674,-33.88582,0 18.4366,-33.885,0 18.43609,-33.88407,0 18.43517,-33.88314,0 18.43444,-33.88261,0 18.43343,-33.88211,0 18.43225,-33.88169,0 18.43134,-33.88142,0 18.43031,-33.88114,0 18.42917,-33.88087,0 18.42805,-33.88065,0 18.42676,-33.88039,0 18.42587,-33.88028,0 18.4247,-33.88007,0 18.4235,-33.87993,0 18.42236,-33.87979,0 18.42133,-33.8797,0 18.42032,-33.87959,0 18.41953,-33.8795,0 18.41835,-33.87941,0 18.41735,-33.87941,0 18.41639,-33.87936,0 18.41515,-33.87937,0 18.41406,-33.87937,0 18.4132,-33.87941,0 18.41188,-33.87946,0 18.41096,-33.8795,0 18.40971,-33.8796,0 18.40851,-33.87965,0 18.40765,-33.8797,0 18.40633,-33.87974,0 18.40529,-33.87982,0 18.40422,-33.87988,0 18.4033,-33.87997,0 18.40204,-33.88014,0 18.4009,-33.8803,0 18.39958,-33.88049,0 18.39851,-33.88069,0 18.39729,-33.88095,0 18.39609,-33.88128,0 18.39483,-33.88165,0 18.39352,-33.88216,0 18.39274,-33.88257,0 18.3918,-33.88319,0 18.39094,-33.88384,0 18.39022,-33.8844,0 18.38915,-33.88527,0 18.38831,-33.88596,0 18.38758,-33.8866,0 18.38659,-33.88747,0 18.38585,-33.88806,0 18.38528,-33.88857,0 18.38428,-33.88953,0 18.38362,-33.89017,0 18.38271,-33.89099,0 18.38192,-33.89172,0 18.38108,-33.89255,0 18.38046,-33.8931,0 18.37962,-33.89392,0 18.37878,-33.89474,0 18.37637,-33.89717,0 18.37559,-33.89799,0 18.37469,-33.89897,0 18.37389,-33.89985,0 18.37346,-33.90038,0 18.37256,-33.90143,0 18.37189,-33.90221,0 18.37054,-33.90381,0 18.3697,-33.90486,0 18.36897,-33.90572,0 18.36828,-33.9066,0 18.36742,-33.90767,0 18.36667,-33.90862,0 18.36599,-33.90949,0 18.36533,-33.91035,0 18.36319,-33.91317,0 18.36107,-33.91608,0 18.35827,-33.91992,0 18.35569,-33.92369,0 18.35367,-33.92674,0 18.35137,-33.93036,0 18.34969,-33.93323,0 18.3484,-33.93549,0 18.3478,-33.93658,0 18.34728,-33.93756,0 18.34682,-33.93844,0 18.34627,-33.93951,0 18.34574,-33.94063,0 18.34528,-33.94156,0 18.3447,-33.94272,0 18.34425,-33.94366,0 18.34385,-33.94459,0 18.34333,-33.94571,0 18.3428,-33.94688,0 18.34236,-33.94785,0 18.3419,-33.94894,0 18.34145,-33.95004,0 18.34099,-33.95124,0 18.34053,-33.9525,0 18.34019,-33.95348,0 18.33982,-33.95435,0 18.33921,-33.95599,0 18.33801,-33.95935,0 18.33708,-33.96208,0 18.3359,-33.96568,0 18.33489,-33.96913,0 18.33458,-33.97019,0 18.33424,-33.9715,0 18.33366,-33.97364,0 18.33332,-33.97508,0 18.33263,-33.97787,0 18.33243,-33.97897,0 18.33164,-33.98264,0 18.33075,-33.98728,0 18.33012,-33.99086,0 18.32943,-33.99487,0 18.32895,-33.99838,0 18.32884,-33.99989,0 18.32874,-34.00106,0 18.32867,-34.00241,0 18.32856,-34.00374,0 18.3285,-34.00484,0 18.32846,-34.00622,0 18.32846,-34.00743,0 18.32845,-34.00891,0 18.3285,-34.01024,0 18.32867,-34.01157,0 18.32891,-34.0126,0 18.32949,-34.01414,0 18.33,-34.0153,0 18.33063,-34.01633,0 18.33126,-34.01735,0 18.33198,-34.01848,0 18.33263,-34.01954,0 18.33326,-34.02052,0 18.33389,-34.02149,0 18.33469,-34.02266,0 18.33551,-34.02388,0 18.33613,-34.02484,0 18.33691,-34.02603,0 18.33761,-34.02703,0 18.33825,-34.02809,0 18.33887,-34.02903,0 18.33954,-34.03029,0 18.34007,-34.03136,0 18.34053,-34.03239,0 18.34105,-34.03364,0 18.3415,-34.03499,0 18.34179,-34.03601,0 18.34207,-34.0372,0 18.3423,-34.03835,0 18.34252,-34.03944,0 18.34268,-34.04086,0 18.34288,-34.04202,0 18.34299,-34.04309,0 18.34313,-34.04448,0 18.3433,-34.0459,0 18.34339,-34.04691,0 18.34352,-34.04828,0 18.34368,-34.04961,0 18.34379,-34.05073,0 18.34386,-34.05194,0 18.34396,-34.05296,0 18.34402,-34.05441,0 18.34403,-34.05551,0 18.34403,-34.05661,0 18.34402,-34.05766,0 18.34396,-34.05897,0 18.34385,-34.06027,0 18.34368,-34.06167,0 18.34351,-34.06292,0 18.34333,-34.06413,0 18.34313,-34.06512,0 18.34288,-34.06646,0 18.34259,-34.06772,0 18.3423,-34.06888,0 18.34207,-34.07007,0 18.34179,-34.07116,0 18.3415,-34.07224,0 18.34122,-34.07335,0 18.34087,-34.07475,0 18.34055,-34.07584,0 18.34016,-34.0773,0 18.33973,-34.0788,0 18.33938,-34.08014,0 18.33837,-34.08344,0 18.33685,-34.08838,0 18.33567,-34.09221,0 18.33452,-34.09565,0 18.33282,-34.10023,0 18.33189,-34.10258,0 18.33125,-34.10394,0 18.33074,-34.10509,0 18.33024,-34.10609,0 18.32949,-34.10752,0 18.32867,-34.10907,0 18.32817,-34.10999,0 18.32754,-34.11111,0 18.32685,-34.11217,0 18.3262,-34.11328,0 18.32525,-34.11475,0 18.32469,-34.11571,0 18.32376,-34.11711,0 18.32325,-34.11786,0 18.32256,-34.11893,0 18.32176,-34.12004,0 18.32094,-34.12125,0 18.32022,-34.12223,0 18.31931,-34.12335,0 18.31856,-34.12428,0 18.31764,-34.12521,0 18.31679,-34.12596,0 18.31567,-34.12701,0 18.31478,-34.12772,0 18.31364,-34.1287,0 18.3127,-34.12953,0 18.3118,-34.13031,0 18.31072,-34.13126,0 18.30961,-34.13223,0 18.30883,-34.13294,0 18.30809,-34.13378,0 18.30729,-34.1349,0 18.30666,-34.13615,0 18.30636,-34.13718,0 18.30614,-34.13824,0 18.30614,-34.13936,0 18.30619,-34.14066,0 18.30636,-34.14171,0 18.30659,-34.14304,0 18.30688,-34.14411,0 18.3072,-34.14542,0 18.30757,-34.14658,0 18.30791,-34.14765,0 18.30827,-34.14871,0 18.30872,-34.14988,0 18.30905,-34.15086,0 18.30956,-34.1521,0 18.31001,-34.1532,0 18.31049,-34.15426,0 18.311,-34.15547,0 18.31152,-34.15649,0 18.31202,-34.15764,0 18.31253,-34.15865,0 18.3132,-34.15993,0 18.31369,-34.16087,0 18.31438,-34.16222,0 18.31518,-34.16366,0 18.3157,-34.16464,0 18.31633,-34.16571,0 18.31696,-34.16684,0 18.31747,-34.16776,0 18.3181,-34.16883,0 18.31879,-34.1699,0 18.31959,-34.1711,0 18.32026,-34.17215,0 18.32113,-34.1733,0 18.32182,-34.17423,0 18.32251,-34.17516,0 18.3234,-34.17632,0 18.32424,-34.17741,0 18.32514,-34.17856,0 18.3257,-34.17924,0 18.32677,-34.18062,0 18.32749,-34.18153,0 18.32857,-34.18298,0 18.32929,-34.18387,0 18.33002,-34.18478,0 18.33315,-34.1889,0 18.3354,-34.19206,0 18.33781,-34.19545,0 18.3399,-34.19844,0 18.34145,-34.20085,0 18.34288,-34.20319,0 18.34358,-34.20442,0 18.34425,-34.20552,0 18.34476,-34.20649,0 18.34562,-34.20798,0 18.34616,-34.20895,0 18.347,-34.21046,0 18.34757,-34.21157,0 18.34818,-34.21271,0 18.34879,-34.21394,0 18.34924,-34.2149,0 18.34997,-34.21655,0 18.35048,-34.21765,0 18.35106,-34.21897,0 18.3516,-34.22017,0 18.35203,-34.22116,0 18.35255,-34.22227,0 18.35311,-34.22356,0 18.35358,-34.22465,0 18.35421,-34.22604,0 18.35466,-34.22712,0 18.35518,-34.22845,0 18.35563,-34.22951,0 18.3573,-34.23359,0 18.35877,-34.23734,0 18.36057,-34.24205,0 18.36236,-34.24695,0 18.36422,-34.25202,0 18.36555,-34.25555,0 18.36712,-34.25958,0 18.36858,-34.26315,0 18.37023,-34.2672,0 18.37166,-34.2706,0 18.37301,-34.27336,0 18.37351,-34.27432,0 18.37413,-34.2756,0 18.37481,-34.27683,0 18.37555,-34.27832,0 18.37604,-34.27922,0 18.37675,-34.28065,0 18.37856,-34.28407,0 18.3803,-34.2874,0 18.3827,-34.29196,0 18.38456,-34.29533,0 18.38631,-34.29848,0 18.38881,-34.30302,0 18.39094,-34.30677,0 18.3928,-34.30989,0 18.39487,-34.31319,0 18.39577,-34.31447,0 18.39661,-34.31561,0 18.39739,-34.31667,0 18.39829,-34.31786,0 18.39902,-34.31877,0 18.39997,-34.31996,0 18.40084,-34.32096,0 18.40193,-34.32225,0 18.4029,-34.32338,0 18.4037,-34.32427,0 18.40457,-34.32518,0 18.40535,-34.326,0 18.40664,-34.32729,0 18.40754,-34.32818,0 18.40839,-34.32902,0 18.40922,-34.32976,0 18.41017,-34.3306,0 18.41125,-34.33153,0 18.41253,-34.3326,0 18.41354,-34.33339,0 18.41482,-34.33438,0 18.41583,-34.33516,0 18.41707,-34.33612,0 18.41808,-34.33685,0 18.41927,-34.33777,0 18.42035,-34.33856,0 18.42121,-34.33921,0 18.42245,-34.34015,0 18.42367,-34.34103,0 18.42482,-34.34191,0 18.42579,-34.34266,0 18.42716,-34.34364,0 18.42842,-34.34457,0 18.42945,-34.34528,0 18.43046,-34.34596,0 18.43168,-34.3468,0 18.43299,-34.34775,0 18.43403,-34.34848,0 18.435,-34.34917,0 18.4359,-34.34985,0 18.43696,-34.35059,0 18.43814,-34.35146,0 18.44179,-34.35411,0 18.44504,-34.3564,0 18.4484,-34.35869,0 18.45171,-34.36076,0 18.45285,-34.36151,0 18.45406,-34.36221,0 18.45513,-34.36281,0 18.4563,-34.36349,0 18.45755,-34.36416,0 18.45875,-34.36481,0 18.46006,-34.36547,0 18.46107,-34.36592,0 18.46258,-34.36656,0 18.46361,-34.367,0 18.4651,-34.36757,0 18.46647,-34.36812,0 18.46802,-34.36867,0 18.46925,-34.36908,0 18.47037,-34.36945,0 18.47149,-34.36977,0 18.47295,-34.37018,0 18.47397,-34.3704,0 18.47523,-34.37064,0 18.47676,-34.37082,0 18.47788,-34.37091,0 18.47928,-34.37096,0 18.48049,-34.37101,0 18.4817,-34.371,0 18.4831,-34.37091,0 18.48427,-34.37087,0 18.48551,-34.37073,0 18.48685,-34.37059,0 18.48827,-34.3704,0 18.48949,-34.37022,0 18.49079,-34.36998,0 18.49212,-34.36972,0 18.49358,-34.36945,0 18.49485,-34.36914,0 18.49634,-34.36882,0 18.49767,-34.36844,0 18.49873,-34.36816,0 18.49997,-34.3678,0 18.50126,-34.36742,0 18.50229,-34.36714,0 18.50349,-34.36686,0 18.50462,-34.36674,0 18.50544,-34.36673,0 18.50681,-34.36684,0 18.50807,-34.36724,0 18.50899,-34.3678,0 18.50983,-34.36839,0 18.51056,-34.36931,0 18.51107,-34.37045,0 18.51123,-34.3716,0 18.51112,-34.37265,0 18.51084,-34.37357,0 18.51025,-34.37455,0 18.50922,-34.37561,0 18.50836,-34.37627,0 18.50704,-34.37687,0 18.50567,-34.37729,0 18.50452,-34.37738,0 18.50344,-34.37732,0 18.50131,-34.37663,0 18.49983,-34.37534,0 18.49929,-34.37434,0 18.49907,-34.37343,0 18.49915,-34.37217,0 18.49943,-34.37128,0 18.49995,-34.37026,0 18.50052,-34.36924,0 18.50103,-34.36848,0 18.50165,-34.36739,0 18.5021,-34.36638,0 18.50241,-34.36565,0 18.50269,-34.36463,0 18.50299,-34.36354,0 18.50316,-34.36244,0 18.50322,-34.36148,0 18.50321,-34.36044,0 18.50316,-34.35947,0 18.50304,-34.35835,0 18.50294,-34.35759,0 18.5026,-34.35612,0 18.50229,-34.35522,0 18.50201,-34.35453,0 18.50161,-34.35341,0 18.50115,-34.35239,0 18.5007,-34.35146,0 18.50029,-34.35066,0 18.49949,-34.34936,0 18.49897,-34.34857,0 18.49829,-34.34761,0 18.49756,-34.34674,0 18.49674,-34.34582,0 18.49606,-34.34508,0 18.4952,-34.34419,0 18.4944,-34.34335,0 18.49363,-34.34253,0 18.49285,-34.34168,0 18.49216,-34.34093,0 18.49142,-34.34,0 18.49077,-34.33905,0 18.49022,-34.33818,0 18.48965,-34.33713,0 18.48919,-34.33623,0 18.4887,-34.33511,0 18.48827,-34.33418,0 18.48787,-34.33321,0 18.48753,-34.33218,0 18.48719,-34.33113,0 18.48684,-34.32999,0 18.48663,-34.32898,0 18.48644,-34.3278,0 18.48629,-34.32683,0 18.48616,-34.32566,0 18.48604,-34.32469,0 18.4859,-34.3233,0 18.48581,-34.32213,0 18.4857,-34.3212,0 18.48562,-34.3201,0 18.48558,-34.31915,0 18.48551,-34.31804,0 18.48545,-34.3168,0 18.48547,-34.31561,0 18.48541,-34.31333,0 18.48547,-34.31189,0 18.48553,-34.31072,0 18.48556,-34.30966,0 18.48567,-34.3087,0 18.48576,-34.30765,0 18.48584,-34.30641,0 18.4859,-34.3054,0 18.48604,-34.3042,0 18.48612,-34.30325,0 18.48623,-34.30193,0 18.48639,-34.30067,0 18.48652,-34.29964,0 18.48667,-34.29857,0 18.48685,-34.29749,0 18.48708,-34.29639,0 18.48742,-34.29508,0 18.48769,-34.29382,0 18.48787,-34.29271,0 18.48808,-34.29163,0 18.4882,-34.29039,0 18.48831,-34.28915,0 18.48839,-34.28786,0 18.48845,-34.28656,0 18.48842,-34.2854,0 18.48833,-34.28423,0 18.48816,-34.28293,0 18.48793,-34.28186,0 18.48764,-34.28082,0 18.48736,-34.28,0 18.48696,-34.27876,0 18.48668,-34.27789,0 18.48623,-34.27661,0 18.48587,-34.27562,0 18.48553,-34.27464,0 18.48524,-34.27367,0 18.48483,-34.27245,0 18.4845,-34.27148,0 18.48416,-34.27025,0 18.48394,-34.26906,0 18.4837,-34.2678,0 18.48354,-34.26686,0 18.48341,-34.26575,0 18.48324,-34.26445,0 18.4831,-34.26343,0 18.48301,-34.2624,0 18.48293,-34.26137,0 18.48284,-34.26044,0 18.4827,-34.25922,0 18.48259,-34.25807,0 18.48242,-34.25693,0 18.48232,-34.25565,0 18.48215,-34.25449,0 18.48203,-34.25354,0 18.48186,-34.2524,0 18.48164,-34.2513,0 18.48147,-34.25038,0 18.48124,-34.24937,0 18.48101,-34.24848,0 18.48069,-34.24731,0 18.48032,-34.24625,0 18.47998,-34.24527,0 18.47968,-34.24434,0 18.47945,-34.2437,0 18.47906,-34.24269,0 18.47867,-34.24182,0 18.47832,-34.24108,0 18.47788,-34.24017,0 18.47743,-34.23944,0 18.47689,-34.23861,0 18.47626,-34.23779,0 18.4757,-34.23706,0 18.47506,-34.2361,0 18.47454,-34.23456,0 18.47471,-34.23359,0 18.47528,-34.23261,0 18.47609,-34.2317,0 18.47672,-34.23103,0 18.47749,-34.23015,0 18.47794,-34.22937,0 18.47775,-34.22832,0 18.47694,-34.22795,0 18.47637,-34.22809,0 18.47586,-34.2286,0 18.47563,-34.2293,0 18.47557,-34.22986,0 18.47558,-34.23065,0 18.47558,-34.23134,0 18.47551,-34.23186,0 18.47553,-34.23212,0 18.47547,-34.23239,0 18.47546,-34.23275,0 18.47542,-34.23299,0 18.4754,-34.23326,0 18.47536,-34.23354,0 18.4753,-34.2339,0 18.4753,-34.23413,0 18.47523,-34.23442,0 18.47519,-34.23468,0 18.47511,-34.23494,0 18.47506,-34.23517,0 18.47528,-34.23531,0 18.4758,-34.23512,0 18.47598,-34.23491,0 18.4762,-34.2347,0 18.47648,-34.23431,0 18.47659,-34.23399,0 18.47665,-34.23367,0 18.47665,-34.23331,0 18.47665,-34.23294,0 18.4766,-34.23256,0 18.47648,-34.23198,0 18.47643,-34.23157,0 18.47631,-34.23112,0 18.4762,-34.23074,0 18.47597,-34.23019,0 18.4758,-34.22977,0 18.47553,-34.22946,0 18.47517,-34.22916,0 18.47454,-34.22888,0 18.47401,-34.22878,0 18.47351,-34.22878,0 18.47284,-34.22873,0 18.47228,-34.22873,0 18.47185,-34.22869,0 18.47116,-34.22855,0 18.47065,-34.22837,0 18.47031,-34.22814,0 18.46996,-34.22786,0 18.46962,-34.22712,0 18.46947,-34.22635,0 18.46951,-34.22548,0 18.46959,-34.22475,0 18.46976,-34.22406,0 18.46998,-34.22319,0 18.47031,-34.22218,0 18.47059,-34.22134,0 18.47099,-34.22031,0 18.47139,-34.2192,0 18.47189,-34.21829,0 18.47265,-34.21724,0 18.47323,-34.21655,0 18.47391,-34.2158,0 18.47466,-34.21492,0 18.47546,-34.21389,0 18.47626,-34.21287,0 18.47693,-34.21193,0 18.47755,-34.21092,0 18.47815,-34.20998,0 18.47866,-34.209,0 18.47906,-34.20827,0 18.47963,-34.20705,0 18.48007,-34.20639,0 18.48063,-34.20543,0 18.48118,-34.20458,0 18.48175,-34.2036,0 18.48227,-34.20263,0 18.48265,-34.20172,0 18.48301,-34.2009,0 18.48335,-34.19988,0 18.4837,-34.19876,0 18.48394,-34.19765,0 18.48416,-34.19659,0 18.48444,-34.19531,0 18.48455,-34.19458,0 18.48472,-34.19339,0 18.48478,-34.19247,0 18.48473,-34.19131,0 18.48466,-34.19014,0 18.48461,-34.18909,0 18.4845,-34.18801,0 18.48438,-34.18689,0 18.48427,-34.18593,0 18.48415,-34.1847,0 18.48404,-34.18377,0 18.48387,-34.1827,0 18.48375,-34.18163,0 18.48352,-34.18024,0 18.48338,-34.17934,0 18.48315,-34.17805,0 18.48289,-34.17693,0 18.48276,-34.17609,0 18.48249,-34.17474,0 18.48232,-34.17372,0 18.48209,-34.17255,0 18.48186,-34.17153,0 18.48164,-34.17055,0 18.48135,-34.16925,0 18.48108,-34.16808,0 18.4808,-34.16689,0 18.48055,-34.16585,0 18.48029,-34.16492,0 18.47918,-34.16045,0 18.47797,-34.15598,0 18.47706,-34.15249,0 18.4762,-34.14917,0 18.47747,-34.08454,0 18.47969,-34.08167,0 18.47907,-34.08108,0 18.47872,-34.07959,0 18.47872,-34.0757,0 18.47872,-34.07484,0 18.47866,-34.07354,0 18.47866,-34.07261,0 18.4786,-34.07144,0 18.47861,-34.07025,0 18.47855,-34.0693,0 18.4785,-34.06842,0 18.47837,-34.06511,0 18.4782,-34.06199,0 18.47805,-34.05794,0 18.47797,-34.0545,0 18.47788,-34.05139,0 18.47752,-34.0471,0 18.47729,-34.04365,0 18.47693,-34.03972,0 18.47671,-34.03647,0 18.47659,-34.0334,0 18.47659,-34.03249,0 18.47654,-34.03146,0 18.47654,-34.03043,0 18.47648,-34.02946,0 18.47649,-34.02861,0 18.47637,-34.02644,0 18.47631,-34.02534,0 18.47626,-34.02419,0 18.47614,-34.02324,0 18.47603,-34.02219,0 18.47591,-34.02117,0 18.47575,-34.01816,0 18.47569,-34.01688,0 18.4757,-34.01601,0 18.47574,-34.01488,0 18.4758,-34.01405,0 18.47586,-34.01294,0 18.47592,-34.01202,0 18.47603,-34.01088,0 18.47609,-34.00992,0 18.4762,-34.009,0 18.47631,-34.0078,0 18.47637,-34.00687,0 18.47648,-34.00562,0 18.4766,-34.00441,0 18.47672,-34.00343,0 18.47682,-34.00218,0 18.47729,-33.99873,0 18.47777,-33.99522,0 18.47828,-33.9917,0 18.47889,-33.98813,0 18.47973,-33.98364,0 18.48055,-33.97908,0 18.4808,-33.97801,0 18.48141,-33.97485,0 18.48186,-33.97243,0 18.48204,-33.97131,0 18.48221,-33.9701,0 18.48232,-33.96907,0 18.48244,-33.96786,0 18.48259,-33.96666,0 18.48265,-33.96556,0 18.48272,-33.96428,0 18.48278,-33.96312,0 18.48278,-33.96209,0 18.48276,-33.96085,0 18.48265,-33.95938,0 18.48249,-33.95809,0 18.48238,-33.95707,0 18.48215,-33.95595,0 18.48192,-33.95469,0 18.48164,-33.95343,0 18.48136,-33.95224,0 18.48113,-33.95123,0 18.48078,-33.94999,0 18.48046,-33.94885,0 18.48015,-33.9479,0 18.4798,-33.94682,0 18.4794,-33.94556,0 18.47906,-33.94463,0 18.47872,-33.94357,0 18.47832,-33.94249,0 18.4778,-33.94119,0 18.4774,-33.94017,0 18.47693,-33.93887,0 18.47649,-33.93779,0 18.47603,-33.93672,0 18.47553,-33.93558,0 18.47508,-33.93457,0 18.47452,-33.93333,0 18.47401,-33.93233,0 18.47334,-33.93109,0 18.47271,-33.93002,0 18.47205,-33.92903,0 18.47116,-33.9276,0 18.47043,-33.92642,0 18.46985,-33.9255,0 18.46891,-33.92418,0 18.46824,-33.92313,0 18.46768,-33.92226,0 18.4669,-33.92116,0 18.46611,-33.92001,0 18.46544,-33.91905,0 18.46477,-33.91809,0 18.46401,-33.91708,0 18.46325,-33.91599,0 18.46152,-33.9136,0 18.45927,-33.91049,0 18.45829,-33.90935,0 18.45749,-33.90851,0 18.45642,-33.90747,0 18.45529,-33.90656,0 18.454,-33.90564,0 18.45268,-33.90488,0 18.4512,-33.90417,0 18.45008,-33.90367,0 18.44851,-33.90311,0 18.44728,-33.90266,0 18.44587,-33.90223,0 18.44473,-33.90185,0 18.4433,-33.90144,0 18.44212,-33.90115,0 18.44111,-33.90092,0 18.43966,-33.90074,0 18.43832,-33.90055,0 18.43723,-33.90046,0 18.43601,-33.90038,0 18.43489,-33.90027,0 18.43409,-33.90022,0 18.43328,-33.90013,0 18.43283,-33.90009,0 18.43231,-33.89996,0 18.43186,-33.89992,0 18.43142,-33.89983,0 18.43088,-33.89971,0 18.43041,-33.89964,0 18.42934,-33.89952,0 18.42895,-33.89946,0 18.42856,-33.89946,0 18.42828,-33.89951,0 18.42796,-33.89952,0 18.42773,-33.89962,0 18.42739,-33.89985,0 18.4271,-33.90013,0 18.42693,-33.90042,0 18.42693,-33.9007,0 18.42715,-33.90083,0 18.42738,-33.90083,0 18.4276,-33.90074,0 18.42733,-33.90083,0 18.42704,-33.90074,0 18.42693,-33.90051,0 18.4271,-33.90019,0 18.42733,-33.89985,0 18.42755,-33.89964,0 18.42788,-33.89928,0 18.42816,-33.89905,0 18.42844,-33.89886,0 18.42871,-33.89874,0 18.42906,-33.8985,0 18.42945,-33.89832,0 18.42979,-33.89818,0 18.43019,-33.89804,0 18.43054,-33.8979,0 18.4313,-33.89767,0 18.4317,-33.89754,0 18.43214,-33.89743,0 18.43254,-33.89734,0 18.433,-33.89729,0 18.43366,-33.89717,0 18.43416,-33.89713,0 18.43461,-33.89713,0 18.43517,-33.89713,0 18.43563,-33.89711,0 18.43626,-33.89715,0 18.43695,-33.89715,0 18.43781,-33.89717,0 18.43878,-33.8972,0 18.43998,-33.89724,0 18.44094,-33.89731,0 18.44193,-33.89743,0 18.44301,-33.89766,0 18.44414,-33.8979,0 18.44498,-33.89818,0 18.44593,-33.89855,0 18.44679,-33.89892,0 18.4479,-33.89941,0 18.44879,-33.8999,0 18.44986,-33.90042,0 18.45064,-33.90088,0 18.45182,-33.90147,0 18.45257,-33.90185,0 18.45328,-33.90225,0 18.45428,-33.90279,0 18.45507,-33.90317,0 18.45606,-33.90372,0 18.45697,-33.90418,0 18.4577,-33.90459,0 18.45875,-33.90511,0 18.45961,-33.90562,0 18.46067,-33.90619,0 18.46163,-33.90669,0 18.46252,-33.90721,0 18.46331,-33.90765,0 18.46441,-33.90828,0 18.46521,-33.90879,0 18.46613,-33.90935,0 18.46722,-33.91,0 18.46835,-33.91063,0 18.46953,-33.91127,0 18.47048,-33.91168,0 18.47151,-33.91209,0 18.47237,-33.91242,0 18.47374,-33.91284,0 18.47474,-33.9131,0 18.47614,-33.91338,0 18.4774,-33.91363,0 18.47867,-33.91393,0 18.48007,-33.91429,0 18.48091,-33.91452,0 18.48225,-33.91493,0 18.48349,-33.91539,0 18.48444,-33.91582,0 18.4859,-33.91649,0 18.48696,-33.91684,0 18.48827,-33.91703,0 18.48948,-33.91689,0 18.49068,-33.91647,0 18.49154,-33.91587,0 18.49223,-33.91498,0 18.49268,-33.91397,0 18.49279,-33.91283,0 18.49274,-33.91205,0 18.4924,-33.91086,0 18.4919,-33.90971,0 18.4915,-33.90875,0 18.49094,-33.90752,0 18.49061,-33.90674,0 18.49022,-33.90572,0 18.48971,-33.90454,0 18.48926,-33.9034,0 18.48885,-33.90227,0 18.4885,-33.90134,0 18.48803,-33.90001,0 18.48775,-33.89919,0 18.48736,-33.89785,0 18.48701,-33.89673,0 18.48674,-33.8958,0 18.48633,-33.89426,0 18.48612,-33.89346,0 18.48581,-33.89222,0 18.48558,-33.8911,0 18.48539,-33.88985,0 18.48528,-33.88861,0 18.4853,-33.88775,0 18.4853,-33.88659,0 18.48539,-33.8855,0 18.48556,-33.88426,0 18.4857,-33.88314,0 18.48598,-33.88174,0 18.48618,-33.88065,0 18.48646,-33.8795,0 18.48661,-33.87872,0 18.48696,-33.87717,0 18.48724,-33.87588,0 18.48742,-33.87481,0 18.48769,-33.87341,0 18.48786,-33.87259,0 18.48814,-33.87135,0 18.48827,-33.87034,0 18.48845,-33.86931,0 18.48859,-33.86797,0 18.4887,-33.86691,0 18.48876,-33.86572,0 18.48881,-33.8643,0 18.48881,-33.8633,0 18.48881,-33.86192,0 18.48885,-33.86075,0 18.48881,-33.85922,0 18.48876,-33.85812,0 18.4887,-33.85684,0 18.48859,-33.85519,0 18.48848,-33.85391,0 18.48724,-33.84753,0 18.48629,-33.84457,0 18.48523,-33.84183,0 18.48422,-33.83936,0</coordinates>
      </LineString>
    </Placemark>
  </Document>
</kml>
