<?xml version="1.0" encoding="UTF-8"?>
<kml xmlns="http://www.opengis.net/kml/2.2">
  <Document>
    <name>FR24 41e6e86b</name>
    <Placemark>
      <name>FR24 41e6e86b</name>
      <Style><LineStyle><color>ff0000ff</color><width>4</width></LineStyle></Style>
      <LineString>
        <tessellate>1</tessellate>
        <coordinates>18.43832,-33.90027,0 18.43937,-33.89932,0 18.43994,-33.89868,0 18.44033,-33.89809,0 18.44078,-33.89735,0 18.44107,-33.89655,0 18.44124,-33.8958,0 18.4413,-33.89492,0 18.44124,-33.89426,0 18.44111,-33.89328,0 18.44089,-33.89246,0 18.44067,-33.89175,0 18.44032,-33.89096,0 18.43988,-33.89003,0 18.43949,-33.88925,0 18.43895,-33.88835,0 18.43853,-33.88765,0 18.43792,-33.88663,0 18.43752,-33.88589,0 18.43712,-33.88519,0 18.43668,-33.8844,0 18.43609,-33.88337,0 18.43569,-33.88263,0 18.43517,-33.88174,0 18.43478,-33.88101,0 18.43433,-33.8801,0 18.43391,-33.87941,0 18.43355,-33.87872,0 18.43299,-33.87772,0 18.43254,-33.877,0 18.43214,-33.87639,0 18.43158,-33.87579,0 18.43091,-33.87538,0 18.43014,-33.87523,0 18.42923,-33.87529,0 18.42859,-33.8755,0 18.42811,-33.87584,0 18.42766,-33.87625,0 18.42739,-33.87685,0 18.42739,-33.87723,0 18.42751,-33.87751,0 18.42766,-33.87785,0 18.42791,-33.87807,0 18.42828,-33.87808,0 18.42848,-33.87778,0 18.42833,-33.87744,0 18.42772,-33.87703,0 18.42682,-33.87667,0 18.42587,-33.87643,0 18.42499,-33.8763,0 18.42384,-33.87625,0 18.42245,-33.87625,0 18.42155,-33.87625,0 18.42024,-33.8763,0 18.41914,-33.87634,0 18.41791,-33.87648,0 18.41658,-33.87667,0 18.41561,-33.87685,0 18.41454,-33.87703,0 18.41325,-33.8773,0 18.41219,-33.87753,0 18.41108,-33.87778,0 18.40978,-33.87813,0 18.40845,-33.87848,0 18.40731,-33.87886,0 18.40636,-33.87927,0 18.40513,-33.87982,0 18.4041,-33.88034,0 18.40294,-33.88097,0 18.40193,-33.88156,0 18.40092,-33.88216,0 18.3997,-33.88295,0 18.39874,-33.88362,0 18.39778,-33.88426,0 18.39689,-33.8849,0 18.39598,-33.88556,0 18.39478,-33.8864,0 18.39392,-33.88696,0 18.39285,-33.88774,0 18.39195,-33.88838,0 18.39106,-33.88905,0 18.39005,-33.8898,0 18.38904,-33.89058,0 18.38803,-33.89136,0 18.38719,-33.89214,0 18.3864,-33.89282,0 18.38568,-33.89355,0 18.38489,-33.89429,0 18.38402,-33.8951,0 18.38322,-33.8958,0 18.38219,-33.89669,0 18.38121,-33.89753,0 18.38041,-33.89822,0 18.37961,-33.89887,0 18.37864,-33.89971,0 18.37795,-33.90036,0 18.37715,-33.90111,0 18.37624,-33.90195,0 18.37526,-33.90288,0 18.37458,-33.90358,0 18.37374,-33.90445,0 18.37301,-33.90518,0 18.37229,-33.906,0 18.37161,-33.90683,0 18.37071,-33.90802,0 18.37011,-33.90888,0 18.36937,-33.90985,0 18.36874,-33.91061,0 18.36791,-33.91159,0 18.36724,-33.91241,0 18.36656,-33.91324,0 18.36611,-33.91396,0 18.36582,-33.91465,0 18.36576,-33.91517,0 18.36576,-33.91568,0 18.36583,-33.91617,0 18.36605,-33.9167,0 18.36634,-33.91708,0 18.36668,-33.91745,0 18.36702,-33.91773,0 18.36742,-33.91792,0 18.36788,-33.91805,0 18.36819,-33.91809,0 18.36874,-33.91801,0 18.36931,-33.91773,0 18.36976,-33.91736,0 18.37,-33.91703,0 18.37009,-33.91653,0 18.36994,-33.91591,0 18.36943,-33.91545,0 18.36845,-33.91517,0 18.36735,-33.91525,0 18.36639,-33.91562,0 18.36533,-33.91635,0 18.36462,-33.91698,0 18.36382,-33.91792,0 18.36325,-33.91875,0 18.36264,-33.91992,0 18.36208,-33.92116,0 18.36168,-33.92221,0 18.36135,-33.92345,0 18.36107,-33.92439,0 18.36079,-33.92551,0 18.3605,-33.9268,0 18.36028,-33.92789,0 18.35987,-33.9296,0 18.35967,-33.93059,0 18.35944,-33.93164,0 18.35913,-33.9329,0 18.35888,-33.93402,0 18.35861,-33.93514,0 18.35838,-33.93613,0 18.35804,-33.9375,0 18.3577,-33.93877,0 18.3567,-33.94235,0 18.35632,-33.94347,0 18.35586,-33.94482,0 18.35541,-33.94589,0 18.35489,-33.94715,0 18.35457,-33.94803,0 18.35421,-33.94901,0 18.35398,-33.94976,0 18.35378,-33.95045,0 18.35361,-33.9511,0 18.3534,-33.95194,0 18.35329,-33.95264,0 18.35316,-33.95325,0 18.353,-33.95389,0 18.35283,-33.95453,0 18.35272,-33.95511,0 18.3526,-33.95557,0 18.35243,-33.95632,0 18.35232,-33.95707,0 18.35216,-33.95778,0 18.35203,-33.9586,0 18.35188,-33.95943,0 18.35169,-33.96037,0 18.3516,-33.96117,0 18.35146,-33.96214,0 18.35135,-33.96316,0 18.35123,-33.96409,0 18.35115,-33.96492,0 18.35104,-33.96593,0 18.35089,-33.96689,0 18.3507,-33.9679,0 18.35054,-33.96898,0 18.35037,-33.97015,0 18.35026,-33.97103,0 18.35019,-33.97229,0 18.35014,-33.97343,0 18.35009,-33.97433,0 18.34997,-33.97572,0 18.34986,-33.97694,0 18.3498,-33.97801,0 18.34974,-33.9789,0 18.34963,-33.98044,0 18.34952,-33.98163,0 18.34947,-33.98268,0 18.34946,-33.98397,0 18.34952,-33.98515,0 18.34969,-33.98621,0 18.34991,-33.98728,0 18.35037,-33.98886,0 18.35072,-33.99012,0 18.35104,-33.9911,0 18.35143,-33.99252,0 18.3518,-33.99384,0 18.35215,-33.99524,0 18.35249,-33.9966,0 18.35277,-33.99774,0 18.35312,-33.99887,0 18.35356,-34.00026,0 18.35406,-34.00154,0 18.35461,-34.00292,0 18.35518,-34.00424,0 18.35558,-34.0052,0 18.35619,-34.00667,0 18.35653,-34.00763,0 18.35701,-34.00902,0 18.35735,-34.01032,0 18.35764,-34.01144,0 18.35787,-34.01262,0 18.35804,-34.01385,0 18.35821,-34.01532,0 18.35832,-34.01633,0 18.35844,-34.01749,0 18.35849,-34.01866,0 18.3585,-34.01991,0 18.35855,-34.02127,0 18.35855,-34.02266,0 18.3586,-34.0237,0 18.35855,-34.02508,0 18.3585,-34.02647,0 18.35849,-34.02731,0 18.35838,-34.02871,0 18.35838,-34.02978,0 18.35833,-34.03122,0 18.35827,-34.03234,0 18.35827,-34.0334,0 18.35827,-34.03482,0 18.35821,-34.03588,0 18.35815,-34.03702,0 18.3581,-34.0382,0 18.35798,-34.04193,0 18.35799,-34.04311,0 18.35798,-34.04426,0 18.35804,-34.04558,0 18.35815,-34.04668,0 18.35827,-34.0477,0 18.35849,-34.04906,0 18.35872,-34.05016,0 18.35905,-34.05162,0 18.35936,-34.05259,0 18.35978,-34.05391,0 18.36016,-34.05501,0 18.36068,-34.05638,0 18.36096,-34.0573,0 18.36147,-34.05873,0 18.36185,-34.05972,0 18.36222,-34.06078,0 18.36273,-34.06199,0 18.36342,-34.06334,0 18.36393,-34.06435,0 18.36468,-34.06553,0 18.36539,-34.06664,0 18.36611,-34.06764,0 18.36701,-34.06874,0 18.36788,-34.06986,0 18.36857,-34.07079,0 18.36931,-34.07186,0 18.37017,-34.07312,0 18.37105,-34.07437,0 18.37155,-34.07515,0 18.37228,-34.07643,0 18.37275,-34.07735,0 18.37312,-34.07835,0 18.37346,-34.07959,0 18.37374,-34.08124,0 18.37379,-34.08238,0 18.37379,-34.08366,0 18.37372,-34.0848,0 18.37368,-34.086,0 18.3736,-34.08699,0 18.37337,-34.08839,0 18.3732,-34.08932,0 18.37295,-34.09062,0 18.37263,-34.09169,0 18.37228,-34.09273,0 18.37194,-34.0937,0 18.37144,-34.09483,0 18.37086,-34.09602,0 18.37032,-34.09698,0 18.36981,-34.0979,0 18.3692,-34.09882,0 18.36834,-34.09993,0 18.36754,-34.10086,0 18.36691,-34.10152,0 18.36594,-34.10235,0 18.36485,-34.10329,0 18.36398,-34.10399,0 18.36303,-34.10472,0 18.36182,-34.10566,0 18.36051,-34.10664,0 18.35941,-34.10743,0 18.35849,-34.10811,0 18.35718,-34.10901,0 18.35591,-34.10989,0 18.35495,-34.11055,0 18.3539,-34.11131,0 18.35272,-34.11213,0 18.35152,-34.11297,0 18.35037,-34.11385,0 18.34935,-34.11465,0 18.3484,-34.11534,0 18.34717,-34.1163,0 18.34616,-34.11708,0 18.34504,-34.118,0 18.34381,-34.11896,0 18.3427,-34.11995,0 18.34179,-34.12074,0 18.34083,-34.12157,0 18.33994,-34.12234,0 18.33887,-34.12339,0 18.33807,-34.12432,0 18.33727,-34.12549,0 18.33652,-34.12679,0 18.33607,-34.12782,0 18.33561,-34.12917,0 18.33529,-34.13026,0 18.33498,-34.13136,0 18.33469,-34.13247,0 18.33439,-34.13379,0 18.33418,-34.13485,0 18.33401,-34.13587,0 18.33384,-34.13722,0 18.33372,-34.13818,0 18.33361,-34.1395,0 18.33355,-34.14079,0 18.33349,-34.14215,0 18.33344,-34.14309,0 18.33338,-34.14439,0 18.33332,-34.14574,0 18.33332,-34.14686,0 18.33332,-34.14825,0 18.33332,-34.14949,0 18.33332,-34.15059,0 18.33332,-34.15216,0 18.33338,-34.15328,0 18.33349,-34.15462,0 18.3336,-34.15581,0 18.33378,-34.15705,0 18.334,-34.15819,0 18.33429,-34.15915,0 18.33484,-34.16048,0 18.33538,-34.16152,0 18.33601,-34.16245,0 18.33685,-34.16341,0 18.33792,-34.16441,0 18.33887,-34.16515,0 18.34002,-34.16581,0 18.34105,-34.16641,0 18.34213,-34.16706,0 18.34299,-34.16762,0 18.34402,-34.16841,0 18.34498,-34.16927,0 18.34571,-34.17,0 18.34642,-34.17083,0 18.34722,-34.17178,0 18.34801,-34.17265,0 18.34894,-34.17353,0 18.35003,-34.17444,0 18.35115,-34.17531,0 18.35199,-34.17586,0 18.35312,-34.17656,0 18.35417,-34.17719,0 18.35501,-34.17768,0 18.35592,-34.17819,0 18.35709,-34.17883,0 18.35798,-34.17931,0 18.35901,-34.17977,0 18.3595,-34.18002,0 18.36227,-34.1813,0 18.3632,-34.18176,0 18.36405,-34.18214,0 18.36485,-34.18261,0 18.36589,-34.18314,0 18.36695,-34.18364,0 18.36782,-34.18405,0 18.36845,-34.18433,0 18.36948,-34.18475,0 18.37046,-34.18512,0 18.37109,-34.1854,0 18.37166,-34.1857,0</coordinates>
      </LineString>
    </Placemark>
  </Document>
</kml>
