<?xml version="1.0" encoding="UTF-8"?>
<kml xmlns="http://www.opengis.net/kml/2.2">
  <Document>
    <name>FR24 40fcc330</name>
    <Placemark>
      <name>FR24 40fcc330</name>
      <Style><LineStyle><color>ff0000ff</color><width>4</width></LineStyle></Style>
      <LineString>
        <tessellate>1</tessellate>
        <coordinates>18.43283,-33.90069,0 18.43456,-33.90042,0 18.43506,-33.90032,0 18.43569,-33.90018,0 18.43618,-33.90001,0 18.43683,-33.89976,0 18.43736,-33.89951,0 18.43781,-33.89925,0 18.43809,-33.89897,0 18.43853,-33.89859,0 18.43898,-33.89795,0 18.43921,-33.8974,0 18.43932,-33.8969,0 18.43929,-33.89636,0 18.43929,-33.89585,0 18.43915,-33.8952,0 18.43893,-33.89465,0 18.4387,-33.89415,0 18.43842,-33.8936,0 18.43815,-33.89301,0 18.43792,-33.89236,0 18.43769,-33.89177,0 18.43752,-33.89127,0 18.43729,-33.89054,0 18.43706,-33.88993,0 18.43685,-33.88939,0 18.43657,-33.88875,0 18.43603,-33.88807,0 18.43556,-33.88765,0 18.43483,-33.8871,0 18.43416,-33.88673,0 18.43323,-33.88631,0 18.43242,-33.88605,0 18.43168,-33.88584,0 18.43085,-33.88564,0 18.4299,-33.88541,0 18.42895,-33.88522,0 18.42813,-33.88509,0 18.42728,-33.88496,0 18.42648,-33.88486,0 18.42562,-33.88477,0 18.42475,-33.88467,0 18.42384,-33.88463,0 18.4229,-33.88458,0 18.4223,-33.88458,0 18.42116,-33.88454,0 18.42041,-33.88454,0 18.41955,-33.88454,0 18.41846,-33.88458,0 18.41785,-33.88458,0 18.41667,-33.88463,0 18.41578,-33.88463,0 18.4148,-33.88467,0 18.41421,-33.88472,0 18.4132,-33.88477,0 18.4124,-33.88482,0 18.41148,-33.88491,0 18.41062,-33.88499,0 18.40988,-33.88505,0 18.40888,-33.88518,0 18.40811,-33.88523,0 18.40714,-33.88536,0 18.40656,-33.88542,0 18.40548,-33.88556,0 18.40468,-33.88568,0 18.40384,-33.88586,0 18.40273,-33.88617,0 18.40176,-33.88644,0 18.40087,-33.88673,0 18.39993,-33.8871,0 18.39885,-33.88751,0 18.39795,-33.88783,0 18.39694,-33.88829,0 18.39577,-33.88875,0 18.39492,-33.88916,0 18.39403,-33.88956,0 18.39324,-33.88998,0 18.39214,-33.89054,0 18.39134,-33.89095,0 18.39031,-33.89147,0 18.38928,-33.89203,0 18.38854,-33.8924,0 18.38739,-33.89305,0 18.38657,-33.89355,0 18.38596,-33.89397,0 18.38499,-33.89464,0 18.38422,-33.89529,0 18.38349,-33.89589,0 18.3827,-33.89659,0 18.38179,-33.89748,0 18.3811,-33.89808,0 18.38018,-33.89901,0 18.37951,-33.89969,0 18.3787,-33.90055,0 18.37801,-33.90129,0 18.37727,-33.90208,0 18.37654,-33.90285,0 18.37589,-33.90358,0 18.37503,-33.90451,0 18.37446,-33.9052,0 18.37368,-33.9061,0 18.37312,-33.90678,0 18.37252,-33.90758,0 18.37177,-33.90852,0 18.37127,-33.90935,0 18.3708,-33.91023,0 18.3704,-33.91112,0 18.36998,-33.91219,0 18.3697,-33.91301,0 18.36937,-33.91402,0 18.36903,-33.91507,0 18.36874,-33.9161,0 18.36847,-33.91699,0 18.36819,-33.91782,0 18.3678,-33.91882,0 18.36731,-33.91996,0 18.36702,-33.92071,0 18.36651,-33.92192,0 18.36617,-33.92281,0 18.36578,-33.92372,0 18.36536,-33.9248,0 18.36499,-33.92578,0 18.36456,-33.92699,0 18.36428,-33.92792,0 18.36404,-33.92899,0 18.3637,-33.93018,0 18.36353,-33.93113,0 18.3633,-33.93216,0 18.36309,-33.93343,0 18.36292,-33.93434,0 18.36273,-33.93556,0 18.36264,-33.93658,0 18.3625,-33.93761,0 18.36245,-33.93877,0 18.36239,-33.93984,0 18.36241,-33.94112,0 18.36245,-33.94212,0 18.36247,-33.94299,0 18.3625,-33.94403,0 18.36256,-33.94501,0 18.36267,-33.94631,0 18.36269,-33.9472,0 18.36279,-33.9485,0 18.36281,-33.94949,0 18.3629,-33.95115,0 18.36292,-33.95219,0 18.36309,-33.95334,0 18.3633,-33.95474,0 18.36365,-33.95595,0 18.36411,-33.95711,0 18.36451,-33.95804,0 18.36494,-33.95938,0 18.3651,-33.96043,0 18.36505,-33.96144,0 18.36471,-33.96254,0 18.36422,-33.96326,0 18.36308,-33.96428,0 18.36208,-33.96478,0 18.36124,-33.96498,0 18.35993,-33.96507,0 18.3589,-33.96489,0 18.35782,-33.96455,0 18.35703,-33.96423,0 18.35627,-33.96386,0 18.35524,-33.96335,0 18.35432,-33.96288,0 18.35335,-33.96233,0 18.35243,-33.96181,0 18.35154,-33.96121,0 18.35109,-33.96048,0 18.35092,-33.95956,0 18.35115,-33.95869,0 18.35175,-33.95795,0 18.35238,-33.95744,0 18.35384,-33.95682,0 18.3549,-33.95663,0 18.35636,-33.95663,0 18.35781,-33.95688,0 18.3589,-33.9573,0 18.3601,-33.95795,0 18.36102,-33.95865,0 18.36199,-33.95972,0 18.36264,-33.9608,0 18.36314,-33.96222,0 18.36336,-33.96335,0 18.36342,-33.96446,0 18.36342,-33.96563,0 18.3633,-33.96666,0 18.3632,-33.96803,0 18.36296,-33.96935,0 18.36281,-33.9705,0 18.36256,-33.97192,0 18.36239,-33.97331,0 18.36233,-33.97461,0 18.36236,-33.97568,0 18.36236,-33.97696,0 18.36241,-33.9781,0 18.36239,-33.97908,0 18.36227,-33.98034,0 18.36208,-33.98167,0 18.36176,-33.98285,0 18.36124,-33.9842,0 18.36073,-33.98518,0 18.35999,-33.98625,0 18.35907,-33.98742,0 18.35815,-33.98859,0 18.35754,-33.98941,0 18.3567,-33.99051,0 18.35587,-33.9917,0 18.35518,-33.99277,0 18.35466,-33.99366,0 18.35412,-33.99472,0 18.35352,-33.99626,0 18.35322,-33.99728,0 18.35283,-33.9987,0 18.35255,-33.99994,0 18.35233,-34.00136,0 18.35215,-34.00254,0 18.35197,-34.00366,0 18.35182,-34.00511,0 18.35171,-34.00644,0 18.3516,-34.00772,0 18.35143,-34.00928,0 18.35135,-34.01041,0 18.35117,-34.012,0 18.351,-34.01316,0 18.35076,-34.0144,0 18.35049,-34.01577,0 18.3502,-34.01716,0 18.34997,-34.01856,0 18.3498,-34.01972,0 18.34958,-34.02122,0 18.3494,-34.0228,0 18.34934,-34.0241,0 18.34935,-34.02521,0 18.34935,-34.02663,0 18.34946,-34.02773,0 18.34963,-34.02922,0 18.3498,-34.03038,0 18.35003,-34.03139,0 18.35037,-34.03318,0 18.35059,-34.03413,0 18.35094,-34.03574,0 18.35106,-34.0369,0 18.35112,-34.03807,0 18.35094,-34.03946,0 18.35064,-34.04091,0 18.35025,-34.04228,0 18.3498,-34.04333,0 18.34894,-34.04458,0 18.34806,-34.04544,0 18.34706,-34.04613,0 18.34568,-34.04659,0 18.34419,-34.04677,0 18.34308,-34.04672,0 18.34173,-34.04649,0 18.34067,-34.04617,0 18.33979,-34.04579,0 18.33881,-34.04523,0 18.33801,-34.04467,0 18.33704,-34.04379,0 18.33652,-34.04305,0 18.33613,-34.04224,0 18.33584,-34.04118,0 18.33578,-34.04039,0 18.33585,-34.03954,0 18.33595,-34.03876,0 18.33629,-34.03775,0 18.33664,-34.03676,0 18.33704,-34.03579,0 18.33738,-34.03481,0 18.33773,-34.03406,0 18.33813,-34.03299,0 18.33842,-34.0323,0 18.33893,-34.0312,0 18.33933,-34.03029,0 18.33971,-34.02946,0 18.34022,-34.0285,0 18.34064,-34.02764,0 18.34105,-34.0268,0 18.34151,-34.02594,0 18.34201,-34.02498,0 18.34259,-34.02396,0 18.34316,-34.02298,0 18.34352,-34.02228,0 18.34414,-34.02132,0 18.34465,-34.02054,0 18.34522,-34.01954,0 18.34579,-34.01865,0 18.34648,-34.01767,0 18.34706,-34.01692,0 18.34784,-34.01587,0 18.34846,-34.01495,0 18.34888,-34.01437,0 18.34951,-34.01348,0 18.35014,-34.01262,0 18.35072,-34.01181,0 18.3512,-34.01102,0 18.35157,-34.01027,0 18.35188,-34.00941,0 18.3521,-34.00841,0 18.35227,-34.00758,0 18.35238,-34.00676,0 18.3526,-34.00552,0 18.35272,-34.00475,0 18.35295,-34.00376,0 18.35305,-34.00278,0 18.35318,-34.00171,0 18.35328,-34.00058,0 18.35335,-33.99971,0 18.35356,-33.99884,0 18.35384,-33.99806,0 18.3544,-33.99706,0 18.35489,-33.99635,0 18.35574,-33.99536,0 18.35653,-33.99463,0 18.3572,-33.99399,0 18.35827,-33.99305,0 18.35901,-33.9924,0 18.35978,-33.9917,0 18.36068,-33.99083,0 18.36142,-33.99016,0 18.36202,-33.9895,0 18.36285,-33.98867,0 18.36359,-33.98783,0 18.36438,-33.98698,0 18.36499,-33.9863,0 18.36571,-33.98546,0 18.36645,-33.98453,0 18.36708,-33.98378,0 18.36771,-33.98299,0 18.36836,-33.98209,0 18.36886,-33.98112,0 18.36925,-33.98026,0 18.36959,-33.97952,0 18.36992,-33.97874,0 18.3704,-33.97759,0 18.37071,-33.97678,0 18.37103,-33.97596,0 18.37144,-33.97499,0 18.37172,-33.97421,0 18.37206,-33.97322,0 18.37229,-33.97229,0 18.37263,-33.97098,0 18.37275,-33.96959,0 18.37278,-33.96844,0 18.37275,-33.96759,0 18.37267,-33.96428,0 18.37267,-33.96313,0 18.37263,-33.96218,0 18.37263,-33.96098,0 18.37257,-33.95981,0 18.37257,-33.95893,0 18.3725,-33.95792,0 18.37245,-33.95686,0 18.37234,-33.95581,0 18.37228,-33.95485,0 18.37223,-33.9539,0 18.37217,-33.95283,0 18.37206,-33.95194,0 18.372,-33.95091,0 18.37189,-33.9498,0 18.37177,-33.9491,0 18.37166,-33.9478,0 18.37155,-33.94688,0 18.37143,-33.94603,0 18.37132,-33.94515,0 18.37116,-33.94395,0 18.37093,-33.94212,0 18.3708,-33.94091,0 18.37065,-33.9397,0 18.37049,-33.93759,0 18.37046,-33.93668,0 18.37051,-33.93575,0 18.37063,-33.93486,0 18.37091,-33.93351,0 18.37114,-33.93244,0 18.37137,-33.93155,0 18.3716,-33.93039,0 18.37183,-33.92958,0 18.37211,-33.92844,0 18.37229,-33.9276,0 18.37257,-33.92671,0 18.3729,-33.92555,0 18.3732,-33.92471,0 18.37351,-33.92386,0 18.37389,-33.9228,0 18.3744,-33.92173,0 18.3748,-33.92088,0 18.37536,-33.91978,0 18.37578,-33.91898,0 18.37641,-33.91801,0 18.37709,-33.9168,0 18.37778,-33.91573,0 18.37833,-33.91475,0 18.37893,-33.91377,0 18.37973,-33.91261,0 18.38018,-33.91182,0 18.38093,-33.9107,0 18.38147,-33.90985,0 18.38209,-33.90894,0 18.38287,-33.90786,0 18.38377,-33.90669,0 18.38448,-33.90581,0 18.38512,-33.905,0 18.38591,-33.90395,0 18.38657,-33.90317,0 18.38745,-33.90213,0 18.38814,-33.90129,0 18.38915,-33.90015,0 18.38988,-33.89937,0 18.39067,-33.8985,0 18.39145,-33.89763,0 18.39218,-33.89685,0 18.39289,-33.89613,0 18.39375,-33.89516,0 18.39449,-33.89445,0 18.39535,-33.89352,0 18.39609,-33.89278,0 18.39684,-33.89203,0 18.39762,-33.89127,0 18.39884,-33.89012,0 18.39958,-33.88943,0 18.40036,-33.88861,0 18.4013,-33.88765,0 18.40215,-33.88683,0 18.403,-33.886,0 18.40376,-33.88533,0 18.40462,-33.88463,0 18.40559,-33.88398,0 18.40698,-33.88326,0 18.40787,-33.88289,0 18.40931,-33.88239,0 18.41051,-33.88216,0 18.4118,-33.88193,0 18.41303,-33.88188,0 18.41432,-33.88193,0 18.41549,-33.88207,0 18.41715,-33.88235,0 18.41841,-33.88268,0 18.4199,-33.88314,0 18.42105,-33.88358,0 18.42247,-33.88407,0 18.42379,-33.88454,0 18.42505,-33.88505,0 18.42665,-33.8856,0 18.42773,-33.88602,0 18.42923,-33.8866,0 18.43029,-33.88701,0 18.43186,-33.8876,0 18.43311,-33.88807,0 18.43426,-33.88849,0 18.43546,-33.88896,0 18.43666,-33.88942,0 18.43775,-33.88989,0 18.43935,-33.89063,0 18.44044,-33.89117,0 18.44173,-33.89195,0 18.44302,-33.89287,0 18.44386,-33.8936,0 18.44467,-33.89441,0 18.44542,-33.89543,0 18.44616,-33.89667,0 18.44645,-33.89753,0 18.44679,-33.89878,0 18.44683,-33.89983,0 18.44673,-33.90078,0 18.4461,-33.90204,0 18.44547,-33.90279,0 18.44456,-33.90343,0 18.4437,-33.90381,0 18.44229,-33.90413,0 18.44135,-33.90418,0 18.44032,-33.90413,0 18.43912,-33.904,0 18.43803,-33.90376,0 18.43724,-33.9034,0 18.43643,-33.90283,0 18.43575,-33.90208,0 18.43517,-33.90129,0 18.43477,-33.90064,0 18.43431,-33.89994,0 18.43374,-33.89906,0 18.43328,-33.89841,0 18.4326,-33.89771,0 18.43208,-33.89724,0 18.43142,-33.8969,0 18.43074,-33.89667,0 18.4299,-33.89667,0 18.42912,-33.8969,0 18.42844,-33.89726,0 18.42813,-33.89753,0 18.42777,-33.8979,0 18.42755,-33.89822,0 18.42738,-33.8985,0 18.42727,-33.89886,0 18.4271,-33.89937,0 18.4271,-33.8996,0 18.4271,-33.89985,0 18.4271,-33.90009,0 18.42721,-33.90038,0 18.42738,-33.9006,0 18.42766,-33.9007,0 18.42802,-33.90069,0 18.42822,-33.90065,0 18.42844,-33.9006,0 18.42911,-33.90051,0 18.42945,-33.90051,0 18.42985,-33.90046,0 18.43035,-33.90047,0 18.43065,-33.90046,0 18.43108,-33.90047,0 18.43145,-33.90046,0 18.43198,-33.90047,0 18.43231,-33.90046,0 18.43288,-33.90046,0 18.43332,-33.90042,0 18.43394,-33.90042,0 18.43472,-33.90036,0 18.43556,-33.90028,0 18.43618,-33.90015,0 18.43678,-33.89999,0 18.43719,-33.89983,0 18.43797,-33.89941,0 18.43855,-33.89901,0 18.43893,-33.89868,0 18.43932,-33.89822,0 18.43966,-33.89758,0 18.43975,-33.89706,0 18.43977,-33.89653,0 18.43975,-33.89594,0 18.43964,-33.89534,0 18.43949,-33.8947,0 18.43932,-33.89424,0 18.43909,-33.89351,0 18.43895,-33.89296,0 18.43876,-33.89218,0 18.43853,-33.89145,0 18.43837,-33.89072,0 18.4382,-33.88998,0 18.43803,-33.88942,0 18.43781,-33.88863,0 18.43747,-33.88783,0 18.43712,-33.88719,0 18.43655,-33.88649,0 18.43603,-33.88593,0 18.43534,-33.88536,0 18.43467,-33.8849,0 18.43374,-33.88435,0 18.43306,-33.88403,0 18.43214,-33.88351,0 18.43134,-33.88314,0 18.4306,-33.88281,0 18.42968,-33.88244,0 18.42894,-33.88216,0 18.42794,-33.88174,0 18.42732,-33.88152,0 18.42615,-33.8811,0 18.42522,-33.88081,0 18.42447,-33.88055,0 18.42356,-33.88025,0 18.42295,-33.8801,0 18.42155,-33.87973,0 18.42064,-33.8796,0 18.41961,-33.87955,0 18.41852,-33.87973,0 18.4178,-33.88005,0 18.41709,-33.88063,0 18.41679,-33.8811,0 18.41658,-33.88193,0 18.41669,-33.88277,0 18.41698,-33.88333,0 18.41778,-33.88421,0 18.41829,-33.88472,0 18.41887,-33.88523,0 18.41967,-33.88584,0 18.4202,-33.88628,0 18.42093,-33.88678,0 18.42144,-33.88714,0 18.42213,-33.88765,0 18.42267,-33.88802,0 18.42318,-33.88838,0 18.42373,-33.88887,0 18.42407,-33.88929,0 18.42436,-33.88984,0 18.42447,-33.89035,0 18.42436,-33.89105,0 18.42402,-33.89152,0 18.42318,-33.89204,0 18.4223,-33.89222,0 18.42127,-33.89227,0 18.4203,-33.89222,0 18.41932,-33.89203,0 18.41829,-33.89189,0 18.41663,-33.89166,0 18.41566,-33.89149,0 18.41443,-33.89127,0 18.41337,-33.89113,0 18.41202,-33.8909,0 18.4108,-33.89068,0 18.4096,-33.8905,0 18.40855,-33.8904,0 18.40742,-33.89026,0 18.40602,-33.89017,0 18.40479,-33.89012,0 18.40361,-33.89012,0 18.40244,-33.89017,0 18.4013,-33.89026,0 18.39997,-33.8904,0 18.39885,-33.89049,0 18.39775,-33.89068,0 18.39638,-33.89095,0 18.39532,-33.89122,0 18.39397,-33.89163,0 18.39274,-33.89204,0 18.39156,-33.89255,0 18.39048,-33.89301,0 18.38938,-33.8936,0 18.38842,-33.89415,0 18.38745,-33.89478,0 18.38625,-33.89557,0 18.38533,-33.89622,0 18.38416,-33.89703,0 18.38327,-33.89772,0 18.38219,-33.8985,0 18.3813,-33.89928,0 18.38041,-33.90001,0 18.37938,-33.90097,0 18.37839,-33.90193,0 18.37761,-33.90276,0 18.37687,-33.90353,0 18.37606,-33.90437,0 18.37508,-33.90536,0 18.37413,-33.90633,0 18.37337,-33.90702,0 18.37252,-33.90786,0 18.3716,-33.90879,0 18.37049,-33.90994,0 18.36977,-33.9107,0 18.36897,-33.9115,0 18.36805,-33.91251,0 18.3674,-33.91328,0 18.36656,-33.91438,0 18.36582,-33.91521,0 18.36531,-33.91591,0 18.36454,-33.91685,0 18.36376,-33.91791,0 18.36296,-33.91898,0 18.36233,-33.91987,0 18.36174,-33.9207,0 18.36107,-33.92166,0 18.36027,-33.92289,0 18.3597,-33.92369,0 18.35896,-33.9249,0 18.35827,-33.92597,0 18.35771,-33.92683,0 18.3569,-33.92806,0 18.35642,-33.9288,0 18.35484,-33.93123,0 18.35373,-33.93311,0 18.35322,-33.93402,0 18.35277,-33.9353,0 18.35266,-33.93626,0 18.35272,-33.93709,0 18.35306,-33.93802,0 18.35356,-33.93874,0 18.35421,-33.93928,0 18.35489,-33.93966,0 18.35575,-33.93993,0 18.35672,-33.93989,0 18.35771,-33.93961,0 18.35827,-33.93929,0 18.35894,-33.93878,0 18.35939,-33.93837,0 18.35999,-33.93774,0 18.36039,-33.93728,0 18.36096,-33.93668,0 18.36147,-33.93621,0 18.36208,-33.93567,0 18.36258,-33.93526,0 18.36319,-33.93481,0 18.36376,-33.93444,0 18.36456,-33.93407,0 18.36536,-33.93388,0 18.36617,-33.93383,0 18.36725,-33.93398,0 18.36834,-33.93439,0 18.36954,-33.93523,0 18.37026,-33.93599,0 18.37091,-33.93686,0 18.37138,-33.93796,0 18.37172,-33.93896,0 18.37194,-33.94048,0 18.37206,-33.94167,0 18.37206,-33.94277,0 18.372,-33.94394,0 18.37194,-33.94514,0 18.37183,-33.94664,0 18.37172,-33.94775,0 18.37154,-33.94938,0 18.37138,-33.9505,0 18.3711,-33.95192,0 18.37082,-33.95343,0 18.37065,-33.95448,0 18.3704,-33.95557,0 18.37015,-33.95709,0 18.36998,-33.95819,0 18.36981,-33.95943,0 18.36964,-33.96098,0 18.36954,-33.96237,0 18.36959,-33.96373,0 18.36964,-33.96506,0 18.36977,-33.96619,0 18.37,-33.96749,0 18.3702,-33.96858,0 18.37043,-33.96964,0 18.37063,-33.97066,0 18.37086,-33.97224,0 18.37099,-33.9733,0 18.37109,-33.97429,0 18.37099,-33.97554,0 18.37069,-33.97676,0 18.3702,-33.97806,0 18.36966,-33.97904,0 18.36903,-33.97993,0 18.36808,-33.98112,0 18.36724,-33.98204,0 18.36651,-33.9829,0 18.36542,-33.98411,0 18.36454,-33.98511,0 18.36337,-33.98643,0 18.3625,-33.98742,0 18.36152,-33.98849,0 18.36073,-33.98946,0 18.35964,-33.99072,0 18.35867,-33.99189,0 18.35787,-33.99289,0 18.35692,-33.99413,0 18.35627,-33.99505,0 18.35558,-33.99607,0 18.35484,-33.99743,0 18.35432,-33.99836,0 18.35375,-33.99952,0 18.35316,-34.00099,0 18.35278,-34.00203,0 18.35233,-34.00342,0 18.35199,-34.00452,0 18.35171,-34.00562,0 18.35146,-34.00678,0 18.3512,-34.00827,0 18.35098,-34.00937,0 18.35072,-34.01102,0 18.35048,-34.01221,0 18.35037,-34.01302,0 18.35014,-34.01451,0 18.34991,-34.01591,0 18.34975,-34.01706,0 18.34963,-34.01828,0 18.34963,-34.01963,0 18.34969,-34.02109,0 18.34986,-34.02229,0 18.35008,-34.02338,0 18.35026,-34.0247,0 18.35048,-34.02612,0 18.35064,-34.0274,0 18.35076,-34.02855,0 18.35081,-34.02969,0 18.35089,-34.03122,0 18.35094,-34.03239,0 18.35098,-34.03381,0 18.351,-34.0349,0 18.351,-34.03606,0 18.35104,-34.03752,0 18.351,-34.03862,0 18.351,-34.04002,0 18.351,-34.04146,0 18.351,-34.04263,0 18.35098,-34.0442,0 18.351,-34.04644,0 18.35106,-34.04807,0 18.35112,-34.04961,0 18.35117,-34.05077,0 18.35126,-34.0519,0 18.35137,-34.05318,0 18.35154,-34.05455,0 18.35165,-34.05574,0 18.3518,-34.05706,0 18.35192,-34.05813,0 18.3521,-34.05945,0 18.35226,-34.06069,0 18.35249,-34.06215,0 18.3526,-34.06316,0 18.35283,-34.06441,0 18.35316,-34.0659,0 18.35339,-34.06718,0 18.35373,-34.06874,0 18.35398,-34.06986,0 18.35432,-34.07126,0 18.35468,-34.07259,0 18.35513,-34.0741,0 18.35558,-34.07533,0 18.35602,-34.07666,0 18.35649,-34.07787,0 18.35703,-34.07918,0 18.35758,-34.08061,0 18.35804,-34.08173,0 18.35861,-34.08303,0 18.35922,-34.08449,0 18.35958,-34.0855,0 18.36017,-34.08701,0 18.36056,-34.08811,0 18.36101,-34.08948,0 18.36164,-34.09104,0 18.36222,-34.09211,0 18.3629,-34.09318,0 18.36399,-34.09444,0 18.36488,-34.09529,0 18.36617,-34.09644,0 18.3672,-34.09742,0 18.36794,-34.0984,0 18.36857,-34.09961,0 18.36892,-34.10097,0 18.36897,-34.10207,0 18.36892,-34.1033,0 18.36874,-34.10445,0 18.36852,-34.1055,0 18.3683,-34.1066,0 18.36802,-34.10797,0 18.3678,-34.10884,0 18.36731,-34.11045,0 18.36685,-34.11162,0 18.36639,-34.11273,0 18.36599,-34.11376,0 18.36539,-34.11511,0 18.36479,-34.1166,0 18.36432,-34.1179,0 18.36382,-34.11925,0 18.36331,-34.12065,0 18.36296,-34.12172,0 18.36256,-34.12307,0 18.36219,-34.12427,0 18.36182,-34.12582,0 18.36153,-34.12721,0 18.36129,-34.1283,0 18.36102,-34.12987,0 18.36084,-34.13126,0 18.36067,-34.13243,0 18.36057,-34.13365,0 18.3604,-34.13503,0 18.36028,-34.13631,0 18.36017,-34.13745,0 18.36006,-34.13873,0 18.35999,-34.13992,0 18.35999,-34.14104,0 18.35989,-34.14249,0 18.35989,-34.14395,0 18.35989,-34.14487,0 18.35995,-34.14651,0 18.36004,-34.14774,0 18.36017,-34.14885,0 18.3604,-34.15063,0 18.36056,-34.15174,0 18.36085,-34.15311,0 18.36119,-34.15435,0 18.36168,-34.1559,0 18.36216,-34.1571,0 18.36253,-34.15805,0 18.36313,-34.15947,0 18.36376,-34.16078,0 18.36445,-34.16222,0 18.36508,-34.16352,0 18.36583,-34.16496,0 18.36651,-34.16624,0 18.36707,-34.1673,0 18.36788,-34.16874,0 18.36858,-34.16995,0 18.36914,-34.17097,0 18.36994,-34.17232,0 18.37071,-34.17352,0 18.37133,-34.17458,0 18.372,-34.17577,0 18.37257,-34.17679,0 18.37337,-34.17819,0 18.374,-34.17931,0 18.37458,-34.18042,0 18.37532,-34.18172,0 18.37604,-34.18314,0 18.37675,-34.18452,0 18.37732,-34.18563,0 18.37805,-34.18703,0 18.37996,-34.19057,0 18.38209,-34.1944,0 18.38467,-34.19925,0 18.38708,-34.20378,0 18.38898,-34.20726,0 18.391,-34.21124,0 18.39218,-34.21381,0 18.39272,-34.21496,0 18.3933,-34.21623,0 18.39375,-34.21743,0 18.3942,-34.21855,0 18.39487,-34.22021,0 18.39537,-34.22145,0 18.39586,-34.2226,0 18.39638,-34.22365,0 18.39701,-34.22502,0 18.39756,-34.22617,0 18.39812,-34.22726,0 18.39884,-34.2286,0 18.39935,-34.22958,0 18.39987,-34.23065,0 18.40053,-34.23203,0 18.40101,-34.23302,0 18.4017,-34.23442,0 18.40216,-34.23531,0 18.40283,-34.23665,0 18.40344,-34.23788,0 18.40406,-34.23907,0 18.40473,-34.24031,0 18.40546,-34.24159,0 18.40625,-34.24297,0 18.40703,-34.24429,0 18.40765,-34.24541,0 18.40827,-34.24654,0 18.40908,-34.24797,0 18.40984,-34.24933,0 18.41039,-34.25043,0 18.41096,-34.25153,0 18.41168,-34.25294,0 18.41224,-34.25409,0 18.41286,-34.25542,0 18.41349,-34.25686,0 18.414,-34.25798,0 18.41449,-34.25908,0 18.41505,-34.26045,0 18.41555,-34.26156,0 18.41617,-34.26311,0 18.41669,-34.26435,0 18.41709,-34.26538,0 18.41766,-34.26687,0 18.41818,-34.26813,0 18.41863,-34.26933,0 18.41921,-34.27078,0 18.4207,-34.27451,0 18.42273,-34.27959,0 18.42304,-34.28083,0 18.42329,-34.2822,0 18.42339,-34.28372,0 18.42329,-34.28503,0 18.42312,-34.28622,0 18.42273,-34.28778,0 18.4223,-34.28926,0 18.42177,-34.29076,0 18.42138,-34.29222,0 18.42099,-34.29369,0 18.42081,-34.29499,0 18.4207,-34.29625,0 18.42071,-34.29822,0 18.42076,-34.29973,0 18.42088,-34.30124,0 18.42099,-34.30247,0 18.42115,-34.30392,0 18.42138,-34.30545,0 18.42161,-34.30677,0 18.42189,-34.30833,0 18.42218,-34.30993,0 18.4225,-34.31136,0 18.42276,-34.31268,0 18.42306,-34.31401,0 18.42339,-34.31519,0 18.4239,-34.31715,0 18.42424,-34.3185,0 18.42463,-34.31992,0 18.42499,-34.32101,0 18.42545,-34.32254,0 18.42609,-34.32445,0 18.42653,-34.32576,0 18.42705,-34.32706,0 18.42783,-34.32875,0 18.42848,-34.33009,0 18.42934,-34.3315,0 18.43007,-34.33269,0 18.43097,-34.33388,0 18.43208,-34.3353,0 18.4334,-34.3367,0 18.43454,-34.33781,0 18.43592,-34.33902,0 18.43696,-34.33992,0 18.43853,-34.34116,0 18.43971,-34.34212,0 18.44117,-34.34331,0 18.4425,-34.34443,0 18.44387,-34.3455,0 18.44501,-34.34647,0 18.44644,-34.34761,0 18.44759,-34.34852,0 18.44879,-34.34944,0 18.45014,-34.35049,0 18.45131,-34.35141,0 18.4524,-34.35229,0 18.45629,-34.35532,0 18.46006,-34.358,0 18.46161,-34.35909,0 18.46424,-34.36086,0 18.46544,-34.36156,0 18.46673,-34.3623,0 18.4683,-34.36314,0 18.46985,-34.36388,0 18.47116,-34.36454,0 18.47256,-34.36514,0 18.47374,-34.3656,0 18.47536,-34.36624,0 18.47666,-34.36668,0 18.47816,-34.36716,0 18.47996,-34.36766,0 18.48136,-34.36803,0 18.48276,-34.36835,0 18.48461,-34.36882,0 18.48607,-34.36917,0 18.48753,-34.36947,0 18.48949,-34.36995,0 18.49096,-34.37026,0 18.49223,-34.3705,0 18.49363,-34.37077,0 18.4952,-34.37105,0 18.49672,-34.37128,0 18.49829,-34.37143,0 18.49969,-34.37155,0 18.50138,-34.37157,0 18.50288,-34.37151,0 18.50395,-34.37141,0 18.50557,-34.37109,0 18.50653,-34.37086,0 18.50798,-34.37036,0 18.50899,-34.36989,0 18.51045,-34.36913,0 18.51146,-34.36835,0 18.51219,-34.36771,0 18.51292,-34.36688,0 18.51359,-34.36601,0 18.51408,-34.36519,0 18.51443,-34.36423,0 18.51471,-34.36346,0 18.51488,-34.36235,0 18.51488,-34.36139,0 18.51488,-34.36057,0 18.51482,-34.35947,0 18.51494,-34.35849,0 18.51527,-34.35754,0 18.51585,-34.35672,0 18.51661,-34.35608,0 18.51763,-34.3556,0 18.51891,-34.35539,0 18.5202,-34.35553,0 18.52158,-34.35611,0 18.52255,-34.3569,0 18.52306,-34.35768,0 18.5234,-34.35883,0 18.52341,-34.35974,0 18.52306,-34.36089,0 18.52238,-34.36193,0 18.52132,-34.36285,0 18.52037,-34.36349,0 18.51923,-34.36407,0 18.5182,-34.36449,0 18.5169,-34.36505,0 18.51577,-34.36542,0 18.51432,-34.36583,0 18.51311,-34.36612,0 18.51196,-34.3664,0 18.51059,-34.36677,0 18.50938,-34.36707,0 18.50826,-34.36734,0 18.50714,-34.36766,0 18.5058,-34.36798,0 18.50418,-34.36831,0 18.50309,-34.36854,0 18.50195,-34.36872,0 18.50081,-34.36894,0 18.49949,-34.36914,0 18.4984,-34.36929,0 18.49705,-34.3694,0 18.49594,-34.36942,0 18.49468,-34.36933,0 18.4936,-34.36924,0 18.49246,-34.36903,0 18.49096,-34.36868,0 18.4901,-34.36839,0 18.48909,-34.36803,0 18.48804,-34.36747,0 18.48685,-34.36688,0 18.48576,-34.36621,0 18.48478,-34.36565,0 18.48388,-34.36514,0 18.48295,-34.36458,0 18.48209,-34.36414,0 18.48089,-34.36361,0 18.4799,-34.36327,0 18.47861,-34.36281,0 18.47746,-34.36249,0 18.47626,-34.36217,0 18.47542,-34.36194,0 18.47408,-34.36156,0 18.47305,-34.36128,0 18.47197,-34.36081,0 18.47099,-34.36021,0 18.47037,-34.35956,0 18.46981,-34.3586,0 18.46947,-34.35777,0 18.46916,-34.35695,0 18.46888,-34.35606,0 18.46858,-34.35535,0 18.4683,-34.35471,0 18.46802,-34.35397,0 18.46773,-34.35323,0 18.46739,-34.35248,0 18.46722,-34.35201,0 18.46695,-34.35132,0 18.4667,-34.35076,0 18.46651,-34.35013,0 18.4663,-34.34954,0 18.46613,-34.34908,0 18.46573,-34.34824,0 18.46544,-34.34759,0 18.46516,-34.34694,0 18.46487,-34.34638,0 18.46453,-34.34568,0 18.46424,-34.34517,0 18.46401,-34.34461,0 18.46365,-34.3439,0 18.46337,-34.34322,0 18.46309,-34.34267,0 18.46281,-34.34196,0 18.46252,-34.34129,0 18.46224,-34.34066,0 18.46207,-34.3401,0 18.4618,-34.33937,0 18.46149,-34.33861,0 18.46132,-34.33796,0 18.46112,-34.33745,0 18.46092,-34.3367,0 18.46081,-34.33609,0 18.46062,-34.3353,0 18.46046,-34.33456,0 18.46034,-34.33383,0 18.46017,-34.33282,0 18.46001,-34.332,0 18.45995,-34.3312,0 18.45984,-34.33046,0 18.45978,-34.32948,0 18.45966,-34.32841,0 18.45955,-34.32756,0 18.45949,-34.32683,0 18.45932,-34.32562,0 18.45926,-34.32483,0 18.45922,-34.32362,0 18.45916,-34.32275,0 18.45915,-34.3219,0 18.4591,-34.32069,0 18.45909,-34.32008,0 18.45905,-34.31918,0 18.45903,-34.31799,0 18.45899,-34.31708,0 18.45899,-34.3163,0 18.45898,-34.31552,0 18.45892,-34.3144,0 18.45892,-34.31063,0 18.45899,-34.30637,0 18.45915,-34.30267,0 18.45933,-34.29964,0 18.45938,-34.29871,0 18.45949,-34.29782,0 18.45955,-34.29708,0 18.45967,-34.29607,0 18.45978,-34.29492,0 18.46017,-34.2919,0 18.46035,-34.29089,0 18.46045,-34.28998,0 18.46058,-34.28903,0 18.46073,-34.2881,0 18.46118,-34.28517,0 18.4618,-34.28091,0 18.4623,-34.27795,0 18.46298,-34.27413,0 18.46337,-34.27139,0 18.46348,-34.27052,0 18.46384,-34.26855,0 18.46401,-34.26748,0 18.46413,-34.26654,0 18.46418,-34.26566,0 18.4643,-34.26431,0 18.46436,-34.2631,0 18.46443,-34.26192,0 18.46441,-34.26086,0 18.46447,-34.26012,0 18.46447,-34.25877,0 18.46453,-34.25765,0 18.4646,-34.25633,0 18.4646,-34.25537,0 18.46464,-34.25444,0 18.46465,-34.25285,0 18.46464,-34.25183,0 18.4646,-34.25079,0 18.4646,-34.24983,0 18.46458,-34.24857,0 18.46454,-34.24754,0 18.46453,-34.24652,0 18.46447,-34.24546,0 18.46432,-34.24402,0 18.46421,-34.24301,0 18.46395,-34.24183,0 18.46367,-34.24085,0 18.46338,-34.23982,0 18.46298,-34.23861,0 18.46258,-34.23752,0 18.46219,-34.23628,0 18.46178,-34.23512,0 18.46138,-34.23396,0 18.46109,-34.23321,0 18.46062,-34.23193,0 18.46024,-34.23107,0 18.45972,-34.22992,0 18.45916,-34.22873,0 18.45866,-34.22763,0 18.45818,-34.2267,0 18.4576,-34.22544,0 18.4572,-34.22461,0 18.4568,-34.22348,0 18.45652,-34.22255,0 18.45629,-34.22153,0 18.45602,-34.22035,0 18.45583,-34.21943,0 18.4556,-34.21841,0 18.45531,-34.21724,0 18.45497,-34.21613,0 18.45469,-34.2151,0 18.45434,-34.21422,0 18.45394,-34.21324,0 18.45356,-34.21225,0 18.45314,-34.21128,0 18.45266,-34.21001,0 18.45222,-34.20882,0 18.45176,-34.20763,0 18.45119,-34.20654,0 18.45062,-34.20556,0 18.44991,-34.20461,0 18.44913,-34.20379,0 18.44818,-34.20287,0 18.44742,-34.20216,0 18.4465,-34.20132,0 18.4456,-34.20049,0 18.44479,-34.19974,0 18.44416,-34.19918,0 18.44313,-34.1983,0 18.44212,-34.19756,0 18.44107,-34.19681,0 18.43998,-34.19611,0 18.43906,-34.19555,0 18.43786,-34.19485,0 18.43695,-34.19429,0 18.43586,-34.1936,0 18.43506,-34.19294,0 18.43426,-34.19229,0 18.43346,-34.19155,0 18.4327,-34.19069,0 18.43198,-34.18973,0 18.43157,-34.18894,0 18.4313,-34.18794,0 18.43136,-34.18675,0 18.43175,-34.18588,0 18.43231,-34.18497,0 18.43304,-34.18396,0 18.4336,-34.18318,0 18.43422,-34.18227,0 18.43472,-34.18135,0 18.43489,-34.18056,0 18.43495,-34.1797,0 18.43478,-34.17892,0 18.43456,-34.17815,0 18.43416,-34.17741,0 18.43363,-34.17651,0 18.43304,-34.17563,0 18.43248,-34.17479,0 18.43191,-34.17386,0 18.43142,-34.17297,0 18.43108,-34.17224,0 18.43054,-34.17107,0 18.43018,-34.17032,0 18.42979,-34.16922,0 18.42957,-34.1686,0 18.42934,-34.16757,0 18.42912,-34.1667,0 18.42884,-34.16565,0 18.42865,-34.16483,0 18.42848,-34.16394,0 18.42819,-34.16296,0 18.42802,-34.16227,0 18.42773,-34.16129,0 18.42755,-34.16052,0 18.42727,-34.15965,0 18.42704,-34.15883,0 18.42682,-34.15808,0 18.42659,-34.15747,0 18.42615,-34.1559,0 18.42592,-34.15517,0 18.42575,-34.15421,0 18.42558,-34.15343,0 18.42542,-34.15269,0 18.42522,-34.15184,0 18.42508,-34.15105,0 18.42487,-34.15012,0 18.42463,-34.14935,0 18.42435,-34.1483,0 18.42419,-34.14756,0 18.42385,-34.14642,0 18.42361,-34.14565,0 18.42334,-34.14482,0 18.4231,-34.14397,0 18.42284,-34.14322,0 18.42267,-34.14244,0 18.42245,-34.14139,0 18.42233,-34.14043,0 18.42228,-34.1396,0 18.42222,-34.13873,0 18.42228,-34.138,0 18.42228,-34.13686,0 18.42224,-34.13596,0 18.42224,-34.13508,0 18.42217,-34.13406,0 18.42211,-34.13329,0 18.422,-34.13255,0 18.42194,-34.13177,0 18.42183,-34.13091,0 18.42173,-34.13005,0 18.42161,-34.12903,0 18.4215,-34.12805,0 18.42144,-34.12707,0 18.42133,-34.12628,0 18.42127,-34.12555,0 18.42116,-34.1245,0 18.4211,-34.12354,0 18.42093,-34.12056,0 18.42081,-34.11744,0 18.42071,-34.11356,0 18.4207,-34.11041,0 18.42065,-34.10724,0 18.42071,-34.10408,0 18.42087,-34.10091,0 18.42093,-34.10017,0 18.4211,-34.09886,0 18.42127,-34.09789,0 18.42138,-34.09703,0 18.42155,-34.09588,0 18.42173,-34.09467,0 18.42189,-34.0936,0 18.42201,-34.09277,0 18.42211,-34.09172,0 18.42218,-34.09067,0 18.42224,-34.08974,0 18.4223,-34.08867,0 18.4223,-34.08783,0 18.42228,-34.08664,0 18.42222,-34.08572,0 18.42218,-34.0849,0 18.42218,-34.08392,0 18.42222,-34.08279,0 18.42233,-34.08183,0 18.42253,-34.0808,0 18.42273,-34.07982,0 18.42293,-34.07898,0 18.4231,-34.07782,0 18.42323,-34.07698,0 18.4234,-34.07602,0 18.42351,-34.07506,0 18.42362,-34.07401,0 18.42367,-34.07317,0 18.42373,-34.07214,0 18.42379,-34.07126,0 18.4239,-34.06986,0 18.42402,-34.06897,0 18.42407,-34.06805,0 18.42413,-34.067,0 18.42419,-34.06604,0 18.42419,-34.06511,0 18.42424,-34.06418,0 18.42424,-34.06311,0 18.4243,-34.06192,0 18.4243,-34.061,0 18.42424,-34.05991,0 18.42424,-34.05892,0 18.42424,-34.05826,0 18.42419,-34.05711,0 18.42419,-34.05618,0 18.42413,-34.05519,0 18.42402,-34.05408,0 18.42384,-34.05296,0 18.42362,-34.05226,0 18.42321,-34.05115,0 18.42278,-34.05025,0 18.42228,-34.0491,0 18.42183,-34.04814,0 18.42155,-34.04745,0 18.4211,-34.04635,0 18.42082,-34.04544,0 18.42065,-34.04457,0 18.42047,-34.04365,0 18.42037,-34.04251,0 18.42035,-34.04165,0 18.42026,-34.04054,0 18.42026,-34.03963,0 18.4202,-34.03853,0 18.42024,-34.03769,0 18.42024,-34.03685,0 18.4203,-34.03569,0 18.42041,-34.03471,0 18.42054,-34.03358,0 18.42064,-34.03271,0 18.42075,-34.0315,0 18.42081,-34.03062,0 18.42087,-34.02945,0 18.42093,-34.02859,0 18.42098,-34.02736,0 18.42105,-34.02654,0 18.42115,-34.02536,0 18.42121,-34.02433,0 18.42133,-34.02322,0 18.42144,-34.02238,0 18.42161,-34.02136,0 18.42172,-34.02045,0 18.42194,-34.01912,0 18.42218,-34.01814,0 18.42239,-34.0172,0 18.42273,-34.01619,0 18.42306,-34.01509,0 18.42334,-34.01418,0 18.42367,-34.01311,0 18.42396,-34.0123,0 18.42435,-34.01111,0 18.42469,-34.00996,0 18.42493,-34.00883,0 18.42516,-34.0079,0 18.42539,-34.00683,0 18.4255,-34.0059,0 18.42564,-34.00475,0 18.42567,-34.00371,0 18.42564,-34.00264,0 18.42564,-34.00182,0 18.42573,-34.00073,0 18.4259,-33.99989,0 18.42637,-33.99879,0 18.42682,-33.99817,0 18.42772,-33.99738,0 18.42856,-33.99692,0 18.42979,-33.99664,0 18.43091,-33.9966,0 18.43226,-33.99687,0 18.43306,-33.99719,0 18.43433,-33.99802,0 18.43523,-33.99892,0 18.4358,-33.9998,0 18.4362,-34.00073,0 18.43632,-34.0018,0 18.43626,-34.00287,0 18.4359,-34.00392,0 18.43534,-34.00479,0 18.4345,-34.00571,0 18.43366,-34.00635,0 18.43237,-34.00694,0 18.43145,-34.00716,0 18.43002,-34.00725,0 18.42888,-34.00706,0 18.42785,-34.00669,0 18.42682,-34.00603,0 18.42603,-34.00516,0 18.42564,-34.00429,0 18.42542,-34.00346,0 18.42536,-34.00255,0 18.42547,-34.00145,0 18.42564,-34.00067,0 18.42602,-33.99971,0 18.42648,-33.99857,0 18.42693,-33.99765,0 18.42749,-33.99646,0 18.428,-33.99554,0 18.42856,-33.99449,0 18.42911,-33.99361,0 18.42962,-33.9928,0 18.43014,-33.99189,0 18.43082,-33.99077,0 18.43134,-33.98984,0 18.43203,-33.98872,0 18.43254,-33.98788,0 18.43306,-33.98705,0 18.43369,-33.98593,0 18.43431,-33.98481,0 18.43489,-33.98378,0 18.4354,-33.98285,0 18.43609,-33.98155,0 18.43657,-33.98067,0 18.43719,-33.97957,0 18.43764,-33.97874,0 18.43831,-33.97751,0 18.43893,-33.9765,0 18.43946,-33.9755,0 18.43988,-33.97467,0 18.44067,-33.97331,0 18.44134,-33.97215,0 18.44187,-33.97117,0 18.44347,-33.96814,0 18.44403,-33.96721,0 18.44467,-33.96624,0 18.44532,-33.96524,0 18.44593,-33.96428,0 18.44649,-33.96336,0 18.44702,-33.96256,0 18.44745,-33.96176,0 18.44806,-33.96071,0 18.44851,-33.95984,0 18.44907,-33.95879,0 18.44942,-33.95813,0 18.44991,-33.95709,0 18.45034,-33.95604,0 18.45058,-33.95522,0 18.45079,-33.95413,0 18.45086,-33.95306,0 18.45081,-33.95219,0 18.45053,-33.9511,0 18.45028,-33.95031,0 18.44988,-33.94948,0 18.4493,-33.94849,0 18.44873,-33.94775,0 18.44812,-33.94707,0 18.44736,-33.94626,0 18.44645,-33.94543,0 18.44571,-33.94482,0 18.44476,-33.94409,0 18.44381,-33.94342,0 18.44296,-33.94281,0 18.44234,-33.94235,0 18.44139,-33.94171,0 18.44038,-33.94098,0 18.43958,-33.9404,0 18.43881,-33.93983,0 18.43797,-33.93924,0 18.43706,-33.93854,0 18.43635,-33.938,0 18.4354,-33.93737,0 18.43439,-33.93681,0 18.43377,-33.9364,0 18.43306,-33.93556,0 18.43282,-33.9348,0 18.43294,-33.9336,0 18.4334,-33.93253,0 18.43377,-33.93173,0 18.43426,-33.9309,0 18.43489,-33.92976,0 18.43545,-33.92889,0 18.4358,-33.92839,0 18.43663,-33.9272,0 18.43724,-33.92633,0 18.43797,-33.92528,0 18.43876,-33.92427,0 18.43958,-33.92318,0 18.44027,-33.92229,0 18.44107,-33.92126,0 18.44173,-33.92033,0 18.44238,-33.9194,0 18.44296,-33.91847,0 18.44364,-33.9174,0 18.44408,-33.91663,0 18.4447,-33.91553,0 18.44519,-33.91465,0 18.44588,-33.91338,0 18.44627,-33.91251,0 18.44672,-33.91145,0 18.44713,-33.91047,0 18.44745,-33.90944,0 18.4477,-33.9086,0 18.4479,-33.90733,0 18.44795,-33.90633,0 18.44795,-33.90504,0 18.44784,-33.90404,0 18.44767,-33.90303,0 18.44739,-33.90189,0 18.44696,-33.90069,0 18.44649,-33.89973,0 18.44599,-33.89869,0 18.44536,-33.89766,0 18.44481,-33.8968,0 18.44398,-33.89571,0 18.4433,-33.89492,0 18.44255,-33.89417,0 18.44175,-33.89343,0 18.44083,-33.89259,0 18.43981,-33.8918,0 18.43866,-33.89096,0 18.43763,-33.89026,0 18.43668,-33.88966,0 18.43575,-33.88914,0 18.43456,-33.88861,0 18.43334,-33.88826,0 18.43237,-33.88812,0 18.4314,-33.88807,0 18.42996,-33.88824,0 18.42856,-33.88875,0 18.42768,-33.88919,0 18.42671,-33.88998,0 18.42603,-33.89085,0 18.42564,-33.89154,0 18.42542,-33.89223,0 18.42533,-33.89305,0 18.42542,-33.89365,0 18.42556,-33.89422,0 18.42579,-33.89496,0 18.42609,-33.89561,0 18.4263,-33.89618,0 18.42659,-33.89673,0 18.42688,-33.89729,0 18.42715,-33.89772,0 18.42738,-33.89818,0 18.42766,-33.89854,0 18.42783,-33.89891,0 18.42785,-33.89929,0 18.42766,-33.89964,0 18.42745,-33.89994,0 18.42716,-33.90018,0 18.42693,-33.90041,0 18.42688,-33.90069,0 18.42699,-33.90092,0 18.42693,-33.90064,0 18.4271,-33.90013,0 18.42715,-33.89992,0 18.42728,-33.89971,0 18.42751,-33.89934,0 18.42766,-33.89909,0 18.42783,-33.89882,0 18.42813,-33.89846,0 18.42839,-33.89813,0 18.42867,-33.89777,0 18.42888,-33.89748,0 18.42911,-33.8972,0 18.42934,-33.89692,0 18.42957,-33.89658,0 18.42997,-33.89603,0 18.43037,-33.89548,0 18.43085,-33.89474,0 18.4313,-33.89415,0 18.43181,-33.89342,0 18.43225,-33.89268,0 18.43276,-33.89191,0 18.43306,-33.89147,0 18.4336,-33.89063,0 18.43399,-33.88998,0 18.43437,-33.88942,0 18.43478,-33.8887,0 18.43511,-33.88811,0 18.43545,-33.88728,0 18.43563,-33.88668,0 18.43562,-33.88577,0 18.43551,-33.88499,0 18.43528,-33.8844,0 18.43494,-33.8837,0 18.43449,-33.88309,0 18.43386,-33.88253,0 18.43321,-33.88206,0 18.43242,-33.88161,0 18.43174,-33.88132,0 18.43071,-33.88105,0 18.42991,-33.88086,0 18.42923,-33.88074,0 18.42825,-33.88063,0 18.42739,-33.88058,0 18.42625,-33.88053,0 18.42547,-33.88055,0 18.42419,-33.88053,0 18.42329,-33.8806,0 18.42247,-33.88063,0 18.42138,-33.88067,0 18.42035,-33.88076,0 18.41959,-33.88083,0 18.41869,-33.88091,0 18.41772,-33.88095,0 18.41686,-33.88105,0 18.41572,-33.8812,0 18.41482,-33.88129,0 18.41343,-33.88146,0 18.41264,-33.88156,0 18.41125,-33.88174,0 18.41017,-33.88193,0 18.40894,-33.88211,0 18.40725,-33.88239,0 18.40614,-33.88257,0 18.40501,-33.8828,0 18.40387,-33.88305,0 18.40283,-33.8833,0 18.40148,-33.88362,0 18.40033,-33.88398,0 18.3989,-33.88444,0 18.39773,-33.8849,0 18.39661,-33.88542,0 18.39537,-33.886,0 18.39397,-33.88673,0 18.39272,-33.88742,0 18.39174,-33.88794,0 18.39031,-33.88877,0 18.38926,-33.88943,0 18.38808,-33.89017,0 18.38702,-33.89085,0 18.38596,-33.89157,0 18.38499,-33.89231,0 18.38377,-33.89319,0 18.38293,-33.89388,0 18.38181,-33.89484,0 18.38087,-33.89566,0 18.37984,-33.89669,0 18.37895,-33.89758,0 18.37818,-33.89855,0 18.37744,-33.89948,0 18.37669,-33.90064,0 18.37601,-33.90176,0 18.37542,-33.90271,0 18.37481,-33.90367,0 18.37396,-33.90495,0 18.3734,-33.90578,0 18.37273,-33.90678,0 18.37206,-33.90772,0 18.37121,-33.90894,0 18.37051,-33.90986,0 18.36983,-33.91074,0 18.36914,-33.91163,0 18.36823,-33.91275,0 18.36748,-33.91363,0 18.36679,-33.91456,0 18.36594,-33.91563,0 18.36525,-33.91656,0 18.36454,-33.91754,0 18.36376,-33.91856,0 18.36279,-33.91987,0 18.3623,-33.92061,0 18.36157,-33.92162,0 18.36079,-33.92285,0 18.36017,-33.92368,0 18.35939,-33.92491,0 18.35872,-33.92596,0 18.3581,-33.92699,0 18.35737,-33.92821,0 18.35675,-33.92921,0 18.35608,-33.93054,0 18.35552,-33.93155,0 18.35496,-33.9326,0 18.35434,-33.93393,0 18.35373,-33.93521,0 18.35329,-33.93626,0 18.35272,-33.9377,0 18.35227,-33.93901,0 18.35188,-33.94016,0 18.35148,-33.94167,0 18.35112,-33.94291,0 18.35083,-33.94412,0 18.35053,-33.94565,0 18.3502,-33.94715,0 18.34997,-33.94822,0 18.34963,-33.9498,0 18.34934,-33.95101,0 18.34906,-33.95218,0 18.34879,-33.95343,0 18.34846,-33.9549,0 18.3482,-33.95599,0 18.34791,-33.9572,0 18.34745,-33.95897,0 18.34616,-33.96304,0 18.34605,-33.96341,0 18.34482,-33.96637,0 18.34268,-33.97078,0 18.34207,-33.97188,0 18.34099,-33.97373,0 18.34011,-33.97517,0 18.33932,-33.97646,0 18.3383,-33.97801,0 18.33702,-33.98021,0 18.33635,-33.98145,0 18.33578,-33.98262,0 18.33489,-33.98451,0 18.33388,-33.9868,0 18.33327,-33.98822,0 18.33271,-33.98946,0 18.3322,-33.99069,0 18.3317,-33.99184,0 18.33115,-33.99314,0 18.33052,-33.99463,0 18.33,-33.99575,0 18.32932,-33.99724,0 18.3285,-33.99911,0 18.32726,-34.0019,0 18.3264,-34.00399,0 18.32559,-34.00575,0 18.32394,-34.00939,0 18.32195,-34.01363,0 18.32148,-34.01456,0 18.3209,-34.01567,0 18.32005,-34.01721,0 18.31861,-34.01995,0 18.3174,-34.02219,0 18.31645,-34.02379,0 18.31561,-34.02502,0 18.31494,-34.02608,0 18.31421,-34.02713,0 18.31343,-34.02832,0 18.31253,-34.02956,0 18.31169,-34.0308,0 18.31101,-34.03189,0 18.3102,-34.03322,0 18.30957,-34.03457,0 18.309,-34.03619,0 18.30866,-34.03734,0 18.30844,-34.03885,0 18.30837,-34.04021,0 18.30849,-34.04151,0 18.30872,-34.04291,0 18.30906,-34.04403,0 18.30967,-34.04549,0 18.31045,-34.04668,0 18.31135,-34.04773,0 18.31226,-34.04849,0 18.31337,-34.04919,0 18.31427,-34.04966,0 18.31547,-34.05003,0 18.3165,-34.05017,0 18.31764,-34.05012,0 18.31909,-34.04979,0 18.31993,-34.04938,0 18.32082,-34.04874,0 18.32148,-34.04817,0 18.32228,-34.04728,0 18.32291,-34.04644,0 18.32348,-34.04565,0 18.32396,-34.04475,0 18.32451,-34.04379,0 18.32486,-34.04292,0 18.3252,-34.04216,0 18.32571,-34.04105,0 18.32604,-34.04008,0 18.3264,-34.03913,0 18.32668,-34.03825,0 18.32703,-34.03723,0 18.32727,-34.03638,0 18.32755,-34.03519,0 18.32777,-34.03427,0 18.32806,-34.03308,0 18.32829,-34.03215,0 18.32856,-34.03084,0 18.32878,-34.02974,0 18.32897,-34.02871,0 18.32918,-34.02773,0 18.3294,-34.02654,0 18.32954,-34.02545,0 18.32973,-34.0242,0 18.32989,-34.02317,0 18.33002,-34.02228,0 18.33018,-34.02109,0 18.3303,-34.01985,0 18.33046,-34.01889,0 18.33063,-34.01758,0 18.33075,-34.01656,0 18.33102,-34.01518,0 18.3312,-34.01414,0 18.33153,-34.01299,0 18.33178,-34.01195,0 18.33215,-34.01074,0 18.33252,-34.00972,0 18.33299,-34.00841,0 18.33344,-34.0072,0 18.33395,-34.00604,0 18.33439,-34.00507,0 18.33487,-34.00404,0 18.33532,-34.00311,0 18.3359,-34.00191,0 18.33641,-34.00095,0 18.33858,-33.99724,0 18.33967,-33.99487,0 18.34078,-33.9922,0 18.34167,-33.98988,0 18.34282,-33.98723,0 18.34414,-33.98509,0 18.34593,-33.98273,0 18.34778,-33.9803,0 18.34929,-33.97824,0 18.35094,-33.97583,0 18.35238,-33.97345,0 18.35361,-33.97105,0 18.35462,-33.96877,0 18.35569,-33.96605,0 18.35647,-33.96368,0 18.35718,-33.96102,0 18.3577,-33.95874,0 18.35799,-33.95714,0 18.35821,-33.95572,0 18.35838,-33.95453,0 18.35849,-33.95343,0 18.3586,-33.95251,0 18.35872,-33.9516,0 18.35884,-33.95027,0 18.3589,-33.9492,0 18.35896,-33.94836,0 18.35905,-33.9473,0 18.35918,-33.94594,0 18.35922,-33.94505,0 18.3593,-33.94417,0 18.35933,-33.9429,0 18.35944,-33.94194,0 18.35956,-33.94102,0 18.3597,-33.93984,0 18.35987,-33.93882,0 18.36006,-33.93787,0 18.36034,-33.93681,0 18.36061,-33.93556,0 18.36085,-33.93462,0 18.36118,-33.93338,0 18.36152,-33.93219,0 18.36182,-33.93123,0 18.36222,-33.93011,0 18.36262,-33.92923,0 18.36313,-33.92811,0 18.36348,-33.92741,0 18.36411,-33.92634,0 18.36468,-33.92541,0 18.36527,-33.9245,0 18.36605,-33.92327,0 18.36651,-33.92262,0 18.36731,-33.9215,0 18.36808,-33.92052,0 18.36891,-33.9195,0 18.36966,-33.9187,0 18.37046,-33.91773,0 18.37116,-33.91699,0 18.37189,-33.91615,0 18.37286,-33.91512,0 18.37351,-33.91443,0 18.37429,-33.91363,0 18.37503,-33.91289,0 18.37598,-33.912,0 18.37669,-33.9113,0 18.37772,-33.91042,0 18.37858,-33.90977,0 18.37967,-33.90893,0 18.38058,-33.90825,0 18.38144,-33.90758,0 18.38242,-33.90683,0 18.38355,-33.90605,0 18.38444,-33.90536,0 18.38556,-33.9045,0 18.38625,-33.904,0 18.3873,-33.90321,0 18.38814,-33.90255,0 18.38904,-33.90189,0 18.39218,-33.89946,0 18.39626,-33.89645,0 18.39941,-33.89426,0 18.40042,-33.8936,0 18.40378,-33.8914,0 18.40479,-33.89081,0 18.40591,-33.89021,0 18.40681,-33.88971,0 18.40834,-33.88896,0 18.40954,-33.8884,0 18.41051,-33.88798,0 18.41157,-33.88756,0 18.41297,-33.88696,0 18.41409,-33.88655,0 18.41538,-33.88609,0 18.41686,-33.8856,0 18.41806,-33.88523,0 18.41948,-33.8849,0 18.42075,-33.88467,0 18.42284,-33.88454,0 18.4243,-33.88458,0 18.42558,-33.88467,0 18.42766,-33.88504,0 18.429,-33.88541,0 18.43065,-33.88593,0 18.43191,-33.88649,0 18.43357,-33.88728,0 18.43466,-33.88784,0 18.43597,-33.88858,0 18.43724,-33.88939,0 18.43859,-33.89021,0 18.43982,-33.89104,0 18.44066,-33.89163,0 18.44201,-33.89259,0 18.44324,-33.89351,0 18.44425,-33.89424,0 18.4453,-33.89506,0 18.44645,-33.89589,0 18.44756,-33.89676,0 18.44868,-33.89762,0 18.44982,-33.89855,0 18.4507,-33.89937,0 18.45154,-33.90019,0 18.45238,-33.90115,0 18.45308,-33.90208,0 18.45377,-33.90316,0 18.45428,-33.90432,0 18.45457,-33.90558,0 18.45457,-33.90665,0 18.45434,-33.90739,0 18.45361,-33.9082,0 18.45255,-33.90871,0 18.45102,-33.90874,0 18.45005,-33.90837,0 18.4489,-33.90765,0 18.44795,-33.90678,0 18.44719,-33.9059,0 18.44662,-33.90511,0 18.44587,-33.90423,0 18.44515,-33.90335,0 18.44453,-33.90257,0 18.44387,-33.90176,0 18.4433,-33.9012,0 18.44268,-33.90056,0 18.44198,-33.89985,0 18.44123,-33.89928,0 18.44072,-33.89896,0 18.43987,-33.8985,0 18.43889,-33.89813,0 18.43814,-33.8979,0 18.43758,-33.89781,0 18.43652,-33.89777,0 18.4359,-33.89777,0 18.43512,-33.8979,0 18.4345,-33.89799,0 18.43357,-33.89822,0 18.43304,-33.89836,0 18.43237,-33.89855,0 18.43168,-33.89878,0 18.43108,-33.89896,0 18.43046,-33.89909,0 18.42973,-33.89928,0 18.42922,-33.89939,0 18.42872,-33.89951,0 18.42833,-33.8996,0 18.428,-33.89969,0 18.42743,-33.89987,0 18.42715,-33.90005,0 18.42688,-33.90027,0 18.42676,-33.90051,0 18.42687,-33.90079,0 18.42688,-33.90106,0</coordinates>
      </LineString>
    </Placemark>
  </Document>
</kml>
