<?xml version="1.0" encoding="UTF-8"?>
<kml xmlns="http://www.opengis.net/kml/2.2">
  <Document>
    <name>FR24 40d7fe3e</name>
    <Placemark>
      <name>FR24 40d7fe3e</name>
      <Style><LineStyle><color>ff0000ff</color><width>4</width></LineStyle></Style>
      <LineString>
        <tessellate>1</tessellate>
        <coordinates>18.43055,-33.88225,0 18.43466,-33.88039,0 18.43524,-33.87987,0 18.41432,-33.8712,0 18.40524,-33.8702,0 18.40209,-33.87029,0 18.40757,-33.87211,0 18.41387,-33.87523,0 18.39996,-33.87735,0 18.39912,-33.87793,0 18.39898,-33.87871,0 18.39824,-33.87965,0 18.39711,-33.88056,0 18.39722,-33.88121,0 18.39552,-33.88211,0 18.39356,-33.88293,0 18.39162,-33.88324,0 18.38961,-33.88383,0 18.38673,-33.88444,0 18.38534,-33.88512,0 18.3841,-33.88583,0 18.38064,-33.88764,0 18.37928,-33.88839,0 18.37602,-33.89095,0 18.37732,-33.89192,0 18.37543,-33.89365,0 18.37503,-33.89442,0 18.37437,-33.89581,0 18.37458,-33.89663,0 18.37375,-33.89822,0 18.37221,-33.89862,0 18.37028,-33.90038,0 18.36935,-33.90173,0 18.36726,-33.90405,0 18.36603,-33.9048,0 18.36471,-33.90571,0 18.36317,-33.90675,0 18.36201,-33.90763,0 18.36093,-33.90889,0 18.36277,-33.91078,0 18.36385,-33.91256,0 18.36202,-33.91362,0 18.36421,-33.91496,0 18.35036,-33.9165,0 18.35014,-33.91722,0 18.29852,-34.00145,0 18.30076,-34.01426,0 18.30207,-34.01476,0 18.29561,-34.01788,0 18.2938,-34.02708,0 18.31015,-34.02918,0 18.31208,-34.02594,0 18.31151,-34.02438,0 18.31426,-34.02335,0 18.31568,-34.02247,0 18.32041,-34.0144,0 18.32313,-34.00268,0 18.36376,-33.92044,0 18.35938,-33.91738,0 18.36734,-33.91638,0 18.36891,-33.91526,0 18.36718,-33.91387,0 18.36251,-33.91197,0 18.36648,-33.91099,0 18.37311,-33.90976,0 18.36299,-33.90655,0 18.37568,-33.90239,0 18.3739,-33.89859,0 18.38351,-33.89735,0 18.38898,-33.88858,0 18.38583,-33.88486,0 18.38633,-33.88448,0 18.3971,-33.88564,0 18.39717,-33.88193,0 18.43905,-33.89834,0 18.44324,-33.90322,0 18.47037,-33.92391,0 18.48409,-33.93596,0 18.48635,-33.93976,0 18.48763,-33.94171,0 18.48787,-33.94228,0 18.48954,-33.94498,0 18.48981,-33.94637,0 18.48914,-33.94719,0 18.48931,-33.94841,0 18.48738,-33.94978,0 18.48582,-33.95137,0 18.48511,-33.95245,0 18.48474,-33.95372,0 18.48437,-33.95541,0 18.48439,-33.95639,0 18.48428,-33.95732,0 18.48418,-33.95826,0 18.48425,-33.95905,0 18.48428,-33.96018,0 18.48396,-33.96149,0 18.48379,-33.96245,0 18.48355,-33.96392,0 18.48333,-33.96523,0 18.48328,-33.96601,0 18.48365,-33.9683,0 18.48385,-33.96899,0 18.48437,-33.96989,0 18.48457,-33.97097,0 18.48458,-33.97237,0 18.4846,-33.9734,0 18.48397,-33.97462,0 18.48362,-33.97603,0 18.48365,-33.97714,0 18.48372,-33.9782,0 18.48359,-33.97922,0 18.48359,-33.98028,0 18.48358,-33.98161,0 18.48349,-33.98289,0 18.48342,-33.98396,0 18.48343,-33.98527,0 18.48348,-33.9863,0 18.48349,-33.98747,0 18.4835,-33.98862,0 18.48347,-33.9903,0 18.48324,-33.99209,0 18.48319,-33.99297,0 18.48314,-33.99442,0 18.48311,-33.99805,0 18.48345,-34.00318,0 18.4832,-34.00429,0 18.48291,-34.00543,0 18.48268,-34.00673,0 18.48244,-34.00827,0 18.4821,-34.00947,0 18.48202,-34.01087,0 18.48202,-34.01217,0 18.48183,-34.01353,0 18.48195,-34.01482,0 18.48182,-34.01633,0 18.48192,-34.01802,0 18.48203,-34.01895,0 18.48192,-34.02044,0 18.48156,-34.02171,0 18.48161,-34.02304,0 18.48142,-34.02517,0 18.48157,-34.026,0 18.48162,-34.02726,0 18.48158,-34.02888,0 18.48137,-34.03011,0 18.48149,-34.03159,0 18.48147,-34.03239,0 18.48139,-34.03374,0 18.48133,-34.03514,0 18.48121,-34.03658,0 18.48114,-34.03806,0 18.48097,-34.03915,0 18.48072,-34.04058,0 18.48052,-34.04213,0 18.48028,-34.04331,0 18.47997,-34.04495,0 18.4799,-34.04618,0 18.47984,-34.0476,0 18.47954,-34.04957,0 18.47908,-34.05097,0 18.47885,-34.05247,0 18.47868,-34.05391,0 18.47835,-34.05563,0 18.47812,-34.05674,0 18.47819,-34.05818,0 18.47839,-34.0601,0 18.47847,-34.0612,0 18.47824,-34.06261,0 18.47843,-34.064,0 18.47863,-34.06483,0 18.47886,-34.06625,0 18.47882,-34.06731,0 18.47843,-34.06902,0 18.47826,-34.06992,0 18.47794,-34.07168,0 18.47784,-34.07325,0 18.47775,-34.07476,0 18.4776,-34.0758,0 18.47744,-34.07743,0 18.47739,-34.07845,0 18.47733,-34.07981,0 18.47735,-34.08134,0 18.47748,-34.08258,0 18.47757,-34.08367,0 18.47726,-34.08535,0 18.47702,-34.08681,0 18.47709,-34.08812,0 18.47703,-34.08951,0 18.47674,-34.09107,0 18.47646,-34.09253,0 18.47641,-34.09366,0 18.4762,-34.09521,0 18.47602,-34.09665,0 18.47583,-34.09827,0 18.47576,-34.09942,0 18.47559,-34.1007,0 18.47537,-34.10188,0 18.47499,-34.10374,0 18.47468,-34.1051,0 18.47477,-34.106,0 18.47475,-34.10709,0 18.47452,-34.10849,0 18.47409,-34.10999,0 18.47366,-34.11167,0 18.47326,-34.11296,0 18.47289,-34.11403,0 18.47238,-34.11535,0 18.47183,-34.11667,0 18.47098,-34.11818,0 18.46986,-34.11964,0 18.46877,-34.12108,0 18.46766,-34.12253,0 18.46674,-34.12365,0 18.46558,-34.12489,0 18.46473,-34.12584,0 18.46317,-34.12744,0 18.46218,-34.12833,0 18.46133,-34.12913,0 18.45959,-34.1308,0 18.45855,-34.13169,0 18.45748,-34.1326,0 18.45558,-34.13403,0 18.45382,-34.13494,0 18.45243,-34.13553,0 18.45089,-34.13614,0 18.44958,-34.13648,0 18.44807,-34.13682,0 18.44637,-34.13704,0 18.44468,-34.13723,0 18.44266,-34.13733,0 18.44121,-34.13712,0 18.43963,-34.13689,0 18.43808,-34.13653,0 18.4367,-34.13626,0 18.43509,-34.13604,0 18.43324,-34.13559,0 18.43124,-34.13515,0 18.42965,-34.13469,0 18.42803,-34.13419,0 18.42604,-34.13374,0 18.42424,-34.13327,0 18.42231,-34.13261,0 18.42129,-34.13219,0 18.41906,-34.13134,0 18.41705,-34.13054,0 18.41601,-34.13012,0 18.41517,-34.12979,0 18.41351,-34.12898,0 18.41178,-34.12822,0 18.41074,-34.12775,0 18.40975,-34.12729,0 18.40832,-34.12658,0 18.40719,-34.12605,0 18.40569,-34.12542,0 18.40421,-34.12472,0 18.40298,-34.12434,0 18.4016,-34.1238,0 18.39973,-34.12306,0 18.39921,-34.12287,0 18.39798,-34.12239,0 18.39642,-34.12173,0 18.3953,-34.12128,0 18.39412,-34.12077,0 18.39294,-34.12024,0 18.39141,-34.11961,0 18.38885,-34.11864,0 18.38756,-34.11819,0 18.38591,-34.11754,0 18.38412,-34.11679,0 18.38262,-34.11623,0 18.38118,-34.11565,0 18.37959,-34.11501,0 18.3784,-34.11453,0 18.37666,-34.11385,0 18.37487,-34.11317,0 18.3709,-34.11157,0 18.36698,-34.10994,0 18.36556,-34.10928,0 18.36113,-34.10741,0 18.35958,-34.1066,0 18.35834,-34.10608,0 18.35589,-34.105,0 18.35458,-34.10436,0 18.35229,-34.10329,0 18.34982,-34.10155,0 18.31871,-34.0792,0 18.34301,-34.07519,0 18.34348,-34.07278,0 18.34311,-34.07122,0 18.34318,-34.06992,0 18.34305,-34.06818,0 18.34433,-34.06639,0 18.34442,-34.0656,0 18.34497,-34.06468,0 18.34516,-34.06386,0 18.34522,-34.06342,0 18.34541,-34.06272,0 18.34566,-34.06216,0 18.34571,-34.06177,0 18.34584,-34.06112,0 18.34602,-34.06039,0 18.34617,-34.05928,0 18.34644,-34.05789,0 18.34663,-34.05687,0 18.34678,-34.05552,0 18.3467,-34.05443,0 18.34667,-34.05325,0 18.34666,-34.05201,0 18.34665,-34.05086,0 18.34654,-34.04947,0 18.34653,-34.0481,0 18.34629,-34.0468,0 18.34589,-34.04529,0 18.34553,-34.04395,0 18.34529,-34.04282,0 18.34481,-34.04128,0 18.3445,-34.03967,0 18.34407,-34.03832,0 18.34355,-34.0373,0 18.34277,-34.03613,0 18.34187,-34.03482,0 18.34088,-34.03355,0 18.33975,-34.03234,0 18.33877,-34.03142,0 18.33732,-34.02988,0 18.33631,-34.02896,0 18.33518,-34.02797,0 18.33395,-34.02698,0 18.33307,-34.0262,0 18.33128,-34.02471,0 18.33041,-34.02395,0 18.32927,-34.02285,0 18.32537,-34.02098,0 18.32382,-34.0194,0 18.32338,-34.01817,0 18.32678,-34.00748,0 18.32177,-34.0024,0 18.37079,-33.92074,0 18.36055,-33.91714,0 18.36189,-33.9155,0 18.36219,-33.91293,0 18.36946,-33.91347,0 18.36589,-33.91078,0 18.3679,-33.90839,0 18.36463,-33.90725,0 18.36579,-33.90448,0 18.37303,-33.90353,0 18.39961,-33.89019,0 18.40615,-33.88479,0 18.39883,-33.88,0</coordinates>
      </LineString>
    </Placemark>
  </Document>
</kml>
