<?xml version="1.0" encoding="UTF-8"?>
<kml xmlns="http://www.opengis.net/kml/2.2">
  <Document>
    <name>FR24 41c05387</name>
    <Placemark>
      <name>FR24 41c05387</name>
      <Style><LineStyle><color>ff0000ff</color><width>4</width></LineStyle></Style>
      <LineString>
        <tessellate>1</tessellate>
        <coordinates>18.42748,-33.88077,0 18.41762,-33.87263,0 18.41328,-33.87259,0 18.4107,-33.87333,0 18.40755,-33.87256,0 18.40559,-33.87495,0 18.40607,-33.87663,0 18.40835,-33.87697,0 18.41024,-33.877,0 18.41279,-33.87688,0 18.41374,-33.87651,0 18.40758,-33.87794,0 18.39589,-33.88005,0 18.39726,-33.88179,0 18.39458,-33.8818,0 18.39186,-33.88266,0 18.38971,-33.88361,0 18.38855,-33.88428,0 18.38741,-33.88536,0 18.38591,-33.88593,0 18.3828,-33.88833,0 18.38254,-33.88867,0 18.38168,-33.88951,0 18.3813,-33.8901,0 18.38069,-33.89085,0 18.37948,-33.89192,0 18.37818,-33.89346,0 18.37698,-33.89442,0 18.37594,-33.89543,0 18.37504,-33.89627,0 18.37396,-33.89727,0 18.37339,-33.89796,0 18.3729,-33.89886,0 18.37246,-33.89949,0 18.37117,-33.90094,0 18.36648,-33.90224,0 18.36457,-33.90301,0 18.36522,-33.90516,0 18.36536,-33.90599,0 18.36513,-33.90723,0 18.36499,-33.90779,0 18.36457,-33.90912,0 18.36302,-33.91249,0 18.3626,-33.91343,0 18.36231,-33.91454,0 18.35449,-33.91703,0 18.35339,-33.91769,0 18.35083,-33.91823,0 18.34967,-33.91897,0 18.31903,-34.01592,0 18.33608,-34.02172,0 18.33463,-34.02285,0 18.3359,-34.02414,0 18.33823,-34.02572,0 18.33809,-34.02649,0 18.33929,-34.02792,0 18.34007,-34.02901,0 18.34075,-34.03002,0 18.34133,-34.03112,0 18.34184,-34.03228,0 18.34235,-34.03349,0 18.34268,-34.03456,0 18.34298,-34.03585,0 18.34344,-34.03698,0 18.34124,-34.03819,0 18.34156,-34.03938,0 18.34344,-34.04097,0 18.34483,-34.04241,0 18.34553,-34.04368,0 18.3461,-34.04486,0 18.34657,-34.04597,0 18.3471,-34.04716,0 18.34751,-34.04836,0 18.34749,-34.04938,0 18.34209,-34.05255,0 18.34103,-34.05337,0 18.34253,-34.05455,0 18.34379,-34.0551,0 18.34718,-34.05607,0 18.35006,-34.05636,0 18.35232,-34.05667,0 18.35448,-34.05665,0 18.35725,-34.05602,0 18.35839,-34.04871,0 18.36052,-34.04773,0 18.36235,-34.04675,0 18.36285,-34.04604,0 18.35406,-34.04336,0 18.35514,-34.0423,0 18.35651,-34.04125,0 18.35665,-34.04052,0 18.3565,-34.03976,0 18.3561,-34.0391,0 18.35489,-34.03756,0 18.35285,-34.03634,0 18.35112,-34.03513,0 18.34982,-34.03419,0 18.34846,-34.03316,0 18.34715,-34.03223,0 18.34599,-34.03139,0 18.34488,-34.03055,0 18.34387,-34.02961,0 18.3428,-34.02864,0 18.34192,-34.0277,0 18.34136,-34.02711,0 18.33714,-34.02522,0 18.33575,-34.02406,0 18.33484,-34.02295,0 18.33408,-34.02171,0 18.33345,-34.0204,0 18.33278,-34.01934,0 18.33199,-34.01769,0 18.36741,-33.92107,0 18.3673,-33.91548,0 18.36782,-33.91388,0 18.36925,-33.91287,0 18.37012,-33.91094,0 18.37288,-33.90971,0 18.37345,-33.90876,0 18.37422,-33.90707,0 18.37688,-33.90635,0 18.37999,-33.90408,0 18.38142,-33.9028,0 18.38331,-33.90036,0 18.38488,-33.89857,0 18.38729,-33.89639,0 18.39035,-33.89489,0 18.39448,-33.89504,0 18.39771,-33.891,0 18.40377,-33.89019,0 18.41046,-33.88549,0 18.42698,-33.88165,0 18.42612,-33.87941,0 18.42503,-33.87791,0 18.428,-33.87758,0 18.42808,-33.87733,0 18.42898,-33.87618,0 18.43056,-33.87444,0 18.43087,-33.87415,0 18.42662,-33.87132,0 18.42607,-33.8709,0 18.4259,-33.87045,0 18.41366,-33.86892,0 18.41307,-33.86899,0 18.41151,-33.86921,0 18.40423,-33.87029,0 18.40346,-33.8706,0 18.40392,-33.8712,0 18.40362,-33.87154,0 18.39981,-33.87333,0 18.39863,-33.8738,0 18.39752,-33.87427,0 18.3961,-33.87516,0 18.39417,-33.87614,0 18.3935,-33.87655,0 18.3917,-33.87764,0 18.39049,-33.87815,0 18.38956,-33.87841,0 18.38557,-33.88079,0 18.38441,-33.88168,0 18.38426,-33.88277,0 18.38278,-33.88387,0 18.38209,-33.88455,0 18.38141,-33.88569,0 18.38061,-33.88641,0 18.37971,-33.88749,0 18.37976,-33.88827,0 18.37941,-33.88918,0 18.37908,-33.88992,0 18.37821,-33.89112,0 18.37725,-33.89226,0 18.37655,-33.8931,0 18.37552,-33.8942,0 18.37442,-33.89537,0 18.37261,-33.89651,0 18.37174,-33.89746,0 18.37138,-33.89825,0 18.37096,-33.89903,0 18.37073,-33.90007,0 18.36983,-33.90123,0 18.36877,-33.90308,0 18.36704,-33.90374,0 18.36621,-33.90522,0 18.36571,-33.90622,0 18.36516,-33.90707,0 18.36451,-33.9081,0 18.36327,-33.90921,0 18.36292,-33.91042,0 18.36254,-33.91128,0 18.36076,-33.91296,0 18.36069,-33.91416,0 18.36072,-33.91508,0 18.36045,-33.91646,0 18.36006,-33.9174,0 18.35846,-33.91852,0 18.35718,-33.91956,0 18.36118,-33.92025,0 18.36641,-33.9193,0 18.36791,-33.91708,0 18.36719,-33.91493,0 18.36518,-33.91281,0 18.36383,-33.91041,0 18.36467,-33.90942,0 18.36744,-33.90929,0 18.36709,-33.9072,0 18.37015,-33.9062,0 18.37557,-33.90352,0 18.3757,-33.89986,0 18.37881,-33.89842,0 18.38272,-33.89729,0 18.38794,-33.89616,0 18.38878,-33.89387,0 18.39133,-33.88902,0 18.39438,-33.88673,0 18.39671,-33.88628,0 18.44169,-33.88849,0</coordinates>
      </LineString>
    </Placemark>
  </Document>
</kml>
