<?xml version="1.0" encoding="UTF-8"?>
<kml xmlns="http://www.opengis.net/kml/2.2">
  <Document>
    <name>FR24 40b2b7dd</name>
    <Placemark>
      <name>FR24 40b2b7dd</name>
      <Style><LineStyle><color>ff0000ff</color><width>4</width></LineStyle></Style>
      <LineString>
        <tessellate>1</tessellate>
        <coordinates>18.43363,-33.89105,0 18.43489,-33.88911,0 18.43523,-33.88852,0 18.43552,-33.88789,0 18.43586,-33.8871,0 18.43603,-33.88649,0 18.4362,-33.8857,0 18.43624,-33.8849,0 18.43618,-33.8844,0 18.43607,-33.88371,0 18.43575,-33.88295,0 18.43545,-33.88243,0 18.435,-33.88174,0 18.4346,-33.88123,0 18.4341,-33.88074,0 18.43346,-33.88021,0 18.43276,-33.87973,0 18.4322,-33.87937,0 18.43128,-33.8789,0 18.43042,-33.87858,0 18.42968,-33.87831,0 18.42882,-33.87811,0 18.42783,-33.8779,0 18.42704,-33.87772,0 18.42602,-33.87755,0 18.42519,-33.87749,0 18.42413,-33.8774,0 18.42323,-33.87735,0 18.42239,-33.8773,0 18.42121,-33.87732,0 18.42026,-33.87735,0 18.41931,-33.8774,0 18.41841,-33.87744,0 18.41726,-33.87751,0 18.41634,-33.87762,0 18.41544,-33.87776,0 18.41449,-33.8779,0 18.41342,-33.87808,0 18.41223,-33.87825,0 18.41103,-33.87848,0 18.41011,-33.87862,0 18.40897,-33.87886,0 18.40804,-33.879,0 18.40681,-33.87927,0 18.40576,-33.87946,0 18.40479,-33.8797,0 18.40382,-33.87993,0 18.40272,-33.88019,0 18.40153,-33.88049,0 18.40047,-33.88074,0 18.39935,-33.88106,0 18.39832,-33.88132,0 18.39718,-33.88169,0 18.39616,-33.88202,0 18.39509,-33.88239,0 18.39375,-33.88284,0 18.39263,-33.88326,0 18.39163,-33.88365,0 18.39072,-33.88399,0 18.3894,-33.88458,0 18.38848,-33.88504,0 18.38734,-33.88565,0 18.38646,-33.88618,0 18.38562,-33.88669,0 18.38459,-33.88742,0 18.38383,-33.88797,0 18.38305,-33.88854,0 18.38202,-33.88938,0 18.3811,-33.89017,0 18.38013,-33.89105,0 18.3794,-33.89172,0 18.37847,-33.89259,0 18.37772,-33.89333,0 18.37688,-33.8942,0 18.37598,-33.89507,0 18.37525,-33.89584,0 18.37458,-33.8965,0 18.37372,-33.89738,0 18.37303,-33.89808,0 18.37228,-33.89891,0 18.37154,-33.89967,0 18.37071,-33.90056,0 18.37011,-33.90125,0 18.36943,-33.90208,0 18.36864,-33.90303,0 18.36813,-33.90363,0 18.36725,-33.90479,0 18.36674,-33.90548,0 18.36589,-33.9066,0 18.36531,-33.90744,0 18.36454,-33.90843,0 18.36393,-33.90921,0 18.3633,-33.91009,0 18.36275,-33.91081,0 18.36193,-33.91196,0 18.36136,-33.91275,0 18.36061,-33.91368,0 18.35999,-33.91452,0 18.35928,-33.91557,0 18.35873,-33.91629,0 18.35821,-33.91704,0 18.35748,-33.918,0 18.35698,-33.91878,0 18.35644,-33.91959,0 18.35524,-33.92143,0 18.35473,-33.92221,0 18.35423,-33.92299,0 18.35356,-33.924,0 18.35316,-33.92464,0 18.35135,-33.92764,0 18.35083,-33.92862,0 18.35025,-33.92963,0 18.3498,-33.93048,0 18.34941,-33.93127,0 18.34879,-33.93246,0 18.3484,-33.93329,0 18.3479,-33.93425,0 18.34745,-33.93512,0 18.34689,-33.93626,0 18.34642,-33.93719,0 18.34588,-33.93832,0 18.34436,-33.94152,0 18.34229,-33.94583,0 18.34087,-33.94887,0 18.33933,-33.95246,0 18.33786,-33.95563,0 18.33573,-33.96016,0 18.33349,-33.96538,0 18.33178,-33.9694,0 18.33035,-33.97284,0 18.32897,-33.97606,0 18.32754,-33.97913,0 18.32726,-33.97983,0 18.32411,-33.98635,0 18.32199,-33.99054,0 18.3206,-33.99344,0 18.31903,-33.99655,0 18.31752,-33.99948,0 18.31564,-34.00292,0 18.31398,-34.00585,0 18.3123,-34.00864,0 18.31107,-34.0107,0 18.3104,-34.0117,0 18.30967,-34.0128,0 18.30894,-34.0139,0 18.30838,-34.01482,0 18.30787,-34.01569,0 18.30717,-34.01684,0 18.30648,-34.018,0 18.30602,-34.01884,0 18.3054,-34.01995,0 18.30471,-34.02112,0 18.30289,-34.02438,0 18.30244,-34.02544,0 18.30214,-34.02643,0 18.30202,-34.0274,0 18.3021,-34.02864,0 18.30244,-34.02992,0 18.30294,-34.0309,0 18.30373,-34.03189,0 18.3046,-34.03267,0 18.30552,-34.03326,0 18.30666,-34.03378,0 18.30803,-34.03415,0 18.30944,-34.03432,0 18.31073,-34.03427,0 18.31203,-34.03402,0 18.3132,-34.03349,0 18.31415,-34.0329,0 18.31501,-34.03211,0 18.31583,-34.03111,0 18.31639,-34.03015,0 18.31696,-34.02887,0 18.3173,-34.02792,0 18.31768,-34.02654,0 18.31793,-34.02559,0 18.31819,-34.02425,0 18.31836,-34.02315,0 18.31853,-34.02187,0 18.31869,-34.0209,0 18.3189,-34.01949,0 18.31907,-34.01856,0 18.3193,-34.0173,0 18.31965,-34.01587,0 18.31993,-34.01456,0 18.32016,-34.01353,0 18.32043,-34.01244,0 18.32077,-34.0112,0 18.3211,-34.01001,0 18.32144,-34.00896,0 18.32193,-34.00739,0 18.32233,-34.00618,0 18.32284,-34.00479,0 18.32319,-34.00385,0 18.32368,-34.00269,0 18.32419,-34.0014,0 18.32469,-34.00031,0 18.32525,-33.99905,0 18.32577,-33.99798,0 18.32637,-33.99673,0 18.32685,-33.99584,0 18.32806,-33.9937,0 18.33138,-33.98863,0 18.33309,-33.98621,0 18.33495,-33.98369,0 18.33685,-33.98112,0 18.34019,-33.97647,0 18.34369,-33.97156,0 18.34711,-33.96666,0 18.35019,-33.96172,0 18.35165,-33.95892,0 18.35283,-33.95636,0 18.35415,-33.95343,0 18.35455,-33.95246,0 18.35507,-33.95119,0 18.35535,-33.95041,0 18.35672,-33.94691,0 18.35718,-33.94556,0 18.35765,-33.94432,0 18.35798,-33.94338,0 18.35844,-33.94217,0 18.35878,-33.94128,0 18.35924,-33.93998,0 18.3597,-33.93891,0 18.36096,-33.93558,0 18.36216,-33.93239,0 18.36353,-33.92894,0 18.36494,-33.92583,0 18.36576,-33.92434,0 18.36645,-33.92322,0 18.3672,-33.92201,0 18.36785,-33.92097,0 18.36869,-33.91974,0 18.36937,-33.91882,0 18.37023,-33.91768,0 18.3711,-33.91653,0 18.37194,-33.91544,0 18.37278,-33.91438,0 18.3736,-33.91344,0 18.37435,-33.91261,0 18.37532,-33.91144,0 18.37604,-33.91063,0 18.37704,-33.90953,0 18.37801,-33.90851,0 18.37881,-33.90767,0 18.37957,-33.90688,0 18.38064,-33.90572,0 18.38161,-33.90469,0 18.38254,-33.90372,0 18.38338,-33.90285,0 18.38448,-33.90181,0 18.38512,-33.9012,0 18.3864,-33.89996,0 18.38734,-33.89911,0 18.38865,-33.89785,0 18.38968,-33.89692,0 18.39157,-33.89524,0 18.39272,-33.89426,0 18.39392,-33.89333,0 18.39487,-33.89255,0 18.39626,-33.89157,0 18.39764,-33.89068,0 18.39885,-33.88994,0 18.39997,-33.8893,0 18.40109,-33.88866,0 18.40221,-33.88811,0 18.40339,-33.88756,0 18.40479,-33.88696,0 18.40639,-33.88635,0 18.40776,-33.88584,0 18.40914,-33.88542,0 18.41068,-33.885,0 18.41194,-33.88463,0 18.41354,-33.8843,0 18.41522,-33.88403,0 18.41686,-33.88379,0 18.41846,-33.88365,0 18.41992,-33.88353,0 18.42127,-33.88348,0 18.42264,-33.88351,0 18.42424,-33.88356,0 18.4259,-33.88379,0 18.42716,-33.88403,0 18.42854,-33.8844,0 18.42974,-33.88482,0 18.43094,-33.88537,0 18.43175,-33.88582,0 18.43311,-33.88668,0 18.43397,-33.88733,0 18.43472,-33.88798,0 18.43534,-33.88863,0 18.43615,-33.88952,0 18.43666,-33.89022,0 18.43723,-33.89091,0 18.43781,-33.89175,0 18.4382,-33.89227,0 18.43881,-33.89319,0 18.43929,-33.89399,0 18.43975,-33.89487,0 18.44004,-33.89571,0 18.44022,-33.89639,0 18.4401,-33.89722,0 18.43988,-33.89777,0 18.43941,-33.89827,0 18.43881,-33.89854,0 18.43815,-33.89878,0 18.43758,-33.89883,0 18.43713,-33.89886,0 18.43685,-33.89891,0 18.43655,-33.89892,0 18.43612,-33.89896,0 18.43573,-33.89896,0 18.4354,-33.89897,0 18.43512,-33.89897,0 18.43472,-33.89897,0 18.43449,-33.89897,0 18.43409,-33.89901,0 18.43382,-33.89905,0 18.43355,-33.89905,0 18.43332,-33.89909,0 18.43287,-33.89914,0 18.4322,-33.8992,0 18.43191,-33.89925,0 18.43153,-33.89928,0 18.43114,-33.89932,0 18.43046,-33.89937,0 18.43001,-33.89941,0 18.42962,-33.89948,0 18.42929,-33.89951,0 18.42905,-33.89952,0 18.42884,-33.89955,0 18.42856,-33.8996,0 18.42836,-33.89981,0 18.42819,-33.90009,0 18.42791,-33.90032,0 18.42768,-33.90051,0 18.42743,-33.9006,0 18.42715,-33.90079,0 18.42693,-33.90097,0</coordinates>
      </LineString>
    </Placemark>
  </Document>
</kml>
