<?xml version="1.0" encoding="UTF-8"?>
<kml xmlns="http://www.opengis.net/kml/2.2">
  <Document>
    <name>FR24 40e7d9cc</name>
    <Placemark>
      <name>FR24 40e7d9cc</name>
      <Style><LineStyle><color>ff0000ff</color><width>4</width></LineStyle></Style>
      <LineString>
        <tessellate>1</tessellate>
        <coordinates>18.38282,-34.19569,0 18.38545,-34.19714,0 18.38624,-34.19769,0 18.38682,-34.1982,0 18.38751,-34.19886,0 18.38803,-34.19939,0 18.38865,-34.20016,0 18.38928,-34.201,0 18.38966,-34.20168,0 18.3901,-34.2025,0 18.39061,-34.20346,0 18.391,-34.2043,0 18.39134,-34.20511,0 18.39162,-34.20584,0 18.39197,-34.20686,0 18.39218,-34.2079,0 18.39229,-34.20859,0 18.39237,-34.2097,0 18.3924,-34.21069,0 18.39243,-34.21166,0 18.39243,-34.21282,0 18.39235,-34.21404,0 18.39229,-34.21513,0 18.39226,-34.21608,0 18.39209,-34.21748,0 18.39201,-34.21857,0 18.39186,-34.21971,0 18.39174,-34.22106,0 18.39163,-34.22213,0 18.39156,-34.22324,0 18.39139,-34.22429,0 18.39117,-34.226,0 18.391,-34.22699,0 18.39077,-34.22805,0 18.3905,-34.22937,0 18.39016,-34.23079,0 18.38991,-34.23182,0 18.38963,-34.23321,0 18.38943,-34.23427,0 18.38928,-34.23563,0 18.38921,-34.23647,0 18.38915,-34.23775,0 18.38921,-34.23907,0 18.38934,-34.24029,0 18.38954,-34.2415,0 18.38982,-34.24278,0 18.3901,-34.24402,0 18.39037,-34.24504,0 18.39078,-34.24644,0 18.39111,-34.24741,0 18.39151,-34.24844,0 18.39203,-34.24974,0 18.39246,-34.25084,0 18.39308,-34.25221,0 18.39358,-34.25322,0 18.39409,-34.25439,0 18.39464,-34.25546,0 18.39532,-34.25674,0 18.39582,-34.25771,0 18.39643,-34.25877,0 18.39711,-34.25999,0 18.39778,-34.26118,0 18.39849,-34.26245,0 18.39919,-34.2637,0 18.39997,-34.26498,0 18.40061,-34.26612,0 18.40136,-34.26733,0 18.4021,-34.26845,0 18.4029,-34.26971,0 18.40364,-34.27083,0 18.40434,-34.27185,0 18.40602,-34.27405,0 18.40686,-34.27515,0 18.40765,-34.27606,0 18.40839,-34.27702,0 18.40922,-34.27798,0 18.41,-34.2789,0 18.4112,-34.28028,0 18.41213,-34.28142,0 18.41303,-34.28246,0 18.41389,-34.28344,0 18.41497,-34.28465,0 18.41746,-34.28751,0 18.42064,-34.29089,0 18.4227,-34.29285,0 18.42379,-34.29382,0 18.42486,-34.29474,0 18.42542,-34.29524,0 18.42791,-34.29722,0 18.42912,-34.29813,0 18.42996,-34.29877,0 18.43102,-34.29955,0 18.43237,-34.30051,0 18.43443,-34.30197,0 18.43551,-34.30275,0 18.43691,-34.30371,0 18.43775,-34.30434,0 18.43895,-34.30518,0 18.44016,-34.30605,0 18.44118,-34.30677,0 18.44427,-34.30886,0 18.44748,-34.31109,0 18.45086,-34.31337,0 18.45412,-34.31557,0 18.45832,-34.31827,0 18.46269,-34.32111,0 18.46476,-34.32254,0 18.46607,-34.32352,0 18.4671,-34.32427,0 18.46807,-34.325,0 18.46893,-34.32566,0 18.46992,-34.32642,0 18.47132,-34.32751,0 18.47225,-34.32827,0 18.47329,-34.32912,0 18.47414,-34.32981,0 18.47523,-34.33069,0 18.47637,-34.33162,0 18.47844,-34.33333,0 18.4794,-34.33405,0 18.48259,-34.33667,0 18.48461,-34.33832,0 18.48556,-34.33905,0 18.48646,-34.33974,0 18.48753,-34.34052,0 18.48848,-34.3412,0 18.48959,-34.34205,0 18.49079,-34.34289,0 18.49184,-34.34363,0 18.49274,-34.34424,0 18.49391,-34.34505,0 18.49508,-34.34582,0 18.49604,-34.34647,0 18.49703,-34.34713,0 18.49817,-34.34787,0 18.49941,-34.34875,0 18.50023,-34.34941,0 18.50126,-34.35025,0 18.50204,-34.35109,0 18.50304,-34.35229,0 18.50372,-34.35327,0 18.50428,-34.35425,0 18.50475,-34.35532,0 18.50515,-34.35662,0 18.50535,-34.35773,0 18.5055,-34.35904,0 18.50555,-34.36012,0 18.50555,-34.361,0 18.50535,-34.36253,0 18.50513,-34.36359,0 18.50479,-34.36464,0 18.50424,-34.36598,0 18.50384,-34.36693,0 18.50305,-34.36835,0 18.50246,-34.36947,0 18.50182,-34.3705,0 18.50115,-34.37157,0 18.50042,-34.3727,0 18.49969,-34.37366,0 18.49886,-34.37473,0 18.49806,-34.37567,0 18.49717,-34.3765,0 18.49623,-34.37724,0 18.4947,-34.3781,0 18.49314,-34.37864,0 18.49195,-34.37892,0 18.4901,-34.37906,0 18.48758,-34.37878,0 18.48663,-34.37856,0 18.48507,-34.37794,0 18.48382,-34.37727,0 18.48284,-34.3765,0 18.48175,-34.37543,0 18.48106,-34.37445,0 18.48049,-34.37333,0 18.48018,-34.37215,0 18.48013,-34.371,0 18.48026,-34.37008,0 18.48074,-34.36867,0 18.48124,-34.36789,0 18.48204,-34.36691,0 18.48298,-34.36615,0 18.48381,-34.36565,0 18.48483,-34.36519,0 18.48601,-34.36478,0 18.48719,-34.36449,0 18.48831,-34.36427,0 18.48953,-34.36403,0 18.49077,-34.36382,0 18.49194,-34.36361,0 18.49291,-34.36346,0 18.49417,-34.36323,0 18.49514,-34.36309,0 18.49617,-34.36295,0 18.49739,-34.36272,0 18.49868,-34.36235,0 18.4996,-34.36202,0 18.50058,-34.36143,0 18.50137,-34.36075,0 18.50193,-34.36006,0 18.50235,-34.35904,0 18.50252,-34.35807,0 18.50255,-34.35713,0 18.50243,-34.35622,0 18.50206,-34.3549,0 18.50161,-34.35378,0 18.50109,-34.35294,0 18.50053,-34.35205,0 18.4998,-34.35118,0 18.49885,-34.35022,0 18.49795,-34.3494,0 18.49694,-34.34866,0 18.49593,-34.34807,0 18.49497,-34.34755,0 18.49369,-34.34683,0 18.49251,-34.34596,0 18.49178,-34.34518,0 18.49119,-34.34405,0 18.49096,-34.3428,0 18.49105,-34.34207,0 18.49148,-34.34093,0 18.49234,-34.33997,0 18.49302,-34.33946,0 18.49434,-34.33893,0 18.49537,-34.33878,0 18.49655,-34.33882,0 18.49794,-34.33916,0 18.49901,-34.33974,0 18.50012,-34.34075,0 18.50081,-34.34171,0 18.5012,-34.34248,0 18.50166,-34.34377,0 18.50193,-34.34491,0 18.50206,-34.34629,0 18.5021,-34.34743,0 18.50218,-34.34885,0 18.50227,-34.34985,0 18.50241,-34.35118,0 18.5026,-34.35251,0 18.50271,-34.35374,0 18.50271,-34.35471,0 18.50269,-34.35602,0 18.50243,-34.35741,0 18.50215,-34.35818,0 18.50161,-34.35932,0 18.5008,-34.36044,0 18.49983,-34.36147,0 18.4988,-34.3623,0 18.4976,-34.36319,0 18.49649,-34.36391,0 18.49515,-34.36469,0 18.49371,-34.36542,0 18.49222,-34.36602,0 18.49117,-34.36638,0 18.48937,-34.36688,0 18.48831,-34.36707,0 18.48667,-34.36728,0 18.48547,-34.36728,0 18.48405,-34.36725,0 18.48244,-34.367,0 18.48108,-34.36665,0 18.47951,-34.3661,0 18.47843,-34.36561,0 18.47715,-34.36482,0 18.47609,-34.36395,0 18.47511,-34.36295,0 18.47441,-34.36208,0 18.47379,-34.36098,0 18.47334,-34.3597,0 18.47323,-34.35864,0 18.47328,-34.35774,0 18.47368,-34.35631,0 18.47403,-34.35555,0 18.47474,-34.35434,0 18.47536,-34.35338,0 18.47597,-34.35262,0 18.4766,-34.35188,0 18.47738,-34.35077,0 18.47794,-34.34981,0 18.47839,-34.34889,0 18.47867,-34.3477,0 18.47883,-34.34666,0 18.47878,-34.34531,0 18.47866,-34.34415,0 18.47837,-34.34298,0 18.47805,-34.34175,0 18.47763,-34.34042,0 18.47727,-34.33932,0 18.47677,-34.33805,0 18.47637,-34.33694,0 18.47597,-34.33591,0 18.47546,-34.33465,0 18.47502,-34.33342,0 18.47466,-34.33213,0 18.47431,-34.33092,0 18.47408,-34.33009,0 18.47374,-34.3287,0 18.47345,-34.32771,0 18.47318,-34.32642,0 18.47294,-34.32534,0 18.47278,-34.32404,0 18.47254,-34.32273,0 18.47242,-34.32148,0 18.47225,-34.32022,0 18.47217,-34.31923,0 18.47205,-34.3179,0 18.47197,-34.31682,0 18.47194,-34.31584,0 18.47194,-34.31447,0 18.47189,-34.31319,0 18.47191,-34.31189,0 18.47189,-34.3109,0 18.47191,-34.30979,0 18.47197,-34.30858,0 18.47197,-34.30746,0 18.47202,-34.30644,0 18.47202,-34.3056,0 18.47211,-34.30426,0 18.47214,-34.30295,0 18.47217,-34.3017,0 18.47217,-34.30037,0 18.47225,-34.29694,0 18.47237,-34.2934,0 18.47256,-34.28993,0 18.47271,-34.28884,0 18.47289,-34.28769,0 18.47312,-34.28668,0 18.47345,-34.28554,0 18.47363,-34.28474,0 18.47396,-34.28348,0 18.4742,-34.28246,0 18.47446,-34.28119,0 18.47471,-34.2799,0 18.47488,-34.27888,0 18.47506,-34.27748,0 18.47519,-34.27652,0 18.4753,-34.27492,0 18.47546,-34.2739,0 18.47553,-34.27235,0 18.47558,-34.27126,0 18.47558,-34.26979,0 18.47553,-34.2686,0 18.47542,-34.2675,0 18.47525,-34.2664,0 18.47497,-34.26485,0 18.47471,-34.26347,0 18.47446,-34.2621,0 18.4742,-34.26096,0 18.47385,-34.25963,0 18.47357,-34.2583,0 18.47322,-34.25695,0 18.473,-34.25584,0 18.47271,-34.25453,0 18.47256,-34.25349,0 18.47237,-34.25225,0 18.47225,-34.25076,0 18.47222,-34.24974,0 18.47217,-34.24841,0 18.47214,-34.24741,0 18.47211,-34.24594,0 18.47217,-34.24484,0 18.47217,-34.24352,0 18.47217,-34.2421,0 18.47208,-34.24126,0 18.47202,-34.24006,0 18.47189,-34.2388,0 18.47174,-34.23754,0 18.47162,-34.23619,0 18.47149,-34.23505,0 18.47144,-34.23399,0 18.47132,-34.2328,0 18.47122,-34.23163,0 18.47105,-34.23033,0 18.47088,-34.22926,0 18.47065,-34.22767,0 18.47065,-34.22672,0 18.47082,-34.22543,0 18.47121,-34.22443,0 18.47172,-34.2236,0 18.47256,-34.22282,0 18.47334,-34.22223,0 18.47446,-34.22159,0 18.47536,-34.22118,0 18.47637,-34.22078,0 18.47746,-34.22046,0 18.47839,-34.22031,0 18.4794,-34.22035,0 18.48026,-34.2205,0 18.48095,-34.22078,0 18.48181,-34.22129,0 18.48231,-34.22177,0 18.48276,-34.22241,0 18.48321,-34.22328,0 18.48332,-34.22397,0 18.48338,-34.22484,0 18.48321,-34.22566,0 18.48295,-34.22632,0 18.48248,-34.22708,0 18.48198,-34.22763,0 18.48175,-34.22786,0 18.48141,-34.22823,0 18.48113,-34.22845,0 18.48078,-34.22884,0 18.48052,-34.22905,0 18.48024,-34.22928,0 18.48001,-34.22951,0 18.47979,-34.22974,0 18.47952,-34.23009,0 18.47906,-34.23061,0 18.47889,-34.23083,0 18.47855,-34.23126,0 18.47826,-34.23158,0 18.47788,-34.23203,0 18.47771,-34.23225,0 18.47738,-34.23257,0 18.47712,-34.23289,0 18.47677,-34.23326,0 18.47649,-34.23359,0 18.4762,-34.23396,0 18.47591,-34.23428,0 18.47574,-34.23452,0 18.47553,-34.23477,0 18.47528,-34.23498,0 18.47508,-34.23514,0 18.47508,-34.23537,0 18.47536,-34.2356,0 18.47563,-34.23573,0 18.47603,-34.23596,0 18.47643,-34.23605,0 18.47683,-34.23615,0 18.47721,-34.23619,0 18.47757,-34.23619,0 18.47792,-34.23619,0 18.47826,-34.23615,0 18.47867,-34.23605,0 18.47889,-34.23596,0 18.47945,-34.23578,0 18.47985,-34.2356,0 18.48018,-34.23541,0 18.48069,-34.23505,0 18.48097,-34.23477,0 18.48135,-34.23433,0 18.48158,-34.23405,0 18.48175,-34.23372,0 18.48203,-34.23299,0 18.48209,-34.23265,0 18.48215,-34.23214,0 18.48214,-34.2317,0 18.48209,-34.23134,0 18.48186,-34.23061,0 18.48146,-34.22968,0 18.48102,-34.22882,0 18.48069,-34.22813,0 18.48018,-34.22722,0 18.47975,-34.22641,0 18.47928,-34.22562,0 18.47878,-34.22478,0 18.47832,-34.224,0 18.4776,-34.22292,0 18.47704,-34.22214,0 18.47643,-34.2212,0 18.4758,-34.22036,0 18.47525,-34.21948,0 18.47466,-34.21869,0 18.47391,-34.21757,0 18.47334,-34.21673,0 18.47278,-34.21605,0 18.47205,-34.21504,0 18.47132,-34.21413,0 18.47071,-34.21324,0 18.47019,-34.21259,0 18.46945,-34.21157,0 18.46882,-34.21068,0 18.46807,-34.20969,0 18.46676,-34.20794,0 18.466,-34.20685,0 18.46544,-34.20602,0 18.46465,-34.20483,0 18.46384,-34.20374,0 18.4631,-34.20267,0 18.4623,-34.20154,0 18.46168,-34.20058,0 18.46095,-34.19948,0 18.46001,-34.19807,0 18.45921,-34.19681,0 18.45866,-34.19582,0 18.458,-34.19467,0 18.45731,-34.19353,0 18.45669,-34.19248,0 18.45613,-34.19142,0 18.4556,-34.19048,0 18.45491,-34.18913,0 18.4544,-34.18815,0 18.45367,-34.18675,0 18.45328,-34.18597,0 18.45255,-34.1846,0 18.452,-34.18345,0 18.45137,-34.1821,0 18.45086,-34.18103,0 18.45047,-34.17998,0 18.44999,-34.17856,0 18.44969,-34.17755,0 18.44941,-34.17632,0 18.44902,-34.17471,0 18.44885,-34.17361,0 18.44862,-34.17224,0 18.44845,-34.17134,0 18.44834,-34.17023,0 18.44816,-34.16879,0 18.4481,-34.1679,0 18.44801,-34.16675,0 18.44795,-34.16547,0 18.44793,-34.16389,0 18.44793,-34.16283,0 18.44795,-34.16144,0 18.44795,-34.16016,0 18.44805,-34.15901,0 18.44812,-34.15791,0 18.44822,-34.15654,0 18.44833,-34.15519,0 18.44851,-34.15379,0 18.44868,-34.15249,0 18.44885,-34.15109,0 18.44902,-34.14998,0 18.44925,-34.14858,0 18.44941,-34.14748,0 18.44971,-34.14602,0 18.44991,-34.14487,0 18.45019,-34.14381,0 18.45057,-34.14248,0 18.45091,-34.14146,0 18.45125,-34.14029,0 18.45165,-34.13928,0 18.4521,-34.13805,0 18.45249,-34.13704,0 18.45297,-34.13601,0 18.4536,-34.13461,0 18.45417,-34.1334,0 18.45479,-34.13219,0 18.45531,-34.13117,0 18.45594,-34.12987,0 18.45653,-34.12875,0 18.45732,-34.12735,0 18.45783,-34.12637,0 18.4584,-34.1254,0 18.45905,-34.12418,0 18.45961,-34.12316,0 18.46024,-34.12195,0 18.46081,-34.12098,0 18.46132,-34.12,0 18.46201,-34.11869,0 18.46252,-34.11777,0 18.46325,-34.11644,0 18.46378,-34.11553,0 18.46437,-34.11433,0 18.46505,-34.11301,0 18.4655,-34.11194,0 18.46594,-34.11081,0 18.4663,-34.10966,0 18.46667,-34.10829,0 18.46701,-34.10696,0 18.46722,-34.10594,0 18.46745,-34.10459,0 18.46762,-34.10339,0 18.46779,-34.10202,0 18.46796,-34.10078,0 18.46807,-34.09941,0 18.46824,-34.09799,0 18.46835,-34.0968,0 18.46852,-34.09543,0 18.46875,-34.09401,0 18.46886,-34.09296,0 18.46903,-34.09186,0 18.46928,-34.09016,0 18.46945,-34.08871,0 18.46959,-34.08746,0 18.46976,-34.08632,0 18.46987,-34.08513,0 18.47015,-34.08247,0 18.47054,-34.07847,0 18.47088,-34.07451,0 18.47116,-34.0707,0 18.47144,-34.06677,0 18.47179,-34.06167,0 18.47217,-34.05798,0 18.47239,-34.05629,0 18.4725,-34.05519,0 18.47265,-34.05413,0 18.47288,-34.05245,0 18.4734,-34.04796,0 18.47379,-34.0437,0 18.47413,-34.03967,0 18.47446,-34.03587,0 18.4748,-34.03221,0 18.47511,-34.02834,0 18.4754,-34.02457,0 18.4758,-34.01954,0 18.47603,-34.01486,0 18.4762,-34.01134,0 18.47643,-34.00713,0 18.47665,-34.00342,0 18.47721,-33.99829,0 18.4776,-33.99445,0 18.47783,-33.99335,0 18.47809,-33.99221,0 18.47843,-33.99086,0 18.47878,-33.98942,0 18.47906,-33.9884,0 18.47935,-33.987,0 18.47962,-33.98579,0 18.47996,-33.98447,0 18.48029,-33.98286,0 18.48052,-33.98163,0 18.48072,-33.98057,0 18.48095,-33.97941,0 18.48124,-33.97806,0 18.48152,-33.97671,0 18.48227,-33.97294,0 18.48298,-33.96904,0 18.48318,-33.96759,0 18.48335,-33.96619,0 18.48349,-33.96501,0 18.48358,-33.96381,0 18.48364,-33.96242,0 18.48366,-33.96121,0 18.48366,-33.9597,0 18.48358,-33.9586,0 18.48349,-33.95718,0 18.48335,-33.95599,0 18.48321,-33.95467,0 18.48301,-33.95334,0 18.48281,-33.95215,0 18.48267,-33.95111,0 18.48238,-33.94943,0 18.4822,-33.94821,0 18.48204,-33.94715,0 18.48186,-33.94597,0 18.48153,-33.94441,0 18.48129,-33.94338,0 18.48089,-33.94207,0 18.48057,-33.94093,0 18.48007,-33.93951,0 18.47962,-33.93846,0 18.479,-33.93714,0 18.47826,-33.93579,0 18.47769,-33.93481,0 18.47694,-33.9336,0 18.47631,-33.93256,0 18.47569,-33.9316,0 18.4748,-33.93027,0 18.47408,-33.92927,0 18.47334,-33.92825,0 18.47239,-33.92697,0 18.47149,-33.92574,0 18.47076,-33.92485,0 18.46979,-33.92359,0 18.46897,-33.92262,0 18.46825,-33.92173,0 18.46723,-33.92056,0 18.46619,-33.91945,0 18.46521,-33.91833,0 18.46443,-33.9175,0 18.46327,-33.91619,0 18.46241,-33.91531,0 18.46152,-33.91429,0 18.46073,-33.91342,0 18.45984,-33.91242,0 18.45898,-33.9114,0 18.45806,-33.91042,0 18.45731,-33.90958,0 18.45642,-33.90866,0 18.45557,-33.90788,0 18.4549,-33.9072,0 18.45377,-33.90609,0 18.45283,-33.90518,0 18.45193,-33.90436,0 18.45103,-33.90358,0 18.4503,-33.90294,0 18.44942,-33.90223,0 18.44857,-33.90166,0 18.44753,-33.90102,0 18.44661,-33.90051,0 18.44576,-33.9001,0 18.44484,-33.89967,0 18.4438,-33.89923,0 18.44284,-33.89887,0 18.44179,-33.89859,0 18.44139,-33.8985,0 18.4409,-33.89836,0 18.43992,-33.89822,0 18.43949,-33.89818,0 18.43909,-33.89813,0 18.43849,-33.89813,0 18.43814,-33.89813,0 18.43775,-33.89813,0 18.43736,-33.89818,0 18.43678,-33.89822,0 18.43643,-33.89827,0 18.43603,-33.89832,0 18.43552,-33.89841,0 18.43506,-33.8985,0 18.43466,-33.89855,0 18.43422,-33.89868,0 18.43391,-33.89874,0 18.43338,-33.89886,0 18.43304,-33.89891,0 18.43271,-33.89901,0 18.43225,-33.89911,0 18.43181,-33.89923,0 18.43153,-33.89928,0 18.43105,-33.89943,0 18.43071,-33.89948,0 18.43042,-33.89957,0 18.43014,-33.89962,0 18.42985,-33.89967,0 18.42962,-33.89971,0 18.42923,-33.89978,0 18.42894,-33.89981,0 18.42872,-33.89983,0 18.42819,-33.89985,0 18.42791,-33.8999,0 18.42749,-33.90001,0 18.42722,-33.90013,0 18.42699,-33.90027,0 18.42682,-33.90055,0 18.42699,-33.90079,0 18.42715,-33.90102,0 18.42699,-33.90125,0 18.4271,-33.90102,0 18.42716,-33.90051,0 18.42722,-33.90022,0 18.42745,-33.89976,0 18.42762,-33.89952,0 18.42783,-33.89914,0 18.42805,-33.89886,0 18.42825,-33.89859,0 18.42844,-33.89836,0 18.42876,-33.8979,0 18.42899,-33.89762,0 18.42928,-33.8972,0 18.42945,-33.8969,0 18.42973,-33.89658,0 18.42996,-33.89626,0 18.43031,-33.89571,0 18.43054,-33.89534,0 18.43074,-33.89502,0 18.43122,-33.89436,0 18.43147,-33.89392,0 18.4317,-33.89355,0 18.43198,-33.89319,0 18.43338,-33.89085,0 18.43386,-33.89003,0 18.43397,-33.8898,0 18.43431,-33.88914,0 18.43449,-33.88891,0 18.43495,-33.88806,0 18.43523,-33.88747,0 18.4354,-33.8871,0 18.43557,-33.88672,0 18.4358,-33.88598,0 18.4359,-33.88559,0 18.43601,-33.8849,0 18.43603,-33.88449,0 18.43607,-33.88399,0 18.43597,-33.88305,0 18.43569,-33.88188,0 18.43529,-33.88081,0 18.43477,-33.87997,0 18.4341,-33.879,0 18.43334,-33.87807,0 18.4326,-33.87727,0 18.43203,-33.87672,0 18.43114,-33.87602,0 18.43001,-33.87529,0 18.42934,-33.87495,0 18.42794,-33.87442,0 18.4271,-33.87415,0 18.42596,-33.87387,0 18.42463,-33.87364,0 18.42334,-33.8735,0 18.42224,-33.87341,0 18.4211,-33.87337,0 18.42004,-33.87332,0 18.41891,-33.87332,0 18.41761,-33.87336,0 18.41618,-33.87346,0 18.4152,-33.87355,0 18.41434,-33.8736,0 18.41291,-33.87378,0 18.41191,-33.87392,0 18.41039,-33.87419,0 18.40897,-33.87444,0 18.40804,-33.87465,0 18.40668,-33.87499,0 18.40559,-33.87532,0 18.40445,-33.87566,0 18.40305,-33.87611,0 18.40199,-33.87653,0 18.40101,-33.8769,0 18.39969,-33.87744,0 18.39868,-33.8779,0 18.39739,-33.87845,0 18.39643,-33.8789,0 18.39526,-33.87946,0 18.39392,-33.8801,0 18.39272,-33.88072,0 18.39169,-33.88128,0 18.39077,-33.88174,0 18.3894,-33.88253,0 18.38842,-33.88314,0 18.38717,-33.88393,0 18.38624,-33.88454,0 18.38499,-33.88542,0 18.38385,-33.88626,0 18.38293,-33.88696,0 18.3817,-33.88792,0 18.38063,-33.88879,0 18.37967,-33.88966,0 18.37893,-33.89026,0 18.37795,-33.89119,0 18.37692,-33.89217,0 18.37576,-33.89328,0 18.37497,-33.8941,0 18.37395,-33.89515,0 18.37306,-33.89603,0 18.37234,-33.89682,0 18.37137,-33.89785,0 18.37063,-33.89874,0 18.36983,-33.89962,0 18.36885,-33.90083,0 18.36817,-33.90171,0 18.36724,-33.90285,0 18.36657,-33.90372,0 18.36589,-33.90459,0 18.36499,-33.90582,0 18.36404,-33.90715,0 18.36342,-33.90805,0 18.36267,-33.90911,0 18.36191,-33.91031,0 18.36113,-33.91154,0 18.36067,-33.91233,0 18.35981,-33.91377,0 18.35918,-33.91475,0 18.3585,-33.91596,0 18.35781,-33.91731,0 18.3572,-33.91837,0 18.35664,-33.91946,0 18.35619,-33.92033,0 18.35546,-33.92183,0 18.35479,-33.92308,0 18.35417,-33.92445,0 18.35352,-33.92574,0 18.35305,-33.92683,0 18.35243,-33.92815,0 18.35188,-33.92949,0 18.35132,-33.93077,0 18.35089,-33.93188,0 18.35037,-33.93314,0 18.35003,-33.93402,0 18.34957,-33.93514,0 18.34911,-33.93644,0 18.3486,-33.93779,0 18.34812,-33.93915,0 18.34768,-33.94044,0 18.34734,-33.94144,0 18.34688,-33.94277,0 18.34648,-33.94403,0 18.34605,-33.94537,0 18.34571,-33.94643,0 18.34532,-33.94762,0 18.34492,-33.9489,0 18.34459,-33.94989,0 18.34409,-33.95155,0 18.34308,-33.95508,0 18.34201,-33.95892,0 18.34039,-33.96478,0 18.33971,-33.96771,0 18.33943,-33.96881,0 18.33904,-33.97052,0 18.33864,-33.97229,0 18.3371,-33.97899,0 18.33555,-33.98523,0 18.33405,-33.99138,0 18.33271,-33.99751,0 18.33237,-33.99985,0 18.3322,-34.00095,0 18.33198,-34.00246,0 18.33183,-34.00385,0 18.33175,-34.0052,0 18.3317,-34.0063,0 18.33172,-34.00748,0 18.33178,-34.00879,0 18.33195,-34.00985,0 18.33223,-34.01144,0 18.33243,-34.01244,0 18.33286,-34.01395,0 18.33326,-34.01525,0 18.33366,-34.01637,0 18.33412,-34.01754,0 18.33467,-34.01894,0 18.33512,-34.02008,0 18.33555,-34.02117,0 18.33596,-34.02214,0 18.33641,-34.02322,0 18.33691,-34.02452,0 18.33736,-34.02562,0 18.33781,-34.02676,0 18.3383,-34.02806,0 18.3387,-34.02899,0 18.33921,-34.03034,0 18.33966,-34.03143,0 18.34005,-34.03249,0 18.3411,-34.03522,0 18.34156,-34.03656,0 18.34196,-34.03789,0 18.3423,-34.03923,0 18.34257,-34.04041,0 18.34282,-34.04169,0 18.34305,-34.04305,0 18.34322,-34.0444,0 18.34328,-34.04533,0 18.34333,-34.04668,0 18.34333,-34.04817,0 18.34336,-34.04947,0 18.34333,-34.05031,0 18.34339,-34.05203,0 18.34341,-34.05313,0 18.34345,-34.05431,0 18.34347,-34.05574,0 18.3433,-34.05725,0 18.34311,-34.05832,0 18.34265,-34.05971,0 18.34208,-34.06078,0 18.34122,-34.06195,0 18.34007,-34.06306,0 18.33858,-34.064,0 18.3373,-34.06458,0 18.33595,-34.06497,0 18.33411,-34.06531,0 18.33265,-34.06531,0 18.33052,-34.06512,0 18.3288,-34.06474,0 18.32731,-34.06423,0 18.32587,-34.06361,0 18.32457,-34.06297,0 18.32318,-34.06215,0 18.32216,-34.06144,0 18.3209,-34.06055,0 18.3197,-34.05968,0 18.31867,-34.05887,0 18.3174,-34.05775,0 18.31651,-34.05693,0 18.31572,-34.05615,0 18.31455,-34.05482,0 18.31359,-34.05368,0 18.3127,-34.05244,0 18.31191,-34.0513,0 18.31113,-34.04997,0 18.31043,-34.04873,0 18.30975,-34.04728,0 18.30906,-34.04561,0 18.30843,-34.03835,0 18.30933,-34.03528,0 18.30989,-34.03404,0 18.31038,-34.03304,0 18.311,-34.03183,0 18.31146,-34.03108,0 18.31219,-34.02983,0 18.31297,-34.02859,0 18.31376,-34.02745,0 18.31438,-34.02654,0 18.31516,-34.02544,0 18.31595,-34.02429,0 18.31673,-34.02319,0 18.31735,-34.02237,0 18.31808,-34.02127,0 18.31873,-34.02042,0 18.31942,-34.01935,0 18.32026,-34.01811,0 18.3211,-34.01692,0 18.32335,-34.01358,0 18.32553,-34.01033,0 18.32783,-34.00699,0 18.33024,-34.00337,0 18.33231,-34.00026,0 18.33618,-33.99361,0 18.33761,-33.99086,0 18.33915,-33.98776,0 18.34047,-33.98513,0 18.34328,-33.97936,0 18.34593,-33.97339,0 18.34829,-33.96771,0 18.35064,-33.96176,0 18.3516,-33.95883,0 18.35249,-33.95599,0 18.35278,-33.95506,0 18.35311,-33.95407,0 18.3539,-33.95178,0 18.35421,-33.95073,0 18.35466,-33.94952,0 18.35591,-33.94601,0 18.35715,-33.9429,0 18.35815,-33.94054,0 18.35873,-33.93928,0 18.36028,-33.93585,0 18.36119,-33.9337,0 18.36182,-33.93244,0 18.36239,-33.93127,0 18.36296,-33.9302,0 18.36416,-33.92788,0 18.36491,-33.92662,0 18.36555,-33.92555,0 18.36623,-33.92441,0 18.36679,-33.92358,0 18.36748,-33.92252,0 18.36819,-33.92139,0 18.3688,-33.92048,0 18.36954,-33.9194,0 18.37006,-33.91866,0 18.37082,-33.91754,0 18.37166,-33.91642,0 18.37229,-33.91554,0 18.37323,-33.91434,0 18.37395,-33.9134,0 18.37469,-33.91247,0 18.37553,-33.91145,0 18.3762,-33.91058,0 18.37698,-33.90968,0 18.37794,-33.90862,0 18.3787,-33.90772,0 18.37934,-33.90701,0 18.38035,-33.90582,0 18.38108,-33.90495,0 18.38179,-33.90418,0 18.38276,-33.90306,0 18.38379,-33.90199,0 18.38444,-33.90134,0 18.3854,-33.90038,0 18.38635,-33.89946,0 18.38722,-33.89864,0 18.38802,-33.8979,0 18.38888,-33.89711,0 18.38991,-33.89622,0 18.39095,-33.89534,0 18.39201,-33.89442,0 18.39291,-33.89374,0 18.39403,-33.89282,0 18.39498,-33.89209,0 18.39621,-33.89119,0 18.39718,-33.8905,0 18.39874,-33.88948,0 18.39969,-33.88893,0 18.40078,-33.88831,0 18.40199,-33.88774,0 18.40333,-33.88719,0 18.40433,-33.88682,0 18.40588,-33.88626,0 18.40725,-33.88589,0 18.40877,-33.88554,0 18.41,-33.88527,0 18.41137,-33.88505,0 18.41263,-33.88482,0 18.41423,-33.88458,0 18.41572,-33.8844,0 18.41718,-33.88417,0 18.41835,-33.88403,0 18.41976,-33.8839,0 18.42093,-33.88379,0 18.4223,-33.88365,0 18.4235,-33.88356,0 18.42503,-33.88353,0 18.4262,-33.88353,0 18.42768,-33.88361,0 18.42861,-33.88371,0 18.43008,-33.88388,0 18.43125,-33.88408,0 18.43231,-33.8843,0 18.43382,-33.88467,0 18.43483,-33.88499,0 18.43597,-33.88542,0 18.43723,-33.88602,0 18.43832,-33.88663,0 18.43969,-33.88752,0 18.44066,-33.8882,0 18.44151,-33.88893,0 18.4425,-33.8898,0 18.4433,-33.89054,0 18.44431,-33.89159,0 18.44487,-33.89223,0 18.44576,-33.89328,0 18.44661,-33.89429,0 18.44719,-33.89506,0 18.4479,-33.89603,0 18.44857,-33.89713,0 18.44907,-33.89804,0 18.44941,-33.89877,0 18.44971,-33.8999,0 18.4498,-33.9007,0 18.44971,-33.90162,0 18.44948,-33.9026,0 18.44908,-33.9033,0 18.44851,-33.90399,0 18.4479,-33.9045,0 18.44722,-33.90482,0 18.44633,-33.90502,0 18.44554,-33.905,0 18.44467,-33.90483,0 18.44414,-33.90463,0 18.4438,-33.90445,0 18.4433,-33.90413,0 18.44302,-33.90395,0 18.44267,-33.90372,0 18.44218,-33.90335,0 18.44184,-33.90312,0 18.44152,-33.90283,0 18.44083,-33.90234,0 18.44044,-33.90202,0 18.43982,-33.90157,0 18.43949,-33.90134,0 18.43924,-33.90111,0 18.43889,-33.90092,0 18.43837,-33.9006,0 18.43809,-33.90038,0 18.43769,-33.90018,0 18.43723,-33.89994,0 18.43685,-33.89983,0 18.43643,-33.89967,0 18.43609,-33.89957,0 18.43586,-33.89952,0 18.43534,-33.89937,0 18.435,-33.89934,0 18.43431,-33.89925,0 18.43377,-33.89923,0 18.4331,-33.89923,0 18.43288,-33.89925,0 18.43243,-33.89925,0 18.43198,-33.89928,0 18.43145,-33.89934,0 18.43105,-33.89939,0 18.4308,-33.89941,0 18.43037,-33.89948,0 18.43013,-33.89951,0 18.42991,-33.89952,0 18.42945,-33.8996,0 18.42922,-33.89962,0 18.42882,-33.89967,0 18.42839,-33.89973,0 18.42816,-33.89978,0 18.42796,-33.89985,0 18.42768,-33.8999,0 18.42738,-33.90001,0 18.42716,-33.90013,0 18.42693,-33.90038,0 18.42687,-33.90065,0 18.4271,-33.90088,0 18.4271,-33.90111,0 18.42693,-33.90083,0 18.42613,-33.89999,0 18.42602,-33.89971,0 18.42603,-33.89882,0 18.42643,-33.89809,0 18.4267,-33.89771,0 18.42693,-33.89743,0 18.42716,-33.8972,0 18.42743,-33.8969,0 18.42796,-33.89636,0 18.42822,-33.89603,0 18.42844,-33.89584,0 18.42871,-33.89557,0 18.429,-33.89525,0 18.42922,-33.89496,0 18.42962,-33.89455,0 18.42985,-33.89429,0 18.43019,-33.89394,0 18.43063,-33.89351,0 18.431,-33.8932,0 18.43134,-33.89291,0 18.43164,-33.89264,0 18.43186,-33.8925,0 18.43225,-33.89217,0 18.43293,-33.89168,0 18.43332,-33.8914,0 18.43374,-33.8911,0 18.43426,-33.89073,0 18.43461,-33.89049,0 18.43539,-33.88985,0 18.43607,-33.88916,0 18.43683,-33.88812,0 18.43719,-33.88737,0 18.43752,-33.8864,0 18.43769,-33.88533,0 18.43769,-33.8844,0 18.43758,-33.88348,0 18.43718,-33.88249,0 18.43672,-33.88179,0 18.43597,-33.881,0 18.43506,-33.88037,0 18.43422,-33.87996,0 18.43287,-33.8795,0 18.43198,-33.87927,0 18.4306,-33.879,0 18.42934,-33.87886,0 18.42836,-33.87877,0 18.42699,-33.87862,0 18.42579,-33.87858,0 18.4247,-33.87848,0 18.42323,-33.87845,0 18.42167,-33.87835,0 18.42058,-33.8783,0 18.41931,-33.87822,0 18.41784,-33.87811,0 18.41652,-33.87797,0 18.41537,-33.87793,0 18.41394,-33.87783,0 18.41275,-33.87776,0 18.4118,-33.87776,0 18.41023,-33.87776,0 18.40916,-33.87776,0 18.40776,-33.87781,0 18.40651,-33.87788,0 18.40468,-33.87804,0 18.40372,-33.87813,0 18.40215,-33.87836,0 18.40078,-33.87853,0 18.39952,-33.87877,0 18.39834,-33.879,0 18.39701,-33.87928,0 18.39569,-33.8796,0 18.39414,-33.88005,0 18.39277,-33.88044,0 18.39156,-33.88087,0 18.39005,-33.88147,0 18.3887,-33.88202,0 18.38751,-33.88258,0 18.38596,-33.88337,0 18.38461,-33.88412,0 18.38356,-33.88472,0 18.38219,-33.88556,0 18.38133,-33.88607,0 18.37973,-33.8871,0 18.37841,-33.88794,0 18.37727,-33.88868,0 18.37595,-33.88956,0 18.37492,-33.89031,0 18.37355,-33.89128,0 18.37257,-33.89198,0 18.37144,-33.89287,0 18.37043,-33.89369,0 18.36897,-33.89484,0 18.36805,-33.89561,0 18.36674,-33.89669,0 18.36554,-33.89776,0 18.36456,-33.89855,0 18.36359,-33.89946,0 18.3623,-33.90065,0 18.3614,-33.90157,0 18.3605,-33.90246,0 18.3593,-33.90372,0 18.35833,-33.90483,0 18.35731,-33.90596,0 18.35649,-33.90693,0 18.35552,-33.90814,0 18.35484,-33.90898,0 18.35369,-33.91042,0 18.35283,-33.91154,0 18.35215,-33.91247,0 18.35143,-33.91347,0 18.3506,-33.9147,0 18.34986,-33.91587,0 18.34923,-33.91684,0 18.34848,-33.91796,0 18.34785,-33.91903,0 18.34717,-33.9202,0 18.34655,-33.9212,0 18.34588,-33.9223,0 18.34509,-33.92363,0 18.34453,-33.92468,0 18.34397,-33.9256,0 18.34341,-33.92665,0 18.34291,-33.92761,0 18.34213,-33.92895,0 18.34145,-33.9303,0 18.34095,-33.93127,0 18.34036,-33.93248,0 18.3399,-33.93346,0 18.33943,-33.93448,0 18.33887,-33.93558,0 18.3383,-33.93681,0 18.33784,-33.93774,0 18.33721,-33.93905,0 18.3367,-33.94021,0 18.33618,-33.9413,0 18.33568,-33.94244,0 18.33521,-33.94352,0 18.33388,-33.94652,0 18.33254,-33.94954,0 18.33086,-33.95357,0 18.32954,-33.95692,0 18.32811,-33.96051,0 18.3268,-33.96395,0 18.32525,-33.96777,0 18.32391,-33.97092,0 18.32228,-33.97472,0 18.32062,-33.97834,0 18.31896,-33.9822,0 18.31718,-33.98635,0 18.31511,-33.99115,0 18.31289,-33.99607,0 18.31123,-33.99971,0 18.30928,-34.00378,0 18.30734,-34.00767,0 18.30468,-34.01253,0 18.30402,-34.01353,0 18.30328,-34.01451,0 18.30219,-34.01572,0 18.30109,-34.01683,0 18.29992,-34.01784,0 18.29857,-34.01889,0 18.29756,-34.01958,0 18.29641,-34.02028,0 18.29504,-34.02113,0 18.29372,-34.02187,0 18.29224,-34.0227,0 18.29081,-34.02349,0 18.2896,-34.02419,0 18.28852,-34.0248,0 18.28725,-34.02553,0 18.28617,-34.02629,0 18.28514,-34.02708,0 18.28434,-34.02778,0 18.28354,-34.02861,0 18.28274,-34.02954,0 18.2822,-34.03043,0 18.28176,-34.03141,0 18.28148,-34.03244,0 18.28136,-34.03331,0 18.28148,-34.03425,0 18.28175,-34.03519,0 18.28211,-34.03588,0 18.28285,-34.03676,0 18.28348,-34.03727,0 18.28428,-34.03775,0 18.28503,-34.03811,0 18.28585,-34.03835,0 18.28674,-34.03848,0 18.2876,-34.03858,0 18.2884,-34.03858,0 18.28949,-34.03844,0 18.29041,-34.03825,0 18.29109,-34.03802,0 18.29224,-34.03748,0 18.29298,-34.03704,0 18.29392,-34.03642,0 18.29464,-34.03583,0 18.29538,-34.03522,0 18.29616,-34.03455,0 18.29683,-34.03391,0 18.2975,-34.03336,0 18.29876,-34.03252,0 18.29979,-34.03206,0 18.30064,-34.03171,0 18.30191,-34.03127,0 18.303,-34.03079,0 18.30402,-34.03024,0 18.30507,-34.02956,0 18.30614,-34.02869,0 18.30692,-34.02786,0 18.30765,-34.02708,0 18.30843,-34.02601,0 18.309,-34.02512,0 18.30969,-34.02396,0 18.31026,-34.02303,0 18.31078,-34.0221,0 18.31141,-34.0209,0 18.31192,-34.01986,0 18.31249,-34.01875,0 18.31295,-34.01777,0 18.31358,-34.01646,0 18.31404,-34.01555,0 18.31472,-34.01423,0 18.31539,-34.01294,0 18.31593,-34.0119,0 18.3165,-34.01093,0 18.31718,-34.00967,0 18.3177,-34.00869,0 18.31824,-34.00763,0 18.31875,-34.00662,0 18.31953,-34.00525,0 18.32022,-34.00404,0 18.32088,-34.00301,0 18.32166,-34.00182,0 18.32239,-34.00073,0 18.32284,-34.00003,0 18.32365,-33.99873,0 18.32424,-33.9977,0 18.3248,-33.99683,0 18.32554,-33.99561,0 18.32634,-33.99421,0 18.32714,-33.99291,0 18.32788,-33.9917,0 18.32906,-33.98982,0 18.33241,-33.98471,0 18.33585,-33.97916,0 18.3391,-33.97389,0 18.34224,-33.96872,0 18.34545,-33.96321,0 18.34843,-33.95758,0 18.34907,-33.95627,0 18.34969,-33.95494,0 18.35009,-33.95399,0 18.3507,-33.95256,0 18.35104,-33.95174,0 18.3516,-33.95041,0 18.35209,-33.94925,0 18.35266,-33.9479,0 18.35322,-33.94666,0 18.35386,-33.94533,0 18.35438,-33.94422,0 18.35496,-33.94308,0 18.35552,-33.94189,0 18.35591,-33.94093,0 18.35655,-33.93951,0 18.35709,-33.93846,0 18.35752,-33.93742,0 18.35793,-33.93644,0 18.35844,-33.93528,0 18.35888,-33.9343,0 18.35933,-33.93333,0 18.35961,-33.93269,0 18.3604,-33.93105,0 18.3609,-33.9299,0 18.36142,-33.92895,0 18.36193,-33.92783,0 18.36247,-33.92683,0 18.36296,-33.92587,0 18.36348,-33.9249,0 18.36404,-33.92377,0 18.36449,-33.92299,0 18.36525,-33.92164,0 18.36599,-33.92057,0 18.36662,-33.91954,0 18.36724,-33.91869,0 18.36802,-33.91768,0 18.36897,-33.91653,0 18.36976,-33.91557,0 18.37049,-33.9147,0 18.37143,-33.91363,0 18.37217,-33.91273,0 18.37309,-33.91172,0 18.37385,-33.91086,0 18.37475,-33.90985,0 18.37547,-33.90903,0 18.37635,-33.908,0 18.37727,-33.90702,0 18.37794,-33.90628,0 18.37889,-33.90532,0 18.37968,-33.90454,0 18.38058,-33.90372,0 18.38161,-33.90279,0 18.38243,-33.90207,0 18.3836,-33.90102,0 18.3847,-33.90009,0 18.38562,-33.89937,0 18.38642,-33.89874,0 18.38769,-33.89786,0 18.38854,-33.89724,0 18.38951,-33.89664,0 18.39061,-33.89598,0 18.39167,-33.89534,0 18.39291,-33.8947,0 18.39403,-33.89413,0 18.39509,-33.89365,0 18.39666,-33.89301,0 18.3979,-33.8925,0 18.39941,-33.89198,0 18.40073,-33.89157,0 18.40193,-33.89119,0 18.40347,-33.89077,0 18.40462,-33.89049,0 18.40647,-33.88998,0 18.40805,-33.88961,0 18.40925,-33.88929,0 18.41056,-33.88898,0 18.41208,-33.88861,0 18.41366,-33.88826,0 18.41522,-33.88792,0 18.41673,-33.8876,0 18.41819,-33.88728,0 18.42239,-33.88641,0 18.42402,-33.88607,0 18.42527,-33.88584,0 18.42654,-33.88564,0 18.42762,-33.88547,0 18.42923,-33.88522,0 18.43031,-33.88509,0 18.43186,-33.8849,0 18.43315,-33.88481,0 18.43427,-33.88472,0 18.43567,-33.88467,0 18.4368,-33.88472,0 18.43792,-33.88477,0 18.43926,-33.88499,0 18.44005,-33.88518,0 18.4413,-33.88551,0 18.44238,-33.88593,0 18.4433,-33.88635,0 18.44439,-33.88696,0 18.44515,-33.88747,0 18.44593,-33.88815,0 18.44662,-33.88882,0 18.44722,-33.88962,0 18.4477,-33.89045,0 18.44806,-33.89122,0 18.4484,-33.89204,0 18.44874,-33.89287,0 18.4489,-33.89342,0 18.44902,-33.89417,0 18.44896,-33.89456,0 18.44856,-33.89524,0 18.44806,-33.89557,0 18.44742,-33.89576,0 18.44673,-33.8958,0 18.44604,-33.89584,0 18.44509,-33.89589,0 18.44419,-33.89598,0 18.44347,-33.89612,0 18.44251,-33.8963,0 18.44179,-33.89644,0 18.44141,-33.89655,0 18.44118,-33.89659,0 18.44061,-33.89676,0 18.44027,-33.89682,0 18.43988,-33.89694,0 18.43946,-33.89706,0 18.43912,-33.8972,0 18.43865,-33.89735,0 18.43831,-33.89749,0 18.43746,-33.89776,0 18.43708,-33.8979,0 18.43674,-33.89804,0 18.4364,-33.89813,0 18.43607,-33.89827,0 18.43552,-33.89846,0 18.43523,-33.89854,0 18.43466,-33.89869,0 18.43427,-33.89882,0 18.43397,-33.89892,0 18.43346,-33.89906,0 18.43282,-33.89919,0 18.43254,-33.89925,0 18.43209,-33.89932,0 18.43185,-33.89939,0 18.43158,-33.89946,0 18.4313,-33.89951,0 18.431,-33.89957,0 18.43077,-33.89957,0 18.43037,-33.89962,0 18.42979,-33.89971,0 18.42957,-33.89969,0 18.42916,-33.89971,0 18.42876,-33.89971,0 18.42856,-33.89969,0 18.42833,-33.8996,0</coordinates>
      </LineString>
    </Placemark>
  </Document>
</kml>
