<?xml version="1.0" encoding="UTF-8"?>
<kml xmlns="http://www.opengis.net/kml/2.2">
  <Document>
    <name>FR24 40f4b3ab</name>
    <Placemark>
      <name>FR24 40f4b3ab</name>
      <Style><LineStyle><color>ff0000ff</color><width>4</width></LineStyle></Style>
      <LineString>
        <tessellate>1</tessellate>
        <coordinates>18.43495,-33.9006,0 18.43601,-33.89969,0 18.43646,-33.899,0 18.43663,-33.89832,0 18.4368,-33.89763,0 18.43683,-33.89687,0 18.4368,-33.89584,0 18.43668,-33.89493,0 18.43663,-33.89415,0 18.43652,-33.89319,0 18.43643,-33.89203,0 18.43635,-33.89131,0 18.43626,-33.89022,0 18.43615,-33.88924,0 18.43609,-33.8884,0 18.43586,-33.88733,0 18.43563,-33.88649,0 18.43523,-33.88554,0 18.43483,-33.88486,0 18.43416,-33.88403,0 18.43346,-33.88333,0 18.4326,-33.88263,0 18.43191,-33.88221,0 18.43077,-33.8816,0 18.42928,-33.88109,0 18.42825,-33.88081,0 18.42693,-33.8806,0 18.42539,-33.88049,0 18.4239,-33.88037,0 18.42295,-33.88037,0 18.42144,-33.88037,0 18.42037,-33.88037,0 18.41955,-33.88044,0 18.41801,-33.88053,0 18.41669,-33.88072,0 18.41537,-33.88095,0 18.41434,-33.88114,0 18.41331,-33.88142,0 18.41217,-33.88174,0 18.41096,-33.88211,0 18.40972,-33.88252,0 18.40862,-33.88286,0 18.40754,-33.88328,0 18.40664,-33.88362,0 18.40542,-33.88407,0 18.40445,-33.88445,0 18.40361,-33.88477,0 18.40267,-33.88514,0 18.40165,-33.88559,0 18.40075,-33.886,0 18.39958,-33.88655,0 18.39872,-33.88696,0 18.39752,-33.88752,0 18.39666,-33.88794,0 18.39535,-33.88863,0 18.39459,-33.88902,0 18.3933,-33.88971,0 18.39223,-33.8903,0 18.39128,-33.89087,0 18.39027,-33.89145,0 18.38938,-33.892,0 18.38831,-33.89273,0 18.38739,-33.89333,0 18.38659,-33.89394,0 18.38573,-33.89455,0 18.38472,-33.89529,0 18.38396,-33.89589,0 18.3831,-33.8965,0 18.38209,-33.89726,0 18.38125,-33.89786,0 18.38046,-33.89845,0 18.37944,-33.89925,0 18.37847,-33.89999,0 18.37749,-33.90083,0 18.37671,-33.90147,0 18.37581,-33.90225,0 18.37486,-33.90302,0 18.37402,-33.90376,0 18.37332,-33.90446,0 18.37263,-33.90516,0 18.37166,-33.90618,0 18.37093,-33.90697,0 18.37023,-33.90776,0 18.36953,-33.90848,0 18.36858,-33.90948,0 18.36785,-33.91022,0 18.36702,-33.91103,0 18.36639,-33.91168,0 18.36548,-33.91261,0 18.36456,-33.91354,0 18.36382,-33.91428,0 18.36303,-33.91512,0 18.36227,-33.91591,0 18.36152,-33.91672,0 18.36067,-33.91773,0 18.36006,-33.9185,0 18.35918,-33.9195,0 18.35849,-33.92033,0 18.35775,-33.92126,0 18.35703,-33.92221,0 18.35632,-33.92308,0 18.35558,-33.924,0 18.35484,-33.92485,0 18.35398,-33.92592,0 18.35333,-33.9267,0 18.35266,-33.92755,0 18.35175,-33.92871,0 18.35019,-33.93073,0 18.34814,-33.93341,0 18.34492,-33.93764,0 18.34288,-33.94063,0 18.34252,-33.94162,0 18.34242,-33.94263,0 18.34257,-33.94354,0 18.34324,-33.9445,0 18.34419,-33.94515,0 18.34538,-33.94542,0 18.34644,-33.94533,0 18.34745,-33.94496,0 18.3482,-33.9444,0 18.349,-33.94352,0 18.34963,-33.94267,0 18.35025,-33.94171,0 18.35081,-33.94075,0 18.35129,-33.93993,0 18.35192,-33.93886,0 18.35238,-33.93807,0 18.35289,-33.93728,0 18.35345,-33.9364,0 18.3539,-33.93558,0 18.35462,-33.93443,0 18.35506,-33.93365,0 18.35569,-33.93256,0 18.35609,-33.93179,0 18.3567,-33.93077,0 18.3572,-33.92986,0 18.3577,-33.92908,0 18.35827,-33.92812,0 18.35896,-33.92699,0 18.35956,-33.92606,0 18.3601,-33.92527,0 18.36073,-33.92439,0 18.36146,-33.92336,0 18.36225,-33.9223,0 18.36281,-33.92148,0 18.36342,-33.9207,0 18.36415,-33.91974,0 18.36482,-33.91878,0 18.36548,-33.91792,0 18.36622,-33.91693,0 18.36702,-33.91591,0 18.36763,-33.91516,0 18.36845,-33.91419,0 18.37054,-33.91164,0 18.37297,-33.90879,0 18.37561,-33.90581,0 18.37788,-33.90326,0 18.37873,-33.90239,0 18.37973,-33.90144,0 18.38053,-33.90069,0 18.3815,-33.89985,0 18.38231,-33.89909,0 18.38316,-33.89832,0 18.38419,-33.89748,0 18.38506,-33.89676,0 18.38579,-33.89613,0 18.3868,-33.89534,0 18.38785,-33.8945,0 18.38871,-33.89384,0 18.38974,-33.89305,0 18.39071,-33.89236,0 18.39162,-33.89172,0 18.39254,-33.89105,0 18.3933,-33.89058,0 18.39449,-33.88975,0 18.39535,-33.88914,0 18.39626,-33.88854,0 18.39729,-33.88784,0 18.39857,-33.88696,0 18.39947,-33.88637,0 18.40031,-33.88582,0 18.40141,-33.88509,0 18.40238,-33.88449,0 18.40328,-33.88394,0 18.40433,-33.88328,0 18.40508,-33.88281,0 18.40614,-33.8822,0 18.4072,-33.88161,0 18.40811,-33.88109,0 18.40899,-33.88069,0 18.41,-33.88028,0 18.41097,-33.87988,0 18.41202,-33.87955,0 18.41325,-33.87923,0 18.41429,-33.87904,0 18.41526,-33.8789,0 18.41645,-33.87877,0 18.41743,-33.87877,0 18.41813,-33.87877,0 18.41942,-33.87886,0 18.42035,-33.87904,0 18.42144,-33.87932,0 18.42239,-33.87968,0 18.42312,-33.87991,0 18.42413,-33.8803,0 18.42499,-33.88067,0 18.42581,-33.88106,0 18.42665,-33.88151,0 18.42756,-33.88198,0 18.42822,-33.88243,0 18.42888,-33.88291,0 18.42962,-33.88342,0 18.43029,-33.88394,0 18.43088,-33.8844,0 18.43157,-33.88496,0 18.43226,-33.88554,0 18.43293,-33.88614,0 18.43338,-33.88664,0 18.43371,-33.88733,0 18.43377,-33.88792,0 18.43369,-33.88854,0 18.43343,-33.88907,0 18.433,-33.88984,0 18.43259,-33.89049,0 18.4322,-33.89099,0 18.43198,-33.89127,0 18.43185,-33.89152,0 18.43158,-33.89191,0 18.43142,-33.89214,0 18.43117,-33.89245,0 18.43085,-33.89291,0 18.43063,-33.89333,0 18.43046,-33.8936,0 18.43031,-33.89384,0 18.43018,-33.89415,0 18.42997,-33.8945,0 18.42985,-33.89474,0 18.42973,-33.89502,0 18.42957,-33.89538,0 18.42934,-33.89584,0 18.42923,-33.89607,0 18.42911,-33.89641,0 18.42894,-33.89682,0 18.42876,-33.89711,0 18.42861,-33.89749,0 18.4285,-33.89777,0 18.42833,-33.89818,0 18.42822,-33.89845,0 18.42808,-33.89878,0 18.428,-33.89909,0 18.42777,-33.89955,0 18.42766,-33.89978,0 18.42755,-33.90001,0 18.42751,-33.90022,0 18.42738,-33.90051,0 18.42721,-33.90074,0 18.4271,-33.90097,0 18.42704,-33.9012,0 18.42732,-33.90106,0 18.42816,-33.90088,0 18.42865,-33.90078,0 18.42888,-33.90074,0 18.42911,-33.90069,0 18.42934,-33.90065,0 18.42957,-33.9006,0 18.42996,-33.90056,0 18.43035,-33.90047,0 18.43074,-33.90042,0 18.43102,-33.90038,0 18.4314,-33.90032,0 18.43164,-33.90028,0 18.43191,-33.90022,0 18.4322,-33.90018,0 18.43259,-33.9001,0 18.43306,-33.90004,0 18.4334,-33.89994,0 18.43366,-33.89987,0 18.43431,-33.89967,0 18.43506,-33.89934,0 18.43556,-33.89905,0 18.43603,-33.89864,0 18.43646,-33.89813,0 18.43672,-33.89762,0 18.43696,-33.89685,0 18.43702,-33.89603,0 18.43702,-33.8952,0 18.43695,-33.8945,0 18.43689,-33.89366,0 18.43678,-33.89287,0 18.43672,-33.89208,0 18.4366,-33.89138,0 18.43649,-33.89059,0 18.43637,-33.8898,0 18.43624,-33.88916,0 18.43597,-33.88826,0 18.4358,-33.88784,0 18.43534,-33.88705,0 18.43483,-33.88654,0 18.43414,-33.88593,0 18.43338,-33.88545,0 18.43237,-33.885,0 18.43151,-33.88477,0 18.4306,-33.88454,0 18.429,-33.8844,0 18.42796,-33.8843,0 18.42693,-33.88426,0 18.42579,-33.88426,0 18.42475,-33.88422,0 18.42367,-33.88426,0 18.42245,-33.88431,0 18.42138,-33.88435,0 18.42032,-33.88445,0 18.41942,-33.88449,0 18.41841,-33.88458,0 18.41715,-33.88467,0 18.41595,-33.88477,0 18.4151,-33.88481,0 18.41377,-33.88486,0 18.41257,-33.88496,0 18.41163,-33.88499,0 18.41057,-33.88509,0 18.40928,-33.88522,0 18.40828,-33.88537,0 18.40714,-33.88551,0 18.4057,-33.88575,0 18.40473,-33.88593,0 18.4035,-33.88614,0 18.4025,-33.88635,0 18.40148,-33.88655,0 18.40036,-33.88687,0 18.39907,-33.88724,0 18.39823,-33.88756,0 18.39711,-33.88802,0 18.39615,-33.88845,0 18.39529,-33.88891,0 18.39443,-33.88938,0 18.39346,-33.88993,0 18.39257,-33.89049,0 18.39162,-33.89108,0 18.39054,-33.89175,0 18.38988,-33.89218,0 18.38877,-33.89287,0 18.38768,-33.89361,0 18.38682,-33.89422,0 18.38601,-33.89474,0 18.38489,-33.89552,0 18.38383,-33.89621,0 18.38299,-33.89673,0 18.38213,-33.89734,0 18.38116,-33.89794,0 18.38024,-33.89864,0 18.3794,-33.89928,0 18.37856,-33.89992,0 18.37766,-33.9007,0 18.37671,-33.90147,0 18.37601,-33.90213,0 18.37503,-33.90306,0 18.37429,-33.90376,0 18.37351,-33.9045,0 18.37262,-33.90536,0 18.37166,-33.90623,0 18.3708,-33.90711,0 18.36994,-33.90791,0 18.36925,-33.90862,0 18.36852,-33.90935,0 18.3676,-33.91028,0 18.36673,-33.91113,0 18.36611,-33.91173,0 18.36531,-33.91251,0 18.36267,-33.91517,0 18.36174,-33.91617,0 18.36107,-33.91689,0 18.36033,-33.91768,0 18.35956,-33.9185,0 18.35872,-33.91946,0 18.35793,-33.92033,0 18.35695,-33.9215,0 18.35609,-33.92248,0 18.35524,-33.92349,0 18.35461,-33.92429,0 18.35381,-33.92522,0 18.35306,-33.92616,0 18.35244,-33.92693,0 18.35176,-33.92775,0 18.35104,-33.92876,0 18.35043,-33.9296,0 18.34957,-33.93072,0 18.34888,-33.93155,0 18.34812,-33.93265,0 18.34745,-33.93352,0 18.3466,-33.93472,0 18.34585,-33.9357,0 18.34515,-33.93663,0 18.34442,-33.9377,0 18.34362,-33.93886,0 18.34296,-33.93983,0 18.34224,-33.94093,0 18.34162,-33.94194,0 18.34087,-33.94315,0 18.34013,-33.94422,0 18.33956,-33.94515,0 18.33865,-33.94647,0 18.33801,-33.94743,0 18.33721,-33.94873,0 18.33517,-33.95192,0 18.33258,-33.95609,0 18.33052,-33.95934,0 18.32634,-33.96605,0 18.32323,-33.9711,0 18.32096,-33.97503,0 18.31858,-33.97934,0 18.31673,-33.98268,0 18.31495,-33.98593,0 18.31301,-33.98951,0 18.31055,-33.99398,0 18.30872,-33.99751,0 18.30694,-34.00096,0 18.30477,-34.00539,0 18.30289,-34.00928,0 18.30139,-34.0126,0 18.29979,-34.01623,0 18.29887,-34.01847,0 18.29863,-34.01994,0 18.29874,-34.02104,0 18.29916,-34.0221,0 18.29992,-34.02292,0 18.30088,-34.02349,0 18.3016,-34.02374,0 18.30299,-34.02387,0 18.30395,-34.02374,0 18.30517,-34.02331,0 18.30614,-34.02266,0 18.3067,-34.02209,0 18.30729,-34.02131,0 18.30791,-34.02028,0 18.30844,-34.01935,0 18.309,-34.01825,0 18.30957,-34.01721,0 18.31012,-34.01605,0 18.31062,-34.01509,0 18.31112,-34.01409,0 18.31169,-34.01303,0 18.31226,-34.0119,0 18.31275,-34.01111,0 18.31324,-34.01018,0 18.31382,-34.00914,0 18.31443,-34.00809,0 18.31505,-34.00699,0 18.31561,-34.00607,0 18.31615,-34.00511,0 18.31816,-34.0018,0 18.32005,-33.99878,0 18.32239,-33.9949,0 18.32458,-33.9912,0 18.32914,-33.98351,0 18.3317,-33.97888,0 18.33428,-33.97417,0 18.3368,-33.96959,0 18.33939,-33.96493,0 18.34179,-33.96032,0 18.34362,-33.95683,0 18.34532,-33.95366,0 18.34711,-33.95031,0 18.34863,-33.94734,0 18.35008,-33.94423,0 18.35197,-33.9404,0 18.35244,-33.93951,0 18.353,-33.93846,0 18.35352,-33.93761,0 18.35401,-33.93668,0 18.35462,-33.93558,0 18.35524,-33.93458,0 18.3558,-33.93356,0 18.35642,-33.93251,0 18.35695,-33.9316,0 18.35764,-33.93048,0 18.35821,-33.92958,0 18.35878,-33.92867,0 18.35939,-33.9277,0 18.35995,-33.92683,0 18.36068,-33.92569,0 18.36124,-33.92485,0 18.36193,-33.92373,0 18.36256,-33.9228,0 18.36313,-33.92192,0 18.36388,-33.92089,0 18.3646,-33.91983,0 18.36531,-33.91889,0 18.36594,-33.91805,0 18.36673,-33.91713,0 18.36752,-33.91612,0 18.36823,-33.91526,0 18.36892,-33.91447,0 18.36981,-33.91338,0 18.37054,-33.91255,0 18.37149,-33.9115,0 18.37217,-33.91074,0 18.37315,-33.90968,0 18.37389,-33.90888,0 18.37481,-33.90791,0 18.37578,-33.90688,0 18.37675,-33.90586,0 18.37749,-33.90504,0 18.3783,-33.90423,0 18.37934,-33.90317,0 18.38013,-33.90244,0 18.3811,-33.90153,0 18.3819,-33.90078,0 18.38282,-33.89999,0 18.38373,-33.89915,0 18.3847,-33.89827,0 18.38568,-33.8974,0 18.38665,-33.8965,0 18.38745,-33.8958,0 18.38837,-33.8951,0 18.38945,-33.89422,0 18.39014,-33.89375,0 18.39111,-33.89314,0 18.39214,-33.89245,0 18.39313,-33.89191,0 18.39437,-33.89119,0 18.39546,-33.89063,0 18.39655,-33.89008,0 18.39756,-33.88962,0 18.39872,-33.8891,0 18.3997,-33.88868,0 18.40101,-33.88812,0 18.40187,-33.88779,0 18.40316,-33.88733,0 18.40395,-33.88705,0 18.40513,-33.88659,0 18.40647,-33.88605,0 18.40737,-33.88568,0 18.40855,-33.88513,0 18.4095,-33.88472,0 18.41051,-33.88422,0 18.4116,-33.88374,0 18.41269,-33.88333,0 18.41353,-33.88303,0 18.41438,-33.8828,0 18.41555,-33.88252,0 18.41667,-33.88234,0 18.41743,-33.88221,0 18.41841,-33.88207,0 18.41927,-33.88198,0 18.42007,-33.88193,0 18.42127,-33.88197,0 18.42218,-33.88211,0 18.42306,-33.88229,0 18.42396,-33.88257,0 18.42486,-33.88289,0 18.42556,-33.88314,0 18.42632,-33.88344,0 18.42716,-33.88393,0 18.42777,-33.88463,0 18.428,-33.88527,0 18.42791,-33.88621,0 18.42745,-33.88696,0 18.42676,-33.88756,0 18.42607,-33.88798,0 18.42505,-33.8884,0 18.42418,-33.88875,0 18.42306,-33.8893,0 18.42245,-33.8898,0 18.42218,-33.89035,0 18.42222,-33.89099,0 18.42253,-33.89147,0 18.42306,-33.892,0 18.42351,-33.89236,0 18.4239,-33.89268,0 18.42413,-33.89287,0 18.42436,-33.8931,0 18.42459,-33.89329,0 18.4248,-33.89351,0 18.42505,-33.89384,0 18.42522,-33.89408,0 18.42547,-33.89452,0 18.4257,-33.89493,0 18.42587,-33.89525,0 18.42598,-33.89548,0 18.42607,-33.89571,0 18.42632,-33.89621,0 18.42643,-33.89644,0 18.42659,-33.8968,0 18.4267,-33.89706,0 18.42682,-33.89731,0 18.42693,-33.89758,0 18.42705,-33.8979,0 18.42716,-33.89822,0 18.42727,-33.8985,0 18.42733,-33.89883,0 18.42743,-33.89923,0 18.42743,-33.89955,0 18.42749,-33.89983,0 18.42751,-33.90004,0 18.42751,-33.90032,0 18.42751,-33.90055,0 18.42751,-33.90078,0 18.42772,-33.90079,0 18.42822,-33.90074,0 18.42842,-33.90074,0 18.42878,-33.90065,0 18.42916,-33.9006,0 18.42939,-33.90055,0 18.42974,-33.90051,0 18.42997,-33.90046,0 18.43052,-33.90033,0 18.43077,-33.90032,0 18.43117,-33.90022,0 18.43164,-33.90015,0 18.43192,-33.9001,0 18.43237,-33.89999,0 18.43266,-33.89994,0 18.43294,-33.8999,0 18.43343,-33.89978,0 18.43374,-33.89971,0 18.43403,-33.89962,0 18.43431,-33.89952,0 18.43461,-33.89941,0 18.435,-33.8992,0 18.43534,-33.899,0 18.43586,-33.89859,0 18.43629,-33.89818,0 18.43666,-33.89766,0 18.43706,-33.89687,0 18.43724,-33.8963,0 18.43736,-33.89566,0 18.43746,-33.89478,0 18.43746,-33.89422,0 18.4374,-33.89324,0 18.43736,-33.89259,0 18.43723,-33.89175,0 18.43712,-33.89096,0 18.43702,-33.89008,0 18.43689,-33.88929,0 18.43672,-33.88845,0 18.43637,-33.88733,0 18.43601,-33.88655,0 18.43556,-33.88582,0 18.43512,-33.88519,0 18.43437,-33.88444,0 18.43371,-33.8839,0 18.43276,-33.88335,0 18.43164,-33.88284,0 18.43074,-33.88252,0 18.42951,-33.88221,0 18.42854,-33.88207,0 18.42756,-33.88193,0 18.42598,-33.88174,0 18.42482,-33.88169,0 18.4235,-33.88165,0 18.42236,-33.88165,0 18.42155,-33.88165,0 18.42041,-33.88169,0 18.41944,-33.88174,0 18.41819,-33.88179,0 18.41726,-33.88184,0 18.41606,-33.88193,0 18.41466,-33.88202,0 18.41343,-33.88211,0 18.41224,-33.8822,0 18.41108,-33.88235,0 18.40982,-33.88249,0 18.40902,-33.88263,0 18.40754,-33.88281,0 18.40647,-33.88298,0 18.40559,-33.88314,0 18.40423,-33.88344,0 18.40316,-33.88367,0 18.40215,-33.88394,0 18.40098,-33.88426,0 18.39981,-33.88467,0 18.3989,-33.885,0 18.39792,-33.88537,0 18.39672,-33.88591,0 18.39569,-33.8864,0 18.39459,-33.88692,0 18.39357,-33.88752,0 18.39274,-33.88802,0 18.39191,-33.88854,0 18.39083,-33.8893,0 18.38999,-33.88985,0 18.38904,-33.89053,0 18.38825,-33.89108,0 18.38719,-33.89186,0 18.38636,-33.8925,0 18.38528,-33.89333,0 18.38411,-33.89429,0 18.38339,-33.89487,0 18.38254,-33.89557,0 18.38175,-33.89621,0 18.38076,-33.89701,0 18.3799,-33.89772,0 18.37912,-33.89836,0 18.37828,-33.899,0 18.37733,-33.89983,0 18.37654,-33.90047,0 18.37564,-33.90125,0 18.37469,-33.90207,0 18.374,-33.90265,0 18.3732,-33.90334,0 18.37229,-33.90413,0 18.37126,-33.90502,0 18.37026,-33.90591,0 18.36948,-33.90665,0 18.36874,-33.90734,0 18.36791,-33.90811,0 18.36724,-33.9088,0 18.36623,-33.90971,0 18.36554,-33.91042,0 18.36479,-33.91116,0 18.36382,-33.91209,0 18.36297,-33.91292,0 18.36222,-33.91372,0 18.3614,-33.91452,0 18.36067,-33.91535,0 18.35995,-33.91608,0 18.35907,-33.91703,0 18.35844,-33.91768,0 18.35597,-33.92043,0 18.35289,-33.92382,0 18.35226,-33.92453,0 18.35165,-33.92528,0 18.35081,-33.92633,0 18.3502,-33.92713,0 18.3494,-33.92806,0 18.34854,-33.92913,0 18.34785,-33.92997,0 18.34734,-33.93062,0 18.34642,-33.93169,0 18.3456,-33.93269,0 18.34499,-33.93351,0 18.34409,-33.93475,0 18.34345,-33.93556,0 18.34276,-33.93649,0 18.34202,-33.93751,0 18.34139,-33.93842,0 18.34072,-33.93951,0 18.3403,-33.94035,0 18.3399,-33.94133,0 18.33961,-33.94268,0 18.33982,-33.94405,0 18.34033,-33.9451,0 18.3411,-33.94589,0 18.34213,-33.94645,0 18.34333,-33.94664,0 18.34442,-33.94652,0 18.34557,-33.94608,0 18.34642,-33.94552,0 18.34762,-33.9446,0 18.34823,-33.94405,0 18.3493,-33.94308,0 18.35014,-33.94217,0 18.35083,-33.94152,0 18.35169,-33.94054,0 18.35244,-33.93974,0 18.35329,-33.93877,0 18.35403,-33.93793,0 18.35468,-33.93718,0 18.35546,-33.93626,0 18.35632,-33.93523,0 18.35695,-33.93444,0 18.35764,-33.93365,0 18.35855,-33.93253,0 18.35922,-33.93169,0 18.35989,-33.93077,0 18.36073,-33.92969,0 18.3613,-33.92885,0 18.36205,-33.92792,0 18.36273,-33.92694,0 18.36353,-33.92596,0 18.36415,-33.92514,0 18.36488,-33.92422,0 18.36554,-33.92336,0 18.36623,-33.92258,0 18.36684,-33.9218,0 18.36763,-33.92084,0 18.36828,-33.92001,0 18.3704,-33.9175,0 18.3711,-33.91658,0 18.37273,-33.91479,0 18.37332,-33.91419,0 18.37423,-33.91321,0 18.37492,-33.91251,0 18.37581,-33.91159,0 18.37652,-33.91084,0 18.37749,-33.90986,0 18.37833,-33.90903,0 18.37901,-33.90829,0 18.37973,-33.90756,0 18.38156,-33.90577,0 18.38248,-33.90495,0 18.38343,-33.90404,0 18.38433,-33.90331,0 18.38484,-33.90285,0 18.38601,-33.90179,0 18.38676,-33.9012,0 18.38751,-33.9006,0 18.38854,-33.89976,0 18.38934,-33.89911,0 18.39037,-33.89827,0 18.3914,-33.89748,0 18.3922,-33.89682,0 18.39317,-33.89603,0 18.39409,-33.89529,0 18.39481,-33.89465,0 18.39582,-33.89374,0 18.39661,-33.89305,0 18.3975,-33.89227,0 18.3984,-33.89154,0 18.39935,-33.89076,0 18.40025,-33.89003,0 18.40107,-33.88929,0 18.40176,-33.88866,0 18.40267,-33.88779,0 18.40353,-33.887,0 18.40427,-33.88631,0 18.40496,-33.8857,0 18.40586,-33.8849,0 18.40664,-33.88435,0 18.40731,-33.88384,0 18.40827,-33.88316,0 18.40902,-33.88268,0 18.40994,-33.88211,0 18.4108,-33.88165,0 18.41166,-33.88128,0 18.41258,-33.88092,0 18.41342,-33.88069,0 18.41443,-33.88055,0 18.41538,-33.88051,0 18.41645,-33.88051,0 18.41729,-33.8806,0 18.41808,-33.88074,0 18.41914,-33.88092,0 18.42001,-33.88114,0 18.42093,-33.88137,0 18.42161,-33.88156,0 18.4227,-33.88188,0 18.42344,-33.88216,0 18.42424,-33.88257,0 18.42486,-33.88303,0 18.42542,-33.8838,0 18.42564,-33.88454,0 18.42573,-33.88533,0 18.42579,-33.88602,0 18.42581,-33.88687,0 18.42581,-33.88774,0 18.42581,-33.88847,0 18.42579,-33.88942,0 18.42581,-33.8898,0 18.42581,-33.89003,0 18.42585,-33.89068,0 18.42587,-33.89099,0 18.42587,-33.89131,0 18.4259,-33.89166,0 18.42592,-33.89191,0 18.42598,-33.89232,0 18.42603,-33.89264,0 18.42607,-33.89301,0 18.42615,-33.89323,0 18.42619,-33.89352,0 18.42625,-33.89375,0 18.42626,-33.89397,0 18.42636,-33.89426,0 18.42643,-33.8947,0 18.42648,-33.89493,0 18.42654,-33.89516,0 18.42665,-33.89538,0 18.4267,-33.89561,0 18.42682,-33.89613,0 18.42687,-33.89635,0 18.42704,-33.89685,0 18.42722,-33.89748,0 18.42732,-33.89781,0 18.42739,-33.89804,0 18.42743,-33.89836,0 18.42755,-33.89868,0 18.42755,-33.899,0 18.42762,-33.89929,0 18.42762,-33.89957,0 18.42766,-33.89978,0 18.42766,-33.90005,0 18.42762,-33.90032,0 18.4276,-33.90056,0 18.42751,-33.90078,0 18.42773,-33.90083,0 18.42861,-33.90088,0 18.42882,-33.90092,0 18.42916,-33.90097,0 18.42957,-33.90102,0 18.42985,-33.90106,0 18.43013,-33.90111,0 18.43035,-33.90111,0 18.4308,-33.9012,0 18.43122,-33.9012,0 18.43186,-33.90125,0 18.4322,-33.9012,0 18.43248,-33.9012,0 18.43276,-33.90115,0 18.4331,-33.90111,0 18.43355,-33.90102,0 18.43382,-33.90092,0 18.43431,-33.90078,0 18.43467,-33.90065,0 18.43534,-33.90036,0 18.43603,-33.89999,0 18.43649,-33.89962,0 18.43706,-33.89892,0 18.43729,-33.89836,0 18.43746,-33.89753,0 18.43746,-33.89687,0 18.4374,-33.89618,0 18.4373,-33.89539,0 18.43719,-33.89456,0 18.43708,-33.89369,0 18.43696,-33.89291,0 18.43689,-33.89217,0 18.43685,-33.89145,0 18.43678,-33.89054,0 18.43678,-33.88984,0 18.43663,-33.88898,0 18.4364,-33.88815,0 18.43609,-33.88742,0 18.43534,-33.8866,0 18.43477,-33.88621,0 18.43374,-33.88584,0 18.43306,-33.8857,0 18.43181,-33.88568,0 18.4306,-33.88584,0 18.4294,-33.88609,0 18.42836,-33.88626,0 18.42705,-33.88635,0 18.42592,-33.88641,0 18.42487,-33.8864,0 18.42357,-33.88637,0 18.42264,-33.88635,0 18.42138,-33.88626,0 18.42047,-33.88612,0 18.41915,-33.88584,0 18.41813,-33.88554,0 18.41709,-33.88523,0 18.41623,-33.88496,0 18.41499,-33.88458,0 18.41404,-33.88435,0 18.41303,-33.88407,0 18.41174,-33.88376,0 18.41068,-33.88362,0 18.40928,-33.88353,0 18.40794,-33.88356,0 18.40668,-33.88365,0 18.40525,-33.88393,0 18.40376,-33.8843,0 18.40256,-33.88467,0 18.4016,-33.88499,0 18.40036,-33.8855,0 18.39902,-33.88609,0 18.39801,-33.88655,0 18.39717,-33.88692,0 18.39588,-33.8876,0 18.39492,-33.88811,0 18.39375,-33.8887,0 18.39289,-33.88924,0 18.39174,-33.88984,0 18.39083,-33.89044,0 18.38949,-33.89131,0 18.38854,-33.89189,0 18.38751,-33.89264,0 18.38648,-33.89338,0 18.38562,-33.89399,0 18.38478,-33.89461,0 18.38377,-33.89539,0 18.38304,-33.89598,0 18.38231,-33.89658,0 18.38116,-33.89748,0 18.38018,-33.89827,0 18.37934,-33.899,0 18.37856,-33.89964,0 18.37777,-33.90033,0 18.37676,-33.90125,0 18.37598,-33.90193,0 18.37515,-33.90269,0 18.37435,-33.90348,0 18.37337,-33.90446,0 18.37256,-33.90536,0 18.37166,-33.90632,0 18.37077,-33.90729,0 18.37004,-33.90811,0 18.36925,-33.90894,0 18.36857,-33.90968,0 18.36777,-33.91056,0 18.3669,-33.91154,0 18.36589,-33.91269,0 18.36519,-33.91349,0 18.36432,-33.91457,0 18.36365,-33.91534,0 18.3629,-33.91629,0 18.36079,-33.91901,0 18.35832,-33.92212,0 18.35563,-33.92542,0 18.35272,-33.92908,0 18.35221,-33.92976,0 18.35132,-33.931,0 18.35064,-33.93192,0 18.34986,-33.933,0 18.34919,-33.93398,0 18.34857,-33.93484,0 18.3478,-33.93588,0 18.347,-33.937,0 18.34649,-33.93768,0 18.34574,-33.93877,0 18.34494,-33.93979,0 18.3428,-33.94276,0 18.34055,-33.94583,0 18.3379,-33.94971,0 18.33567,-33.95292,0 18.33299,-33.95659,0 18.33183,-33.95827,0 18.33119,-33.95924,0 18.33058,-33.96021,0 18.32989,-33.96125,0 18.32697,-33.96586,0 18.32548,-33.9684,0 18.32394,-33.97108,0 18.32096,-33.97629,0 18.31879,-33.98025,0 18.3169,-33.98374,0 18.31443,-33.98817,0 18.31242,-33.99179,0 18.31045,-33.99541,0 18.30855,-33.99889,0 18.30765,-34.00031,0 18.30642,-34.00237,0 18.30591,-34.0032,0 18.30505,-34.00469,0 18.30446,-34.0058,0 18.30397,-34.00683,0 18.30328,-34.00804,0 18.30265,-34.00925,0 18.30202,-34.01041,0 18.30137,-34.01161,0 18.30076,-34.01276,0 18.30013,-34.01395,0 18.29967,-34.01488,0 18.29913,-34.01587,0 18.2984,-34.01729,0 18.2967,-34.02079,0 18.29624,-34.02196,0 18.29601,-34.02308,0 18.29607,-34.02401,0 18.29641,-34.0248,0 18.29727,-34.02568,0 18.29829,-34.02612,0 18.29919,-34.02621,0 18.30019,-34.0261,0 18.30105,-34.02582,0 18.30193,-34.02539,0 18.30289,-34.02475,0 18.30362,-34.02411,0 18.30425,-34.02349,0 18.30511,-34.02261,0 18.30569,-34.02196,0 18.30643,-34.02107,0 18.307,-34.02033,0 18.30763,-34.01944,0 18.30804,-34.01884,0 18.30883,-34.01767,0 18.30961,-34.01646,0 18.31015,-34.01567,0 18.31083,-34.0146,0 18.31141,-34.01376,0 18.31209,-34.01265,0 18.31258,-34.01184,0 18.31318,-34.01078,0 18.31381,-34.00976,0 18.31444,-34.00869,0 18.31507,-34.00767,0 18.31561,-34.00676,0 18.31617,-34.00594,0 18.31684,-34.00497,0 18.31741,-34.00413,0 18.31819,-34.00301,0 18.31886,-34.00209,0 18.31959,-34.00108,0 18.32015,-34.00026,0 18.3209,-33.99933,0 18.32166,-33.99829,0 18.32228,-33.99751,0 18.32323,-33.99628,0 18.32407,-33.99522,0 18.32486,-33.99426,0 18.32677,-33.99184,0 18.3296,-33.98811,0 18.33332,-33.98346,0 18.33736,-33.9792,0 18.33755,-33.97899,0 18.34185,-33.97485,0 18.34369,-33.97256,0 18.34522,-33.97028,0 18.34672,-33.9678,0 18.34803,-33.96535,0 18.34946,-33.96265,0 18.35066,-33.96018,0 18.35163,-33.95786,0 18.35266,-33.95522,0 18.35346,-33.95297,0 18.35378,-33.95201,0 18.35417,-33.95078,0 18.35461,-33.94938,0 18.35496,-33.94826,0 18.35535,-33.94706,0 18.35564,-33.94598,0 18.35592,-33.94505,0 18.3563,-33.94386,0 18.35737,-33.94066,0 18.3586,-33.93736,0 18.35883,-33.93686,0 18.35972,-33.93471,0 18.36023,-33.93347,0 18.36062,-33.93246,0 18.36102,-33.93146,0 18.36135,-33.93068,0 18.36174,-33.92976,0 18.36233,-33.92839,0 18.36285,-33.92741,0 18.36337,-33.92642,0 18.36387,-33.92551,0 18.36443,-33.92459,0 18.36508,-33.92345,0 18.36571,-33.92238,0 18.36628,-33.92136,0 18.36691,-33.92033,0 18.36746,-33.91919,0 18.36782,-33.91833,0 18.36824,-33.91727,0 18.36869,-33.91608,0 18.36908,-33.91507,0 18.36942,-33.91411,0 18.36998,-33.91296,0 18.37069,-33.91172,0 18.37132,-33.9107,0 18.37189,-33.90986,0 18.37267,-33.90884,0 18.37337,-33.90805,0 18.37407,-33.90729,0 18.37519,-33.9061,0 18.37592,-33.90536,0 18.37687,-33.90442,0 18.37761,-33.90367,0 18.3785,-33.9028,0 18.37933,-33.90195,0 18.38001,-33.90129,0 18.38102,-33.90042,0 18.38198,-33.89955,0 18.38264,-33.89897,0 18.38371,-33.89799,0 18.38459,-33.89729,0 18.38539,-33.89659,0 18.38646,-33.89571,0 18.38728,-33.89501,0 18.38837,-33.89417,0 18.38932,-33.89342,0 18.39014,-33.89282,0 18.39111,-33.89212,0 18.39203,-33.89152,0 18.39272,-33.89105,0 18.39386,-33.8904,0 18.39487,-33.8898,0 18.39593,-33.88921,0 18.39684,-33.88873,0 18.39795,-33.88811,0 18.3989,-33.88761,0 18.40015,-33.88677,0 18.40087,-33.88628,0 18.40193,-33.88554,0 18.40277,-33.8849,0 18.40344,-33.88449,0 18.40451,-33.88385,0 18.4053,-33.88346,0 18.40614,-33.88303,0 18.40731,-33.88252,0 18.40805,-33.88226,0 18.40891,-33.88193,0 18.40995,-33.88161,0 18.41062,-33.88142,0 18.41166,-33.88123,0 18.41275,-33.88106,0 18.4137,-33.88097,0 18.4148,-33.88095,0 18.41583,-33.88097,0 18.41679,-33.88101,0 18.41766,-33.88105,0 18.41863,-33.8812,0 18.41976,-33.88133,0 18.42076,-33.88147,0 18.42167,-33.88165,0 18.42273,-33.88197,0 18.42351,-33.88234,0 18.42418,-33.88275,0 18.42491,-33.88326,0 18.4257,-33.88376,0 18.42643,-33.88426,0 18.42699,-33.88481,0 18.42739,-33.88556,0 18.42743,-33.88623,0 18.42715,-33.88715,0 18.42682,-33.88761,0 18.42625,-33.88821,0 18.42545,-33.88891,0 18.42499,-33.88938,0 18.42447,-33.89008,0 18.42424,-33.89085,0 18.4243,-33.89127,0 18.42464,-33.8918,0 18.42482,-33.89203,0 18.42505,-33.89217,0 18.42545,-33.89245,0 18.42567,-33.89264,0 18.42613,-33.89296,0 18.42643,-33.89319,0 18.42682,-33.89371,0 18.42704,-33.8942,0 18.4271,-33.8945,0 18.42715,-33.8947,0 18.42716,-33.89496,0 18.42716,-33.8952,0 18.42715,-33.89557,0 18.42716,-33.89585,0 18.42716,-33.89618,0 18.42721,-33.89653,0 18.42721,-33.8969,0 18.42728,-33.89715,0 18.42733,-33.89748,0 18.42743,-33.89786,0 18.42745,-33.89817,0 18.42755,-33.8985,0 18.42756,-33.89883,0 18.42756,-33.89906,0 18.42756,-33.89929,0 18.42755,-33.89955,0 18.42755,-33.89978,0 18.42756,-33.90004,0 18.42756,-33.90027,0 18.42756,-33.90055,0 18.42751,-33.90078,0 18.42783,-33.90088,0 18.42808,-33.90092,0 18.4285,-33.90088,0 18.42876,-33.90092,0 18.42928,-33.90092,0 18.42951,-33.90092,0 18.42996,-33.90097,0 18.43041,-33.90097,0 18.43082,-33.90092,0 18.4313,-33.90088,0 18.43158,-33.90083,0 18.43214,-33.90074,0 18.43248,-33.90064,0 18.43293,-33.90056,0 18.43327,-33.90047,0 18.43355,-33.90033,0 18.43382,-33.90024,0 18.43405,-33.90015,0 18.43433,-33.90001,0 18.43477,-33.89976,0 18.43528,-33.89937,0 18.43586,-33.89874,0 18.43615,-33.89813,0 18.43643,-33.89729,0 18.43657,-33.89648,0 18.4366,-33.89561,0 18.43663,-33.89488,0 18.43666,-33.89389,0 18.43663,-33.8931,0 18.43663,-33.89236,0 18.4366,-33.89189,0 18.43657,-33.89095,0 18.43652,-33.88998,0 18.43649,-33.889,0 18.43646,-33.8882,0 18.43637,-33.88742,0 18.43618,-33.88646,0 18.4359,-33.88577,0 18.43528,-33.88477,0 18.43472,-33.88417,0 18.43397,-33.88356,0 18.43317,-33.88305,0 18.43214,-33.88257,0 18.43119,-33.88225,0 18.42979,-33.88202,0 18.42859,-33.88198,0 18.42751,-33.88202,0 18.42648,-33.88211,0 18.42545,-33.88226,0 18.42396,-33.88239,0 18.42293,-33.88253,0 18.42173,-33.88268,0 18.42076,-33.88275,0 18.41903,-33.88293,0 18.41801,-33.883,0 18.41673,-33.88312,0 18.4156,-33.88323,0 18.41432,-33.88335,0 18.41297,-33.88356,0 18.4118,-33.88371,0 18.41068,-33.88388,0 18.40905,-33.88417,0 18.40811,-33.8843,0 18.40658,-33.88458,0 18.40552,-33.88477,0 18.4044,-33.88499,0 18.40324,-33.88523,0 18.40193,-33.88556,0 18.40053,-33.88596,0 18.39964,-33.88621,0 18.39829,-33.88664,0 18.39739,-33.88701,0 18.39632,-33.88742,0 18.39506,-33.88803,0 18.39409,-33.88849,0 18.39302,-33.88902,0 18.39186,-33.88966,0 18.39067,-33.89035,0 18.3898,-33.89087,0 18.38887,-33.89145,0 18.38781,-33.89209,0 18.38685,-33.89273,0 18.38612,-33.89319,0 18.38512,-33.89388,0 18.38402,-33.89459,0 18.3831,-33.8952,0 18.38231,-33.89584,0 18.38144,-33.8965,0 18.38053,-33.8972,0 18.37955,-33.89799,0 18.37887,-33.8985,0 18.37783,-33.89928,0 18.37699,-33.89992,0 18.37592,-33.90074,0 18.37508,-33.90138,0 18.37429,-33.90204,0 18.37318,-33.90294,0 18.37217,-33.90372,0 18.37138,-33.9044,0 18.37071,-33.90495,0 18.36976,-33.90578,0 18.36892,-33.9066,0 18.36794,-33.90749,0 18.36708,-33.90828,0 18.36628,-33.90907,0 18.36555,-33.90981,0 18.36456,-33.91074,0 18.36382,-33.91154,0 18.36302,-33.91233,0 18.36219,-33.91319,0 18.3614,-33.91397,0 18.3605,-33.91494,0 18.35978,-33.9158,0 18.35916,-33.91649,0 18.3585,-33.91726,0 18.3577,-33.91824,0 18.35695,-33.91917,0 18.35604,-33.92024,0 18.35541,-33.92102,0 18.35438,-33.92225,0 18.35361,-33.92317,0 18.35283,-33.92409,0 18.3522,-33.9249,0 18.35148,-33.92578,0 18.34896,-33.92899,0 18.34671,-33.93174,0 18.34419,-33.93491,0 18.34156,-33.93814,0 18.33971,-33.94061,0 18.33915,-33.94153,0 18.33865,-33.94299,0 18.33864,-33.94412,0 18.33904,-33.94515,0 18.33977,-33.94601,0 18.34082,-33.94664,0 18.34196,-33.94691,0 18.34311,-33.94682,0 18.34431,-33.94636,0 18.34509,-33.94579,0 18.34585,-33.94505,0 18.34644,-33.94437,0 18.34723,-33.94342,0 18.3478,-33.94263,0 18.34837,-33.94184,0 18.34911,-33.94077,0 18.34991,-33.93979,0 18.35059,-33.93887,0 18.35126,-33.938,0 18.35182,-33.93718,0 18.35249,-33.93621,0 18.35311,-33.93535,0 18.35375,-33.93449,0 18.35455,-33.93328,0 18.35512,-33.93239,0 18.35563,-33.93164,0 18.3563,-33.93068,0 18.35695,-33.92969,0 18.35747,-33.9289,0 18.35815,-33.92793,0 18.35861,-33.92722,0 18.35939,-33.92615,0 18.35981,-33.92564,0 18.36067,-33.92448,0 18.36129,-33.92363,0 18.36202,-33.92267,0 18.36267,-33.92187,0 18.36337,-33.92097,0 18.36415,-33.92006,0 18.36496,-33.91908,0 18.36565,-33.91829,0 18.36645,-33.9174,0 18.36712,-33.91667,0 18.368,-33.91573,0 18.36891,-33.91475,0 18.36966,-33.91396,0 18.37051,-33.91302,0 18.37137,-33.91214,0 18.37211,-33.91145,0 18.37312,-33.91045,0 18.37395,-33.90968,0 18.37458,-33.90911,0 18.37559,-33.90811,0 18.37652,-33.90721,0 18.37749,-33.90633,0 18.37835,-33.90558,0 18.37898,-33.90502,0 18.3799,-33.90418,0 18.38069,-33.90353,0 18.38173,-33.90269,0 18.38265,-33.90202,0 18.38362,-33.90125,0 18.38444,-33.9006,0 18.38556,-33.89978,0 18.38676,-33.89887,0 18.38741,-33.89836,0 18.38871,-33.89738,0 18.38966,-33.89667,0 18.39061,-33.89594,0 18.39151,-33.89524,0 18.39246,-33.89456,0 18.39352,-33.89383,0 18.39443,-33.89315,0 18.39554,-33.89236,0 18.39638,-33.8918,0 18.39745,-33.89113,0 18.39855,-33.8905,0 18.39964,-33.88984,0 18.40064,-33.8893,0 18.40158,-33.88877,0 18.40294,-33.88806,0 18.40393,-33.88752,0 18.40485,-33.88705,0 18.40599,-33.88644,0 18.40714,-33.88591,0 18.40799,-33.88545,0 18.40902,-33.885,0 18.40995,-33.88463,0 18.41103,-33.88421,0 18.41194,-33.88393,0 18.41286,-33.88367,0 18.41372,-33.88342,0 18.41503,-33.88305,0 18.41652,-33.88268,0 18.41757,-33.88248,0 18.41864,-33.8823,0 18.41959,-33.8822,0 18.4207,-33.88216,0 18.42183,-33.88216,0 18.42281,-33.88221,0 18.42374,-33.88229,0 18.42441,-33.88234,0 18.42558,-33.88261,0 18.42643,-33.88293,0 18.42715,-33.88326,0 18.42773,-33.88356,0 18.42895,-33.88422,0 18.42968,-33.88467,0 18.43025,-33.88509,0 18.43074,-33.88564,0 18.43114,-33.88651,0 18.43108,-33.88719,0 18.43077,-33.88779,0 18.43037,-33.88831,0 18.42951,-33.88887,0 18.42878,-33.88911,0 18.42777,-33.88934,0 18.42682,-33.88957,0 18.42564,-33.88998,0 18.42508,-33.8903,0 18.42476,-33.89063,0 18.42452,-33.89117,0 18.42447,-33.89147,0 18.42447,-33.8918,0 18.42458,-33.89227,0 18.4247,-33.89259,0 18.42482,-33.89305,0 18.42499,-33.89338,0 18.42519,-33.89392,0 18.42536,-33.89433,0 18.42547,-33.89461,0 18.42558,-33.89484,0 18.42573,-33.8952,0 18.42581,-33.89548,0 18.42598,-33.89589,0 18.42609,-33.89612,0 18.42619,-33.89641,0 18.4263,-33.89664,0 18.42648,-33.89711,0 18.42665,-33.89745,0 18.42682,-33.89785,0 18.42693,-33.89813,0 18.4271,-33.89846,0 18.42721,-33.89873,0 18.42733,-33.89897,0 18.42738,-33.89923,0 18.42743,-33.89946,0 18.42749,-33.89969,0 18.42751,-33.89999,0 18.42755,-33.90019,0 18.42751,-33.90041,0 18.42755,-33.90065,0 18.42768,-33.90088,0 18.42805,-33.90092,0 18.42854,-33.90097,0 18.42884,-33.90097,0 18.42905,-33.90097,0 18.42934,-33.90097,0 18.42985,-33.90097,0 18.43007,-33.90097,0 18.43029,-33.90097,0 18.43063,-33.90097,0 18.43111,-33.90092,0 18.43158,-33.90088,0 18.4318,-33.90083,0 18.43225,-33.90074,0 18.4327,-33.9006,0 18.433,-33.90051,0 18.43343,-33.90033,0 18.43382,-33.90015,0 18.43433,-33.89983,0 18.43483,-33.89946,0 18.4354,-33.89887,0 18.43573,-33.89832,0 18.43596,-33.89754,0 18.43603,-33.89692,0 18.43607,-33.89589,0 18.43607,-33.89502,0 18.43603,-33.89436,0 18.43607,-33.8936,0 18.43603,-33.89278,0 18.43601,-33.89214,0 18.43601,-33.89127,0 18.43597,-33.89059,0 18.43596,-33.88966,0 18.43586,-33.88896,0 18.43567,-33.88806,0 18.43539,-33.88715,0 18.435,-33.88644,0 18.43449,-33.8857,0 18.4338,-33.88491,0 18.43334,-33.88454,0 18.43248,-33.88393,0 18.43136,-33.8833,0 18.43046,-33.88298,0 18.42945,-33.88268,0 18.42844,-33.88248,0 18.42751,-33.88226,0 18.4263,-33.88202,0 18.42499,-33.88179,0 18.42379,-33.88165,0 18.42293,-33.88156,0 18.42177,-33.88138,0 18.42071,-33.88124,0 18.41931,-33.88101,0 18.4183,-33.88087,0 18.41729,-33.88069,0 18.41606,-33.88046,0 18.41503,-33.88011,0 18.41417,-33.8797,0 18.41366,-33.87932,0 18.41303,-33.87859,0 18.4128,-33.87797,0 18.4128,-33.87741,0 18.41303,-33.8768,0 18.41337,-33.87639,0 18.41393,-33.87602,0 18.4146,-33.87584,0 18.4155,-33.87575,0 18.416,-33.87575,0 18.41662,-33.87579,0 18.41721,-33.87583,0 18.41774,-33.87593,0 18.41841,-33.87606,0 18.41903,-33.87639,0 18.41948,-33.87671,0 18.41987,-33.8773,0 18.41998,-33.87785,0 18.41992,-33.87863,0 18.41948,-33.87932,0 18.41892,-33.87979,0 18.41802,-33.88023,0 18.41718,-33.88046,0 18.416,-33.88063,0 18.41526,-33.88072,0 18.41406,-33.88091,0 18.41309,-33.88105,0 18.41194,-33.88118,0 18.41097,-33.88128,0 18.40989,-33.88147,0 18.4086,-33.8817,0 18.40765,-33.88188,0 18.40662,-33.88211,0 18.40541,-33.88248,0 18.40429,-33.88284,0 18.40316,-33.88326,0 18.4021,-33.88362,0 18.40096,-33.88393,0 18.39981,-33.88421,0 18.39834,-33.88454,0 18.39718,-33.88486,0 18.39582,-33.88527,0 18.3946,-33.88575,0 18.39358,-33.88623,0 18.39268,-33.88669,0 18.39157,-33.88733,0 18.39072,-33.88783,0 18.38991,-33.88835,0 18.38877,-33.8891,0 18.38791,-33.88966,0 18.38711,-33.89022,0 18.38607,-33.89095,0 18.38506,-33.89163,0 18.38422,-33.89227,0 18.38338,-33.89287,0 18.38236,-33.89357,0 18.38156,-33.89422,0 18.38041,-33.89501,0 18.37934,-33.8958,0 18.37844,-33.89644,0 18.37749,-33.89713,0 18.37629,-33.89799,0 18.37536,-33.89868,0 18.37452,-33.89934,0 18.37337,-33.90022,0 18.37252,-33.90092,0 18.37138,-33.90189,0 18.37046,-33.90269,0 18.36971,-33.90339,0 18.36869,-33.90431,0 18.36785,-33.90504,0 18.36708,-33.90577,0 18.36594,-33.90683,0 18.3651,-33.90765,0 18.36421,-33.90862,0 18.36342,-33.90939,0 18.36247,-33.91035,0 18.36176,-33.91112,0 18.36068,-33.91219,0 18.35984,-33.9131,0 18.35907,-33.91396,0 18.35827,-33.91484,0 18.35743,-33.91571,0 18.35667,-33.91661,0 18.35496,-33.91832,0 18.35392,-33.91917,0 18.353,-33.91969,0 18.35148,-33.92029,0 18.35043,-33.92048,0 18.34963,-33.92056,0 18.34834,-33.92052,0 18.34745,-33.92029,0 18.34654,-33.91996,0 18.34568,-33.91936,0 18.34515,-33.91878,0 18.34481,-33.91814,0 18.34471,-33.91726,0 18.34481,-33.91653,0 18.34522,-33.91573,0 18.34566,-33.91516,0 18.34614,-33.91465,0 18.34661,-33.9142,0 18.34728,-33.91368,0 18.34785,-33.9133,0 18.34846,-33.91301,0 18.34907,-33.91273,0 18.34997,-33.91255,0 18.35089,-33.91256,0 18.3516,-33.91273,0 18.35244,-33.9131,0 18.35312,-33.91368,0 18.35361,-33.91429,0 18.35392,-33.91507,0 18.35406,-33.91589,0 18.35415,-33.91684,0 18.35406,-33.91791,0 18.35392,-33.91894,0 18.35375,-33.91996,0 18.35352,-33.92108,0 18.35328,-33.92207,0 18.353,-33.92308,0 18.35266,-33.92429,0 18.35238,-33.9255,0 18.35197,-33.9268,0 18.35176,-33.92775,0 18.3514,-33.92904,0 18.35112,-33.93007,0 18.35081,-33.93127,0 18.35049,-33.93239,0 18.35019,-33.93352,0 18.3498,-33.93494,0 18.34946,-33.93607,0 18.34834,-33.93979,0 18.34688,-33.94477,0 18.34568,-33.94883,0 18.34522,-33.95031,0 18.34492,-33.95137,0 18.34453,-33.95288,0 18.34414,-33.95416,0 18.34375,-33.95544,0 18.34341,-33.95677,0 18.34311,-33.9579,0 18.34282,-33.95897,0 18.34236,-33.96093,0 18.34208,-33.96256,0 18.34156,-33.96568,0 18.34145,-33.96624,0 18.34117,-33.96863,0 18.341,-33.9705,0 18.34093,-33.97163,0 18.34082,-33.97322,0 18.34076,-33.97452,0 18.34061,-33.97833,0 18.34064,-33.97922,0 18.34076,-33.98146,0 18.34082,-33.98262,0 18.34106,-33.98447,0 18.34162,-33.98779,0 18.34179,-33.98886,0 18.34207,-33.99019,0 18.34229,-33.99124,0 18.34339,-33.99529,0 18.34373,-33.99635,0 18.34442,-33.99834,0 18.34488,-33.99943,0 18.34545,-34.00068,0 18.34599,-34.00182,0 18.3466,-34.00311,0 18.34717,-34.00422,0 18.34778,-34.00548,0 18.34831,-34.00655,0 18.34891,-34.00786,0 18.3494,-34.00892,0 18.34997,-34.01015,0 18.35054,-34.01134,0 18.35098,-34.01239,0 18.35152,-34.01367,0 18.35203,-34.01488,0 18.35238,-34.01581,0 18.35283,-34.01711,0 18.35322,-34.01825,0 18.35363,-34.01958,0 18.3539,-34.02058,0 18.35417,-34.02187,0 18.35438,-34.02312,0 18.35461,-34.02428,0 18.35485,-34.02562,0 18.35506,-34.02671,0 18.35529,-34.02801,0 18.35552,-34.02928,0 18.3558,-34.03075,0 18.35597,-34.03171,0 18.35615,-34.03271,0 18.35636,-34.034,0 18.35653,-34.03519,0 18.35675,-34.03642,0 18.35692,-34.03775,0 18.35709,-34.0388,0 18.3573,-34.03997,0 18.35747,-34.041,0 18.35764,-34.04226,0 18.35782,-34.04343,0 18.35793,-34.0444,0 18.35821,-34.04575,0 18.35844,-34.04682,0 18.35867,-34.04803,0 18.359,-34.04929,0 18.35928,-34.05048,0 18.35958,-34.0517,0 18.35981,-34.05268,0 18.36006,-34.05382,0 18.36039,-34.05496,0 18.36067,-34.05613,0 18.36096,-34.05707,0 18.36119,-34.05804,0 18.36245,-34.06274,0 18.3633,-34.0653,0 18.3637,-34.06641,0 18.36411,-34.06749,0 18.3646,-34.0686,0 18.36508,-34.06981,0 18.36555,-34.0708,0 18.36628,-34.07228,0 18.36684,-34.07323,0 18.3674,-34.07437,0 18.36796,-34.07533,0 18.36858,-34.07643,0 18.36926,-34.07763,0 18.36983,-34.07857,0 18.37043,-34.07964,0 18.37116,-34.08087,0 18.37177,-34.08188,0 18.37239,-34.08293,0 18.37295,-34.08385,0 18.37372,-34.08504,0 18.37424,-34.08591,0 18.37509,-34.08709,0 18.37576,-34.08797,0 18.37675,-34.08937,0 18.37732,-34.09011,0 18.3783,-34.09127,0 18.37904,-34.09216,0 18.37996,-34.09318,0 18.38081,-34.09411,0 18.38181,-34.09515,0 18.38259,-34.09588,0 18.38343,-34.09671,0 18.38444,-34.09763,0 18.38545,-34.09845,0 18.38654,-34.09937,0 18.38751,-34.10017,0 18.38825,-34.10072,0 18.38938,-34.10165,0 18.39027,-34.10239,0 18.39145,-34.1033,0 18.39243,-34.10403,0 18.39352,-34.10486,0 18.39442,-34.10559,0 18.39558,-34.10645,0 18.39678,-34.10738,0 18.39784,-34.10825,0 18.39868,-34.10889,0 18.39991,-34.1098,0 18.4009,-34.1105,0 18.40272,-34.11186,0 18.4037,-34.11255,0 18.40691,-34.11488,0 18.41039,-34.11736,0 18.41354,-34.11967,0 18.41755,-34.12265,0 18.42088,-34.12514,0 18.42519,-34.1282,0 18.42745,-34.12973,0 18.42842,-34.13038,0 18.42991,-34.13136,0 18.43085,-34.13196,0 18.4322,-34.13278,0 18.43321,-34.13338,0 18.43437,-34.13401,0 18.43539,-34.13457,0 18.43691,-34.13525,0 18.43798,-34.13564,0 18.43941,-34.13596,0 18.44078,-34.13608,0 18.44204,-34.13601,0 18.44324,-34.13585,0 18.44459,-34.13553,0 18.44548,-34.13525,0 18.44689,-34.13475,0 18.44805,-34.13429,0 18.4489,-34.13393,0 18.45016,-34.13327,0 18.45131,-34.13261,0 18.45249,-34.13191,0 18.45344,-34.13136,0 18.45446,-34.13075,0 18.45543,-34.13005,0 18.45646,-34.12931,0 18.45726,-34.12866,0 18.45843,-34.12756,0 18.45916,-34.12683,0 18.45983,-34.12605,0 18.46064,-34.12516,0 18.46135,-34.12436,0 18.4623,-34.1233,0 18.46304,-34.12242,0 18.46378,-34.12149,0 18.46464,-34.12037,0 18.46516,-34.11963,0 18.46583,-34.11855,0 18.46639,-34.11763,0 18.46695,-34.11658,0 18.46751,-34.11534,0 18.46791,-34.11438,0 18.46819,-34.11334,0 18.46847,-34.11237,0 18.46876,-34.11101,0 18.46891,-34.11008,0 18.46905,-34.1091,0 18.46916,-34.1078,0 18.46922,-34.10659,0 18.46925,-34.10541,0 18.46925,-34.1044,0 18.46919,-34.1033,0 18.4691,-34.10221,0 18.46899,-34.10119,0 18.46875,-34.09996,0 18.46842,-34.09872,0 18.46807,-34.09761,0 18.46762,-34.09648,0 18.46723,-34.09557,0 18.46673,-34.0946,0 18.46622,-34.09369,0 18.46544,-34.09239,0 18.46477,-34.09135,0 18.46404,-34.09016,0 18.46337,-34.0892,0 18.46269,-34.08833,0 18.46213,-34.08755,0 18.46109,-34.08634,0 18.46041,-34.0855,0 18.45972,-34.08466,0 18.45882,-34.08362,0 18.45827,-34.08298,0 18.45743,-34.08192,0 18.45669,-34.08089,0 18.456,-34.07982,0 18.45529,-34.07867,0 18.45485,-34.07785,0 18.45428,-34.07689,0 18.45372,-34.07579,0 18.45316,-34.07469,0 18.45271,-34.07373,0 18.45227,-34.07281,0 18.45182,-34.07176,0 18.45126,-34.07053,0 18.45086,-34.06961,0 18.45025,-34.06828,0 18.44975,-34.06718,0 18.4493,-34.0659,0 18.44908,-34.06465,0 18.44902,-34.06339,0 18.44908,-34.06241,0 18.44918,-34.0611,0 18.44931,-34.06004,0 18.44942,-34.05878,0 18.44959,-34.05757,0 18.44976,-34.05645,0 18.44991,-34.05551,0 18.45008,-34.05432,0 18.45025,-34.05313,0 18.45053,-34.05194,0 18.45075,-34.05116,0 18.45114,-34.04998,0 18.45159,-34.04878,0 18.45215,-34.04759,0 18.45263,-34.04668,0 18.45314,-34.04565,0 18.45361,-34.04471,0 18.45406,-34.0437,0 18.45451,-34.04281,0 18.45496,-34.04192,0 18.45549,-34.04081,0 18.45585,-34.04008,0 18.45653,-34.03899,0 18.45726,-34.0378,0 18.45778,-34.0369,0 18.45832,-34.0361,0 18.45899,-34.0351,0 18.45943,-34.03439,0 18.46006,-34.03345,0 18.46062,-34.03258,0 18.46132,-34.03146,0 18.46191,-34.03056,0 18.46241,-34.02974,0 18.46286,-34.02887,0 18.46348,-34.02786,0 18.46393,-34.02704,0 18.46441,-34.02624,0 18.4651,-34.02516,0 18.46572,-34.02434,0 18.46653,-34.02326,0 18.46722,-34.02247,0 18.46785,-34.02173,0 18.46858,-34.02086,0 18.46942,-34.01994,0 18.47008,-34.01921,0 18.47076,-34.01842,0 18.47161,-34.01747,0 18.47231,-34.01665,0 18.47318,-34.01555,0 18.4738,-34.01469,0 18.47435,-34.01381,0 18.47488,-34.01293,0 18.47534,-34.01204,0 18.47592,-34.01097,0 18.47637,-34.01004,0 18.47677,-34.00911,0 18.47723,-34.00804,0 18.47757,-34.00711,0 18.47792,-34.00618,0 18.4782,-34.00501,0 18.47839,-34.0041,0 18.47861,-34.00291,0 18.47872,-34.00195,0 18.47883,-34.00115,0 18.47895,-34.00017,0 18.47923,-33.99875,0 18.47946,-33.9978,0 18.47973,-33.9966,0 18.4799,-33.99564,0 18.48001,-33.99472,0 18.48018,-33.99344,0 18.48024,-33.99234,0 18.48029,-33.99138,0 18.48035,-33.99042,0 18.48035,-33.98941,0 18.48038,-33.98849,0 18.48038,-33.98765,0 18.48046,-33.98639,0 18.48046,-33.98552,0 18.48055,-33.98434,0 18.48063,-33.98337,0 18.48069,-33.98245,0 18.48074,-33.98122,0 18.4808,-33.9803,0 18.48089,-33.97913,0 18.48102,-33.97806,0 18.48124,-33.97503,0 18.48129,-33.97382,0 18.48141,-33.97173,0 18.48141,-33.97047,0 18.48141,-33.96954,0 18.48141,-33.96838,0 18.48141,-33.96605,0 18.48141,-33.96502,0 18.48135,-33.96363,0 18.48135,-33.9626,0 18.48129,-33.96125,0 18.48129,-33.96023,0 18.48129,-33.95888,0 18.4813,-33.95792,0 18.4813,-33.95682,0 18.48124,-33.95576,0 18.48118,-33.95441,0 18.48113,-33.9532,0 18.48108,-33.95187,0 18.48095,-33.95082,0 18.48083,-33.94976,0 18.48063,-33.94872,0 18.48043,-33.94738,0 18.48021,-33.94636,0 18.47985,-33.9451,0 18.47958,-33.94408,0 18.47923,-33.94295,0 18.47884,-33.94185,0 18.4785,-33.94075,0 18.47815,-33.93961,0 18.47775,-33.9383,0 18.47738,-33.93727,0 18.47689,-33.93616,0 18.47631,-33.93521,0 18.47564,-33.93407,0 18.47497,-33.93292,0 18.47448,-33.93206,0 18.4738,-33.93085,0 18.47323,-33.92986,0 18.47267,-33.92894,0 18.47197,-33.92774,0 18.47155,-33.92706,0 18.47076,-33.92587,0 18.46992,-33.92464,0 18.46925,-33.92368,0 18.46853,-33.92266,0 18.46791,-33.92175,0 18.4671,-33.92066,0 18.46622,-33.91951,0 18.46567,-33.9187,0 18.46494,-33.91754,0 18.46432,-33.91658,0 18.46373,-33.91558,0 18.46297,-33.91443,0 18.46252,-33.91365,0 18.46184,-33.91251,0 18.46109,-33.91126,0 18.46034,-33.91003,0 18.45984,-33.90911,0 18.45915,-33.908,0 18.45858,-33.90716,0 18.45783,-33.906,0 18.4572,-33.90502,0 18.45658,-33.90413,0 18.45589,-33.90316,0 18.45529,-33.90234,0 18.45457,-33.90134,0 18.45394,-33.90051,0 18.45337,-33.89967,0 18.45251,-33.89869,0 18.45187,-33.89795,0 18.45097,-33.89701,0 18.45014,-33.89621,0 18.44925,-33.89543,0 18.44829,-33.8947,0 18.44736,-33.89408,0 18.44655,-33.8936,0 18.44547,-33.8931,0 18.44421,-33.89264,0 18.44296,-33.89231,0 18.44145,-33.89204,0 18.44038,-33.89203,0 18.43921,-33.89204,0 18.43809,-33.89208,0 18.43736,-33.89218,0 18.43691,-33.89223,0 18.43646,-33.89227,0 18.43597,-33.89236,0 18.43534,-33.89246,0 18.43494,-33.89254,0 18.43431,-33.89273,0 18.43391,-33.89282,0 18.4334,-33.89301,0 18.43254,-33.89337,0 18.43225,-33.89352,0 18.43198,-33.89374,0 18.43142,-33.8941,0 18.43122,-33.89431,0 18.43094,-33.89459,0 18.43063,-33.89488,0 18.43018,-33.89543,0 18.43001,-33.89566,0 18.4299,-33.89589,0 18.42968,-33.89621,0 18.4294,-33.89671,0 18.42916,-33.89706,0 18.42905,-33.89738,0 18.42888,-33.89766,0 18.42876,-33.89794,0 18.42854,-33.89836,0 18.42833,-33.89873,0 18.42828,-33.89896,0 18.42816,-33.89919,0 18.42802,-33.89948,0 18.42794,-33.89969,0 18.42785,-33.89999,0 18.42779,-33.90022,0 18.42768,-33.90051,0 18.42756,-33.90074,0 18.42777,-33.90074,0 18.42805,-33.9006,0 18.42833,-33.90047,0 18.42856,-33.90038,0 18.42876,-33.90027,0 18.42916,-33.90013,0 18.42951,-33.90001,0 18.43008,-33.89985,0 18.43037,-33.89976,0 18.43063,-33.89973,0 18.43094,-33.89967,0 18.43119,-33.8996,0 18.43147,-33.89955,0 18.43175,-33.89951,0 18.43231,-33.89939,0 18.43259,-33.89932,0 18.43287,-33.89928,0 18.43317,-33.8992,0 18.43357,-33.89911,0 18.4342,-33.89892,0 18.43483,-33.89869,0 18.43545,-33.89827,0 18.4358,-33.89799,0 18.43629,-33.89726,0 18.43646,-33.89671,0 18.43655,-33.89603,0 18.43655,-33.89538,0 18.43655,-33.89468,0 18.43646,-33.89388,0 18.43646,-33.8931,0 18.4364,-33.8925,0 18.43632,-33.8918,0 18.43626,-33.89091,0 18.43603,-33.89008,0 18.43579,-33.88939,0 18.43534,-33.88863,0 18.43489,-33.88797,0 18.43426,-33.88737,0 18.4336,-33.88687,0 18.4327,-33.88637,0 18.43164,-33.88586,0 18.43082,-33.88556,0 18.42945,-33.88519,0 18.42844,-33.88495,0 18.42721,-33.88467,0 18.4262,-33.88449,0 18.42497,-33.88422,0 18.42367,-33.88398,0 18.42264,-33.88384,0 18.4211,-33.88365,0 18.42007,-33.88356,0 18.41914,-33.88348,0 18.41766,-33.88342,0 18.41628,-33.88335,0 18.41515,-33.88333,0 18.41365,-33.8833,0 18.41228,-33.88333,0 18.4112,-33.88337,0 18.40984,-33.88344,0 18.40868,-33.88351,0 18.40737,-33.88367,0 18.40599,-33.88379,0 18.40479,-33.88398,0 18.40378,-33.88412,0 18.40249,-33.88435,0 18.40109,-33.88463,0 18.4001,-33.88486,0 18.39902,-33.88518,0 18.39769,-33.88565,0 18.39666,-33.88605,0 18.39563,-33.88644,0 18.39464,-33.88692,0 18.39369,-33.88733,0 18.39249,-33.88794,0 18.39151,-33.88847,0 18.39055,-33.88898,0 18.38949,-33.88966,0 18.38859,-33.89021,0 18.38769,-33.89076,0 18.38663,-33.89149,0 18.38579,-33.89203,0 18.3847,-33.89273,0 18.38385,-33.89333,0 18.38282,-33.89406,0 18.38198,-33.89465,0 18.38119,-33.8952,0 18.38018,-33.89598,0 18.3791,-33.89678,0 18.37824,-33.89738,0 18.37744,-33.89804,0 18.37654,-33.89873,0 18.37553,-33.89955,0 18.37446,-33.90041,0 18.3736,-33.90115,0 18.37269,-33.90195,0 18.37177,-33.90276,0 18.37093,-33.90353,0 18.36994,-33.90446,0 18.36903,-33.90532,0 18.36802,-33.90628,0 18.36701,-33.90729,0 18.36617,-33.90816,0 18.36544,-33.90894,0 18.36479,-33.90968,0 18.36393,-33.91061,0 18.36308,-33.91154,0 18.36233,-33.91237,0 18.36157,-33.91319,0 18.36079,-33.91415,0 18.35987,-33.91526,0 18.35922,-33.91608,0 18.3585,-33.91703,0 18.35782,-33.91791,0 18.35724,-33.9187,0 18.35649,-33.91968,0 18.35587,-33.92061,0 18.3553,-33.92143,0 18.35455,-33.92243,0 18.35384,-33.9234,0 18.35322,-33.92422,0 18.3526,-33.92513,0 18.35182,-33.92615,0 18.35126,-33.92702,0 18.35049,-33.92806,0 18.3498,-33.92899,0 18.34913,-33.9299,0 18.34694,-33.93292,0 18.34488,-33.93584,0 18.34201,-33.94002,0 18.34156,-33.94091,0 18.3411,-33.94226,0 18.34106,-33.94322,0 18.34127,-33.94426,0 18.34184,-33.94501,0 18.34265,-33.94556,0 18.34397,-33.94592,0 18.34488,-33.94589,0 18.34585,-33.94561,0 18.34717,-33.94492,0 18.34785,-33.9444,0 18.34863,-33.94363,0 18.34951,-33.94263,0 18.35019,-33.94189,0 18.3512,-33.94066,0 18.35209,-33.93966,0 18.35295,-33.93872,0 18.35367,-33.93787,0 18.35438,-33.93705,0 18.35501,-33.93631,0 18.35602,-33.93517,0 18.35684,-33.93421,0 18.35743,-33.93352,0 18.35843,-33.93237,0 18.36067,-33.92978,0 18.36331,-33.92665,0 18.36572,-33.92386,0 18.36847,-33.92047,0 18.37105,-33.91708,0 18.37172,-33.91619,0 18.37229,-33.91535,0 18.3729,-33.91457,0 18.3736,-33.91354,0 18.37429,-33.91261,0 18.37503,-33.91158,0 18.37572,-33.91056,0 18.37635,-33.90977,0 18.3771,-33.9088,0 18.37784,-33.90795,0 18.37833,-33.90733,0 18.37923,-33.90633,0 18.38013,-33.9053,0 18.38097,-33.90431,0 18.3817,-33.90353,0 18.38259,-33.90257,0 18.38332,-33.90179,0 18.38411,-33.90102,0 18.38505,-33.90009,0 18.38608,-33.89915,0 18.38685,-33.89845,0 18.38764,-33.89772,0 18.3886,-33.89682,0 18.3894,-33.89613,0 18.39033,-33.89534,0 18.39111,-33.89473,0 18.39203,-33.89403,0 18.39308,-33.89328,0 18.39392,-33.89268,0 18.39489,-33.89203,0 18.39586,-33.89138,0 18.39706,-33.89063,0 18.39815,-33.88998,0 18.39913,-33.88939,0 18.40015,-33.88882,0 18.4009,-33.88845,0 18.40215,-33.88779,0 18.40311,-33.88733,0 18.40395,-33.88692,0 18.40524,-33.88641,0 18.40628,-33.88602,0 18.40731,-33.8857,0 18.40838,-33.88541,0 18.40989,-33.88499,0 18.4109,-33.88477,0 18.41213,-33.88449,0 18.41314,-33.8843,0 18.41434,-33.88412,0 18.41522,-33.88403,0 18.41629,-33.88398,0 18.41746,-33.8839,0 18.41858,-33.88388,0 18.4199,-33.88388,0 18.4211,-33.88393,0 18.42217,-33.88394,0 18.42333,-33.88398,0 18.42463,-33.88399,0 18.42556,-33.88393,0 18.42659,-33.88393,0 18.42755,-33.88394,0 18.42871,-33.88398,0 18.42985,-33.88403,0 18.43057,-33.88412,0 18.43191,-33.88426,0 18.433,-33.88444,0 18.43388,-33.88458,0 18.43466,-33.88477,0 18.43579,-33.88504,0 18.43657,-33.88527,0 18.43741,-33.88559,0 18.43842,-33.88605,0 18.43909,-33.88646,0 18.43992,-33.887,0 18.4405,-33.88756,0 18.44101,-33.88817,0 18.44134,-33.88879,0 18.44151,-33.88962,0 18.44141,-33.8905,0 18.44118,-33.89115,0 18.44083,-33.89168,0 18.44016,-33.89246,0 18.43958,-33.89296,0 18.43878,-33.89347,0 18.43848,-33.89369,0 18.43781,-33.89406,0 18.43758,-33.8942,0 18.43702,-33.89452,0 18.43657,-33.89474,0 18.43632,-33.89492,0 18.43601,-33.89507,0 18.43551,-33.89539,0 18.43523,-33.89557,0 18.43489,-33.8958,0 18.4346,-33.89599,0 18.4342,-33.89627,0 18.43366,-33.89671,0 18.43343,-33.8969,0 18.43321,-33.89713,0 18.43293,-33.8974,0 18.43266,-33.89766,0 18.43242,-33.8979,0 18.43203,-33.89827,0 18.4318,-33.89859,0 18.43142,-33.89905,0 18.43117,-33.89948,0 18.43094,-33.89971,0 18.43042,-33.90009,0 18.43014,-33.90022,0 18.4299,-33.90028,0 18.42968,-33.90033,0 18.42945,-33.90033,0 18.42884,-33.90028,0 18.42766,-33.9001,0 18.42728,-33.90018,0 18.42705,-33.90032,0 18.42705,-33.90055,0 18.42727,-33.9007,0 18.42749,-33.9007,0 18.42732,-33.90038,0 18.42722,-33.90009,0 18.42716,-33.89971,0 18.42715,-33.89951,0 18.42716,-33.89915,0 18.42721,-33.89886,0 18.42727,-33.89864,0 18.42745,-33.89813,0 18.42756,-33.8978,0 18.42772,-33.89749,0 18.42779,-33.89724,0 18.42802,-33.89673,0 18.42816,-33.89635,0 18.42831,-33.89613,0 18.42836,-33.89589,0 18.4285,-33.89557,0 18.42861,-33.89534,0 18.42884,-33.89484,0 18.42911,-33.89426,0 18.42934,-33.8938,0 18.42968,-33.89305,0 18.43001,-33.8925,0 18.43029,-33.89204,0 18.43071,-33.89133,0 18.43119,-33.89053,0 18.43147,-33.89008,0 18.43197,-33.88933,0 18.43231,-33.88877,0 18.4327,-33.88815,0 18.43306,-33.88756,0 18.43332,-33.8866,0 18.43338,-33.886,0 18.43332,-33.88513,0 18.4331,-33.88454,0 18.43259,-33.88367,0 18.43197,-33.883,0 18.43128,-33.88249,0 18.43031,-33.88188,0 18.42962,-33.8816,0 18.4285,-33.88124,0 18.42745,-33.881,0 18.42603,-33.88078,0 18.4248,-33.88065,0 18.42379,-33.8806,0 18.4227,-33.88053,0 18.42121,-33.88051,0 18.41984,-33.88053,0 18.41869,-33.8806,0 18.41772,-33.88063,0 18.41611,-33.88078,0 18.41492,-33.88086,0 18.41393,-33.88097,0 18.41281,-33.8811,0 18.41154,-33.88128,0 18.41028,-33.88146,0 18.40911,-33.8817,0 18.40805,-33.88193,0 18.40698,-33.88216,0 18.4058,-33.88248,0 18.40445,-33.88289,0 18.40344,-33.88321,0 18.40232,-33.88362,0 18.40147,-33.88393,0 18.40025,-33.8844,0 18.39907,-33.88486,0 18.39787,-33.88537,0 18.39689,-33.88579,0 18.39586,-33.88631,0 18.39472,-33.88696,0 18.39363,-33.88756,0 18.3928,-33.88811,0 18.3919,-33.88866,0 18.39083,-33.88938,0 18.38974,-33.89012,0 18.38882,-33.89073,0 18.38797,-33.89133,0 18.38722,-33.89189,0 18.38614,-33.89268,0 18.38528,-33.89329,0 18.38419,-33.89408,0 18.38345,-33.89464,0 18.38226,-33.89557,0 18.38164,-33.89607,0 18.38063,-33.8968,0 18.37978,-33.89748,0 18.37875,-33.89832,0 18.37692,-33.89976,0 18.37355,-33.90241,0 18.37194,-33.90376,0 18.37105,-33.9045,0 18.36994,-33.90544,0 18.36914,-33.90614,0 18.36811,-33.90702,0 18.36731,-33.90772,0 18.36657,-33.90842,0 18.36559,-33.9093,0 18.36485,-33.91,0 18.36399,-33.91088,0 18.3633,-33.91158,0 18.36241,-33.91251,0 18.36153,-33.9134,0 18.36062,-33.91438,0 18.36012,-33.91498,0 18.35922,-33.91594,0 18.3585,-33.91675,0 18.35776,-33.91759,0 18.35709,-33.91837,0 18.35638,-33.91922,0 18.35564,-33.92006,0 18.35501,-33.92075,0 18.35417,-33.92175,0 18.35356,-33.92253,0 18.35294,-33.92326,0 18.35215,-33.92424,0 18.35154,-33.92509,0 18.35092,-33.92587,0 18.35026,-33.9268,0 18.34946,-33.92783,0 18.34879,-33.92876,0 18.34818,-33.92958,0 18.34745,-33.93059,0 18.34682,-33.93146,0 18.34602,-33.93248,0 18.34549,-33.93324,0 18.34482,-33.9343,0 18.34414,-33.93528,0 18.34156,-33.93924,0 18.34105,-33.9403,0 18.34072,-33.94116,0 18.34053,-33.94231,0 18.34061,-33.94331,0 18.34105,-33.94436,0 18.34184,-33.94524,0 18.34268,-33.94569,0 18.34356,-33.94589,0 18.34494,-33.94585,0 18.34593,-33.94556,0 18.34677,-33.94501,0 18.34756,-33.94423,0 18.34814,-33.94357,0 18.34871,-33.94277,0 18.34947,-33.94162,0 18.34991,-33.94091,0 18.35064,-33.93983,0 18.35126,-33.93878,0 18.35197,-33.9377,0 18.35249,-33.93681,0 18.35311,-33.9359,0 18.35373,-33.93498,0 18.35449,-33.9337,0 18.35518,-33.93267,0 18.35591,-33.93159,0 18.35664,-33.93059,0 18.35712,-33.92988,0 18.35984,-33.9261,0 18.36068,-33.92505,0 18.36129,-33.92422,0 18.36348,-33.92134,0 18.36565,-33.91866,0 18.36841,-33.91525,0 18.37099,-33.91223,0 18.37329,-33.90958,0 18.37559,-33.90701,0 18.37727,-33.90523,0 18.37944,-33.90302,0 18.38058,-33.90198,0 18.38133,-33.90129,0 18.38214,-33.9006,0 18.38299,-33.8999,0 18.38413,-33.89906,0 18.38499,-33.89841,0 18.38585,-33.89776,0 18.38691,-33.89703,0 18.38781,-33.89639,0 18.38898,-33.89566,0 18.38991,-33.8951,0 18.39089,-33.89452,0 18.39201,-33.89388,0 18.39296,-33.89333,0 18.39408,-33.89264,0 18.39515,-33.89204,0 18.39621,-33.89143,0 18.39729,-33.89082,0 18.39823,-33.89026,0 18.39935,-33.88966,0 18.40044,-33.8891,0 18.40141,-33.88863,0 18.40267,-33.88798,0 18.40339,-33.88765,0 18.40485,-33.88701,0 18.40582,-33.88659,0 18.40709,-33.88614,0 18.40805,-33.88579,0 18.40942,-33.88542,0 18.41045,-33.88519,0 18.41154,-33.885,0 18.41286,-33.88481,0 18.41389,-33.88467,0 18.41499,-33.88458,0 18.41628,-33.88454,0 18.41755,-33.88454,0 18.41875,-33.88463,0 18.41978,-33.88467,0 18.42076,-33.88481,0 18.42207,-33.88496,0 18.42323,-33.88513,0 18.42436,-33.88533,0 18.42542,-33.88554,0 18.42642,-33.88575,0 18.42749,-33.886,0 18.42876,-33.8864,0 18.43007,-33.88683,0 18.43094,-33.88714,0 18.43208,-33.88761,0 18.43321,-33.88815,0 18.43431,-33.88873,0 18.43511,-33.88916,0 18.4358,-33.88956,0 18.43691,-33.89017,0 18.43775,-33.89076,0 18.43838,-33.89124,0 18.43909,-33.89195,0 18.43952,-33.89254,0 18.43994,-33.89319,0 18.44022,-33.89388,0 18.44032,-33.89455,0 18.44027,-33.89529,0 18.4401,-33.89607,0 18.43969,-33.89682,0 18.43935,-33.89734,0 18.43909,-33.89758,0 18.43878,-33.8979,0 18.43853,-33.89804,0 18.43809,-33.89832,0 18.43781,-33.89841,0 18.43747,-33.8985,0 18.43706,-33.89864,0 18.43674,-33.89873,0 18.43626,-33.89883,0 18.43596,-33.89891,0 18.43567,-33.899,0 18.43539,-33.89909,0 18.43506,-33.89914,0 18.43466,-33.89925,0 18.43409,-33.89939,0 18.43374,-33.89948,0 18.43334,-33.89957,0 18.43311,-33.89962,0 18.43287,-33.89969,0 18.43248,-33.89976,0 18.43225,-33.89985,0 18.43185,-33.8999,0 18.43163,-33.89994,0 18.43134,-33.90004,0 18.43091,-33.90015,0 18.43069,-33.90015,0 18.43029,-33.90024,0 18.42973,-33.90033,0 18.42951,-33.90038,0 18.42917,-33.90047,0 18.42882,-33.90051,0 18.42813,-33.90064,0 18.42785,-33.90069,0 18.42762,-33.90074,0 18.42749,-33.90047,0 18.42768,-33.89957,0 18.42777,-33.89928,0 18.42783,-33.89896,0 18.42791,-33.89874,0 18.42808,-33.89841,0 18.42822,-33.89818,0 18.42833,-33.89795,0 18.42848,-33.89766,0 18.42867,-33.8974,0 18.42894,-33.89711,0 18.42906,-33.8969,0 18.42934,-33.89655,0 18.42951,-33.89631,0 18.42974,-33.89608,0 18.42991,-33.89576,0 18.43019,-33.89543,0 18.43041,-33.89516,0 18.4306,-33.89487,0 18.4308,-33.89465,0 18.43105,-33.89441,0 18.43134,-33.89403,0 18.43158,-33.89378,0 18.43174,-33.89357,0 18.43203,-33.89324,0 18.43225,-33.89296,0 18.43276,-33.89236,0 18.43327,-33.89172,0 18.43357,-33.89124,0 18.43403,-33.89054,0 18.43433,-33.89003,0 18.43466,-33.88938,0 18.435,-33.88866,0 18.43523,-33.88812,0 18.43552,-33.88742,0 18.43569,-33.88677,0 18.43573,-33.88614,0 18.43573,-33.88541,0 18.43567,-33.88463,0 18.43557,-33.88403,0 18.4354,-33.88333,0 18.43517,-33.88253,0 18.435,-33.88188,0 18.43477,-33.88123,0 18.4345,-33.88055,0 18.43422,-33.87987,0 18.43386,-33.87914,0 18.43338,-33.87845,0 18.43276,-33.87781,0 18.43214,-33.87723,0 18.43128,-33.87658,0 18.43057,-33.87611,0 18.42996,-33.87579,0 18.42906,-33.87534,0 18.42783,-33.87492,0 18.42693,-33.87469,0 18.4259,-33.87453,0 18.42493,-33.87439,0 18.42374,-33.87428,0 18.4227,-33.87429,0 18.42177,-33.87428,0 18.42065,-33.87437,0 18.41936,-33.87447,0 18.41835,-33.87457,0 18.41749,-33.87471,0 18.41639,-33.87492,0 18.41533,-33.87511,0 18.41469,-33.87527,0 18.41372,-33.8755,0 18.41264,-33.87579,0 18.41183,-33.87606,0 18.41091,-33.87634,0 18.41011,-33.87666,0 18.40891,-33.87709,0 18.40805,-33.87746,0 18.40726,-33.87776,0 18.40639,-33.87811,0 18.40536,-33.87858,0 18.40434,-33.87909,0 18.40347,-33.87951,0 18.40273,-33.87993,0 18.40176,-33.88042,0 18.40078,-33.881,0 18.39993,-33.88146,0 18.39907,-33.88197,0 18.39832,-33.88244,0 18.39762,-33.88284,0 18.39666,-33.88337,0 18.39575,-33.88388,0 18.39506,-33.88426,0 18.39409,-33.88482,0 18.3933,-33.88531,0 18.39254,-33.88579,0 18.39173,-33.88632,0 18.391,-33.88683,0 18.39014,-33.88737,0 18.38917,-33.88803,0 18.38842,-33.88852,0 18.38764,-33.88902,0 18.38671,-33.88961,0 18.38585,-33.89026,0 18.38493,-33.89091,0 18.38444,-33.89127,0 18.38338,-33.892,0 18.38265,-33.89255,0 18.38167,-33.89324,0 18.38086,-33.89392,0 18.38001,-33.89452,0 18.37929,-33.89516,0 18.37852,-33.8958,0 18.3779,-33.89645,0 18.37704,-33.89731,0 18.37637,-33.89795,0 18.37561,-33.89874,0 18.37475,-33.89957,0 18.37406,-33.90018,0 18.37329,-33.90092,0 18.37262,-33.90152,0 18.37183,-33.90227,0 18.3712,-33.90292,0 18.37043,-33.90372,0 18.36977,-33.90442,0 18.3692,-33.90506,0 18.36841,-33.90596,0 18.36791,-33.90656,0 18.3672,-33.90734,0 18.36651,-33.90816,0 18.36572,-33.90903,0 18.3651,-33.90971,0 18.36433,-33.91061,0 18.36387,-33.91113,0 18.36303,-33.91209,0 18.36233,-33.91284,0 18.35936,-33.91633,0 18.35872,-33.91713,0 18.35815,-33.91792,0 18.35752,-33.9188,0 18.35686,-33.91965,0 18.35608,-33.92079,0 18.35546,-33.92168,0 18.35473,-33.92271,0 18.35409,-33.92369,0 18.35361,-33.92436,0 18.35283,-33.9255,0 18.35227,-33.92633,0 18.35157,-33.92736,0 18.35094,-33.9282,0 18.35037,-33.92899,0 18.3498,-33.92986,0 18.34913,-33.93077,0 18.34823,-33.93196,0 18.34762,-33.93283,0 18.34688,-33.93388,0 18.34621,-33.93475,0 18.34562,-33.93565,0 18.34515,-33.93649,0 18.34481,-33.93759,0 18.34494,-33.93858,0 18.34532,-33.93919,0 18.34588,-33.9397,0 18.34689,-33.94011,0 18.34803,-33.94017,0 18.34906,-33.94003,0 18.35003,-33.93975,0 18.35115,-33.93929,0 18.35205,-33.93883,0 18.35345,-33.93796,0 18.35434,-33.93736,0 18.35529,-33.93672,0 18.35636,-33.93585,0 18.35731,-33.93498,0 18.35815,-33.93425,0 18.35913,-33.93328,0 18.36004,-33.93235,0 18.36096,-33.93141,0 18.3617,-33.93053,0 18.36253,-33.92963,0 18.36348,-33.92857,0 18.36439,-33.92751,0 18.36494,-33.92688,0 18.36606,-33.92564,0 18.3669,-33.92468,0 18.36765,-33.92382,0 18.36874,-33.92271,0 18.36954,-33.92183,0 18.37034,-33.92099,0 18.37137,-33.91996,0 18.37469,-33.91629,0 18.37553,-33.91534,0 18.37646,-33.91428,0 18.37721,-33.91342,0 18.378,-33.91255,0 18.37895,-33.91145,0 18.37968,-33.91058,0 18.38041,-33.90976,0 18.3813,-33.9088,0 18.38207,-33.908,0 18.38282,-33.90716,0 18.38379,-33.90614,0 18.38453,-33.9053,0 18.38545,-33.90427,0 18.38614,-33.90343,0 18.3868,-33.90262,0 18.38775,-33.90152,0 18.3886,-33.90051,0 18.38934,-33.89967,0 18.39016,-33.89873,0 18.391,-33.89785,0 18.3919,-33.8969,0 18.39308,-33.89571,0 18.39386,-33.89501,0 18.39472,-33.89422,0 18.39588,-33.89323,0 18.39684,-33.8924,0 18.39806,-33.89145,0 18.39935,-33.89058,0 18.40033,-33.89012,0 18.40171,-33.88953,0 18.40311,-33.88898,0 18.40423,-33.88861,0 18.40548,-33.88826,0 18.40696,-33.88784,0 18.40815,-33.88756,0 18.40933,-33.88724,0 18.41068,-33.88692,0 18.4118,-33.88669,0 18.41297,-33.8864,0 18.414,-33.88621,0 18.41555,-33.88593,0 18.41673,-33.88582,0 18.41806,-33.8857,0 18.41891,-33.88568,0 18.42076,-33.88582,0 18.42207,-33.88593,0 18.42323,-33.88614,0 18.42458,-33.88632,0 18.42592,-33.88655,0 18.42693,-33.88672,0 18.42805,-33.88701,0 18.42916,-33.88733,0 18.43046,-33.88779,0 18.43147,-33.8882,0 18.43248,-33.88861,0 18.43346,-33.8891,0 18.43483,-33.88976,0 18.43567,-33.8903,0 18.43672,-33.89096,0 18.43775,-33.89172,0 18.43855,-33.89236,0 18.43921,-33.89301,0 18.43977,-33.89392,0 18.44005,-33.89484,0 18.44004,-33.89576,0 18.43975,-33.89645,0 18.43915,-33.89703,0 18.43825,-33.89745,0 18.43747,-33.89772,0 18.43618,-33.89804,0 18.43573,-33.89818,0 18.43517,-33.89832,0 18.43437,-33.8985,0 18.43386,-33.89864,0 18.43346,-33.89874,0 18.43271,-33.89892,0 18.43231,-33.89901,0 18.43192,-33.89914,0 18.43158,-33.89923,0 18.43082,-33.89939,0 18.43054,-33.89948,0 18.43025,-33.89952,0 18.42996,-33.8996,0 18.42945,-33.89981,0 18.42894,-33.90004,0 18.42842,-33.90032,0 18.42813,-33.90046,0 18.42785,-33.90064,0 18.42762,-33.90069,0 18.42755,-33.90033,0 18.42766,-33.89914,0 18.42772,-33.89886,0 18.42773,-33.89864,0 18.42785,-33.89836,0 18.42802,-33.8979,0 18.42819,-33.89766,0 18.42842,-33.89729,0 18.42859,-33.89701,0 18.42878,-33.89671,0 18.42923,-33.89616,0 18.4294,-33.89594,0 18.42957,-33.89566,0 18.43008,-33.89501,0 18.43025,-33.89473,0 18.43046,-33.89447,0 18.43077,-33.89408,0 18.43102,-33.89369,0 18.43136,-33.89314,0 18.4318,-33.8924,0 18.4322,-33.89182,0 18.43254,-33.89127,0 18.43282,-33.89067,0 18.43323,-33.88998,0 18.43349,-33.88943,0 18.43386,-33.88882,0 18.43416,-33.8882,0 18.43443,-33.88756,0 18.43467,-33.88673,0 18.43478,-33.88596,0 18.43483,-33.88527,0 18.43483,-33.88449,0 18.43472,-33.8837,0 18.43461,-33.88307,0 18.43439,-33.88243,0 18.43405,-33.88156,0 18.43377,-33.88097,0 18.43338,-33.88023,0 18.43293,-33.87955,0 18.43254,-33.879,0 18.43203,-33.8783,0 18.43164,-33.8779,0 18.43094,-33.87723,0 18.43037,-33.87681,0 18.4294,-33.87625,0 18.42867,-33.87584,0 18.42762,-33.87541,0 18.42665,-33.87509,0 18.42596,-33.8749,0 18.42497,-33.87474,0 18.42385,-33.8746,0 18.42295,-33.8746,0 18.42172,-33.87465,0 18.42076,-33.87469,0 18.41961,-33.87485,0 18.41852,-33.87504,0 18.41761,-33.87518,0 18.41645,-33.87543,0 18.41543,-33.87569,0 18.41434,-33.87597,0 18.41331,-33.87625,0 18.41246,-33.87648,0 18.41154,-33.87676,0 18.41051,-33.87709,0 18.40928,-33.87744,0 18.40834,-33.87774,0 18.40726,-33.87808,0 18.40614,-33.87854,0 18.4049,-33.879,0 18.40399,-33.87941,0 18.40311,-33.87982,0 18.40233,-33.88021,0 18.4013,-33.88072,0 18.40047,-33.88115,0 18.3997,-33.88156,0 18.39884,-33.88207,0 18.39798,-33.88258,0 18.39706,-33.88314,0 18.39633,-33.88358,0 18.39543,-33.88417,0 18.3947,-33.88463,0 18.39386,-33.88514,0 18.39306,-33.88565,0 18.39203,-33.88631,0 18.39117,-33.88682,0 18.39031,-33.88733,0 18.38957,-33.88784,0 18.38865,-33.88847,0 18.38791,-33.88896,0 18.38696,-33.88962,0 18.38625,-33.89012,0 18.38539,-33.89077,0 18.38461,-33.89136,0 18.38362,-33.89217,0 18.38293,-33.89268,0 18.38202,-33.89343,0 18.38125,-33.89401,0 18.38036,-33.89473,0 18.37968,-33.89529,0 18.37884,-33.89607,0 18.37818,-33.89669,0 18.37744,-33.89738,0 18.37665,-33.89813,0 18.37612,-33.89869,0 18.37542,-33.89937,0 18.37475,-33.90001,0 18.37379,-33.90102,0 18.37309,-33.90171,0 18.37239,-33.90244,0 18.37161,-33.90326,0 18.37097,-33.9039,0 18.37015,-33.90482,0 18.36943,-33.90558,0 18.36845,-33.9066,0 18.36785,-33.90733,0 18.36712,-33.90811,0 18.36617,-33.90911,0 18.36542,-33.90991,0 18.36456,-33.91084,0 18.36393,-33.91154,0 18.36309,-33.91251,0 18.36253,-33.91319,0 18.36168,-33.91415,0 18.36102,-33.91507,0 18.36021,-33.91615,0 18.35961,-33.91695,0 18.3589,-33.91801,0 18.35821,-33.91894,0 18.35765,-33.91978,0 18.35695,-33.92075,0 18.35627,-33.92173,0 18.35558,-33.92271,0 18.35501,-33.92355,0 18.35417,-33.92473,0 18.35346,-33.92578,0 18.35283,-33.92667,0 18.35221,-33.92757,0 18.35163,-33.92844,0 18.35014,-33.93059,0 18.34946,-33.93155,0 18.34877,-33.93262,0 18.34739,-33.93471,0 18.34621,-33.93658,0 18.34545,-33.93774,0 18.34481,-33.93883,0 18.34414,-33.93989,0 18.34351,-33.94101,0 18.34185,-33.94375,0 18.34145,-33.9445,0 18.34122,-33.94505,0 18.34122,-33.94552,0 18.34173,-33.94608,0 18.34219,-33.94622,0 18.34313,-33.94615,0 18.34397,-33.94592,0 18.34494,-33.94561,0 18.34625,-33.94515,0 18.34711,-33.94478,0 18.3482,-33.94426,0 18.34902,-33.94382,0 18.35014,-33.94313,0 18.35106,-33.94249,0 18.35192,-33.9418,0 18.35277,-33.94112,0 18.35352,-33.94044,0 18.35417,-33.93993,0 18.35513,-33.9391,0 18.35597,-33.93837,0 18.35675,-33.93764,0 18.35787,-33.93658,0 18.35883,-33.93567,0 18.35967,-33.93484,0 18.36033,-33.93416,0 18.36124,-33.93314,0 18.36185,-33.93237,0 18.3625,-33.93151,0 18.3633,-33.93039,0 18.36388,-33.92955,0 18.36454,-33.92848,0 18.3651,-33.92761,0 18.36572,-33.92679,0 18.36628,-33.92596,0 18.36707,-33.92487,0 18.3676,-33.92411,0 18.36845,-33.92294,0 18.36914,-33.92215,0 18.36966,-33.9215,0 18.37046,-33.92048,0 18.37116,-33.91965,0 18.37177,-33.91889,0 18.3725,-33.91805,0 18.37334,-33.91704,0 18.37396,-33.91631,0 18.37469,-33.91548,0 18.37555,-33.91452,0 18.37626,-33.91365,0 18.3771,-33.91269,0 18.37873,-33.91063,0 18.38173,-33.90693,0 18.38236,-33.90614,0 18.38321,-33.90527,0 18.38425,-33.90423,0 18.38506,-33.9034,0 18.38591,-33.9025,0 18.38668,-33.90175,0 18.38792,-33.90051,0 18.38876,-33.89964,0 18.38957,-33.89887,0 18.3905,-33.89795,0 18.39139,-33.89708,0 18.39235,-33.89621,0 18.39346,-33.89524,0 18.39443,-33.89441,0 18.39554,-33.89346,0 18.39649,-33.89273,0 18.39739,-33.892,0 18.39834,-33.89127,0 18.39947,-33.89044,0 18.40042,-33.88971,0 18.40164,-33.88891,0 18.40266,-33.88824,0 18.40364,-33.88765,0 18.40508,-33.88696,0 18.40645,-33.88644,0 18.40799,-33.88605,0 18.40922,-33.88586,0 18.41096,-33.88568,0 18.4124,-33.88556,0 18.41387,-33.8855,0 18.41533,-33.88541,0 18.41652,-33.88533,0 18.41795,-33.88528,0 18.41927,-33.88519,0 18.42047,-33.88514,0 18.4219,-33.88519,0 18.4231,-33.88528,0 18.4243,-33.88545,0 18.42558,-33.88564,0 18.42705,-33.88598,0 18.42805,-33.88628,0 18.42934,-33.88664,0 18.43077,-33.8871,0 18.43185,-33.88742,0 18.43299,-33.88779,0 18.4345,-33.88838,0 18.43546,-33.88887,0 18.43646,-33.88943,0 18.43736,-33.89003,0 18.43826,-33.89073,0 18.43906,-33.89152,0 18.43964,-33.89245,0 18.43998,-33.89343,0 18.44005,-33.89447,0 18.43994,-33.89529,0 18.43964,-33.89627,0 18.43895,-33.89729,0 18.43831,-33.89777,0 18.43741,-33.89813,0 18.43663,-33.89836,0 18.4358,-33.89855,0 18.43512,-33.89864,0 18.43461,-33.89873,0 18.43433,-33.89882,0 18.43399,-33.89886,0 18.43374,-33.89892,0 18.43346,-33.89901,0 18.433,-33.89911,0 18.43266,-33.8992,0 18.43237,-33.89925,0 18.43203,-33.89934,0 18.43174,-33.89943,0 18.43145,-33.89948,0 18.43111,-33.89957,0 18.43077,-33.89967,0 18.43025,-33.89981,0 18.43001,-33.89992,0 18.42979,-33.89999,0 18.42945,-33.9001,0 18.42916,-33.90018,0 18.42888,-33.90032,0 18.4285,-33.90042,0 18.42822,-33.90051,0 18.42796,-33.9006,0 18.42773,-33.90069,0 18.42751,-33.90074,0 18.42745,-33.90051,0 18.42743,-33.89969,0 18.42755,-33.89914,0 18.4276,-33.89891,0 18.42772,-33.89859,0 18.42785,-33.89822,0 18.42802,-33.89794,0 18.42811,-33.89772,0 18.42828,-33.89745,0 18.42854,-33.89706,0 18.42894,-33.8965,0 18.42934,-33.89594,0 18.42951,-33.89566,0 18.42973,-33.89539,0 18.42985,-33.89515,0 18.43008,-33.89492,0 18.43037,-33.8945,0 18.43054,-33.89426,0 18.4308,-33.89392,0 18.43114,-33.89355,0 18.43157,-33.89305,0 18.43203,-33.8924,0 18.43237,-33.89195,0 18.43287,-33.89122,0 18.43323,-33.89068,0 18.43357,-33.89022,0 18.43388,-33.88971,0 18.43426,-33.88905,0 18.43443,-33.88849,0 18.43461,-33.88774,0 18.43472,-33.88696,0 18.43467,-33.88614,0 18.43456,-33.88545,0 18.4345,-33.8849,0 18.43426,-33.88416,0 18.43397,-33.88333,0 18.43377,-33.8828,0 18.43323,-33.88169,0 18.43287,-33.88106,0 18.43231,-33.8803,0 18.43186,-33.87968,0 18.43134,-33.87918,0 18.43063,-33.87868,0 18.42962,-33.87817,0 18.42878,-33.87785,0 18.42788,-33.87767,0 18.42699,-33.87753,0 18.42602,-33.87746,0 18.42497,-33.87744,0 18.42402,-33.87746,0 18.42264,-33.87755,0 18.42172,-33.87762,0 18.42081,-33.87769,0 18.41964,-33.8779,0 18.41847,-33.87808,0 18.41763,-33.87822,0 18.41658,-33.87844,0 18.41537,-33.87867,0 18.41469,-33.87881,0 18.41343,-33.87904,0 18.41202,-33.87936,0 18.41118,-33.87955,0 18.41011,-33.87987,0 18.40925,-33.88011,0 18.40828,-33.88044,0 18.40742,-33.88072,0 18.40656,-33.88109,0 18.40569,-33.88147,0 18.40479,-33.88188,0 18.40406,-33.88225,0 18.40305,-33.88271,0 18.40204,-33.88326,0 18.40104,-33.88371,0 18.39987,-33.88421,0 18.3989,-33.88472,0 18.39784,-33.88522,0 18.39712,-33.8856,0 18.39615,-33.88617,0 18.3952,-33.88673,0 18.39453,-33.8871,0 18.39358,-33.8877,0 18.39263,-33.88829,0 18.39157,-33.889,0 18.39077,-33.88952,0 18.38994,-33.89008,0 18.38882,-33.89082,0 18.38797,-33.8914,0 18.38725,-33.89186,0 18.38619,-33.89254,0 18.38534,-33.8931,0 18.38439,-33.89378,0 18.3835,-33.89441,0 18.38259,-33.89506,0 18.38179,-33.89566,0 18.38099,-33.89627,0 18.38007,-33.89703,0 18.37915,-33.89776,0 18.37833,-33.8985,0 18.37772,-33.89909,0 18.37692,-33.89999,0 18.37612,-33.90083,0 18.37536,-33.90166,0 18.37469,-33.90244,0 18.37418,-33.90297,0 18.3734,-33.90385,0 18.37269,-33.90455,0 18.37183,-33.90546,0 18.37114,-33.90618,0 18.37054,-33.90674,0 18.36971,-33.90763,0 18.36885,-33.90842,0 18.36811,-33.90911,0 18.3674,-33.90985,0 18.36651,-33.91077,0 18.36582,-33.91154,0 18.36516,-33.91223,0 18.36439,-33.91317,0 18.36382,-33.91393,0 18.36297,-33.91493,0 18.3623,-33.91589,0 18.36176,-33.91656,0 18.36113,-33.91736,0 18.36045,-33.91832,0 18.35978,-33.91937,0 18.35941,-33.92001,0 18.35877,-33.92107,0 18.35815,-33.9221,0 18.3577,-33.92285,0 18.35703,-33.9239,0 18.35653,-33.92477,0 18.35598,-33.92559,0 18.35535,-33.92647,0 18.35462,-33.92761,0 18.35406,-33.92848,0 18.35335,-33.9296,0 18.35283,-33.93053,0 18.35226,-33.93142,0 18.35157,-33.93253,0 18.34958,-33.93567,0 18.34768,-33.93877,0 18.34526,-33.94276,0 18.34347,-33.94565,0 18.34179,-33.94826,0 18.34156,-33.94872,0 18.34162,-33.94917,0 18.34196,-33.94957,0 18.34259,-33.94971,0 18.34336,-33.94954,0 18.34391,-33.94925,0 18.34448,-33.9489,0 18.34499,-33.9485,0 18.34568,-33.94794,0 18.34654,-33.94724,0 18.3474,-33.94664,0 18.34806,-33.94606,0 18.34871,-33.94552,0 18.3493,-33.94505,0 18.35003,-33.94441,0 18.35059,-33.94395,0 18.35143,-33.94327,0 18.35233,-33.94249,0 18.35289,-33.94203,0 18.35625,-33.93924,0 18.35703,-33.93851,0 18.35771,-33.93768,0 18.35877,-33.9364,0 18.35939,-33.93553,0 18.36021,-33.93449,0 18.36101,-33.93338,0 18.3618,-33.93237,0 18.36241,-33.9315,0 18.36302,-33.93067,0 18.36387,-33.92953,0 18.36462,-33.92848,0 18.36539,-33.92757,0 18.36594,-33.9268,0 18.36673,-33.92578,0 18.36746,-33.925,0 18.36819,-33.92422,0 18.36903,-33.92345,0 18.37004,-33.92239,0 18.37086,-33.92159,0 18.37149,-33.92094,0 18.37245,-33.91988,0 18.37332,-33.91894,0 18.374,-33.91815,0 18.37497,-33.91708,0 18.3757,-33.91626,0 18.37646,-33.9154,0 18.37744,-33.91438,0 18.37833,-33.91342,0 18.37915,-33.91261,0 18.38013,-33.91159,0 18.3808,-33.91086,0 18.38186,-33.90971,0 18.3827,-33.90884,0 18.3836,-33.90793,0 18.38442,-33.90707,0 18.38545,-33.906,0 18.38618,-33.90523,0 18.38905,-33.90218,0 18.39272,-33.89836,0 18.3961,-33.8952,0 18.39722,-33.89424,0 18.39829,-33.89342,0 18.39924,-33.89282,0 18.40061,-33.89217,0 18.40181,-33.89175,0 18.40319,-33.89133,0 18.40479,-33.89108,0 18.40653,-33.89095,0 18.40782,-33.8909,0 18.4095,-33.89095,0 18.41079,-33.89099,0 18.41236,-33.89108,0 18.41366,-33.89115,0 18.41516,-33.89099,0 18.41623,-33.89073,0 18.41755,-33.88998,0 18.41841,-33.88914,0 18.41904,-33.88826,0 18.41921,-33.88733,0 18.41904,-33.88644,0 18.41841,-33.88565,0 18.41709,-33.88496,0 18.41595,-33.88458,0 18.4144,-33.88421,0 18.41325,-33.88394,0 18.41206,-33.8837,0 18.41068,-33.88361,0 18.40933,-33.88376,0 18.40799,-33.88412,0 18.40708,-33.88477,0 18.40656,-33.8856,0 18.40642,-33.88646,0 18.40658,-33.88719,0 18.40708,-33.88807,0 18.40771,-33.8887,0 18.40874,-33.88914,0 18.40972,-33.88911,0 18.41051,-33.88875,0 18.41112,-33.88815,0 18.41163,-33.88724,0 18.41223,-33.88631,0 18.41297,-33.88575,0 18.41404,-33.88545,0 18.41475,-33.88547,0 18.41589,-33.88568,0 18.4169,-33.88605,0 18.41802,-33.88646,0 18.41887,-33.88672,0 18.4202,-33.88687,0 18.42105,-33.88692,0 18.42213,-33.88691,0 18.42321,-33.88686,0 18.42419,-33.88686,0 18.42519,-33.88678,0 18.42592,-33.88678,0 18.42688,-33.88672,0 18.42808,-33.88668,0 18.42905,-33.88668,0 18.43024,-33.88678,0 18.43125,-33.88692,0 18.43203,-33.887,0 18.43311,-33.88719,0 18.43427,-33.88737,0 18.43523,-33.88756,0 18.43615,-33.88775,0 18.43718,-33.88803,0 18.43831,-33.88852,0 18.43898,-33.88893,0 18.43994,-33.88971,0 18.44055,-33.89026,0 18.44112,-33.89082,0 18.44167,-33.89172,0 18.4419,-33.89232,0 18.44187,-33.89329,0 18.44162,-33.89397,0 18.44123,-33.89461,0 18.44084,-33.8952,0 18.44032,-33.8958,0 18.43994,-33.8963,0 18.43946,-33.89697,0 18.43915,-33.89749,0 18.43884,-33.89804,0 18.43809,-33.89883,0 18.43741,-33.89923,0 18.43655,-33.89939,0 18.43569,-33.89948,0 18.43523,-33.89952,0 18.43495,-33.89951,0 18.43461,-33.89951,0 18.43427,-33.89955,0 18.43382,-33.89951,0 18.43351,-33.89952,0 18.4331,-33.89951,0 18.43248,-33.89948,0 18.43226,-33.89951,0 18.43191,-33.89952,0 18.43158,-33.89955,0 18.43136,-33.89955,0 18.431,-33.89962,0 18.43074,-33.89969,0 18.43054,-33.89971,0 18.43025,-33.89981,0 18.42991,-33.8999,0 18.42962,-33.90001,0 18.42929,-33.9001,0 18.42889,-33.90024,0 18.42859,-33.90036,0 18.42839,-33.90042,0 18.42813,-33.90055,0 18.42785,-33.90064,0 18.42762,-33.90074,0</coordinates>
      </LineString>
    </Placemark>
  </Document>
</kml>
