<?xml version="1.0" encoding="UTF-8"?>
<kml xmlns="http://www.opengis.net/kml/2.2">
  <Document>
    <name>FR24 3e71a3fe</name>
    <Placemark>
      <name>FR24 3e71a3fe</name>
      <Style><LineStyle><color>ff0000ff</color><width>4</width></LineStyle></Style>
      <LineString>
        <tessellate>1</tessellate>
        <coordinates>18.72648,-33.95357,0 18.72631,-33.95464,0 18.72586,-33.95512,0 18.7254,-33.95534,0 18.72362,-33.95553,0 18.72278,-33.95549,0 18.72188,-33.95544,0 18.72093,-33.9554,0 18.72013,-33.95539,0 18.71925,-33.9554,0 18.71835,-33.95544,0 18.7175,-33.95548,0 18.71664,-33.95553,0 18.71555,-33.95558,0 18.71465,-33.95563,0 18.71358,-33.95567,0 18.71269,-33.95576,0 18.71151,-33.95586,0 18.71061,-33.9559,0 18.70932,-33.95599,0 18.70831,-33.95609,0 18.70731,-33.95613,0 18.7063,-33.95618,0 18.70305,-33.95641,0 18.69822,-33.95669,0 18.69727,-33.95673,0 18.6961,-33.95674,0 18.69273,-33.95686,0 18.69044,-33.95691,0 18.68923,-33.95692,0 18.6882,-33.95688,0 18.68677,-33.95688,0 18.68578,-33.95686,0 18.68437,-33.95683,0 18.68337,-33.95677,0 18.68202,-33.95674,0 18.68088,-33.95669,0 18.67962,-33.95665,0 18.67865,-33.9566,0 18.67754,-33.9565,0 18.67625,-33.95645,0 18.67521,-33.95637,0 18.67155,-33.95613,0 18.66712,-33.95576,0 18.66336,-33.95544,0 18.65916,-33.95503,0 18.65792,-33.9549,0 18.65664,-33.95485,0 18.65547,-33.95474,0 18.65445,-33.95471,0 18.6533,-33.95464,0 18.65227,-33.95455,0 18.65108,-33.95448,0 18.65025,-33.95444,0 18.64918,-33.95441,0 18.64789,-33.95439,0 18.64666,-33.95436,0 18.64565,-33.95435,0 18.64441,-33.9543,0 18.64363,-33.95432,0 18.64256,-33.95425,0 18.64156,-33.95425,0 18.64083,-33.95421,0 18.6401,-33.95421,0 18.63934,-33.95418,0 18.63865,-33.95418,0 18.63791,-33.95413,0 18.63601,-33.95412,0 18.63545,-33.95412,0 18.63476,-33.95409,0 18.6343,-33.95413,0 18.63373,-33.95427,0 18.63327,-33.95455,0 18.63287,-33.95492,0 18.63248,-33.95554,0 18.6323,-33.95604,0 18.63214,-33.95659,0 18.63203,-33.95732,0 18.63197,-33.95796,0 18.63197,-33.95856,0 18.63201,-33.95921,0 18.63203,-33.95998,0 18.63207,-33.96065,0 18.63213,-33.96125,0 18.63218,-33.96186,0 18.63224,-33.96256,0 18.63224,-33.96316,0 18.6323,-33.96381,0 18.6323,-33.96451,0 18.63236,-33.96501,0 18.63236,-33.96579,0 18.63236,-33.96648,0 18.63241,-33.96707,0 18.63241,-33.96796,0 18.63235,-33.96865,0 18.63235,-33.96935,0 18.6323,-33.97015,0 18.63224,-33.97084,0 18.63218,-33.97159,0 18.63207,-33.97233,0 18.63192,-33.97334,0 18.63184,-33.9741,0 18.63161,-33.97513,0 18.63147,-33.97586,0 18.63124,-33.97682,0 18.63091,-33.97792,0 18.63057,-33.97865,0 18.63007,-33.97946,0 18.62934,-33.98044,0 18.62864,-33.98109,0 18.62777,-33.98186,0 18.62698,-33.98245,0 18.62617,-33.98309,0 18.62519,-33.98383,0 18.62417,-33.98453,0 18.62328,-33.98506,0 18.62246,-33.98555,0 18.62165,-33.98602,0 18.62062,-33.98658,0 18.61937,-33.98728,0 18.61846,-33.98772,0 18.6174,-33.98822,0 18.61616,-33.98877,0 18.61532,-33.98914,0 18.61415,-33.98959,0 18.6129,-33.99002,0 18.61196,-33.99028,0 18.61061,-33.99063,0 18.60961,-33.99078,0 18.60843,-33.99092,0 18.60714,-33.99083,0 18.60603,-33.99068,0 18.60477,-33.99035,0 18.60383,-33.99005,0 18.60288,-33.98969,0 18.60176,-33.98927,0 18.60083,-33.98891,0 18.59974,-33.98854,0 18.59851,-33.98827,0 18.59756,-33.98811,0 18.59655,-33.98808,0 18.59531,-33.98813,0 18.59391,-33.98822,0 18.59285,-33.98831,0 18.59178,-33.9884,0 18.59038,-33.98849,0 18.58955,-33.98858,0 18.58835,-33.98867,0 18.58713,-33.98882,0 18.58583,-33.98891,0 18.58475,-33.989,0 18.5836,-33.98909,0 18.58225,-33.98923,0 18.58108,-33.98936,0 18.57962,-33.98955,0 18.57857,-33.98965,0 18.57742,-33.98974,0 18.57388,-33.99007,0 18.57256,-33.99019,0 18.5711,-33.99023,0 18.56993,-33.9903,0 18.56903,-33.99037,0 18.56787,-33.99044,0 18.56656,-33.99055,0 18.56518,-33.99068,0 18.56403,-33.99072,0 18.56272,-33.99081,0 18.56163,-33.99088,0 18.56049,-33.99096,0 18.559,-33.99105,0 18.55563,-33.9912,0 18.55456,-33.99124,0 18.55098,-33.99133,0 18.54641,-33.99142,0 18.54257,-33.99147,0 18.538,-33.99147,0 18.53326,-33.99147,0 18.53186,-33.99147,0 18.52724,-33.99151,0 18.52514,-33.99156,0 18.52381,-33.99165,0 18.52238,-33.99174,0 18.52129,-33.99179,0 18.52015,-33.99189,0 18.51877,-33.99198,0 18.51757,-33.99202,0 18.5165,-33.99211,0 18.51516,-33.9922,0 18.5137,-33.99234,0 18.51269,-33.99248,0 18.51162,-33.99258,0 18.51036,-33.99272,0 18.50888,-33.99284,0 18.50765,-33.99298,0 18.50658,-33.9931,0 18.50518,-33.99326,0 18.50384,-33.99339,0 18.50249,-33.99353,0 18.50114,-33.99371,0 18.50018,-33.99384,0 18.49886,-33.99398,0 18.49795,-33.99408,0 18.49694,-33.99417,0 18.49599,-33.99426,0 18.49447,-33.99435,0 18.49363,-33.9944,0 18.49246,-33.99449,0 18.49136,-33.99454,0 18.49016,-33.99463,0 18.48902,-33.99468,0 18.48782,-33.99472,0 18.48674,-33.99477,0 18.48547,-33.99468,0 18.4845,-33.99449,0 18.48332,-33.99417,0 18.48231,-33.99376,0 18.4813,-33.99326,0 18.48066,-33.99277,0 18.47979,-33.99202,0 18.47912,-33.99137,0 18.47826,-33.99044,0 18.47771,-33.98973,0 18.47689,-33.98872,0 18.47631,-33.98783,0 18.47564,-33.98694,0 18.47514,-33.98611,0 18.47454,-33.98509,0 18.47403,-33.98425,0 18.47351,-33.98341,0 18.47301,-33.98241,0 18.47242,-33.98137,0 18.47205,-33.98062,0 18.47161,-33.97966,0 18.47116,-33.97874,0 18.47071,-33.97764,0 18.47025,-33.97662,0 18.46985,-33.97573,0 18.46953,-33.97485,0 18.46905,-33.97373,0 18.4687,-33.9728,0 18.46824,-33.9716,0 18.4679,-33.9707,0 18.46746,-33.96954,0 18.46712,-33.96881,0 18.4667,-33.96763,0 18.46639,-33.96675,0 18.466,-33.96552,0 18.46567,-33.96465,0 18.46527,-33.96332,0 18.46498,-33.96233,0 18.4646,-33.96103,0 18.46432,-33.96011,0 18.46393,-33.95883,0 18.46361,-33.95762,0 18.46338,-33.95665,0 18.46309,-33.95563,0 18.46281,-33.95469,0 18.46241,-33.95348,0 18.46207,-33.95255,0 18.46167,-33.95129,0 18.46129,-33.95018,0 18.46098,-33.94929,0 18.46058,-33.94803,0 18.46028,-33.94707,0 18.45995,-33.94615,0 18.45932,-33.94436,0 18.45894,-33.94327,0 18.45863,-33.94231,0 18.45835,-33.94142,0 18.45737,-33.93826,0 18.45709,-33.93732,0 18.45675,-33.93613,0 18.45636,-33.93471,0 18.45617,-33.93379,0 18.45594,-33.9329,0 18.45572,-33.93193,0 18.45552,-33.93118,0 18.45531,-33.93011,0 18.45514,-33.92941,0 18.4549,-33.92834,0 18.45474,-33.92741,0 18.45457,-33.92633,0 18.45445,-33.92555,0 18.45428,-33.92448,0 18.45417,-33.92363,0 18.45412,-33.92281,0 18.45406,-33.92178,0 18.454,-33.92085,0 18.45389,-33.91988,0 18.45384,-33.91914,0 18.45378,-33.91827,0 18.45371,-33.91759,0 18.45367,-33.91676,0 18.45356,-33.91589,0 18.45348,-33.91526,0 18.45339,-33.91438,0 18.45328,-33.91388,0 18.45305,-33.91296,0 18.45288,-33.91232,0 18.45271,-33.91168,0 18.45245,-33.91103,0 18.45215,-33.91049,0 18.45182,-33.90985,0 18.45143,-33.90921,0 18.45097,-33.90856,0 18.45051,-33.90795,0 18.44997,-33.90733,0 18.44936,-33.90674,0 18.44885,-33.90623,0 18.44822,-33.90567,0 18.44765,-33.90511,0 18.44713,-33.90469,0 18.44644,-33.90413,0 18.44587,-33.90367,0 18.4453,-33.9032,0 18.44473,-33.90274,0 18.4441,-33.90227,0 18.44341,-33.90184,0 18.44278,-33.90144,0 18.44221,-33.90111,0 18.44147,-33.90074,0 18.44094,-33.90047,0 18.44038,-33.90019,0 18.43964,-33.8999,0 18.43889,-33.89962,0 18.43825,-33.89946,0 18.43763,-33.89934,0 18.43719,-33.89928,0 18.43624,-33.89914,0 18.43563,-33.89911,0 18.435,-33.89901,0 18.43414,-33.89897,0 18.43334,-33.89897,0 18.4326,-33.89901,0 18.43181,-33.89914,0 18.43157,-33.8992,0 18.4313,-33.89928,0 18.43102,-33.89937,0 18.43071,-33.89943,0 18.43029,-33.89955,0 18.43001,-33.8996,0 18.42951,-33.89969,0 18.42923,-33.89973,0 18.42899,-33.89976,0 18.42878,-33.89978,0 18.42848,-33.89971,0 18.42825,-33.89967,0 18.42802,-33.89962,0 18.42779,-33.89957,0 18.42751,-33.89952,0 18.4271,-33.89941,0 18.42676,-33.89934,0 18.42632,-33.89919,0 18.42558,-33.89891,0 18.42516,-33.89878,0 18.42453,-33.89855,0 18.42407,-33.89832,0 18.42368,-33.89795,0 18.42351,-33.89749,0 18.42362,-33.8968,0 18.42379,-33.8963,0 18.42442,-33.89566,0 18.42525,-33.89525,0 18.42603,-33.89507,0 18.42682,-33.89502,0 18.42777,-33.89511,0 18.42889,-33.89539,0 18.42985,-33.89571,0 18.43082,-33.89618,0 18.43158,-33.89653,0 18.43237,-33.89701,0 18.43306,-33.89738,0 18.43377,-33.8979,0 18.43439,-33.89841,0 18.43506,-33.89906,0 18.43569,-33.89952,0 18.43632,-33.89999,0 18.43713,-33.9006,0 18.43781,-33.90111,0 18.43853,-33.90166,0 18.43918,-33.90213,0 18.43994,-33.90271,0 18.44083,-33.90335,0 18.44158,-33.90395,0 18.44227,-33.90446,0 18.44318,-33.90511,0 18.44386,-33.90569,0 18.44459,-33.90623,0 18.4453,-33.90674,0 18.44851,-33.90907,0 18.44924,-33.90967,0 18.45016,-33.91037,0 18.45085,-33.91093,0 18.45165,-33.91163,0 18.45232,-33.91219,0 18.45322,-33.91301,0 18.454,-33.91368,0 18.45479,-33.91443,0 18.45557,-33.91521,0 18.45623,-33.91587,0 18.45697,-33.9167,0 18.45776,-33.9175,0 18.4584,-33.91824,0 18.45892,-33.9188,0 18.45983,-33.91983,0 18.46052,-33.92057,0 18.46112,-33.9213,0 18.46178,-33.92206,0 18.46241,-33.92289,0 18.46314,-33.92381,0 18.46367,-33.92453,0 18.46432,-33.92546,0 18.46477,-33.92624,0 18.46521,-33.92709,0 18.46572,-33.92816,0 18.46617,-33.92912,0 18.46656,-33.93004,0 18.46701,-33.93105,0 18.46739,-33.93193,0 18.46774,-33.93256,0 18.46813,-33.93346,0 18.46853,-33.93435,0 18.46882,-33.93504,0 18.46916,-33.93593,0 18.46945,-33.93691,0 18.4697,-33.93773,0 18.46996,-33.93867,0 18.4702,-33.9397,0 18.47037,-33.94057,0 18.47043,-33.94157,0 18.47048,-33.94221,0 18.47043,-33.94336,0 18.47037,-33.94423,0 18.47025,-33.94501,0 18.47004,-33.94615,0 18.46987,-33.9472,0 18.46973,-33.94799,0 18.46956,-33.94892,0 18.46936,-33.94991,0 18.46919,-33.95082,0 18.46893,-33.95171,0 18.4687,-33.95264,0 18.46848,-33.95371,0 18.46819,-33.95476,0 18.46796,-33.95563,0 18.46773,-33.95669,0 18.4675,-33.95767,0 18.46734,-33.95865,0 18.46716,-33.95953,0 18.46701,-33.96066,0 18.46687,-33.96149,0 18.46664,-33.96251,0 18.46651,-33.9635,0 18.4663,-33.96442,0 18.46611,-33.96533,0 18.46596,-33.96624,0 18.46577,-33.96725,0 18.46561,-33.96812,0 18.4655,-33.96912,0 18.46533,-33.9701,0 18.46522,-33.97092,0 18.4651,-33.97179,0 18.46499,-33.97298,0 18.46488,-33.97385,0 18.46454,-33.97705,0 18.46453,-33.97792,0 18.46449,-33.97884,0 18.46453,-33.97987,0 18.46454,-33.98103,0 18.46458,-33.98197,0 18.46458,-33.9829,0 18.46464,-33.98407,0 18.46464,-33.98495,0 18.46471,-33.98607,0 18.46476,-33.9869,0 18.46476,-33.98779,0 18.46477,-33.98886,0 18.46477,-33.98973,0 18.46482,-33.99344,0 18.46477,-33.99646,0 18.46476,-33.99933,0 18.46481,-34.00338,0 18.46487,-34.00655,0 18.46488,-34.00786,0 18.46487,-34.00879,0 18.46488,-34.00969,0 18.46493,-34.01125,0 18.46494,-34.01221,0 18.46494,-34.01331,0 18.46499,-34.0144,0 18.46498,-34.01558,0 18.46504,-34.01684,0 18.4651,-34.01805,0 18.46516,-34.01926,0 18.46521,-34.02028,0 18.46522,-34.02109,0 18.46527,-34.02237,0 18.46533,-34.02335,0 18.46538,-34.02466,0 18.46544,-34.02562,0 18.4655,-34.02658,0 18.46555,-34.02791,0 18.46556,-34.0289,0 18.46566,-34.03006,0 18.46579,-34.03294,0 18.46601,-34.03727,0 18.46607,-34.04044,0 18.46607,-34.04403,0 18.46607,-34.04747,0 18.46601,-34.04849,0 18.46605,-34.04961,0 18.46607,-34.0511,0 18.46607,-34.05212,0 18.46613,-34.05315,0 18.46622,-34.05441,0 18.46628,-34.0556,0 18.46639,-34.05652,0 18.46651,-34.05785,0 18.46659,-34.05887,0 18.46664,-34.0599,0 18.46676,-34.06111,0 18.46687,-34.06209,0 18.46695,-34.0632,0 18.46706,-34.0643,0 18.46739,-34.06744,0 18.46785,-34.07085,0 18.46819,-34.07314,0 18.46865,-34.07638,0 18.46888,-34.07759,0 18.46899,-34.07833,0 18.46916,-34.07954,0 18.46931,-34.08069,0 18.46951,-34.08173,0 18.46968,-34.08285,0 18.47008,-34.08597,0 18.47054,-34.08988,0 18.47093,-34.09291,0 18.47134,-34.09714,0 18.47145,-34.0984,0 18.47151,-34.09937,0 18.47151,-34.10031,0 18.47144,-34.10156,0 18.47138,-34.10262,0 18.47127,-34.10371,0 18.47111,-34.10473,0 18.47088,-34.10587,0 18.47065,-34.10683,0 18.47025,-34.10813,0 18.46985,-34.10925,0 18.46942,-34.11021,0 18.46886,-34.1114,0 18.46842,-34.11227,0 18.4679,-34.11311,0 18.46716,-34.11427,0 18.4667,-34.11506,0 18.46607,-34.11599,0 18.4655,-34.1169,0 18.46476,-34.118,0 18.46421,-34.11882,0 18.46355,-34.11972,0 18.46286,-34.12074,0 18.46224,-34.12167,0 18.46161,-34.1226,0 18.46075,-34.12381,0 18.46012,-34.12465,0 18.45955,-34.12549,0 18.45748,-34.12834,0 18.45566,-34.13094,0 18.45395,-34.13351,0 18.45331,-34.13443,0 18.4521,-34.13631,0 18.45098,-34.13814,0 18.45045,-34.13899,0 18.4498,-34.14001,0 18.4493,-34.14084,0 18.44868,-34.1418,0 18.4475,-34.14368,0 18.44705,-34.14445,0 18.44645,-34.14542,0 18.44593,-34.14621,0 18.44524,-34.14728,0 18.44464,-34.14816,0 18.44408,-34.14899,0 18.44336,-34.14998,0 18.44278,-34.15072,0 18.44193,-34.15156,0 18.44106,-34.15224,0 18.43994,-34.15292,0 18.43881,-34.15338,0 18.43752,-34.15379,0 18.43609,-34.15398,0 18.43483,-34.15407,0 18.43346,-34.15398,0 18.43214,-34.15384,0 18.43085,-34.15361,0 18.42957,-34.15328,0 18.42856,-34.15297,0 18.42739,-34.15263,0 18.42596,-34.15216,0 18.42503,-34.15187,0 18.42374,-34.15146,0 18.4225,-34.151,0 18.4215,-34.15068,0 18.42015,-34.15027,0 18.41914,-34.1499,0 18.41774,-34.14949,0 18.4164,-34.14909,0 18.41537,-34.14877,0 18.41406,-34.1484,0 18.41297,-34.14802,0 18.41163,-34.14761,0 18.4104,-34.14714,0 18.40939,-34.1467,0 18.40832,-34.14615,0 18.40708,-34.14546,0 18.40602,-34.14468,0 18.40507,-34.14391,0 18.40417,-34.14313,0 18.40364,-34.14257,0 18.40272,-34.14162,0 18.40193,-34.1408,0 18.40098,-34.13992,0 18.40004,-34.13923,0 18.39924,-34.13873,0 18.39804,-34.13806,0 18.39712,-34.13764,0 18.39575,-34.13708,0 18.39489,-34.1368,0 18.39319,-34.13631,0 18.39203,-34.13606,0 18.39095,-34.1358,0 18.38951,-34.13554,0 18.38814,-34.13536,0 18.38691,-34.13516,0 18.38556,-34.13493,0 18.38419,-34.13475,0 18.38299,-34.13461,0 18.38167,-34.13448,0 18.38046,-34.13429,0 18.37898,-34.13415,0 18.37794,-34.13402,0 18.37646,-34.13382,0 18.37532,-34.13368,0 18.37368,-34.13347,0 18.36994,-34.13308,0 18.36605,-34.1328,0 18.36267,-34.13256,0 18.36136,-34.13243,0 18.36016,-34.13224,0 18.35883,-34.13196,0 18.35771,-34.13159,0 18.35667,-34.13122,0 18.35546,-34.13066,0 18.3544,-34.12999,0 18.35356,-34.12939,0 18.35283,-34.1287,0 18.3521,-34.12793,0 18.35152,-34.12717,0 18.35104,-34.12642,0 18.35048,-34.12537,0 18.3502,-34.12461,0 18.34986,-34.12344,0 18.34974,-34.12246,0 18.34963,-34.12152,0 18.34963,-34.1206,0 18.34957,-34.11977,0 18.34958,-34.11864,0 18.34957,-34.11758,0 18.34957,-34.1166,0 18.34958,-34.11571,0 18.34957,-34.11474,0 18.34958,-34.1136,0 18.34958,-34.11264,0 18.34957,-34.11148,0 18.34963,-34.1105,0 18.34963,-34.10944,0 18.34963,-34.10855,0 18.34963,-34.10568,0 18.3494,-34.10161,0 18.34917,-34.09937,0 18.34902,-34.09822,0 18.34891,-34.09731,0 18.34879,-34.09593,0 18.34868,-34.09502,0 18.34863,-34.0941,0 18.34854,-34.09295,0 18.34846,-34.09181,0 18.3484,-34.09053,0 18.34834,-34.08939,0 18.34814,-34.08611,0 18.34814,-34.08476,0 18.34812,-34.08376,0 18.34814,-34.08276,0 18.34814,-34.08164,0 18.34812,-34.08064,0 18.34814,-34.07968,0 18.3482,-34.07852,0 18.34831,-34.07549,0 18.34837,-34.07456,0 18.3484,-34.07341,0 18.34854,-34.0701,0 18.34879,-34.06586,0 18.34906,-34.06162,0 18.34929,-34.05859,0 18.34963,-34.0551,0 18.34975,-34.05414,0 18.34986,-34.05315,0 18.34991,-34.05194,0 18.35003,-34.05075,0 18.35014,-34.04961,0 18.35025,-34.04851,0 18.35037,-34.04728,0 18.35042,-34.04622,0 18.35049,-34.04514,0 18.35049,-34.04426,0 18.35049,-34.04328,0 18.35048,-34.04219,0 18.35048,-34.04105,0 18.35042,-34.03995,0 18.35036,-34.03885,0 18.35031,-34.03784,0 18.35025,-34.03679,0 18.3502,-34.03574,0 18.3502,-34.0349,0 18.35019,-34.03413,0 18.35014,-34.03281,0 18.35014,-34.03194,0 18.35014,-34.02936,0 18.35014,-34.02649,0 18.35014,-34.02382,0 18.35014,-34.02131,0 18.34986,-34.01772,0 18.3498,-34.01688,0 18.34969,-34.01596,0 18.34963,-34.01479,0 18.34957,-34.0139,0 18.34951,-34.01302,0 18.3494,-34.0119,0 18.34919,-34.01093,0 18.34891,-34.0101,0 18.34848,-34.00925,0 18.34785,-34.00837,0 18.347,-34.0074,0 18.34621,-34.00662,0 18.34538,-34.00584,0 18.34465,-34.00529,0 18.34379,-34.00464,0 18.34291,-34.00392,0 18.34213,-34.00334,0 18.34128,-34.00255,0 18.34067,-34.00186,0 18.33988,-34.00081,0 18.33939,-33.99994,0 18.33898,-33.99898,0 18.33876,-33.99784,0 18.3387,-33.9949,0 18.33899,-33.99356,0 18.33933,-33.9924,0 18.33971,-33.99147,0 18.34022,-33.99023,0 18.34076,-33.98909,0 18.34139,-33.98785,0 18.34368,-33.98378,0 18.34505,-33.98137,0 18.34672,-33.97861,0 18.34814,-33.9762,0 18.35126,-33.97105,0 18.35346,-33.96735,0 18.35423,-33.96593,0 18.35489,-33.96456,0 18.35546,-33.96335,0 18.35636,-33.96112,0 18.35698,-33.95943,0 18.35735,-33.95842,0 18.35771,-33.95741,0 18.35821,-33.95599,0 18.35861,-33.95478,0 18.35896,-33.95371,0 18.35928,-33.95256,0 18.35967,-33.95128,0 18.36,-33.95009,0 18.36027,-33.94915,0 18.36062,-33.94771,0 18.3609,-33.94678,0 18.36124,-33.94547,0 18.36152,-33.94446,0 18.3618,-33.9435,0 18.36205,-33.94226,0 18.36222,-33.94114,0 18.36239,-33.93989,0 18.36256,-33.93891,0 18.36269,-33.93796,0 18.3629,-33.93658,0 18.36314,-33.93539,0 18.36336,-33.93444,0 18.36365,-33.93337,0 18.36399,-33.93221,0 18.36433,-33.93104,0 18.36466,-33.93004,0 18.36508,-33.92895,0 18.36544,-33.92807,0 18.36599,-33.9268,0 18.36651,-33.92564,0 18.36714,-33.92439,0 18.36777,-33.92331,0 18.3684,-33.92225,0 18.36908,-33.92122,0 18.36966,-33.92038,0 18.37037,-33.91951,0 18.37133,-33.91823,0 18.372,-33.9174,0 18.37278,-33.91644,0 18.37343,-33.91563,0 18.37419,-33.91479,0 18.37498,-33.91386,0 18.37572,-33.91302,0 18.37652,-33.91214,0 18.37749,-33.91118,0 18.37835,-33.91028,0 18.37923,-33.90939,0 18.38013,-33.90852,0 18.38114,-33.90752,0 18.3819,-33.90679,0 18.38299,-33.90577,0 18.38385,-33.90497,0 18.38482,-33.90413,0 18.38551,-33.90358,0 18.38688,-33.90241,0 18.38802,-33.90157,0 18.389,-33.90088,0 18.38999,-33.90019,0 18.39134,-33.89932,0 18.39214,-33.89887,0 18.39352,-33.89813,0 18.39459,-33.89763,0 18.39603,-33.89706,0 18.3975,-33.89662,0 18.39901,-33.89622,0 18.40008,-33.89603,0 18.40165,-33.89575,0 18.40307,-33.89561,0 18.40405,-33.89552,0 18.40559,-33.89548,0 18.40681,-33.89548,0 18.40805,-33.89557,0 18.40971,-33.89576,0 18.41114,-33.89599,0 18.41224,-33.89621,0 18.41349,-33.89655,0 18.41497,-33.89697,0 18.41606,-33.89729,0 18.41721,-33.89766,0 18.41858,-33.89817,0 18.41967,-33.89855,0 18.42093,-33.89901,0 18.42196,-33.89943,0 18.4235,-33.90009,0 18.4243,-33.90046,0 18.42558,-33.90102,0 18.42659,-33.90148,0 18.42779,-33.90204,0 18.42872,-33.90248,0 18.42985,-33.90289,0 18.43102,-33.90326,0 18.43197,-33.90343,0 18.43299,-33.90363,0 18.43391,-33.90367,0 18.435,-33.90363,0 18.43584,-33.90353,0 18.43655,-33.90334,0 18.43752,-33.90298,0 18.43809,-33.9026,0 18.43861,-33.90204,0 18.43884,-33.90162,0 18.43912,-33.90083,0 18.43915,-33.90033,0 18.43909,-33.89969,0 18.43895,-33.8992,0 18.4387,-33.89873,0 18.43838,-33.89841,0 18.43803,-33.89813,0 18.43758,-33.8979,0 18.43708,-33.89781,0 18.43657,-33.89777,0 18.4362,-33.89776,0 18.43562,-33.89781,0 18.43517,-33.8979,0 18.43461,-33.89804,0 18.4341,-33.89822,0 18.4336,-33.89836,0 18.43288,-33.89859,0 18.43243,-33.89878,0 18.43198,-33.89891,0 18.4314,-33.89911,0 18.43082,-33.89925,0 18.43042,-33.89939,0 18.42985,-33.89952,0 18.42939,-33.89967,0 18.42906,-33.89978,0 18.42871,-33.89985,0 18.42828,-33.89996,0 18.42788,-33.90005,0 18.42766,-33.90015,0 18.42743,-33.90033,0 18.42728,-33.90055,0 18.42722,-33.90083,0 18.42716,-33.90106,0 18.42705,-33.90083,0 18.42648,-33.90027,0 18.42613,-33.89994,0 18.42592,-33.89969,0 18.42556,-33.89939,0 18.42527,-33.89911,0 18.42505,-33.89883,0 18.42482,-33.89836,0 18.4247,-33.89799,0 18.42464,-33.89762,0 18.42476,-33.89697,0 18.42491,-33.89648,0 18.42516,-33.89603,0 18.4255,-33.89566,0 18.42602,-33.89534,0 18.42648,-33.89511,0 18.42704,-33.89493,0 18.42772,-33.89479,0 18.42833,-33.8947,0 18.42911,-33.89468,0 18.43001,-33.89479,0 18.43097,-33.89493,0 18.43163,-33.89515,0 18.4326,-33.89548,0 18.43332,-33.89575,0 18.4342,-33.89618,0 18.435,-33.89658,0 18.43601,-33.89713,0 18.43666,-33.89753,0 18.43758,-33.89808,0 18.43831,-33.89864,0 18.43893,-33.89909,0 18.43958,-33.89962,0 18.44044,-33.90032,0 18.44107,-33.90083,0 18.44184,-33.90152,0 18.44251,-33.90207,0 18.44324,-33.90269,0 18.44391,-33.90331,0 18.44473,-33.904,0 18.44536,-33.90455,0 18.44621,-33.90527,0 18.44683,-33.90587,0 18.44765,-33.9066,0 18.44833,-33.90716,0 18.44913,-33.90791,0 18.44975,-33.90848,0 18.45062,-33.90926,0 18.45137,-33.90999,0 18.45217,-33.91074,0 18.45271,-33.91136,0 18.45356,-33.91237,0 18.45406,-33.91306,0 18.45451,-33.91379,0 18.45496,-33.91457,0 18.45541,-33.91557,0 18.45572,-33.91642,0 18.456,-33.91735,0 18.45629,-33.91843,0 18.45647,-33.91942,0 18.45669,-33.92048,0 18.45686,-33.9212,0 18.45703,-33.92221,0 18.4572,-33.92313,0 18.45737,-33.92401,0 18.45753,-33.92496,0 18.45772,-33.92583,0 18.45793,-33.92688,0 18.45806,-33.92788,0 18.45821,-33.92857,0 18.4584,-33.92974,0 18.45866,-33.93073,0 18.45899,-33.93178,0 18.45932,-33.93267,0 18.45967,-33.93361,0 18.45995,-33.93449,0 18.46029,-33.93546,0 18.46056,-33.93626,0 18.4609,-33.93727,0 18.46115,-33.93816,0 18.46149,-33.93928,0 18.46178,-33.94017,0 18.46213,-33.94125,0 18.4623,-33.94199,0 18.46264,-33.9431,0 18.46286,-33.94395,0 18.4631,-33.94505,0 18.46337,-33.94601,0 18.46359,-33.94693,0 18.4639,-33.94817,0 18.46418,-33.94906,0 18.46443,-33.95009,0 18.4647,-33.95124,0 18.46487,-33.95218,0 18.46499,-33.95316,0 18.46516,-33.95432,0 18.46527,-33.95525,0 18.46539,-33.95637,0 18.46544,-33.9573,0 18.46556,-33.95823,0 18.46573,-33.95935,0 18.46583,-33.96025,0 18.466,-33.96135,0 18.46611,-33.96227,0 18.4663,-33.96335,0 18.46642,-33.96428,0 18.46659,-33.96512,0 18.46678,-33.96648,0 18.46684,-33.96744,0 18.46695,-33.9684,0 18.46745,-33.97219,0 18.46785,-33.97559,0 18.46813,-33.97908,0 18.4683,-33.98222,0 18.46835,-33.9836,0 18.46835,-33.9846,0 18.46841,-33.98566,0 18.46841,-33.98708,0 18.46847,-33.98813,0 18.46858,-33.99275,0 18.46853,-33.99612,0 18.46842,-34.00003,0 18.46836,-34.00236,0 18.46836,-34.00366,0 18.4683,-34.00479,0 18.46825,-34.00613,0 18.46825,-34.0072,0 18.46819,-34.00827,0 18.46819,-34.00937,0 18.46807,-34.01326,0 18.46785,-34.01786,0 18.46774,-34.02122,0 18.46756,-34.02461,0 18.46734,-34.02837,0 18.46716,-34.0329,0 18.46706,-34.03619,0 18.46682,-34.04109,0 18.46667,-34.04558,0 18.46662,-34.04956,0 18.46667,-34.05167,0 18.4667,-34.05305,0 18.46676,-34.05445,0 18.46676,-34.05552,0 18.46678,-34.05661,0 18.46678,-34.05766,0 18.46684,-34.05894,0 18.46684,-34.05995,0 18.46693,-34.06343,0 18.46706,-34.06696,0 18.46712,-34.0714,0 18.46733,-34.07559,0 18.46756,-34.07922,0 18.46768,-34.08078,0 18.46774,-34.08211,0 18.46796,-34.08563,0 18.46802,-34.08681,0 18.46807,-34.08907,0 18.46807,-34.09277,0 18.46796,-34.09639,0 18.46791,-34.09749,0 18.46773,-34.09882,0 18.46756,-34.10017,0 18.46733,-34.10124,0 18.4671,-34.10231,0 18.46682,-34.10352,0 18.46645,-34.10486,0 18.46605,-34.106,0 18.46556,-34.10733,0 18.4651,-34.10829,0 18.46454,-34.10944,0 18.4637,-34.11081,0 18.46303,-34.11177,0 18.46219,-34.11292,0 18.46155,-34.11371,0 18.46056,-34.11484,0 18.45972,-34.11576,0 18.45905,-34.11653,0 18.45812,-34.11762,0 18.45737,-34.11837,0 18.45658,-34.11928,0 18.45563,-34.12033,0 18.4549,-34.12115,0 18.45417,-34.122,0 18.4535,-34.12285,0 18.45297,-34.12368,0 18.45221,-34.12468,0 18.45165,-34.12555,0 18.45097,-34.12651,0 18.45016,-34.12763,0 18.44971,-34.12828,0 18.44908,-34.12926,0 18.44851,-34.13,0 18.44776,-34.13103,0 18.44719,-34.13177,0 18.44645,-34.1328,0 18.44599,-34.13342,0 18.44532,-34.13438,0 18.44473,-34.13517,0 18.44404,-34.13615,0 18.44341,-34.13695,0 18.44278,-34.13778,0 18.44215,-34.13852,0 18.44139,-34.13947,0 18.44067,-34.14039,0 18.44004,-34.14113,0 18.43935,-34.14174,0 18.43843,-34.14239,0 18.43769,-34.14281,0 18.43668,-34.14317,0 18.43551,-34.14349,0 18.43478,-34.14359,0 18.4336,-34.14368,0 18.4326,-34.14369,0 18.43142,-34.14359,0 18.43052,-34.14345,0 18.42957,-34.14332,0 18.42871,-34.14314,0 18.42779,-34.14295,0 18.42643,-34.14267,0 18.42553,-34.14249,0 18.42464,-34.1423,0 18.42367,-34.14211,0 18.42267,-34.14194,0 18.42167,-34.14174,0 18.42041,-34.14151,0 18.41931,-34.14125,0 18.41835,-34.14107,0 18.41721,-34.14085,0 18.41606,-34.14062,0 18.41148,-34.13964,0 18.40908,-34.13918,0 18.40548,-34.13852,0 18.40193,-34.13791,0 18.40078,-34.13773,0 18.39964,-34.13755,0 18.39829,-34.13731,0 18.39717,-34.13713,0 18.39329,-34.13643,0 18.39106,-34.13603,0 18.38971,-34.1358,0 18.38865,-34.13564,0 18.38751,-34.13541,0 18.38247,-34.13448,0 18.38108,-34.13429,0 18.38001,-34.13415,0 18.37881,-34.13396,0 18.37733,-34.13383,0 18.37612,-34.13373,0 18.37475,-34.13359,0 18.37383,-34.1335,0 18.37234,-34.13336,0 18.37116,-34.13329,0 18.36992,-34.13315,0 18.36875,-34.13306,0 18.3674,-34.13287,0 18.36623,-34.13278,0 18.36485,-34.13256,0 18.36365,-34.13242,0 18.36275,-34.13228,0 18.36136,-34.13205,0 18.36004,-34.13177,0 18.35901,-34.1315,0 18.35787,-34.13118,0 18.3567,-34.13077,0 18.35591,-34.13045,0 18.35466,-34.12982,0 18.35384,-34.1293,0 18.35283,-34.12856,0 18.35209,-34.12786,0 18.35126,-34.12697,0 18.3506,-34.12619,0 18.34991,-34.12532,0 18.3494,-34.12456,0 18.34885,-34.12367,0 18.34831,-34.12293,0 18.34768,-34.12191,0 18.34717,-34.12111,0 18.34655,-34.1201,0 18.34588,-34.11909,0 18.34543,-34.11827,0 18.34481,-34.11731,0 18.34437,-34.11653,0 18.34386,-34.11562,0 18.34336,-34.11461,0 18.34291,-34.11369,0 18.34253,-34.11283,0 18.34213,-34.1119,0 18.34179,-34.11113,0 18.34122,-34.1098,0 18.34089,-34.10893,0 18.34055,-34.10811,0 18.34022,-34.10728,0 18.33988,-34.10628,0 18.33961,-34.10543,0 18.33939,-34.10459,0 18.33916,-34.10357,0 18.33904,-34.10257,0 18.33898,-34.10156,0 18.33893,-34.10068,0 18.33887,-34.09975,0 18.33887,-34.09886,0 18.33881,-34.09779,0 18.33882,-34.09676,0 18.33887,-34.09584,0 18.33893,-34.09465,0 18.33898,-34.09355,0 18.33904,-34.09258,0 18.33915,-34.09172,0 18.33926,-34.0903,0 18.33938,-34.08948,0 18.33956,-34.08839,0 18.33977,-34.08705,0 18.33996,-34.08606,0 18.34011,-34.08522,0 18.34036,-34.08383,0 18.34061,-34.08284,0 18.34083,-34.08192,0 18.34111,-34.08069,0 18.34145,-34.0795,0 18.34167,-34.07857,0 18.34201,-34.07721,0 18.34229,-34.07607,0 18.34259,-34.07507,0 18.34288,-34.07396,0 18.34324,-34.07268,0 18.34351,-34.07182,0 18.34379,-34.0707,0 18.34402,-34.06977,0 18.34431,-34.06865,0 18.34459,-34.06758,0 18.34476,-34.06674,0 18.34505,-34.06562,0 18.34526,-34.06453,0 18.34549,-34.06334,0 18.34568,-34.06232,0 18.34579,-34.06134,0 18.34605,-34.06013,0 18.3462,-34.05911,0 18.34638,-34.05789,0 18.34649,-34.05684,0 18.34661,-34.05606,0 18.34672,-34.05482,0 18.34678,-34.05345,0 18.34683,-34.05254,0 18.34694,-34.05105,0 18.347,-34.05035,0 18.34706,-34.0491,0 18.34711,-34.048,0 18.34717,-34.04691,0 18.34717,-34.04604,0 18.34717,-34.04491,0 18.34717,-34.04374,0 18.34722,-34.04091,0 18.34717,-34.0378,0 18.34711,-34.03592,0 18.34711,-34.03299,0 18.34711,-34.03113,0 18.34706,-34.03024,0 18.347,-34.02927,0 18.34689,-34.02814,0 18.34671,-34.02694,0 18.34654,-34.02601,0 18.34633,-34.02516,0 18.3461,-34.02411,0 18.34582,-34.02287,0 18.34543,-34.02187,0 18.34482,-34.02079,0 18.34414,-34.01994,0 18.34316,-34.01907,0 18.3423,-34.01842,0 18.34133,-34.01777,0 18.34053,-34.01716,0 18.33949,-34.01637,0 18.33876,-34.01577,0 18.33784,-34.01484,0 18.33704,-34.01395,0 18.33652,-34.01302,0 18.33618,-34.01204,0 18.33601,-34.01079,0 18.33596,-34.01015,0 18.33607,-34.009,0 18.33613,-34.00786,0 18.33624,-34.00664,0 18.33635,-34.00566,0 18.33641,-34.00469,0 18.33652,-34.00365,0 18.33669,-34.0025,0 18.33681,-34.00129,0 18.33698,-34.00013,0 18.33714,-33.99884,0 18.33733,-33.99775,0 18.33747,-33.99673,0 18.33764,-33.99582,0 18.33784,-33.99472,0 18.33807,-33.99352,0 18.3382,-33.99284,0 18.33864,-33.99081,0 18.33893,-33.9897,0 18.33926,-33.98836,0 18.34089,-33.98401,0 18.34202,-33.9816,0 18.34333,-33.97894,0 18.34385,-33.97787,0 18.34431,-33.97494,0 18.34408,-33.97396,0 18.34339,-33.97266,0 18.34236,-33.97168,0 18.34151,-33.97119,0 18.33956,-33.97061,0 18.33825,-33.97055,0 18.3373,-33.97069,0 18.33384,-33.97583,0 18.33529,-33.97787,0 18.33781,-33.97939,0 18.34024,-33.97992,0 18.34316,-33.9796,0 18.34591,-33.97815,0 18.34791,-33.9762,0 18.3498,-33.97417,0 18.35163,-33.97205,0 18.35289,-33.96991,0 18.35381,-33.96698,0 18.35406,-33.9651,0 18.3544,-33.96126,0 18.35462,-33.95865,0 18.35495,-33.95604,0 18.35513,-33.95508,0 18.35535,-33.95357,0 18.35552,-33.95242,0 18.35604,-33.9492,0 18.35681,-33.9445,0 18.35754,-33.94084,0 18.3581,-33.93855,0 18.35838,-33.93756,0 18.35866,-33.93663,0 18.359,-33.93544,0 18.35939,-33.93448,0 18.35984,-33.93324,0 18.36039,-33.93197,0 18.3609,-33.93082,0 18.3613,-33.92992,0 18.36187,-33.92885,0 18.36233,-33.92792,0 18.3629,-33.92676,0 18.36336,-33.92587,0 18.36382,-33.92494,0 18.36438,-33.92386,0 18.36499,-33.92281,0 18.3655,-33.92189,0 18.36617,-33.9208,0 18.36684,-33.91978,0 18.3676,-33.9188,0 18.3684,-33.91773,0 18.36909,-33.9169,0 18.36977,-33.9161,0 18.3708,-33.91494,0 18.37143,-33.91428,0 18.37246,-33.91317,0 18.3732,-33.91233,0 18.37424,-33.91132,0 18.37531,-33.91026,0 18.37618,-33.90944,0 18.37688,-33.90875,0 18.37812,-33.90758,0 18.37898,-33.90679,0 18.38007,-33.90587,0 18.38102,-33.90514,0 18.3823,-33.90423,0 18.38332,-33.90349,0 18.38425,-33.90288,0 18.38551,-33.90207,0 18.38654,-33.90153,0 18.38809,-33.9007,0 18.389,-33.90027,0 18.3905,-33.89955,0 18.39156,-33.89905,0 18.39291,-33.89841,0 18.39403,-33.8979,0 18.39523,-33.89738,0 18.39638,-33.89692,0 18.39767,-33.89639,0 18.39895,-33.89594,0 18.40038,-33.89552,0 18.4016,-33.89525,0 18.40296,-33.89501,0 18.40462,-33.89487,0 18.40625,-33.89479,0 18.40754,-33.89473,0 18.40897,-33.89478,0 18.41056,-33.89488,0 18.41177,-33.89496,0 18.41343,-33.8951,0 18.4146,-33.8952,0 18.41595,-33.89539,0 18.41718,-33.89557,0 18.41813,-33.89575,0 18.41942,-33.89603,0 18.42054,-33.89639,0 18.42184,-33.89692,0 18.42295,-33.8974,0 18.4239,-33.89786,0 18.42505,-33.8985,0 18.42592,-33.899,0 18.42715,-33.89964,0 18.42811,-33.9001,0 18.42916,-33.90064,0 18.43025,-33.9012,0 18.43122,-33.90162,0 18.43214,-33.90204,0 18.43343,-33.90253,0 18.43439,-33.90285,0 18.43556,-33.90312,0 18.43672,-33.9033,0 18.43769,-33.90339,0 18.43876,-33.9034,0 18.43988,-33.90326,0 18.44078,-33.90294,0 18.44162,-33.90244,0 18.44221,-33.90176,0 18.4425,-33.9012,0 18.44257,-33.9007,0 18.44223,-33.89964,0 18.44195,-33.89919,0 18.44134,-33.89864,0 18.44061,-33.89827,0 18.43992,-33.89804,0 18.43924,-33.89794,0 18.43837,-33.89795,0 18.43775,-33.89799,0 18.43708,-33.89809,0 18.43637,-33.89822,0 18.43556,-33.89841,0 18.43494,-33.89855,0 18.43431,-33.89874,0 18.43371,-33.89886,0 18.43287,-33.89909,0 18.43242,-33.89923,0 18.4317,-33.89941,0 18.43119,-33.89955,0 18.43065,-33.89967,0 18.43001,-33.89983,0 18.42968,-33.8999,0 18.42899,-33.90004,0 18.42859,-33.90009,0 18.42828,-33.90015,0 18.42785,-33.90022,0 18.42756,-33.90032,0 18.42733,-33.90041,0 18.42715,-33.90065,0 18.4271,-33.90092,0 18.42704,-33.9012,0</coordinates>
      </LineString>
    </Placemark>
  </Document>
</kml>
