<?xml version="1.0" encoding="UTF-8"?>
<kml xmlns="http://www.opengis.net/kml/2.2">
  <Document>
    <name>FR24 42036809</name>
    <Placemark>
      <name>FR24 42036809</name>
      <Style><LineStyle><color>ff0000ff</color><width>4</width></LineStyle></Style>
      <LineString>
        <tessellate>1</tessellate>
        <coordinates>18.4773,-33.92719,0 18.47646,-33.93365,0 18.48172,-33.94467,0 18.48512,-33.95485,0 18.48539,-33.96356,0 18.48404,-33.96601,0 18.48466,-33.96793,0 18.48415,-33.96889,0 18.48532,-33.97035,0 18.4856,-33.97132,0 18.48603,-33.97171,0 18.48522,-33.97329,0 18.48513,-33.97426,0 18.48485,-33.97532,0 18.48473,-33.9766,0 18.48484,-33.97744,0 18.48492,-33.97818,0 18.48521,-33.97907,0 18.48524,-33.98011,0 18.48521,-33.98106,0 18.48515,-33.98211,0 18.48524,-33.98296,0 18.48508,-33.98383,0 18.48516,-33.98466,0 18.48507,-33.98578,0 18.48508,-33.9866,0 18.48499,-33.98774,0 18.48477,-33.98885,0 18.48485,-33.98983,0 18.48494,-33.99106,0 18.48477,-33.99213,0 18.48483,-33.99325,0 18.48477,-33.99421,0 18.48491,-33.9952,0 18.48474,-33.99609,0 18.48473,-33.99726,0 18.48461,-33.99838,0 18.48464,-33.9992,0 18.48471,-34.00052,0 18.48474,-34.00171,0 18.4849,-34.00244,0 18.48492,-34.00352,0 18.48514,-34.00453,0 18.4851,-34.00592,0 18.48509,-34.00681,0 18.48514,-34.00775,0 18.48523,-34.00894,0 18.48517,-34.00967,0 18.4851,-34.01101,0 18.48502,-34.01228,0 18.485,-34.01347,0 18.48501,-34.01463,0 18.4851,-34.01608,0 18.48505,-34.01717,0 18.48513,-34.0182,0 18.48514,-34.01929,0 18.48524,-34.02039,0 18.48516,-34.02134,0 18.48522,-34.02239,0 18.48533,-34.02337,0 18.48539,-34.02435,0 18.48523,-34.02517,0 18.48507,-34.0261,0 18.485,-34.02716,0 18.48499,-34.02803,0 18.48442,-34.02893,0 18.4849,-34.02991,0 18.48533,-34.03088,0 18.48521,-34.03172,0 18.48509,-34.03289,0 18.48473,-34.03421,0 18.48484,-34.03498,0 18.48484,-34.03588,0 18.48474,-34.03711,0 18.48473,-34.038,0 18.48454,-34.03884,0 18.48443,-34.03976,0 18.48437,-34.04074,0 18.48437,-34.04158,0 18.4843,-34.04273,0 18.48414,-34.04364,0 18.48413,-34.0447,0 18.48406,-34.04562,0 18.48419,-34.04656,0 18.48401,-34.04773,0 18.48382,-34.04876,0 18.48381,-34.04978,0 18.48366,-34.05122,0 18.48361,-34.0526,0 18.48351,-34.05381,0 18.48355,-34.05481,0 18.48354,-34.05558,0 18.48349,-34.05696,0 18.4835,-34.05817,0 18.48326,-34.05913,0 18.48295,-34.06021,0 18.48276,-34.06112,0 18.48277,-34.06201,0 18.48274,-34.06285,0 18.48258,-34.064,0 18.48262,-34.06528,0 18.48275,-34.0663,0 18.48235,-34.06739,0 18.48194,-34.06852,0 18.48172,-34.06956,0 18.48079,-34.07065,0 18.48077,-34.07174,0 18.48109,-34.07276,0 18.4811,-34.07377,0 18.48119,-34.07476,0 18.48118,-34.07566,0 18.48111,-34.07679,0 18.4812,-34.07768,0 18.48108,-34.07881,0 18.48109,-34.07977,0 18.48092,-34.08088,0 18.48095,-34.08195,0 18.48075,-34.08316,0 18.48054,-34.08423,0 18.4806,-34.08516,0 18.48071,-34.0862,0 18.48094,-34.08742,0 18.48085,-34.08875,0 18.48076,-34.08987,0 18.48045,-34.09108,0 18.47928,-34.10801,0 18.47923,-34.111,0 18.47953,-34.11302,0 18.47953,-34.11449,0 18.47948,-34.1155,0 18.47944,-34.11667,0 18.47932,-34.11808,0 18.47928,-34.11908,0 18.47922,-34.12065,0 18.47916,-34.12088,0 18.47868,-34.12622,0 18.4784,-34.12741,0 18.47823,-34.12861,0 18.47817,-34.12909,0 18.47802,-34.13127,0 18.47796,-34.13239,0 18.47784,-34.13342,0 18.47766,-34.1347,0 18.47755,-34.1358,0 18.47752,-34.13673,0 18.47738,-34.13798,0 18.47725,-34.13905,0 18.47708,-34.14035,0 18.4771,-34.1413,0 18.47692,-34.14214,0 18.47676,-34.14338,0 18.47667,-34.14452,0 18.47656,-34.14569,0 18.47656,-34.14683,0 18.47647,-34.14776,0 18.4763,-34.14876,0 18.47618,-34.14973,0 18.47614,-34.15071,0 18.47608,-34.15192,0 18.47601,-34.15285,0 18.47596,-34.15379,0 18.47587,-34.15472,0 18.47576,-34.15591,0 18.47565,-34.15696,0 18.4756,-34.15818,0 18.4755,-34.15935,0 18.47529,-34.16044,0 18.47522,-34.16135,0 18.47516,-34.16265,0 18.47512,-34.16364,0 18.47499,-34.1649,0 18.47489,-34.16611,0 18.4748,-34.16698,0 18.47474,-34.16805,0 18.47469,-34.16887,0 18.47469,-34.16986,0 18.47474,-34.17099,0 18.47464,-34.17202,0 18.47459,-34.17303,0 18.47453,-34.17413,0 18.47449,-34.17521,0 18.47443,-34.17663,0 18.47433,-34.17791,0 18.4742,-34.17887,0 18.47414,-34.17988,0 18.47406,-34.18087,0 18.47393,-34.183,0 18.47369,-34.18406,0 18.47346,-34.1853,0 18.47344,-34.18624,0 18.47337,-34.18729,0 18.48892,-34.18514,0 18.48821,-34.1868,0 18.48933,-34.18844,0 18.48842,-34.18964,0 18.4869,-34.1916,0 18.48938,-34.19178,0 18.48842,-34.1932,0 18.48657,-34.1956,0 18.47364,-34.21068,0 18.47275,-34.21232,0 18.47213,-34.21376,0 18.47169,-34.21507,0 18.4717,-34.21594,0 18.48583,-34.21012,0 18.49677,-34.2056,0 18.49028,-34.21735,0 18.48873,-34.21934,0 18.49285,-34.21998,0 18.49219,-34.22042,0 18.49481,-34.21839,0 18.49689,-34.21746,0 18.4984,-34.21608,0 18.49813,-34.21634,0 18.46161,-34.24366,0 18.4708,-34.23785,0 18.47167,-34.23933,0 18.47278,-34.23725,0 18.47331,-34.23659,0 18.47351,-34.23644,0 18.47357,-34.23676,0 18.47531,-34.24046,0 18.48509,-34.23515,0 18.49061,-34.21557,0 18.46603,-34.21838,0 18.46573,-34.21284,0 18.46667,-34.19912,0 18.46478,-34.19062,0 18.46414,-34.1885,0 18.46371,-34.18677,0 18.46313,-34.18567,0 18.46302,-34.18417,0 18.47358,-34.16764,0 18.47077,-34.16759,0 18.46662,-34.16855,0 18.46196,-34.17023,0 18.46092,-34.17021,0 18.46142,-34.16793,0 18.46206,-34.16629,0 18.4624,-34.16455,0 18.46261,-34.16339,0 18.46301,-34.16122,0 18.46319,-34.16016,0 18.46348,-34.1587,0 18.46364,-34.15759,0 18.46392,-34.15617,0 18.46414,-34.15498,0 18.46448,-34.15346,0 18.46488,-34.15205,0 18.46519,-34.15065,0 18.46554,-34.14939,0 18.46588,-34.1481,0 18.46631,-34.14635,0 18.46667,-34.14471,0 18.46701,-34.14348,0 18.46734,-34.1424,0 18.46784,-34.14075,0 18.46831,-34.13922,0 18.46868,-34.13808,0 18.4692,-34.13655,0 18.46958,-34.13535,0 18.47012,-34.1336,0 18.47049,-34.1324,0 18.47086,-34.13123,0 18.47138,-34.12963,0 18.47178,-34.12846,0 18.47226,-34.12676,0 18.47268,-34.12494,0 18.473,-34.12376,0 18.47344,-34.12226,0 18.47379,-34.12101,0 18.47407,-34.11968,0 18.47434,-34.11818,0 18.47459,-34.11676,0 18.47479,-34.11545,0 18.47502,-34.11402,0 18.47516,-34.11289,0 18.47528,-34.11106,0 18.47555,-34.10977,0 18.47543,-34.10835,0 18.47593,-34.10656,0 18.47746,-34.10441,0 18.47818,-34.10271,0 18.47854,-34.10127,0 18.47823,-34.10007,0 18.47761,-34.09894,0 18.47628,-34.09808,0 18.4748,-34.09726,0 18.47272,-34.09635,0 18.47147,-34.09517,0 18.47045,-34.09399,0 18.46935,-34.09296,0 18.46845,-34.09179,0 18.46734,-34.09045,0 18.46649,-34.08943,0 18.46559,-34.08823,0 18.46468,-34.08714,0 18.46383,-34.08605,0 18.46282,-34.08491,0 18.46191,-34.08387,0 18.46104,-34.08288,0 18.45958,-34.08126,0 18.45852,-34.08031,0 18.45746,-34.07953,0 18.45609,-34.0783,0 18.45481,-34.07716,0 18.45378,-34.07632,0 18.45291,-34.07546,0 18.45182,-34.07446,0 18.451,-34.07353,0 18.44979,-34.07289,0 18.44867,-34.07236,0 18.44718,-34.07188,0 18.44574,-34.07134,0 18.44421,-34.07105,0 18.44227,-34.07063,0 18.43966,-34.07047,0 18.43826,-34.0702,0 18.43698,-34.06984,0 18.43587,-34.0695,0 18.43452,-34.06885,0 18.43331,-34.06814,0 18.43211,-34.06734,0 18.43091,-34.06642,0 18.42966,-34.06546,0 18.42869,-34.0646,0 18.42746,-34.06353,0 18.42652,-34.06264,0 18.4255,-34.06176,0 18.42447,-34.06078,0 18.42364,-34.0599,0 18.42252,-34.05886,0 18.42149,-34.05791,0 18.42046,-34.05703,0 18.41897,-34.05571,0 18.41754,-34.05449,0 18.4165,-34.05371,0 18.41555,-34.05295,0 18.4143,-34.05209,0 18.41328,-34.05155,0 18.41178,-34.05107,0 18.41034,-34.0507,0 18.40884,-34.05036,0 18.40761,-34.05004,0 18.40595,-34.04943,0 18.40444,-34.04881,0 18.40317,-34.04811,0 18.40187,-34.04741,0 18.40044,-34.04629,0 18.39937,-34.04526,0 18.39899,-34.04428,0 18.39679,-34.04347,0 18.39609,-34.04265,0 18.39575,-34.04226,0 18.40085,-34.03936,0 18.40603,-34.0393,0 18.406,-34.04073,0 18.40895,-34.04062,0 18.40636,-34.0393,0 18.40457,-34.0341,0 18.41883,-34.02827,0 18.42521,-34.02325,0 18.42626,-34.02205,0 18.42793,-34.02049,0 18.4327,-34.01878,0 18.43503,-34.01815,0 18.4367,-34.01732,0 18.43783,-34.01636,0 18.43869,-34.01549,0 18.43981,-34.01456,0 18.43984,-34.0136,0 18.44074,-34.01288,0 18.4423,-34.01208,0 18.44373,-34.01135,0 18.44498,-34.01058,0 18.44589,-34.00979,0 18.4467,-34.00916,0 18.44867,-34.00711,0 18.44906,-34.00512,0 18.45065,-34.00489,0 18.45229,-34.00356,0 18.45364,-34.00303,0 18.45424,-34.00209,0 18.45567,-34.00143,0 18.45708,-34.00071,0 18.45841,-33.9996,0 18.45963,-33.99848,0 18.46045,-33.99746,0 18.46142,-33.99628,0 18.46245,-33.99502,0 18.46322,-33.9941,0 18.46398,-33.99306,0 18.465,-33.9917,0 18.4659,-33.99034,0 18.46655,-33.98937,0 18.46723,-33.98852,0 18.4681,-33.98704,0 18.46898,-33.98571,0 18.46958,-33.98466,0 18.47047,-33.98325,0 18.47127,-33.98226,0 18.47205,-33.9811,0 18.48,-33.965,0 18.4766,-33.96235,0 18.47909,-33.95945,0 18.47394,-33.95557,0 18.47559,-33.95372,0 18.4762,-33.95234,0 18.47604,-33.9503,0 18.47526,-33.94905,0 18.47541,-33.9481,0 18.47607,-33.94645,0 18.4754,-33.94426,0 18.47553,-33.94318,0 18.4767,-33.94171,0 18.47722,-33.94021,0 18.47652,-33.93904,0 18.47481,-33.93725,0 18.4746,-33.93413,0 18.47267,-33.93314,0 18.472,-33.93239,0 18.47144,-33.93112,0 18.47064,-33.93009,0 18.46934,-33.92794,0 18.4695,-33.92687,0 18.46922,-33.9261,0 18.46891,-33.92466,0 18.46708,-33.9217,0 18.46513,-33.9204,0 18.46311,-33.91864,0 18.46264,-33.91765,0 18.46304,-33.91589,0 18.4618,-33.91382,0 18.45009,-33.90141,0 18.43249,-33.89649,0</coordinates>
      </LineString>
    </Placemark>
  </Document>
</kml>
