<?xml version="1.0" encoding="UTF-8"?>
<kml xmlns="http://www.opengis.net/kml/2.2" xmlns:gx="http://www.google.com/kml/ext/2.2">
  <Document>
    <name>FR24 3edcad5a</name>
    <Placemark>
      <name>FR24 3edcad5a</name>
      <Style><LineStyle><color>ff0000ff</color><width>4</width></LineStyle></Style>
      <gx:Track>
        <when>2026-03-22T15:37:13.000Z</when>
        <when>2026-03-22T15:37:22.000Z</when>
        <when>2026-03-22T15:37:34.000Z</when>
        <when>2026-03-22T15:38:01.000Z</when>
        <when>2026-03-22T15:38:09.000Z</when>
        <when>2026-03-22T15:38:17.000Z</when>
        <when>2026-03-22T15:38:24.000Z</when>
        <when>2026-03-22T15:38:32.000Z</when>
        <when>2026-03-22T15:38:41.000Z</when>
        <when>2026-03-22T15:38:47.000Z</when>
        <when>2026-03-22T15:38:56.000Z</when>
        <when>2026-03-22T15:39:04.000Z</when>
        <when>2026-03-22T15:39:11.000Z</when>
        <when>2026-03-22T15:39:18.000Z</when>
        <when>2026-03-22T15:39:25.000Z</when>
        <when>2026-03-22T15:39:32.000Z</when>
        <when>2026-03-22T15:39:41.000Z</when>
        <when>2026-03-22T15:39:49.000Z</when>
        <when>2026-03-22T15:39:56.000Z</when>
        <when>2026-03-22T15:40:03.000Z</when>
        <when>2026-03-22T15:40:10.000Z</when>
        <when>2026-03-22T15:40:18.000Z</when>
        <when>2026-03-22T15:40:25.000Z</when>
        <when>2026-03-22T15:40:32.000Z</when>
        <when>2026-03-22T15:40:41.000Z</when>
        <when>2026-03-22T15:40:48.000Z</when>
        <when>2026-03-22T15:40:57.000Z</when>
        <when>2026-03-22T15:41:03.000Z</when>
        <when>2026-03-22T15:41:10.000Z</when>
        <when>2026-03-22T15:41:18.000Z</when>
        <when>2026-03-22T15:41:25.000Z</when>
        <when>2026-03-22T15:41:32.000Z</when>
        <when>2026-03-22T15:41:40.000Z</when>
        <when>2026-03-22T15:41:47.000Z</when>
        <when>2026-03-22T15:41:55.000Z</when>
        <when>2026-03-22T15:42:02.000Z</when>
        <when>2026-03-22T15:42:11.000Z</when>
        <when>2026-03-22T15:42:19.000Z</when>
        <when>2026-03-22T15:42:26.000Z</when>
        <when>2026-03-22T15:42:33.000Z</when>
        <when>2026-03-22T15:42:42.000Z</when>
        <when>2026-03-22T15:42:48.000Z</when>
        <when>2026-03-22T15:42:55.000Z</when>
        <when>2026-03-22T15:43:04.000Z</when>
        <when>2026-03-22T15:43:10.000Z</when>
        <when>2026-03-22T15:43:19.000Z</when>
        <when>2026-03-22T15:43:26.000Z</when>
        <when>2026-03-22T15:43:35.000Z</when>
        <when>2026-03-22T15:43:43.000Z</when>
        <when>2026-03-22T15:43:52.000Z</when>
        <when>2026-03-22T15:43:59.000Z</when>
        <when>2026-03-22T15:44:05.000Z</when>
        <when>2026-03-22T15:44:14.000Z</when>
        <when>2026-03-22T15:44:20.000Z</when>
        <when>2026-03-22T15:44:27.000Z</when>
        <when>2026-03-22T15:44:35.000Z</when>
        <when>2026-03-22T15:44:42.000Z</when>
        <when>2026-03-22T15:44:51.000Z</when>
        <when>2026-03-22T15:44:57.000Z</when>
        <when>2026-03-22T15:45:01.000Z</when>
        <when>2026-03-22T15:45:08.000Z</when>
        <when>2026-03-22T15:45:17.000Z</when>
        <when>2026-03-22T15:45:25.000Z</when>
        <when>2026-03-22T15:45:34.000Z</when>
        <when>2026-03-22T15:45:42.000Z</when>
        <when>2026-03-22T15:45:49.000Z</when>
        <when>2026-03-22T15:45:51.000Z</when>
        <when>2026-03-22T15:45:53.000Z</when>
        <when>2026-03-22T15:45:56.000Z</when>
        <when>2026-03-22T15:46:02.000Z</when>
        <when>2026-03-22T15:46:04.000Z</when>
        <when>2026-03-22T15:46:06.000Z</when>
        <when>2026-03-22T15:46:08.000Z</when>
        <when>2026-03-22T15:46:11.000Z</when>
        <when>2026-03-22T15:46:13.000Z</when>
        <when>2026-03-22T15:46:15.000Z</when>
        <when>2026-03-22T15:46:17.000Z</when>
        <when>2026-03-22T15:46:19.000Z</when>
        <when>2026-03-22T15:46:21.000Z</when>
        <when>2026-03-22T15:46:23.000Z</when>
        <when>2026-03-22T15:46:25.000Z</when>
        <when>2026-03-22T15:46:27.000Z</when>
        <when>2026-03-22T15:46:30.000Z</when>
        <when>2026-03-22T15:46:38.000Z</when>
        <when>2026-03-22T15:46:45.000Z</when>
        <when>2026-03-22T15:46:54.000Z</when>
        <when>2026-03-22T15:47:02.000Z</when>
        <when>2026-03-22T15:47:09.000Z</when>
        <when>2026-03-22T15:47:18.000Z</when>
        <when>2026-03-22T15:47:24.000Z</when>
        <when>2026-03-22T15:47:31.000Z</when>
        <when>2026-03-22T15:47:38.000Z</when>
        <when>2026-03-22T15:47:47.000Z</when>
        <when>2026-03-22T15:47:55.000Z</when>
        <when>2026-03-22T15:47:58.000Z</when>
        <when>2026-03-22T15:48:00.000Z</when>
        <when>2026-03-22T15:48:02.000Z</when>
        <when>2026-03-22T15:48:04.000Z</when>
        <when>2026-03-22T15:48:06.000Z</when>
        <when>2026-03-22T15:48:08.000Z</when>
        <when>2026-03-22T15:48:11.000Z</when>
        <when>2026-03-22T15:48:13.000Z</when>
        <when>2026-03-22T15:48:15.000Z</when>
        <when>2026-03-22T15:48:17.000Z</when>
        <when>2026-03-22T15:48:19.000Z</when>
        <when>2026-03-22T15:48:21.000Z</when>
        <when>2026-03-22T15:48:23.000Z</when>
        <when>2026-03-22T15:48:26.000Z</when>
        <when>2026-03-22T15:48:28.000Z</when>
        <when>2026-03-22T15:48:30.000Z</when>
        <when>2026-03-22T15:48:32.000Z</when>
        <when>2026-03-22T15:48:34.000Z</when>
        <when>2026-03-22T15:48:36.000Z</when>
        <when>2026-03-22T15:48:38.000Z</when>
        <when>2026-03-22T15:48:41.000Z</when>
        <when>2026-03-22T15:48:43.000Z</when>
        <when>2026-03-22T15:48:45.000Z</when>
        <when>2026-03-22T15:48:48.000Z</when>
        <when>2026-03-22T15:48:50.000Z</when>
        <when>2026-03-22T15:48:53.000Z</when>
        <when>2026-03-22T15:48:55.000Z</when>
        <when>2026-03-22T15:49:29.000Z</when>
        <when>2026-03-22T15:49:40.000Z</when>
        <when>2026-03-22T15:49:45.000Z</when>
        <when>2026-03-22T15:49:48.000Z</when>
        <when>2026-03-22T15:49:51.000Z</when>
        <when>2026-03-22T15:49:53.000Z</when>
        <when>2026-03-22T15:49:55.000Z</when>
        <when>2026-03-22T15:49:58.000Z</when>
        <when>2026-03-22T15:50:00.000Z</when>
        <when>2026-03-22T15:50:02.000Z</when>
        <when>2026-03-22T15:50:04.000Z</when>
        <when>2026-03-22T15:50:06.000Z</when>
        <when>2026-03-22T15:50:08.000Z</when>
        <when>2026-03-22T15:50:10.000Z</when>
        <when>2026-03-22T15:50:13.000Z</when>
        <when>2026-03-22T15:50:15.000Z</when>
        <when>2026-03-22T15:50:17.000Z</when>
        <when>2026-03-22T15:50:19.000Z</when>
        <when>2026-03-22T15:50:25.000Z</when>
        <when>2026-03-22T15:50:27.000Z</when>
        <when>2026-03-22T15:50:29.000Z</when>
        <when>2026-03-22T15:50:34.000Z</when>
        <when>2026-03-22T15:50:37.000Z</when>
        <when>2026-03-22T15:50:42.000Z</when>
        <when>2026-03-22T15:50:45.000Z</when>
        <when>2026-03-22T15:50:53.000Z</when>
        <when>2026-03-22T15:55:40.000Z</when>
        <when>2026-03-22T15:55:51.000Z</when>
        <when>2026-03-22T15:55:55.000Z</when>
        <when>2026-03-22T15:56:00.000Z</when>
        <when>2026-03-22T15:56:02.000Z</when>
        <when>2026-03-22T15:56:04.000Z</when>
        <when>2026-03-22T15:56:06.000Z</when>
        <when>2026-03-22T15:56:08.000Z</when>
        <when>2026-03-22T15:56:11.000Z</when>
        <when>2026-03-22T15:56:13.000Z</when>
        <when>2026-03-22T15:56:15.000Z</when>
        <when>2026-03-22T15:56:17.000Z</when>
        <when>2026-03-22T15:56:19.000Z</when>
        <when>2026-03-22T15:56:21.000Z</when>
        <when>2026-03-22T15:56:24.000Z</when>
        <when>2026-03-22T15:56:26.000Z</when>
        <when>2026-03-22T15:56:28.000Z</when>
        <when>2026-03-22T15:56:30.000Z</when>
        <when>2026-03-22T15:56:32.000Z</when>
        <when>2026-03-22T15:56:35.000Z</when>
        <when>2026-03-22T15:56:37.000Z</when>
        <when>2026-03-22T15:56:39.000Z</when>
        <when>2026-03-22T15:56:41.000Z</when>
        <when>2026-03-22T15:56:44.000Z</when>
        <when>2026-03-22T15:56:46.000Z</when>
        <when>2026-03-22T15:56:48.000Z</when>
        <when>2026-03-22T15:56:50.000Z</when>
        <when>2026-03-22T15:56:52.000Z</when>
        <when>2026-03-22T15:56:54.000Z</when>
        <when>2026-03-22T15:56:56.000Z</when>
        <when>2026-03-22T15:56:58.000Z</when>
        <when>2026-03-22T15:57:00.000Z</when>
        <when>2026-03-22T15:57:02.000Z</when>
        <when>2026-03-22T15:57:05.000Z</when>
        <when>2026-03-22T15:57:07.000Z</when>
        <when>2026-03-22T15:57:09.000Z</when>
        <when>2026-03-22T15:57:11.000Z</when>
        <when>2026-03-22T15:57:13.000Z</when>
        <when>2026-03-22T15:57:16.000Z</when>
        <when>2026-03-22T15:57:18.000Z</when>
        <when>2026-03-22T15:57:20.000Z</when>
        <when>2026-03-22T15:57:22.000Z</when>
        <when>2026-03-22T15:57:25.000Z</when>
        <when>2026-03-22T15:57:27.000Z</when>
        <when>2026-03-22T15:57:29.000Z</when>
        <when>2026-03-22T15:57:31.000Z</when>
        <when>2026-03-22T15:57:34.000Z</when>
        <when>2026-03-22T15:57:36.000Z</when>
        <when>2026-03-22T15:57:38.000Z</when>
        <when>2026-03-22T15:57:41.000Z</when>
        <when>2026-03-22T15:57:43.000Z</when>
        <when>2026-03-22T15:57:45.000Z</when>
        <when>2026-03-22T15:57:47.000Z</when>
        <when>2026-03-22T15:57:49.000Z</when>
        <when>2026-03-22T15:57:58.000Z</when>
        <when>2026-03-22T15:58:04.000Z</when>
        <when>2026-03-22T15:58:12.000Z</when>
        <when>2026-03-22T15:58:19.000Z</when>
        <when>2026-03-22T15:58:28.000Z</when>
        <when>2026-03-22T15:58:34.000Z</when>
        <when>2026-03-22T15:58:42.000Z</when>
        <when>2026-03-22T15:58:49.000Z</when>
        <when>2026-03-22T15:58:57.000Z</when>
        <when>2026-03-22T15:59:06.000Z</when>
        <when>2026-03-22T15:59:15.000Z</when>
        <when>2026-03-22T15:59:24.000Z</when>
        <when>2026-03-22T15:59:30.000Z</when>
        <when>2026-03-22T15:59:39.000Z</when>
        <when>2026-03-22T15:59:47.000Z</when>
        <when>2026-03-22T15:59:54.000Z</when>
        <when>2026-03-22T16:00:03.000Z</when>
        <when>2026-03-22T16:00:05.000Z</when>
        <when>2026-03-22T16:00:11.000Z</when>
        <when>2026-03-22T16:00:19.000Z</when>
        <when>2026-03-22T16:00:26.000Z</when>
        <when>2026-03-22T16:00:34.000Z</when>
        <when>2026-03-22T16:00:36.000Z</when>
        <when>2026-03-22T16:00:39.000Z</when>
        <when>2026-03-22T16:00:41.000Z</when>
        <when>2026-03-22T16:00:43.000Z</when>
        <when>2026-03-22T16:00:45.000Z</when>
        <when>2026-03-22T16:00:47.000Z</when>
        <when>2026-03-22T16:00:49.000Z</when>
        <when>2026-03-22T16:00:51.000Z</when>
        <when>2026-03-22T16:00:54.000Z</when>
        <when>2026-03-22T16:00:56.000Z</when>
        <when>2026-03-22T16:00:58.000Z</when>
        <when>2026-03-22T16:01:00.000Z</when>
        <when>2026-03-22T16:01:02.000Z</when>
        <when>2026-03-22T16:01:04.000Z</when>
        <when>2026-03-22T16:01:06.000Z</when>
        <when>2026-03-22T16:01:08.000Z</when>
        <when>2026-03-22T16:01:10.000Z</when>
        <when>2026-03-22T16:01:12.000Z</when>
        <when>2026-03-22T16:01:15.000Z</when>
        <when>2026-03-22T16:01:17.000Z</when>
        <when>2026-03-22T16:01:19.000Z</when>
        <when>2026-03-22T16:01:21.000Z</when>
        <when>2026-03-22T16:01:23.000Z</when>
        <when>2026-03-22T16:01:25.000Z</when>
        <when>2026-03-22T16:01:28.000Z</when>
        <when>2026-03-22T16:01:30.000Z</when>
        <when>2026-03-22T16:01:32.000Z</when>
        <when>2026-03-22T16:01:34.000Z</when>
        <when>2026-03-22T16:01:36.000Z</when>
        <when>2026-03-22T16:01:38.000Z</when>
        <when>2026-03-22T16:01:40.000Z</when>
        <when>2026-03-22T16:01:42.000Z</when>
        <when>2026-03-22T16:01:44.000Z</when>
        <when>2026-03-22T16:01:47.000Z</when>
        <when>2026-03-22T16:01:49.000Z</when>
        <when>2026-03-22T16:01:51.000Z</when>
        <when>2026-03-22T16:01:53.000Z</when>
        <when>2026-03-22T16:01:55.000Z</when>
        <when>2026-03-22T16:01:57.000Z</when>
        <when>2026-03-22T16:01:59.000Z</when>
        <when>2026-03-22T16:02:01.000Z</when>
        <when>2026-03-22T16:02:03.000Z</when>
        <when>2026-03-22T16:02:08.000Z</when>
        <when>2026-03-22T16:02:10.000Z</when>
        <when>2026-03-22T16:02:14.000Z</when>
        <when>2026-03-22T16:02:18.000Z</when>
        <when>2026-03-22T16:02:23.000Z</when>
        <when>2026-03-22T16:02:27.000Z</when>
        <when>2026-03-22T16:02:35.000Z</when>
        <when>2026-03-22T16:02:44.000Z</when>
        <when>2026-03-22T16:02:56.000Z</when>
        <gx:coord>18.7795 -34.34633 0</gx:coord>
        <gx:coord>18.77478 -34.34159 0</gx:coord>
        <gx:coord>18.77375 -34.34061 0</gx:coord>
        <gx:coord>18.75305 -34.3217 0</gx:coord>
        <gx:coord>18.74873 -34.31786 0</gx:coord>
        <gx:coord>18.74456 -34.31412 0</gx:coord>
        <gx:coord>18.74016 -34.31035 0</gx:coord>
        <gx:coord>18.73547 -34.30635 0</gx:coord>
        <gx:coord>18.73032 -34.30192 0</gx:coord>
        <gx:coord>18.72677 -34.29885 0</gx:coord>
        <gx:coord>18.72173 -34.29448 0</gx:coord>
        <gx:coord>18.71684 -34.29021 0</gx:coord>
        <gx:coord>18.71274 -34.28668 0</gx:coord>
        <gx:coord>18.70854 -34.28293 0</gx:coord>
        <gx:coord>18.70451 -34.27939 0</gx:coord>
        <gx:coord>18.70052 -34.27579 0</gx:coord>
        <gx:coord>18.69565 -34.27144 0</gx:coord>
        <gx:coord>18.69049 -34.267 0</gx:coord>
        <gx:coord>18.68631 -34.26342 0</gx:coord>
        <gx:coord>18.68219 -34.25993 0</gx:coord>
        <gx:coord>18.67796 -34.25635 0</gx:coord>
        <gx:coord>18.67327 -34.25235 0</gx:coord>
        <gx:coord>18.66891 -34.2486 0</gx:coord>
        <gx:coord>18.66486 -34.24513 0</gx:coord>
        <gx:coord>18.65988 -34.24085 0</gx:coord>
        <gx:coord>18.65563 -34.2372 0</gx:coord>
        <gx:coord>18.65038 -34.23265 0</gx:coord>
        <gx:coord>18.64614 -34.22898 0</gx:coord>
        <gx:coord>18.64225 -34.22558 0</gx:coord>
        <gx:coord>18.6371 -34.22111 0</gx:coord>
        <gx:coord>18.63326 -34.2177 0</gx:coord>
        <gx:coord>18.62911 -34.21408 0</gx:coord>
        <gx:coord>18.62418 -34.20973 0</gx:coord>
        <gx:coord>18.62022 -34.20626 0</gx:coord>
        <gx:coord>18.61513 -34.20174 0</gx:coord>
        <gx:coord>18.6113 -34.19835 0</gx:coord>
        <gx:coord>18.60613 -34.1938 0</gx:coord>
        <gx:coord>18.60083 -34.18903 0</gx:coord>
        <gx:coord>18.59665 -34.18536 0</gx:coord>
        <gx:coord>18.59307 -34.18217 0</gx:coord>
        <gx:coord>18.5878 -34.17751 0</gx:coord>
        <gx:coord>18.58389 -34.174 0</gx:coord>
        <gx:coord>18.58007 -34.17055 0</gx:coord>
        <gx:coord>18.57491 -34.16592 0</gx:coord>
        <gx:coord>18.57107 -34.1625 0</gx:coord>
        <gx:coord>18.56605 -34.158 0</gx:coord>
        <gx:coord>18.56209 -34.1544 0</gx:coord>
        <gx:coord>18.55675 -34.14958 0</gx:coord>
        <gx:coord>18.5521 -34.14542 0</gx:coord>
        <gx:coord>18.54681 -34.14071 0</gx:coord>
        <gx:coord>18.54302 -34.13731 0</gx:coord>
        <gx:coord>18.53932 -34.13397 0</gx:coord>
        <gx:coord>18.53394 -34.12912 0</gx:coord>
        <gx:coord>18.53033 -34.12582 0</gx:coord>
        <gx:coord>18.52638 -34.12228 0</gx:coord>
        <gx:coord>18.5214 -34.11781 0</gx:coord>
        <gx:coord>18.51751 -34.11432 0</gx:coord>
        <gx:coord>18.51271 -34.11013 0</gx:coord>
        <gx:coord>18.50905 -34.10683 0</gx:coord>
        <gx:coord>18.50647 -34.10449 0</gx:coord>
        <gx:coord>18.50277 -34.10124 0</gx:coord>
        <gx:coord>18.49812 -34.09709 0</gx:coord>
        <gx:coord>18.49335 -34.09268 0</gx:coord>
        <gx:coord>18.48904 -34.0887 0</gx:coord>
        <gx:coord>18.48438 -34.08434 0</gx:coord>
        <gx:coord>18.48101 -34.08108 0</gx:coord>
        <gx:coord>18.48001 -34.08005 0</gx:coord>
        <gx:coord>18.47912 -34.07917 0</gx:coord>
        <gx:coord>18.47799 -34.07803 0</gx:coord>
        <gx:coord>18.47508 -34.07487 0</gx:coord>
        <gx:coord>18.4742 -34.07401 0</gx:coord>
        <gx:coord>18.47334 -34.07302 0</gx:coord>
        <gx:coord>18.47222 -34.07185 0</gx:coord>
        <gx:coord>18.47138 -34.07094 0</gx:coord>
        <gx:coord>18.47032 -34.06975 0</gx:coord>
        <gx:coord>18.46951 -34.06888 0</gx:coord>
        <gx:coord>18.46842 -34.06776 0</gx:coord>
        <gx:coord>18.46762 -34.06688 0</gx:coord>
        <gx:coord>18.46662 -34.06572 0</gx:coord>
        <gx:coord>18.46577 -34.0648 0</gx:coord>
        <gx:coord>18.46488 -34.0638 0</gx:coord>
        <gx:coord>18.46409 -34.06293 0</gx:coord>
        <gx:coord>18.4632 -34.06192 0</gx:coord>
        <gx:coord>18.45967 -34.05803 0</gx:coord>
        <gx:coord>18.45675 -34.05478 0</gx:coord>
        <gx:coord>18.45288 -34.05052 0</gx:coord>
        <gx:coord>18.44924 -34.04659 0</gx:coord>
        <gx:coord>18.44645 -34.04351 0</gx:coord>
        <gx:coord>18.44273 -34.03937 0</gx:coord>
        <gx:coord>18.43987 -34.03625 0</gx:coord>
        <gx:coord>18.437 -34.03304 0</gx:coord>
        <gx:coord>18.43405 -34.02988 0</gx:coord>
        <gx:coord>18.43008 -34.02582 0</gx:coord>
        <gx:coord>18.42659 -34.02255 0</gx:coord>
        <gx:coord>18.4255 -34.02154 0</gx:coord>
        <gx:coord>18.42459 -34.02079 0</gx:coord>
        <gx:coord>18.42367 -34.02005 0</gx:coord>
        <gx:coord>18.42241 -34.01902 0</gx:coord>
        <gx:coord>18.42155 -34.01839 0</gx:coord>
        <gx:coord>18.42043 -34.01756 0</gx:coord>
        <gx:coord>18.41936 -34.01688 0</gx:coord>
        <gx:coord>18.41841 -34.01624 0</gx:coord>
        <gx:coord>18.41732 -34.01558 0</gx:coord>
        <gx:coord>18.41618 -34.01498 0</gx:coord>
        <gx:coord>18.41488 -34.01431 0</gx:coord>
        <gx:coord>18.41389 -34.01386 0</gx:coord>
        <gx:coord>18.41281 -34.01335 0</gx:coord>
        <gx:coord>18.41146 -34.01271 0</gx:coord>
        <gx:coord>18.41045 -34.01228 0</gx:coord>
        <gx:coord>18.4095 -34.01189 0</gx:coord>
        <gx:coord>18.40822 -34.0113 0</gx:coord>
        <gx:coord>18.40702 -34.01074 0</gx:coord>
        <gx:coord>18.40597 -34.01028 0</gx:coord>
        <gx:coord>18.40508 -34.00981 0</gx:coord>
        <gx:coord>18.40401 -34.00914 0</gx:coord>
        <gx:coord>18.40324 -34.0086 0</gx:coord>
        <gx:coord>18.40221 -34.00772 0</gx:coord>
        <gx:coord>18.40147 -34.00702 0</gx:coord>
        <gx:coord>18.40092 -34.0063 0</gx:coord>
        <gx:coord>18.40004 -34.00511 0</gx:coord>
        <gx:coord>18.39947 -34.0042 0</gx:coord>
        <gx:coord>18.39008 -34.00101 0</gx:coord>
        <gx:coord>18.38999 -34.00406 0</gx:coord>
        <gx:coord>18.39048 -34.00511 0</gx:coord>
        <gx:coord>18.39078 -34.00562 0</gx:coord>
        <gx:coord>18.39106 -34.00608 0</gx:coord>
        <gx:coord>18.39128 -34.00639 0</gx:coord>
        <gx:coord>18.39156 -34.00671 0</gx:coord>
        <gx:coord>18.39191 -34.00716 0</gx:coord>
        <gx:coord>18.39209 -34.00743 0</gx:coord>
        <gx:coord>18.3924 -34.00777 0</gx:coord>
        <gx:coord>18.39266 -34.00809 0</gx:coord>
        <gx:coord>18.39289 -34.00841 0</gx:coord>
        <gx:coord>18.39313 -34.00868 0</gx:coord>
        <gx:coord>18.39336 -34.00896 0</gx:coord>
        <gx:coord>18.39358 -34.00919 0</gx:coord>
        <gx:coord>18.3938 -34.00955 0</gx:coord>
        <gx:coord>18.39403 -34.00985 0</gx:coord>
        <gx:coord>18.39426 -34.01014 0</gx:coord>
        <gx:coord>18.39448 -34.01042 0</gx:coord>
        <gx:coord>18.39495 -34.01102 0</gx:coord>
        <gx:coord>18.39518 -34.0112 0</gx:coord>
        <gx:coord>18.3954 -34.01144 0</gx:coord>
        <gx:coord>18.39592 -34.01186 0</gx:coord>
        <gx:coord>18.39633 -34.01225 0</gx:coord>
        <gx:coord>18.39649 -34.01246 0</gx:coord>
        <gx:coord>18.39684 -34.0127 0</gx:coord>
        <gx:coord>18.39729 -34.01293 0</gx:coord>
        <gx:coord>18.39735 -34.0126 0</gx:coord>
        <gx:coord>18.39764 -34.01237 0</gx:coord>
        <gx:coord>18.39821 -34.01218 0</gx:coord>
        <gx:coord>18.39851 -34.01207 0</gx:coord>
        <gx:coord>18.39912 -34.0119 0</gx:coord>
        <gx:coord>18.39964 -34.01176 0</gx:coord>
        <gx:coord>18.40036 -34.01166 0</gx:coord>
        <gx:coord>18.40101 -34.01153 0</gx:coord>
        <gx:coord>18.40182 -34.01138 0</gx:coord>
        <gx:coord>18.40277 -34.01129 0</gx:coord>
        <gx:coord>18.40361 -34.0112 0</gx:coord>
        <gx:coord>18.40445 -34.01116 0</gx:coord>
        <gx:coord>18.40535 -34.01106 0</gx:coord>
        <gx:coord>18.40656 -34.01093 0</gx:coord>
        <gx:coord>18.40759 -34.01079 0</gx:coord>
        <gx:coord>18.4086 -34.01065 0</gx:coord>
        <gx:coord>18.40978 -34.01051 0</gx:coord>
        <gx:coord>18.41107 -34.01033 0</gx:coord>
        <gx:coord>18.41241 -34.01015 0</gx:coord>
        <gx:coord>18.41349 -34.00999 0</gx:coord>
        <gx:coord>18.41471 -34.00978 0</gx:coord>
        <gx:coord>18.41618 -34.00943 0</gx:coord>
        <gx:coord>18.41757 -34.00914 0</gx:coord>
        <gx:coord>18.4188 -34.00887 0</gx:coord>
        <gx:coord>18.42001 -34.0086 0</gx:coord>
        <gx:coord>18.42127 -34.00827 0</gx:coord>
        <gx:coord>18.42228 -34.00804 0</gx:coord>
        <gx:coord>18.42373 -34.00767 0</gx:coord>
        <gx:coord>18.42503 -34.00735 0</gx:coord>
        <gx:coord>18.42653 -34.00697 0</gx:coord>
        <gx:coord>18.42788 -34.00662 0</gx:coord>
        <gx:coord>18.42934 -34.0063 0</gx:coord>
        <gx:coord>18.43063 -34.00598 0</gx:coord>
        <gx:coord>18.43203 -34.00562 0</gx:coord>
        <gx:coord>18.4334 -34.00525 0</gx:coord>
        <gx:coord>18.435 -34.00483 0</gx:coord>
        <gx:coord>18.43626 -34.0045 0</gx:coord>
        <gx:coord>18.43764 -34.0041 0</gx:coord>
        <gx:coord>18.43912 -34.00366 0</gx:coord>
        <gx:coord>18.44055 -34.00329 0</gx:coord>
        <gx:coord>18.4421 -34.00287 0</gx:coord>
        <gx:coord>18.4433 -34.00254 0</gx:coord>
        <gx:coord>18.4447 -34.00214 0</gx:coord>
        <gx:coord>18.44599 -34.0018 0</gx:coord>
        <gx:coord>18.44765 -34.00134 0</gx:coord>
        <gx:coord>18.44885 -34.00101 0</gx:coord>
        <gx:coord>18.45039 -34.00064 0</gx:coord>
        <gx:coord>18.45165 -34.00036 0</gx:coord>
        <gx:coord>18.45337 -33.99994 0</gx:coord>
        <gx:coord>18.45469 -33.99966 0</gx:coord>
        <gx:coord>18.45619 -33.9993 0</gx:coord>
        <gx:coord>18.45737 -33.99898 0</gx:coord>
        <gx:coord>18.45871 -33.9987 0</gx:coord>
        <gx:coord>18.46487 -33.99728 0</gx:coord>
        <gx:coord>18.4691 -33.99626 0</gx:coord>
        <gx:coord>18.47474 -33.9949 0</gx:coord>
        <gx:coord>18.47906 -33.99379 0</gx:coord>
        <gx:coord>18.48472 -33.99229 0</gx:coord>
        <gx:coord>18.48909 -33.99115 0</gx:coord>
        <gx:coord>18.49457 -33.98965 0</gx:coord>
        <gx:coord>18.49907 -33.9884 0</gx:coord>
        <gx:coord>18.50458 -33.98676 0</gx:coord>
        <gx:coord>18.51039 -33.98502 0</gx:coord>
        <gx:coord>18.51622 -33.98318 0</gx:coord>
        <gx:coord>18.52211 -33.98131 0</gx:coord>
        <gx:coord>18.52633 -33.97987 0</gx:coord>
        <gx:coord>18.53181 -33.9781 0</gx:coord>
        <gx:coord>18.53719 -33.9765 0</gx:coord>
        <gx:coord>18.54172 -33.97522 0</gx:coord>
        <gx:coord>18.5475 -33.97368 0</gx:coord>
        <gx:coord>18.54881 -33.97336 0</gx:coord>
        <gx:coord>18.55299 -33.97233 0</gx:coord>
        <gx:coord>18.55832 -33.97096 0</gx:coord>
        <gx:coord>18.56252 -33.96991 0</gx:coord>
        <gx:coord>18.56787 -33.9687 0</gx:coord>
        <gx:coord>18.56914 -33.96844 0</gx:coord>
        <gx:coord>18.57056 -33.96814 0</gx:coord>
        <gx:coord>18.57159 -33.968 0</gx:coord>
        <gx:coord>18.5733 -33.96768 0</gx:coord>
        <gx:coord>18.57435 -33.96753 0</gx:coord>
        <gx:coord>18.57575 -33.9673 0</gx:coord>
        <gx:coord>18.57691 -33.96712 0</gx:coord>
        <gx:coord>18.57811 -33.96698 0</gx:coord>
        <gx:coord>18.57951 -33.96684 0</gx:coord>
        <gx:coord>18.58057 -33.96679 0</gx:coord>
        <gx:coord>18.58177 -33.9667 0</gx:coord>
        <gx:coord>18.58281 -33.96661 0</gx:coord>
        <gx:coord>18.58383 -33.96656 0</gx:coord>
        <gx:coord>18.58486 -33.96651 0</gx:coord>
        <gx:coord>18.58572 -33.96651 0</gx:coord>
        <gx:coord>18.58669 -33.96651 0</gx:coord>
        <gx:coord>18.58763 -33.96652 0</gx:coord>
        <gx:coord>18.58859 -33.96652 0</gx:coord>
        <gx:coord>18.58944 -33.96661 0</gx:coord>
        <gx:coord>18.59027 -33.96675 0</gx:coord>
        <gx:coord>18.59121 -33.96703 0</gx:coord>
        <gx:coord>18.59173 -33.96725 0</gx:coord>
        <gx:coord>18.59236 -33.96768 0</gx:coord>
        <gx:coord>18.59285 -33.96803 0</gx:coord>
        <gx:coord>18.59318 -33.9684 0</gx:coord>
        <gx:coord>18.59363 -33.96881 0</gx:coord>
        <gx:coord>18.59397 -33.96927 0</gx:coord>
        <gx:coord>18.5943 -33.96964 0</gx:coord>
        <gx:coord>18.59453 -33.96996 0</gx:coord>
        <gx:coord>18.59475 -33.97023 0</gx:coord>
        <gx:coord>18.59505 -33.97057 0</gx:coord>
        <gx:coord>18.59528 -33.97084 0</gx:coord>
        <gx:coord>18.59554 -33.97115 0</gx:coord>
        <gx:coord>18.59576 -33.97147 0</gx:coord>
        <gx:coord>18.59602 -33.97173 0</gx:coord>
        <gx:coord>18.59632 -33.97202 0</gx:coord>
        <gx:coord>18.59671 -33.97233 0</gx:coord>
        <gx:coord>18.59694 -33.97256 0</gx:coord>
        <gx:coord>18.59728 -33.9728 0</gx:coord>
        <gx:coord>18.59756 -33.97302 0</gx:coord>
        <gx:coord>18.59791 -33.97326 0</gx:coord>
        <gx:coord>18.59817 -33.97353 0</gx:coord>
        <gx:coord>18.59854 -33.97392 0</gx:coord>
        <gx:coord>18.59871 -33.9742 0</gx:coord>
        <gx:coord>18.5989 -33.97453 0</gx:coord>
        <gx:coord>18.59922 -33.97494 0</gx:coord>
        <gx:coord>18.59946 -33.97531 0</gx:coord>
        <gx:coord>18.59963 -33.97559 0</gx:coord>
        <gx:coord>18.59977 -33.97593 0</gx:coord>
        <gx:coord>18.59974 -33.97614 0</gx:coord>
        <gx:coord>18.59952 -33.97623 0</gx:coord>
      </gx:Track>
      <LineString>
        <tessellate>1</tessellate>
        <coordinates>18.7795,-34.34633,0 18.77478,-34.34159,0 18.77375,-34.34061,0 18.75305,-34.3217,0 18.74873,-34.31786,0 18.74456,-34.31412,0 18.74016,-34.31035,0 18.73547,-34.30635,0 18.73032,-34.30192,0 18.72677,-34.29885,0 18.72173,-34.29448,0 18.71684,-34.29021,0 18.71274,-34.28668,0 18.70854,-34.28293,0 18.70451,-34.27939,0 18.70052,-34.27579,0 18.69565,-34.27144,0 18.69049,-34.267,0 18.68631,-34.26342,0 18.68219,-34.25993,0 18.67796,-34.25635,0 18.67327,-34.25235,0 18.66891,-34.2486,0 18.66486,-34.24513,0 18.65988,-34.24085,0 18.65563,-34.2372,0 18.65038,-34.23265,0 18.64614,-34.22898,0 18.64225,-34.22558,0 18.6371,-34.22111,0 18.63326,-34.2177,0 18.62911,-34.21408,0 18.62418,-34.20973,0 18.62022,-34.20626,0 18.61513,-34.20174,0 18.6113,-34.19835,0 18.60613,-34.1938,0 18.60083,-34.18903,0 18.59665,-34.18536,0 18.59307,-34.18217,0 18.5878,-34.17751,0 18.58389,-34.174,0 18.58007,-34.17055,0 18.57491,-34.16592,0 18.57107,-34.1625,0 18.56605,-34.158,0 18.56209,-34.1544,0 18.55675,-34.14958,0 18.5521,-34.14542,0 18.54681,-34.14071,0 18.54302,-34.13731,0 18.53932,-34.13397,0 18.53394,-34.12912,0 18.53033,-34.12582,0 18.52638,-34.12228,0 18.5214,-34.11781,0 18.51751,-34.11432,0 18.51271,-34.11013,0 18.50905,-34.10683,0 18.50647,-34.10449,0 18.50277,-34.10124,0 18.49812,-34.09709,0 18.49335,-34.09268,0 18.48904,-34.0887,0 18.48438,-34.08434,0 18.48101,-34.08108,0 18.48001,-34.08005,0 18.47912,-34.07917,0 18.47799,-34.07803,0 18.47508,-34.07487,0 18.4742,-34.07401,0 18.47334,-34.07302,0 18.47222,-34.07185,0 18.47138,-34.07094,0 18.47032,-34.06975,0 18.46951,-34.06888,0 18.46842,-34.06776,0 18.46762,-34.06688,0 18.46662,-34.06572,0 18.46577,-34.0648,0 18.46488,-34.0638,0 18.46409,-34.06293,0 18.4632,-34.06192,0 18.45967,-34.05803,0 18.45675,-34.05478,0 18.45288,-34.05052,0 18.44924,-34.04659,0 18.44645,-34.04351,0 18.44273,-34.03937,0 18.43987,-34.03625,0 18.437,-34.03304,0 18.43405,-34.02988,0 18.43008,-34.02582,0 18.42659,-34.02255,0 18.4255,-34.02154,0 18.42459,-34.02079,0 18.42367,-34.02005,0 18.42241,-34.01902,0 18.42155,-34.01839,0 18.42043,-34.01756,0 18.41936,-34.01688,0 18.41841,-34.01624,0 18.41732,-34.01558,0 18.41618,-34.01498,0 18.41488,-34.01431,0 18.41389,-34.01386,0 18.41281,-34.01335,0 18.41146,-34.01271,0 18.41045,-34.01228,0 18.4095,-34.01189,0 18.40822,-34.0113,0 18.40702,-34.01074,0 18.40597,-34.01028,0 18.40508,-34.00981,0 18.40401,-34.00914,0 18.40324,-34.0086,0 18.40221,-34.00772,0 18.40147,-34.00702,0 18.40092,-34.0063,0 18.40004,-34.00511,0 18.39947,-34.0042,0 18.39008,-34.00101,0 18.38999,-34.00406,0 18.39048,-34.00511,0 18.39078,-34.00562,0 18.39106,-34.00608,0 18.39128,-34.00639,0 18.39156,-34.00671,0 18.39191,-34.00716,0 18.39209,-34.00743,0 18.3924,-34.00777,0 18.39266,-34.00809,0 18.39289,-34.00841,0 18.39313,-34.00868,0 18.39336,-34.00896,0 18.39358,-34.00919,0 18.3938,-34.00955,0 18.39403,-34.00985,0 18.39426,-34.01014,0 18.39448,-34.01042,0 18.39495,-34.01102,0 18.39518,-34.0112,0 18.3954,-34.01144,0 18.39592,-34.01186,0 18.39633,-34.01225,0 18.39649,-34.01246,0 18.39684,-34.0127,0 18.39729,-34.01293,0 18.39735,-34.0126,0 18.39764,-34.01237,0 18.39821,-34.01218,0 18.39851,-34.01207,0 18.39912,-34.0119,0 18.39964,-34.01176,0 18.40036,-34.01166,0 18.40101,-34.01153,0 18.40182,-34.01138,0 18.40277,-34.01129,0 18.40361,-34.0112,0 18.40445,-34.01116,0 18.40535,-34.01106,0 18.40656,-34.01093,0 18.40759,-34.01079,0 18.4086,-34.01065,0 18.40978,-34.01051,0 18.41107,-34.01033,0 18.41241,-34.01015,0 18.41349,-34.00999,0 18.41471,-34.00978,0 18.41618,-34.00943,0 18.41757,-34.00914,0 18.4188,-34.00887,0 18.42001,-34.0086,0 18.42127,-34.00827,0 18.42228,-34.00804,0 18.42373,-34.00767,0 18.42503,-34.00735,0 18.42653,-34.00697,0 18.42788,-34.00662,0 18.42934,-34.0063,0 18.43063,-34.00598,0 18.43203,-34.00562,0 18.4334,-34.00525,0 18.435,-34.00483,0 18.43626,-34.0045,0 18.43764,-34.0041,0 18.43912,-34.00366,0 18.44055,-34.00329,0 18.4421,-34.00287,0 18.4433,-34.00254,0 18.4447,-34.00214,0 18.44599,-34.0018,0 18.44765,-34.00134,0 18.44885,-34.00101,0 18.45039,-34.00064,0 18.45165,-34.00036,0 18.45337,-33.99994,0 18.45469,-33.99966,0 18.45619,-33.9993,0 18.45737,-33.99898,0 18.45871,-33.9987,0 18.46487,-33.99728,0 18.4691,-33.99626,0 18.47474,-33.9949,0 18.47906,-33.99379,0 18.48472,-33.99229,0 18.48909,-33.99115,0 18.49457,-33.98965,0 18.49907,-33.9884,0 18.50458,-33.98676,0 18.51039,-33.98502,0 18.51622,-33.98318,0 18.52211,-33.98131,0 18.52633,-33.97987,0 18.53181,-33.9781,0 18.53719,-33.9765,0 18.54172,-33.97522,0 18.5475,-33.97368,0 18.54881,-33.97336,0 18.55299,-33.97233,0 18.55832,-33.97096,0 18.56252,-33.96991,0 18.56787,-33.9687,0 18.56914,-33.96844,0 18.57056,-33.96814,0 18.57159,-33.968,0 18.5733,-33.96768,0 18.57435,-33.96753,0 18.57575,-33.9673,0 18.57691,-33.96712,0 18.57811,-33.96698,0 18.57951,-33.96684,0 18.58057,-33.96679,0 18.58177,-33.9667,0 18.58281,-33.96661,0 18.58383,-33.96656,0 18.58486,-33.96651,0 18.58572,-33.96651,0 18.58669,-33.96651,0 18.58763,-33.96652,0 18.58859,-33.96652,0 18.58944,-33.96661,0 18.59027,-33.96675,0 18.59121,-33.96703,0 18.59173,-33.96725,0 18.59236,-33.96768,0 18.59285,-33.96803,0 18.59318,-33.9684,0 18.59363,-33.96881,0 18.59397,-33.96927,0 18.5943,-33.96964,0 18.59453,-33.96996,0 18.59475,-33.97023,0 18.59505,-33.97057,0 18.59528,-33.97084,0 18.59554,-33.97115,0 18.59576,-33.97147,0 18.59602,-33.97173,0 18.59632,-33.97202,0 18.59671,-33.97233,0 18.59694,-33.97256,0 18.59728,-33.9728,0 18.59756,-33.97302,0 18.59791,-33.97326,0 18.59817,-33.97353,0 18.59854,-33.97392,0 18.59871,-33.9742,0 18.5989,-33.97453,0 18.59922,-33.97494,0 18.59946,-33.97531,0 18.59963,-33.97559,0 18.59977,-33.97593,0 18.59974,-33.97614,0 18.59952,-33.97623,0</coordinates>
      </LineString>
    </Placemark>
  </Document>
</kml>
