<?xml version="1.0" encoding="UTF-8"?>
<kml xmlns="http://www.opengis.net/kml/2.2">
  <Document>
    <name>FR24 4086b37b</name>
    <Placemark>
      <name>FR24 4086b37b</name>
      <Style><LineStyle><color>ff0000ff</color><width>4</width></LineStyle></Style>
      <LineString>
        <tessellate>1</tessellate>
        <coordinates>18.42934,-33.89557,0 18.43031,-33.8938,0 18.43134,-33.8918,0 18.43237,-33.88976,0 18.43293,-33.88852,0 18.43315,-33.88788,0 18.43328,-33.88714,0 18.43328,-33.88649,0 18.4331,-33.88559,0 18.43271,-33.88477,0 18.43208,-33.88384,0 18.43145,-33.88323,0 18.43052,-33.88252,0 18.42957,-33.88197,0 18.42842,-33.88146,0 18.42751,-33.88114,0 18.42636,-33.88081,0 18.42514,-33.88051,0 18.42402,-33.88023,0 18.4231,-33.88007,0 18.42201,-33.87988,0 18.4211,-33.87974,0 18.41995,-33.8796,0 18.41841,-33.8795,0 18.41652,-33.87941,0 18.41486,-33.87941,0 18.41394,-33.87941,0 18.41286,-33.87946,0 18.41185,-33.8795,0 18.41103,-33.8796,0 18.41,-33.87965,0 18.40914,-33.8796,0 18.40827,-33.87946,0 18.40742,-33.87918,0 18.40647,-33.87863,0 18.40593,-33.87816,0 18.40552,-33.87758,0 18.40529,-33.87657,0 18.40541,-33.87575,0 18.40582,-33.8749,0 18.40639,-33.87434,0 18.40703,-33.87387,0 18.40782,-33.8735,0 18.40871,-33.87323,0 18.40961,-33.87305,0 18.41034,-33.87286,0 18.41129,-33.87263,0 18.412,-33.87248,0 18.41263,-33.87234,0 18.41353,-33.87218,0 18.41404,-33.87213,0 18.4148,-33.87215,0 18.41555,-33.87236,0 18.41623,-33.87277,0 18.41673,-33.87318,0 18.41707,-33.87387,0 18.41718,-33.87474,0 18.41701,-33.87543,0 18.41646,-33.8763,0 18.41583,-33.8769,0 18.41509,-33.87741,0 18.41398,-33.87804,0 18.41314,-33.87844,0 18.41228,-33.87886,0 18.41135,-33.87927,0 18.41022,-33.87979,0 18.40925,-33.88016,0 18.40805,-33.88067,0 18.40681,-33.88115,0 18.40576,-33.8816,0 18.40462,-33.88211,0 18.40339,-33.88261,0 18.4021,-33.88323,0 18.40073,-33.88384,0 18.3997,-33.8843,0 18.39844,-33.88496,0 18.39741,-33.88547,0 18.39627,-33.88614,0 18.39498,-33.88696,0 18.39408,-33.88765,0 18.39291,-33.88861,0 18.39184,-33.88953,0 18.39095,-33.89026,0 18.38988,-33.89122,0 18.38904,-33.89214,0 18.3882,-33.89315,0 18.38747,-33.8941,0 18.38665,-33.89524,0 18.38585,-33.8963,0 18.38511,-33.89724,0 18.38436,-33.89817,0 18.38362,-33.8992,0 18.38264,-33.90036,0 18.38198,-33.90125,0 18.38108,-33.9023,0 18.38024,-33.9034,0 18.37951,-33.90427,0 18.37875,-33.9052,0 18.37811,-33.90605,0 18.37732,-33.90697,0 18.37481,-33.91009,0 18.37245,-33.91278,0 18.37177,-33.91349,0 18.37057,-33.91475,0 18.3696,-33.91577,0 18.3688,-33.91658,0 18.36774,-33.91768,0 18.3669,-33.91855,0 18.36588,-33.91959,0 18.36508,-33.92048,0 18.36404,-33.92166,0 18.3632,-33.92262,0 18.36239,-33.92355,0 18.36168,-33.92441,0 18.36096,-33.92522,0 18.35999,-33.92643,0 18.35933,-33.92725,0 18.35833,-33.92848,0 18.35758,-33.9295,0 18.35692,-33.9304,0 18.35608,-33.9315,0 18.35541,-33.93235,0 18.35472,-33.93328,0 18.35381,-33.93449,0 18.35243,-33.93621,0 18.3516,-33.93723,0 18.35083,-33.93816,0 18.34991,-33.93929,0 18.34923,-33.94007,0 18.34834,-33.94089,0 18.34722,-33.94171,0 18.34593,-33.94231,0 18.34488,-33.94263,0 18.34333,-33.94282,0 18.34156,-33.94267,0 18.34106,-33.94254,0 18.33954,-33.94189,0 18.33848,-33.94116,0 18.33775,-33.94029,0 18.33719,-33.93906,0 18.3371,-33.93816,0 18.33725,-33.93718,0 18.33755,-33.93644,0 18.33786,-33.93571,0 18.33825,-33.93503,0 18.33876,-33.93435,0 18.33927,-33.93365,0 18.33973,-33.93314,0 18.34022,-33.93265,0 18.34078,-33.93224,0 18.34151,-33.93187,0 18.34224,-33.93169,0 18.34302,-33.93164,0 18.34397,-33.93178,0 18.34471,-33.93211,0 18.34557,-33.93267,0 18.3462,-33.93332,0 18.34661,-33.93402,0 18.34706,-33.93512,0 18.34722,-33.93594,0 18.34728,-33.93709,0 18.34728,-33.93802,0 18.34711,-33.93933,0 18.34694,-33.94035,0 18.34665,-33.94165,0 18.34644,-33.94263,0 18.34599,-33.94414,0 18.34568,-33.94533,0 18.34534,-33.94645,0 18.34504,-33.94743,0 18.34465,-33.94876,0 18.34431,-33.94977,0 18.34396,-33.95097,0 18.34362,-33.95199,0 18.34324,-33.95338,0 18.34291,-33.95453,0 18.34257,-33.95576,0 18.34229,-33.95682,0 18.34196,-33.95804,0 18.34083,-33.96176,0 18.33967,-33.96544,0 18.33847,-33.96926,0 18.33721,-33.9741,0 18.33691,-33.97527,0 18.33646,-33.97751,0 18.33624,-33.97894,0 18.33607,-33.98021,0 18.33596,-33.98158,0 18.33596,-33.98286,0 18.33607,-33.9841,0 18.33624,-33.98555,0 18.33658,-33.9869,0 18.42842,-33.89957,0 18.42819,-33.89952,0 18.42805,-33.89932,0 18.42796,-33.89906,0 18.42788,-33.89873,0 18.42796,-33.8979,0 18.42802,-33.89762,0 18.42813,-33.89738,0 18.42825,-33.89715,0 18.42833,-33.8969,0 18.42848,-33.89664,0 18.42872,-33.89621,0 18.42889,-33.89584,0 18.42917,-33.89543,0 18.42962,-33.89452,0 18.42997,-33.89403,0 18.43029,-33.89342,0 18.4306,-33.89291,0 18.43108,-33.89223,0 18.43147,-33.89172,0 18.43185,-33.89124,0 18.43231,-33.89059,0 18.43294,-33.88975,0 18.43332,-33.88911,0 18.43366,-33.88852,0 18.43386,-33.88789,0 18.43391,-33.88714,0 18.43374,-33.88635,0 18.43355,-33.88577,0 18.43315,-33.88522,0 18.43243,-33.88449,0 18.43186,-33.88412,0 18.43111,-33.88374,0 18.43035,-33.88344,0 18.42962,-33.88328,0 18.42895,-33.88307,0 18.42785,-33.88281,0 18.42654,-33.88257,0 18.42596,-33.88249,0 18.42497,-33.88234,0 18.42396,-33.8822,0 18.42299,-33.88207,0 18.42217,-33.88197,0 18.42127,-33.88188,0 18.42048,-33.88179,0 18.41953,-33.88174,0 18.41852,-33.88169,0 18.41757,-33.8817,0 18.41673,-33.88174,0 18.41572,-33.88179,0 18.41482,-33.88174,0 18.41389,-33.88156,0 18.4132,-33.88132,0 18.41251,-33.88086,0 18.41194,-33.88016,0 18.41174,-33.8795,0 18.41177,-33.87877,0 18.41206,-33.87797,0 18.41247,-33.87735,0 18.41314,-33.87681,0 18.41398,-33.87634,0 18.41486,-33.87602,0 18.41555,-33.87579,0 18.41646,-33.8756,0 18.41743,-33.87541,0 18.41824,-33.87529,0 18.41898,-33.87523,0 18.41998,-33.87524,0 18.42075,-33.87532,0 18.42166,-33.87556,0 18.4223,-33.87583,0 18.42299,-33.87639,0 18.4234,-33.87689,0 18.42374,-33.87753,0 18.4239,-33.8782,0 18.42396,-33.87895,0 18.42379,-33.8797,0 18.4235,-33.88034,0 18.42276,-33.88114,0 18.42201,-33.88165,0 18.42133,-33.88193,0 18.42015,-33.88229,0 18.41897,-33.88257,0 18.41796,-33.88271,0 18.41662,-33.88293,0 18.4155,-33.88307,0 18.41446,-33.88319,0 18.41309,-33.88335,0 18.41228,-33.88342,0 18.41084,-33.88362,0 18.4095,-33.8838,0 18.40811,-33.88398,0 18.40686,-33.88422,0 18.40542,-33.88458,0 18.40416,-33.88491,0 18.403,-33.88531,0 18.40199,-33.88568,0 18.40101,-33.88612,0 18.39952,-33.88678,0 18.3984,-33.88737,0 18.39739,-33.88792,0 18.39621,-33.88861,0 18.39476,-33.88957,0 18.39363,-33.89031,0 18.39266,-33.89096,0 18.39145,-33.89191,0 18.3905,-33.89273,0 18.3896,-33.89374,0 18.38881,-33.89479,0 18.3882,-33.89566,0 18.3873,-33.89676,0 18.38652,-33.89763,0 18.38562,-33.89854,0 18.38461,-33.89955,0 18.38367,-33.90041,0 18.38287,-33.90115,0 18.38156,-33.90227,0 18.38064,-33.90306,0 18.37961,-33.9039,0 18.37867,-33.90468,0 18.37772,-33.90548,0 18.3766,-33.90646,0 18.37543,-33.90744,0 18.37452,-33.90829,0 18.37378,-33.90898,0 18.3729,-33.90981,0 18.37183,-33.91084,0 18.37074,-33.91191,0 18.36992,-33.91269,0 18.3688,-33.91382,0 18.36813,-33.91452,0 18.36714,-33.91558,0 18.36617,-33.91661,0 18.36516,-33.91772,0 18.36438,-33.91859,0 18.36353,-33.91956,0 18.36267,-33.92048,0 18.36176,-33.92154,0 18.36102,-33.92243,0 18.3601,-33.92345,0 18.35933,-33.92441,0 18.35861,-33.92527,0 18.35781,-33.9262,0 18.35698,-33.92715,0 18.35608,-33.92816,0 18.35535,-33.92903,0 18.35455,-33.92997,0 18.3535,-33.93123,0 18.35255,-33.9323,0 18.35148,-33.93324,0 18.35031,-33.93402,0 18.34934,-33.93444,0 18.34829,-33.9348,0 18.34682,-33.93514,0 18.34557,-33.93523,0 18.34425,-33.93526,0 18.34316,-33.93514,0 18.34179,-33.93476,0 18.34087,-33.93439,0 18.33996,-33.93379,0 18.33921,-33.933,0 18.33882,-33.9321,0 18.33865,-33.93127,0 18.3387,-33.93059,0 18.33904,-33.92953,0 18.33961,-33.92857,0 18.34016,-33.92784,0 18.34078,-33.92725,0 18.34117,-33.92679,0 18.34207,-33.92587,0 18.34252,-33.92537,0 18.34311,-33.92476,0 18.34358,-33.92432,0 18.3442,-33.92381,0 18.34465,-33.92345,0 18.34543,-33.92299,0 18.34637,-33.92266,0 18.34717,-33.92257,0 18.34814,-33.92262,0 18.34888,-33.9228,0 18.34986,-33.92331,0 18.35037,-33.92373,0 18.35109,-33.92459,0 18.35148,-33.92546,0 18.35175,-33.92676,0 18.35175,-33.92764,0 18.35171,-33.92871,0 18.3516,-33.92953,0 18.35137,-33.93086,0 18.35117,-33.93188,0 18.35089,-33.93309,0 18.35059,-33.9342,0 18.35025,-33.93535,0 18.34986,-33.93658,0 18.34951,-33.93774,0 18.34923,-33.93877,0 18.34883,-33.94003,0 18.34843,-33.94133,0 18.34801,-33.94267,0 18.34762,-33.94377,0 18.34711,-33.94542,0 18.34672,-33.94652,0 18.34534,-33.95092,0 18.34414,-33.95483,0 18.3433,-33.95778,0 18.34123,-33.96616,0 18.34095,-33.96739,0 18.34059,-33.96926,0 18.34027,-33.97105,0 18.33994,-33.97275,0 18.33971,-33.97403,0 18.33956,-33.97527,0 18.33938,-33.97636,0 18.47699,-33.9836,0 18.47766,-33.97934,0 18.47833,-33.97545,0 18.4786,-33.97322,0 18.47861,-33.97215,0 18.47866,-33.97108,0 18.47867,-33.96977,0 18.47861,-33.96877,0 18.47855,-33.96768,0 18.47844,-33.96638,0 18.47832,-33.9654,0 18.4782,-33.96437,0 18.47803,-33.96302,0 18.47788,-33.96204,0 18.47769,-33.96083,0 18.47752,-33.95976,0 18.47734,-33.9586,0 18.4771,-33.95728,0 18.47699,-33.95622,0 18.47683,-33.95511,0 18.47672,-33.95404,0 18.47659,-33.95293,0 18.47648,-33.95169,0 18.47643,-33.95059,0 18.47637,-33.94929,0 18.47631,-33.94822,0 18.47631,-33.94696,0 18.47631,-33.9458,0 18.47626,-33.94463,0 18.4762,-33.9435,0 18.47614,-33.94244,0 18.47609,-33.94142,0 18.47603,-33.94011,0 18.47592,-33.93915,0 18.47586,-33.93835,0 18.47569,-33.93677,0 18.47553,-33.93567,0 18.47528,-33.93453,0 18.47497,-33.9332,0 18.47448,-33.93169,0 18.47418,-33.93077,0 18.47374,-33.92953,0 18.47334,-33.92857,0 18.47278,-33.92747,0 18.47219,-33.92629,0 18.47144,-33.92509,0 18.4706,-33.92386,0 18.46987,-33.9229,0 18.4691,-33.92201,0 18.46819,-33.92094,0 18.46712,-33.91983,0 18.46636,-33.91903,0 18.46538,-33.91795,0 18.46453,-33.91703,0 18.46355,-33.91596,0 18.46252,-33.91475,0 18.4618,-33.91388,0 18.46092,-33.9127,0 18.46023,-33.91168,0 18.45949,-33.91056,0 18.45881,-33.90944,0 18.45829,-33.9086,0 18.45759,-33.90756,0 18.45703,-33.90665,0 18.4563,-33.90555,0 18.45566,-33.90455,0 18.45503,-33.90358,0 18.45446,-33.90274,0 18.45389,-33.90198,0 18.45311,-33.90092,0 18.45245,-33.90013,0 18.45171,-33.89943,0 18.45085,-33.89887,0 18.44976,-33.89846,0 18.4489,-33.89841,0 18.44773,-33.89859,0 18.44696,-33.89897,0 18.44616,-33.89952,0 18.44542,-33.90018,0 18.44459,-33.90083,0 18.44391,-33.90134,0 18.44302,-33.90193,0 18.44229,-33.90234,0 18.44128,-33.90271,0 18.44032,-33.90279,0 18.43946,-33.90265,0 18.43889,-33.90241,0 18.43842,-33.90207,0 18.4382,-33.90189,0 18.43792,-33.90167,0 18.43741,-33.9012,0 18.43678,-33.90083,0 18.43652,-33.90074,0 18.4362,-33.90064,0 18.43567,-33.90056,0 18.4354,-33.90051,0 18.43517,-33.90047,0 18.43472,-33.90041,0 18.43449,-33.90041,0 18.4342,-33.90036,0 18.43394,-33.90033,0 18.43369,-33.90032,0 18.43334,-33.90027,0 18.43311,-33.90027,0 18.43288,-33.90022,0 18.43254,-33.90019,0 18.43225,-33.90018,0 18.43203,-33.90013,0 18.4317,-33.9001,0 18.4314,-33.90009,0 18.43119,-33.90005,0 18.43097,-33.90001,0 18.43077,-33.89999,0 18.43035,-33.89992,0 18.43002,-33.8999,0 18.42973,-33.89987,0 18.42939,-33.89981,0 18.42916,-33.89981,0 18.42889,-33.89973,0 18.42867,-33.89969,0 18.42842,-33.89962,0 18.42819,-33.89934,0 18.42802,-33.89892,0 18.42794,-33.89859,0 18.42783,-33.89836,0 18.42777,-33.89795,0 18.42777,-33.89772,0 18.42777,-33.8974,0 18.42779,-33.89715,0 18.42785,-33.89692,0 18.42788,-33.89658,0 18.42796,-33.89631,0 18.42808,-33.89599,0 18.42822,-33.89557,0 18.42844,-33.89507,0 18.42867,-33.89456,0 18.42905,-33.89389,0 18.42934,-33.89333,0 18.42962,-33.89278,0 18.43008,-33.89203,0 18.43037,-33.89147,0 18.4308,-33.89081,0 18.43119,-33.89026,0 18.43163,-33.88961,0 18.43192,-33.88911,0 18.43226,-33.88847,0 18.43243,-33.88794,0 18.43248,-33.88728,0 18.43226,-33.88651,0 18.4318,-33.88593,0 18.43119,-33.8855,0 18.4306,-33.88523,0 18.42962,-33.885,0 18.42882,-33.88491,0 18.42762,-33.88496,0 18.42682,-33.885,0 18.42587,-33.88509,0 18.42486,-33.88522,0 18.42402,-33.88537,0 18.42316,-33.88547,0 18.42222,-33.88568,0 18.42121,-33.88589,0 18.42018,-33.88612,0 18.41942,-33.88628,0 18.41835,-33.88654,0 18.41751,-33.88673,0 18.41656,-33.88692,0 18.41578,-33.88705,0 18.4148,-33.88724,0 18.414,-33.88737,0 18.41275,-33.88756,0 18.41188,-33.8877,0 18.41103,-33.88784,0 18.40994,-33.88798,0 18.40894,-33.88815,0 18.40805,-33.88831,0 18.40709,-33.88852,0 18.40611,-33.88877,0 18.40518,-33.88902,0 18.40433,-33.88929,0 18.40316,-33.88976,0 18.40244,-33.89008,0 18.4017,-33.89045,0 18.40067,-33.89096,0 18.39981,-33.89133,0 18.39885,-33.89177,0 18.39806,-33.89214,0 18.39729,-33.8925,0 18.39638,-33.89291,0 18.39537,-33.89342,0 18.39453,-33.89383,0 18.39358,-33.89433,0 18.39277,-33.89478,0 18.39169,-33.89543,0 18.391,-33.89589,0 18.39014,-33.89641,0 18.38928,-33.89701,0 18.38831,-33.89772,0 18.38741,-33.89832,0 18.38642,-33.89906,0 18.38551,-33.89981,0 18.38484,-33.90038,0 18.38373,-33.9012,0 18.38293,-33.90189,0 18.38209,-33.90253,0 18.3811,-33.90334,0 18.38029,-33.90404,0 18.37944,-33.90469,0 18.37858,-33.90544,0 18.37761,-33.90628,0 18.37687,-33.90693,0 18.37587,-33.90779,0 18.37508,-33.90848,0 18.37429,-33.90921,0 18.37343,-33.91005,0 18.37252,-33.91098,0 18.37161,-33.91196,0 18.37086,-33.9127,0 18.36971,-33.91391,0 18.36892,-33.91475,0 18.36794,-33.91587,0 18.3672,-33.9167,0 18.36634,-33.91773,0 18.36559,-33.91861,0 18.36468,-33.91973,0 18.36399,-33.92061,0 18.3632,-33.92162,0 18.36253,-33.92249,0 18.3617,-33.92359,0 18.36107,-33.92445,0 18.36033,-33.92541,0 18.35941,-33.92657,0 18.35873,-33.92751,0 18.35787,-33.92857,0 18.35552,-33.93151,0 18.35305,-33.9348,0 18.35226,-33.93598,0 18.35163,-33.93705,0 18.35092,-33.93828,0 18.35036,-33.93929,0 18.34974,-33.94059,0 18.34917,-33.9417,0 18.34874,-33.94272,0 18.34814,-33.94398,0 18.34768,-33.94505,0 18.34711,-33.94633,0 18.3466,-33.94757,0 18.34597,-33.94906,0 18.34549,-33.95013,0 18.34505,-33.95129,0 18.34448,-33.95269,0 18.34408,-33.95367,0 18.34351,-33.9553,0 18.34311,-33.95627,0 18.34259,-33.95772,0 18.34212,-33.95911,0 18.34047,-33.96386,0 18.38401,-34.09541,0 18.3873,-34.09946,0 18.39142,-34.10308,0 18.39502,-34.10593,0 18.39692,-34.10753,0 18.39813,-34.10857,0 18.3993,-34.1095,0 18.40344,-34.11292,0 18.40463,-34.11383,0 18.40594,-34.11484,0 18.40733,-34.1158,0 18.40826,-34.11652,0 18.40969,-34.11761,0 18.41086,-34.11839,0 18.41192,-34.11917,0 18.413,-34.11998,0 18.41432,-34.12089,0 18.41533,-34.12157,0 18.41634,-34.1223,0 18.41733,-34.12305,0 18.41849,-34.12384,0 18.41987,-34.12476,0 18.42098,-34.12546,0 18.4221,-34.12627,0 18.42422,-34.12778,0 18.42537,-34.12851,0 18.42653,-34.12919,0 18.42867,-34.13062,0 18.42981,-34.13134,0 18.43103,-34.13203,0 18.43222,-34.13263,0 18.43337,-34.13321,0 18.43468,-34.13382,0 18.43588,-34.13428,0 18.4374,-34.13479,0 18.43878,-34.13514,0 18.44007,-34.1353,0 18.44158,-34.13552,0 18.44304,-34.1354,0 18.44458,-34.13511,0 18.44577,-34.13471,0 18.44694,-34.13418,0 18.44859,-34.13336,0 18.44854,-34.13309,0 18.44957,-34.13247,0 18.45222,-34.1309,0 18.45346,-34.13007,0 18.45446,-34.12939,0 18.4554,-34.12873,0 18.45648,-34.12801,0 18.45737,-34.12732,0 18.45827,-34.12661,0 18.4593,-34.12583,0 18.46019,-34.12513,0 18.4613,-34.1243,0 18.46212,-34.12356,0 18.46297,-34.12276,0 18.46387,-34.12196,0 18.46478,-34.12117,0 18.46586,-34.12027,0 18.4668,-34.11945,0 18.46768,-34.11875,0 18.46865,-34.11789,0 18.46953,-34.11708,0 18.47042,-34.11635,0 18.47126,-34.1156,0 18.47219,-34.11468,0 18.47306,-34.11381,0 18.47401,-34.11272,0 18.4747,-34.11194,0 18.47538,-34.11102,0 18.47619,-34.10995,0 18.47677,-34.10899,0 18.47713,-34.10805,0 18.47738,-34.10701,0 18.47758,-34.10587,0 18.4775,-34.10496,0 18.47748,-34.10373,0 18.47732,-34.10243,0 18.47724,-34.10139,0 18.47682,-34.10032,0 18.47638,-34.0992,0 18.47515,-34.09839,0 18.47298,-34.09817,0 18.47338,-34.09625,0 18.4726,-34.09499,0 18.47234,-34.09392,0 18.47118,-34.0932,0 18.47005,-34.09258,0 18.46914,-34.09187,0 18.46768,-34.09108,0 18.46694,-34.09024,0 18.4661,-34.08938,0 18.4651,-34.08842,0 18.46429,-34.08784,0 18.46353,-34.08717,0 18.46249,-34.0862,0 18.46151,-34.08532,0 18.46054,-34.08449,0 18.45982,-34.08375,0 18.45896,-34.08285,0 18.4583,-34.0821,0 18.45743,-34.08108,0 18.45664,-34.08027,0 18.4557,-34.07929,0 18.45486,-34.0785,0 18.45423,-34.07755,0 18.4536,-34.0766,0 18.45302,-34.07555,0 18.45266,-34.07396,0 18.45218,-34.07316,0 18.45168,-34.07222,0 18.45115,-34.07137,0 18.45058,-34.07019,0 18.45,-34.06922,0 18.44944,-34.06811,0 18.44953,-34.0668,0 18.44957,-34.06567,0 18.44934,-34.06448,0 18.4493,-34.0635,0 18.44942,-34.06234,0 18.44991,-34.06097,0 18.45037,-34.05994,0 18.4508,-34.05872,0 18.45053,-34.05771,0 18.45043,-34.05657,0 18.4504,-34.05554,0 18.45037,-34.05433,0 18.4505,-34.05329,0 18.45047,-34.05226,0 18.45007,-34.05117,0 18.4499,-34.05025,0 18.4498,-34.04898,0 18.45,-34.04784,0 18.45043,-34.04657,0 18.45056,-34.04548,0 18.45061,-34.04434,0 18.45066,-34.04313,0 18.45072,-34.04211,0 18.45072,-34.04096,0 18.45087,-34.03981,0 18.45098,-34.03871,0 18.45111,-34.03762,0 18.45137,-34.03667,0 18.45166,-34.03566,0 18.45189,-34.03452,0 18.45213,-34.03354,0 18.45249,-34.03244,0 18.45286,-34.0315,0 18.45354,-34.03045,0 18.45433,-34.02933,0 18.45486,-34.02845,0 18.45541,-34.02756,0 18.4559,-34.02668,0 18.4565,-34.02538,0 18.45736,-34.02445,0 18.45786,-34.0237,0 18.45865,-34.02284,0 18.45971,-34.02188,0 18.46059,-34.02087,0 18.46186,-34.01988,0 18.46258,-34.01885,0 18.4636,-34.01783,0 18.46472,-34.01677,0 18.46587,-34.01563,0 18.46674,-34.01449,0 18.46729,-34.01353,0 18.46781,-34.01241,0 18.46837,-34.01136,0 18.46875,-34.01044,0 18.46917,-34.00935,0 18.46955,-34.00835,0 18.4699,-34.00718,0 18.47017,-34.00554,0 18.47021,-34.00519,0 18.47027,-34.0041,0 18.47065,-34.00301,0 18.47117,-34.00177,0 18.47141,-34.00071,0 18.47208,-33.99944,0 18.47238,-33.99808,0 18.47272,-33.99726,0 18.47294,-33.99596,0 18.47301,-33.99493,0 18.47329,-33.99352,0 18.47338,-33.99245,0 18.4735,-33.9914,0 18.47375,-33.99031,0 18.4738,-33.98906,0 18.47445,-33.98777,0 18.47503,-33.98672,0 18.47556,-33.98548,0 18.47604,-33.98424,0 18.47617,-33.98321,0 18.47612,-33.98219,0 18.47626,-33.981,0 18.47644,-33.97992,0 18.47651,-33.97874,0 18.47653,-33.97771,0 18.47647,-33.97662,0 18.47647,-33.97556,0 18.47673,-33.97445,0 18.47698,-33.97299,0 18.47752,-33.97024,0 18.47755,-33.96945,0 18.4776,-33.96808,0 18.47757,-33.96703,0 18.4776,-33.96597,0 18.47755,-33.96487,0 18.47752,-33.96358,0 18.47746,-33.9626,0 18.47734,-33.96135,0 18.47721,-33.96007,0 18.47704,-33.95906,0 18.47689,-33.95804,0 18.47672,-33.95669,0 18.47659,-33.95595,0 18.47637,-33.95462,0 18.4762,-33.95338,0 18.47597,-33.95232,0 18.4757,-33.95087,0 18.47551,-33.94985,0 18.47528,-33.94883,0 18.47506,-33.94766,0 18.47486,-33.94652,0 18.47463,-33.94551,0 18.47441,-33.94441,0 18.47414,-33.94319,0 18.47397,-33.9424,0 18.47374,-33.94124,0 18.47345,-33.93993,0 18.47323,-33.93887,0 18.47301,-33.93768,0 18.47267,-33.9364,0 18.47239,-33.93521,0 18.47219,-33.93425,0 18.47185,-33.93309,0 18.47151,-33.93188,0 18.47122,-33.9309,0 18.47082,-33.92958,0 18.47048,-33.92839,0 18.47019,-33.92769,0 18.46973,-33.92653,0 18.46928,-33.92536,0 18.4688,-33.92436,0 18.46819,-33.92317,0 18.46762,-33.92216,0 18.46716,-33.92126,0 18.46639,-33.9201,0 18.46556,-33.91885,0 18.46494,-33.918,0 18.46418,-33.91698,0 18.4632,-33.91576,0 18.46241,-33.9147,0 18.46174,-33.91383,0 18.46109,-33.91279,0 18.46023,-33.91132,0 18.45966,-33.91028,0 18.45909,-33.90911,0 18.45854,-33.90793,0 18.45818,-33.90707,0 18.45765,-33.90587,0 18.45726,-33.90493,0 18.4568,-33.90381,0 18.45634,-33.90265,0 18.45591,-33.90179,0 18.45526,-33.90083,0 18.45451,-33.9001,0 18.45366,-33.89952,0 18.45257,-33.89915,0 18.45154,-33.89901,0 18.45058,-33.89905,0 18.44963,-33.89914,0 18.44834,-33.89946,0 18.44745,-33.89969,0 18.44627,-33.90005,0 18.44543,-33.90033,0 18.44436,-33.9007,0 18.44336,-33.90106,0 18.44267,-33.90125,0 18.44184,-33.90143,0 18.44094,-33.90152,0 18.44021,-33.90153,0 18.43992,-33.90148,0 18.43949,-33.90143,0 18.43895,-33.90134,0 18.43853,-33.90129,0 18.43792,-33.9012,0 18.43752,-33.90111,0 18.43702,-33.90106,0 18.43672,-33.90102,0 18.43637,-33.90097,0 18.43597,-33.90092,0 18.43569,-33.90092,0 18.43477,-33.90083,0 18.4345,-33.90083,0 18.4341,-33.90079,0 18.43363,-33.90074,0 18.43332,-33.9007,0 18.43306,-33.90069,0 18.43283,-33.90064,0 18.43237,-33.90055,0 18.43203,-33.90051,0 18.43158,-33.90042,0 18.43136,-33.90038,0 18.43111,-33.90032,0 18.4308,-33.90024,0 18.43025,-33.90013,0 18.43002,-33.90009,0 18.42968,-33.89999,0 18.42939,-33.89994,0 18.42917,-33.89987,0 18.42888,-33.89981,0 18.42861,-33.89969,0 18.42839,-33.8996,0 18.42816,-33.89928,0 18.42796,-33.89878,0 18.42788,-33.89845,0 18.42788,-33.89809,0 18.42791,-33.89771,0 18.42794,-33.89749,0 18.42808,-33.89711,0 18.42819,-33.89682,0 18.42831,-33.89659,0 18.42842,-33.89636,0 18.42859,-33.89599,0 18.42882,-33.89548,0 18.42895,-33.89525,0 18.42929,-33.89461,0 18.42962,-33.89392,0 18.42985,-33.89338,0 18.43019,-33.89278,0 18.4306,-33.89212,0 18.43108,-33.89145,0 18.43147,-33.89085,0 18.43192,-33.89021,0 18.43237,-33.88956,0 18.43271,-33.88914,0 18.43315,-33.88843,0 18.43349,-33.88792,0 18.43371,-33.88733,0 18.43391,-33.88654,0 18.4338,-33.88589,0 18.43357,-33.88533,0 18.43321,-33.8849,0 18.43242,-33.8844,0 18.43175,-33.88417,0 18.43082,-33.88407,0 18.42997,-33.88412,0 18.42928,-33.88416,0 18.42828,-33.88422,0 18.42739,-33.88426,0 18.42643,-33.88435,0 18.42564,-33.8844,0 18.42475,-33.88449,0 18.42373,-33.88454,0 18.42301,-33.88458,0 18.42196,-33.88463,0 18.42116,-33.88472,0 18.42001,-33.88477,0 18.41897,-33.88486,0 18.41789,-33.885,0 18.41681,-33.88509,0 18.41583,-33.88523,0 18.41497,-33.88533,0 18.41376,-33.88554,0 18.41297,-33.88565,0 18.41188,-33.88579,0 18.41074,-33.88598,0 18.40982,-33.88607,0 18.40866,-33.88618,0 18.40759,-33.88623,0 18.40653,-33.88618,0 18.40563,-33.88605,0 18.40439,-33.88584,0 18.40324,-33.8856,0 18.40233,-33.88542,0 18.40136,-33.88523,0 18.40031,-33.88518,0 18.3993,-33.88519,0 18.39823,-33.88536,0 18.39729,-33.8857,0 18.39638,-33.88609,0 18.39518,-33.88682,0 18.39442,-33.88733,0 18.39358,-33.88788,0 18.39263,-33.88857,0 18.39167,-33.8893,0 18.39083,-33.88989,0 18.38971,-33.89072,0 18.38876,-33.89145,0 18.38802,-33.89208,0 18.38696,-33.89301,0 18.38601,-33.89388,0 18.38523,-33.89461,0 18.38428,-33.89557,0 18.38356,-33.89627,0 18.3827,-33.89706,0 18.3819,-33.8978,0 18.38081,-33.89883,0 18.38001,-33.89952,0 18.37901,-33.90042,0 18.37818,-33.9012,0 18.37721,-33.90211,0 18.37635,-33.90288,0 18.37566,-33.90353,0 18.37486,-33.90431,0 18.37389,-33.90525,0 18.37309,-33.906,0 18.37234,-33.90669,0 18.37149,-33.90753,0 18.37069,-33.90833,0 18.36987,-33.90912,0 18.36908,-33.90991,0 18.36819,-33.91081,0 18.36725,-33.91182,0 18.36657,-33.91251,0 18.36555,-33.9136,0 18.36485,-33.91438,0 18.3641,-33.91525,0 18.36314,-33.91635,0 18.36245,-33.91712,0 18.36157,-33.91818,0 18.36079,-33.9191,0 18.35995,-33.92015,0 18.35933,-33.92088,0 18.35843,-33.92203,0 18.35764,-33.92299,0 18.35695,-33.92382,0 18.35604,-33.92494,0 18.35513,-33.9261,0 18.35445,-33.92693,0 18.35386,-33.92774,0 18.35305,-33.92885,0 18.35261,-33.92944,0 18.35171,-33.93082,0 18.35112,-33.93174,0 18.35043,-33.93281,0 18.34986,-33.93374,0 18.34929,-33.93467,0 18.34857,-33.93581,0 18.34806,-33.93672,0 18.34739,-33.93787,0 18.34678,-33.93896,0 18.34614,-33.94007,0 18.34566,-33.94098,0 18.34487,-33.94231,0 18.34425,-33.94345,0 18.34379,-33.94436,0 18.34333,-33.94543,0 18.34291,-33.94688,0 18.34276,-33.94794,0 18.34291,-33.94922,0 18.34313,-33.95,0 18.34364,-33.951,0 18.34453,-33.95201,0 18.34591,-33.95278,0 18.34722,-33.95311,0 18.34834,-33.95311,0 18.34974,-33.95278,0 18.35077,-33.95222,0 18.35171,-33.95151,0 18.35244,-33.95059,0 18.35294,-33.94977,0 18.3534,-33.94868,0 18.35367,-33.94775,0 18.35398,-33.94654,0 18.35432,-33.94547,0 18.35468,-33.94437,0 18.35501,-33.94342,0 18.35546,-33.94231,0 18.35586,-33.94139,0 18.35632,-33.94035,0 18.35681,-33.93924,0 18.35731,-33.93819,0 18.35781,-33.93705,0 18.35833,-33.93607,0 18.35872,-33.93521,0 18.35939,-33.93388,0 18.35981,-33.93309,0 18.3605,-33.93174,0 18.36113,-33.93067,0 18.36163,-33.92972,0 18.36227,-33.92867,0 18.36273,-33.92783,0 18.36342,-33.9267,0 18.36404,-33.92564,0 18.36462,-33.92466,0 18.36519,-33.92373,0 18.36611,-33.92234,0 18.36667,-33.92134,0 18.36731,-33.92038,0 18.36788,-33.91954,0 18.36868,-33.91833,0 18.36925,-33.91745,0 18.37015,-33.91612,0 18.37093,-33.91502,0 18.37172,-33.91397,0 18.37239,-33.9131,0 18.37323,-33.91214,0 18.37378,-33.91154,0 18.37469,-33.91058,0 18.37584,-33.90944,0 18.37688,-33.90848,0 18.37778,-33.90767,0 18.37881,-33.90674,0 18.37973,-33.9059,0 18.38047,-33.9052,0 18.38156,-33.90423,0 18.38254,-33.90335,0 18.38343,-33.90253,0 18.38419,-33.90181,0 18.38528,-33.90083,0 18.38625,-33.89994,0 18.38725,-33.89909,0 18.39071,-33.89627,0 18.39184,-33.89543,0 18.39296,-33.89465,0 18.3938,-33.89403,0 18.39495,-33.89329,0 18.39593,-33.89264,0 18.397,-33.89191,0 18.39821,-33.8911,0 18.3993,-33.8904,0 18.40044,-33.88975,0 18.40147,-33.88924,0 18.4026,-33.8887,0 18.40387,-33.88821,0 18.40496,-33.88775,0 18.4063,-33.88733,0 18.40754,-33.88696,0 18.40851,-33.88672,0 18.40995,-33.88641,0 18.41114,-33.88621,0 18.41219,-33.88605,0 18.41337,-33.88593,0 18.41452,-33.88584,0 18.41611,-33.88573,0 18.41735,-33.88573,0 18.41852,-33.88568,0 18.41987,-33.88564,0 18.42127,-33.88556,0 18.42236,-33.88556,0 18.42321,-33.88556,0 18.42475,-33.88559,0 18.42573,-33.88565,0 18.42705,-33.8857,0 18.42839,-33.88573,0 18.42968,-33.88579,0 18.43071,-33.88589,0 18.43192,-33.886,0 18.43293,-33.88614,0 18.43409,-33.8864,0 18.43511,-33.88669,0 18.43629,-33.8871,0 18.43713,-33.88747,0 18.43825,-33.88802,0 18.43901,-33.88849,0 18.43998,-33.88914,0 18.44067,-33.88975,0 18.44151,-33.89053,0 18.44215,-33.89124,0 18.44284,-33.89212,0 18.44336,-33.89301,0 18.44363,-33.8936,0 18.44397,-33.89452,0 18.44408,-33.89539,0 18.44403,-33.89635,0 18.44381,-33.89697,0 18.4433,-33.89785,0 18.44278,-33.89836,0 18.44198,-33.89892,0 18.44167,-33.89909,0 18.44134,-33.89923,0 18.44101,-33.89939,0 18.44055,-33.89955,0 18.44022,-33.89964,0 18.43988,-33.89973,0 18.43954,-33.89983,0 18.43932,-33.89987,0 18.4387,-33.89996,0 18.43758,-33.90005,0 18.4373,-33.90005,0 18.43695,-33.90009,0 18.43668,-33.9001,0 18.43626,-33.90013,0 18.43597,-33.90013,0 18.43557,-33.90018,0 18.43523,-33.90019,0 18.43489,-33.90018,0 18.43449,-33.90018,0 18.43394,-33.90015,0 18.43371,-33.9001,0 18.4334,-33.90004,0 18.43317,-33.89999,0 18.43294,-33.89994,0 18.43271,-33.8999,0 18.4322,-33.89978,0 18.43192,-33.89973,0 18.43147,-33.89964,0 18.43091,-33.89955,0 18.43065,-33.89957,0 18.42951,-33.89969,0 18.42928,-33.89967,0 18.42899,-33.89967,0 18.42872,-33.89964,0 18.42848,-33.89962,0 18.42828,-33.89955,0 18.42805,-33.89909,0 18.42794,-33.89882,0 18.42791,-33.89859,0 18.42788,-33.89822,0 18.42788,-33.89795,0 18.42796,-33.89766,0 18.42808,-33.89724,0 18.42822,-33.89694,0 18.42833,-33.89667,0 18.4285,-33.89644,0 18.42865,-33.89613,0 18.42889,-33.8958,0 18.42905,-33.89552,0 18.42928,-33.89506,0 18.42962,-33.89455,0 18.42991,-33.89408,0 18.43019,-33.89357,0 18.43063,-33.89291,0 18.43108,-33.89223,0 18.43145,-33.89157,0 18.43174,-33.89115,0 18.43209,-33.89058,0 18.43254,-33.88993,0 18.43294,-33.88929,0 18.43323,-33.88887,0 18.4336,-33.88815,0 18.43388,-33.88733,0 18.43397,-33.88682,0 18.43397,-33.88635,0 18.43377,-33.88559,0 18.4334,-33.88509,0 18.433,-33.88467,0 18.43248,-33.88431,0 18.43174,-33.88388,0 18.43117,-33.88356,0 18.43065,-33.88328,0 18.42991,-33.88286,0 18.42929,-33.88257,0 18.42856,-33.8822,0 18.42788,-33.88188,0 18.42727,-33.88152,0 18.42637,-33.88106,0 18.4257,-33.88069,0 18.42487,-33.88025,0 18.42413,-33.87983,0 18.42351,-33.8795,0 18.42262,-33.87914,0 18.42213,-33.8789,0 18.42115,-33.87862,0 18.42035,-33.87844,0 18.41931,-33.87831,0 18.41852,-33.87827,0 18.41761,-33.8783,0 18.41681,-33.8783,0 18.41583,-33.87831,0 18.41503,-33.87816,0 18.41421,-33.87781,0 18.41376,-33.8774,0 18.41337,-33.8768,0 18.41325,-33.87621,0 18.41342,-33.87543,0 18.41383,-33.87485,0 18.41438,-33.87447,0 18.41516,-33.8741,0 18.416,-33.87397,0 18.41684,-33.87396,0 18.41763,-33.87415,0 18.41864,-33.87453,0 18.41942,-33.87502,0 18.42018,-33.8756,0 18.4207,-33.87611,0 18.42115,-33.87662,0 18.42149,-33.87726,0 18.42177,-33.87804,0 18.42184,-33.87877,0 18.42173,-33.87937,0 18.42133,-33.88028,0 18.42088,-33.88083,0 18.42024,-33.88132,0 18.41931,-33.88184,0 18.41841,-33.88216,0 18.41751,-33.88239,0 18.41634,-33.88261,0 18.41533,-33.8828,0 18.41432,-33.88298,0 18.41309,-33.88314,0 18.41217,-33.88328,0 18.41091,-33.88351,0 18.40988,-33.8837,0 18.40849,-33.88408,0 18.40754,-33.88431,0 18.40645,-33.88467,0 18.40518,-33.88513,0 18.40422,-33.88556,0 18.40294,-33.88609,0 18.40221,-33.88644,0 18.40078,-33.88719,0 18.39987,-33.88765,0 18.39874,-33.88834,0 18.39752,-33.8891,0 18.39621,-33.88994,0 18.39515,-33.89067,0 18.3942,-33.89136,0 18.39324,-33.89204,0 18.39235,-33.89273,0 18.39139,-33.89346,0 18.39043,-33.89422,0 18.38945,-33.89501,0 18.38837,-33.89584,0 18.38717,-33.89682,0 18.38625,-33.89757,0 18.385,-33.89854,0 18.38413,-33.89925,0 18.38315,-33.90001,0 18.37912,-33.90331,0 18.37519,-33.90678,0 18.3724,-33.9093,0 18.36966,-33.91182,0 18.36885,-33.91261,0 18.36622,-33.91526,0 18.36531,-33.91624,0 18.36456,-33.91708,0 18.36359,-33.91815,0 18.36285,-33.91898,0 18.36191,-33.92006,0 18.36118,-33.92093,0 18.36028,-33.92194,0 18.3595,-33.9229,0 18.35873,-33.92382,0 18.35776,-33.92496,0 18.35703,-33.92583,0 18.35609,-33.9269,0 18.35513,-33.92807,0 18.3544,-33.92889,0 18.35367,-33.92967,0 18.35266,-33.93059,0 18.35152,-33.93132,0 18.35049,-33.93179,0 18.34923,-33.93211,0 18.34806,-33.93224,0 18.34706,-33.93214,0 18.3461,-33.93192,0 18.34494,-33.93142,0 18.34419,-33.9309,0 18.34352,-33.93013,0 18.34313,-33.92935,0 18.34302,-33.92834,0 18.34313,-33.92761,0 18.34339,-33.9269,0 18.34397,-33.92601,0 18.34459,-33.92527,0 18.34504,-33.92477,0 18.34562,-33.92411,0 18.34608,-33.92355,0 18.34642,-33.92313,0 18.34694,-33.92253,0 18.34734,-33.92207,0 18.34774,-33.92164,0 18.34812,-33.9212,0 18.34871,-33.92075,0 18.3493,-33.92052,0 18.35014,-33.92033,0 18.35106,-33.92033,0 18.35176,-33.92052,0 18.35266,-33.92094,0 18.35339,-33.92152,0 18.35401,-33.92235,0 18.35432,-33.92318,0 18.35451,-33.92404,0 18.35455,-33.92517,0 18.35443,-33.92611,0 18.35423,-33.92729,0 18.35401,-33.92821,0 18.35361,-33.92958,0 18.35323,-33.93076,0 18.35289,-33.93183,0 18.35238,-33.93309,0 18.35193,-33.93434,0 18.35148,-33.93549,0 18.35104,-33.93658,0 18.35066,-33.93761,0 18.35014,-33.93905,0 18.34969,-33.9402,0 18.34919,-33.94144,0 18.34874,-33.94272,0 18.34831,-33.9438,0 18.3466,-33.94836,0 18.34476,-33.95352,0 18.34341,-33.95728,0 18.3411,-33.96377,0 18.33971,-33.96844,0 18.33938,-33.96986,0 18.3391,-33.97105,0 18.33882,-33.97238,0 18.33859,-33.9738,0 18.33841,-33.97494,0 18.3382,-33.97678,0 18.33809,-33.97824,0 18.33801,-33.9795,0 18.33797,-33.98099,0 18.33797,-33.98259,0 18.33836,-33.98574,0 18.33859,-33.98698,0 18.3391,-33.98909,0 18.3395,-33.99054,0 18.33982,-33.99179,0 18.34019,-33.99286,0 18.34059,-33.99403,0 18.34111,-33.99545,0 18.34167,-33.99687,0 18.34229,-33.99852,0 18.34274,-33.99953,0 18.34333,-34.00092,0 18.34402,-34.00236,0 18.34453,-34.00356,0 18.34517,-34.00483,0 18.34568,-34.00594,0 18.34627,-34.00722,0 18.34683,-34.00868,0 18.34728,-34.00985,0 18.34768,-34.01102,0 18.34806,-34.01244,0 18.34837,-34.01367,0 18.34874,-34.01523,0 18.349,-34.01656,0 18.34919,-34.01793,0 18.3493,-34.01884,0 18.34952,-34.02022,0 18.34969,-34.02154,0 18.34991,-34.02303,0 18.35009,-34.02457,0 18.35019,-34.02553,0 18.35037,-34.02699,0 18.35049,-34.02815,0 18.35066,-34.02954,0 18.35081,-34.03088,0 18.35132,-34.035,0 18.3518,-34.03858,0 18.35209,-34.04002,0 18.35232,-34.04105,0 18.3526,-34.04235,0 18.353,-34.04384,0 18.35328,-34.04494,0 18.35367,-34.04626,0 18.35401,-34.04745,0 18.35449,-34.04891,0 18.35485,-34.05002,0 18.3553,-34.0513,0 18.35569,-34.0524,0 18.35608,-34.0535,0 18.35658,-34.05487,0 18.35695,-34.0558,0 18.35748,-34.05711,0 18.35799,-34.05835,0 18.35843,-34.0594,0 18.35901,-34.06069,0 18.35972,-34.0621,0 18.36021,-34.0632,0 18.36096,-34.06465,0 18.36157,-34.06572,0 18.36222,-34.06697,0 18.3629,-34.06823,0 18.36353,-34.06935,0 18.36415,-34.07039,0 18.36485,-34.07158,0 18.36544,-34.07263,0 18.36611,-34.07368,0 18.36685,-34.07484,0 18.36752,-34.07593,0 18.36823,-34.07703,0 18.36903,-34.07826,0 18.36981,-34.07945,0 18.37263,-34.08378,0 18.37491,-34.08714,0 18.37732,-34.09039,0 18.38076,-34.09486,0 18.3815,-34.09579,0 18.38253,-34.097,0 18.38356,-34.09826,0 18.3845,-34.09932,0 18.38539,-34.10031,0 18.38624,-34.1012,0 18.38708,-34.10216,0 18.38825,-34.10329,0 18.38928,-34.10431,0 18.39027,-34.10522,0 18.39134,-34.10612,0 18.39235,-34.10701,0 18.39329,-34.1078,0 18.39432,-34.10868,0 18.39565,-34.10976,0 18.39672,-34.11064,0 18.39778,-34.11145,0 18.39902,-34.11241,0 18.40015,-34.11325,0 18.40124,-34.11399,0 18.40255,-34.11497,0 18.40378,-34.1158,0 18.40513,-34.11671,0 18.40633,-34.11753,0 18.40748,-34.11832,0 18.40851,-34.11897,0 18.40978,-34.11978,0 18.4112,-34.1207,0 18.41263,-34.12158,0 18.41366,-34.12228,0 18.41505,-34.12317,0 18.41662,-34.12427,0 18.41784,-34.12507,0 18.41887,-34.12582,0 18.42245,-34.1282,0 18.42402,-34.12922,0 18.42533,-34.13,0 18.42642,-34.13066,0 18.42772,-34.13132,0 18.42884,-34.13187,0 18.43037,-34.13256,0 18.4318,-34.13308,0 18.433,-34.1334,0 18.43437,-34.13373,0 18.43601,-34.13397,0 18.43735,-34.1341,0 18.43881,-34.13416,0 18.44044,-34.13416,0 18.44139,-34.13406,0 18.44301,-34.13378,0 18.44436,-34.13342,0 18.44564,-34.13298,0 18.4469,-34.13238,0 18.44806,-34.13187,0 18.44907,-34.13127,0 18.45045,-34.13047,0 18.45148,-34.12985,0 18.45245,-34.12926,0 18.45366,-34.12852,0 18.45485,-34.12775,0 18.45602,-34.12697,0 18.45709,-34.12624,0 18.45815,-34.1255,0 18.4591,-34.12486,0 18.46018,-34.12414,0 18.46101,-34.12358,0 18.46208,-34.1228,0 18.46325,-34.12193,0 18.46409,-34.12129,0 18.46516,-34.12046,0 18.46607,-34.11972,0 18.46704,-34.11883,0 18.46796,-34.11804,0 18.46882,-34.11725,0 18.46962,-34.11646,0 18.47059,-34.11548,0 18.47177,-34.1142,0 18.47242,-34.11339,0 18.47312,-34.1125,0 18.47368,-34.11159,0 18.47435,-34.11026,0 18.47466,-34.10943,0 18.47488,-34.10845,0 18.47511,-34.10743,0 18.4753,-34.10619,0 18.47547,-34.1049,0 18.47553,-34.10394,0 18.47564,-34.10294,0 18.4757,-34.10188,0 18.4758,-34.10072,0 18.47586,-34.09975,0 18.47591,-34.09844,0 18.47603,-34.09749,0 18.47614,-34.0963,0 18.47626,-34.09514,0 18.47637,-34.0941,0 18.47654,-34.09309,0 18.47672,-34.09179,0 18.47694,-34.09058,0 18.47715,-34.08939,0 18.47769,-34.08592,0 18.47777,-34.08508,0 18.47788,-34.08389,0 18.47797,-34.08271,0 18.47805,-34.0816,0 18.47809,-34.08052,0 18.47805,-34.07941,0 18.47803,-34.07843,0 18.47799,-34.07726,0 18.47797,-34.07619,0 18.47797,-34.07512,0 18.47803,-34.07419,0</coordinates>
      </LineString>
    </Placemark>
  </Document>
</kml>
