<?xml version="1.0" encoding="UTF-8"?>
<kml xmlns="http://www.opengis.net/kml/2.2">
  <Document>
    <name>FR24 415c46cd</name>
    <Placemark>
      <name>FR24 415c46cd</name>
      <Style><LineStyle><color>ff0000ff</color><width>4</width></LineStyle></Style>
      <LineString>
        <tessellate>1</tessellate>
        <coordinates>18.43556,-33.89795,0 18.43666,-33.89669,0 18.43696,-33.89603,0 18.43729,-33.8951,0 18.43758,-33.89408,0 18.43769,-33.89337,0 18.43786,-33.89227,0 18.43792,-33.89149,0 18.43792,-33.8904,0 18.43786,-33.88929,0 18.43775,-33.8884,0 18.43752,-33.88719,0 18.43735,-33.88612,0 18.43713,-33.88522,0 18.43689,-33.8844,0 18.43649,-33.88328,0 18.43607,-33.88239,0 18.43552,-33.88137,0 18.435,-33.88058,0 18.43427,-33.87959,0 18.43349,-33.87877,0 18.43282,-33.87808,0 18.43181,-33.87726,0 18.43074,-33.87653,0 18.42985,-33.87597,0 18.42889,-33.87552,0 18.42783,-33.87511,0 18.42659,-33.87481,0 18.42562,-33.87467,0 18.42458,-33.8746,0 18.42362,-33.8746,0 18.42236,-33.87462,0 18.4211,-33.87465,0 18.42015,-33.87474,0 18.41914,-33.87479,0 18.41789,-33.8749,0 18.41669,-33.87504,0 18.41543,-33.87523,0 18.41423,-33.87541,0 18.41314,-33.87561,0 18.41185,-33.87589,0 18.41079,-33.87611,0 18.40978,-33.87634,0 18.40845,-33.87667,0 18.40731,-33.87698,0 18.40597,-33.87735,0 18.40479,-33.87767,0 18.40372,-33.87794,0 18.40227,-33.87836,0 18.40096,-33.87877,0 18.3997,-33.87914,0 18.39806,-33.87973,0 18.39689,-33.88016,0 18.39588,-33.8806,0 18.3946,-33.88114,0 18.39346,-33.88165,0 18.39212,-33.88229,0 18.39123,-33.88277,0 18.38999,-33.88344,0 18.38881,-33.88408,0 18.38764,-33.88477,0 18.38648,-33.88547,0 18.38534,-33.88618,0 18.38439,-33.88678,0 18.38327,-33.88756,0 18.38214,-33.88838,0 18.3811,-33.88914,0 18.38024,-33.88984,0 18.37904,-33.89077,0 18.37818,-33.89147,0 18.37715,-33.8924,0 18.37626,-33.89319,0 18.37553,-33.89383,0 18.37463,-33.89474,0 18.37366,-33.89566,0 18.37292,-33.89641,0 18.37217,-33.8972,0 18.37143,-33.89794,0 18.37057,-33.89892,0 18.36987,-33.89973,0 18.36914,-33.90056,0 18.36845,-33.90144,0 18.36765,-33.9025,0 18.36718,-33.90317,0 18.36657,-33.90404,0 18.36588,-33.90511,0 18.36533,-33.90605,0 18.36479,-33.90697,0 18.36421,-33.90797,0 18.3637,-33.90894,0 18.36309,-33.91013,0 18.36256,-33.91116,0 18.36205,-33.91219,0 18.36159,-33.91298,0 18.36107,-33.91391,0 18.36056,-33.91489,0 18.35999,-33.91591,0 18.35941,-33.91703,0 18.3589,-33.91792,0 18.35821,-33.91928,0 18.35776,-33.9202,0 18.35712,-33.92136,0 18.35495,-33.9255,0 18.35318,-33.92876,0 18.35203,-33.93118,0 18.35157,-33.93225,0 18.35123,-33.93304,0 18.35076,-33.93407,0 18.3502,-33.93542,0 18.34974,-33.93644,0 18.34924,-33.93768,0 18.34883,-33.93877,0 18.34837,-33.94007,0 18.34795,-33.94107,0 18.3475,-33.94231,0 18.34683,-33.94382,0 18.34633,-33.94482,0 18.34585,-33.94575,0 18.34499,-33.94706,0 18.34453,-33.94775,0 18.34362,-33.94901,0 18.34291,-33.94995,0 18.34235,-33.95078,0 18.34145,-33.95197,0 18.34072,-33.95297,0 18.33984,-33.95418,0 18.3391,-33.9553,0 18.33824,-33.95646,0 18.33744,-33.95753,0 18.33664,-33.95869,0 18.33447,-33.96181,0 18.33203,-33.96519,0 18.32934,-33.9689,0 18.32743,-33.97163,0 18.32452,-33.97586,0 18.32222,-33.97927,0 18.31987,-33.98305,0 18.31791,-33.98634,0 18.31589,-33.98991,0 18.31533,-33.99092,0 18.31461,-33.99226,0 18.31415,-33.99305,0 18.31329,-33.99454,0 18.31203,-33.99673,0 18.30997,-34.00013,0 18.3072,-34.0047,0 18.30507,-34.00813,0 18.30305,-34.01152,0 18.30093,-34.01521,0 18.2991,-34.01865,0 18.29859,-34.01972,0 18.29784,-34.02131,0 18.29728,-34.02242,0 18.29661,-34.02402,0 18.29618,-34.02503,0 18.29573,-34.0261,0 18.29526,-34.02745,0 18.29504,-34.02837,0 18.2947,-34.02983,0 18.2942,-34.03514,0 18.29435,-34.03755,0 18.29459,-34.03903,0 18.29487,-34.04016,0 18.29526,-34.0416,0 18.29573,-34.04305,0 18.29624,-34.0444,0 18.29689,-34.0459,0 18.29745,-34.04709,0 18.29802,-34.04821,0 18.29853,-34.04929,0 18.29913,-34.05029,0 18.29969,-34.05135,0 18.30042,-34.05259,0 18.30109,-34.05368,0 18.3021,-34.05524,0 18.30276,-34.05627,0 18.30378,-34.05775,0 18.30446,-34.05876,0 18.30541,-34.06018,0 18.3062,-34.06134,0 18.30698,-34.06247,0 18.30791,-34.06381,0 18.3086,-34.06476,0 18.30946,-34.06586,0 18.31045,-34.06714,0 18.31135,-34.06833,0 18.31214,-34.06929,0 18.31286,-34.07021,0 18.31381,-34.07135,0 18.31466,-34.0724,0 18.31558,-34.07359,0 18.31634,-34.07455,0 18.3173,-34.076,0 18.31802,-34.07703,0 18.31879,-34.07829,0 18.31953,-34.07945,0 18.32022,-34.08052,0 18.32094,-34.08165,0 18.32165,-34.08294,0 18.32228,-34.08398,0 18.32302,-34.08527,0 18.32363,-34.08623,0 18.32447,-34.08765,0 18.32514,-34.08875,0 18.32582,-34.08979,0 18.32657,-34.09095,0 18.32727,-34.09195,0 18.32794,-34.09291,0 18.32873,-34.09396,0 18.32966,-34.09523,0 18.33035,-34.09612,0 18.33125,-34.09717,0 18.33203,-34.09804,0 18.33303,-34.09909,0 18.33401,-34.09998,0 18.33489,-34.10078,0 18.33578,-34.10152,0 18.33697,-34.10239,0 18.33814,-34.10321,0 18.33939,-34.10403,0 18.3407,-34.10487,0 18.3419,-34.10559,0 18.34291,-34.10623,0 18.34442,-34.10706,0 18.34551,-34.10766,0 18.34683,-34.10834,0 18.34823,-34.10907,0 18.34941,-34.10966,0 18.35104,-34.11044,0 18.35203,-34.11092,0 18.35346,-34.11157,0 18.35438,-34.11194,0 18.35574,-34.11255,0 18.35712,-34.11311,0 18.35799,-34.11346,0 18.35976,-34.11409,0 18.36107,-34.1146,0 18.36191,-34.11493,0 18.36336,-34.11539,0 18.36482,-34.11594,0 18.36595,-34.1163,0 18.36724,-34.11671,0 18.36869,-34.11722,0 18.36981,-34.11758,0 18.37103,-34.11795,0 18.37217,-34.11827,0 18.37334,-34.11868,0 18.37609,-34.11955,0 18.37784,-34.12014,0 18.38156,-34.12135,0 18.38671,-34.12293,0 18.39088,-34.12419,0 18.39453,-34.12532,0 18.39885,-34.1266,0 18.4025,-34.12782,0 18.40726,-34.12944,0 18.40834,-34.12987,0 18.40967,-34.13036,0 18.41337,-34.13168,0 18.41701,-34.13306,0 18.42093,-34.13457,0 18.42475,-34.13603,0 18.4285,-34.13745,0 18.42968,-34.13783,0 18.43108,-34.13818,0 18.43254,-34.13848,0 18.43403,-34.13871,0 18.43523,-34.13887,0 18.43655,-34.13904,0 18.43786,-34.13919,0 18.4396,-34.13942,0 18.44106,-34.13956,0 18.44223,-34.13965,0 18.44376,-34.13969,0 18.44507,-34.13969,0 18.44649,-34.13965,0 18.44753,-34.1395,0 18.44919,-34.13927,0 18.4503,-34.13896,0 18.45171,-34.13848,0 18.45268,-34.13806,0 18.45388,-34.13755,0 18.45486,-34.13704,0 18.45577,-34.13648,0 18.45675,-34.13589,0 18.45798,-34.13503,0 18.45888,-34.13443,0 18.45995,-34.13359,0 18.46092,-34.13275,0 18.46174,-34.13196,0 18.46252,-34.13117,0 18.46327,-34.13038,0 18.46415,-34.12935,0 18.46516,-34.12811,0 18.46579,-34.1273,0 18.46682,-34.12591,0 18.4674,-34.12509,0 18.46802,-34.12414,0 18.46882,-34.12302,0 18.46945,-34.12204,0 18.47025,-34.12093,0 18.47088,-34.12004,0 18.47155,-34.11896,0 18.47228,-34.11777,0 18.47282,-34.11683,0 18.47328,-34.11604,0 18.47374,-34.11511,0 18.47429,-34.11397,0 18.47469,-34.11305,0 18.47517,-34.11185,0 18.47546,-34.11101,0 18.47586,-34.10985,0 18.47614,-34.10887,0 18.47637,-34.10788,0 18.47654,-34.10696,0 18.47682,-34.10568,0 18.47699,-34.10458,0 18.47717,-34.10352,0 18.47727,-34.10243,0 18.47738,-34.1012,0 18.47746,-34.10012,0 18.47752,-34.09905,0 18.4776,-34.09776,0 18.47766,-34.09662,0 18.47766,-34.09534,0 18.47769,-34.09416,0 18.47769,-34.09332,0 18.47763,-34.09207,0 18.47766,-34.09026,0 18.4776,-34.0892,0 18.47763,-34.08811,0 18.47757,-34.08681,0 18.4776,-34.08549,0 18.47757,-34.08453,0 18.47757,-34.0828,0 18.47755,-34.07922,0 18.47757,-34.07582,0 18.47755,-34.07185,0 18.47743,-34.06728,0 18.47727,-34.06274,0 18.47687,-34.05789,0 18.47654,-34.05441,0 18.47626,-34.05124,0 18.47581,-34.04645,0 18.47551,-34.04263,0 18.47514,-34.03789,0 18.47497,-34.0345,0 18.47474,-34.03107,0 18.47441,-34.02603,0 18.47435,-34.02361,0 18.47437,-34.02252,0 18.47441,-34.02141,0 18.47443,-34.02052,0 18.47446,-34.01921,0 18.47446,-34.01816,0 18.47452,-34.01683,0 18.47452,-34.01578,0 18.47454,-34.01446,0 18.47458,-34.01349,0 18.4746,-34.01218,0 18.4746,-34.00706,0 18.47454,-34.00227,0 18.47463,-34.00108,0 18.47469,-33.99989,0 18.47477,-33.99892,0 18.47488,-33.99784,0 18.47511,-33.99645,0 18.47528,-33.99542,0 18.47558,-33.99413,0 18.47586,-33.99328,0 18.4762,-33.99184,0 18.47648,-33.99088,0 18.47677,-33.98979,0 18.4771,-33.98863,0 18.4774,-33.98742,0 18.47766,-33.98634,0 18.47788,-33.98534,0 18.47816,-33.98401,0 18.47843,-33.98276,0 18.47856,-33.98199,0 18.47878,-33.98076,0 18.47951,-33.97723,0 18.48015,-33.97378,0 18.48085,-33.97032,0 18.48164,-33.96689,0 18.48237,-33.96378,0 18.48284,-33.96167,0 18.48295,-33.96074,0 18.48304,-33.95975,0 18.48298,-33.95874,0 18.48284,-33.95753,0 18.48259,-33.9565,0 18.48231,-33.95563,0 18.48186,-33.95446,0 18.48153,-33.95366,0 18.48097,-33.95251,0 18.48057,-33.9516,0 18.48009,-33.95064,0 18.47962,-33.94954,0 18.47918,-33.9485,0 18.47872,-33.94739,0 18.47843,-33.94664,0 18.47797,-33.94547,0 18.47769,-33.94468,0 18.47723,-33.94352,0 18.47682,-33.94258,0 18.47631,-33.94156,0 18.47581,-33.94048,0 18.47536,-33.93965,0 18.4748,-33.93864,0 18.47413,-33.93736,0 18.47374,-33.93672,0 18.47329,-33.93585,0 18.47267,-33.9348,0 18.47211,-33.93379,0 18.47162,-33.93295,0 18.47099,-33.93196,0 18.47031,-33.93095,0 18.46979,-33.93011,0 18.4691,-33.92918,0 18.46858,-33.92848,0 18.46779,-33.92743,0 18.46712,-33.92651,0 18.4663,-33.92546,0 18.46566,-33.92455,0 18.46487,-33.92345,0 18.46424,-33.92257,0 18.46359,-33.92162,0 18.4628,-33.92061,0 18.46236,-33.92001,0 18.46149,-33.91898,0 18.46079,-33.91809,0 18.46018,-33.91731,0 18.45938,-33.91629,0 18.45854,-33.91521,0 18.45806,-33.91461,0 18.45726,-33.91351,0 18.45652,-33.91256,0 18.45589,-33.91172,0 18.45503,-33.91056,0 18.45428,-33.90963,0 18.45366,-33.90888,0 18.45277,-33.9077,0 18.45193,-33.90669,0 18.45102,-33.90562,0 18.45034,-33.90483,0 18.44959,-33.9039,0 18.44879,-33.90298,0 18.44793,-33.90199,0 18.4473,-33.9012,0 18.44661,-33.90028,0 18.44588,-33.89923,0 18.44526,-33.89845,0 18.44459,-33.89767,0 18.44369,-33.89685,0 18.44273,-33.89618,0 18.44193,-33.89571,0 18.44094,-33.89516,0 18.44022,-33.8947,0 18.43921,-33.8942,0 18.43848,-33.89383,0 18.43752,-33.89347,0 18.4366,-33.89329,0 18.43586,-33.89324,0 18.43495,-33.89333,0 18.43414,-33.89357,0 18.43349,-33.89378,0 18.43282,-33.89415,0 18.43214,-33.89455,0 18.43142,-33.89502,0 18.43085,-33.89548,0 18.43035,-33.89594,0 18.43001,-33.8963,0 18.42951,-33.89685,0 18.42929,-33.89708,0 18.429,-33.89745,0 18.42876,-33.8978,0 18.42859,-33.89804,0 18.42842,-33.89832,0 18.42822,-33.89864,0 18.42805,-33.89886,0 18.42788,-33.89914,0 18.42762,-33.89952,0 18.42739,-33.89994,0 18.42721,-33.90019,0 18.42704,-33.90047,0 18.42699,-33.90069,0 18.4269,-33.90091,0 18.42727,-33.90097,0 18.429,-33.90065,0 18.42928,-33.9006,0 18.42974,-33.90051,0 18.43029,-33.90038,0 18.43052,-33.90033,0 18.43102,-33.90019,0 18.43125,-33.90015,0 18.43168,-33.89999,0 18.43209,-33.89992,0 18.43266,-33.89976,0 18.4336,-33.89941,0 18.43431,-33.89906,0 18.435,-33.89859,0 18.43567,-33.8979,0 18.43612,-33.89726,0 18.43672,-33.89618,0 18.43691,-33.89543,0 18.43713,-33.89438,0 18.43718,-33.89361,0 18.43724,-33.89246,0 18.43719,-33.89163,0 18.43719,-33.89067,0 18.43718,-33.8898,0 18.43713,-33.8887,0 18.43708,-33.88783,0 18.43702,-33.88719,0 18.43691,-33.88605,0 18.4366,-33.88486,0 18.43629,-33.88408,0 18.43586,-33.88328,0 18.43528,-33.88234,0 18.43461,-33.88147,0 18.43394,-33.88069,0 18.43323,-33.88002,0 18.43248,-33.87936,0 18.43168,-33.87872,0 18.43074,-33.87808,0 18.42979,-33.87751,0 18.42899,-33.87713,0 18.42777,-33.87666,0 18.42699,-33.87643,0 18.42575,-33.87616,0 18.42458,-33.87602,0 18.42323,-33.87593,0 18.42211,-33.87593,0 18.42032,-33.87598,0 18.41927,-33.87602,0 18.41796,-33.87616,0 18.41673,-33.87634,0 18.41566,-33.87653,0 18.41432,-33.87675,0 18.41303,-33.877,0 18.41154,-33.87732,0 18.41034,-33.87762,0 18.40916,-33.87794,0 18.40776,-33.87836,0 18.40642,-33.87877,0 18.40496,-33.87923,0 18.40387,-33.87965,0 18.40244,-33.88014,0 18.4013,-33.88053,0 18.39993,-33.881,0 18.39857,-33.88147,0 18.39718,-33.88198,0 18.39592,-33.88244,0 18.3946,-33.88291,0 18.39323,-33.88342,0 18.39212,-33.8839,0 18.391,-33.8844,0 18.39005,-33.88481,0 18.38882,-33.88542,0 18.38781,-33.88596,0 18.38668,-33.8866,0 18.38573,-33.88714,0 18.3845,-33.88788,0 18.38327,-33.88863,0 18.38248,-33.88911,0 18.38133,-33.88984,0 18.38053,-33.8904,0 18.37957,-33.89108,0 18.37844,-33.89191,0 18.37744,-33.89278,0 18.37675,-33.89333,0 18.37561,-33.89441,0 18.37486,-33.89511,0 18.37395,-33.89608,0 18.37306,-33.89708,0 18.37217,-33.89809,0 18.37166,-33.89878,0 18.3708,-33.89981,0 18.37011,-33.90074,0 18.36943,-33.90162,0 18.36868,-33.9026,0 18.36802,-33.90349,0 18.36731,-33.90442,0 18.36651,-33.90546,0 18.36565,-33.90637,0 18.36494,-33.90706,0 18.36398,-33.90797,0 18.36325,-33.90874,0 18.36241,-33.90967,0 18.36187,-33.91037,0 18.36107,-33.91135,0 18.3605,-33.91209,0 18.35987,-33.91307,0 18.3593,-33.91396,0 18.35878,-33.9147,0 18.35821,-33.91566,0 18.35754,-33.91676,0 18.35703,-33.91768,0 18.35655,-33.91852,0 18.35604,-33.91968,0 18.35564,-33.92057,0 18.35524,-33.92145,0 18.35484,-33.92243,0 18.3544,-33.92345,0 18.35398,-33.92439,0 18.35361,-33.92523,0 18.35312,-33.92634,0 18.35278,-33.92722,0 18.35238,-33.92815,0 18.35199,-33.92912,0 18.35148,-33.93027,0 18.35112,-33.93123,0 18.3507,-33.93228,0 18.35031,-33.9332,0 18.34986,-33.93425,0 18.3494,-33.93546,0 18.34902,-33.93645,0 18.34854,-33.93761,0 18.3482,-33.93854,0 18.3478,-33.93966,0 18.3474,-33.94059,0 18.34688,-33.94175,0 18.34642,-33.94282,0 18.34605,-33.94377,0 18.34562,-33.94463,0 18.34515,-33.94565,0 18.34465,-33.94679,0 18.34409,-33.94789,0 18.34364,-33.94885,0 18.34308,-33.94986,0 18.3424,-33.95114,0 18.3419,-33.95213,0 18.34122,-33.95325,0 18.3407,-33.95409,0 18.34005,-33.95512,0 18.33938,-33.95622,0 18.3387,-33.95723,0 18.33809,-33.95819,0 18.33738,-33.95925,0 18.33657,-33.96043,0 18.33579,-33.96162,0 18.33461,-33.96341,0 18.33388,-33.9646,0 18.33275,-33.96637,0 18.33189,-33.96763,0 18.3303,-33.96973,0 18.33017,-33.96996,0 18.3252,-33.97682,0 18.32183,-33.98167,0 18.31987,-33.98481,0 18.31847,-33.98712,0 18.31785,-33.98836,0 18.3174,-33.98918,0 18.31667,-33.99058,0 18.31617,-33.99161,0 18.31575,-33.99254,0 18.31512,-33.99379,0 18.31467,-33.99477,0 18.31404,-33.996,0 18.31331,-33.99719,0 18.3127,-33.99811,0 18.31169,-33.99933,0 18.31096,-34.00021,0 18.31029,-34.00104,0 18.30961,-34.00191,0 18.30872,-34.00306,0 18.30803,-34.00389,0 18.30726,-34.00488,0 18.30643,-34.00594,0 18.30574,-34.00678,0 18.30502,-34.00768,0 18.30429,-34.00845,0 18.30334,-34.00948,0 18.30266,-34.01024,0 18.3016,-34.01147,0 18.30082,-34.01232,0 18.30003,-34.01326,0 18.29919,-34.01422,0 18.2983,-34.01525,0 18.29739,-34.01633,0 18.2967,-34.01712,0 18.29584,-34.01805,0 18.2942,-34.01994,0 18.29358,-34.02077,0 18.29327,-34.02135,0 18.29281,-34.02247,0 18.29274,-34.02379,0 18.29291,-34.02466,0 18.29336,-34.02571,0 18.29418,-34.0268,0 18.29493,-34.0274,0 18.29613,-34.02801,0 18.29721,-34.02834,0 18.2984,-34.02846,0 18.29956,-34.02838,0 18.30059,-34.02824,0 18.30202,-34.02792,0 18.30299,-34.02764,0 18.30395,-34.02727,0 18.30528,-34.02666,0 18.30637,-34.0261,0 18.30729,-34.02559,0 18.3082,-34.02503,0 18.30894,-34.02452,0 18.31006,-34.02379,0 18.31095,-34.02312,0 18.31169,-34.0226,0 18.3127,-34.02191,0 18.31358,-34.02126,0 18.31454,-34.02063,0 18.31541,-34.02005,0 18.31661,-34.01921,0 18.31753,-34.01856,0 18.31844,-34.01786,0 18.31947,-34.01712,0 18.32056,-34.01623,0 18.32165,-34.01535,0 18.32239,-34.01468,0 18.32323,-34.01376,0 18.32376,-34.01321,0 18.32468,-34.01218,0 18.32525,-34.01143,0 18.32582,-34.01074,0 18.3264,-34.0099,0 18.3271,-34.00896,0 18.32761,-34.00827,0 18.32811,-34.00757,0 18.32873,-34.00667,0 18.32926,-34.0059,0 18.32996,-34.00479,0 18.33052,-34.00397,0 18.33109,-34.0032,0 18.33181,-34.00223,0 18.33243,-34.0014,0 18.33299,-34.00067,0 18.33378,-33.99952,0 18.33612,-33.99654,0 18.33784,-33.99459,0 18.33961,-33.99272,0 18.34122,-33.99091,0 18.34308,-33.98895,0 18.34677,-33.98518,0 18.35054,-33.98132,0 18.35272,-33.97881,0 18.35434,-33.9765,0 18.35496,-33.97545,0 18.35546,-33.97453,0 18.35597,-33.97362,0 18.35752,-33.97057,0 18.35861,-33.96828,0 18.35989,-33.96542,0 18.36023,-33.96465,0 18.36061,-33.96372,0 18.36079,-33.96327,0 18.3614,-33.96185,0 18.36241,-33.95901,0 18.36279,-33.95776,0 18.36314,-33.95673,0 18.36342,-33.95558,0 18.36365,-33.95478,0 18.36399,-33.95367,0 18.36421,-33.95256,0 18.36445,-33.95162,0 18.36466,-33.95068,0 18.36496,-33.94957,0 18.36522,-33.94853,0 18.36544,-33.94757,0 18.36622,-33.94436,0 18.3669,-33.94153,0 18.36763,-33.9386,0 18.36864,-33.93498,0 18.36948,-33.93216,0 18.36983,-33.93113,0 18.3702,-33.93008,0 18.37054,-33.92931,0 18.37097,-33.92834,0 18.37144,-33.92747,0 18.37206,-33.92642,0 18.37246,-33.92569,0 18.37306,-33.92473,0 18.37366,-33.92392,0 18.3743,-33.92299,0 18.37486,-33.9222,0 18.37531,-33.92162,0 18.37598,-33.92075,0 18.37676,-33.91978,0 18.37738,-33.9191,0 18.37818,-33.91819,0 18.37884,-33.91745,0 18.37967,-33.91656,0 18.38036,-33.91587,0 18.3813,-33.91498,0 18.38196,-33.91433,0 18.38293,-33.9134,0 18.38388,-33.91255,0 18.38465,-33.91182,0 18.38556,-33.91093,0 18.38636,-33.91023,0 18.38734,-33.90935,0 18.38802,-33.9087,0 18.38887,-33.90784,0 18.38982,-33.90701,0 18.39038,-33.90646,0 18.39139,-33.90559,0 18.3922,-33.90493,0 18.39313,-33.90417,0 18.39408,-33.90349,0 18.39509,-33.9028,0 18.39621,-33.90221,0 18.39728,-33.90179,0 18.3984,-33.90143,0 18.39924,-33.90115,0 18.40075,-33.90056,0 18.40148,-33.90028,0 18.40302,-33.89967,0 18.40405,-33.89925,0 18.40529,-33.89873,0 18.40608,-33.89841,0 18.40731,-33.89785,0 18.40838,-33.89722,0 18.40937,-33.89669,0 18.41034,-33.89612,0 18.41125,-33.89557,0 18.41185,-33.8952,0 18.41286,-33.89459,0 18.4137,-33.89406,0 18.41471,-33.89342,0 18.41555,-33.89291,0 18.41635,-33.89245,0 18.41715,-33.89198,0 18.41791,-33.89154,0 18.41881,-33.89096,0 18.41972,-33.89045,0 18.42052,-33.89003,0 18.4215,-33.88947,0 18.42228,-33.88911,0 18.42329,-33.88861,0 18.42402,-33.88821,0 18.42476,-33.88784,0 18.4257,-33.88737,0 18.42642,-33.88705,0 18.42733,-33.88668,0 18.42822,-33.88641,0 18.42911,-33.88631,0 18.42985,-33.88637,0 18.43082,-33.88672,0 18.43147,-33.88728,0 18.4318,-33.88789,0 18.43186,-33.88852,0 18.43164,-33.88939,0 18.4313,-33.88998,0 18.43077,-33.89059,0 18.42997,-33.89128,0 18.42939,-33.89175,0 18.42867,-33.89218,0 18.42796,-33.89245,0 18.42716,-33.89278,0 18.42637,-33.89305,0 18.42575,-33.89328,0 18.42527,-33.89347,0 18.42476,-33.89371,0 18.42424,-33.89401,0 18.42379,-33.89431,0 18.4235,-33.89455,0 18.42323,-33.89479,0 18.42304,-33.89515,0 18.42304,-33.89548,0 18.42334,-33.89589,0 18.42368,-33.89616,0 18.42407,-33.89641,0 18.42441,-33.89658,0 18.42493,-33.89687,0 18.42536,-33.89713,0 18.42562,-33.89734,0 18.42587,-33.89754,0 18.4262,-33.8979,0 18.42643,-33.89818,0 18.42659,-33.89845,0 18.42676,-33.89869,0 18.42699,-33.89911,0 18.4271,-33.89937,0 18.42716,-33.89967,0 18.4271,-33.89992,0 18.42705,-33.90022,0 18.42704,-33.90047,0 18.42728,-33.90069,0 18.42748,-33.9007,0 18.42772,-33.90083,0 18.42825,-33.90088,0 18.42861,-33.90092,0 18.42928,-33.90083,0 18.42997,-33.90069,0 18.43019,-33.9006,0 18.43046,-33.90051,0 18.43077,-33.90046,0 18.43122,-33.90032,0 18.43151,-33.90022,0 18.43191,-33.90009,0 18.43226,-33.89996,0 18.433,-33.89967,0 18.43363,-33.89939,0 18.43433,-33.89909,0 18.43506,-33.89864,0 18.43563,-33.89817,0 18.43626,-33.89757,0 18.4368,-33.89685,0 18.43718,-33.89608,0 18.43747,-33.89525,0 18.43764,-33.89433,0 18.43775,-33.89369,0 18.43781,-33.89255,0 18.43781,-33.89175,0 18.43775,-33.89063,0 18.43763,-33.88952,0 18.43752,-33.88861,0 18.4374,-33.88756,0 18.43729,-33.88668,0 18.43719,-33.88586,0 18.43689,-33.88467,0 18.43649,-33.88361,0 18.43609,-33.88281,0 18.43552,-33.88184,0 18.43506,-33.88115,0 18.43433,-33.88033,0 18.43369,-33.87965,0 18.43287,-33.87895,0 18.43209,-33.87845,0 18.43119,-33.87794,0 18.43014,-33.87751,0 18.42922,-33.87723,0 18.42802,-33.87695,0 18.42704,-33.8768,0 18.42596,-33.87672,0 18.42463,-33.87671,0 18.42333,-33.87685,0 18.4223,-33.87704,0 18.42127,-33.87726,0 18.41987,-33.87767,0 18.41881,-33.87797,0 18.41768,-33.87836,0 18.41667,-33.87868,0 18.41532,-33.87914,0 18.41438,-33.87946,0 18.41309,-33.87996,0 18.41196,-33.88033,0 18.4108,-33.88076,0 18.40933,-33.88133,0 18.40828,-33.88174,0 18.40731,-33.88216,0 18.40586,-33.88271,0 18.40473,-33.88314,0 18.4035,-33.88358,0 18.4021,-33.88412,0 18.40078,-33.88467,0 18.3997,-33.88509,0 18.39844,-33.8856,0 18.39689,-33.88623,0 18.39582,-33.88664,0 18.39449,-33.88719,0 18.39341,-33.88765,0 18.3924,-33.88806,0 18.39083,-33.8887,0 18.3898,-33.88914,0 18.38882,-33.88961,0 18.38762,-33.89017,0 18.38646,-33.89076,0 18.38545,-33.89128,0 18.38461,-33.89182,0 18.38327,-33.89255,0 18.38237,-33.8931,0 18.38136,-33.89369,0 18.38018,-33.89442,0 18.37929,-33.89502,0 18.37835,-33.89566,0 18.37749,-33.89627,0 18.37648,-33.89708,0 18.37566,-33.89771,0 18.37446,-33.89869,0 18.37362,-33.89937,0 18.3729,-33.89996,0 18.372,-33.90074,0 18.37105,-33.90161,0 18.37051,-33.90213,0 18.36948,-33.90308,0 18.3688,-33.90381,0 18.36811,-33.90451,0 18.36725,-33.90544,0 18.36662,-33.90618,0 18.36578,-33.9072,0 18.36519,-33.90795,0 18.36445,-33.90879,0 18.3637,-33.90977,0 18.36297,-33.91077,0 18.36239,-33.91154,0 18.36176,-33.91242,0 18.36107,-33.91333,0 18.36044,-33.91419,0 18.35972,-33.91521,0 18.35913,-33.91615,0 18.35855,-33.91704,0 18.35804,-33.91791,0 18.35754,-33.91887,0 18.35681,-33.9202,0 18.35632,-33.92113,0 18.35587,-33.9221,0 18.3553,-33.92326,0 18.3549,-33.92418,0 18.35434,-33.92546,0 18.35395,-33.92642,0 18.35352,-33.92741,0 18.353,-33.92848,0 18.3526,-33.92941,0 18.35209,-33.93067,0 18.35165,-33.93178,0 18.35115,-33.93292,0 18.35076,-33.93398,0 18.3502,-33.93514,0 18.34969,-33.93636,0 18.34834,-33.93942,0 18.3479,-33.94034,0 18.34728,-33.94153,0 18.34671,-33.94263,0 18.3462,-33.94366,0 18.34568,-33.94463,0 18.34511,-33.94571,0 18.34403,-33.9478,0 18.34356,-33.94868,0 18.34296,-33.94995,0 18.34242,-33.95097,0 18.3419,-33.95213,0 18.34024,-33.95581,0 18.3387,-33.95935,0 18.33773,-33.96135,0 18.3373,-33.96222,0 18.33647,-33.96377,0 18.3359,-33.96474,0 18.33538,-33.96563,0 18.33428,-33.96716,0 18.3336,-33.96803,0 18.33292,-33.96898,0 18.33209,-33.97005,0 18.33132,-33.97112,0 18.33035,-33.97247,0 18.32977,-33.97331,0 18.32891,-33.97443,0 18.32828,-33.97527,0 18.3276,-33.97615,0 18.3268,-33.97722,0 18.32611,-33.97815,0 18.3252,-33.97948,0 18.32457,-33.98034,0 18.32385,-33.98145,0 18.32319,-33.98253,0 18.32262,-33.98341,0 18.32211,-33.98424,0 18.32138,-33.98538,0 18.32067,-33.98648,0 18.32015,-33.98735,0 18.31942,-33.98859,0 18.31873,-33.98974,0 18.3183,-33.99042,0 18.31758,-33.99165,0 18.31701,-33.99254,0 18.31511,-33.99559,0 18.31309,-33.99879,0 18.31236,-33.9998,0 18.31158,-34.00087,0 18.31089,-34.00175,0 18.31015,-34.00278,0 18.30957,-34.00352,0 18.30872,-34.00455,0 18.30782,-34.00566,0 18.30709,-34.00653,0 18.30626,-34.00753,0 18.3053,-34.00864,0 18.3046,-34.00943,0 18.30368,-34.01037,0 18.30283,-34.01125,0 18.30191,-34.01213,0 18.30092,-34.01308,0 18.30008,-34.01381,0 18.29913,-34.01468,0 18.29818,-34.0155,0 18.29727,-34.01633,0 18.29653,-34.01702,0 18.29554,-34.01802,0 18.29498,-34.0187,0 18.29431,-34.01976,0 18.29401,-34.02052,0 18.2939,-34.02154,0 18.29412,-34.0228,0 18.29448,-34.0237,0 18.29526,-34.0247,0 18.29624,-34.02554,0 18.29767,-34.02629,0 18.29876,-34.02657,0 18.29996,-34.02666,0 18.30092,-34.02663,0 18.30242,-34.02629,0 18.30362,-34.02582,0 18.30462,-34.02539,0 18.30558,-34.02489,0 18.30683,-34.02424,0 18.30771,-34.02365,0 18.30854,-34.02317,0 18.30992,-34.02219,0 18.31095,-34.02145,0 18.31169,-34.02086,0 18.31275,-34.02003,0 18.31352,-34.01935,0 18.31438,-34.01865,0 18.31524,-34.01796,0 18.31598,-34.01735,0 18.3169,-34.01656,0 18.31768,-34.01587,0 18.31873,-34.01493,0 18.31942,-34.01431,0 18.32039,-34.0133,0 18.32088,-34.0128,0 18.32161,-34.01202,0 18.32256,-34.01097,0 18.32329,-34.0101,0 18.32396,-34.00932,0 18.32486,-34.00827,0 18.32559,-34.00735,0 18.32634,-34.00645,0 18.32693,-34.00566,0 18.32783,-34.00455,0 18.32846,-34.00371,0 18.32914,-34.00278,0 18.32957,-34.00223,0 18.33023,-34.00134,0 18.33092,-34.00036,0 18.33147,-33.99962,0 18.33607,-33.99352,0 18.3391,-33.98923,0 18.34067,-33.98712,0 18.34308,-33.9841,0 18.34386,-33.98309,0 18.34465,-33.98195,0 18.34654,-33.97894,0 18.34723,-33.97797,0 18.34773,-33.97719,0 18.3482,-33.97647,0 18.34894,-33.97536,0 18.34941,-33.97467,0 18.35014,-33.97364,0 18.35072,-33.97266,0 18.35152,-33.97131,0 18.35216,-33.97005,0 18.35255,-33.96931,0 18.35305,-33.96831,0 18.35409,-33.96642,0 18.35563,-33.96355,0 18.35574,-33.96332,0 18.35833,-33.95725,0 18.35872,-33.95631,0 18.359,-33.95554,0 18.35995,-33.95261,0 18.3609,-33.94986,0 18.36182,-33.94706,0 18.36269,-33.9445,0 18.36365,-33.94152,0 18.36449,-33.93851,0 18.36548,-33.93575,0 18.36578,-33.93498,0 18.36622,-33.9337,0 18.36657,-33.9329,0 18.36708,-33.93169,0 18.36742,-33.9309,0 18.36782,-33.93016,0 18.36828,-33.92932,0 18.36875,-33.92857,0 18.36937,-33.92764,0 18.36983,-33.92694,0 18.37037,-33.92606,0 18.37074,-33.92555,0 18.37137,-33.92471,0 18.37194,-33.92406,0 18.37245,-33.92345,0 18.37312,-33.92258,0 18.37368,-33.92194,0 18.37435,-33.92122,0 18.37509,-33.92048,0 18.37578,-33.91968,0 18.37643,-33.91905,0 18.37693,-33.91855,0 18.37749,-33.91791,0 18.37828,-33.91713,0 18.37904,-33.91633,0 18.37961,-33.91577,0 18.38041,-33.91494,0 18.38119,-33.91415,0 18.38184,-33.91344,0 18.3839,-33.91144,0 18.38545,-33.90994,0 18.38596,-33.90948,0 18.38671,-33.90874,0 18.38747,-33.90807,0 18.38825,-33.90733,0 18.38887,-33.90678,0 18.3896,-33.90614,0 18.39055,-33.90532,0 18.39123,-33.90479,0 18.39184,-33.90427,0 18.3926,-33.90367,0 18.39347,-33.90303,0 18.39403,-33.90266,0 18.39492,-33.90202,0 18.39592,-33.90134,0 18.39661,-33.90088,0 18.3975,-33.90028,0 18.39823,-33.89978,0 18.39895,-33.89934,0 18.3997,-33.89892,0 18.40055,-33.89846,0 18.40137,-33.89809,0 18.40232,-33.89767,0 18.40333,-33.89726,0 18.40468,-33.89676,0 18.40552,-33.89644,0 18.40642,-33.89607,0 18.40726,-33.89575,0 18.40838,-33.89525,0 18.40931,-33.89487,0 18.41028,-33.89445,0 18.41118,-33.89406,0 18.412,-33.89366,0 18.41326,-33.89305,0 18.41409,-33.89264,0 18.4151,-33.89214,0 18.41595,-33.89175,0 18.41686,-33.89128,0 18.4178,-33.89085,0 18.41858,-33.89049,0 18.41964,-33.89003,0 18.42052,-33.88961,0 18.42116,-33.88934,0 18.42213,-33.88891,0 18.42284,-33.88861,0 18.42344,-33.88831,0 18.42418,-33.88797,0 18.42514,-33.88756,0 18.42585,-33.88728,0 18.42653,-33.88705,0 18.42722,-33.88691,0 18.428,-33.88683,0 18.42882,-33.88691,0 18.4294,-33.8871,0 18.42991,-33.88737,0 18.43031,-33.88784,0 18.43052,-33.88834,0 18.43052,-33.88884,0 18.43029,-33.88943,0 18.4299,-33.88989,0 18.42934,-33.89035,0 18.42865,-33.89068,0 18.428,-33.89099,0 18.42733,-33.89124,0 18.42665,-33.89152,0 18.42596,-33.8918,0 18.42539,-33.89203,0 18.42486,-33.89227,0 18.42435,-33.89255,0 18.42385,-33.89287,0 18.4235,-33.89315,0 18.42321,-33.89343,0 18.42306,-33.89388,0 18.42301,-33.89424,0 18.42318,-33.89479,0 18.42346,-33.89525,0 18.42374,-33.89557,0 18.42419,-33.89603,0 18.42447,-33.89631,0 18.42475,-33.89658,0 18.42508,-33.89685,0 18.42536,-33.89713,0 18.42564,-33.89745,0 18.42596,-33.89771,0 18.42615,-33.89795,0 18.42642,-33.89827,0 18.42665,-33.8985,0 18.42688,-33.89874,0 18.4271,-33.89901,0 18.42728,-33.89925,0 18.42743,-33.89946,0 18.42756,-33.89971,0 18.4276,-33.89996,0 18.42766,-33.90019,0 18.42762,-33.90041,0 18.42756,-33.90063,0</coordinates>
      </LineString>
    </Placemark>
  </Document>
</kml>
