<?xml version="1.0" encoding="UTF-8"?>
<kml xmlns="http://www.opengis.net/kml/2.2">
  <Document>
    <name>FR24 41e31a9d</name>
    <Placemark>
      <name>FR24 41e31a9d</name>
      <Style><LineStyle><color>ff0000ff</color><width>4</width></LineStyle></Style>
      <LineString>
        <tessellate>1</tessellate>
        <coordinates>18.42688,-33.90102,0 18.42693,-33.90078,0 18.4271,-33.90013,0 18.42727,-33.89987,0 18.42738,-33.89964,0 18.4276,-33.89937,0 18.42777,-33.89909,0 18.42796,-33.89887,0 18.42819,-33.89859,0 18.42836,-33.89836,0 18.42871,-33.89794,0 18.42894,-33.89771,0 18.42912,-33.89745,0 18.42945,-33.89703,0 18.42968,-33.89676,0 18.4299,-33.89644,0 18.43037,-33.8958,0 18.4306,-33.89548,0 18.43074,-33.89516,0 18.43097,-33.89484,0 18.43117,-33.89445,0 18.43164,-33.89355,0 18.43208,-33.89278,0 18.43254,-33.89186,0 18.43294,-33.89096,0 18.43317,-33.89031,0 18.43343,-33.8893,0 18.4336,-33.88843,0 18.43374,-33.88752,0 18.4338,-33.88649,0 18.43374,-33.88547,0 18.43363,-33.88454,0 18.4334,-33.88333,0 18.433,-33.88226,0 18.43259,-33.88142,0 18.43191,-33.88039,0 18.43111,-33.87932,0 18.43035,-33.87854,0 18.42968,-33.87799,0 18.42839,-33.87698,0 18.42738,-33.87643,0 18.4262,-33.87584,0 18.42487,-33.87532,0 18.42344,-33.87485,0 18.42253,-33.87467,0 18.42127,-33.87442,0 18.41955,-33.8742,0 18.41796,-33.87415,0 18.41669,-33.87415,0 18.41555,-33.87424,0 18.41423,-33.87439,0 18.41309,-33.87453,0 18.41202,-33.87465,0 18.41034,-33.87492,0 18.40894,-33.87511,0 18.40776,-33.87532,0 18.40662,-33.87555,0 18.40524,-33.87579,0 18.40401,-33.87607,0 18.40115,-33.87675,0 18.39918,-33.87727,0 18.39756,-33.87776,0 18.39621,-33.87817,0 18.39515,-33.87854,0 18.39369,-33.879,0 18.39243,-33.87941,0 18.39106,-33.87983,0 18.39016,-33.88014,0 18.38871,-33.88067,0 18.38791,-33.881,0 18.38659,-33.88156,0 18.38533,-33.88216,0 18.38416,-33.88266,0 18.38271,-33.8833,0 18.38173,-33.88374,0 18.38041,-33.8844,0 18.37938,-33.88491,0 18.3783,-33.88551,0 18.37727,-33.88614,0 18.37648,-33.88664,0 18.37503,-33.88752,0 18.37391,-33.88829,0 18.37312,-33.88884,0 18.37172,-33.88989,0 18.37086,-33.89059,0 18.36998,-33.89131,0 18.3692,-33.89208,0 18.36858,-33.89268,0 18.36754,-33.89384,0 18.3669,-33.89461,0 18.36611,-33.89566,0 18.36559,-33.89641,0 18.36451,-33.89799,0 18.36387,-33.899,0 18.36348,-33.89969,0 18.36182,-33.90246,0 18.36129,-33.90349,0 18.36079,-33.90436,0 18.36034,-33.90527,0 18.35984,-33.90637,0 18.35928,-33.90747,0 18.35894,-33.90816,0 18.35838,-33.90944,0 18.35804,-33.91023,0 18.35754,-33.91141,0 18.35703,-33.91255,0 18.35658,-33.91356,0 18.35609,-33.91465,0 18.35574,-33.91553,0 18.35529,-33.91647,0 18.35484,-33.91754,0 18.35426,-33.91889,0 18.35381,-33.91996,0 18.3534,-33.92089,0 18.35295,-33.92206,0 18.35261,-33.92303,0 18.35227,-33.92395,0 18.35171,-33.92551,0 18.3514,-33.92648,0 18.351,-33.92746,0 18.35049,-33.92876,0 18.35003,-33.92992,0 18.34957,-33.9309,0 18.34911,-33.93183,0 18.34871,-33.93277,0 18.34837,-33.93351,0 18.34649,-33.9381,0 18.34602,-33.93937,0 18.34571,-33.94029,0 18.34543,-33.94102,0 18.34499,-33.9424,0 18.34459,-33.94347,0 18.34419,-33.94463,0 18.34386,-33.94556,0 18.34319,-33.94743,0 18.34285,-33.94817,0 18.3423,-33.94952,0 18.34185,-33.95055,0 18.34134,-33.95169,0 18.34089,-33.95279,0 18.34042,-33.9538,0 18.33999,-33.95485,0 18.33956,-33.95581,0 18.33898,-33.95709,0 18.33618,-33.96293,0 18.33478,-33.96565,0 18.33287,-33.96909,0 18.33126,-33.97163,0 18.32943,-33.97415,0 18.32754,-33.97671,0 18.32564,-33.97916,0 18.32193,-33.9843,0 18.32108,-33.98565,0 18.31879,-33.98933,0 18.31752,-33.99138,0 18.31707,-33.99212,0 18.31621,-33.99352,0 18.31561,-33.99454,0 18.31478,-33.99598,0 18.31343,-33.99843,0 18.31261,-33.9998,0 18.31012,-34.00406,0 18.30586,-34.01152,0 18.30448,-34.01428,0 18.30317,-34.01697,0 18.30196,-34.01977,0 18.2998,-34.0253,0 18.2993,-34.02695,0 18.29899,-34.02801,0 18.29868,-34.02914,0 18.2984,-34.03024,0 18.29807,-34.0318,0 18.29779,-34.0329,0 18.29756,-34.03423,0 18.29739,-34.03532,0 18.29723,-34.03706,0 18.29723,-34.03812,0 18.29733,-34.03951,0 18.29756,-34.04086,0 18.29773,-34.04193,0 18.29802,-34.04295,0 18.29829,-34.04398,0 18.29857,-34.04498,0 18.29899,-34.04617,0 18.29939,-34.04714,0 18.29992,-34.04837,0 18.30042,-34.04938,0 18.30116,-34.05068,0 18.30171,-34.05167,0 18.30242,-34.05278,0 18.30305,-34.05373,0 18.30379,-34.05496,0 18.30429,-34.05579,0 18.30502,-34.05693,0 18.30568,-34.05794,0 18.30637,-34.05892,0 18.30703,-34.05991,0 18.30774,-34.06092,0 18.3086,-34.06219,0 18.30916,-34.06306,0 18.30986,-34.06404,0 18.31209,-34.06725,0 18.31455,-34.07065,0 18.31696,-34.07391,0 18.31931,-34.07739,0 18.31999,-34.07843,0 18.32067,-34.07945,0 18.32278,-34.08257,0 18.32346,-34.08353,0 18.32428,-34.08466,0 18.32497,-34.08569,0 18.32582,-34.08685,0 18.328,-34.08974,0 18.32884,-34.09085,0 18.32954,-34.09165,0 18.33046,-34.09273,0 18.3312,-34.0937,0 18.33192,-34.09451,0 18.33276,-34.09552,0 18.33355,-34.09644,0 18.33433,-34.0974,0 18.33515,-34.09835,0 18.3359,-34.09909,0 18.33685,-34.1001,0 18.33767,-34.10101,0 18.33836,-34.10165,0 18.33926,-34.10252,0 18.33999,-34.10321,0 18.34072,-34.10381,0 18.34156,-34.1045,0 18.34257,-34.10527,0 18.34336,-34.10591,0 18.34414,-34.1065,0 18.34532,-34.10733,0 18.34614,-34.10789,0 18.34711,-34.1085,0 18.34818,-34.10916,0 18.34929,-34.1098,0 18.35049,-34.11045,0 18.35135,-34.11092,0 18.35255,-34.1115,0 18.35361,-34.11195,0 18.35461,-34.11236,0 18.35541,-34.11269,0 18.35667,-34.11316,0 18.35764,-34.11353,0 18.359,-34.11397,0 18.35981,-34.11427,0 18.36107,-34.11478,0 18.36208,-34.11516,0 18.36302,-34.11553,0 18.36426,-34.11603,0 18.36516,-34.11635,0 18.36628,-34.11674,0 18.36725,-34.11707,0 18.36847,-34.1174,0 18.36959,-34.11772,0 18.37049,-34.11795,0 18.37161,-34.11823,0 18.37278,-34.1185,0 18.37374,-34.11873,0 18.37503,-34.11902,0 18.37584,-34.11916,0 18.37738,-34.11951,0 18.37835,-34.11972,0 18.37955,-34.12009,0 18.38064,-34.12046,0 18.3817,-34.12083,0 18.38299,-34.12134,0 18.38394,-34.12175,0 18.38495,-34.12216,0 18.38596,-34.1226,0 18.38694,-34.12302,0 18.38831,-34.12354,0 18.38932,-34.1239,0 18.3902,-34.12423,0 18.3914,-34.1247,0 18.39274,-34.12523,0 18.39363,-34.12558,0 18.3946,-34.126,0 18.39588,-34.12646,0 18.39684,-34.12684,0 18.39829,-34.12743,0 18.39924,-34.12784,0 18.40008,-34.12816,0 18.40115,-34.12857,0 18.40233,-34.12912,0 18.40336,-34.12968,0 18.40405,-34.13005,0 18.40502,-34.13066,0 18.40602,-34.13127,0 18.40679,-34.13177,0 18.40776,-34.13246,0 18.40883,-34.1331,0 18.40971,-34.13368,0 18.41063,-34.13429,0 18.41146,-34.13475,0 18.41251,-34.13536,0 18.4136,-34.13592,0 18.41452,-34.13629,0 18.4155,-34.13672,0 18.41656,-34.13718,0 18.41766,-34.13755,0 18.41863,-34.13791,0 18.41984,-34.13829,0 18.42087,-34.13857,0 18.42183,-34.13878,0 18.42306,-34.13901,0 18.42407,-34.13914,0 18.42516,-34.13932,0 18.42619,-34.13941,0 18.42751,-34.13955,0 18.42859,-34.13964,0 18.42962,-34.13974,0 18.43077,-34.13983,0 18.4318,-34.13992,0 18.4331,-34.14001,0 18.4342,-34.14006,0 18.43523,-34.14011,0 18.43649,-34.14011,0 18.43763,-34.14001,0 18.43893,-34.13988,0 18.44015,-34.13964,0 18.44141,-34.13941,0 18.44246,-34.13919,0 18.44369,-34.13892,0 18.44459,-34.13864,0 18.44576,-34.13832,0 18.44707,-34.13783,0 18.44795,-34.1375,0 18.44908,-34.13699,0 18.44999,-34.13648,0 18.45086,-34.13603,0 18.45182,-34.1355,0 18.45297,-34.13485,0 18.45384,-34.13425,0 18.45469,-34.13373,0 18.45574,-34.13301,0 18.45652,-34.13243,0 18.45732,-34.13177,0 18.45829,-34.13099,0 18.45915,-34.13019,0 18.46006,-34.12939,0 18.4609,-34.12862,0 18.46167,-34.12786,0 18.46241,-34.12712,0 18.46315,-34.12637,0 18.46407,-34.1254,0 18.46493,-34.12447,0 18.46561,-34.12368,0 18.46645,-34.12271,0 18.46712,-34.12189,0 18.46796,-34.12088,0 18.46865,-34.12004,0 18.46936,-34.11914,0 18.47015,-34.11809,0 18.47071,-34.11722,0 18.47127,-34.1163,0 18.47185,-34.11525,0 18.47242,-34.11413,0 18.47295,-34.11287,0 18.47328,-34.1119,0 18.47362,-34.11081,0 18.47391,-34.10966,0 18.47418,-34.10829,0 18.47435,-34.10742,0 18.47452,-34.10605,0 18.4746,-34.10487,0 18.47466,-34.10338,0 18.47466,-34.10221,0 18.47469,-34.1011,0 18.47469,-34.09982,0 18.47466,-34.09849,0 18.4746,-34.097,0 18.47452,-34.09584,0 18.47448,-34.09463,0 18.47435,-34.09351,0 18.47425,-34.09207,0 18.47414,-34.09109,0 18.47396,-34.08989,0 18.47374,-34.08852,0 18.47357,-34.0876,0 18.47334,-34.08652,0 18.47305,-34.08532,0 18.47273,-34.08389,0 18.47237,-34.0828,0 18.47202,-34.08155,0 18.47166,-34.08051,0 18.47128,-34.07927,0 18.47088,-34.07813,0 18.47059,-34.07712,0 18.47019,-34.07596,0 18.46981,-34.07478,0 18.46942,-34.07346,0 18.46908,-34.07227,0 18.4687,-34.07098,0 18.4683,-34.06981,0 18.46785,-34.06851,0 18.46739,-34.0673,0 18.46701,-34.06618,0 18.46664,-34.06516,0 18.4663,-34.06409,0 18.4659,-34.06292,0 18.46561,-34.06195,0 18.46527,-34.06055,0 18.4651,-34.05954,0 18.46481,-34.05832,0 18.4646,-34.0573,0 18.46436,-34.05622,0 18.46415,-34.05519,0 18.46401,-34.05403,0 18.4639,-34.05273,0 18.46378,-34.05161,0 18.46376,-34.05048,0 18.4637,-34.04938,0 18.46365,-34.04823,0 18.46359,-34.04718,0 18.4635,-34.04584,0 18.46348,-34.0448,0 18.46338,-34.04346,0 18.46331,-34.04214,0 18.46333,-34.04072,0 18.46325,-34.03963,0 18.46327,-34.03848,0 18.46321,-34.03737,0 18.4632,-34.03592,0 18.46309,-34.03468,0 18.46275,-34.03336,0 18.46241,-34.03253,0 18.46185,-34.03148,0 18.46095,-34.03024,0 18.46012,-34.02927,0 18.45916,-34.02814,0 18.45858,-34.02745,0 18.4576,-34.02638,0 18.4568,-34.0255,0 18.45591,-34.02452,0 18.45491,-34.02345,0 18.454,-34.02246,0 18.45314,-34.02149,0 18.45222,-34.02047,0 18.45126,-34.01935,0 18.45053,-34.01848,0 18.44965,-34.01754,0 18.44868,-34.01642,0 18.44784,-34.01555,0 18.44679,-34.01432,0 18.44604,-34.0134,0 18.44526,-34.01216,0 18.4447,-34.01111,0 18.44416,-34.01004,0 18.44364,-34.00892,0 18.44318,-34.00776,0 18.44268,-34.00648,0 18.44195,-34.00525,0 18.44107,-34.00446,0 18.43987,-34.00385,0 18.43876,-34.00374,0 18.43735,-34.00394,0 18.43637,-34.00441,0 18.43562,-34.00516,0 18.43517,-34.00616,0 18.43517,-34.00683,0 18.43573,-34.00804,0 18.43637,-34.0086,0 18.43758,-34.00909,0 18.43865,-34.00914,0 18.43971,-34.00891,0 18.44089,-34.00827,0 18.44167,-34.00749,0 18.44227,-34.00669,0 18.44302,-34.00557,0 18.44363,-34.0047,0 18.44456,-34.00343,0 18.44515,-34.00264,0 18.44593,-34.00157,0 18.44666,-34.00053,0 18.44722,-33.99962,0 18.44773,-33.99879,0 18.44823,-33.99788,0 18.44868,-33.99706,0 18.44919,-33.99594,0 18.44954,-33.99524,0 18.45008,-33.99394,0 18.45047,-33.99298,0 18.45097,-33.99179,0 18.45142,-33.99081,0 18.45188,-33.9897,0 18.45243,-33.9884,0 18.453,-33.98712,0 18.45333,-33.9863,0 18.45388,-33.98495,0 18.4544,-33.98355,0 18.4549,-33.98232,0 18.45541,-33.98135,0 18.45613,-33.98021,0 18.45698,-33.97911,0 18.45787,-33.9781,0 18.45863,-33.97722,0 18.45967,-33.97623,0 18.46079,-33.97513,0 18.46163,-33.97426,0 18.46236,-33.97334,0 18.46309,-33.97238,0 18.46384,-33.97108,0 18.46432,-33.96991,0 18.46464,-33.96838,0 18.4646,-33.96671,0 18.46432,-33.96556,0 18.46387,-33.96442,0 18.46325,-33.96323,0 18.46264,-33.96204,0 18.46213,-33.96107,0 18.46152,-33.95975,0 18.46109,-33.95869,0 18.46058,-33.95758,0 18.46017,-33.9565,0 18.45961,-33.95508,0 18.45926,-33.95409,0 18.45881,-33.95283,0 18.4584,-33.95176,0 18.458,-33.9505,0 18.45759,-33.9494,0 18.45715,-33.94808,0 18.45675,-33.94693,0 18.45636,-33.94579,0 18.45597,-33.9445,0 18.45569,-33.94354,0 18.45541,-33.94254,0 18.45507,-33.9413,0 18.45485,-33.94025,0 18.45457,-33.93901,0 18.45434,-33.93796,0 18.45412,-33.93695,0 18.45389,-33.93576,0 18.45378,-33.93475,0 18.45361,-33.93338,0 18.45356,-33.93237,0 18.4535,-33.93095,0 18.45348,-33.93002,0 18.45356,-33.92871,0 18.45366,-33.92769,0 18.45377,-33.92639,0 18.45395,-33.92523,0 18.454,-33.92436,0 18.45423,-33.92271,0 18.4544,-33.92171,0 18.45451,-33.92075,0 18.45474,-33.91936,0 18.4549,-33.91823,0 18.45513,-33.91718,0 18.45537,-33.91638,0 18.4558,-33.91516,0 18.45623,-33.91428,0 18.45669,-33.91335,0 18.45732,-33.91214,0 18.45789,-33.91121,0 18.45846,-33.91037,0 18.45916,-33.90939,0 18.45983,-33.90852,0 18.46064,-33.90758,0 18.46135,-33.90674,0 18.46195,-33.90614,0 18.46281,-33.9053,0 18.46344,-33.90474,0 18.46432,-33.90413,0 18.46498,-33.90376,0 18.46596,-33.90348,0 18.46664,-33.90343,0 18.46751,-33.90349,0 18.46802,-33.90358,0 18.46869,-33.90381,0 18.4691,-33.90404,0 18.46947,-33.90436,0 18.46991,-33.90474,0 18.47008,-33.90497,0 18.47025,-33.9052,0 18.47043,-33.90541,0 18.4706,-33.90569,0 18.47071,-33.90591,0 18.47082,-33.90623,0 18.47088,-33.90646,0 18.47094,-33.9067,0 18.47094,-33.90693,0 18.47099,-33.9072,0 18.47104,-33.90742,0 18.47109,-33.90766,0 18.47112,-33.90787,0 18.47082,-33.90809,0 18.47037,-33.9082,0 18.46987,-33.90829,0 18.46964,-33.90829,0 18.46936,-33.90829,0 18.46908,-33.90829,0 18.46863,-33.90825,0 18.46835,-33.9082,0 18.46796,-33.90814,0 18.46767,-33.90809,0 18.4671,-33.908,0 18.46664,-33.90791,0 18.46601,-33.90772,0 18.46516,-33.90747,0 18.46482,-33.90738,0 18.46367,-33.90697,0 18.46315,-33.90683,0 18.46275,-33.90665,0 18.46218,-33.90646,0 18.46178,-33.90628,0 18.46109,-33.906,0 18.46064,-33.90581,0 18.46035,-33.90567,0 18.45949,-33.90525,0 18.45916,-33.90504,0 18.45881,-33.90479,0 18.45846,-33.90455,0 18.45815,-33.90436,0 18.45755,-33.90385,0 18.45675,-33.90321,0 18.45608,-33.90271,0 18.45537,-33.90208,0 18.4548,-33.90157,0 18.45406,-33.90092,0 18.45337,-33.90032,0 18.45251,-33.89957,0 18.45171,-33.899,0</coordinates>
      </LineString>
    </Placemark>
  </Document>
</kml>
