<?xml version="1.0" encoding="UTF-8"?>
<kml xmlns="http://www.opengis.net/kml/2.2">
  <Document>
    <name>FR24 3efef5a9</name>
    <Placemark>
      <name>FR24 3efef5a9</name>
      <Style><LineStyle><color>ff0000ff</color><width>4</width></LineStyle></Style>
      <LineString>
        <tessellate>1</tessellate>
        <coordinates>18.34885,-33.9126,0 18.35124,-33.91705,0 18.35322,-33.92175,0 18.35076,-33.92569,0 18.34997,-33.92702,0 18.34929,-33.92825,0 18.34874,-33.92917,0 18.34829,-33.93008,0 18.34757,-33.93146,0 18.34694,-33.93269,0 18.34638,-33.9337,0 18.34602,-33.93449,0 18.34539,-33.93584,0 18.34476,-33.93723,0 18.34425,-33.93832,0 18.34379,-33.93933,0 18.34313,-33.94084,0 18.34252,-33.94217,0 18.3419,-33.9435,0 18.34027,-33.94711,0 18.33865,-33.95073,0 18.33693,-33.95432,0 18.33523,-33.95773,0 18.33338,-33.96158,0 18.33212,-33.96428,0 18.32951,-33.96986,0 18.32777,-33.97353,0 18.326,-33.97718,0 18.32419,-33.98108,0 18.32211,-33.9856,0 18.32054,-33.989,0 18.31897,-33.99252,0 18.31858,-33.99358,0 18.31804,-33.9951,0 18.31764,-33.99617,0 18.31724,-33.99728,0 18.3169,-33.99834,0 18.31644,-33.99966,0 18.3161,-34.00073,0 18.31564,-34.00222,0 18.31522,-34.00346,0 18.31483,-34.00497,0 18.3145,-34.00608,0 18.31415,-34.00713,0 18.31343,-34.00983,0 18.31314,-34.01088,0 18.31286,-34.01207,0 18.31255,-34.01344,0 18.31221,-34.01469,0 18.31175,-34.01712,0 18.31152,-34.01816,0 18.31123,-34.01986,0 18.31101,-34.02127,0 18.31083,-34.02266,0 18.31066,-34.02377,0 18.31055,-34.02489,0 18.3104,-34.02649,0 18.31029,-34.02782,0 18.31023,-34.0291,0 18.3102,-34.03015,0 18.3102,-34.0315,0 18.3102,-34.03281,0 18.31017,-34.03391,0 18.31023,-34.0351,0 18.31029,-34.03647,0 18.31034,-34.03757,0 18.31045,-34.03899,0 18.31049,-34.04012,0 18.3106,-34.04132,0 18.31072,-34.04253,0 18.31085,-34.04379,0 18.31095,-34.04482,0 18.31107,-34.04594,0 18.31124,-34.04736,0 18.31141,-34.04849,0 18.31157,-34.04965,0 18.31175,-34.05087,0 18.31203,-34.05231,0 18.31226,-34.05338,0 18.31253,-34.0546,0 18.31281,-34.05579,0 18.31309,-34.05698,0 18.31348,-34.05849,0 18.31369,-34.05967,0 18.31393,-34.06082,0 18.31421,-34.0621,0 18.31449,-34.06375,0 18.31467,-34.06479,0 18.3149,-34.06609,0 18.31511,-34.06746,0 18.31527,-34.06851,0 18.31539,-34.06975,0 18.31553,-34.07079,0 18.31567,-34.07213,0 18.31572,-34.07332,0 18.31575,-34.0747,0 18.31578,-34.07593,0 18.31581,-34.0774,0 18.31578,-34.07863,0 18.31578,-34.08014,0 18.31572,-34.0816,0 18.31572,-34.08279,0 18.3157,-34.0842,0 18.31564,-34.08532,0 18.31561,-34.08673,0 18.31561,-34.08797,0 18.31558,-34.08904,0 18.3155,-34.09071,0 18.31541,-34.09216,0 18.31533,-34.09355,0 18.31522,-34.09474,0 18.31507,-34.0963,0 18.31494,-34.09749,0 18.31478,-34.09872,0 18.3146,-34.09996,0 18.31444,-34.10133,0 18.31421,-34.1028,0 18.3141,-34.1039,0 18.31387,-34.10518,0 18.31364,-34.10668,0 18.31347,-34.10785,0 18.31326,-34.10934,0 18.31309,-34.11053,0 18.31286,-34.11223,0 18.31232,-34.11623,0 18.31186,-34.12028,0 18.31129,-34.12447,0 18.31107,-34.12569,0 18.31032,-34.12977,0 18.31009,-34.13094,0 18.3098,-34.13238,0 18.30952,-34.13373,0 18.30933,-34.13475,0 18.30917,-34.13652,0 18.30911,-34.13759,0 18.30911,-34.13892,0 18.30923,-34.14043,0 18.30935,-34.14146,0 18.30956,-34.14285,0 18.30975,-34.14392,0 18.31009,-34.14528,0 18.3104,-34.14642,0 18.31073,-34.14752,0 18.31118,-34.14891,0 18.31158,-34.15002,0 18.31202,-34.15114,0 18.31247,-34.15233,0 18.31289,-34.15324,0 18.31354,-34.1548,0 18.31415,-34.15604,0 18.31467,-34.15715,0 18.31518,-34.15817,0 18.31583,-34.15956,0 18.31644,-34.16064,0 18.31707,-34.1618,0 18.3178,-34.16313,0 18.3185,-34.16441,0 18.31902,-34.16529,0 18.31964,-34.16641,0 18.32033,-34.16753,0 18.32108,-34.16869,0 18.32183,-34.16995,0 18.3225,-34.17091,0 18.32312,-34.17192,0 18.32382,-34.17293,0 18.32457,-34.174,0 18.32542,-34.17522,0 18.3264,-34.17661,0 18.3271,-34.1776,0 18.32783,-34.17861,0 18.32856,-34.17957,0 18.3292,-34.18047,0 18.3316,-34.18382,0 18.33411,-34.1873,0 18.3375,-34.19192,0 18.34036,-34.19616,0 18.34116,-34.19737,0 18.3419,-34.19861,0 18.34252,-34.19962,0 18.34324,-34.20085,0 18.34391,-34.20202,0 18.34471,-34.20337,0 18.34517,-34.20421,0 18.34582,-34.20557,0 18.34649,-34.20685,0 18.34717,-34.20813,0 18.3478,-34.20947,0 18.34831,-34.21059,0 18.34883,-34.2117,0 18.34935,-34.21284,0 18.34997,-34.21417,0 18.35054,-34.21552,0 18.35117,-34.21683,0 18.35157,-34.21785,0 18.35272,-34.22046,0 18.35451,-34.22452,0 18.35615,-34.22865,0 18.35765,-34.23253,0 18.35913,-34.23652,0 18.36045,-34.24036,0 18.36182,-34.24415,0 18.36313,-34.24811,0 18.36421,-34.2518,0 18.36555,-34.25665,0 18.36679,-34.26118,0 18.36782,-34.26482,0 18.36897,-34.26855,0 18.37063,-34.27343,0 18.3712,-34.27483,0 18.3716,-34.2759,0 18.37206,-34.27693,0 18.37263,-34.27823,0 18.37323,-34.27954,0 18.37372,-34.28056,0 18.37435,-34.28183,0 18.37508,-34.28316,0 18.37566,-34.28423,0 18.37635,-34.2854,0 18.3771,-34.28664,0 18.37778,-34.28768,0 18.37867,-34.28911,0 18.37934,-34.29007,0 18.38018,-34.29135,0 18.38081,-34.29224,0 18.38175,-34.29355,0 18.38247,-34.29457,0 18.38322,-34.29564,0 18.38411,-34.29684,0 18.385,-34.29808,0 18.38573,-34.29904,0 18.38654,-34.30001,0 18.38722,-34.30099,0 18.38825,-34.3023,0 18.38991,-34.30449,0 18.39229,-34.30769,0 18.39397,-34.30993,0 18.39483,-34.31109,0 18.39548,-34.312,0 18.39638,-34.31314,0 18.39739,-34.31433,0 18.39812,-34.31525,0 18.39913,-34.31644,0 18.40004,-34.31747,0 18.40087,-34.31845,0 18.40182,-34.3195,0 18.40288,-34.32065,0 18.40384,-34.3217,0 18.40473,-34.32264,0 18.40559,-34.32348,0 18.40679,-34.32469,0 18.40771,-34.32555,0 18.40862,-34.32646,0 18.40982,-34.32748,0 18.41074,-34.32832,0 18.41183,-34.32925,0 18.41291,-34.33023,0 18.41383,-34.33102,0 18.41503,-34.33204,0 18.416,-34.33279,0 18.41774,-34.33411,0 18.41898,-34.33507,0 18.41992,-34.33575,0 18.42115,-34.33665,0 18.42233,-34.33749,0 18.42334,-34.33818,0 18.42452,-34.33896,0 18.42579,-34.33982,0 18.42699,-34.34061,0 18.42813,-34.3414,0 18.42923,-34.34212,0 18.43037,-34.34284,0 18.4314,-34.34349,0 18.43277,-34.34433,0 18.43403,-34.34512,0 18.43517,-34.34587,0 18.43603,-34.34638,0 18.4374,-34.34726,0 18.43837,-34.34784,0 18.43969,-34.34866,0 18.44078,-34.34935,0 18.4421,-34.35015,0 18.44553,-34.35229,0 18.44913,-34.35452,0 18.454,-34.35746,0 18.45843,-34.36015,0 18.46331,-34.36304,0 18.46447,-34.36365,0 18.46589,-34.36432,0 18.46734,-34.36501,0 18.46876,-34.36565,0 18.47019,-34.36617,0 18.47144,-34.36661,0 18.47289,-34.36711,0 18.47385,-34.36739,0 18.47542,-34.36784,0 18.47671,-34.36821,0 18.47797,-34.36849,0 18.47918,-34.36877,0 18.48069,-34.36913,0 18.48198,-34.36938,0 18.48321,-34.36963,0 18.48438,-34.36984,0 18.48595,-34.37009,0 18.48719,-34.37022,0 18.48867,-34.37031,0 18.4901,-34.37032,0 18.49125,-34.37026,0 18.49302,-34.37017,0 18.49451,-34.36998,0 18.49576,-34.36981,0 18.49709,-34.36952,0 18.49817,-34.36929,0 18.49941,-34.3689,0 18.50025,-34.36862,0 18.50155,-34.36812,0 18.50275,-34.36752,0 18.504,-34.36684,0 18.50481,-34.36635,0 18.50563,-34.36588,0 18.50653,-34.36523,0 18.50716,-34.36468,0 18.50765,-34.36418,0 18.50821,-34.36354,0 18.50859,-34.36309,0 18.50893,-34.36258,0 18.50922,-34.36198,0 18.50944,-34.36143,0 18.50961,-34.36093,0 18.50966,-34.36038,0 18.50972,-34.35979,0 18.50972,-34.35928,0 18.50966,-34.3586,0 18.50956,-34.35797,0 18.50933,-34.35727,0 18.5091,-34.35677,0 18.50876,-34.35606,0 18.50842,-34.35537,0 18.5079,-34.35448,0 18.50737,-34.3537,0 18.50675,-34.35278,0 18.5063,-34.35211,0 18.50567,-34.35122,0 18.50501,-34.35036,0 18.50441,-34.34959,0 18.50384,-34.34875,0 18.50327,-34.34798,0 18.50275,-34.34717,0 18.50221,-34.34637,0 18.50155,-34.34526,0 18.50098,-34.34438,0 18.50047,-34.34331,0 18.50006,-34.34247,0 18.49957,-34.34138,0 18.4992,-34.34033,0 18.49886,-34.33935,0 18.49857,-34.33841,0 18.49823,-34.33731,0 18.49795,-34.33621,0 18.49767,-34.33502,0 18.49743,-34.334,0 18.4972,-34.33297,0 18.49709,-34.33213,0 18.49686,-34.33097,0 18.49669,-34.32985,0 18.49651,-34.32892,0 18.49628,-34.32748,0 18.49616,-34.32651,0 18.49593,-34.32513,0 18.49571,-34.32399,0 18.4956,-34.32303,0 18.49543,-34.3218,0 18.49531,-34.32073,0 18.49515,-34.3195,0 18.49492,-34.31635,0 18.49464,-34.31328,0 18.49436,-34.30971,0 18.49414,-34.3065,0 18.49394,-34.30202,0 18.49382,-34.29736,0 18.49375,-34.29428,0 18.4936,-34.29,0 18.49348,-34.28675,0 18.49341,-34.28307,0 18.4933,-34.27995,0 18.49324,-34.27652,0 18.49319,-34.27245,0 18.49307,-34.26947,0 18.4929,-34.26617,0 18.49257,-34.26207,0 18.49246,-34.261,0 18.49222,-34.25882,0 18.49206,-34.25793,0 18.49195,-34.25702,0 18.49178,-34.25578,0 18.49162,-34.25487,0 18.49145,-34.25395,0 18.49122,-34.25276,0 18.49102,-34.25179,0 18.49091,-34.25109,0 18.49061,-34.24983,0 18.49045,-34.24895,0 18.49016,-34.24783,0 18.49005,-34.24709,0 18.48948,-34.24466,0 18.48925,-34.24392,0 18.48896,-34.2428,0 18.48867,-34.24173,0 18.48845,-34.2408,0 18.4878,-34.23843,0 18.48752,-34.23743,0 18.48724,-34.23656,0 18.48696,-34.23549,0 18.48668,-34.23454,0 18.48635,-34.23363,0 18.48607,-34.23276,0 18.48573,-34.23166,0 18.4853,-34.23051,0 18.48489,-34.22942,0 18.48461,-34.22856,0 18.48415,-34.22739,0 18.48375,-34.22655,0 18.48332,-34.22543,0 18.48281,-34.22433,0 18.48248,-34.22346,0 18.48209,-34.2226,0 18.4817,-34.22173,0 18.4813,-34.22086,0 18.48069,-34.21953,0 18.48024,-34.21861,0 18.47975,-34.21753,0 18.47794,-34.21371,0 18.4766,-34.21077,0 18.47483,-34.207,0 18.47437,-34.20602,0 18.4739,-34.20515,0 18.47345,-34.20426,0 18.473,-34.20342,0 18.47239,-34.20241,0 18.47189,-34.20149,0 18.47139,-34.20063,0 18.47082,-34.19962,0 18.47036,-34.19881,0 18.4697,-34.19778,0 18.46922,-34.19704,0 18.46848,-34.19588,0 18.46796,-34.19499,0 18.46727,-34.19383,0 18.46682,-34.19299,0 18.46147,-34.16194,0 18.46221,-34.15776,0 18.46302,-34.15362,0 18.46359,-34.15145,0 18.46388,-34.15033,0 18.46418,-34.14933,0 18.46447,-34.14821,0 18.46567,-34.14434,0 18.46594,-34.14345,0 18.46636,-34.14206,0 18.46664,-34.14118,0 18.46701,-34.14011,0 18.46746,-34.13896,0 18.46791,-34.13782,0 18.46836,-34.13662,0 18.46882,-34.13568,0 18.46922,-34.13475,0 18.46962,-34.13382,0 18.47019,-34.13261,0 18.47048,-34.13191,0 18.47099,-34.13091,0 18.47151,-34.12987,0 18.472,-34.12885,0 18.47245,-34.12793,0 18.473,-34.12679,0 18.47357,-34.12558,0 18.47401,-34.12459,0 18.47542,-34.12161,0 18.47706,-34.11842,0 18.47912,-34.1146,0 18.48021,-34.11255,0 18.48078,-34.11124,0 18.48108,-34.1104,0 18.48135,-34.10943,0 18.48158,-34.10852,0 18.48181,-34.10733,0 18.48192,-34.10655,0 18.48214,-34.10513,0 18.48221,-34.10398,0 18.48227,-34.103,0 18.48232,-34.10189,0 18.48232,-34.10096,0 18.48232,-34.09956,0 18.48232,-34.09854,0 18.48231,-34.09758,0 18.48227,-34.09658,0 18.4822,-34.09529,0 18.48214,-34.09438,0 18.48209,-34.09323,0 18.48204,-34.0923,0 18.48198,-34.09127,0 18.48198,-34.09039,0 18.48192,-34.0895,0 18.48192,-34.08833,0 18.48192,-34.08736,0 18.48186,-34.08627,0 18.48186,-34.0849,0 18.48186,-34.08403,0 18.48192,-34.08271,0 18.48198,-34.08174,0 18.48204,-34.08066,0 18.48214,-34.07964,0 18.48231,-34.07854,0 18.48244,-34.07754,0 18.48265,-34.07634,0 18.48281,-34.07538,0 18.48304,-34.07414,0 18.48321,-34.07318,0 18.48347,-34.07196,0 18.4837,-34.0707,0 18.48405,-34.06943,0 18.48427,-34.06837,0 18.48455,-34.06723,0 18.48478,-34.06636,0 18.48511,-34.06512,0 18.48534,-34.06416,0 18.48556,-34.06311,0 18.48576,-34.06209,0 18.48595,-34.06119,0 18.48623,-34.05977,0 18.48639,-34.05887,0 18.48656,-34.05776,0 18.48668,-34.05679,0 18.48685,-34.05565,0 18.48696,-34.05464,0 18.48707,-34.05375,0 18.48713,-34.05286,0 18.4873,-34.05153,0 18.48736,-34.05063,0 18.48747,-34.04956,0 18.48758,-34.04851,0 18.48769,-34.04741,0 18.48792,-34.04553,0 18.4882,-34.04256,0 18.4885,-34.03918,0 18.48865,-34.03619,0 18.48867,-34.03522,0 18.48865,-34.03427,0 18.48867,-34.03341,0 18.48867,-34.03243,0 18.48867,-34.03127,0 18.4887,-34.02846,0 18.48865,-34.0274,0 18.48865,-34.02612,0 18.48862,-34.02517,0 18.48859,-34.02415,0 18.48859,-34.02301,0 18.4885,-34.02205,0 18.48848,-34.02118,0 18.48839,-34.02019,0 18.48837,-34.01912,0 18.48825,-34.01802,0 18.4882,-34.01688,0 18.4881,-34.01591,0 18.48808,-34.01486,0 18.48804,-34.0139,0 18.48803,-34.01299,0 18.48803,-34.01175,0 18.48803,-34.01083,0 18.48803,-34.00969,0 18.48803,-34.00877,0 18.48808,-34.00566,0 18.4881,-34.00473,0 18.48816,-34.0038,0 18.48822,-34.00273,0 18.48831,-34.00177,0 18.48842,-34.0009,0 18.48848,-33.99998,0 18.48859,-33.99879,0 18.48876,-33.9977,0 18.48879,-33.99701,0 18.48898,-33.99582,0 18.48913,-33.99445,0 18.48926,-33.99353,0 18.48943,-33.99239,0 18.48954,-33.99142,0 18.4901,-33.98712,0 18.49033,-33.98383,0 18.49056,-33.98071,0 18.49066,-33.97961,0 18.49073,-33.97852,0 18.49079,-33.97769,0 18.49083,-33.97664,0 18.49089,-33.97517,0 18.49083,-33.97435,0 18.49085,-33.97331,0 18.49079,-33.97205,0 18.49068,-33.97098,0 18.49062,-33.97001,0 18.49049,-33.96909,0 18.49028,-33.96768,0 18.4901,-33.96651,0 18.48993,-33.96554,0 18.48976,-33.96451,0 18.48953,-33.96344,0 18.48932,-33.96236,0 18.48913,-33.96158,0 18.48887,-33.96034,0 18.48867,-33.95953,0 18.4885,-33.95879,0 18.48822,-33.95776,0 18.48793,-33.95678,0 18.48764,-33.95572,0 18.4873,-33.95469,0 18.48708,-33.95398,0 18.48667,-33.95287,0 18.48639,-33.95204,0 18.4861,-33.9512,0 18.48579,-33.95036,0 18.48541,-33.94934,0 18.48495,-33.94821,0 18.48461,-33.94725,0 18.48427,-33.94645,0 18.48381,-33.94547,0 18.48347,-33.94463,0 18.4831,-33.94359,0 18.48276,-33.94267,0 18.48248,-33.94203,0 18.48209,-33.94102,0 18.48141,-33.93961,0 18.48095,-33.93854,0 18.48055,-33.93779,0 18.48009,-33.93691,0 18.47962,-33.93604,0 18.47906,-33.93504,0 18.47861,-33.93425,0 18.47799,-33.9332,0 18.47749,-33.93242,0 18.47687,-33.93137,0 18.47643,-33.93067,0 18.47575,-33.92967,0 18.47519,-33.92889,0 18.47448,-33.92792,0 18.47391,-33.92713,0 18.47329,-33.92628,0 18.47273,-33.92551,0 18.47197,-33.92453,0 18.47116,-33.92355,0 18.4706,-33.92281,0 18.46998,-33.92203,0 18.46914,-33.92102,0 18.46853,-33.92029,0 18.46779,-33.91945,0 18.46729,-33.91887,0 18.46639,-33.91782,0 18.4655,-33.91684,0 18.46482,-33.91608,0 18.46413,-33.91535,0 18.46321,-33.91438,0 18.46247,-33.91365,0 18.46167,-33.91284,0 18.4609,-33.91209,0 18.46024,-33.91144,0 18.45926,-33.91051,0 18.4586,-33.90985,0 18.45778,-33.90902,0 18.45686,-33.90811,0 18.45608,-33.90729,0 18.45535,-33.90656,0 18.45469,-33.90581,0 18.45388,-33.90493,0 18.45305,-33.90408,0 18.45217,-33.90311,0 18.45142,-33.90241,0 18.45051,-33.90153,0 18.4498,-33.90097,0 18.44896,-33.90041,0 18.44795,-33.89987,0 18.447,-33.89951,0 18.44593,-33.89919,0 18.44504,-33.899,0 18.44391,-33.89886,0 18.4429,-33.89878,0 18.4417,-33.89874,0 18.4405,-33.89877,0 18.43982,-33.89877,0 18.43876,-33.89882,0 18.43781,-33.89886,0 18.43718,-33.89892,0 18.4364,-33.89896,0 18.43562,-33.899,0 18.43495,-33.89905,0 18.43444,-33.89905,0 18.43369,-33.89911,0 18.43315,-33.89914,0 18.43254,-33.8992,0 18.43198,-33.89923,0 18.43128,-33.89925,0 18.4308,-33.89928,0 18.43037,-33.89929,0 18.43001,-33.89932,0 18.42957,-33.89939,0 18.42929,-33.89946,0 18.42899,-33.89948,0 18.42878,-33.89951,0 18.42858,-33.89952,0</coordinates>
      </LineString>
    </Placemark>
  </Document>
</kml>
