<?xml version="1.0" encoding="UTF-8"?>
<kml xmlns="http://www.opengis.net/kml/2.2">
  <Document>
    <name>FR24 413016b7</name>
    <Placemark>
      <name>FR24 413016b7</name>
      <Style><LineStyle><color>ff0000ff</color><width>4</width></LineStyle></Style>
      <LineString>
        <tessellate>1</tessellate>
        <coordinates>18.43399,-33.8839,0 18.43962,-33.87897,0 18.4199,-33.87566,0 18.4166,-33.87563,0 18.41416,-33.87563,0 18.41319,-33.87581,0 18.41189,-33.87593,0 18.41067,-33.87597,0 18.40922,-33.87617,0 18.40756,-33.87634,0 18.4066,-33.87647,0 18.40514,-33.87678,0 18.40347,-33.87715,0 18.40271,-33.87731,0 18.4011,-33.87783,0 18.3994,-33.87831,0 18.39775,-33.8789,0 18.39613,-33.87954,0 18.39487,-33.8801,0 18.39349,-33.88084,0 18.39239,-33.88142,0 18.39111,-33.88206,0 18.38954,-33.88293,0 18.38844,-33.88362,0 18.38714,-33.8844,0 18.38602,-33.88511,0 18.3853,-33.88562,0 18.38419,-33.88666,0 18.38337,-33.88739,0 18.38218,-33.88856,0 18.38128,-33.88952,0 18.3805,-33.89041,0 18.37951,-33.89143,0 18.37834,-33.89241,0 18.37694,-33.89354,0 18.37599,-33.89432,0 18.37513,-33.89522,0 18.37383,-33.89624,0 18.37287,-33.8971,0 18.37179,-33.8982,0 18.37099,-33.89908,0 18.36994,-33.89997,0 18.36924,-33.90105,0 18.36829,-33.90198,0 18.36717,-33.90308,0 18.36632,-33.90398,0 18.36462,-33.90564,0 18.36327,-33.90702,0 18.36259,-33.90806,0 18.36195,-33.90949,0 18.36112,-33.91066,0 18.36027,-33.91188,0 18.35934,-33.91324,0 18.35893,-33.91453,0 18.35864,-33.91554,0 18.35767,-33.91704,0 18.35671,-33.91841,0 18.35601,-33.91961,0 18.35524,-33.92082,0 18.3543,-33.9224,0 18.35336,-33.92415,0 18.35382,-33.92494,0 18.35318,-33.92758,0 18.35167,-33.92989,0 18.3502,-33.93443,0 18.34852,-33.9376,0 18.34478,-33.94149,0 18.3459,-33.94276,0 18.34657,-33.94402,0 18.35777,-33.91887,0 18.3623,-33.91689,0 18.36162,-33.91546,0 18.36433,-33.91453,0 18.36215,-33.91285,0 18.3671,-33.91206,0 18.36618,-33.91022,0 18.35538,-33.90773,0 18.35945,-33.90731,0 18.37267,-33.90792,0 18.38295,-33.90601,0 18.37156,-33.9031,0 18.37687,-33.89631,0 18.37076,-33.89263,0 18.42285,-33.88044,0 18.43691,-33.87772,0 18.44138,-33.87775,0 18.4379,-33.87557,0 18.43962,-33.87322,0 18.43388,-33.86922,0 18.43204,-33.867,0 18.43688,-33.86717,0 18.43247,-33.87107,0 18.43283,-33.8724,0 18.43295,-33.87347,0 18.43294,-33.87435,0 18.43406,-33.87606,0 18.43464,-33.87738,0 18.43591,-33.87991,0 18.43695,-33.88105,0 18.43799,-33.88207,0 18.43874,-33.88308,0 18.43996,-33.88423,0 18.44127,-33.88601,0 18.44185,-33.88711,0 18.44276,-33.8881,0 18.44443,-33.88984,0 18.44432,-33.89306,0 18.44462,-33.89641,0 18.44233,-33.89659,0 18.44188,-33.90034,0 18.44073,-33.90104,0 18.44143,-33.90283,0 18.44171,-33.90386,0 18.44238,-33.90511,0 18.45536,-33.91422,0 18.45589,-33.91834,0 18.46033,-33.91919,0 18.47064,-33.92645,0 18.46893,-33.92828,0 18.4704,-33.92987,0 18.46903,-33.93247,0 18.46996,-33.93364,0 18.47101,-33.93509,0 18.47203,-33.93669,0 18.47267,-33.9377,0 18.47313,-33.93906,0 18.47381,-33.94066,0 18.47399,-33.9421,0 18.47441,-33.94381,0 18.47442,-33.94482,0 18.47354,-33.94623,0 18.47313,-33.94794,0 18.47311,-33.94912,0 18.4735,-33.95033,0 18.47047,-33.95235,0 18.47529,-33.95329,0 18.47652,-33.95481,0 18.47668,-33.95632,0 18.47537,-33.9583,0 18.47531,-33.95958,0 18.47529,-33.96113,0 18.47561,-33.96273,0 18.47596,-33.96414,0 18.47671,-33.96649,0 18.47623,-33.96776,0 18.47658,-33.96891,0 18.47634,-33.97039,0 18.47607,-33.97187,0 18.47589,-33.9744,0 18.47583,-33.97541,0 18.47585,-33.97693,0 18.4758,-33.97811,0 18.47605,-33.97969,0 18.47562,-33.9808,0 18.476,-33.98291,0 18.47664,-33.98381,0 18.47691,-33.98543,0 18.47772,-33.98723,0 18.4781,-33.98862,0 18.47802,-33.98992,0 18.47808,-33.99178,0 18.4779,-33.99358,0 18.47806,-33.99461,0 18.47823,-33.99611,0 18.47837,-33.99789,0 18.47827,-33.99914,0 18.47832,-34.0008,0 18.47848,-34.00244,0 18.47858,-34.00393,0 18.47834,-34.00527,0 18.47835,-34.00667,0 18.47842,-34.0083,0 18.47854,-34.01005,0 18.47844,-34.01159,0 18.47822,-34.01371,0 18.47807,-34.01492,0 18.47801,-34.01661,0 18.47821,-34.01789,0 18.47824,-34.01943,0 18.47844,-34.02093,0 18.47842,-34.02209,0 18.47866,-34.02392,0 18.47864,-34.02535,0 18.47855,-34.0272,0 18.47847,-34.02868,0 18.47833,-34.03063,0 18.47845,-34.03262,0 18.47848,-34.03391,0 18.47835,-34.03522,0 18.47838,-34.03748,0 18.47828,-34.0388,0 18.4783,-34.04028,0 18.47834,-34.04168,0 18.47836,-34.04312,0 18.4786,-34.04845,0 18.47893,-34.0531,0 18.47923,-34.05423,0 18.47935,-34.0558,0 18.47976,-34.05735,0 18.4799,-34.05856,0 18.48022,-34.06011,0 18.48049,-34.06184,0 18.48066,-34.06303,0 18.48078,-34.06463,0 18.48075,-34.06589,0 18.48083,-34.06742,0 18.48093,-34.069,0 18.48102,-34.07029,0 18.48098,-34.0719,0 18.48172,-34.07294,0 18.48192,-34.0743,0 18.48202,-34.07579,0 18.48191,-34.07702,0 18.48174,-34.07865,0 18.48163,-34.08003,0 18.48143,-34.08149,0 18.48133,-34.08301,0 18.48152,-34.08427,0 18.48162,-34.08558,0 18.48155,-34.08697,0 18.48159,-34.08831,0 18.4818,-34.08949,0 18.48172,-34.0907,0 18.48154,-34.09217,0 18.48118,-34.09361,0 18.48116,-34.09512,0 18.48113,-34.09684,0 18.48119,-34.09787,0 18.48128,-34.09916,0 18.48114,-34.10083,0 18.48102,-34.10192,0 18.48145,-34.10313,0 18.48131,-34.10428,0 18.4808,-34.10603,0 18.48029,-34.10706,0 18.47936,-34.10857,0 18.47837,-34.11052,0 18.47776,-34.11157,0 18.4771,-34.11276,0 18.47627,-34.11412,0 18.47592,-34.11477,0 18.47492,-34.11637,0 18.47413,-34.11749,0 18.47333,-34.11871,0 18.47224,-34.1203,0 18.47114,-34.12174,0 18.47046,-34.12259,0 18.46902,-34.1245,0 18.46822,-34.1256,0 18.46738,-34.12671,0 18.46582,-34.12861,0 18.46479,-34.12978,0 18.46349,-34.13124,0 18.46245,-34.13226,0 18.46035,-34.1342,0 18.45924,-34.13519,0 18.45815,-34.13607,0 18.45661,-34.13716,0 18.4553,-34.13775,0 18.45375,-34.13848,0 18.45243,-34.13882,0 18.45108,-34.13921,0 18.44928,-34.13954,0 18.44769,-34.13964,0 18.44606,-34.13963,0 18.4443,-34.13969,0 18.44297,-34.13951,0 18.44142,-34.13938,0 18.43973,-34.13911,0 18.43838,-34.13886,0 18.43707,-34.13861,0 18.43559,-34.13822,0 18.43382,-34.13771,0 18.432,-34.13731,0 18.43049,-34.13689,0 18.42898,-34.1365,0 18.42766,-34.13613,0 18.42605,-34.13568,0 18.42473,-34.13522,0 18.42352,-34.13488,0 18.42183,-34.13436,0 18.4206,-34.134,0 18.41908,-34.13351,0 18.41702,-34.13281,0 18.41575,-34.1324,0 18.41431,-34.13198,0 18.4126,-34.13145,0 18.41147,-34.1311,0 18.4098,-34.13058,0 18.4082,-34.13013,0 18.40658,-34.1296,0 18.40447,-34.12905,0 18.40259,-34.12848,0 18.40128,-34.12809,0 18.39971,-34.12756,0 18.39878,-34.12734,0 18.39615,-34.12665,0 18.39497,-34.12621,0 18.39388,-34.12581,0 18.39143,-34.1251,0 18.39006,-34.12461,0 18.38895,-34.1242,0 18.38708,-34.12355,0 18.38543,-34.12291,0 18.38397,-34.12242,0 18.3825,-34.12181,0 18.38091,-34.12119,0 18.38006,-34.12091,0 18.37873,-34.12043,0 18.3771,-34.11996,0 18.3756,-34.11948,0 18.37431,-34.11891,0 18.37261,-34.11814,0 18.37123,-34.11752,0 18.36943,-34.11681,0 18.36801,-34.11608,0 18.36603,-34.11502,0 18.3651,-34.11435,0 18.36392,-34.11386,0 18.36219,-34.11312,0 18.36134,-34.11264,0 18.3596,-34.11181,0 18.35847,-34.11122,0 18.35707,-34.11052,0 18.355,-34.10943,0 18.35361,-34.10851,0 18.34941,-34.10305,0 18.34076,-34.09925,0 18.34436,-34.04913,0 18.34297,-34.04524,0 18.34241,-34.04406,0 18.34147,-34.04225,0 18.34114,-34.04122,0 18.33597,-34.04023,0 18.33648,-34.03894,0 18.33603,-34.03751,0 18.33466,-34.03636,0 18.3372,-34.03372,0 18.33652,-34.03232,0 18.33514,-34.03099,0 18.3344,-34.03039,0 18.33055,-34.02852,0 18.32957,-34.02761,0 18.33035,-34.02553,0 18.32652,-34.02388,0 18.32612,-34.02319,0 18.32511,-34.02197,0 18.32451,-34.02038,0 18.32437,-34.01945,0 18.3255,-34.00234,0 18.33246,-33.91391,0 18.35726,-33.91153,0 18.37235,-33.90976,0 18.37132,-33.90707,0 18.37532,-33.90394,0 18.38071,-33.90386,0 18.37938,-33.90136,0 18.3832,-33.9002,0 18.38522,-33.89949,0 18.38045,-33.8964,0 18.37947,-33.89407,0</coordinates>
      </LineString>
    </Placemark>
  </Document>
</kml>
