<?xml version="1.0" encoding="UTF-8"?>
<kml xmlns="http://www.opengis.net/kml/2.2">
  <Document>
    <name>FR24 402af163</name>
    <Placemark>
      <name>FR24 402af163</name>
      <Style><LineStyle><color>ff0000ff</color><width>4</width></LineStyle></Style>
      <LineString>
        <tessellate>1</tessellate>
        <coordinates>18.37695,-33.88966,0 18.38198,-33.89466,0 18.37861,-33.89781,0 18.3757,-33.89983,0 18.37149,-33.9033,0 18.36948,-33.90506,0 18.36868,-33.90581,0 18.36471,-33.90453,0 18.3618,-33.90585,0 18.36134,-33.90661,0 18.36505,-33.90845,0 18.35782,-33.91043,0 18.35679,-33.91264,0 18.35588,-33.91383,0 18.35432,-33.91536,0 18.35615,-33.91894,0 18.35489,-33.92038,0 18.35406,-33.92139,0 18.35345,-33.92212,0 18.35072,-33.9255,0 18.3486,-33.92825,0 18.34614,-33.93151,0 18.34487,-33.93324,0 18.34442,-33.93402,0 18.34391,-33.93504,0 18.34369,-33.93594,0 18.34358,-33.93695,0 18.34368,-33.93765,0 18.34391,-33.93844,0 18.34454,-33.93951,0 18.34538,-33.94029,0 18.34616,-33.94075,0 18.34688,-33.94105,0 18.3484,-33.94135,0 18.34974,-33.94128,0 18.35109,-33.94093,0 18.3521,-33.94048,0 18.35305,-33.93988,0 18.35417,-33.93883,0 18.35484,-33.93807,0 18.35546,-33.93723,0 18.35598,-33.93639,0 18.3567,-33.93521,0 18.3572,-33.93434,0 18.35782,-33.93329,0 18.35838,-33.9323,0 18.3589,-33.93146,0 18.35953,-33.9303,0 18.36006,-33.92949,0 18.36084,-33.9282,0 18.36136,-33.92736,0 18.36202,-33.92633,0 18.36275,-33.92523,0 18.36353,-33.92409,0 18.36416,-33.92327,0 18.36477,-33.92249,0 18.36542,-33.92154,0 18.36628,-33.92052,0 18.36679,-33.91987,0 18.36763,-33.91878,0 18.3683,-33.918,0 18.36891,-33.91722,0 18.3697,-33.91626,0 18.37049,-33.9153,0 18.37127,-33.91434,0 18.372,-33.91347,0 18.37263,-33.91275,0 18.37349,-33.91172,0 18.37413,-33.911,0 18.37664,-33.90818,0 18.37878,-33.90591,0 18.37984,-33.90483,0 18.3808,-33.90376,0 18.38144,-33.90316,0 18.38226,-33.90239,0 18.38327,-33.90157,0 18.38408,-33.90083,0 18.38517,-33.90001,0 18.38607,-33.89928,0 18.38702,-33.89854,0 18.38792,-33.89786,0 18.38877,-33.89724,0 18.38988,-33.89644,0 18.39088,-33.89576,0 18.39207,-33.89497,0 18.39306,-33.89436,0 18.39425,-33.89355,0 18.39512,-33.89301,0 18.39638,-33.89227,0 18.39773,-33.89159,0 18.39896,-33.89099,0 18.39987,-33.89059,0 18.40132,-33.89003,0 18.40249,-33.88957,0 18.40359,-33.88914,0 18.40439,-33.88887,0 18.40591,-33.88834,0 18.40719,-33.88789,0 18.40815,-33.8876,0 18.40939,-33.88724,0 18.41068,-33.88686,0 18.41171,-33.88659,0 18.41286,-33.88626,0 18.41415,-33.88591,0 18.41538,-33.88564,0 18.41656,-33.88536,0 18.4178,-33.88513,0 18.41915,-33.88496,0 18.42052,-33.88482,0 18.42184,-33.88472,0 18.42278,-33.88472,0 18.42424,-33.88481,0 18.42542,-33.88486,0 18.42642,-33.88496,0 18.42749,-33.88509,0 18.42876,-33.88528,0 18.42979,-33.88547,0 18.43088,-33.8857,0 18.43174,-33.88593,0 18.43306,-33.88626,0 18.43399,-33.88651,0 18.43495,-33.88678,0 18.43615,-33.88719,0 18.43718,-33.88756,0 18.43781,-33.88783,0 18.43906,-33.88845,0 18.44021,-33.889,0 18.44101,-33.88947,0 18.44206,-33.89008,0 18.44296,-33.89068,0 18.44381,-33.89138,0 18.44448,-33.89195,0 18.44532,-33.89282,0 18.44582,-33.89369,0 18.44638,-33.89429,0 18.44685,-33.89529,0 18.44711,-33.89598,0 18.44725,-33.89692,0 18.4473,-33.89766,0 18.44711,-33.89877,0 18.44685,-33.89952,0 18.44644,-33.90038,0 18.44593,-33.90115,0 18.44532,-33.90175,0 18.44453,-33.90234,0 18.44358,-33.90289,0 18.4425,-33.90339,0 18.44167,-33.90367,0 18.44055,-33.9039,0 18.43937,-33.90257,0 18.4382,-33.90271,0 18.43775,-33.90266,0 18.4373,-33.90358,0 18.43691,-33.9034,0 18.43655,-33.90325,0 18.43575,-33.90269,0 18.43685,-33.9023,0 18.4341,-33.90193,0 18.43369,-33.90185,0 18.43321,-33.90166,0 18.43294,-33.90153,0 18.4326,-33.90139,0 18.43231,-33.90125,0 18.43192,-33.90106,0 18.43151,-33.90097,0 18.43122,-33.90088,0 18.4308,-33.90079,0 18.43019,-33.90064,0 18.42962,-33.90051,0 18.4294,-33.90047,0 18.429,-33.90042,0 18.42856,-33.90051,0 18.428,-33.90051,0 18.42773,-33.90051,0 18.42738,-33.90056,0 18.42716,-33.90074,0 18.42693,-33.90092,0 18.42672,-33.90102,0 18.42706,-33.90073,0 18.427,-33.90039,0 18.42708,-33.90012,0 18.42716,-33.89979,0 18.42727,-33.89953,0 18.42734,-33.8993,0 18.42742,-33.89898,0 18.42749,-33.89874,0 18.42773,-33.89832,0 18.42783,-33.89804,0 18.42796,-33.89776,0 18.42813,-33.89738,0 18.42831,-33.89711,0 18.42839,-33.89685,0 18.42861,-33.89644,0 18.42876,-33.89618,0 18.42889,-33.89589,0 18.42912,-33.89561,0 18.42928,-33.89524,0 18.42945,-33.89501,0 18.42968,-33.89464,0 18.42997,-33.89413,0 18.43025,-33.89357,0 18.43042,-33.89329,0 18.43057,-33.89305,0 18.43082,-33.89264,0 18.43102,-33.89232,0 18.43117,-33.89203,0 18.4314,-33.89166,0 18.43168,-33.89138,0 18.43208,-33.89073,0 18.43254,-33.88998,0 18.43294,-33.88929,0 18.43332,-33.8887,0 18.43369,-33.88812,0 18.43409,-33.88742,0 18.43461,-33.88646,0 18.43489,-33.88575,0 18.43511,-33.88486,0 18.43517,-33.88426,0 18.435,-33.88348,0 18.43489,-33.88257,0 18.4345,-33.88202,0 18.43382,-33.88129,0 18.43317,-33.88081,0 18.43231,-33.88033,0 18.43151,-33.88007,0 18.43063,-33.87982,0 18.42985,-33.87964,0 18.42878,-33.87959,0 18.428,-33.87959,0 18.42699,-33.87955,0 18.42613,-33.87951,0 18.42516,-33.87951,0 18.42436,-33.87951,0 18.42339,-33.87955,0 18.42236,-33.87955,0 18.4215,-33.8796,0 18.4207,-33.87965,0 18.41955,-33.8797,0 18.41875,-33.87982,0 18.41768,-33.87996,0 18.41667,-33.8801,0 18.41583,-33.88021,0 18.41494,-33.88033,0 18.41409,-33.88046,0 18.41331,-33.88058,0 18.41217,-33.88076,0 18.41114,-33.881,0 18.41034,-33.88114,0 18.40956,-33.88133,0 18.40828,-33.88169,0 18.40736,-33.88198,0 18.40642,-33.88225,0 18.40546,-33.88257,0 18.40462,-33.88286,0 18.40322,-33.88335,0 18.40233,-33.8837,0 18.40147,-33.88403,0 18.39868,-33.88522,0 18.39758,-33.8857,0 18.39672,-33.88609,0 18.39592,-33.88644,0 18.39492,-33.88692,0 18.3938,-33.88747,0 18.39319,-33.88783,0 18.39207,-33.88838,0 18.38394,-33.88601,0 18.38865,-33.8904,0 18.38781,-33.8909,0 18.38702,-33.89136,0 18.38608,-33.89198,0 18.38522,-33.89259,0 18.38448,-33.8931,0 18.38203,-33.89488,0 18.37858,-33.89766,0 18.37247,-33.89603,0 18.37542,-33.90051,0 18.37481,-33.90115,0 18.374,-33.90199,0 18.37334,-33.90266,0 18.37256,-33.90349,0 18.37189,-33.90422,0 18.37132,-33.90488,0 18.37049,-33.90573,0 18.36976,-33.9066,0 18.36897,-33.90742,0 18.3684,-33.90809,0 18.36768,-33.90894,0 18.3669,-33.90985,0 18.36617,-33.91074,0 18.36542,-33.91167,0 18.36477,-33.91251,0 18.36415,-33.91333,0 18.36353,-33.91415,0 18.36297,-33.91493,0 18.36219,-33.91603,0 18.36159,-33.91684,0 18.36113,-33.9175,0 18.36045,-33.91846,0 18.35964,-33.91954,0 18.35901,-33.92033,0 18.35843,-33.9212,0 18.35707,-33.92308,0 18.35489,-33.92634,0 18.35283,-33.92923,0 18.35098,-33.93196,0 18.34846,-33.93544,0 18.34649,-33.93828,0 18.34414,-33.9418,0 18.34218,-33.94469,0 18.3403,-33.94743,0 18.33841,-33.95036,0 18.33584,-33.95413,0 18.33344,-33.95772,0 18.3312,-33.96111,0 18.32766,-33.96638,0 18.32479,-33.97108,0 18.32182,-33.97587,0 18.31903,-33.98062,0 18.31621,-33.98546,0 18.31341,-33.99054,0 18.31089,-33.99533,0 18.30872,-33.99961,0 18.30827,-34.00063,0 18.30706,-34.0032,0 18.30437,-34.00906,0 18.30249,-34.01363,0 18.30171,-34.01578,0 18.30059,-34.01889,0 18.30014,-34.02008,0 18.2987,-34.02457,0 18.29812,-34.02672,0 18.29796,-34.0275,0 18.29767,-34.02869,0 18.29745,-34.02969,0 18.29739,-34.0302,0 18.29721,-34.03104,0 18.29704,-34.03239,0 18.29699,-34.03318,0 18.297,-34.03404,0 18.29693,-34.03513,0 18.29699,-34.03597,0 18.297,-34.03688,0 18.2971,-34.03774,0 18.29717,-34.0388,0 18.29733,-34.0396,0 18.29767,-34.0415,0 18.29796,-34.04263,0 18.29818,-34.04352,0 18.29874,-34.04553,0 18.29916,-34.04691,0 18.29952,-34.04787,0 18.2999,-34.049,0 18.3003,-34.04998,0 18.30064,-34.05084,0 18.30115,-34.05194,0 18.30156,-34.05278,0 18.30193,-34.05354,0 18.30233,-34.05446,0 18.30283,-34.05542,0 18.30334,-34.05641,0 18.30374,-34.05724,0 18.3042,-34.05813,0 18.30477,-34.05915,0 18.30541,-34.06023,0 18.30574,-34.06087,0 18.30642,-34.06206,0 18.30698,-34.06302,0 18.30746,-34.06372,0 18.30804,-34.06471,0 18.30849,-34.06544,0 18.30916,-34.06645,0 18.30961,-34.06723,0 18.31038,-34.06833,0 18.31089,-34.06907,0 18.31152,-34.07002,0 18.31214,-34.07094,0 18.31266,-34.07163,0 18.31326,-34.07249,0 18.31444,-34.07414,0 18.31561,-34.0757,0 18.31645,-34.07675,0 18.31701,-34.07748,0 18.31774,-34.07835,0 18.31858,-34.07932,0 18.31924,-34.08006,0 18.31993,-34.08084,0 18.32062,-34.08164,0 18.32133,-34.08243,0 18.32205,-34.08331,0 18.32273,-34.08403,0 18.32357,-34.08504,0 18.32417,-34.08569,0 18.32497,-34.08667,0 18.32564,-34.08742,0 18.32632,-34.0881,0 18.32682,-34.0887,0 18.32755,-34.08943,0 18.328,-34.08988,0 18.3288,-34.09058,0 18.32943,-34.09113,0 18.33012,-34.09169,0 18.33075,-34.09221,0 18.33153,-34.09277,0 18.33218,-34.09323,0 18.33286,-34.0937,0 18.33388,-34.09433,0 18.33475,-34.09486,0 18.33544,-34.09528,0 18.33624,-34.09575,0 18.3371,-34.09621,0 18.33803,-34.09671,0 18.33893,-34.09719,0 18.33961,-34.09751,0 18.34047,-34.09793,0 18.34127,-34.0983,0 18.34201,-34.09863,0 18.3428,-34.099,0 18.34381,-34.09941,0 18.34465,-34.09978,0 18.34562,-34.10017,0 18.34642,-34.10049,0 18.34745,-34.10091,0 18.34826,-34.10124,0 18.34952,-34.10179,0 18.35049,-34.10217,0 18.35176,-34.10271,0 18.35272,-34.10316,0 18.3539,-34.10367,0 18.35485,-34.10408,0 18.35574,-34.10449,0 18.35661,-34.10487,0 18.35741,-34.10524,0 18.35838,-34.10566,0 18.35944,-34.10619,0 18.36027,-34.10654,0 18.36096,-34.10682,0 18.36216,-34.10738,0 18.36297,-34.10779,0 18.3637,-34.10817,0 18.36471,-34.1087,0 18.36555,-34.10912,0 18.36645,-34.10957,0 18.36737,-34.10999,0 18.368,-34.11027,0 18.36903,-34.11078,0 18.3697,-34.11113,0 18.37049,-34.1115,0 18.37143,-34.1119,0 18.37223,-34.11222,0 18.37292,-34.11255,0 18.37383,-34.11292,0 18.37469,-34.11329,0 18.37559,-34.11369,0 18.37632,-34.11401,0 18.37721,-34.11441,0 18.37811,-34.11479,0 18.38147,-34.11626,0 18.38408,-34.11739,0 18.38671,-34.11851,0 18.38985,-34.11981,0 18.3924,-34.12088,0 18.39489,-34.12191,0 18.39756,-34.12299,0 18.40047,-34.12427,0 18.40372,-34.12569,0 18.40639,-34.12679,0 18.40731,-34.12715,0 18.40799,-34.12745,0 18.40902,-34.12786,0 18.41051,-34.12847,0 18.41148,-34.12884,0 18.41236,-34.12921,0 18.41309,-34.12953,0 18.41376,-34.12985,0 18.41466,-34.13022,0 18.41555,-34.13063,0 18.4164,-34.13103,0 18.41732,-34.13145,0 18.41813,-34.13182,0 18.41869,-34.1321,0 18.41967,-34.13256,0 18.42041,-34.13289,0 18.42133,-34.13333,0 18.42205,-34.13365,0 18.42262,-34.13393,0 18.42374,-34.13438,0 18.42463,-34.13475,0 18.42556,-34.13513,0 18.42636,-34.13541,0 18.42732,-34.13571,0 18.42836,-34.13606,0 18.42905,-34.13625,0 18.43008,-34.13648,0 18.43091,-34.13667,0 18.43214,-34.13685,0 18.43293,-34.13695,0 18.43388,-34.13704,0 18.43472,-34.13708,0 18.43557,-34.13713,0 18.43643,-34.13713,0 18.43758,-34.13708,0 18.43842,-34.13708,0 18.43937,-34.13699,0 18.44027,-34.13695,0 18.44145,-34.13681,0 18.44229,-34.13663,0 18.44307,-34.13648,0 18.44398,-34.13625,0 18.44501,-34.13592,0 18.44599,-34.13553,0 18.44683,-34.13521,0 18.44753,-34.1349,0 18.44851,-34.13448,0 18.44919,-34.1341,0 18.45022,-34.13354,0 18.45097,-34.13313,0 18.45165,-34.13275,0 18.45234,-34.13229,0 18.45316,-34.13177,0 18.454,-34.13123,0 18.45485,-34.13068,0 18.45549,-34.13028,0 18.45629,-34.12973,0 18.45692,-34.1293,0 18.45778,-34.1287,0 18.45843,-34.1283,0 18.45926,-34.12768,0 18.46,-34.12711,0 18.46069,-34.12661,0 18.46135,-34.12605,0 18.46195,-34.12554,0 18.46281,-34.12484,0 18.46344,-34.12432,0 18.46432,-34.12358,0 18.46487,-34.12312,0 18.46567,-34.12246,0 18.46645,-34.12175,0 18.46706,-34.12115,0 18.46779,-34.12041,0 18.46819,-34.11995,0 18.4688,-34.11932,0 18.46964,-34.11841,0 18.47032,-34.11768,0 18.47105,-34.11683,0 18.47168,-34.11609,0 18.47211,-34.11557,0 18.47277,-34.11464,0 18.47328,-34.11399,0 18.47379,-34.11324,0 18.47431,-34.1125,0 18.47477,-34.1118,0 18.47528,-34.11087,0 18.47569,-34.11022,0 18.47603,-34.10948,0 18.47643,-34.10857,0 18.47672,-34.10785,0 18.477,-34.10706,0 18.47727,-34.10628,0 18.47749,-34.10527,0 18.47777,-34.10431,0 18.47797,-34.10347,0 18.47815,-34.10268,0 18.47828,-34.10188,0 18.47844,-34.10106,0 18.47861,-34.09982,0 18.47872,-34.09886,0 18.47883,-34.09798,0 18.47889,-34.09708,0 18.479,-34.09621,0 18.47912,-34.09509,0 18.47918,-34.09421,0 18.47929,-34.09337,0 18.47934,-34.0925,0 18.4794,-34.09163,0 18.47945,-34.09062,0 18.47951,-34.08975,0 18.47956,-34.08865,0 18.47958,-34.08769,0 18.47962,-34.08687,0 18.47969,-34.08606,0 18.47979,-34.08316,0 18.47992,-34.08131,0 18.47996,-34.08028,0 18.48003,-34.07936,0 18.48018,-34.07831,0 18.48029,-34.07735,0 18.48038,-34.07652,0 18.48055,-34.07563,0 18.48072,-34.07461,0 18.48095,-34.07363,0 18.48125,-34.07268,0 18.48164,-34.07153,0 18.48192,-34.07071,0 18.48238,-34.06977,0 18.48276,-34.06888,0 18.48315,-34.0681,0 18.48366,-34.06696,0 18.48405,-34.06618,0 18.48438,-34.06539,0 18.48478,-34.06441,0 18.48518,-34.06343,0 18.48551,-34.06242,0 18.48573,-34.06174,0 18.48601,-34.06078,0 18.48621,-34.0599,0 18.48644,-34.05906,0 18.48667,-34.05804,0 18.48685,-34.05693,0 18.48701,-34.05613,0 18.48713,-34.05506,0 18.4873,-34.05408,0 18.48741,-34.05299,0 18.48747,-34.05198,0 18.48758,-34.05116,0 18.48769,-34.05002,0 18.48775,-34.04915,0 18.4878,-34.04832,0 18.48797,-34.04718,0 18.48804,-34.04635,0 18.48816,-34.04542,0 18.48831,-34.0442,0 18.4887,-34.04022,0 18.48887,-34.03725,0 18.48893,-34.03629,0 18.48896,-34.03509,0 18.48898,-34.03413,0 18.48896,-34.03304,0 18.4889,-34.03206,0 18.4889,-34.03099,0 18.48887,-34.02992,0 18.48887,-34.02901,0 18.48879,-34.02782,0 18.48876,-34.02699,0 18.48873,-34.0261,0 18.48867,-34.02517,0 18.48859,-34.0242,0 18.48853,-34.02324,0 18.48848,-34.02223,0 18.48839,-34.0214,0 18.48833,-34.02061,0 18.48827,-34.01982,0 18.48822,-34.01902,0 18.4881,-34.018,0 18.48797,-34.01688,0 18.48793,-34.01628,0 18.4877,-34.01339,0 18.48747,-34.00974,0 18.48736,-34.0063,0 18.4873,-34.00259,0 18.48736,-34.00182,0 18.48747,-33.99792,0 18.48753,-33.99617,0 18.48758,-33.99527,0 18.48764,-33.99445,0 18.48764,-33.99356,0 18.48764,-33.99258,0 18.48764,-33.9917,0 18.48764,-33.99091,0 18.48759,-33.98904,0 18.48759,-33.9883,0 18.48759,-33.98728,0 18.48758,-33.98648,0 18.48764,-33.98551,0 18.48769,-33.98465,0 18.4877,-33.98365,0 18.48776,-33.98281,0 18.4878,-33.98195,0 18.48782,-33.98113,0 18.48782,-33.98016,0 18.48786,-33.97906,0 18.48786,-33.97797,0 18.48787,-33.97713,0 18.48787,-33.97596,0 18.48786,-33.97513,0 18.48787,-33.97406,0 18.48782,-33.97317,0 18.48776,-33.9721,0 18.48769,-33.97128,0 18.48764,-33.97005,0 18.48753,-33.96907,0 18.48742,-33.96824,0 18.48724,-33.96703,0 18.48719,-33.96625,0 18.48708,-33.96529,0 18.48685,-33.96428,0 18.48667,-33.96339,0 18.4864,-33.96231,0 18.48621,-33.96144,0 18.48593,-33.96051,0 18.48573,-33.95979,0 18.48545,-33.9586,0 18.48517,-33.95773,0 18.48495,-33.95686,0 18.48461,-33.95576,0 18.48427,-33.95462,0 18.48404,-33.95357,0 18.48381,-33.95274,0 18.48358,-33.9519,0 18.48335,-33.95106,0 18.48261,-33.94799,0 18.48192,-33.94524,0 18.48089,-33.94161,0 18.47996,-33.938,0 18.47973,-33.93723,0 18.47946,-33.93649,0 18.47912,-33.93544,0 18.47878,-33.93452,0 18.4785,-33.93375,0 18.47815,-33.93295,0 18.47777,-33.93205,0 18.47749,-33.93137,0 18.47706,-33.93044,0 18.47672,-33.9296,0 18.4762,-33.92857,0 18.47581,-33.9278,0 18.47534,-33.92685,0 18.47494,-33.92606,0 18.47452,-33.92523,0 18.47413,-33.92455,0 18.47357,-33.92358,0 18.47317,-33.92285,0 18.47254,-33.92183,0 18.47205,-33.92111,0 18.47149,-33.92029,0 18.47094,-33.9195,0 18.47037,-33.91873,0 18.46964,-33.91777,0 18.46914,-33.91708,0 18.46842,-33.91615,0 18.46774,-33.9153,0 18.46712,-33.91447,0 18.46636,-33.91359,0 18.46573,-33.91284,0 18.46494,-33.91196,0 18.46432,-33.91122,0 18.46353,-33.9104,0 18.4628,-33.90962,0 18.46224,-33.90893,0 18.46149,-33.90814,0 18.46073,-33.90733,0 18.46006,-33.9066,0 18.45926,-33.90581,0 18.45852,-33.90502,0 18.45783,-33.90442,0 18.4572,-33.9039,0 18.45613,-33.90317,0 18.45518,-33.90266,0 18.4544,-33.9023,0 18.45354,-33.90199,0 18.45245,-33.90167,0 18.45119,-33.90153,0 18.45011,-33.90144,0 18.44946,-33.90138,0 18.4479,-33.90152,0 18.44711,-33.90152,0 18.44622,-33.90162,0 18.44543,-33.90175,0 18.44442,-33.90193,0 18.44341,-33.90218,0 18.44263,-33.90225,0 18.44167,-33.90239,0 18.44118,-33.90241,0 18.44072,-33.90239,0 18.44027,-33.90237,0 18.43981,-33.90227,0 18.43941,-33.90223,0 18.43889,-33.90213,0 18.43849,-33.90204,0 18.43803,-33.90198,0 18.43775,-33.90195,0 18.43691,-33.90189,0 18.43626,-33.90195,0 18.4359,-33.90193,0 18.43534,-33.90199,0 18.43494,-33.90195,0 18.43461,-33.90193,0 18.43426,-33.9019,0 18.43382,-33.90179,0 18.43349,-33.90175,0 18.43315,-33.9017,0 18.43277,-33.90167,0 18.43231,-33.90157,0 18.43192,-33.90152,0 18.43163,-33.90148,0 18.43122,-33.90144,0 18.43128,-33.90051,0 18.43108,-33.90042,0 18.43024,-33.90079,0 18.42945,-33.9007,0 18.42916,-33.9006,0 18.42808,-33.90069,0 18.42785,-33.90064,0 18.42762,-33.90064,0 18.42739,-33.90055,0</coordinates>
      </LineString>
    </Placemark>
  </Document>
</kml>
