<?xml version="1.0" encoding="UTF-8"?>
<kml xmlns="http://www.opengis.net/kml/2.2">
  <Document>
    <name>FR24 40807c2b</name>
    <Placemark>
      <name>FR24 40807c2b</name>
      <Style><LineStyle><color>ff0000ff</color><width>4</width></LineStyle></Style>
      <LineString>
        <tessellate>1</tessellate>
        <coordinates>18.43163,-33.89459,0 18.43374,-33.89431,0 18.43517,-33.89456,0 18.43635,-33.89493,0 18.4374,-33.89538,0 18.43837,-33.89594,0 18.43935,-33.89659,0 18.43998,-33.89701,0 18.44117,-33.8979,0 18.44218,-33.89868,0 18.4433,-33.8996,0 18.44416,-33.90027,0 18.44498,-33.90102,0 18.44587,-33.90176,0 18.44696,-33.90274,0 18.44759,-33.90334,0 18.44868,-33.90437,0 18.44952,-33.90514,0 18.45047,-33.9061,0 18.45131,-33.90697,0 18.45228,-33.90809,0 18.45311,-33.90903,0 18.454,-33.91009,0 18.4548,-33.91098,0 18.45566,-33.91205,0 18.45652,-33.91307,0 18.45743,-33.91419,0 18.45827,-33.91521,0 18.45915,-33.91629,0 18.45989,-33.91726,0 18.46056,-33.91823,0 18.46149,-33.9195,0 18.46218,-33.92048,0 18.46298,-33.92159,0 18.46387,-33.92281,0 18.46471,-33.924,0 18.46544,-33.92514,0 18.46611,-33.92615,0 18.46687,-33.92732,0 18.46739,-33.92815,0 18.46824,-33.92944,0 18.46888,-33.93058,0 18.46953,-33.93164,0 18.47019,-33.93277,0 18.47088,-33.93393,0 18.47166,-33.93526,0 18.47222,-33.93631,0 18.47282,-33.93747,0 18.4734,-33.93858,0 18.47401,-33.93997,0 18.47463,-33.9413,0 18.47508,-33.9424,0 18.47557,-33.94357,0 18.47609,-33.94487,0 18.47659,-33.9462,0 18.47694,-33.94729,0 18.47727,-33.94849,0 18.47771,-33.94995,0 18.47799,-33.9511,0 18.47837,-33.95255,0 18.47855,-33.95357,0 18.47878,-33.95474,0 18.47895,-33.9559,0 18.47917,-33.95737,0 18.47929,-33.9586,0 18.47946,-33.96004,0 18.47958,-33.96125,0 18.47975,-33.9627,0 18.47986,-33.964,0 18.48003,-33.96544,0 18.48013,-33.96671,0 18.48029,-33.96812,0 18.48041,-33.96922,0 18.48057,-33.97078,0 18.48083,-33.97461,0 18.48118,-33.97997,0 18.48147,-33.9836,0 18.48186,-33.98849,0 18.48232,-33.99249,0 18.48284,-33.99761,0 18.48324,-34.00287,0 18.48347,-34.00683,0 18.48358,-34.00953,0 18.4837,-34.01195,0 18.48375,-34.01325,0 18.4841,-34.01848,0 18.48427,-34.02118,0 18.48444,-34.02383,0 18.4845,-34.02494,0 18.48455,-34.02643,0 18.48461,-34.02759,0 18.48466,-34.02873,0 18.48466,-34.02997,0 18.48473,-34.03127,0 18.48478,-34.03262,0 18.48483,-34.03363,0 18.48489,-34.035,0 18.4849,-34.03579,0 18.48495,-34.03711,0 18.485,-34.03848,0 18.48506,-34.03954,0 18.48506,-34.04082,0 18.48511,-34.04192,0 18.48511,-34.04311,0 18.48513,-34.04677,0 18.48511,-34.05148,0 18.485,-34.05469,0 18.48478,-34.05943,0 18.48467,-34.06316,0 18.48455,-34.06651,0 18.48461,-34.06991,0 18.48461,-34.07098,0 18.48466,-34.07208,0 18.48484,-34.07591,0 18.48518,-34.08084,0 18.48545,-34.08421,0 18.48567,-34.08783,0 18.48598,-34.09272,0 18.48621,-34.09635,0 18.4865,-34.10086,0 18.48667,-34.10463,0 18.48685,-34.10857,0 18.48701,-34.11227,0 18.48708,-34.11346,0 18.48719,-34.11502,0 18.4873,-34.11623,0 18.48736,-34.11726,0 18.48741,-34.11864,0 18.48747,-34.11981,0 18.48747,-34.12088,0 18.48753,-34.12237,0 18.48753,-34.12358,0 18.48758,-34.12486,0 18.48758,-34.12596,0 18.48759,-34.12735,0 18.48759,-34.12991,0 18.48758,-34.13141,0 18.48753,-34.13247,0 18.48752,-34.13379,0 18.48747,-34.13489,0 18.48747,-34.13599,0 18.48742,-34.13713,0 18.4873,-34.1386,0 18.48724,-34.13965,0 18.48719,-34.14075,0 18.48713,-34.14211,0 18.48707,-34.14318,0 18.48702,-34.14432,0 18.48696,-34.14537,0 18.48684,-34.14672,0 18.48684,-34.14756,0 18.4868,-34.1489,0 18.48679,-34.14993,0 18.48679,-34.15133,0 18.48685,-34.15233,0 18.48685,-34.15352,0 18.48684,-34.15491,0 18.48696,-34.15952,0 18.48702,-34.16176,0 18.48708,-34.16286,0 18.48713,-34.16418,0 18.48719,-34.16634,0 18.48741,-34.17018,0 18.48747,-34.17097,0 18.48752,-34.1722,0 18.48769,-34.17348,0 18.48776,-34.17451,0 18.48793,-34.17581,0 18.48803,-34.17682,0 18.48825,-34.17824,0 18.48845,-34.17931,0 18.48862,-34.18052,0 18.48881,-34.18176,0 18.48904,-34.18318,0 18.48925,-34.18447,0 18.48993,-34.18918,0 18.49055,-34.19257,0 18.49119,-34.19606,0 18.49218,-34.20103,0 18.49234,-34.202,0 18.49257,-34.20309,0 18.49279,-34.20442,0 18.49302,-34.20565,0 18.49319,-34.20676,0 18.49342,-34.20794,0 18.49369,-34.20927,0 18.49388,-34.21035,0 18.49419,-34.21147,0 18.49451,-34.21264,0 18.49481,-34.21362,0 18.49531,-34.21492,0 18.49582,-34.21596,0 18.49627,-34.21696,0 18.49677,-34.21797,0 18.49737,-34.21925,0 18.49789,-34.22032,0 18.4984,-34.22136,0 18.49901,-34.2226,0 18.49949,-34.22353,0 18.50008,-34.22475,0 18.50058,-34.22577,0 18.50109,-34.22699,0 18.50155,-34.228,0 18.50193,-34.229,0 18.50238,-34.23019,0 18.50283,-34.23134,0 18.50327,-34.23262,0 18.50361,-34.23349,0 18.50407,-34.23484,0 18.5044,-34.23582,0 18.5047,-34.23689,0 18.50496,-34.23784,0 18.50521,-34.23875,0 18.50541,-34.23981,0 18.50555,-34.24094,0 18.50567,-34.24183,0 18.5058,-34.24265,0 18.50585,-34.2437,0 18.5059,-34.24462,0 18.50595,-34.24574,0 18.50597,-34.24658,0 18.5059,-34.24746,0 18.50578,-34.24829,0 18.50563,-34.24937,0 18.50544,-34.25039,0 18.50527,-34.25123,0 18.50507,-34.25226,0 18.50481,-34.25314,0 18.50452,-34.25416,0 18.50424,-34.25505,0 18.504,-34.25592,0 18.50378,-34.2567,0 18.50338,-34.25765,0 18.50294,-34.25839,0 18.50246,-34.25905,0 18.50193,-34.25949,0 18.50132,-34.25984,0 18.50029,-34.26007,0 18.49943,-34.26003,0 18.49869,-34.25979,0 18.49812,-34.25951,0 18.49761,-34.25922,0 18.497,-34.25885,0 18.49651,-34.25854,0 18.49611,-34.25826,0 18.49554,-34.25789,0 18.49508,-34.25751,0 18.49463,-34.25719,0 18.49414,-34.25674,0 18.49375,-34.25647,0 18.49319,-34.25607,0 18.49274,-34.25584,0 18.49211,-34.25565,0 18.49154,-34.25546,0 18.49096,-34.25523,0 18.49055,-34.255,0 18.4901,-34.25467,0 18.48971,-34.25436,0 18.48921,-34.254,0 18.48879,-34.25365,0 18.4885,-34.25341,0 18.4881,-34.25304,0 18.48786,-34.25281,0 18.48752,-34.25258,0 18.48719,-34.25226,0 18.48696,-34.25188,0 18.48679,-34.25155,0 18.48661,-34.25123,0 18.48635,-34.25093,0 18.48601,-34.25066,0 18.48558,-34.25043,0 18.48524,-34.25025,0 18.48484,-34.25002,0 18.48444,-34.24974,0 18.48416,-34.24947,0 18.48398,-34.24923,0 18.48377,-34.24892,0 18.48354,-34.2486,0 18.48341,-34.24834,0 18.48321,-34.24809,0 18.48293,-34.24777,0 18.48278,-34.24755,0 18.48253,-34.24731,0 18.48232,-34.24709,0 18.48209,-34.24676,0 18.48192,-34.24649,0 18.48175,-34.2462,0 18.48158,-34.24597,0 18.48136,-34.24571,0 18.48119,-34.24548,0 18.48095,-34.24517,0 18.48074,-34.24493,0 18.48049,-34.24471,0 18.48032,-34.24448,0 18.48009,-34.2442,0 18.47996,-34.24397,0 18.47973,-34.24365,0 18.47952,-34.24336,0 18.47935,-34.24313,0 18.47917,-34.24287,0 18.479,-34.2426,0 18.47884,-34.24232,0 18.47867,-34.24205,0 18.4785,-34.24182,0 18.47837,-34.24159,0 18.47828,-34.24132,0 18.47822,-34.24104,0 18.47809,-34.24071,0 18.47786,-34.24043,0 18.4776,-34.24017,0 18.4774,-34.23991,0 18.47721,-34.23962,0 18.47706,-34.2394,0 18.47687,-34.23912,0 18.47672,-34.2388,0 18.47659,-34.23853,0 18.47648,-34.2383,0 18.47637,-34.23805,0 18.47626,-34.23784,0 18.47614,-34.23756,0 18.47603,-34.23735,0 18.47597,-34.23712,0 18.47586,-34.23689,0 18.4757,-34.2366,0 18.47558,-34.23637,0 18.47542,-34.2361,0 18.47534,-34.23587,0 18.47523,-34.23563,0 18.47508,-34.23541,0 18.47502,-34.23518,0 18.47511,-34.23489,0 18.47581,-34.23404,0 18.4762,-34.23354,0 18.47648,-34.23317,0 18.47666,-34.23293,0 18.47694,-34.23247,0 18.47723,-34.232,0 18.4774,-34.23163,0 18.47752,-34.23135,0 18.47771,-34.23093,0 18.47788,-34.23042,0 18.47799,-34.22997,0 18.47815,-34.22944,0 18.47828,-34.22887,0 18.47837,-34.22837,0 18.47849,-34.22786,0 18.4786,-34.22721,0 18.47872,-34.2267,0 18.47878,-34.22621,0 18.47889,-34.22562,0 18.479,-34.22502,0 18.47912,-34.22456,0 18.47923,-34.22388,0 18.47934,-34.22337,0 18.47945,-34.22282,0 18.47952,-34.22213,0 18.47963,-34.22153,0 18.47969,-34.22087,0 18.47979,-34.22017,0 18.47985,-34.21944,0 18.47992,-34.21883,0 18.47996,-34.2182,0 18.48001,-34.21747,0 18.48009,-34.21687,0 18.48018,-34.21619,0 18.48024,-34.21545,0 18.48035,-34.21481,0 18.48063,-34.21257,0 18.48106,-34.20942,0 18.48141,-34.20644,0 18.48175,-34.20415,0 18.48204,-34.20105,0 18.48221,-34.19886,0 18.48255,-34.19541,0 18.48267,-34.19467,0 18.48281,-34.19389,0 18.48293,-34.19302,0 18.48307,-34.19225,0 18.48321,-34.19147,0 18.48326,-34.19073,0 18.48341,-34.18987,0 18.48354,-34.18909,0 18.48364,-34.18829,0 18.48375,-34.18726,0 18.48382,-34.18639,0 18.48387,-34.18582,0 18.48399,-34.18478,0 18.48404,-34.18396,0 18.4841,-34.18309,0 18.48416,-34.18231,0 18.48421,-34.18145,0 18.48427,-34.18062,0 18.48427,-34.17984,0 18.48433,-34.17907,0 18.48444,-34.17726,0 18.48466,-34.1743,0 18.48472,-34.17357,0 18.48495,-34.17151,0 18.48495,-34.17074,0 18.485,-34.16991,0 18.48501,-34.16902,0 18.48501,-34.16813,0 18.48501,-34.16716,0 18.48501,-34.16623,0 18.48495,-34.16525,0 18.48495,-34.16423,0 18.48495,-34.16343,0 18.4849,-34.16259,0 18.4849,-34.1618,0 18.48489,-34.1608,0 18.4849,-34.15998,0 18.48483,-34.15897,0 18.48478,-34.1581,0 18.48472,-34.15718,0 18.48467,-34.15631,0 18.48466,-34.15544,0 18.48455,-34.15445,0 18.4845,-34.15366,0 18.48444,-34.15268,0 18.48438,-34.15182,0 18.48427,-34.15068,0 18.48427,-34.14986,0 18.48421,-34.149,0 18.48416,-34.14821,0 18.4841,-34.14729,0 18.48404,-34.14639,0 18.48392,-34.14532,0 18.48382,-34.14455,0 18.4837,-34.14351,0 18.48354,-34.14267,0 18.48343,-34.1418,0 18.48326,-34.14075,0 18.48312,-34.13987,0 18.48295,-34.1389,0 18.48278,-34.13811,0 18.48265,-34.13708,0 18.48248,-34.13635,0 18.48231,-34.13525,0 18.48215,-34.13443,0 18.48203,-34.13365,0 18.48181,-34.13271,0 18.48164,-34.13191,0 18.48153,-34.13113,0 18.48141,-34.13038,0 18.4813,-34.12939,0 18.48118,-34.1287,0 18.48108,-34.12793,0 18.48091,-34.12711,0 18.48085,-34.12656,0 18.48074,-34.12564,0 18.48063,-34.125,0 18.48043,-34.12419,0 18.48038,-34.12368,0 18.48018,-34.1228,0 18.47998,-34.12218,0 18.47979,-34.12148,0 18.47962,-34.12065,0 18.47951,-34.12015,0 18.4794,-34.11944,0 18.47928,-34.11873,0 18.47912,-34.11776,0 18.47906,-34.11711,0 18.479,-34.11641,0 18.47889,-34.11571,0 18.47884,-34.11502,0 18.47872,-34.11432,0 18.47861,-34.11356,0 18.47849,-34.11283,0 18.47837,-34.11217,0 18.4782,-34.11139,0 18.47797,-34.11059,0 18.47775,-34.1098,0 18.47752,-34.1091,0 18.47723,-34.10841,0 18.47699,-34.1077,0 18.47666,-34.10701,0 18.47631,-34.10628,0 18.47598,-34.10573,0 18.47553,-34.10518,0 18.47494,-34.10454,0 18.47443,-34.10398,0 18.4739,-34.10353,0 18.47328,-34.10291,0 18.47267,-34.10234,0 18.47208,-34.10175,0 18.47161,-34.10129,0 18.47111,-34.10077,0 18.4706,-34.10023,0 18.47002,-34.09966,0 18.46956,-34.09909,0 18.46899,-34.09854,0 18.46841,-34.09785,0 18.46791,-34.09735,0 18.46733,-34.09672,0 18.46682,-34.09621,0 18.46624,-34.09556,0 18.46573,-34.09505,0 18.46521,-34.09453,0 18.46465,-34.09396,0 18.46413,-34.09346,0 18.46344,-34.09281,0 18.46275,-34.09221,0 18.46219,-34.09172,0 18.46157,-34.09122,0 18.46087,-34.09067,0 18.46006,-34.09012,0 18.45955,-34.08974,0 18.45871,-34.08916,0 18.45806,-34.08876,0 18.45726,-34.08824,0 18.45652,-34.08783,0 18.4558,-34.08733,0 18.4549,-34.08682,0 18.45417,-34.08634,0 18.45343,-34.08587,0 18.4526,-34.0854,0 18.45176,-34.08485,0 18.45075,-34.0843,0 18.44982,-34.08378,0 18.44896,-34.08334,0 18.4481,-34.08289,0 18.44725,-34.08248,0 18.4461,-34.08192,0 18.44526,-34.08147,0 18.44433,-34.08099,0 18.44347,-34.08055,0 18.44263,-34.08018,0 18.4417,-34.07968,0 18.44049,-34.07908,0 18.43966,-34.07863,0 18.43872,-34.07805,0 18.43792,-34.07758,0 18.43713,-34.07707,0 18.43632,-34.07656,0 18.43557,-34.07605,0 18.43472,-34.07547,0 18.43382,-34.07487,0 18.43306,-34.07428,0 18.43225,-34.07363,0 18.43153,-34.07304,0 18.43091,-34.0724,0 18.43025,-34.07177,0 18.42951,-34.07103,0 18.42905,-34.07056,0 18.42833,-34.06979,0 18.42779,-34.06921,0 18.42699,-34.06837,0 18.42648,-34.06787,0 18.42592,-34.06718,0 18.42525,-34.06645,0 18.42482,-34.06595,0 18.42419,-34.0652,0 18.42373,-34.0646,0 18.42321,-34.06404,0 18.42276,-34.06343,0 18.42218,-34.06274,0 18.42173,-34.06218,0 18.42115,-34.06153,0 18.42075,-34.06097,0 18.4202,-34.06027,0 18.41978,-34.05971,0 18.41932,-34.05901,0 18.41891,-34.05849,0 18.41835,-34.05776,0 18.41796,-34.05716,0 18.41763,-34.05666,0 18.41721,-34.05608,0 18.41679,-34.05542,0 18.41645,-34.05487,0 18.41606,-34.05426,0 18.4156,-34.05357,0 18.41522,-34.05299,0 18.41477,-34.05235,0 18.41434,-34.0517,0 18.41398,-34.05116,0 18.4136,-34.05059,0 18.41331,-34.05017,0 18.41297,-34.0497,0 18.41257,-34.0491,0 18.4123,-34.04874,0 18.41202,-34.04832,0 18.41171,-34.04789,0 18.41154,-34.04752,0 18.41135,-34.04718,0 18.41114,-34.04677,0 18.41097,-34.0464,0 18.41084,-34.04613,0 18.41068,-34.04576,0 18.41056,-34.04549,0 18.41045,-34.04517,0 18.41034,-34.04482,0 18.41022,-34.04444,0 18.41011,-34.04416,0 18.41017,-34.04374,0 18.41028,-34.04347,0 18.41045,-34.04323,0 18.41062,-34.04301,0 18.41091,-34.04263,0 18.41114,-34.04226,0 18.4114,-34.04192,0 18.41177,-34.0416,0 18.41213,-34.04132,0 18.41236,-34.041,0 18.41258,-34.04077,0 18.4128,-34.04049,0 18.41281,-34.04027,0 18.4128,-34.04007,0 18.41246,-34.03993,0 18.41135,-34.03949,0 18.41097,-34.03932,0 18.41057,-34.03909,0 18.41017,-34.03885,0 18.40978,-34.03857,0 18.40937,-34.0382,0 18.40911,-34.03793,0 18.40885,-34.0376,0 18.40874,-34.03709,0 18.40874,-34.03653,0 18.40885,-34.03606,0 18.40914,-34.03541,0 18.40956,-34.03487,0 18.41011,-34.03432,0 18.41073,-34.03377,0 18.41143,-34.03318,0 18.41206,-34.03271,0 18.41275,-34.03221,0 18.41342,-34.03175,0 18.41412,-34.03131,0 18.41486,-34.03085,0 18.41572,-34.03033,0 18.41639,-34.02988,0 18.41726,-34.02931,0 18.41778,-34.02894,0 18.41858,-34.02832,0 18.4192,-34.02782,0 18.41995,-34.02717,0 18.4206,-34.02658,0 18.42121,-34.02603,0 18.42178,-34.02554,0 18.42258,-34.0248,0 18.42318,-34.02429,0 18.42385,-34.0237,0 18.42464,-34.02303,0 18.42531,-34.02242,0 18.42592,-34.02191,0 18.42654,-34.02141,0 18.42722,-34.02084,0 18.42811,-34.02022,0 18.42894,-34.01972,0 18.42974,-34.01931,0 18.43069,-34.01884,0 18.43163,-34.01847,0 18.43254,-34.01811,0 18.43355,-34.01775,0 18.43437,-34.01749,0 18.43551,-34.01711,0 18.4362,-34.01688,0 18.43741,-34.01646,0 18.43837,-34.01614,0 18.43924,-34.01581,0 18.44033,-34.01541,0 18.44128,-34.01505,0 18.44227,-34.01469,0 18.44341,-34.01423,0 18.44419,-34.0139,0 18.44532,-34.0134,0 18.44645,-34.01283,0 18.44728,-34.01239,0 18.44829,-34.01184,0 18.44918,-34.01134,0 18.4503,-34.01074,0 18.4512,-34.01024,0 18.45222,-34.00967,0 18.45311,-34.00914,0 18.454,-34.0086,0 18.45486,-34.00809,0 18.45585,-34.00758,0 18.45675,-34.00713,0 18.45765,-34.00662,0 18.45869,-34.00613,0 18.45955,-34.00566,0 18.46067,-34.00502,0 18.4614,-34.00465,0 18.46247,-34.00401,0 18.46333,-34.00348,0 18.46437,-34.00282,0 18.4651,-34.00227,0 18.466,-34.00159,0 18.46659,-34.00106,0 18.46727,-34.0004,0 18.46773,-33.99989,0 18.4683,-33.99921,0 18.4688,-33.99847,0 18.46925,-33.99783,0 18.46968,-33.9971,0 18.46998,-33.9966,0 18.47036,-33.9958,0 18.47065,-33.99518,0 18.47104,-33.99426,0 18.47139,-33.99352,0 18.47168,-33.99295,0 18.47202,-33.99212,0 18.47245,-33.99115,0 18.47277,-33.99039,0 18.47317,-33.9896,0 18.47362,-33.98859,0 18.47401,-33.98772,0 18.47437,-33.9869,0 18.47477,-33.98593,0 18.47511,-33.98513,0 18.47551,-33.98416,0 18.47614,-33.98248,0 18.47637,-33.98183,0 18.47666,-33.98085,0 18.477,-33.97983,0 18.47738,-33.9787,0 18.47763,-33.97773,0 18.47792,-33.9768,0 18.47816,-33.97581,0 18.4785,-33.97481,0 18.47878,-33.97366,0 18.47906,-33.97275,0 18.47935,-33.97163,0 18.47952,-33.97094,0 18.47986,-33.96977,0 18.48009,-33.96889,0 18.48035,-33.9678,0 18.48055,-33.96689,0 18.48078,-33.966,0 18.48097,-33.96515,0 18.48119,-33.96396,0 18.48129,-33.96312,0 18.48146,-33.96214,0 18.48158,-33.96103,0 18.48164,-33.96002,0 18.48169,-33.95906,0 18.48175,-33.95818,0 18.48175,-33.95709,0 18.48169,-33.95618,0 18.48164,-33.95526,0 18.48158,-33.95446,0 18.48152,-33.95339,0 18.48146,-33.95255,0 18.48136,-33.95146,0 18.48124,-33.95036,0 18.48118,-33.94957,0 18.48102,-33.94853,0 18.48089,-33.94761,0 18.48074,-33.94675,0 18.48061,-33.94598,0 18.48041,-33.94496,0 18.48024,-33.94423,0 18.48003,-33.94324,0 18.47979,-33.9424,0 18.47958,-33.94161,0 18.47929,-33.94059,0 18.47906,-33.93979,0 18.47878,-33.93878,0 18.4785,-33.93796,0 18.47828,-33.93723,0 18.47794,-33.93631,0 18.47771,-33.93567,0 18.47738,-33.93471,0 18.47704,-33.93375,0 18.47682,-33.93297,0 18.47649,-33.93211,0 18.4762,-33.93132,0 18.47591,-33.93048,0 18.47564,-33.92972,0 18.47514,-33.92857,0 18.47483,-33.92783,0 18.47437,-33.92694,0 18.47403,-33.92634,0 18.47357,-33.92542,0 18.47312,-33.92464,0 18.47282,-33.92411,0 18.47214,-33.92299,0 18.47162,-33.92225,0 18.47105,-33.92154,0 18.4706,-33.92093,0 18.46973,-33.92001,0 18.46916,-33.9194,0 18.46835,-33.91859,0 18.46779,-33.91796,0 18.46704,-33.91731,0 18.4663,-33.91666,0 18.46561,-33.91603,0 18.46482,-33.9153,0 18.46413,-33.9147,0 18.46333,-33.91396,0 18.46264,-33.91338,0 18.46191,-33.91273,0 18.46124,-33.91219,0 18.46051,-33.91154,0 18.45989,-33.91104,0 18.45915,-33.91037,0 18.45849,-33.90985,0 18.45798,-33.90944,0 18.4572,-33.90888,0 18.45652,-33.90837,0 18.4558,-33.90784,0 18.45524,-33.90742,0 18.45479,-33.90697,0 18.45445,-33.90656,0 18.45394,-33.90562,0 18.45371,-33.90497,0 18.45344,-33.90436,0 18.45305,-33.90367,0 18.45268,-33.90325,0 18.45187,-33.90285,0 18.45126,-33.9028,0 18.45062,-33.90297,0 18.4498,-33.90344,0 18.44913,-33.90381,0 18.44805,-33.90418,0 18.4473,-33.90423,0 18.4465,-33.90404,0 18.44582,-33.90376,0 18.44526,-33.90335,0 18.44476,-33.90276,0 18.44436,-33.90216,0 18.44393,-33.90153,0 18.44352,-33.9012,0 18.44268,-33.90092,0 18.4419,-33.90102,0 18.44118,-33.90134,0 18.44061,-33.90166,0 18.44027,-33.90184,0 18.43988,-33.90207,0 18.43954,-33.90225,0 18.43915,-33.90239,0 18.43893,-33.90253,0 18.43814,-33.9028,0 18.43792,-33.90289,0 18.43741,-33.90308,0 18.43708,-33.90317,0 18.43678,-33.9033,0 18.43624,-33.90344,0 18.43601,-33.90349,0 18.43575,-33.90358,0 18.43472,-33.90376,0 18.43431,-33.90376,0 18.43394,-33.90376,0 18.43371,-33.90372,0 18.43332,-33.90367,0 18.4331,-33.90358,0 18.4326,-33.90343,0 18.43231,-33.90325,0 18.43208,-33.90316,0 18.43158,-33.90289,0 18.4313,-33.90276,0 18.43102,-33.90257,0 18.43074,-33.90244,0 18.43046,-33.9023,0 18.43025,-33.90218,0 18.43002,-33.90204,0 18.42929,-33.90161,0 18.42906,-33.90152,0 18.42884,-33.90138,0 18.42844,-33.90115,0 18.42822,-33.90102,0 18.42791,-33.90088,0 18.42768,-33.90078,0</coordinates>
      </LineString>
    </Placemark>
  </Document>
</kml>
