<?xml version="1.0" encoding="UTF-8"?>
<kml xmlns="http://www.opengis.net/kml/2.2">
  <Document>
    <name>FR24 41b7ea7f</name>
    <Placemark>
      <name>FR24 41b7ea7f</name>
      <Style><LineStyle><color>ff0000ff</color><width>4</width></LineStyle></Style>
      <LineString>
        <tessellate>1</tessellate>
        <coordinates>18.42682,-33.90097,0 18.42705,-33.90097,0 18.42738,-33.90125,0 18.4276,-33.90143,0 18.42802,-33.90162,0 18.42825,-33.90171,0 18.42872,-33.90184,0 18.42895,-33.90193,0 18.4294,-33.90202,0 18.42968,-33.90207,0 18.43013,-33.90211,0 18.43037,-33.90213,0 18.43065,-33.90213,0 18.43111,-33.90213,0 18.43151,-33.90208,0 18.4318,-33.90208,0 18.43214,-33.90202,0 18.4326,-33.90195,0 18.43287,-33.90193,0 18.43323,-33.90185,0 18.43357,-33.90181,0 18.43409,-33.90167,0 18.43437,-33.90162,0 18.43517,-33.90129,0 18.43545,-33.90115,0 18.4358,-33.90092,0 18.43637,-33.90046,0 18.43663,-33.90024,0 18.43696,-33.89978,0 18.43713,-33.89946,0 18.43729,-33.89911,0 18.4374,-33.89874,0 18.43752,-33.89771,0 18.43736,-33.89662,0 18.43712,-33.89571,0 18.43672,-33.89455,0 18.43646,-33.89369,0 18.43615,-33.89287,0 18.43575,-33.89143,0 18.43545,-33.89058,0 18.43517,-33.88943,0 18.43489,-33.88849,0 18.43472,-33.88779,0 18.43433,-33.88664,0 18.43405,-33.88582,0 18.43351,-33.88477,0 18.43306,-33.88398,0 18.43266,-33.88337,0 18.43186,-33.88243,0 18.43117,-33.88174,0 18.43018,-33.88092,0 18.42906,-33.8801,0 18.42822,-33.87959,0 18.42704,-33.87895,0 18.42587,-33.8784,0 18.42508,-33.87804,0 18.42374,-33.87749,0 18.42267,-33.87708,0 18.42166,-33.87671,0 18.42047,-33.8763,0 18.4192,-33.87593,0 18.41812,-33.87569,0 18.41718,-33.87547,0 18.41612,-33.87523,0 18.41492,-33.87499,0 18.41389,-33.87481,0 18.41269,-33.87462,0 18.41154,-33.87448,0 18.41022,-33.87434,0 18.40911,-33.87424,0 18.40834,-33.8742,0 18.40686,-33.8741,0 18.40552,-33.87405,0 18.40445,-33.87402,0 18.40333,-33.87401,0 18.40204,-33.87405,0 18.40098,-33.8741,0 18.3998,-33.87424,0 18.39884,-33.87434,0 18.39764,-33.87453,0 18.39655,-33.87469,0 18.39537,-33.87492,0 18.39459,-33.87511,0 18.39329,-33.87541,0 18.39231,-33.87569,0 18.39106,-33.87602,0 18.38991,-33.87639,0 18.38894,-33.87672,0 18.38775,-33.87708,0 18.38668,-33.87744,0 18.38528,-33.87797,0 18.38433,-33.87836,0 18.38332,-33.87872,0 18.38236,-33.87914,0 18.38114,-33.87968,0 18.38018,-33.8801,0 18.37923,-33.88055,0 18.3779,-33.88114,0 18.37687,-33.88169,0 18.37587,-33.8822,0 18.37492,-33.88268,0 18.37383,-33.88328,0 18.37284,-33.8838,0 18.37172,-33.88444,0 18.37093,-33.8849,0 18.36981,-33.88564,0 18.36891,-33.88617,0 18.368,-33.88672,0 18.36691,-33.88737,0 18.36606,-33.88792,0 18.36485,-33.88868,0 18.36404,-33.88916,0 18.36281,-33.88994,0 18.36182,-33.89054,0 18.36073,-33.89122,0 18.35961,-33.89186,0 18.35866,-33.89246,0 18.35775,-33.89301,0 18.35684,-33.89361,0 18.35597,-33.89415,0 18.35462,-33.89507,0 18.35373,-33.89571,0 18.35278,-33.89636,0 18.35192,-33.89701,0 18.35106,-33.89766,0 18.35014,-33.89836,0 18.34906,-33.89915,0 18.34803,-33.89994,0 18.34717,-33.90065,0 18.34616,-33.90147,0 18.34528,-33.90218,0 18.34436,-33.90292,0 18.34351,-33.90362,0 18.3424,-33.90454,0 18.34156,-33.9053,0 18.34055,-33.90619,0 18.33956,-33.90711,0 18.3387,-33.90788,0 18.33769,-33.9088,0 18.33691,-33.90953,0 18.33607,-33.91031,0 18.33321,-33.91292,0 18.33029,-33.91545,0 18.32685,-33.91847,0 18.32391,-33.9212,0 18.32121,-33.92386,0 18.31867,-33.92648,0 18.31768,-33.92757,0 18.31673,-33.92853,0 18.31587,-33.9295,0 18.31488,-33.93063,0 18.31398,-33.93159,0 18.31303,-33.93256,0 18.31203,-33.9336,0 18.31129,-33.93434,0 18.31034,-33.93535,0 18.30952,-33.93621,0 18.3086,-33.93719,0 18.3078,-33.93807,0 18.30698,-33.93906,0 18.30608,-33.94007,0 18.30517,-33.94114,0 18.30446,-33.94194,0 18.30384,-33.94267,0 18.30305,-33.94368,0 18.30231,-33.94463,0 18.30151,-33.94566,0 18.3007,-33.94668,0 18.2999,-33.94775,0 18.29924,-33.94867,0 18.29853,-33.94976,0 18.2979,-33.95064,0 18.29733,-33.95152,0 18.29678,-33.95247,0 18.2961,-33.95348,0 18.29544,-33.9545,0 18.29476,-33.95554,0 18.29397,-33.95663,0 18.29332,-33.95753,0 18.29247,-33.95888,0 18.29179,-33.95975,0 18.29117,-33.96071,0 18.29067,-33.96149,0 18.28995,-33.9626,0 18.2892,-33.96372,0 18.28854,-33.96474,0 18.28812,-33.96549,0 18.28742,-33.96666,0 18.28686,-33.96763,0 18.28635,-33.96858,0 18.28579,-33.96968,0 18.28526,-33.9707,0 18.28457,-33.97201,0 18.28417,-33.97285,0 18.28355,-33.97412,0 18.28279,-33.97559,0 18.28237,-33.9765,0 18.28198,-33.97733,0 18.28148,-33.97839,0 18.28114,-33.97929,0 18.2808,-33.98016,0 18.28041,-33.98117,0 18.28007,-33.98227,0 18.27974,-33.98332,0 18.27951,-33.98424,0 18.27936,-33.98513,0 18.27948,-33.98639,0 18.27982,-33.98705,0 18.28063,-33.98781,0 18.28136,-33.98802,0 18.28231,-33.98799,0 18.28331,-33.98765,0 18.28411,-33.98708,0 18.28491,-33.98635,0 18.28557,-33.9857,0 18.28613,-33.98515,0 18.28703,-33.98416,0 18.28794,-33.98318,0 18.28871,-33.98236,0 18.2896,-33.98145,0 18.29029,-33.98071,0 18.29111,-33.97975,0 18.29178,-33.97904,0 18.29241,-33.97839,0 18.29341,-33.97737,0 18.29425,-33.97659,0 18.29504,-33.97578,0 18.29571,-33.97517,0 18.29676,-33.9741,0 18.29734,-33.97348,0 18.29818,-33.97256,0 18.29891,-33.97174,0 18.29986,-33.97073,0 18.30065,-33.96982,0 18.30137,-33.96909,0 18.30188,-33.96849,0 18.30282,-33.96745,0 18.30362,-33.96657,0 18.3044,-33.9657,0 18.30535,-33.96465,0 18.30586,-33.9641,0 18.30664,-33.96327,0 18.30729,-33.96256,0 18.30837,-33.9614,0 18.30922,-33.96053,0 18.31015,-33.95953,0 18.31089,-33.95869,0 18.31175,-33.95786,0 18.31242,-33.95714,0 18.31329,-33.95618,0 18.31393,-33.95549,0 18.31477,-33.95453,0 18.31518,-33.95404,0 18.316,-33.95306,0 18.31661,-33.95236,0 18.31741,-33.95148,0 18.31804,-33.95069,0 18.31873,-33.94989,0 18.31942,-33.94908,0 18.32016,-33.94822,0 18.32077,-33.94743,0 18.32136,-33.94678,0 18.32211,-33.94574,0 18.32273,-33.94496,0 18.32357,-33.94391,0 18.32419,-33.94318,0 18.32475,-33.94244,0 18.32542,-33.94156,0 18.32592,-33.94093,0 18.32668,-33.93989,0 18.32731,-33.93914,0 18.32817,-33.93805,0 18.32903,-33.93705,0 18.32973,-33.93622,0 18.3304,-33.93546,0 18.33115,-33.93458,0 18.33189,-33.93374,0 18.33243,-33.93306,0 18.33321,-33.9321,0 18.33366,-33.93151,0 18.33433,-33.93073,0 18.33557,-33.92926,0 18.33624,-33.92848,0 18.33693,-33.9276,0 18.33767,-33.92671,0 18.33994,-33.924,0 18.34219,-33.92117,0 18.34296,-33.92024,0 18.34362,-33.91945,0 18.34425,-33.91869,0 18.34481,-33.91795,0 18.34534,-33.91722,0 18.34585,-33.91647,0 18.34655,-33.91548,0 18.34723,-33.91461,0 18.34778,-33.91388,0 18.34846,-33.91296,0 18.34891,-33.91237,0 18.34969,-33.9113,0 18.35026,-33.91056,0 18.35094,-33.90963,0 18.3516,-33.90875,0 18.35221,-33.90802,0 18.35283,-33.90725,0 18.35381,-33.90618,0 18.35451,-33.90541,0 18.3553,-33.90459,0 18.35597,-33.9039,0 18.35675,-33.90317,0 18.35737,-33.90253,0 18.35838,-33.90157,0 18.35896,-33.90102,0 18.35999,-33.90009,0 18.36068,-33.89941,0 18.36146,-33.89868,0 18.36239,-33.89785,0 18.36319,-33.89711,0 18.36399,-33.89645,0 18.36491,-33.89571,0 18.36567,-33.89511,0 18.36684,-33.8942,0 18.3674,-33.89378,0 18.36845,-33.89296,0 18.3692,-33.89236,0 18.37026,-33.89159,0 18.37121,-33.89081,0 18.372,-33.89022,0 18.3732,-33.88929,0 18.37396,-33.8887,0 18.37486,-33.88803,0 18.37761,-33.886,0 18.3794,-33.88472,0 18.38007,-33.88426,0 18.3822,-33.88284,0 18.38327,-33.88216,0 18.38419,-33.8816,0 18.38512,-33.88106,0 18.38608,-33.88053,0 18.38711,-33.87993,0 18.38797,-33.87946,0 18.38881,-33.87904,0 18.38997,-33.87848,0 18.39089,-33.87808,0 18.39207,-33.87758,0 18.393,-33.87723,0 18.39386,-33.8769,0 18.39487,-33.87653,0 18.39582,-33.87616,0 18.39683,-33.87584,0 18.39767,-33.87556,0 18.39874,-33.8752,0 18.39963,-33.87488,0 18.40081,-33.87447,0 18.40176,-33.87419,0 18.40279,-33.87387,0 18.40387,-33.8736,0 18.40508,-33.87332,0 18.40591,-33.87314,0 18.40709,-33.87291,0 18.40822,-33.87281,0 18.40922,-33.87277,0 18.41011,-33.87282,0 18.41148,-33.87304,0 18.41223,-33.87322,0 18.41309,-33.8735,0 18.41406,-33.87387,0 18.41482,-33.87419,0 18.41578,-33.87456,0 18.41669,-33.87495,0 18.4174,-33.87529,0 18.41818,-33.87574,0 18.41886,-33.8763,0 18.41931,-33.8768,0 18.41959,-33.87721,0 18.41987,-33.87794,0 18.41998,-33.87859,0 18.41995,-33.87941,0 18.4199,-33.88011,0 18.4197,-33.88092,0 18.41948,-33.88161,0 18.41927,-33.8823,0 18.41904,-33.88309,0 18.41904,-33.88356,0 18.41908,-33.88417,0 18.41932,-33.88482,0 18.41955,-33.88523,0 18.41984,-33.8856,0 18.41998,-33.88582,0 18.4202,-33.88605,0 18.4206,-33.88646,0 18.42093,-33.88673,0 18.42138,-33.88715,0 18.42172,-33.88747,0 18.422,-33.88788,0 18.42218,-33.88812,0 18.42228,-33.88843,0 18.42241,-33.88882,0 18.4225,-33.88916,0 18.42258,-33.88966,0 18.42258,-33.88998,0 18.42262,-33.89021,0 18.42264,-33.89077,0 18.42264,-33.89128,0 18.42267,-33.89159,0 18.42278,-33.892,0 18.42301,-33.89236,0 18.42318,-33.89259,0 18.42334,-33.89282,0 18.42351,-33.8931,0 18.42374,-33.89346,0 18.42396,-33.89384,0 18.42419,-33.89417,0 18.42436,-33.89441,0 18.42447,-33.89465,0 18.42459,-33.89487,0 18.42482,-33.8952,0 18.42493,-33.89543,0 18.42516,-33.89576,0 18.42536,-33.89612,0 18.4255,-33.89636,0 18.4257,-33.89662,0 18.42585,-33.89692,0 18.42607,-33.89729,0 18.42613,-33.89753,0 18.42636,-33.89785,0 18.42653,-33.89813,0 18.42665,-33.89836,0 18.42682,-33.89869,0 18.42699,-33.89905,0 18.4271,-33.89929,0 18.42715,-33.89955,0 18.42721,-33.89983,0 18.42715,-33.9001,0 18.4271,-33.90033,0 18.42705,-33.9006,0 18.42699,-33.90083,0 18.42721,-33.90111,0 18.42755,-33.90134,0 18.42779,-33.90153,0 18.42808,-33.90167,0 18.42859,-33.90185,0 18.42906,-33.90193,0 18.42929,-33.90198,0 18.42951,-33.90198,0 18.42974,-33.90195,0 18.42997,-33.90195,0 18.43025,-33.9019,0 18.43052,-33.90184,0 18.43074,-33.90175,0 18.431,-33.90171,0 18.43134,-33.90157,0 18.43164,-33.90147,0 18.43186,-33.90138,0 18.43214,-33.90129,0 18.43237,-33.90115,0 18.43277,-33.90092,0 18.43311,-33.90074,0 18.43338,-33.9006,0 18.43374,-33.90036,0 18.43399,-33.90019,0 18.4342,-33.90004,0 18.4346,-33.89971,0 18.43489,-33.89948,0 18.43511,-33.89919,0 18.43534,-33.89892,0 18.43552,-33.89864,0 18.43579,-33.89818,0 18.4359,-33.89795,0 18.43615,-33.89706,0 18.43624,-33.89621,0 18.43624,-33.89534,0 18.43615,-33.89455,0 18.43597,-33.89347,0 18.4358,-33.89268,0 18.43569,-33.89185,0 18.43545,-33.89081,0 18.43517,-33.88971,0 18.435,-33.88891,0 18.43472,-33.88789,0 18.43439,-33.88683,0 18.43403,-33.88584,0 18.43363,-33.88491,0 18.43311,-33.88407,0 18.43237,-33.88305,0 18.43164,-33.88229,0 18.43088,-33.88165,0 18.42973,-33.88087,0 18.42882,-33.8803,0 18.42738,-33.8795,0 18.42596,-33.8789,0 18.42497,-33.87849,0 18.42351,-33.87804,0 18.42217,-33.87762,0 18.42082,-33.87726,0 18.41936,-33.87689,0 18.41806,-33.87662,0 18.41695,-33.87643,0 18.41538,-33.87625,0 18.41412,-33.87611,0 18.41297,-33.87602,0 18.41137,-33.87592,0 18.41011,-33.87588,0 18.40928,-33.87584,0 18.40725,-33.87583,0 18.40611,-33.87588,0 18.40457,-33.87598,0 18.40328,-33.87602,0 18.40215,-33.87611,0 18.40084,-33.8762,0 18.39963,-33.8763,0 18.39818,-33.87648,0 18.39678,-33.87667,0 18.39586,-33.87676,0 18.3942,-33.87704,0 18.3928,-33.8773,0 18.39151,-33.87758,0 18.39044,-33.87781,0 18.38932,-33.87808,0 18.38814,-33.87844,0 18.38676,-33.8789,0 18.38562,-33.87932,0 18.38482,-33.8796,0 18.38377,-33.88005,0 18.38236,-33.88072,0 18.38139,-33.88118,0 18.38018,-33.88174,0 18.37929,-33.8822,0 18.37812,-33.88286,0 18.37721,-33.88337,0 18.37598,-33.88412,0 18.37508,-33.88472,0 18.37402,-33.88541,0 18.37315,-33.88607,0 18.37229,-33.88668,0 18.37126,-33.88742,0 18.37034,-33.88812,0 18.36931,-33.88884,0 18.36857,-33.88938,0 18.36748,-33.89022,0 18.36651,-33.89096,0 18.36561,-33.89163,0 18.36451,-33.89245,0 18.36359,-33.89305,0 18.3605,-33.89543,0 18.35771,-33.89767,0 18.35485,-33.89992,0 18.35226,-33.90218,0 18.35132,-33.90312,0 18.35059,-33.90376,0 18.3498,-33.90455,0 18.34891,-33.9055,0 18.34801,-33.90651,0 18.34728,-33.90729,0 18.34666,-33.90807,0 18.34579,-33.90907,0 18.34515,-33.9099,0 18.34454,-33.91065,0 18.34379,-33.91158,0 18.34313,-33.91241,0 18.34242,-33.91335,0 18.34162,-33.91434,0 18.34099,-33.91521,0 18.34019,-33.91629,0 18.33956,-33.91712,0 18.33893,-33.91796,0 18.3383,-33.9188,0 18.33755,-33.91982,0 18.3368,-33.92088,0 18.33624,-33.92171,0 18.33568,-33.92258,0 18.33512,-33.92345,0 18.33441,-33.92453,0 18.33384,-33.92536,0 18.33321,-33.92643,0 18.33254,-33.92752,0 18.33192,-33.92857,0 18.33138,-33.92946,0 18.3308,-33.9304,0 18.33017,-33.93151,0 18.32934,-33.93279,0 18.32873,-33.93388,0 18.32811,-33.93481,0 18.32754,-33.93575,0 18.32671,-33.93713,0 18.326,-33.93821,0 18.32475,-33.94006,0 18.32405,-33.94114,0 18.32351,-33.94199,0 18.32279,-33.94305,0 18.32211,-33.94391,0 18.32155,-33.94478,0 18.32088,-33.94569,0 18.31993,-33.94687,0 18.31839,-33.94901,0 18.31774,-33.94981,0 18.3169,-33.95101,0 18.31621,-33.95194,0 18.31555,-33.95288,0 18.3149,-33.9538,0 18.3141,-33.95503,0 18.31348,-33.95595,0 18.3127,-33.95709,0 18.31208,-33.9581,0 18.31152,-33.95906,0 18.31083,-33.96014,0 18.31012,-33.96126,0 18.30952,-33.96223,0 18.30894,-33.96316,0 18.30821,-33.96437,0 18.30759,-33.96533,0 18.30675,-33.96657,0 18.30585,-33.96796,0 18.30523,-33.96889,0 18.30271,-33.97261,0 18.30133,-33.97461,0 18.30048,-33.97587,0 18.29969,-33.97705,0 18.29902,-33.97801,0 18.29835,-33.97911,0 18.2975,-33.98048,0 18.29676,-33.98169,0 18.29601,-33.98299,0 18.29538,-33.9841,0 18.29487,-33.98504,0 18.29418,-33.98625,0 18.29347,-33.98758,0 18.29292,-33.98863,0 18.29247,-33.98951,0 18.29179,-33.99074,0 18.29126,-33.99184,0 18.29072,-33.99289,0 18.29005,-33.99435,0 18.28949,-33.99564,0 18.28909,-33.99654,0 18.28859,-33.99779,0 18.28815,-33.99898,0 18.2877,-34.00008,0 18.28732,-34.00119,0 18.28686,-34.0025,0 18.28657,-34.00348,0 18.28618,-34.00465,0 18.28588,-34.00566,0 18.28548,-34.00702,0 18.28514,-34.00809,0 18.28485,-34.00911,0 18.2845,-34.01033,0 18.28423,-34.01148,0 18.28394,-34.01265,0 18.28365,-34.0139,0 18.28342,-34.01511,0 18.28325,-34.01619,0 18.2831,-34.01733,0 18.28299,-34.0183,0 18.28293,-34.01958,0 18.28288,-34.02077,0 18.28293,-34.02214,0 18.28304,-34.02324,0 18.2832,-34.02443,0 18.28332,-34.02534,0 18.28342,-34.02629,0 18.28371,-34.02768,0 18.28388,-34.02861,0 18.28411,-34.02954,0 18.28434,-34.03043,0 18.28467,-34.03157,0 18.28495,-34.03258,0 18.28512,-34.03331,0 18.28543,-34.03429,0 18.28573,-34.03528,0 18.28607,-34.03629,0 18.28634,-34.03714,0 18.28663,-34.03793,0 18.28697,-34.0388,0 18.28737,-34.03983,0 18.28764,-34.04059,0 18.28803,-34.0415,0 18.28835,-34.04221,0 18.28875,-34.04323,0 18.28915,-34.04421,0 18.28949,-34.04498,0 18.28983,-34.04572,0 18.29022,-34.04663,0 18.29058,-34.04742,0 18.29092,-34.04817,0 18.29132,-34.0491,0 18.29161,-34.04975,0 18.29207,-34.05061,0 18.29246,-34.05148,0 18.29287,-34.05236,0 18.29327,-34.0531,0 18.29364,-34.05382,0 18.29407,-34.05473,0 18.29447,-34.05543,0 18.29493,-34.05631,0 18.29549,-34.05734,0 18.29588,-34.05803,0 18.2965,-34.05908,0 18.29678,-34.05968,0 18.29721,-34.06041,0 18.29762,-34.06114,0 18.29819,-34.06209,0 18.29863,-34.06302,0 18.2991,-34.0639,0 18.29952,-34.06462,0 18.30003,-34.06554,0 18.30036,-34.06623,0 18.30092,-34.06709,0 18.30133,-34.06772,0 18.30202,-34.06879,0 18.30265,-34.06963,0 18.30311,-34.07023,0 18.30379,-34.07116,0 18.30437,-34.07191,0 18.30496,-34.07263,0 18.30547,-34.07327,0 18.30608,-34.0741,0 18.30659,-34.07474,0 18.30734,-34.07568,0 18.30786,-34.07638,0 18.30854,-34.07731,0 18.30905,-34.07794,0 18.30963,-34.0788,0 18.3102,-34.07959,0 18.31072,-34.08029,0 18.31129,-34.08101,0 18.31175,-34.08164,0 18.31226,-34.0822,0 18.31295,-34.08299,0 18.31347,-34.08355,0 18.31415,-34.08426,0 18.31477,-34.08481,0 18.31544,-34.0854,0 18.31611,-34.086,0 18.31679,-34.08659,0 18.3174,-34.08705,0 18.31819,-34.08765,0 18.31892,-34.0882,0 18.3197,-34.08879,0 18.32043,-34.08934,0 18.32125,-34.08988,0 18.32188,-34.0903,0 18.32268,-34.09081,0 18.32329,-34.09122,0 18.32399,-34.09165,0 18.32475,-34.09213,0 18.32559,-34.09259,0 18.32637,-34.09305,0 18.32726,-34.09351,0 18.32794,-34.09392,0 18.32863,-34.09425,0 18.32972,-34.09486,0 18.33041,-34.0952,0 18.33119,-34.09557,0 18.33218,-34.09602,0 18.3331,-34.09648,0 18.334,-34.09685,0 18.33492,-34.09728,0 18.33567,-34.09761,0 18.33652,-34.09793,0 18.33738,-34.09826,0 18.33853,-34.09867,0 18.33949,-34.09909,0 18.34047,-34.09942,0 18.34122,-34.0997,0 18.3423,-34.10012,0 18.34341,-34.10046,0 18.34436,-34.10082,0 18.34521,-34.1011,0 18.34608,-34.10138,0 18.347,-34.1017,0 18.35059,-34.10289,0 18.35328,-34.10376,0 18.3572,-34.10504,0 18.35883,-34.10564,0 18.35993,-34.10603,0 18.36073,-34.10636,0 18.36159,-34.10668,0 18.36262,-34.10706,0 18.36348,-34.10738,0 18.36449,-34.10774,0 18.36531,-34.10808,0 18.36639,-34.1085,0 18.36735,-34.10884,0 18.36817,-34.1092,0 18.37097,-34.11031,0 18.37446,-34.11171,0 18.3762,-34.11241,0 18.37715,-34.11278,0 18.37801,-34.11316,0 18.38007,-34.11397,0 18.38099,-34.11436,0 18.38202,-34.11478,0 18.38287,-34.1152,0 18.38377,-34.11557,0 18.38467,-34.11598,0 18.38573,-34.11641,0 18.38659,-34.11683,0 18.38736,-34.11713,0 18.38842,-34.11763,0 18.3894,-34.11804,0 18.39014,-34.11842,0 18.39134,-34.11891,0 18.39397,-34.12004,0 18.39655,-34.12115,0 18.39919,-34.12221,0 18.40233,-34.12344,0 18.40485,-34.12442,0 18.40569,-34.12473,0 18.40651,-34.12507,0 18.40821,-34.12578,0 18.40919,-34.12619,0 18.41011,-34.12656,0 18.41079,-34.12683,0 18.41177,-34.12721,0 18.41253,-34.12752,0 18.41376,-34.12802,0 18.4146,-34.12834,0 18.4155,-34.12875,0 18.41656,-34.12917,0 18.41749,-34.12954,0 18.41858,-34.13,0 18.41959,-34.1304,0 18.42032,-34.13072,0 18.42121,-34.13104,0 18.42236,-34.13145,0 18.42312,-34.13173,0 18.42402,-34.132,0 18.42505,-34.13238,0 18.42592,-34.13264,0 18.42699,-34.13294,0 18.42779,-34.13317,0 18.42882,-34.13345,0 18.42991,-34.13368,0 18.43074,-34.13383,0 18.43192,-34.13402,0 18.43283,-34.13415,0 18.43399,-34.13425,0 18.43489,-34.13434,0 18.43603,-34.13438,0 18.43691,-34.13434,0 18.43786,-34.13429,0 18.43909,-34.13411,0 18.44033,-34.13383,0 18.4413,-34.1335,0 18.44229,-34.13315,0 18.44307,-34.13275,0 18.44414,-34.13214,0 18.44504,-34.13164,0 18.44588,-34.13104,0 18.44672,-34.13045,0 18.44761,-34.12976,0 18.44874,-34.12885,0 18.44959,-34.12814,0 18.45039,-34.12745,0 18.45137,-34.12661,0 18.45215,-34.12596,0 18.45308,-34.12516,0 18.454,-34.12445,0 18.45491,-34.12377,0 18.456,-34.12293,0 18.4568,-34.12233,0 18.45787,-34.12152,0 18.45888,-34.12074,0 18.45972,-34.1201,0 18.46056,-34.11946,0 18.46149,-34.11874,0 18.46252,-34.11786,0 18.46353,-34.11703,0 18.46443,-34.11635,0 18.46544,-34.11557,0 18.46647,-34.11483,0 18.46745,-34.11418,0 18.46863,-34.11337,0 18.46973,-34.11269,0 18.47099,-34.11194,0 18.47202,-34.11134,0 18.47305,-34.11073,0 18.47407,-34.11003,0 18.47511,-34.10915,0 18.47581,-34.10834,0 18.47654,-34.10724,0 18.47699,-34.10623,0 18.47732,-34.10513,0 18.47746,-34.1037,0 18.47746,-34.10217,0 18.47738,-34.10101,0 18.47717,-34.09951,0 18.47706,-34.0983,0 18.47687,-34.09689,0 18.47676,-34.09566,0 18.47666,-34.09402,0 18.47654,-34.09258,0 18.47648,-34.0914,0 18.47643,-34.09002,0 18.47643,-34.08844,0 18.47643,-34.08727,0 18.47637,-34.08572,0 18.47643,-34.08448,0 18.47643,-34.08298,0 18.47648,-34.08165,0 18.47654,-34.08043,0 18.47659,-34.07918,0 18.47666,-34.07777,0 18.47671,-34.07652,0 18.47677,-34.07526,0 18.47687,-34.0741,0 18.47717,-34.06991,0 18.47746,-34.06618,0 18.47775,-34.06237,0 18.47805,-34.05698,0 18.4782,-34.0532,0 18.47839,-34.04938,0 18.47844,-34.04823,0 18.47849,-34.04672,0 18.4785,-34.04562,0 18.47856,-34.0443,0 18.47861,-34.04315,0 18.47867,-34.04146,0 18.47872,-34.04022,0 18.47878,-34.03909,0 18.47878,-34.03793,0 18.47895,-34.03285,0 18.47912,-34.02824,0 18.47934,-34.02347,0 18.47946,-34.01958,0 18.4798,-34.01493,0 18.48007,-34.01129,0 18.48013,-34.01015,0 18.48015,-34.00883,0 18.48018,-34.00754,0 18.48026,-34.00622,0 18.48029,-34.00502,0 18.48032,-34.00362,0 18.48035,-34.00237,0 18.48038,-34.00115,0 18.48049,-33.99649,0 18.48063,-33.99234,0 18.48074,-33.9873,0 18.48095,-33.98341,0 18.48112,-33.9782,0 18.48119,-33.97316,0 18.48118,-33.96917,0 18.48106,-33.96516,0 18.48083,-33.95935,0 18.48061,-33.95497,0 18.48009,-33.94929,0 18.47958,-33.9451,0 18.47917,-33.94244,0 18.47889,-33.94072,0 18.47866,-33.93942,0 18.47839,-33.93782,0 18.47811,-33.93654,0 18.47788,-33.93526,0 18.47749,-33.93361,0 18.47715,-33.93228,0 18.47672,-33.93067,0 18.47631,-33.92935,0 18.47591,-33.92788,0 18.47553,-33.92661,0 18.47517,-33.92532,0 18.47471,-33.92392,0 18.47435,-33.9229,0 18.47385,-33.92139,0 18.47345,-33.92038,0 18.47284,-33.91896,0 18.47231,-33.91773,0 18.47177,-33.91667,0 18.47116,-33.91549,0 18.47048,-33.91429,0 18.46953,-33.91278,0 18.46899,-33.91196,0 18.46785,-33.91031,0 18.46712,-33.90926,0 18.46605,-33.90784,0 18.46516,-33.9066,0 18.46437,-33.90559,0 18.46367,-33.90474,0 18.46264,-33.90343,0 18.46195,-33.9025,0 18.46081,-33.90115,0 18.46001,-33.90013,0 18.45922,-33.89914,0 18.45821,-33.89799,0 18.45731,-33.89699,0 18.45591,-33.89548,0 18.4548,-33.89445,0 18.45354,-33.89343,0 18.4524,-33.89254,0 18.45115,-33.89168,0 18.44986,-33.89095,0 18.44862,-33.89026,0 18.44689,-33.88943,0 18.4461,-33.88907,0 18.44456,-33.88854,0 18.44291,-33.88802,0 18.44147,-33.88761,0 18.43987,-33.88724,0 18.43832,-33.88696,0 18.43706,-33.88682,0 18.43569,-33.88677,0 18.4341,-33.88683,0 18.43283,-33.88705,0 18.43242,-33.88719,0 18.43175,-33.88747,0 18.43117,-33.88775,0 18.43074,-33.88802,0 18.43041,-33.88824,0 18.42997,-33.88863,0 18.42957,-33.88893,0 18.42922,-33.88924,0 18.42899,-33.88947,0 18.42856,-33.88976,0 18.42836,-33.88998,0 18.428,-33.8903,0 18.42773,-33.89054,0 18.42738,-33.89099,0 18.42722,-33.89124,0 18.4271,-33.89147,0 18.42693,-33.89198,0 18.42688,-33.89231,0 18.42687,-33.89255,0 18.42682,-33.89287,0 18.42682,-33.8931,0 18.42682,-33.89351,0 18.42687,-33.89397,0 18.42688,-33.89417,0 18.42688,-33.89445,0 18.42693,-33.89492,0 18.42699,-33.89539,0 18.42704,-33.89589,0 18.4271,-33.89627,0 18.42715,-33.89648,0 18.42722,-33.89673,0 18.42728,-33.89697,0 18.42732,-33.89722,0 18.42732,-33.89758,0 18.42739,-33.89794,0 18.42739,-33.89827,0 18.42743,-33.89854,0 18.42743,-33.89882,0 18.42743,-33.89905,0 18.42743,-33.89932,0 18.42739,-33.89957,0 18.42738,-33.89983,0 18.42733,-33.90004,0 18.42721,-33.90033,0 18.42716,-33.9006,0 18.42699,-33.90083,0 18.42715,-33.90106,0 18.42749,-33.90134,0 18.42791,-33.90148,0 18.42819,-33.90157,0 18.42861,-33.90166,0 18.42884,-33.9017,0 18.42928,-33.90181,0 18.42973,-33.90184,0 18.42996,-33.90189,0 18.43031,-33.9019,0 18.43054,-33.9019,0 18.43088,-33.90185,0 18.43111,-33.90176,0 18.43145,-33.90167,0 18.43198,-33.90138,0 18.43231,-33.90115,0 18.4326,-33.90097,0 18.433,-33.90074,0 18.43338,-33.90047,0 18.43369,-33.90027,0 18.43409,-33.89999,0 18.43427,-33.89978,0 18.43467,-33.89951,0 18.43506,-33.89911,0 18.43534,-33.89877,0 18.43551,-33.89854,0 18.43586,-33.89808,0 18.43603,-33.8978,0 18.43624,-33.89726,0 18.4364,-33.8969,0 18.43655,-33.89641,0 18.33344,-33.92995,0 18.33579,-33.92706,0 18.33837,-33.92395,0 18.3405,-33.92148,0 18.34263,-33.91896,0 18.34481,-33.91635,0 18.3474,-33.91344,0 18.34974,-33.91088,0 18.35059,-33.90994,0 18.35115,-33.90939,0 18.3522,-33.90833,0 18.35295,-33.90758,0 18.35367,-33.90683,0 18.3544,-33.90614,0 18.35512,-33.90544,0 18.35608,-33.9045,0 18.35692,-33.90363,0 18.35765,-33.90289,0 18.35844,-33.90218,0 18.3593,-33.90134,0 18.36016,-33.9006,0 18.36107,-33.89976,0 18.3617,-33.89925,0 18.36262,-33.89836,0 18.36342,-33.89772,0 18.36433,-33.89692,0 18.36502,-33.89627,0 18.36578,-33.89561,0 18.36645,-33.89501,0 18.3674,-33.89424,0 18.36794,-33.8938,0 18.36903,-33.89287,0 18.36976,-33.89232,0 18.3708,-33.89152,0 18.37143,-33.89105,0 18.3725,-33.8903,0 18.37329,-33.8898,0 18.37406,-33.88929,0 18.37486,-33.88877,0 18.37581,-33.88815,0 18.37669,-33.88761,0 18.37772,-33.887,0 18.37856,-33.88651,0 18.37962,-33.88586,0 18.3807,-33.88523,0 18.38164,-33.88472,0 18.38254,-33.88422,0 18.38355,-33.88367,0 18.38459,-33.88314,0 18.3854,-33.88271,0 18.38619,-33.8823,0 18.38728,-33.88174,0 18.38814,-33.88137,0 18.38898,-33.88092,0 18.3901,-33.88037,0 18.39071,-33.88011,0 18.39195,-33.87955,0 18.39277,-33.87918,0 18.3938,-33.87877,0 18.39472,-33.87844,0 18.39575,-33.87807,0 18.39666,-33.87776,0 18.39778,-33.87753,0 18.39884,-33.87746,0 18.3997,-33.87741,0 18.40067,-33.87746,0 18.40164,-33.87746,0 18.40233,-33.87746,0 18.4035,-33.87749,0 18.40423,-33.87749,0 18.40518,-33.87744,0 18.40593,-33.87737,0 18.40703,-33.8773,0 18.40782,-33.87727,0 18.40866,-33.8773,0 18.4095,-33.8773,0 18.41051,-33.8774,0 18.41112,-33.87749,0 18.412,-33.8776,0 18.41286,-33.87776,0 18.41377,-33.87802,0 18.41469,-33.8783,0 18.41537,-33.87853,0 18.41606,-33.87877,0 18.41701,-33.87918,0 18.41768,-33.87941,0 18.41824,-33.87964,0 18.41886,-33.87987,0 18.41955,-33.88011,0 18.42018,-33.8803,0 18.42087,-33.88053,0 18.42144,-33.88072,0 18.42213,-33.88095,0 18.42276,-33.88114,0 18.4235,-33.88146,0 18.42413,-33.8817,0 18.42475,-33.88202,0 18.42536,-33.88239,0 18.42587,-33.88293,0 18.42613,-33.88337,0 18.42637,-33.8839,0 18.42643,-33.88458,0 18.4263,-33.88528,0 18.42619,-33.8856,0 18.42607,-33.88593,0 18.4259,-33.88621,0 18.42581,-33.88641,0 18.4255,-33.88682,0 18.42516,-33.88728,0 18.42459,-33.88789,0 18.42435,-33.88811,0 18.4239,-33.88858,0 18.42368,-33.88884,0 18.42351,-33.88907,0 18.42323,-33.88943,0 18.4229,-33.88994,0 18.42264,-33.89026,0 18.42241,-33.89068,0 18.42218,-33.8911,0 18.42211,-33.89131,0 18.42201,-33.8918,0 18.42201,-33.89208,0 18.42213,-33.89231,0 18.42224,-33.89254,0 18.42239,-33.89282,0 18.42262,-33.8931,0 18.4229,-33.89342,0 18.42312,-33.89369,0 18.42329,-33.89392,0 18.42357,-33.89424,0 18.42379,-33.89452,0 18.42396,-33.89474,0 18.42418,-33.89507,0 18.42436,-33.89534,0 18.42459,-33.89561,0 18.42476,-33.89589,0 18.42497,-33.89612,0 18.42522,-33.89645,0 18.42539,-33.89673,0 18.42556,-33.89697,0 18.42581,-33.89735,0 18.42609,-33.89767,0 18.42625,-33.89794,0 18.42642,-33.89817,0 18.42676,-33.89868,0 18.42693,-33.89897,0 18.42705,-33.89925,0 18.42716,-33.89948,0 18.42722,-33.89976,0 18.42721,-33.90001,0 18.42716,-33.90022,0 18.4271,-33.90051,0 18.42705,-33.90074,0 18.42693,-33.90097,0</coordinates>
      </LineString>
    </Placemark>
  </Document>
</kml>
