<?xml version="1.0" encoding="UTF-8"?>
<kml xmlns="http://www.opengis.net/kml/2.2">
  <Document>
    <name>FR24 41014b48</name>
    <Placemark>
      <name>FR24 41014b48</name>
      <Style><LineStyle><color>ff0000ff</color><width>4</width></LineStyle></Style>
      <LineString>
        <tessellate>1</tessellate>
        <coordinates>18.43277,-33.90176,0 18.4341,-33.90175,0 18.43489,-33.90152,0 18.43569,-33.90115,0 18.4362,-33.90074,0 18.43674,-33.90024,0 18.43723,-33.89957,0 18.43758,-33.89886,0 18.43781,-33.89822,0 18.43803,-33.89724,0 18.43803,-33.89635,0 18.43786,-33.89548,0 18.43769,-33.89482,0 18.43735,-33.8938,0 18.4368,-33.89273,0 18.43637,-33.89212,0 18.43573,-33.89117,0 18.43523,-33.89053,0 18.43456,-33.88957,0 18.43403,-33.88858,0 18.4338,-33.88794,0 18.43332,-33.88692,0 18.43293,-33.88614,0 18.43231,-33.88518,0 18.4317,-33.8844,0 18.43074,-33.88344,0 18.42997,-33.88277,0 18.42923,-33.8822,0 18.42825,-33.88156,0 18.42756,-33.88114,0 18.42642,-33.88053,0 18.42547,-33.8801,0 18.42452,-33.87973,0 18.4235,-33.87937,0 18.42236,-33.87909,0 18.42115,-33.87881,0 18.41992,-33.87859,0 18.41891,-33.87845,0 18.41791,-33.8784,0 18.41663,-33.87835,0 18.41538,-33.8784,0 18.41438,-33.87849,0 18.41365,-33.87859,0 18.41208,-33.87877,0 18.41063,-33.879,0 18.40925,-33.87923,0 18.40821,-33.87941,0 18.40702,-33.87965,0 18.40608,-33.87987,0 18.40513,-33.88011,0 18.40384,-33.88051,0 18.4029,-33.88081,0 18.4017,-33.88128,0 18.40073,-33.88165,0 18.39975,-33.88206,0 18.39874,-33.88248,0 18.39756,-33.88293,0 18.39661,-33.88337,0 18.39565,-33.88376,0 18.39459,-33.88426,0 18.39369,-33.88472,0 18.39283,-33.88514,0 18.39195,-33.88564,0 18.391,-33.88621,0 18.38994,-33.88683,0 18.38911,-33.88733,0 18.38837,-33.88779,0 18.38728,-33.88854,0 18.3864,-33.88907,0 18.38551,-33.8897,0 18.38472,-33.8903,0 18.3839,-33.89091,0 18.38305,-33.89157,0 18.3822,-33.89218,0 18.38114,-33.89301,0 18.38024,-33.89369,0 18.37951,-33.89429,0 18.37858,-33.89506,0 18.37772,-33.89571,0 18.37682,-33.89653,0 18.37598,-33.89731,0 18.37519,-33.89799,0 18.37452,-33.89868,0 18.37391,-33.89928,0 18.37297,-33.90018,0 18.37234,-33.90083,0 18.3716,-33.90153,0 18.37093,-33.90225,0 18.37006,-33.9032,0 18.36937,-33.90395,0 18.36857,-33.90488,0 18.368,-33.90562,0 18.36725,-33.90665,0 18.36668,-33.90744,0 18.36611,-33.90828,0 18.36542,-33.90926,0 18.36491,-33.91005,0 18.36421,-33.91109,0 18.3637,-33.91191,0 18.36296,-33.91307,0 18.36241,-33.91402,0 18.36187,-33.91489,0 18.36124,-33.91605,0 18.36079,-33.9168,0 18.36023,-33.91791,0 18.35978,-33.91869,0 18.35918,-33.91987,0 18.35877,-33.9207,0 18.35838,-33.92157,0 18.35782,-33.92271,0 18.3573,-33.92382,0 18.3569,-33.92471,0 18.35638,-33.92583,0 18.35602,-33.92665,0 18.35558,-33.92775,0 18.35512,-33.92867,0 18.35373,-33.93182,0 18.35221,-33.93507,0 18.35077,-33.93807,0 18.35036,-33.93901,0 18.34997,-33.93993,0 18.34947,-33.94112,0 18.34902,-33.94221,0 18.34863,-33.94336,0 18.3484,-33.94409,0 18.34812,-33.94542,0 18.34795,-33.94656,0 18.3479,-33.94762,0 18.34778,-33.94849,0 18.34774,-33.94948,0 18.34763,-33.9505,0 18.3475,-33.95132,0 18.34739,-33.95233,0 18.34728,-33.95306,0 18.34711,-33.95384,0 18.34688,-33.95478,0 18.3466,-33.95576,0 18.34633,-33.95663,0 18.34614,-33.9573,0 18.34593,-33.95796,0 18.3456,-33.9592,0 18.34543,-33.95984,0 18.34521,-33.96057,0 18.34504,-33.9614,0 18.34481,-33.96227,0 18.34465,-33.96293,0 18.34453,-33.96373,0 18.34459,-33.96447,0 18.34487,-33.9651,0 18.34534,-33.96554,0 18.34599,-33.96584,0 18.34689,-33.96574,0 18.34767,-33.96529,0 18.34834,-33.96469,0 18.34902,-33.96391,0 18.34963,-33.96298,0 18.35025,-33.96199,0 18.35081,-33.96098,0 18.35129,-33.96004,0 18.35192,-33.95888,0 18.35249,-33.95781,0 18.35294,-33.95686,0 18.35358,-33.95572,0 18.35415,-33.9546,0 18.35472,-33.95339,0 18.35518,-33.95247,0 18.35581,-33.9512,0 18.3563,-33.95018,0 18.35678,-33.9492,0 18.35735,-33.9479,0 18.35782,-33.94688,0 18.35833,-33.94566,0 18.35888,-33.94437,0 18.35933,-33.94327,0 18.35972,-33.9424,0 18.36021,-33.94114,0 18.36079,-33.93984,0 18.36124,-33.93874,0 18.3618,-33.93755,0 18.3623,-33.93636,0 18.36279,-33.93533,0 18.36313,-33.93453,0 18.3637,-33.93328,0 18.36428,-33.93211,0 18.36482,-33.931,0 18.36539,-33.93004,0 18.36606,-33.9288,0 18.36668,-33.92774,0 18.36725,-33.92671,0 18.36788,-33.92564,0 18.36845,-33.92471,0 18.36903,-33.92368,0 18.36966,-33.92262,0 18.37026,-33.92157,0 18.37103,-33.92038,0 18.37183,-33.91912,0 18.3724,-33.91824,0 18.37295,-33.91727,0 18.37357,-33.9164,0 18.37424,-33.91521,0 18.37604,-33.91232,0 18.37858,-33.90856,0 18.3808,-33.90555,0 18.38147,-33.90468,0 18.38224,-33.90367,0 18.38293,-33.90283,0 18.38366,-33.90193,0 18.38459,-33.90088,0 18.38551,-33.89983,0 18.38635,-33.89891,0 18.38745,-33.8978,0 18.38831,-33.89699,0 18.38934,-33.89608,0 18.39031,-33.89529,0 18.39128,-33.89459,0 18.39229,-33.89388,0 18.39369,-33.89291,0 18.39487,-33.89214,0 18.39586,-33.89157,0 18.39718,-33.89073,0 18.39818,-33.89017,0 18.39935,-33.88957,0 18.40053,-33.88893,0 18.40187,-33.88829,0 18.40296,-33.88779,0 18.40427,-33.88719,0 18.40542,-33.88668,0 18.40696,-33.88612,0 18.40832,-33.88564,0 18.4095,-33.88527,0 18.41084,-33.8849,0 18.41251,-33.88454,0 18.41377,-33.88426,0 18.41497,-33.88403,0 18.41669,-33.88374,0 18.41802,-33.88353,0 18.4192,-33.88335,0 18.42098,-33.88314,0 18.42218,-33.88305,0 18.42334,-33.88303,0 18.42476,-33.88305,0 18.42579,-33.88319,0 18.42682,-33.88335,0 18.42794,-33.88362,0 18.42878,-33.88394,0 18.42979,-33.88445,0 18.43037,-33.88491,0 18.431,-33.88547,0 18.43151,-33.88607,0 18.43197,-33.88696,0 18.4322,-33.88761,0 18.43231,-33.88843,0 18.43231,-33.88914,0 18.43225,-33.88975,0 18.43214,-33.89044,0 18.43198,-33.89117,0 18.43175,-33.89177,0 18.43157,-33.89231,0 18.4313,-33.89291,0 18.43108,-33.89342,0 18.43065,-33.89417,0 18.43037,-33.89468,0 18.42997,-33.89524,0 18.42962,-33.89584,0 18.42923,-33.89639,0 18.42884,-33.8969,0 18.4285,-33.8974,0 18.42825,-33.89771,0 18.42791,-33.89817,0 18.42766,-33.89854,0 18.42738,-33.89905,0 18.42728,-33.89939,0 18.42721,-33.89964,0 18.4271,-33.89996,0 18.42705,-33.90022,0 18.42693,-33.90047,0 18.42688,-33.90074,0 18.42693,-33.90097,0 18.42715,-33.90097,0 18.42739,-33.90106,0 18.428,-33.90125,0 18.42833,-33.90129,0 18.42867,-33.90134,0 18.42899,-33.90139,0 18.42929,-33.90143,0 18.43002,-33.90153,0 18.43024,-33.90157,0 18.43054,-33.90162,0 18.43108,-33.9017,0 18.43147,-33.90175,0 18.43191,-33.90181,0 18.43242,-33.90184,0 18.43323,-33.9019,0 18.43382,-33.90184,0 18.43461,-33.9017,0 18.43552,-33.90139,0 18.43618,-33.90092,0 18.43685,-33.90028,0 18.43724,-33.89969,0 18.43758,-33.899,0 18.43775,-33.89808,0 18.43775,-33.89726,0 18.43763,-33.89641,0 18.43747,-33.89561,0 18.43723,-33.89482,0 18.43678,-33.89371,0 18.4364,-33.89291,0 18.43586,-33.89198,0 18.43551,-33.89122,0 18.43523,-33.89059,0 18.43483,-33.88962,0 18.4345,-33.8887,0 18.43403,-33.88775,0 18.43369,-33.88696,0 18.43321,-33.88618,0 18.43243,-33.88519,0 18.43186,-33.88458,0 18.431,-33.88379,0 18.43014,-33.88319,0 18.42928,-33.88272,0 18.42842,-33.88235,0 18.42704,-33.88193,0 18.42592,-33.8817,0 18.42469,-33.88156,0 18.42368,-33.88147,0 18.42239,-33.88142,0 18.42138,-33.88142,0 18.42024,-33.88142,0 18.41904,-33.88151,0 18.41796,-33.88156,0 18.41679,-33.88165,0 18.41572,-33.88174,0 18.4144,-33.88184,0 18.41343,-33.88198,0 18.41247,-33.88211,0 18.41118,-33.88234,0 18.40995,-33.88257,0 18.40899,-33.8828,0 18.40793,-33.88307,0 18.40703,-33.8833,0 18.40593,-33.88365,0 18.40467,-33.88412,0 18.40393,-33.88435,0 18.40277,-33.88477,0 18.40181,-33.88514,0 18.40084,-33.88551,0 18.39969,-33.886,0 18.39896,-33.88628,0 18.39764,-33.88686,0 18.39672,-33.88728,0 18.39558,-33.88775,0 18.3947,-33.88815,0 18.39363,-33.88866,0 18.3924,-33.8893,0 18.39151,-33.8898,0 18.39043,-33.8904,0 18.38957,-33.89091,0 18.38877,-33.89143,0 18.38781,-33.892,0 18.38682,-33.89268,0 18.38601,-33.89323,0 18.38528,-33.8938,0 18.38444,-33.89438,0 18.38333,-33.89524,0 18.38237,-33.89594,0 18.38167,-33.8965,0 18.38081,-33.89715,0 18.3799,-33.89786,0 18.37906,-33.8985,0 18.37811,-33.89923,0 18.37727,-33.89999,0 18.37646,-33.90069,0 18.37572,-33.90134,0 18.37475,-33.90225,0 18.37412,-33.90288,0 18.37323,-33.90376,0 18.37245,-33.90463,0 18.37166,-33.90558,0 18.37103,-33.90637,0 18.37032,-33.90733,0 18.36966,-33.90818,0 18.36897,-33.90916,0 18.36847,-33.90994,0 18.36791,-33.91077,0 18.3672,-33.91182,0 18.36668,-33.91256,0 18.36606,-33.9136,0 18.36554,-33.91452,0 18.36494,-33.91557,0 18.36443,-33.91644,0 18.36376,-33.91768,0 18.3633,-33.91856,0 18.36281,-33.91946,0 18.36233,-33.92048,0 18.36182,-33.92141,0 18.36129,-33.92249,0 18.36079,-33.92345,0 18.36039,-33.9242,0 18.35987,-33.92527,0 18.35838,-33.92834,0 18.35675,-33.93196,0 18.35619,-33.93329,0 18.35581,-33.93416,0 18.3553,-33.93535,0 18.35485,-33.93631,0 18.3539,-33.93842,0 18.35358,-33.93919,0 18.35305,-33.94048,0 18.35209,-33.94268,0 18.35163,-33.94375,0 18.35043,-33.94659,0 18.34923,-33.94948,0 18.3478,-33.95306,0 18.34649,-33.95641,0 18.34504,-33.96016,0 18.34156,-33.96875,0 18.34033,-33.97128,0 18.33916,-33.97364,0 18.33814,-33.97604,0 18.33727,-33.97852,0 18.33635,-33.98085,0 18.33538,-33.98351,0 18.33456,-33.98598,0 18.33389,-33.98825,0 18.33355,-33.98951,0 18.33332,-33.99049,0 18.33303,-33.99212,0 18.33281,-33.99333,0 18.33265,-33.99454,0 18.33248,-33.99582,0 18.33237,-33.99678,0 18.33223,-33.99803,0 18.33218,-33.9992,0 18.33212,-34.00045,0 18.33212,-34.00166,0 18.33218,-34.00306,0 18.33223,-34.00431,0 18.33231,-34.00534,0 18.33246,-34.0065,0 18.33265,-34.00763,0 18.33282,-34.00868,0 18.33304,-34.00969,0 18.33327,-34.01065,0 18.3336,-34.01189,0 18.33384,-34.01283,0 18.33424,-34.01418,0 18.33456,-34.01518,0 18.33484,-34.01619,0 18.33517,-34.01738,0 18.33549,-34.01842,0 18.33585,-34.01944,0 18.33629,-34.02068,0 18.33664,-34.02172,0 18.3371,-34.02303,0 18.33742,-34.02402,0 18.33781,-34.02502,0 18.33904,-34.0285,0 18.3403,-34.03225,0 18.3415,-34.03602,0 18.34308,-34.041,0 18.34362,-34.04323,0 18.34396,-34.04482,0 18.3442,-34.04594,0 18.34437,-34.04704,0 18.34454,-34.04803,0 18.34476,-34.04938,0 18.34487,-34.05038,0 18.34499,-34.05147,0 18.34515,-34.0529,0 18.34522,-34.05399,0 18.34532,-34.05505,0 18.34543,-34.05606,0 18.34554,-34.05739,0 18.3456,-34.05844,0 18.34568,-34.05948,0 18.34574,-34.0605,0 18.34579,-34.06171,0 18.34577,-34.06302,0 18.34579,-34.06404,0 18.34579,-34.06516,0 18.34577,-34.06613,0 18.34579,-34.06739,0 18.34577,-34.06847,0 18.34568,-34.06953,0 18.34562,-34.07074,0 18.34554,-34.07181,0 18.34543,-34.07291,0 18.34538,-34.07391,0 18.34526,-34.07524,0 18.34517,-34.07652,0 18.34511,-34.07782,0 18.34498,-34.07909,0 18.34494,-34.08024,0 18.34481,-34.08165,0 18.34476,-34.08261,0 18.3447,-34.08389,0 18.34459,-34.08742,0 18.34459,-34.09123,0 18.34465,-34.09506,0 18.34465,-34.09616,0 18.34459,-34.09767,0 18.34454,-34.09877,0 18.34448,-34.10003,0 18.34436,-34.10105,0 18.34425,-34.10234,0 18.34403,-34.10371,0 18.34386,-34.10472,0 18.34386,-34.106,0 18.34396,-34.10701,0 18.34409,-34.10811,0 18.34408,-34.10925,0 18.34403,-34.11026,0 18.34385,-34.11129,0 18.34364,-34.11218,0 18.34328,-34.1132,0 18.34288,-34.11413,0 18.34224,-34.11534,0 18.34173,-34.11627,0 18.3411,-34.11725,0 18.34053,-34.118,0 18.33961,-34.11925,0 18.3387,-34.12028,0 18.33796,-34.12102,0 18.33685,-34.12193,0 18.33607,-34.1226,0 18.335,-34.1234,0 18.33388,-34.12413,0 18.33292,-34.12479,0 18.33178,-34.12544,0 18.33097,-34.12592,0 18.32966,-34.1267,0 18.32862,-34.12733,0 18.32777,-34.12786,0 18.3271,-34.12834,0 18.32634,-34.12889,0 18.32626,-34.12921,0 18.32663,-34.1294,0 18.32714,-34.1294,0 18.32783,-34.1293,0 18.32869,-34.12907,0 18.33,-34.12856,0 18.33091,-34.12807,0 18.33198,-34.12733,0 18.33286,-34.12647,0 18.33355,-34.12578,0 18.33433,-34.12473,0 18.335,-34.12372,0 18.33545,-34.12303,0 18.33618,-34.12167,0 18.3367,-34.12074,0 18.33721,-34.11953,0 18.33764,-34.11859,0 18.33813,-34.11744,0 18.33847,-34.1165,0 18.33882,-34.11552,0 18.33921,-34.11446,0 18.33954,-34.11346,0 18.3399,-34.11232,0 18.34013,-34.11139,0 18.34044,-34.11031,0 18.3407,-34.10925,0 18.34099,-34.10771,0 18.34123,-34.10674,0 18.34139,-34.10559,0 18.34156,-34.10435,0 18.34173,-34.10329,0 18.34184,-34.10225,0 18.34196,-34.10119,0 18.34207,-34.09996,0 18.34218,-34.09895,0 18.34224,-34.09795,0 18.34236,-34.09668,0 18.34246,-34.09534,0 18.34259,-34.09416,0 18.3427,-34.09295,0 18.3428,-34.09186,0 18.34288,-34.09067,0 18.34311,-34.08829,0 18.34324,-34.08719,0 18.34347,-34.08586,0 18.34368,-34.08457,0 18.34391,-34.08331,0 18.34414,-34.08211,0 18.34431,-34.08105,0 18.34454,-34.07964,0 18.34482,-34.07838,0 18.34504,-34.07707,0 18.34597,-34.07214,0 18.34654,-34.0687,0 18.34694,-34.0654,0 18.34711,-34.06407,0 18.34728,-34.06255,0 18.3474,-34.06153,0 18.34756,-34.06013,0 18.34762,-34.05927,0 18.34774,-34.05785,0 18.3479,-34.05666,0 18.34801,-34.05528,0 18.34814,-34.05417,0 18.34823,-34.05286,0 18.34826,-34.05143,0 18.3482,-34.05012,0 18.34806,-34.04883,0 18.3479,-34.04755,0 18.34778,-34.04649,0 18.34762,-34.04544,0 18.3474,-34.04426,0 18.34722,-34.04311,0 18.34694,-34.04169,0 18.34661,-34.04008,0 18.34631,-34.039,0 18.34593,-34.0377,0 18.34551,-34.03648,0 18.34498,-34.035,0 18.34453,-34.034,0 18.34402,-34.03271,0 18.34356,-34.03159,0 18.34308,-34.03033,0 18.34265,-34.02936,0 18.34208,-34.0281,0 18.34134,-34.02695,0 18.3407,-34.0262,0 18.33966,-34.02512,0 18.33898,-34.02443,0 18.33809,-34.02361,0 18.33727,-34.02275,0 18.33647,-34.02182,0 18.33561,-34.02066,0 18.33504,-34.01977,0 18.33452,-34.01879,0 18.33395,-34.0173,0 18.33378,-34.01651,0 18.33366,-34.01418,0 18.33383,-34.01285,0 18.334,-34.0118,0 18.33429,-34.01078,0 18.33469,-34.00953,0 18.33517,-34.00827,0 18.33561,-34.0072,0 18.33618,-34.00585,0 18.33658,-34.00492,0 18.33708,-34.00388,0 18.33778,-34.0025,0 18.34219,-33.99612,0 18.34638,-33.99092,0 18.34874,-33.98849,0 18.3534,-33.98402,0 18.35764,-33.97997,0 18.36182,-33.97564,0 18.36376,-33.97317,0 18.36542,-33.9708,0 18.36674,-33.96824,0 18.36748,-33.966,0 18.36817,-33.96316,0 18.3688,-33.96002,0 18.36914,-33.95809,0 18.36926,-33.95702,0 18.36943,-33.95544,0 18.36959,-33.95384,0 18.3697,-33.95256,0 18.36981,-33.95137,0 18.36988,-33.94989,0 18.36998,-33.94858,0 18.37009,-33.94716,0 18.37017,-33.94598,0 18.37026,-33.94469,0 18.37034,-33.94333,0 18.37037,-33.94189,0 18.37046,-33.94054,0 18.37065,-33.93553,0 18.37091,-33.93165,0 18.37097,-33.93062,0 18.37116,-33.92931,0 18.37143,-33.92792,0 18.37166,-33.92683,0 18.37194,-33.92578,0 18.37222,-33.92468,0 18.37262,-33.9234,0 18.37303,-33.92215,0 18.37337,-33.92117,0 18.37385,-33.91983,0 18.37419,-33.91891,0 18.37458,-33.91795,0 18.37509,-33.91675,0 18.37564,-33.91553,0 18.3762,-33.91438,0 18.37671,-33.91351,0 18.37721,-33.91247,0 18.37766,-33.91141,0 18.37801,-33.91037,0 18.37822,-33.90912,0 18.37841,-33.90781,0 18.37858,-33.90688,0 18.37878,-33.90578,0 18.37906,-33.90454,0 18.3795,-33.90348,0 18.38013,-33.90227,0 18.38076,-33.90134,0 18.38161,-33.90032,0 18.38247,-33.89943,0 18.3835,-33.89846,0 18.38453,-33.89753,0 18.38528,-33.89697,0 18.38635,-33.89616,0 18.38734,-33.89557,0 18.3887,-33.89479,0 18.38977,-33.89424,0 18.39089,-33.89369,0 18.39186,-33.89324,0 18.39319,-33.89264,0 18.39442,-33.89209,0 18.3956,-33.89154,0 18.39666,-33.8911,0 18.39787,-33.89054,0 18.39918,-33.88993,0 18.40008,-33.88948,0 18.4013,-33.88887,0 18.40232,-33.88834,0 18.40344,-33.8877,0 18.40456,-33.88705,0 18.40563,-33.88641,0 18.40656,-33.88584,0 18.40771,-33.88519,0 18.40885,-33.88458,0 18.40977,-33.88412,0 18.41085,-33.88356,0 18.41213,-33.88298,0 18.41349,-33.88239,0 18.41452,-33.88198,0 18.416,-33.88142,0 18.41684,-33.8811,0 18.41835,-33.88058,0 18.41964,-33.88019,0 18.42076,-33.87987,0 18.42196,-33.87955,0 18.4234,-33.87932,0 18.42464,-33.87928,0 18.4259,-33.87946,0 18.42693,-33.87978,0 18.42805,-33.88033,0 18.42905,-33.88114,0 18.42968,-33.88184,0 18.43014,-33.88258,0 18.43057,-33.88348,0 18.43091,-33.88435,0 18.43119,-33.88518,0 18.43134,-33.88589,0 18.43145,-33.88654,0 18.43157,-33.88733,0 18.43163,-33.88803,0 18.43164,-33.88861,0 18.43158,-33.8893,0 18.43153,-33.88989,0 18.4314,-33.89054,0 18.4313,-33.89108,0 18.43114,-33.89159,0 18.431,-33.89222,0 18.43085,-33.89273,0 18.4308,-33.89328,0 18.43088,-33.89389,0 18.43119,-33.89438,0 18.43157,-33.89473,0 18.4322,-33.8951,0 18.43277,-33.89543,0 18.43349,-33.8958,0 18.43414,-33.89627,0 18.4345,-33.8969,0 18.4346,-33.89738,0 18.43443,-33.89785,0 18.43405,-33.89822,0 18.4334,-33.89855,0 18.4327,-33.89873,0 18.43191,-33.89892,0 18.43122,-33.89906,0 18.4308,-33.89914,0 18.43046,-33.89919,0 18.43001,-33.89928,0 18.42951,-33.89943,0 18.42922,-33.89948,0 18.42805,-33.9001,0 18.42773,-33.90032,0 18.42743,-33.90047,0 18.42722,-33.90074,0 18.42699,-33.90092,0 18.42693,-33.90069,0 18.42699,-33.90033,0 18.42715,-33.9001,0 18.42739,-33.89976,0 18.42779,-33.89934,0 18.42836,-33.89878,0 18.42865,-33.8985,0 18.42895,-33.89832,0 18.42945,-33.89785,0 18.42973,-33.89763,0 18.42996,-33.89745,0 18.43024,-33.89722,0 18.43046,-33.89699,0 18.4308,-33.89671,0 18.43136,-33.89612,0 18.4318,-33.89566,0 18.43237,-33.89506,0 18.43283,-33.89455,0 18.43334,-33.89384,0 18.43386,-33.8932,0 18.43433,-33.89246,0 18.43472,-33.89175,0 18.43506,-33.89104,0 18.43534,-33.89031,0 18.43556,-33.88962,0 18.43573,-33.88893,0 18.4359,-33.88797,0 18.43597,-33.88719,0 18.43592,-33.88626,0 18.4358,-33.88542,0 18.43556,-33.88472,0 18.43529,-33.88398,0 18.43483,-33.88312,0 18.43427,-33.88229,0 18.43377,-33.88161,0 18.43287,-33.8806,0 18.43237,-33.88014,0 18.4314,-33.87928,0 18.43071,-33.87877,0 18.42997,-33.87825,0 18.42882,-33.87751,0 18.42808,-33.87713,0 18.42693,-33.87662,0 18.42609,-33.8763,0 18.42508,-33.87598,0 18.42396,-33.8757,0 18.4229,-33.87547,0 18.42196,-33.87532,0 18.42082,-33.8752,0 18.41987,-33.87511,0 18.41897,-33.87506,0 18.41772,-33.87504,0 18.41698,-33.87504,0 18.41566,-33.87511,0 18.4148,-33.87518,0 18.4136,-33.87532,0 18.41258,-33.87543,0 18.41137,-33.8756,0 18.41034,-33.87575,0 18.40933,-33.87593,0 18.40822,-33.87616,0 18.40703,-33.87639,0 18.40608,-33.87662,0 18.40496,-33.87694,0 18.4037,-33.87732,0 18.40273,-33.87765,0 18.40182,-33.87799,0 18.40075,-33.87836,0 18.39981,-33.87872,0 18.39846,-33.87923,0 18.39752,-33.87965,0 18.39643,-33.88011,0 18.39554,-33.88051,0 18.39464,-33.88092,0 18.39352,-33.88142,0 18.39257,-33.88188,0 18.39146,-33.88249,0 18.3906,-33.88295,0 18.38968,-33.88342,0 18.38876,-33.88394,0 18.38779,-33.88454,0 18.38691,-33.88504,0 18.38579,-33.88573,0 18.38499,-33.88621,0 18.38388,-33.88696,0 18.38276,-33.88775,0 18.38186,-33.88834,0 18.38087,-33.88905,0 18.38001,-33.88971,0 18.37904,-33.89045,0 18.37822,-33.89108,0 18.37749,-33.89172,0 18.37664,-33.89245,0 18.37587,-33.8931,0 18.37498,-33.89389,0 18.37412,-33.89468,0 18.37349,-33.89529,0 18.37267,-33.89616,0 18.37189,-33.89694,0 18.3712,-33.89766,0 18.37063,-33.89832,0 18.36998,-33.89909,0 18.36925,-33.89992,0 18.36869,-33.90065,0 18.36805,-33.90144,0 18.36737,-33.90237,0 18.36695,-33.90303,0 18.36617,-33.90413,0 18.36565,-33.90493,0 18.3651,-33.90582,0 18.36454,-33.90669,0 18.36398,-33.9077,0 18.36348,-33.90856,0 18.36281,-33.90971,0 18.36239,-33.91051,0 18.3618,-33.91164,0 18.36135,-33.91246,0 18.3609,-33.9133,0 18.36023,-33.91447,0 18.35981,-33.91535,0 18.35941,-33.9161,0 18.35901,-33.91689,0 18.35855,-33.91773,0 18.35804,-33.91875,0 18.35748,-33.91978,0 18.35709,-33.92061,0 18.35664,-33.92162,0 18.35615,-33.92266,0 18.35473,-33.92569,0 18.35311,-33.92953,0 18.35152,-33.93323,0 18.34991,-33.937,0 18.34868,-33.93983,0 18.34745,-33.94277,0 18.347,-33.94391,0 18.34665,-33.94473,0 18.34621,-33.94588,0 18.34577,-33.94707,0 18.34538,-33.94803,0 18.34504,-33.94894,0 18.34459,-33.95004,0 18.34414,-33.95123,0 18.34375,-33.95215,0 18.34333,-33.95329,0 18.34296,-33.95439,0 18.34259,-33.95553,0 18.34219,-33.9566,0 18.34179,-33.95776,0 18.34151,-33.95847,0 18.34122,-33.95939,0 18.33973,-33.964,0 18.33824,-33.96856,0 18.33658,-33.97322,0 18.33452,-33.97908,0 18.33304,-33.98442,0 18.33215,-33.98813,0 18.3317,-33.99042,0 18.33149,-33.99165,0 18.33136,-33.99289,0 18.33125,-33.99413,0 18.33115,-33.99477,0 18.33102,-33.99641,0 18.33097,-33.9977,0 18.33097,-33.99892,0 18.33092,-34.00013,0 18.33092,-34.00148,0 18.33092,-34.0025,0 18.33092,-34.00329,0 18.33103,-34.00464,0 18.33114,-34.00607,0 18.33125,-34.00754,0 18.33136,-34.00882,0 18.33155,-34.01009,0 18.34173,-33.987,0 18.34403,-33.98154,0 18.34648,-33.97592,0 18.34883,-33.97047,0 18.35104,-33.96487,0 18.35316,-33.95961,0 18.35535,-33.95399,0 18.35667,-33.95018,0 18.3581,-33.94611,0 18.35944,-33.94203,0 18.36136,-33.93626,0 18.36267,-33.93248,0 18.36398,-33.92885,0 18.36533,-33.92523,0 18.36674,-33.92192,0 18.36765,-33.91978,0 18.36823,-33.91847,0 18.36875,-33.91745,0 18.36914,-33.91663,0 18.36971,-33.91554,0 18.37037,-33.91434,0 18.37103,-33.91321,0 18.37177,-33.912,0 18.37234,-33.91107,0 18.3732,-33.90991,0 18.37383,-33.90902,0 18.37463,-33.90795,0 18.37543,-33.90693,0 18.37618,-33.90595,0 18.37688,-33.90514,0 18.37777,-33.90404,0 18.37847,-33.9032,0 18.37934,-33.90225,0 18.38035,-33.9012,0 18.38108,-33.90038,0 18.38198,-33.89951,0 18.38304,-33.8985,0 18.3843,-33.89738,0 18.38512,-33.89671,0 18.38618,-33.89584,0 18.38708,-33.89516,0 18.38825,-33.89429,0 18.38921,-33.89365,0 18.39043,-33.89287,0 18.39146,-33.89222,0 18.39266,-33.89152,0 18.39397,-33.89081,0 18.39526,-33.89017,0 18.39672,-33.88942,0 18.39795,-33.88889,0 18.39907,-33.88838,0 18.40047,-33.88783,0 18.40153,-33.88742,0 18.40277,-33.88696,0 18.40422,-33.88644,0 18.40529,-33.88605,0 18.40658,-33.88564,0 18.40776,-33.88527,0 18.40937,-33.88472,0 18.41073,-33.88435,0 18.4118,-33.88403,0 18.41297,-33.88374,0 18.41457,-33.88337,0 18.41611,-33.88307,0 18.41712,-33.88289,0 18.41846,-33.88272,0 18.42001,-33.88258,0 18.42133,-33.88253,0 18.42287,-33.88258,0 18.42452,-33.88266,0 18.42585,-33.88286,0 18.42693,-33.88303,0 18.42819,-33.88328,0 18.42962,-33.88371,0 18.43114,-33.88422,0 18.43237,-33.88472,0 18.43343,-33.88522,0 18.4346,-33.88575,0 18.43584,-33.88637,0 18.43719,-33.88701,0 18.43842,-33.88765,0 18.43971,-33.88843,0 18.4405,-33.88893,0 18.44158,-33.88975,0 18.44233,-33.89045,0 18.44302,-33.89122,0 18.44364,-33.89222,0 18.44393,-33.89324,0 18.44393,-33.89403,0 18.44358,-33.89497,0 18.44313,-33.89566,0 18.44244,-33.89622,0 18.44147,-33.89669,0 18.44072,-33.89694,0 18.43992,-33.89715,0 18.43893,-33.89735,0 18.4382,-33.89754,0 18.43746,-33.89766,0 18.43672,-33.8978,0 18.43586,-33.89799,0 18.43512,-33.89813,0 18.43426,-33.89832,0 18.43363,-33.89841,0 18.43283,-33.89859,0 18.4322,-33.89877,0 18.43153,-33.89891,0 18.43048,-33.8992,0 18.42968,-33.89943,0 18.42911,-33.89962,0 18.42844,-33.89983,0 18.42811,-33.89992,0 18.42788,-33.90005,0 18.42766,-33.90015,0 18.42743,-33.90033,0 18.42722,-33.9006,0 18.42704,-33.90083,0 18.42693,-33.90038,0 18.4271,-33.90013,0 18.42728,-33.8999,0 18.42768,-33.89948,0 18.42802,-33.89911,0 18.42825,-33.89878,0 18.42844,-33.89854,0 18.42884,-33.89804,0 18.429,-33.89777,0 18.42928,-33.89738,0 18.42974,-33.89678,0 18.42997,-33.8965,0 18.43014,-33.89627,0 18.43063,-33.89557,0 18.43097,-33.89507,0 18.43142,-33.89442,0 18.43186,-33.89374,0 18.43225,-33.89315,0 18.43283,-33.89217,0 18.43317,-33.89147,0 18.43363,-33.89059,0 18.43405,-33.88962,0 18.43433,-33.88875,0 18.43456,-33.88802,0 18.43472,-33.88724,0 18.43483,-33.88623,0 18.43489,-33.88541,0 18.43483,-33.88449,0 18.4346,-33.88346,0 18.43439,-33.88261,0 18.43405,-33.88165,0 18.43369,-33.88076,0 18.43334,-33.87997,0 18.43287,-33.87914,0 18.43237,-33.87844,0 18.43164,-33.87744,0 18.43085,-33.87662,0 18.43007,-33.87584,0 18.42923,-33.8752,0 18.42828,-33.87456,0 18.42738,-33.87401,0 18.42648,-33.87355,0 18.4255,-33.87318,0 18.42458,-33.87286,0 18.4234,-33.87259,0 18.422,-33.87236,0 18.42127,-33.87231,0 18.42007,-33.87225,0 18.41898,-33.87225,0 18.41812,-33.87225,0 18.41692,-33.87234,0 18.41589,-33.8725,0 18.41503,-33.87262,0 18.41394,-33.87281,0 18.41297,-33.87299,0 18.41206,-33.87318,0 18.41114,-33.87341,0 18.41006,-33.87369,0 18.40902,-33.87397,0 18.40793,-33.87433,0 18.4072,-33.87456,0 18.40619,-33.87488,0 18.40546,-33.87511,0 18.40427,-33.87555,0 18.40316,-33.87598,0 18.40221,-33.87634,0 18.40101,-33.87685,0 18.40019,-33.87721,0 18.39907,-33.87767,0 18.39829,-33.87804,0 18.39724,-33.87853,0 18.39633,-33.879,0 18.39548,-33.87941,0 18.39453,-33.87987,0 18.39347,-33.88037,0 18.39263,-33.88083,0 18.39186,-33.88123,0 18.39111,-33.88165,0 18.39008,-33.88226,0 18.38945,-33.88263,0 18.38825,-33.88333,0 18.3873,-33.88394,0 18.38652,-33.88445,0 18.38556,-33.88504,0 18.38459,-33.8857,0 18.38396,-33.88617,0 18.38299,-33.88683,0 18.38202,-33.88756,0 18.3813,-33.88811,0 18.38058,-33.88866,0 18.37973,-33.8893,0 18.37875,-33.89008,0 18.37818,-33.89054,0 18.37715,-33.89143,0 18.37635,-33.89208,0 18.37561,-33.89268,0 18.37486,-33.89333,0 18.37378,-33.89422,0 18.37315,-33.89478,0 18.37245,-33.89539,0 18.37177,-33.89603,0 18.37091,-33.89687,0 18.36994,-33.8978,0 18.36925,-33.8985,0 18.36869,-33.89909,0 18.36785,-33.90001,0 18.36735,-33.9006,0 18.36657,-33.90148,0 18.36595,-33.90225,0 18.36548,-33.90283,0 18.36473,-33.90376,0 18.36415,-33.90463,0 18.36359,-33.90539,0 18.36303,-33.90619,0 18.36245,-33.90707,0 18.36191,-33.90788,0 18.36135,-33.9088,0 18.3609,-33.90953,0 18.36039,-33.91047,0 18.35989,-33.91132,0 18.35947,-33.91214,0 18.35894,-33.91315,0 18.35844,-33.91419,0 18.35798,-33.91512,0 18.35747,-33.9161,0 18.35709,-33.9169,0 18.3567,-33.91777,0 18.35627,-33.91885,0 18.35574,-33.92001,0 18.35535,-33.92094,0 18.35485,-33.92216,0 18.35451,-33.92303,0 18.35415,-33.92397,0 18.35369,-33.92508,0 18.35289,-33.92727,0 18.35255,-33.92806,0 18.35129,-33.93151,0 18.3498,-33.93576,0 18.34885,-33.93869,0 18.34834,-33.94011,0 18.34762,-33.94221,0 18.34728,-33.94327,0 18.34683,-33.94441,0 18.34554,-33.94807,0 18.34442,-33.95137,0 18.34324,-33.95485,0 18.34212,-33.95847,0 18.34122,-33.96111,0 18.34082,-33.96228,0 18.3403,-33.96381,0 18.34013,-33.96423,0 18.33915,-33.96689,0 18.33904,-33.96712,0 18.33831,-33.96927,0 18.33796,-33.97028,0 18.3371,-33.9728,0 18.33532,-33.97848,0 18.33458,-33.98122,0 18.33389,-33.98411,0 18.33315,-33.98714,0 18.33223,-33.99207,0 18.42704,-33.90115,0 18.42704,-33.90088,0 18.4271,-33.90051,0 18.42727,-33.90015,0 18.42749,-33.89978,0 18.42772,-33.89946,0 18.42788,-33.89909,0 18.42805,-33.89882,0 18.42813,-33.89859,0 18.42828,-33.89827,0 18.42844,-33.89795,0 18.42859,-33.89762,0 18.42871,-33.89729,0 18.42895,-33.89676,0 18.429,-33.89653,0 18.42934,-33.89566,0 18.42951,-33.89529,0 18.42968,-33.89487,0 18.42985,-33.8945,0 18.43007,-33.89392,0 18.43019,-33.89371,0 18.43042,-33.89315,0 18.4306,-33.89273,0 18.43077,-33.89231,0 18.43105,-33.89166,0 18.43134,-33.8911,0 18.43151,-33.89063,0 18.43181,-33.88994,0 18.43203,-33.88947,0 18.4322,-33.889,0 18.43265,-33.88783,0 18.43311,-33.88668,0 18.43343,-33.88573,0 18.4338,-33.88486,0 18.43431,-33.88365,0 18.43467,-33.88266,0 18.43523,-33.88132,0 18.43562,-33.88033,0 18.43607,-33.87923,0 18.43637,-33.8783,0 18.43695,-33.877,0 18.43741,-33.87579,0 18.4387,-33.87273,0 18.43918,-33.87178,0 18.43964,-33.8708,0 18.44004,-33.86987,0 18.44061,-33.86871,0 18.441,-33.86787,0 18.44158,-33.86666,0 18.44201,-33.86577,0 18.44255,-33.86466,0 18.44364,-33.86252,0 18.44419,-33.86147,0 18.44476,-33.86046,0 18.4465,-33.8573,0 18.44822,-33.854,0 18.44976,-33.85093,0 18.45047,-33.84943,0 18.45091,-33.8485,0 18.45137,-33.84746,0 18.45308,-33.84357,0 18.45354,-33.8425,0 18.45446,-33.8405,0 18.45496,-33.83926,0 18.45537,-33.83836,0 18.45686,-33.83519,0 18.45849,-33.83203,0 18.45909,-33.83081,0 18.45983,-33.82933,0 18.46024,-33.82849,0 18.46081,-33.82742,0 18.46129,-33.82645,0 18.46172,-33.8256,0 18.4623,-33.82458,0 18.46292,-33.82341,0 18.4635,-33.82234,0 18.4651,-33.8195,0 18.4671,-33.81606,0 18.46882,-33.81326,0 18.46936,-33.81262,0 18.4702,-33.81171,0 18.47099,-33.81094,0 18.472,-33.8101,0 18.47265,-33.80964,0 18.47363,-33.80893,0 18.47452,-33.80836,0 18.47592,-33.80754,0 18.47694,-33.80693,0 18.47792,-33.80642,0 18.47912,-33.80577,0 18.48018,-33.80521,0 18.48118,-33.80474,0 18.48232,-33.80419,0 18.48366,-33.80356,0 18.48461,-33.80316,0 18.48573,-33.80264,0 18.48707,-33.80204,0 18.48816,-33.80163,0 18.48965,-33.80107,0 18.49077,-33.80063,0 18.4919,-33.80017,0 18.49297,-33.79976,0 18.49436,-33.79926,0 18.49548,-33.79884,0 18.4968,-33.79842,0 18.49812,-33.79795,0 18.49926,-33.79753,0 18.50069,-33.79707,0 18.50187,-33.79665,0 18.50292,-33.79632,0 18.50407,-33.79599,0 18.50535,-33.79559,0 18.50653,-33.79527,0 18.50798,-33.79491,0 18.50904,-33.79464,0 18.5103,-33.79432,0 18.51173,-33.79399,0 18.51288,-33.79371,0 18.51426,-33.79344,0 18.51555,-33.79317,0 18.51665,-33.79292,0 18.5182,-33.79264,0 18.51931,-33.79243,0 18.52071,-33.79216,0 18.52183,-33.79193,0 18.52306,-33.79171,0 18.52398,-33.79157,0 18.52547,-33.79129,0 18.52659,-33.79106,0 18.52771,-33.79083,0 18.52884,-33.79064,0 18.53029,-33.79033,0 18.53416,-33.78964,0 18.53823,-33.78892,0 18.54218,-33.78817,0 18.54616,-33.7874,0 18.55127,-33.78645,0 18.55625,-33.78547,0 18.56009,-33.78473,0 18.56529,-33.78389,0 18.56958,-33.78324,0 18.57429,-33.7825,0 18.57541,-33.78232,0 18.57687,-33.78209,0 18.57948,-33.7817,0 18.58388,-33.78099,0 18.58635,-33.78062,0 18.58744,-33.78049,0 18.59184,-33.77985,0 18.59539,-33.77933,0 18.5998,-33.77868,0 18.60344,-33.77815,0 18.60712,-33.77761,0 18.61,-33.77724,0 18.61588,-33.77672,0 18.61897,-33.77664,0 18.62028,-33.77668,0 18.62166,-33.77669,0 18.62303,-33.77672,0 18.62411,-33.77677,0 18.62555,-33.77686,0 18.62693,-33.77696,0 18.62805,-33.77705,0 18.62945,-33.77719,0 18.63079,-33.77733,0 18.63184,-33.77742,0 18.63321,-33.7776,0 18.63482,-33.77774,0 18.6359,-33.77789,0 18.63739,-33.77802,0 18.63865,-33.77812,0 18.64027,-33.77829,0 18.64139,-33.77843,0 18.64273,-33.77861,0 18.64385,-33.77875,0 18.64489,-33.77891,0 18.64637,-33.77909,0 18.64752,-33.77928,0 18.64879,-33.77943,0 18.65019,-33.77962,0 18.65159,-33.77975,0 18.6531,-33.77994,0 18.65444,-33.78012,0 18.65551,-33.78026,0 18.6568,-33.7804,0 18.66084,-33.78099,0 18.66314,-33.78131,0 18.6644,-33.78152,0 18.6656,-33.78175,0 18.66669,-33.78194,0 18.66818,-33.78218,0 18.66909,-33.78231,0 18.6707,-33.78255,0 18.67177,-33.78273,0 18.67315,-33.78296,0 18.67424,-33.78315,0 18.67544,-33.78333,0 18.67687,-33.78361,0 18.67788,-33.78378,0 18.67922,-33.78401,0 18.68035,-33.78424,0 18.68168,-33.7845,0 18.68311,-33.78477,0 18.68437,-33.78501,0 18.68546,-33.78519,0 18.68643,-33.78543,0 18.68786,-33.78571,0 18.689,-33.78594,0 18.69049,-33.78626,0 18.69152,-33.78645,0 18.69267,-33.78668,0 18.69408,-33.78703,0 18.69542,-33.78731,0 18.69661,-33.78757,0 18.69783,-33.78781,0 18.70036,-33.78831,0 18.70153,-33.78859,0 18.70299,-33.78891,0 18.70697,-33.78976,0 18.71218,-33.79092,0 18.71372,-33.79124,0 18.71487,-33.79148,0 18.71863,-33.79234,0 18.72093,-33.79285,0 18.72259,-33.7932,0 18.72396,-33.79353,0 18.72507,-33.79376,0 18.73046,-33.795,0 18.7355,-33.79619,0 18.74056,-33.79739,0 18.74537,-33.7986,0 18.75052,-33.79985,0 18.75555,-33.80107,0 18.75927,-33.80196,0 18.76339,-33.80297,0 18.76459,-33.80324,0 18.76591,-33.80354,0 18.76705,-33.80381,0 18.76848,-33.80414,0 18.76969,-33.80438,0 18.7738,-33.80531,0 18.77732,-33.80603,0 18.78163,-33.80695,0 18.78673,-33.80809,0 18.78802,-33.80836,0 18.78925,-33.80861,0 18.7904,-33.80884,0 18.79183,-33.80912,0 18.7932,-33.8094,0 18.79469,-33.80969,0 18.79589,-33.80991,0 18.79721,-33.81019,0 18.79845,-33.81042,0 18.80007,-33.81075,0 18.80133,-33.81098,0 18.80516,-33.81168,0 18.81078,-33.81276,0 18.81493,-33.81358,0 18.81908,-33.81436,0 18.82306,-33.81514,0 18.82719,-33.81592,0 18.83205,-33.81685,0 18.83566,-33.81755,0 18.83972,-33.81829,0 18.84424,-33.81912,0 18.84808,-33.81983,0 18.85214,-33.82067,0 18.85712,-33.82178,0 18.85866,-33.82215,0 18.85981,-33.82248,0 18.86089,-33.82276,0 18.86235,-33.82315,0 18.86387,-33.8236,0 18.86513,-33.82393,0 18.86627,-33.82425,0 18.86773,-33.82462,0 18.86896,-33.82494,0 18.87039,-33.82532,0 18.87194,-33.8257,0 18.87308,-33.82593,0 18.8772,-33.82686,0 18.88241,-33.82807,0 18.88807,-33.82928,0 18.89312,-33.83034,0 18.8946,-33.83072,0 18.89587,-33.83102,0 18.89717,-33.83138,0 18.8986,-33.83175,0 18.89968,-33.83203,0 18.90146,-33.83254,0 18.90259,-33.83286,0 18.90409,-33.83328,0 18.90528,-33.83363,0 18.90669,-33.83405,0 18.90781,-33.83437,0 18.9089,-33.83472,0 18.91027,-33.83514,0 18.91108,-33.83542,0 18.91683,-33.83739,0 18.92172,-33.83896,0 18.92801,-33.84106,0 18.93342,-33.84283,0 18.94049,-33.8452,0 18.94667,-33.84734,0 18.95243,-33.84938,0 18.95943,-33.85194,0 18.9656,-33.85423,0 18.96933,-33.85563,0 18.97545,-33.85772,0 18.98146,-33.85968,0 18.98764,-33.86187,0 18.99149,-33.8633,0 18.99738,-33.86526,0 19.00001,-33.86613,0 19.00685,-33.86824,0 19.02769,-33.87453,0 19.03331,-33.87598,0 19.04054,-33.87753,0 19.04374,-33.87799,0 19.04737,-33.87844,0 19.0508,-33.87886,0 19.05401,-33.87923,0 19.06055,-33.88014,0 19.06408,-33.88083,0 19.06786,-33.88226,0 19.07175,-33.88384,0 19.07644,-33.88565,0 19.07781,-33.88623,0 19.07993,-33.88705,0 19.08482,-33.88907,0 19.08841,-33.89058,0 19.08936,-33.89099,0 19.09309,-33.89455,0 19.09003,-33.89268,0 19.08538,-33.89008,0 19.08202,-33.88829,0 19.07913,-33.88682,0 19.0781,-33.88631,0 19.07679,-33.88565,0 19.07367,-33.88426,0 19.07255,-33.88384,0 19.0703,-33.88298,0 19.06817,-33.8822,0 19.06672,-33.88174,0 19.06488,-33.88114,0 19.06374,-33.88076,0 19.06133,-33.88,0 19.05831,-33.87909,0 19.05242,-33.8774,0 19.049,-33.87643,0 19.04312,-33.87483,0 19.03702,-33.87327,0 19.0309,-33.87177,0 19.02437,-33.87015,0 19.01958,-33.86888,0 19.01212,-33.86687,0 19.00674,-33.86536,0 19.00154,-33.86373,0 18.99351,-33.86128,0 18.98678,-33.85935,0 18.9809,-33.85767,0 18.97516,-33.85595,0 18.96868,-33.85387,0 18.9624,-33.85194,0 18.95601,-33.84984,0 18.95004,-33.84776,0 18.94375,-33.84552,0 18.94032,-33.84439,0 18.93028,-33.84132,0 18.92372,-33.83924,0 18.91767,-33.83734,0 18.91128,-33.83556,0 18.91033,-33.83537,0 18.9089,-33.835,0 18.90747,-33.83472,0 18.90601,-33.83441,0 18.90484,-33.83423,0 18.90335,-33.83393,0 18.90198,-33.83368,0 18.9008,-33.8335,0 18.89968,-33.83331,0 18.89811,-33.83304,0 18.89654,-33.83276,0 18.89208,-33.83198,0 18.88813,-33.83139,0 18.88511,-33.8308,0 18.88354,-33.83043,0 18.88236,-33.83015,0 18.8809,-33.82983,0 18.87972,-33.82951,0 18.87844,-33.82919,0 18.87737,-33.82892,0 18.87606,-33.82853,0 18.87451,-33.82807,0 18.87325,-33.82769,0 18.87182,-33.82727,0 18.87045,-33.82681,0 18.86924,-33.82645,0 18.86782,-33.82602,0 18.86667,-33.82565,0 18.86261,-33.82444,0 18.85904,-33.82329,0 18.85403,-33.82155,0 18.84859,-33.81987,0 18.84476,-33.81871,0 18.8434,-33.8183,0 18.83915,-33.81708,0 18.83429,-33.81573,0 18.83045,-33.81473,0 18.82639,-33.81364,0 18.82277,-33.81271,0 18.82008,-33.81207,0 18.81874,-33.81175,0 18.81746,-33.8115,0 18.81622,-33.81125,0 18.81495,-33.81098,0 18.81386,-33.81075,0 18.81226,-33.81047,0 18.81117,-33.81028,0 18.80968,-33.81005,0 18.80859,-33.80987,0 18.80751,-33.80968,0 18.80607,-33.80946,0 18.80517,-33.80933,0 18.80394,-33.80914,0 18.79996,-33.8085,0 18.79581,-33.80782,0 18.79189,-33.80713,0 18.78757,-33.80621,0 18.78404,-33.80548,0 18.78051,-33.80466,0 18.77913,-33.80437,0 18.77805,-33.80411,0 18.77636,-33.80379,0 18.77174,-33.80284,0 18.76774,-33.802,0 18.76381,-33.80122,0 18.7595,-33.80037,0 18.75434,-33.79939,0 18.75017,-33.7986,0 18.74622,-33.7979,0 18.74094,-33.79701,0 18.73547,-33.79609,0 18.73123,-33.79539,0 18.72715,-33.79472,0 18.72179,-33.7939,0 18.71958,-33.79358,0 18.71538,-33.79289,0 18.71112,-33.79221,0 18.70691,-33.79143,0 18.70291,-33.79059,0 18.70171,-33.79031,0 18.70039,-33.78999,0 18.6989,-33.78964,0 18.69753,-33.78929,0 18.69643,-33.789,0 18.69495,-33.78859,0 18.69374,-33.78822,0 18.69256,-33.7879,0 18.69139,-33.78758,0 18.68992,-33.7872,0 18.6886,-33.78682,0 18.68735,-33.78653,0 18.68606,-33.78616,0 18.685,-33.78593,0 18.68351,-33.78556,0 18.68191,-33.78524,0 18.6804,-33.78488,0 18.67916,-33.78463,0 18.6776,-33.78433,0 18.67636,-33.78406,0 18.67491,-33.78378,0 18.67361,-33.78352,0 18.67212,-33.78324,0 18.67081,-33.78296,0 18.66919,-33.78268,0 18.66777,-33.78245,0 18.66623,-33.78217,0 18.66471,-33.78191,0 18.66353,-33.78172,0 18.66211,-33.78147,0 18.65782,-33.78077,0 18.6526,-33.77994,0 18.64856,-33.7793,0 18.64449,-33.77858,0 18.64004,-33.77783,0 18.63482,-33.77691,0 18.62922,-33.77609,0 18.62812,-33.77597,0 18.62637,-33.77577,0 18.62513,-33.77568,0 18.62379,-33.77559,0 18.62251,-33.77551,0 18.62149,-33.7755,0 18.61994,-33.77546,0 18.61885,-33.77546,0 18.61725,-33.77551,0 18.61594,-33.77554,0 18.61135,-33.77579,0 18.61106,-33.77582,0 18.60804,-33.776,0 18.60658,-33.77614,0 18.60558,-33.77626,0 18.60366,-33.77646,0 18.60232,-33.77664,0 18.60077,-33.77681,0 18.59912,-33.77705,0 18.59756,-33.77728,0 18.59582,-33.77756,0 18.59431,-33.77779,0 18.59276,-33.77807,0 18.59121,-33.7784,0 18.58973,-33.77872,0 18.58812,-33.77909,0 18.58727,-33.77928,0 18.58521,-33.77975,0 18.584,-33.77998,0 18.58259,-33.78026,0 18.5808,-33.78063,0 18.57931,-33.78091,0 18.57816,-33.78117,0 18.5767,-33.78145,0 18.57531,-33.78175,0 18.57401,-33.78204,0 18.573,-33.78227,0 18.56838,-33.78324,0 18.56314,-33.78419,0 18.55837,-33.78505,0 18.55282,-33.78603,0 18.54841,-33.78673,0 18.54386,-33.7874,0 18.53914,-33.78813,0 18.53489,-33.78859,0 18.53245,-33.78883,0 18.53091,-33.789,0 18.52968,-33.78914,0 18.5285,-33.78928,0 18.5267,-33.78946,0 18.52547,-33.7896,0 18.52429,-33.78973,0 18.51974,-33.79022,0 18.51572,-33.7906,0 18.51048,-33.79106,0 18.50597,-33.79152,0 18.50178,-33.7919,0 18.49638,-33.7923,0 18.49068,-33.79264,0 18.48627,-33.79287,0 18.48259,-33.79312,0 18.48078,-33.79329,0 18.47918,-33.79343,0 18.47723,-33.79367,0 18.47597,-33.7938,0 18.47477,-33.79395,0 18.47328,-33.79418,0 18.47189,-33.79436,0 18.47071,-33.79454,0 18.46939,-33.79473,0 18.46796,-33.79497,0 18.46699,-33.79511,0 18.4655,-33.79536,0 18.46432,-33.79555,0 18.46258,-33.79585,0 18.45675,-33.79688,0 18.45238,-33.79756,0 18.44873,-33.79809,0 18.44403,-33.7988,0 18.43556,-33.79994,0 18.4346,-33.80005,0 18.42905,-33.80074,0 18.42777,-33.8009,0 18.42665,-33.80107,0 18.42519,-33.80127,0 18.42396,-33.80145,0 18.42253,-33.80167,0 18.41846,-33.80233,0 18.41421,-33.80305,0 18.41143,-33.80344,0 18.40988,-33.80368,0 18.40565,-33.80423,0 18.40416,-33.80442,0 18.40277,-33.80452,0 18.40148,-33.80461,0 18.3998,-33.80466,0 18.39861,-33.80461,0 18.39672,-33.80447,0 18.3954,-33.80433,0 18.39426,-33.80409,0 18.39249,-33.80363,0 18.39117,-33.80312,0 18.38982,-33.80255,0 18.38876,-33.802,0 18.38758,-33.80132,0 18.38648,-33.80056,0 18.38551,-33.7998,0 18.38465,-33.79902,0 18.38366,-33.79802,0 18.38254,-33.79678,0 18.38167,-33.79576,0 18.38099,-33.79492,0 18.38001,-33.79376,0 18.37934,-33.79294,0 18.37833,-33.79184,0 18.37738,-33.79083,0 18.3766,-33.79001,0 18.37555,-33.78892,0 18.37463,-33.78794,0 18.37351,-33.7868,0 18.37269,-33.78608,0 18.37172,-33.78543,0 18.37065,-33.78497,0 18.36964,-33.78488,0 18.36897,-33.78511,0 18.36857,-33.78547,0 18.3684,-33.78608,0 18.36864,-33.78662,0 18.36914,-33.78726,0 18.37,-33.7879,0 18.37082,-33.78845,0 18.37166,-33.78892,0 18.3728,-33.78962,0 18.37372,-33.79018,0 18.37481,-33.79092,0 18.3757,-33.79161,0 18.37675,-33.79259,0 18.37755,-33.79334,0 18.37835,-33.79422,0 18.37901,-33.795,0 18.3799,-33.79627,0 18.38046,-33.7971,0 18.38108,-33.79802,0 18.38175,-33.79921,0 18.38226,-33.80017,0 18.38276,-33.80113,0 18.38339,-33.80233,0 18.3839,-33.80344,0 18.38425,-33.80423,0 18.38484,-33.80557,0 18.38522,-33.80651,0 18.38562,-33.80745,0 18.38607,-33.80878,0 18.38642,-33.80973,0 18.38682,-33.81084,0 18.38717,-33.81196,0 18.38757,-33.81322,0 18.38786,-33.81418,0 18.3882,-33.81546,0 18.38842,-33.81647,0 18.3887,-33.81784,0 18.38888,-33.81871,0 18.38917,-33.82006,0 18.38934,-33.82099,0 18.38963,-33.8223,0 18.38985,-33.82332,0 18.3901,-33.82457,0 18.39025,-33.82555,0 18.3905,-33.82681,0 18.39066,-33.82774,0 18.39088,-33.82895,0 18.39106,-33.83029,0 18.39167,-33.8345,0 18.39173,-33.83546,0 18.39173,-33.83665,0 18.39174,-33.83766,0 18.39179,-33.83858,0 18.3918,-33.83957,0 18.39184,-33.84087,0 18.39186,-33.84185,0 18.39191,-33.84306,0 18.39195,-33.8438,0 18.39195,-33.84503,0 18.39201,-33.84595,0 18.39223,-33.8503,0 18.3924,-33.85423,0 18.39249,-33.85744,0 18.39249,-33.85949,0 18.3924,-33.86069,0 18.39235,-33.86197,0 18.3922,-33.86317,0 18.39201,-33.86417,0 18.39184,-33.86531,0 18.39167,-33.86627,0 18.39139,-33.86732,0 18.39117,-33.86815,0 18.39083,-33.86929,0 18.39054,-33.87024,0 18.39005,-33.87158,0 18.38974,-33.87248,0 18.38943,-33.87341,0 18.38905,-33.87439,0 18.38865,-33.87537,0 18.38825,-33.87643,0 18.38779,-33.87751,0 18.38734,-33.87858,0 18.38685,-33.87968,0 18.38635,-33.88083,0 18.38596,-33.88169,0 18.38551,-33.88261,0 18.385,-33.88362,0 18.38448,-33.88467,0 18.38402,-33.88556,0 18.38345,-33.88654,0 18.38299,-33.88737,0 18.38242,-33.88831,0 18.38202,-33.88905,0 18.38136,-33.89008,0 18.38076,-33.89115,0 18.38036,-33.8918,0 18.37961,-33.89296,0 18.3791,-33.89375,0 18.37864,-33.89459,0 18.378,-33.89557,0 18.37744,-33.89641,0 18.37665,-33.89745,0 18.3762,-33.89809,0 18.37549,-33.89906,0 18.37481,-33.89999,0 18.37423,-33.90074,0 18.3736,-33.90153,0 18.37284,-33.90262,0 18.37222,-33.90349,0 18.37154,-33.90446,0 18.37103,-33.90525,0 18.37049,-33.90601,0 18.36983,-33.90707,0 18.36931,-33.90786,0 18.36875,-33.90884,0 18.36817,-33.90977,0 18.36763,-33.91072,0 18.36714,-33.91167,0 18.36662,-33.9126,0 18.36605,-33.91359,0 18.36544,-33.91466,0 18.36479,-33.91573,0 18.36438,-33.91658,0 18.36382,-33.91759,0 18.3633,-33.91847,0 18.3617,-33.9215,0 18.3597,-33.9255,0 18.35787,-33.92946,0 18.35748,-33.9304,0 18.35698,-33.93159,0 18.35661,-33.93248,0 18.35619,-33.93347,0 18.35574,-33.93466,0 18.35535,-33.93575,0 18.35489,-33.93695,0 18.35449,-33.93789,0 18.35392,-33.93919,0 18.35346,-33.9403,0 18.353,-33.94147,0 18.35255,-33.94249,0 18.35171,-33.9446,0 18.35049,-33.94757,0 18.34911,-33.95101,0 18.34723,-33.9552,0 18.34582,-33.95824,0 18.34339,-33.96386,0 18.3423,-33.96661,0 18.34039,-33.97165,0 18.33847,-33.97699,0 18.33681,-33.9823,0 18.33529,-33.98799,0 18.33418,-33.99328,0 18.3331,-33.99884,0 18.33237,-34.00241,0 18.33153,-34.0058,0 18.33125,-34.00699,0 18.33109,-34.00799,0 18.33086,-34.00914,0 18.33074,-34.01033,0 18.33063,-34.01129,0 18.33063,-34.01255,0 18.33069,-34.01335,0 18.33074,-34.01454,0 18.33092,-34.01558,0 18.33126,-34.01684,0 18.33153,-34.01775,0 18.33203,-34.01884,0 18.33252,-34.01982,0 18.33315,-34.0209,0 18.33394,-34.02205,0 18.33464,-34.02293,0 18.33538,-34.02387,0 18.33618,-34.0247,0 18.3371,-34.02573,0 18.33803,-34.02681,0 18.33881,-34.02768,0 18.3395,-34.02852,0 18.34024,-34.02941,0 18.34089,-34.0302,0 18.34173,-34.03131,0 18.3424,-34.03221,0 18.34311,-34.03327,0 18.34379,-34.03434,0 18.34437,-34.03523,0 18.34505,-34.03648,0 18.3456,-34.03748,0 18.34614,-34.03858,0 18.34655,-34.03958,0 18.347,-34.04068,0 18.34734,-34.04169,0 18.34773,-34.04274,0 18.34806,-34.04398,0 18.34837,-34.04505,0 18.34863,-34.04599,0 18.34894,-34.04728,0 18.34913,-34.04846,0 18.34934,-34.04966,0 18.34951,-34.05059,0 18.34975,-34.05199,0 18.34991,-34.05345,0 18.35003,-34.0545,0 18.35014,-34.05583,0 18.3502,-34.05696,0 18.35026,-34.05799,0 18.35031,-34.05931,0 18.35026,-34.06009,0 18.3502,-34.06186,0 18.35009,-34.06311,0 18.34991,-34.06453,0 18.34975,-34.06581,0 18.34951,-34.06711,0 18.34941,-34.06787,0 18.34913,-34.06911,0 18.34871,-34.07112,0 18.34848,-34.07237,0 18.34818,-34.07378,0 18.34791,-34.07507,0 18.34763,-34.07629,0 18.3474,-34.07773,0 18.34717,-34.07881,0 18.347,-34.07987,0 18.34683,-34.0811,0 18.34661,-34.08243,0 18.34631,-34.08471,0 18.34616,-34.08591,0 18.34605,-34.08687,0 18.34591,-34.08839,0 18.34577,-34.0898,0 18.34571,-34.09108,0 18.3456,-34.09222,0 18.34551,-34.09351,0 18.34545,-34.09472,0 18.34522,-34.09803,0 18.34505,-34.09947,0 18.34492,-34.10051,0 18.34465,-34.10189,0 18.34448,-34.103,0 18.3442,-34.10408,0 18.34381,-34.10527,0 18.34341,-34.10641,0 18.34299,-34.10766,0 18.34259,-34.10883,0 18.34212,-34.11003,0 18.34167,-34.11106,0 18.34116,-34.11232,0 18.34078,-34.11324,0 18.34039,-34.1142,0 18.33982,-34.11548,0 18.33932,-34.11662,0 18.33881,-34.11781,0 18.33825,-34.119,0 18.33778,-34.12,0 18.33708,-34.12125,0 18.33652,-34.12223,0 18.33585,-34.12317,0 18.33489,-34.12422,0 18.33384,-34.12521,0 18.33276,-34.1261,0 18.33175,-34.12688,0 18.33069,-34.12768,0 18.32937,-34.12875,0 18.32851,-34.12945,0 18.32727,-34.13054,0 18.32651,-34.13126,0 18.32531,-34.13247,0 18.32452,-34.13333,0 18.32376,-34.13424,0 18.32285,-34.13545,0 18.32216,-34.13652,0 18.3215,-34.13768,0 18.32099,-34.13864,0 18.32049,-34.13979,0 18.32015,-34.14088,0 18.31987,-34.14183,0 18.31965,-34.1429,0 18.31948,-34.14413,0 18.31937,-34.14523,0 18.31936,-34.14644,0 18.31942,-34.14746,0 18.31959,-34.14895,0 18.31981,-34.15013,0 18.3201,-34.15141,0 18.32045,-34.15244,0 18.32085,-34.15351,0 18.32125,-34.15445,0 18.32183,-34.15558,0 18.32256,-34.15686,0 18.32308,-34.1577,0 18.32376,-34.15882,0 18.32439,-34.15971,0 18.32497,-34.16059,0 18.32576,-34.16167,0 18.32674,-34.16287,0 18.32744,-34.16373,0 18.32839,-34.16487,0 18.32923,-34.16588,0 18.33002,-34.16675,0 18.33092,-34.16776,0 18.33175,-34.16872,0 18.33241,-34.16948,0 18.33332,-34.17051,0 18.33401,-34.1713,0 18.33489,-34.17229,0 18.33585,-34.17329,0 18.33681,-34.17423,0 18.33758,-34.17503,0 18.33824,-34.17567,0 18.33921,-34.17659,0 18.34016,-34.17746,0 18.34116,-34.17833,0 18.34196,-34.17902,0 18.34296,-34.17993,0 18.34386,-34.18071,0 18.34476,-34.18153,0 18.34551,-34.18219,0 18.34671,-34.18317,0 18.34768,-34.18401,0 18.34854,-34.18475,0 18.34935,-34.18542,0 18.35014,-34.18611,0 18.35109,-34.18689,0 18.35283,-34.18845,0 18.35378,-34.18932,0 18.35462,-34.19005,0 18.35535,-34.19073,0 18.35627,-34.19159,0 18.35715,-34.19247,0 18.35793,-34.19322,0 18.35861,-34.19392,0 18.35924,-34.19467,0 18.35987,-34.19546,0 18.36067,-34.19644,0 18.36135,-34.19737,0 18.36208,-34.19843,0 18.36279,-34.19942,0 18.36337,-34.2003,0 18.36404,-34.2014,0 18.3646,-34.20236,0 18.36522,-34.20351,0 18.36567,-34.20438,0 18.36617,-34.20556,0 18.36662,-34.20653,0 18.36697,-34.20752,0 18.36742,-34.20868,0 18.36785,-34.20987,0 18.36817,-34.21082,0 18.36857,-34.21212,0 18.36892,-34.21326,0 18.36926,-34.21441,0 18.36953,-34.21541,0 18.36981,-34.21642,0 18.37004,-34.21729,0 18.37026,-34.21825,0 18.37043,-34.21921,0 18.37054,-34.21985,0 18.37074,-34.22083,0 18.37091,-34.22157,0 18.37105,-34.22227,0 18.37127,-34.22314,0 18.37149,-34.224,0 18.37172,-34.22497,0 18.37189,-34.22572,0 18.37212,-34.22655,0 18.37228,-34.22726,0 18.37245,-34.22791,0 18.37263,-34.22846,0 18.37286,-34.22921,0 18.37312,-34.2301,0 18.37334,-34.23088,0 18.37357,-34.23157,0 18.37383,-34.23251,0 18.37402,-34.23322,0 18.3743,-34.23413,0 18.37463,-34.23505,0 18.37491,-34.23592,0 18.37519,-34.23688,0 18.37543,-34.23777,0 18.37576,-34.23875,0 18.37606,-34.23968,0 18.37646,-34.24071,0 18.37681,-34.24141,0 18.37733,-34.24232,0 18.37794,-34.24324,0 18.37858,-34.24411,0 18.37927,-34.24494,0 18.37996,-34.24576,0 18.38047,-34.24634,0 18.3813,-34.24718,0 18.38209,-34.248,0 18.3827,-34.24857,0 18.38338,-34.24924,0 18.3843,-34.25016,0 18.38511,-34.2509,0 18.38579,-34.2516,0 18.38671,-34.25239,0 18.38751,-34.253,0 18.38848,-34.25377,0 18.38938,-34.25436,0 18.39003,-34.25476,0 18.3914,-34.25546,0 18.39231,-34.25584,0 18.39352,-34.25621,0 18.3947,-34.25642,0 18.39571,-34.25656,0 18.39684,-34.25653,0 18.39809,-34.25639,0 18.39912,-34.25616,0 18.40027,-34.25579,0 18.4012,-34.25542,0 18.40193,-34.25491,0 18.40288,-34.25414,0 18.40356,-34.25336,0 18.40399,-34.25258,0 18.40433,-34.25165,0 18.40451,-34.25079,0 18.4045,-34.24992,0 18.40433,-34.24909,0 18.40406,-34.248,0 18.40376,-34.24709,0 18.4033,-34.24601,0 18.40279,-34.24494,0 18.40233,-34.24392,0 18.40176,-34.2428,0 18.40115,-34.24178,0 18.40064,-34.24081,0 18.40019,-34.24008,0 18.39952,-34.23889,0 18.39884,-34.23768,0 18.39823,-34.23669,0 18.39762,-34.23578,0 18.39689,-34.23484,0 18.39605,-34.23386,0 18.39523,-34.23298,0 18.39448,-34.23221,0 18.3933,-34.23116,0 18.39231,-34.23028,0 18.39146,-34.22958,0 18.39025,-34.2286,0 18.38932,-34.22781,0 18.38831,-34.22702,0 18.38725,-34.22617,0 18.38629,-34.22539,0 18.38522,-34.22451,0 18.38402,-34.22353,0 18.3831,-34.22269,0 18.3822,-34.22186,0 18.3811,-34.22083,0 18.38024,-34.21999,0 18.37921,-34.21892,0 18.3783,-34.21799,0 18.37749,-34.21715,0 18.37654,-34.21609,0 18.37572,-34.21519,0 18.37469,-34.21399,0 18.37413,-34.2133,0 18.37312,-34.21211,0 18.3724,-34.21119,0 18.37166,-34.21026,0 18.37071,-34.20914,0 18.37004,-34.20822,0 18.36914,-34.20712,0 18.36823,-34.20602,0 18.36754,-34.20509,0 18.36502,-34.20198,0 18.36216,-34.19802,0 18.36135,-34.19701,0 18.36039,-34.19579,0 18.35961,-34.19481,0 18.35861,-34.19369,0 18.35765,-34.19257,0 18.35703,-34.19193,0 18.35592,-34.1908,0 18.35507,-34.19005,0 18.35409,-34.18913,0 18.35318,-34.18834,0 18.35221,-34.18748,0 18.35123,-34.18671,0 18.34986,-34.18568,0 18.34871,-34.1848,0 18.34756,-34.18391,0 18.34655,-34.18318,0 18.34568,-34.18256,0 18.34425,-34.18159,0 18.34316,-34.18079,0 18.34219,-34.18014,0 18.34099,-34.17926,0 18.33994,-34.17847,0 18.33898,-34.17773,0 18.33803,-34.17696,0 18.33685,-34.17599,0 18.33601,-34.17526,0 18.33489,-34.17426,0 18.33377,-34.17316,0 18.33298,-34.17242,0 18.33183,-34.1712,0 18.33109,-34.17037,0 18.3303,-34.16949,0 18.32937,-34.16846,0 18.32862,-34.16757,0 18.32794,-34.1667,0 18.32688,-34.16542,0 18.32609,-34.16437,0 18.32525,-34.16322,0 18.32447,-34.16212,0 18.32376,-34.1611,0 18.32278,-34.1597,0 18.32211,-34.15869,0 18.3215,-34.15778,0 18.32079,-34.15664,0 18.3201,-34.15544,0 18.31948,-34.15439,0 18.31886,-34.15329,0 18.3183,-34.15215,0 18.31785,-34.15118,0 18.31747,-34.15016,0 18.31712,-34.14903,0 18.31684,-34.14784,0 18.31661,-34.14663,0 18.31661,-34.14532,0 18.31667,-34.14434,0 18.3169,-34.14318,0 18.31729,-34.14198,0 18.31785,-34.14088,0 18.31836,-34.13997,0 18.31897,-34.1391,0 18.31981,-34.138,0 18.32066,-34.13704,0 18.32161,-34.13599,0 18.32239,-34.13512,0 18.32325,-34.13424,0 18.32413,-34.13333,0 18.32497,-34.13251,0 18.32609,-34.13145,0 18.32703,-34.13047,0 18.32783,-34.12967,0 18.3288,-34.1287,0 18.32957,-34.12788,0 18.33052,-34.12689,0 18.3312,-34.12609,0 18.33198,-34.12514,0 18.33263,-34.12428,0 18.33344,-34.12321,0 18.33418,-34.12214,0 18.33475,-34.1213,0 18.3354,-34.12019,0 18.3359,-34.11935,0 18.33641,-34.11841,0 18.3371,-34.11692,0 18.33747,-34.11607,0 18.33796,-34.11478,0 18.33824,-34.11385,0 18.33848,-34.11296,0 18.33876,-34.11185,0 18.33899,-34.11064,0 18.33921,-34.10966,0 18.33943,-34.10847,0 18.33971,-34.10719,0 18.3399,-34.10598,0 18.34011,-34.105,0 18.34024,-34.10412,0 18.34059,-34.10268,0 18.34083,-34.10175,0 18.34127,-34.10021,0 18.3415,-34.09924,0 18.34184,-34.0979,0 18.34208,-34.09691,0 18.34235,-34.09579,0 18.34257,-34.09483,0 18.34282,-34.0936,0 18.34319,-34.09222,0 18.34345,-34.09142,0 18.34385,-34.08988,0 18.3442,-34.08879,0 18.34442,-34.08806,0 18.34476,-34.0871,0</coordinates>
      </LineString>
    </Placemark>
  </Document>
</kml>
