<?xml version="1.0" encoding="UTF-8"?>
<kml xmlns="http://www.opengis.net/kml/2.2">
  <Document>
    <name>FR24 40f89859</name>
    <Placemark>
      <name>FR24 40f89859</name>
      <Style><LineStyle><color>ff0000ff</color><width>4</width></LineStyle></Style>
      <LineString>
        <tessellate>1</tessellate>
        <coordinates>18.43077,-33.89194,0 18.43209,-33.89017,0 18.43369,-33.88812,0 18.43426,-33.88742,0 18.43466,-33.88686,0 18.43506,-33.88617,0 18.43534,-33.88533,0 18.43545,-33.88458,0 18.43534,-33.88398,0 18.43506,-33.88328,0 18.43456,-33.88266,0 18.4341,-33.88229,0 18.43346,-33.88188,0 18.43254,-33.88151,0 18.43185,-33.88128,0 18.43085,-33.88101,0 18.42985,-33.88086,0 18.42876,-33.88076,0 18.42783,-33.88069,0 18.42693,-33.88069,0 18.42603,-33.88069,0 18.42514,-33.88074,0 18.42384,-33.88081,0 18.42287,-33.88091,0 18.42205,-33.88097,0 18.42105,-33.88106,0 18.42018,-33.88114,0 18.4192,-33.88124,0 18.41841,-33.88133,0 18.41735,-33.88152,0 18.41652,-33.88165,0 18.41572,-33.88184,0 18.41471,-33.88202,0 18.41393,-33.88216,0 18.4128,-33.88244,0 18.412,-33.88268,0 18.41096,-33.88293,0 18.41017,-33.88312,0 18.40916,-33.88344,0 18.40839,-33.88365,0 18.40737,-33.88394,0 18.40642,-33.88417,0 18.40529,-33.88449,0 18.40451,-33.88472,0 18.40367,-33.88499,0 18.40273,-33.88533,0 18.40181,-33.8857,0 18.40118,-33.88598,0 18.40021,-33.88635,0 18.39947,-33.88673,0 18.39878,-33.88705,0 18.39787,-33.88747,0 18.39718,-33.88784,0 18.39621,-33.88831,0 18.3956,-33.88866,0 18.39472,-33.88914,0 18.39403,-33.88957,0 18.39312,-33.89017,0 18.39235,-33.89067,0 18.39139,-33.89136,0 18.39083,-33.89182,0 18.38991,-33.8925,0 18.38926,-33.89301,0 18.38837,-33.89371,0 18.38747,-33.89442,0 18.38654,-33.89515,0 18.38573,-33.89584,0 18.385,-33.89644,0 18.38439,-33.89694,0 18.38362,-33.89757,0 18.38293,-33.89817,0 18.38192,-33.89909,0 18.38116,-33.89976,0 18.3803,-33.90051,0 18.37873,-33.90184,0 18.37801,-33.9025,0 18.37704,-33.90334,0 18.37635,-33.904,0 18.37547,-33.90486,0 18.3744,-33.9059,0 18.3732,-33.90711,0 18.3725,-33.90784,0 18.37166,-33.90871,0 18.37097,-33.90944,0 18.37023,-33.91023,0 18.3696,-33.91093,0 18.36908,-33.91158,0 18.3683,-33.91251,0 18.36768,-33.91324,0 18.36712,-33.91397,0 18.36628,-33.91498,0 18.36572,-33.91571,0 18.36514,-33.91642,0 18.36451,-33.91717,0 18.36376,-33.91815,0 18.3632,-33.91887,0 18.36247,-33.91978,0 18.36176,-33.92066,0 18.35944,-33.92377,0 18.35867,-33.92476,0 18.35799,-33.9256,0 18.35726,-33.92642,0 18.35653,-33.92734,0 18.35587,-33.92815,0 18.35518,-33.92908,0 18.35457,-33.92995,0 18.35403,-33.93072,0 18.35333,-33.93182,0 18.35272,-33.93281,0 18.3522,-33.9337,0 18.35154,-33.9348,0 18.35094,-33.93579,0 18.35026,-33.937,0 18.34957,-33.93816,0 18.34917,-33.93891,0 18.34868,-33.93988,0 18.34806,-33.94098,0 18.3474,-33.94235,0 18.34694,-33.94327,0 18.34644,-33.94423,0 18.34579,-33.94552,0 18.34534,-33.9464,0 18.3447,-33.94771,0 18.34408,-33.94883,0 18.34341,-33.95004,0 18.34282,-33.95124,0 18.34236,-33.95213,0 18.34173,-33.95334,0 18.34122,-33.95436,0 18.34047,-33.95581,0 18.33979,-33.95716,0 18.33933,-33.95813,0 18.33876,-33.95915,0 18.33825,-33.96011,0 18.33475,-33.96712,0 18.33187,-33.97252,0 18.32897,-33.97801,0 18.32744,-33.98076,0 18.32479,-33.98551,0 18.32268,-33.98923,0 18.32073,-33.99263,0 18.31867,-33.99622,0 18.31604,-34.00087,0 18.31421,-34.00427,0 18.31186,-34.00868,0 18.31043,-34.01116,0 18.30984,-34.01221,0 18.30916,-34.01331,0 18.3086,-34.01423,0 18.30608,-34.01857,0 18.30402,-34.02182,0 18.30261,-34.0242,0 18.30219,-34.02522,0 18.30208,-34.02633,0 18.30238,-34.0274,0 18.303,-34.02818,0 18.30368,-34.02861,0 18.30468,-34.02892,0 18.30535,-34.02896,0 18.3066,-34.02876,0 18.30754,-34.02832,0 18.30826,-34.02792,0 18.30911,-34.02731,0 18.30972,-34.02681,0 18.31032,-34.02629,0 18.31107,-34.02557,0 18.31169,-34.02489,0 18.31242,-34.02415,0 18.31309,-34.02333,0 18.31364,-34.02275,0 18.31427,-34.02196,0 18.31488,-34.02122,0 18.31547,-34.02052,0 18.31595,-34.01985,0 18.31661,-34.01898,0 18.31718,-34.01816,0 18.31774,-34.01747,0 18.31833,-34.01665,0 18.31897,-34.01582,0 18.31937,-34.01527,0 18.32004,-34.01431,0 18.32054,-34.01363,0 18.32105,-34.01299,0 18.32178,-34.01193,0 18.32217,-34.01138,0 18.32279,-34.01041,0 18.32331,-34.00967,0 18.32385,-34.00882,0 18.32458,-34.00777,0 18.32628,-34.00511,0 18.32783,-34.00254,0 18.32954,-33.99998,0 18.33203,-33.99641,0 18.33469,-33.99244,0 18.33595,-33.99044,0 18.33847,-33.98616,0 18.34083,-33.9819,0 18.34313,-33.9776,0 18.34539,-33.97303,0 18.34745,-33.96865,0 18.3494,-33.96405,0 18.35115,-33.95956,0 18.35232,-33.95665,0 18.35358,-33.95343,0 18.35484,-33.95045,0 18.35627,-33.94733,0 18.35661,-33.94659,0 18.35707,-33.94552,0 18.35752,-33.9445,0 18.35798,-33.94347,0 18.35838,-33.94263,0 18.359,-33.94144,0 18.35953,-33.94044,0 18.36004,-33.93942,0 18.36045,-33.93864,0 18.36101,-33.93759,0 18.36153,-33.93663,0 18.36202,-33.93576,0 18.36245,-33.93491,0 18.3629,-33.93407,0 18.36353,-33.93283,0 18.36399,-33.93193,0 18.36451,-33.931,0 18.36645,-33.92736,0 18.36817,-33.92453,0 18.3688,-33.92355,0 18.36931,-33.92276,0 18.36994,-33.92173,0 18.37051,-33.92094,0 18.3712,-33.91987,0 18.37172,-33.91914,0 18.37245,-33.91809,0 18.37312,-33.91718,0 18.37379,-33.91626,0 18.37441,-33.91544,0 18.37525,-33.91447,0 18.37592,-33.9137,0 18.37671,-33.91273,0 18.37761,-33.91172,0 18.37847,-33.91074,0 18.37923,-33.90994,0 18.37979,-33.9093,0 18.38076,-33.90837,0 18.38181,-33.90724,0 18.38265,-33.90642,0 18.38339,-33.90572,0 18.38439,-33.90482,0 18.38522,-33.90404,0 18.38612,-33.90321,0 18.38705,-33.90241,0 18.38785,-33.90171,0 18.38877,-33.90097,0 18.38982,-33.90015,0 18.391,-33.89928,0 18.39212,-33.89845,0 18.39308,-33.89781,0 18.3942,-33.89706,0 18.39509,-33.89653,0 18.39626,-33.8958,0 18.39728,-33.89516,0 18.39862,-33.89438,0 18.39975,-33.89374,0 18.40101,-33.8931,0 18.40204,-33.89259,0 18.40307,-33.89208,0 18.40399,-33.89166,0 18.40525,-33.89105,0 18.40664,-33.89049,0 18.40742,-33.89017,0 18.40902,-33.88956,0 18.41005,-33.88919,0 18.41108,-33.88887,0 18.41211,-33.88849,0 18.41342,-33.88811,0 18.41482,-33.8877,0 18.41606,-33.88737,0 18.41715,-33.88714,0 18.41852,-33.88683,0 18.41978,-33.88663,0 18.42104,-33.88644,0 18.42218,-33.88635,0 18.42373,-33.88626,0 18.42497,-33.88623,0 18.42607,-33.88626,0 18.4276,-33.88628,0 18.429,-33.88637,0 18.43046,-33.88646,0 18.43168,-33.88663,0 18.43283,-33.88677,0 18.43437,-33.887,0 18.43575,-33.88728,0 18.43706,-33.88761,0 18.43815,-33.88789,0 18.43941,-33.88835,0 18.44061,-33.88887,0 18.44158,-33.88947,0 18.44244,-33.89008,0 18.44324,-33.89085,0 18.44376,-33.89157,0 18.44439,-33.89254,0 18.44473,-33.89333,0 18.44496,-33.89413,0 18.44507,-33.89515,0 18.44501,-33.89594,0 18.44487,-33.89676,0 18.44453,-33.89754,0 18.44391,-33.89836,0 18.44347,-33.89873,0 18.44302,-33.89905,0 18.44279,-33.89914,0 18.44212,-33.89951,0 18.4417,-33.89967,0 18.44141,-33.89981,0 18.44094,-33.89992,0 18.44032,-33.90013,0 18.43992,-33.90022,0 18.43954,-33.90033,0 18.43898,-33.90042,0 18.43865,-33.90051,0 18.43814,-33.90056,0 18.43758,-33.90065,0 18.4373,-33.9007,0 18.43672,-33.90078,0 18.43626,-33.90083,0 18.43596,-33.90088,0 18.43556,-33.90088,0 18.43523,-33.90092,0 18.43437,-33.90097,0 18.43277,-33.90097,0 18.43142,-33.90097,0 18.43024,-33.90092,0 18.43002,-33.90092,0 18.42957,-33.90088,0 18.42895,-33.90083,0 18.42844,-33.90079,0 18.42785,-33.90078,0 18.42762,-33.90078,0 18.42739,-33.90083,0 18.42715,-33.90088,0 18.42693,-33.90097,0 18.42699,-33.90074,0 18.42705,-33.90041,0 18.4271,-33.9001,0 18.42716,-33.8999,0 18.42727,-33.89951,0 18.42743,-33.89914,0 18.42766,-33.89859,0 18.42773,-33.89836,0 18.42785,-33.89813,0 18.42794,-33.8979,0 18.42811,-33.89745,0 18.42825,-33.89711,0 18.42836,-33.89678,0 18.42844,-33.89648,0 18.42859,-33.89622,0 18.42871,-33.89594,0 18.42895,-33.89529,0 18.42905,-33.89506,0 18.42934,-33.89447,0 18.42962,-33.89389,0 18.42996,-33.89333,0 18.43029,-33.89268,0 18.43071,-33.89198,0 18.43125,-33.89113,0 18.43164,-33.89053,0 18.43209,-33.88998,0 18.43248,-33.88934,0 18.43293,-33.88866,0 18.4334,-33.88798,0 18.43388,-33.88719,0 18.43409,-33.88659,0 18.43422,-33.88564,0 18.43416,-33.8849,0 18.43388,-33.88426,0 18.43355,-33.88367,0 18.43299,-33.88307,0 18.43237,-33.88261,0 18.43153,-33.88216,0 18.43052,-33.88174,0 18.42962,-33.88147,0 18.42882,-33.88128,0 18.42773,-33.88114,0 18.42659,-33.88101,0 18.4257,-33.88092,0 18.42482,-33.88086,0 18.4239,-33.88081,0 18.42278,-33.88074,0 18.42205,-33.88074,0 18.42054,-33.8806,0 18.41936,-33.88051,0 18.41846,-33.88044,0 18.41729,-33.88033,0 18.41639,-33.88023,0 18.41538,-33.88014,0 18.41446,-33.88007,0 18.41337,-33.88005,0 18.41223,-33.88002,0 18.41129,-33.88005,0 18.41011,-33.88014,0 18.40933,-33.88028,0 18.40815,-33.88046,0 18.40731,-33.88063,0 18.40611,-33.88095,0 18.40507,-33.88124,0 18.40429,-33.88147,0 18.40316,-33.88184,0 18.40221,-33.88211,0 18.40132,-33.88243,0 18.40038,-33.88281,0 18.39952,-33.88314,0 18.39857,-33.88358,0 18.3979,-33.88385,0 18.39666,-33.88449,0 18.39586,-33.88491,0 18.39492,-33.8855,0 18.39414,-33.88596,0 18.3933,-33.8866,0 18.39263,-33.88705,0 18.3918,-33.8877,0 18.39111,-33.8882,0 18.39033,-33.88884,0 18.38954,-33.88943,0 18.38865,-33.89017,0 18.38791,-33.89082,0 18.38725,-33.89136,0 18.3864,-33.89214,0 18.38573,-33.89268,0 18.38488,-33.89343,0 18.38413,-33.89417,0 18.38345,-33.89473,0 18.38265,-33.89552,0 18.3819,-33.89627,0 18.3811,-33.89706,0 18.38046,-33.89767,0 18.37967,-33.89846,0 18.37887,-33.89925,0 18.37812,-33.89999,0 18.37744,-33.90064,0 18.37681,-33.90125,0 18.37581,-33.90221,0 18.37519,-33.9028,0 18.37441,-33.90358,0 18.37378,-33.90423,0 18.37286,-33.90516,0 18.37217,-33.90586,0 18.37149,-33.90656,0 18.37063,-33.90749,0 18.3684,-33.90986,0 18.36684,-33.91154,0 18.36525,-33.9134,0 18.3623,-33.91681,0 18.36073,-33.9187,0 18.35987,-33.91982,0 18.35913,-33.9208,0 18.3585,-33.92168,0 18.35764,-33.92276,0 18.35524,-33.92592,0 18.35294,-33.92899,0 18.3521,-33.93008,0 18.35106,-33.93132,0 18.35014,-33.93246,0 18.34946,-33.93337,0 18.34883,-33.93449,0 18.34831,-33.93575,0 18.34808,-33.937,0 18.34818,-33.93842,0 18.3486,-33.93956,0 18.34907,-33.94029,0 18.35014,-33.94116,0 18.3512,-33.94167,0 18.35249,-33.94184,0 18.35356,-33.94171,0 18.35445,-33.94139,0 18.35535,-33.94068,0 18.35581,-33.94012,0 18.35661,-33.93882,0 18.35701,-33.93821,0 18.35759,-33.93723,0 18.35804,-33.93644,0 18.35867,-33.93551,0 18.35913,-33.93476,0 18.35967,-33.93393,0 18.36016,-33.93304,0 18.36084,-33.93197,0 18.3614,-33.93105,0 18.36197,-33.93022,0 18.36256,-33.92927,0 18.36296,-33.92862,0 18.36527,-33.92482,0 18.36645,-33.92308,0 18.36714,-33.92215,0 18.36771,-33.92141,0 18.36852,-33.92029,0 18.36926,-33.91936,0 18.36987,-33.91859,0 18.3706,-33.91768,0 18.37166,-33.91642,0 18.37234,-33.91563,0 18.37318,-33.91461,0 18.37391,-33.91383,0 18.37469,-33.91289,0 18.37547,-33.91205,0 18.37635,-33.91107,0 18.37709,-33.91028,0 18.378,-33.90926,0 18.37873,-33.90848,0 18.37967,-33.90749,0 18.38041,-33.9067,0 18.38127,-33.90577,0 18.38349,-33.90349,0 18.38545,-33.90157,0 18.38614,-33.90092,0 18.38725,-33.89996,0 18.38814,-33.8992,0 18.38915,-33.89841,0 18.3901,-33.89767,0 18.39106,-33.89699,0 18.39203,-33.89631,0 18.39341,-33.89543,0 18.39431,-33.89488,0 18.39575,-33.89403,0 18.39677,-33.89342,0 18.39778,-33.89282,0 18.3989,-33.89223,0 18.40019,-33.89154,0 18.40118,-33.89105,0 18.40221,-33.89054,0 18.40342,-33.88998,0 18.40468,-33.88939,0 18.4057,-33.88887,0 18.40651,-33.88849,0 18.40759,-33.88797,0 18.40874,-33.88747,0 18.41011,-33.88696,0 18.4114,-33.88646,0 18.41253,-33.88618,0 18.41387,-33.88586,0 18.41526,-33.88565,0 18.41663,-33.88551,0 18.41778,-33.88547,0 18.41897,-33.88545,0 18.42041,-33.88551,0 18.42166,-33.88564,0 18.42276,-33.88575,0 18.4243,-33.88598,0 18.42573,-33.88621,0 18.42693,-33.88641,0 18.42811,-33.88664,0 18.42957,-33.88692,0 18.43094,-33.88719,0 18.43208,-33.88747,0 18.43306,-33.88765,0 18.43454,-33.88798,0 18.43579,-33.88824,0 18.43696,-33.88847,0 18.43843,-33.88877,0 18.4396,-33.88902,0 18.44089,-33.88943,0 18.4419,-33.88985,0 18.4433,-33.89058,0 18.44414,-33.89113,0 18.44509,-33.89186,0 18.44571,-33.89264,0 18.44621,-33.89346,0 18.44656,-33.89426,0 18.44679,-33.89529,0 18.44679,-33.89599,0 18.44662,-33.89692,0 18.44627,-33.89777,0 18.44576,-33.89841,0 18.44515,-33.89891,0 18.44444,-33.89939,0 18.44358,-33.89981,0 18.44257,-33.9001,0 18.44198,-33.90027,0 18.44162,-33.90033,0 18.44112,-33.90046,0 18.44055,-33.90051,0 18.44015,-33.90055,0 18.43987,-33.9006,0 18.43966,-33.90065,0 18.43904,-33.9007,0 18.43848,-33.90079,0 18.43797,-33.90083,0 18.43752,-33.90088,0 18.43674,-33.90097,0 18.43517,-33.90106,0 18.43472,-33.90106,0 18.43377,-33.90106,0 18.43304,-33.90106,0 18.43117,-33.90111,0 18.43024,-33.90115,0 18.42884,-33.90115,0 18.42854,-33.90115,0 18.42745,-33.90106,0 18.42722,-33.90102,0 18.42699,-33.90097,0 18.42699,-33.90074,0 18.42699,-33.90047,0 18.42704,-33.90024,0 18.42715,-33.89996,0 18.42727,-33.89969,0 18.42743,-33.89937,0 18.42755,-33.89905,0 18.42773,-33.89874,0 18.42779,-33.8985,0 18.428,-33.89818,0 18.42813,-33.89776,0 18.42831,-33.89743,0 18.4285,-33.89699,0 18.42865,-33.89669,0 18.42876,-33.89645,0 18.42894,-33.89608,0 18.42911,-33.89585,0 18.42923,-33.89557,0 18.42939,-33.89534,0 18.42957,-33.89496,0 18.42991,-33.89441,0 18.43024,-33.89383,0 18.43069,-33.89319,0 18.43105,-33.89259,0 18.43142,-33.89204,0 18.43181,-33.89145,0 18.43226,-33.89076,0 18.4327,-33.89012,0 18.43317,-33.88942,0 18.43357,-33.88877,0 18.43403,-33.88807,0 18.43443,-33.88733,0 18.43472,-33.88668,0 18.43483,-33.88584,0 18.43483,-33.88514,0 18.4346,-33.8844,0 18.43422,-33.88385,0 18.43369,-33.88328,0 18.43294,-33.88286,0 18.43225,-33.88263,0 18.43122,-33.88249,0 18.43019,-33.88244,0 18.4294,-33.88248,0 18.42844,-33.88252,0 18.4276,-33.88257,0 18.42653,-33.88263,0 18.4255,-33.88272,0 18.42447,-33.88284,0 18.4235,-33.88295,0 18.42267,-33.88303,0 18.42161,-33.88314,0 18.42088,-33.88321,0 18.41992,-33.8833,0 18.41904,-33.88342,0 18.41778,-33.88356,0 18.41707,-33.88367,0 18.41572,-33.8838,0 18.41477,-33.88394,0 18.41377,-33.88407,0 18.41275,-33.88422,0 18.41168,-33.88435,0 18.40982,-33.88463,0 18.40885,-33.88482,0 18.40765,-33.885,0 18.40664,-33.88518,0 18.40546,-33.88545,0 18.40456,-33.8856,0 18.40347,-33.88584,0 18.4025,-33.88607,0 18.40126,-33.88641,0 18.40021,-33.88677,0 18.3993,-33.88705,0 18.39846,-33.88742,0 18.39741,-33.88784,0 18.39672,-33.88817,0 18.39558,-33.88877,0 18.39481,-33.88916,0 18.39386,-33.8898,0 18.39285,-33.89044,0 18.39209,-33.89096,0 18.39128,-33.89154,0 18.39038,-33.89223,0 18.38963,-33.89282,0 18.38888,-33.89338,0 18.38802,-33.89408,0 18.38708,-33.89479,0 18.38631,-33.89543,0 18.38562,-33.89599,0 18.38482,-33.89664,0 18.384,-33.89731,0 18.38305,-33.89808,0 18.38231,-33.89868,0 18.38136,-33.89946,0 18.38047,-33.90022,0 18.3799,-33.90069,0 18.37887,-33.90167,0 18.37816,-33.9023,0 18.37732,-33.90316,0 18.37654,-33.9039,0 18.37578,-33.90469,0 18.37492,-33.90558,0 18.3743,-33.90623,0 18.37355,-33.90702,0 18.37267,-33.90802,0 18.37206,-33.90871,0 18.3712,-33.90972,0 18.37049,-33.91058,0 18.36977,-33.91144,0 18.36914,-33.91224,0 18.36847,-33.91301,0 18.3676,-33.9141,0 18.36673,-33.91512,0 18.36611,-33.91591,0 18.36542,-33.9168,0 18.36462,-33.91777,0 18.36387,-33.91873,0 18.36314,-33.91965,0 18.36021,-33.92341,0 18.35804,-33.92625,0 18.35574,-33.92926,0 18.35352,-33.9323,0 18.3514,-33.93542,0 18.34941,-33.93837,0 18.34883,-33.93924,0 18.34801,-33.94034,0 18.34711,-33.94162,0 18.34642,-33.94258,0 18.3456,-33.94373,0 18.34498,-33.94464,0 18.34274,-33.94789,0 18.34225,-33.94868,0 18.34145,-33.94985,0 18.33927,-33.9532,0 18.3371,-33.95637,0 18.33458,-33.96018,0 18.33115,-33.96563,0 18.32705,-33.9722,0 18.32368,-33.97778,0 18.32189,-33.98076,0 18.31919,-33.98518,0 18.31707,-33.98872,0 18.31512,-33.99221,0 18.31466,-33.99326,0 18.31432,-33.99486,0 18.31432,-33.99589,0 18.31477,-33.99719,0 18.31555,-33.99834,0 18.31678,-33.99915,0 18.31804,-33.99957,0 18.31937,-33.99966,0 18.32045,-33.99943,0 18.32148,-33.99892,0 18.32234,-33.99825,0 18.32312,-33.99751,0 18.32371,-33.99691,0 18.32441,-33.99623,0 18.32514,-33.99552,0 18.32582,-33.99477,0 18.32688,-33.99367,0 18.32754,-33.99291,0 18.32817,-33.99225,0 18.3294,-33.99083,0 18.33075,-33.98937,0 18.3316,-33.98844,0 18.33248,-33.98753,0 18.33349,-33.98653,0 18.3373,-33.98277,0 18.34105,-33.9789,0 18.34296,-33.97664,0 18.34459,-33.97458,0 18.34642,-33.97219,0 18.34803,-33.96982,0 18.34946,-33.96754,0 18.35089,-33.96516,0 18.35165,-33.96387,0 18.35346,-33.96041,0 18.35468,-33.95773,0 18.35518,-33.95655,0 18.35569,-33.95526,0 18.35598,-33.9546,0 18.35638,-33.95348,0 18.35678,-33.95241,0 18.3572,-33.95128,0 18.35752,-33.95018,0 18.35793,-33.94915,0 18.35821,-33.9483,0 18.3585,-33.94743,0 18.35883,-33.94652,0 18.35918,-33.94547,0 18.35947,-33.94463,0 18.35987,-33.94357,0 18.36016,-33.94268,0 18.3605,-33.94165,0 18.36079,-33.94102,0 18.36119,-33.93993,0 18.36233,-33.93668,0 18.36303,-33.93484,0 18.36348,-33.93374,0 18.36387,-33.93283,0 18.36438,-33.93164,0 18.36485,-33.93062,0 18.36527,-33.92967,0 18.36576,-33.92857,0 18.36617,-33.92764,0 18.36662,-33.92665,0 18.36708,-33.92559,0 18.3676,-33.92448,0 18.36805,-33.9235,0 18.36841,-33.92285,0 18.36891,-33.92187,0 18.36953,-33.92079,0 18.37015,-33.91974,0 18.37071,-33.91891,0 18.37143,-33.91787,0 18.37206,-33.91699,0 18.37267,-33.91617,0 18.37349,-33.91517,0 18.37413,-33.91438,0 18.37491,-33.91356,0 18.37587,-33.91241,0 18.37641,-33.91186,0 18.37733,-33.91086,0 18.37818,-33.91,0 18.37915,-33.90898,0 18.37996,-33.9082,0 18.38076,-33.90739,0 18.38179,-33.90641,0 18.38253,-33.90567,0 18.3835,-33.90474,0 18.38439,-33.90385,0 18.38523,-33.90308,0 18.38614,-33.90227,0 18.38694,-33.90153,0 18.38814,-33.9006,0 18.38926,-33.89973,0 18.39031,-33.89892,0 18.39123,-33.89827,0 18.39254,-33.89729,0 18.39346,-33.89664,0 18.39455,-33.89594,0 18.39554,-33.89525,0 18.39666,-33.8945,0 18.39784,-33.89378,0 18.3989,-33.89315,0 18.40015,-33.89236,0 18.40115,-33.89177,0 18.40221,-33.89115,0 18.4035,-33.89044,0 18.40496,-33.8897,0 18.40611,-33.88914,0 18.40714,-33.88863,0 18.40845,-33.88803,0 18.40984,-33.88747,0 18.41096,-33.88705,0 18.41217,-33.88663,0 18.41343,-33.88626,0 18.41522,-33.88591,0 18.41645,-33.88568,0 18.41796,-33.8855,0 18.41925,-33.88541,0 18.42093,-33.88531,0 18.42241,-33.88528,0 18.42373,-33.88533,0 18.42516,-33.88542,0 18.42688,-33.88556,0 18.42813,-33.8857,0 18.42945,-33.88589,0 18.43094,-33.88612,0 18.4322,-33.88635,0 18.43338,-33.8866,0 18.43517,-33.88705,0 18.43603,-33.88728,0 18.43729,-33.8877,0 18.43837,-33.88811,0 18.43975,-33.88873,0 18.44101,-33.88942,0 18.44218,-33.89017,0 18.44301,-33.89077,0 18.44398,-33.89147,0 18.44487,-33.89223,0 18.44582,-33.89323,0 18.44638,-33.89406,0 18.44683,-33.89497,0 18.44713,-33.89627,0 18.44713,-33.89706,0 18.44696,-33.89785,0 18.4465,-33.89878,0 18.44604,-33.89943,0 18.44548,-33.89992,0 18.44459,-33.90038,0 18.4438,-33.90056,0 18.44324,-33.9006,0 18.44285,-33.90065,0 18.44233,-33.90069,0 18.44184,-33.90074,0 18.44128,-33.90079,0 18.44055,-33.90083,0 18.4401,-33.90083,0 18.43977,-33.90088,0 18.43943,-33.90092,0 18.43904,-33.90092,0 18.4387,-33.90097,0 18.43838,-33.90097,0 18.43786,-33.90102,0 18.43752,-33.90106,0 18.43723,-33.90111,0 18.43678,-33.90115,0 18.43626,-33.90125,0 18.43592,-33.90125,0 18.43569,-33.90129,0 18.43523,-33.90134,0 18.43343,-33.90143,0 18.43283,-33.90144,0 18.43209,-33.90143,0 18.43151,-33.90139,0 18.4313,-33.90134,0 18.43105,-33.90134,0 18.43031,-33.90125,0 18.42973,-33.90115,0 18.42945,-33.90111,0 18.42894,-33.90102,0 18.42867,-33.90097,0 18.42779,-33.90078,0 18.42755,-33.90074,0 18.42743,-33.90042,0 18.42738,-33.89973,0 18.42738,-33.89932,0 18.42745,-33.89883,0 18.42751,-33.89859,0 18.4276,-33.89827,0 18.42773,-33.89785,0 18.42785,-33.89753,0 18.428,-33.89708,0 18.42808,-33.89682,0 18.42822,-33.89653,0 18.42833,-33.89626,0 18.42844,-33.89603,0 18.42856,-33.89575,0 18.42878,-33.89539,0 18.42888,-33.89515,0 18.42912,-33.89479,0 18.42939,-33.89436,0 18.42973,-33.89378,0 18.43035,-33.89291,0 18.43077,-33.89236,0 18.43114,-33.89182,0 18.43174,-33.89105,0 18.43225,-33.8904,0 18.43271,-33.88984,0 18.43311,-33.88933,0 18.43369,-33.88854,0 18.43427,-33.88779,0 18.43467,-33.8871,0 18.43489,-33.88663,0 18.43511,-33.88582,0 18.43517,-33.885,0 18.43506,-33.88426,0 18.43478,-33.88362,0 18.43439,-33.88298,0 18.43397,-33.88258,0 18.43321,-33.88202,0 18.43266,-33.88169,0 18.43175,-33.88124,0 18.43097,-33.88101,0 18.43007,-33.88074,0 18.42922,-33.88058,0 18.42828,-33.88046,0 18.42743,-33.88042,0 18.42654,-33.88042,0 18.42547,-33.88042,0 18.42475,-33.88042,0 18.42357,-33.88042,0 18.42247,-33.88039,0 18.42133,-33.88039,0 18.4202,-33.88033,0 18.41914,-33.88033,0 18.41824,-33.88025,0 18.4174,-33.88023,0 18.41618,-33.88021,0 18.41532,-33.88016,0 18.41434,-33.88011,0 18.41337,-33.88005,0 18.41228,-33.87997,0 18.41124,-33.87991,0 18.41028,-33.87993,0 18.40939,-33.88,0 18.40821,-33.88028,0 18.40731,-33.88063,0 18.4063,-33.88115,0 18.40574,-33.88147,0 18.40479,-33.88207,0 18.40393,-33.88268,0 18.4029,-33.88337,0 18.40204,-33.88394,0 18.40124,-33.88449,0 18.40031,-33.88513,0 18.39935,-33.88584,0 18.39861,-33.88631,0 18.39764,-33.88705,0 18.39677,-33.8877,0 18.39599,-33.88829,0 18.395,-33.88905,0 18.39426,-33.88966,0 18.39317,-33.8905,0 18.39055,-33.89255,0 18.38803,-33.89461,0 18.38461,-33.89745,0 18.38184,-33.89985,0 18.37901,-33.9023,0 18.37801,-33.9032,0 18.37519,-33.90569,0 18.37475,-33.90609,0 18.37357,-33.90724,0 18.3728,-33.90805,0 18.37194,-33.90894,0 18.37091,-33.91,0 18.37032,-33.91068,0 18.36937,-33.91173,0 18.36868,-33.91247,0 18.36796,-33.91333,0 18.36708,-33.91438,0 18.36628,-33.91531,0 18.36533,-33.91644,0 18.36466,-33.91727,0 18.36376,-33.91827,0 18.3629,-33.91936,0 18.36202,-33.92043,0 18.36124,-33.92134,0 18.36068,-33.92203,0 18.35989,-33.92303,0 18.35901,-33.92411,0 18.35821,-33.92513,0 18.35747,-33.92597,0 18.35661,-33.92709,0 18.35602,-33.9278,0 18.35445,-33.92986,0 18.35356,-33.931,0 18.35289,-33.93182,0 18.35199,-33.93297,0 18.35117,-33.93398,0 18.35037,-33.93504,0 18.34885,-33.93704,0 18.34829,-33.93773,0 18.34751,-33.93886,0 18.34689,-33.94006,0 18.34661,-33.94102,0 18.34649,-33.94231,0 18.34672,-33.94345,0 18.34739,-33.94455,0 18.34818,-33.94519,0 18.34913,-33.94565,0 18.35049,-33.94589,0 18.35171,-33.94569,0 18.35249,-33.94524,0 18.35328,-33.94446,0 18.35375,-33.94357,0 18.35423,-33.94263,0 18.35462,-33.94176,0 18.35496,-33.94102,0 18.35546,-33.94007,0 18.35598,-33.93905,0 18.35642,-33.93828,0 18.35692,-33.93736,0 18.35747,-33.93644,0 18.35781,-33.93579,0 18.3585,-33.93476,0 18.35901,-33.93398,0 18.35956,-33.93324,0 18.36021,-33.9323,0 18.3609,-33.93141,0 18.36163,-33.9304,0 18.36225,-33.92967,0 18.36303,-33.92867,0 18.36376,-33.9278,0 18.36454,-33.92679,0 18.3651,-33.9261,0 18.36583,-33.92528,0 18.36673,-33.92427,0 18.36746,-33.92345,0 18.36805,-33.92271,0 18.36868,-33.92206,0 18.36954,-33.92108,0 18.37023,-33.92033,0 18.3712,-33.91927,0 18.37194,-33.91852,0 18.37284,-33.91759,0 18.37366,-33.9167,0 18.37441,-33.91603,0 18.37612,-33.91424,0 18.37675,-33.91359,0 18.37755,-33.9127,0 18.37856,-33.91159,0 18.37927,-33.91084,0 18.38013,-33.90985,0 18.38104,-33.90893,0 18.38179,-33.90814,0 18.38264,-33.9073,0 18.38345,-33.90656,0 18.38461,-33.90541,0 18.38551,-33.90459,0 18.38646,-33.90376,0 18.38734,-33.90297,0 18.38831,-33.90208,0 18.38921,-33.90134,0 18.39031,-33.90041,0 18.39123,-33.89964,0 18.39226,-33.89883,0 18.39313,-33.89813,0 18.39425,-33.89731,0 18.39515,-33.89667,0 18.39632,-33.89585,0 18.39706,-33.89534,0 18.39834,-33.89452,0 18.3993,-33.89392,0 18.40021,-33.89333,0 18.40143,-33.89264,0 18.40244,-33.89203,0 18.40361,-33.8914,0 18.40473,-33.89077,0 18.40605,-33.89012,0 18.40748,-33.88948,0 18.40834,-33.88914,0 18.40977,-33.88858,0 18.41074,-33.88831,0 18.41213,-33.88788,0 18.41325,-33.8876,0 18.41434,-33.88737,0 18.41572,-33.8871,0 18.4169,-33.88692,0 18.41818,-33.88677,0 18.41964,-33.88664,0 18.42082,-33.8866,0 18.42213,-33.88659,0 18.42362,-33.8866,0 18.42503,-33.88669,0 18.42626,-33.88678,0 18.42773,-33.88696,0 18.429,-33.8871,0 18.43065,-33.88733,0 18.43158,-33.88747,0 18.43317,-33.88775,0 18.43472,-33.88807,0 18.43586,-33.88835,0 18.4373,-33.88875,0 18.43876,-33.88916,0 18.43981,-33.88952,0 18.44117,-33.88998,0 18.44244,-33.89054,0 18.44347,-33.8911,0 18.44456,-33.8918,0 18.44542,-33.89254,0 18.4461,-33.89333,0 18.44655,-33.89415,0 18.44683,-33.8952,0 18.44685,-33.89613,0 18.44662,-33.89701,0 18.44616,-33.89776,0 18.44576,-33.89822,0 18.44519,-33.89874,0 18.44414,-33.89932,0 18.44347,-33.89957,0 18.44233,-33.89985,0 18.44193,-33.89994,0 18.44147,-33.89999,0 18.44112,-33.90009,0 18.44078,-33.9001,0 18.44022,-33.90019,0 18.43987,-33.90022,0 18.43949,-33.90024,0 18.43887,-33.90028,0 18.43855,-33.90032,0 18.43815,-33.90032,0 18.43708,-33.90033,0 18.43632,-33.90032,0 18.43601,-33.90028,0 18.43563,-33.90022,0 18.43506,-33.90019,0 18.43427,-33.90015,0 18.43397,-33.90013,0 18.43266,-33.90013,0 18.4322,-33.90015,0 18.43145,-33.90027,0 18.43102,-33.90038,0 18.4308,-33.90038,0 18.43052,-33.90042,0 18.43008,-33.90051,0 18.42974,-33.90055,0 18.42929,-33.9006,0 18.42905,-33.90064,0 18.42839,-33.9007,0 18.42788,-33.90074,0 18.42762,-33.90074,0 18.42755,-33.90038,0 18.4276,-33.89941,0 18.42762,-33.89915,0 18.42773,-33.89864,0 18.42779,-33.89841,0 18.42783,-33.89809,0 18.428,-33.89763,0 18.42811,-33.89708,0 18.42819,-33.89687,0 18.42828,-33.89667,0 18.42839,-33.89635,0 18.42848,-33.89608,0 18.42876,-33.89552,0 18.42888,-33.89529,0 18.429,-33.89502,0 18.42917,-33.89479,0 18.42968,-33.89399,0 18.43008,-33.89338,0 18.43046,-33.89287,0 18.43085,-33.89232,0 18.43147,-33.89154,0 18.43192,-33.89099,0 18.43248,-33.89022,0 18.43288,-33.8897,0 18.4334,-33.889,0 18.43374,-33.88854,0 18.43416,-33.88783,0 18.43443,-33.88719,0 18.43461,-33.88641,0 18.43461,-33.88582,0 18.4345,-33.88531,0 18.43422,-33.88463,0 18.43374,-33.88393,0 18.4331,-33.8833,0 18.43248,-33.8828,0 18.4317,-33.88229,0 18.43085,-33.88184,0 18.43001,-33.88142,0 18.42922,-33.88109,0 18.42836,-33.88076,0 18.42733,-33.88039,0 18.42636,-33.88002,0 18.42508,-33.87959,0 18.42419,-33.87928,0 18.42316,-33.87895,0 18.42224,-33.87867,0 18.42144,-33.8784,0 18.42071,-33.87822,0 18.41931,-33.8779,0 18.41852,-33.87772,0 18.41749,-33.87751,0 18.41656,-33.8773,0 18.41543,-33.87709,0 18.41443,-33.87689,0 18.41353,-33.87671,0 18.4124,-33.87648,0 18.41171,-33.87625,0 18.41103,-33.87592,0 18.41045,-33.87529,0 18.41006,-33.87451,0 18.41011,-33.87374,0 18.41045,-33.87304,0 18.41091,-33.87257,0 18.41148,-33.87215,0 18.41224,-33.87177,0 18.41291,-33.87159,0 18.41381,-33.87149,0 18.41454,-33.87149,0 18.41516,-33.87149,0 18.416,-33.87159,0 18.41667,-33.87177,0 18.41738,-33.87201,0 18.41808,-33.87236,0 18.41869,-33.87285,0 18.41908,-33.87346,0 18.41938,-33.87434,0 18.41936,-33.87497,0 18.41915,-33.87569,0 18.41858,-33.87639,0 18.41774,-33.87703,0 18.41715,-33.87737,0 18.41611,-33.87776,0 18.41533,-33.87799,0 18.41415,-33.87831,0 18.41326,-33.87853,0 18.41234,-33.87877,0 18.41112,-33.87909,0 18.41028,-33.87932,0 18.40916,-33.87968,0 18.4081,-33.88,0 18.40719,-33.88034,0 18.40611,-33.88067,0 18.40507,-33.88106,0 18.40445,-33.88128,0 18.40316,-33.88179,0 18.40199,-33.88225,0 18.40109,-33.88261,0 18.39993,-33.88314,0 18.39907,-33.88353,0 18.39792,-33.88412,0 18.39677,-33.88472,0 18.39593,-33.88518,0 18.39476,-33.88586,0 18.39375,-33.88646,0 18.39289,-33.887,0 18.39203,-33.88761,0 18.39111,-33.8882,0 18.38997,-33.889,0 18.38888,-33.88975,0 18.38774,-33.89059,0 18.38665,-33.89138,0 18.38562,-33.89208,0 18.38476,-33.89278,0 18.384,-33.89333,0 18.38282,-33.89424,0 18.38192,-33.89493,0 18.38076,-33.8958,0 18.37979,-33.89653,0 18.37688,-33.89877,0 18.37486,-33.90047,0 18.37379,-33.90138,0 18.3728,-33.90223,0 18.37194,-33.90297,0 18.37105,-33.90381,0 18.37017,-33.9046,0 18.36937,-33.90532,0 18.36852,-33.9061,0 18.36754,-33.90697,0 18.36651,-33.90793,0 18.36565,-33.90874,0 18.36482,-33.90948,0 18.36393,-33.91035,0 18.3632,-33.91109,0 18.36219,-33.91209,0 18.36039,-33.91396,0 18.35793,-33.91656,0 18.35701,-33.91754,0 18.35627,-33.91838,0 18.35546,-33.91924,0 18.35462,-33.9201,0 18.3535,-33.92102,0 18.3526,-33.92154,0 18.35146,-33.92201,0 18.35031,-33.92226,0 18.34935,-33.92226,0 18.3484,-33.92212,0 18.34768,-33.92187,0 18.34682,-33.92136,0 18.34627,-33.9207,0 18.34602,-33.92006,0 18.34599,-33.91942,0 18.34602,-33.91885,0 18.34631,-33.91815,0 18.34671,-33.91745,0 18.34717,-33.91695,0 18.34762,-33.91653,0 18.34829,-33.91608,0 18.34883,-33.91573,0 18.34969,-33.91534,0 18.35032,-33.91512,0 18.35109,-33.91498,0 18.35233,-33.91493,0 18.353,-33.91502,0 18.3539,-33.9153,0 18.35496,-33.91589,0 18.35564,-33.91647,0 18.35625,-33.91718,0 18.35684,-33.91833,0 18.35712,-33.91927,0 18.3573,-33.92052,0 18.35731,-33.92162,0 18.35724,-33.92262,0 18.35715,-33.92363,0 18.35692,-33.92468,0 18.35661,-33.92601,0 18.3563,-33.92715,0 18.35587,-33.92862,0 18.35552,-33.92969,0 18.35506,-33.93095,0 18.35466,-33.93202,0 18.35432,-33.93309,0 18.3539,-33.9342,0 18.35352,-33.93542,0 18.35305,-33.93677,0 18.3526,-33.93812,0 18.3522,-33.93937,0 18.35188,-33.94052,0 18.35152,-33.94165,0 18.35109,-33.94299,0 18.34997,-33.94673,0 18.34883,-33.95059,0 18.34778,-33.9543,0 18.34665,-33.95809,0 18.34539,-33.96237,0 18.34414,-33.9668,0 18.34336,-33.9705,0 18.3427,-33.97513,0 18.34236,-33.97824,0 18.34219,-33.98127,0 18.34202,-33.98425,0 18.34202,-33.98728,0 18.34213,-33.99039,0 18.34218,-33.99161,0 18.34225,-33.99221,0 18.3427,-33.99631,0 18.34282,-33.99687,0 18.34322,-33.99896,0 18.34358,-34.00035,0 18.34414,-34.00213,0 18.34454,-34.00348,0 18.34492,-34.00452,0 18.34545,-34.00594,0 18.34605,-34.00754,0 18.34654,-34.00883,0 18.34706,-34.01015,0 18.34745,-34.01129,0 18.34785,-34.01237,0 18.34826,-34.01363,0 18.34871,-34.01488,0 18.34923,-34.01637,0 18.34958,-34.01747,0 18.35003,-34.01898,0 18.35036,-34.02013,0 18.3507,-34.02141,0 18.35098,-34.02269,0 18.35123,-34.02415,0 18.35146,-34.02554,0 18.35169,-34.02671,0 18.35193,-34.02814,0 18.35216,-34.02937,0 18.35238,-34.03057,0 18.35255,-34.03155,0 18.35289,-34.03299,0 18.35311,-34.034,0 18.3534,-34.03537,0 18.35369,-34.03643,0 18.35406,-34.03802,0 18.35485,-34.04118,0 18.3558,-34.04503,0 18.35619,-34.04631,0 18.35764,-34.05096,0 18.35843,-34.05341,0 18.35894,-34.05482,0 18.35947,-34.05618,0 18.35995,-34.05753,0 18.36051,-34.05894,0 18.36107,-34.06027,0 18.36157,-34.06146,0 18.36219,-34.06284,0 18.36269,-34.06403,0 18.3633,-34.06539,0 18.36382,-34.06641,0 18.36438,-34.06755,0 18.36502,-34.06888,0 18.36554,-34.07,0 18.36606,-34.07103,0 18.36679,-34.07237,0 18.36737,-34.07349,0 18.36811,-34.07479,0 18.36869,-34.07579,0 18.36953,-34.07707,0 18.37023,-34.07819,0 18.37109,-34.07964,0 18.37183,-34.08071,0 18.37252,-34.08178,0 18.37334,-34.08298,0 18.37423,-34.08434,0 18.37497,-34.08545,0 18.37566,-34.08648,0 18.37648,-34.08755,0 18.37744,-34.08884,0 18.37828,-34.08989,0 18.37929,-34.09113,0 18.38024,-34.09227,0 18.38127,-34.09341,0 18.38248,-34.09479,0 18.38333,-34.09575,0 18.38448,-34.09691,0 18.38573,-34.09816,0 18.38691,-34.09937,0 18.38803,-34.10042,0 18.38894,-34.10133,0 18.39022,-34.10252,0 18.39117,-34.10338,0 18.39212,-34.10426,0 18.3934,-34.10547,0 18.3942,-34.10622,0 18.3954,-34.10729,0 18.39649,-34.10825,0 18.39775,-34.10938,0 18.39874,-34.11021,0 18.39998,-34.11134,0 18.40311,-34.1142,0 18.40647,-34.11713,0 18.40742,-34.11795,0 18.40834,-34.11869,0 18.40919,-34.11939,0 18.41011,-34.12009,0 18.41097,-34.12079,0 18.41191,-34.12148,0 18.41286,-34.12216,0 18.41394,-34.12288,0 18.41516,-34.12372,0 18.41634,-34.1245,0 18.41732,-34.12516,0 18.41813,-34.12578,0 18.41936,-34.1266,0 18.42032,-34.12729,0 18.42138,-34.12801,0 18.42236,-34.12865,0 18.42327,-34.12926,0 18.42442,-34.13005,0 18.42545,-34.1307,0 18.42856,-34.13274,0 18.42962,-34.13336,0 18.43091,-34.13411,0 18.43197,-34.13471,0 18.43338,-34.13544,0 18.43444,-34.13599,0 18.43556,-34.13644,0 18.437,-34.13689,0 18.43825,-34.13718,0 18.43999,-34.13727,0 18.44111,-34.13713,0 18.44227,-34.13689,0 18.4433,-34.13657,0 18.44456,-34.13606,0 18.44559,-34.13564,0 18.44685,-34.13508,0 18.44778,-34.13466,0 18.44913,-34.13402,0 18.45008,-34.13351,0 18.45109,-34.13297,0 18.45215,-34.13232,0 18.453,-34.13177,0 18.45406,-34.13112,0 18.4549,-34.13054,0 18.45569,-34.12999,0 18.45658,-34.1293,0 18.45737,-34.12875,0 18.45827,-34.12793,0 18.45888,-34.12738,0 18.45966,-34.1267,0 18.46051,-34.12587,0 18.46104,-34.1254,0 18.46191,-34.12454,0 18.46258,-34.12386,0 18.46344,-34.12307,0 18.46401,-34.12246,0 18.46476,-34.12163,0 18.46544,-34.12088,0 18.46617,-34.12006,0 18.4667,-34.11944,0 18.46757,-34.11836,0 18.46819,-34.11763,0 18.46882,-34.11674,0 18.46928,-34.11604,0 18.46981,-34.11511,0 18.47031,-34.11432,0 18.47082,-34.11328,0 18.4711,-34.11255,0 18.47151,-34.11157,0 18.47183,-34.11067,0 18.47211,-34.1098,0 18.47239,-34.1087,0 18.47265,-34.10761,0 18.47282,-34.10668,0 18.47301,-34.10591,0 18.47323,-34.10477,0 18.47334,-34.10381,0 18.47351,-34.10275,0 18.47363,-34.10161,0 18.47374,-34.10078,0 18.47385,-34.0997,0 18.47397,-34.09882,0 18.47408,-34.09784,0 18.47413,-34.09689,0 18.47424,-34.09575,0 18.47435,-34.09483,0 18.47443,-34.09402,0 18.47458,-34.09296,0 18.47471,-34.09207,0 18.47483,-34.0909,0 18.47494,-34.08997,0 18.47528,-34.08676,0 18.47563,-34.08378,0 18.47603,-34.08073,0 18.47654,-34.07753,0 18.47666,-34.07666,0 18.47687,-34.07552,0 18.47704,-34.0746,0 18.47723,-34.07354,0 18.47746,-34.07233,0 18.47769,-34.0713,0 18.47788,-34.07007,0 18.47805,-34.06915,0 18.47837,-34.06721,0 18.47861,-34.06604,0 18.47878,-34.06511,0 18.47895,-34.064,0 18.47912,-34.06288,0 18.47929,-34.06195,0 18.47946,-34.06102,0 18.47968,-34.05991,0 18.47986,-34.05897,0 18.48009,-34.05813,0 18.48024,-34.0573,0 18.48052,-34.05615,0 18.48074,-34.05515,0 18.48089,-34.05445,0 18.48113,-34.05341,0 18.48129,-34.05268,0 18.48146,-34.05161,0 18.48164,-34.05077,0 18.48181,-34.04989,0 18.48198,-34.04901,0 18.4822,-34.04787,0 18.48231,-34.047,0 18.48244,-34.04617,0 18.48259,-34.04503,0 18.48278,-34.04393,0 18.48295,-34.04281,0 18.48307,-34.04184,0 18.48318,-34.04114,0 18.48335,-34.03997,0 18.48388,-34.03624,0 18.48415,-34.03336,0 18.48444,-34.02936,0 18.48455,-34.02759,0 18.48461,-34.02643,0 18.48467,-34.02563,0 18.48472,-34.02457,0 18.48478,-34.02356,0 18.48478,-34.02269,0 18.48484,-34.02159,0 18.48489,-34.02063,0 18.48495,-34.01953,0 18.48501,-34.0187,0 18.48511,-34.01761,0 18.48517,-34.01674,0 18.48524,-34.01577,0 18.48528,-34.01463,0 18.48539,-34.01353,0 18.48545,-34.01266,0 18.48556,-34.01175,0 18.48564,-34.0106,0 18.48573,-34.00955,0 18.48576,-34.00864,0 18.48581,-34.00734,0 18.4859,-34.00644,0 18.48595,-34.00529,0 18.48598,-34.00455,0 18.48601,-34.00328,0 18.48604,-34.00236,0 18.48604,-34.00148,0 18.4861,-33.99775,0 18.48612,-33.99472,0 18.48607,-33.99142,0 18.48607,-33.98868,0 18.48612,-33.98561,0 18.48616,-33.98467,0 18.48616,-33.98369,0 18.48623,-33.98254,0 18.48629,-33.97984,0 18.48635,-33.97691,0 18.48657,-33.97325,0 18.48668,-33.97032,0 18.48667,-33.96861,0 18.48663,-33.96776,0 18.48656,-33.96689,0 18.48646,-33.96602,0 18.48633,-33.96489,0 18.48627,-33.96409,0 18.48616,-33.96326,0 18.48601,-33.9624,0 18.48584,-33.9613,0 18.4857,-33.96056,0 18.48551,-33.95952,0 18.48534,-33.95869,0 18.48511,-33.95787,0 18.4849,-33.95692,0 18.48467,-33.95595,0 18.48444,-33.95497,0 18.48421,-33.95409,0 18.48398,-33.95329,0 18.48381,-33.9525,0 18.48364,-33.95171,0 18.48343,-33.95082,0 18.48321,-33.95004,0 18.48293,-33.94899,0 18.48225,-33.94652,0 18.48198,-33.94551,0 18.48169,-33.94463,0 18.48085,-33.94199,0 18.47998,-33.93928,0 18.47884,-33.93581,0 18.47816,-33.93393,0 18.47786,-33.93318,0 18.47752,-33.9323,0 18.47717,-33.9316,0 18.47677,-33.93072,0 18.4762,-33.92958,0 18.4758,-33.92885,0 18.47525,-33.92789,0 18.47471,-33.92699,0 18.4742,-33.9262,0 18.47368,-33.92536,0 18.47312,-33.92441,0 18.47261,-33.92372,0 18.47189,-33.92267,0 18.47116,-33.92168,0 18.47054,-33.92093,0 18.46985,-33.9201,0 18.46936,-33.91946,0 18.46875,-33.91878,0 18.46796,-33.91782,0 18.46746,-33.91718,0 18.46676,-33.91629,0 18.46607,-33.9154,0 18.46555,-33.9147,0 18.46493,-33.91391,0 18.46413,-33.91298,0 18.46361,-33.91237,0 18.4628,-33.9115,0 18.46196,-33.91068,0 18.46124,-33.91003,0 18.46024,-33.90926,0 18.45922,-33.90852,0 18.45823,-33.90786,0 18.45732,-33.90734,0 18.45652,-33.90693,0 18.45552,-33.90646,0 18.45434,-33.90591,0 18.45348,-33.90558,0 18.45232,-33.90514,0 18.45148,-33.90483,0 18.45014,-33.9044,0 18.44965,-33.90423,0 18.44924,-33.90408,0 18.44856,-33.9039,0 18.4481,-33.90376,0 18.44788,-33.90367,0 18.44742,-33.90358,0 18.44694,-33.90344,0 18.44633,-33.90326,0 18.44582,-33.90316,0 18.44543,-33.90308,0 18.44479,-33.90292,0 18.44427,-33.90283,0 18.4437,-33.90269,0 18.44324,-33.9026,0 18.44291,-33.90257,0 18.44246,-33.90248,0 18.44187,-33.90241,0 18.44141,-33.90232,0 18.44101,-33.90227,0 18.4405,-33.90221,0 18.44009,-33.90213,0 18.43929,-33.90204,0 18.43889,-33.90204,0 18.43853,-33.90202,0 18.43814,-33.90198,0 18.43792,-33.90198,0 18.43758,-33.90195,0 18.43706,-33.90195,0 18.43668,-33.90193,0 18.43601,-33.90189,0 18.43523,-33.90181,0 18.43461,-33.90175,0 18.43431,-33.90176,0 18.43405,-33.9017,0 18.43366,-33.90166,0 18.43338,-33.90166,0 18.4331,-33.90161,0 18.43282,-33.90157,0 18.4322,-33.90147,0 18.43105,-33.90129,0 18.43057,-33.90125,0 18.43035,-33.9012,0 18.43007,-33.90115,0 18.42985,-33.90115,0 18.42813,-33.90088,0 18.42783,-33.90079,0 18.42756,-33.90074,0 18.42755,-33.90047,0 18.42743,-33.89987,0 18.42743,-33.89951,0 18.42745,-33.89925,0 18.42749,-33.89882,0 18.42762,-33.89832,0 18.42768,-33.89808,0 18.42779,-33.89785,0 18.42783,-33.89763,0 18.42794,-33.8974,0 18.42802,-33.89706,0 18.42808,-33.89682,0 18.42819,-33.8965,0 18.42831,-33.89599,0 18.42842,-33.89552,0 18.4285,-33.8952,0 18.42854,-33.89496,0 18.42871,-33.89431,0 18.42884,-33.89383,0 18.42905,-33.8931,0 18.42928,-33.8925,0 18.42945,-33.89189,0 18.42974,-33.8911,0 18.42996,-33.89049,0 18.43014,-33.88993,0 18.43042,-33.88919,0 18.43069,-33.88857,0 18.431,-33.88789,0 18.4313,-33.88728,0 18.43157,-33.88672,0 18.4317,-33.88614,0 18.43175,-33.88545,0 18.43157,-33.88472,0 18.43134,-33.88435,0 18.43082,-33.88379,0 18.43042,-33.88351,0 18.42962,-33.88309,0 18.42894,-33.88286,0 18.42816,-33.88261,0 18.4276,-33.88252,0 18.42642,-33.88235,0 18.42567,-33.88226,0 18.42493,-33.88221,0 18.42396,-33.88216,0 18.42306,-33.88211,0 18.42222,-33.88216,0 18.42127,-33.8822,0 18.42024,-33.8823,0 18.41948,-33.88234,0 18.41852,-33.88244,0 18.41761,-33.88253,0 18.41698,-33.88258,0 18.41595,-33.88266,0 18.4151,-33.88275,0 18.41406,-33.88286,0 18.41303,-33.88303,0 18.41202,-33.88321,0 18.41112,-33.88335,0 18.41006,-33.88353,0 18.40925,-33.88365,0 18.40839,-33.88384,0 18.40731,-33.88403,0 18.40642,-33.88422,0 18.4053,-33.88444,0 18.4041,-33.88472,0 18.40319,-33.88491,0 18.40221,-33.88514,0 18.40109,-33.88545,0 18.4001,-33.88584,0 18.39907,-33.88618,0 18.39815,-33.88659,0 18.39701,-33.88714,0 18.39616,-33.8876,0 18.39529,-33.88817,0 18.39425,-33.88884,0 18.39358,-33.8893,0 18.39246,-33.89008,0 18.39167,-33.89063,0 18.39054,-33.89143,0 18.38974,-33.89198,0 18.38876,-33.89268,0 18.38797,-33.89329,0 18.38717,-33.89394,0 18.38646,-33.89452,0 18.38573,-33.89506,0 18.38484,-33.8958,0 18.38388,-33.89662,0 18.38316,-33.8972,0 18.38207,-33.89804,0 18.3813,-33.89864,0 18.38064,-33.89915,0 18.37962,-33.89992,0 18.3787,-33.90064,0 18.378,-33.90125,0 18.37692,-33.90213,0 18.37598,-33.90294,0 18.37531,-33.90363,0 18.37463,-33.90427,0 18.37395,-33.90497,0 18.37301,-33.90596,0 18.37234,-33.90674,0 18.37172,-33.90749,0 18.37103,-33.90833,0 18.37043,-33.90907,0 18.36964,-33.91008,0 18.36903,-33.91093,0 18.36824,-33.912,0 18.3676,-33.91289,0 18.36667,-33.91425,0 18.36617,-33.91498,0 18.36555,-33.91589,0 18.36494,-33.91681,0 18.36416,-33.91792,0 18.36336,-33.91908,0 18.36273,-33.91996,0 18.36216,-33.92085,0 18.36142,-33.92187,0 18.36079,-33.92276,0 18.36012,-33.92368,0 18.35918,-33.92499,0 18.3585,-33.92592,0 18.35712,-33.92778,0 18.35632,-33.92895,0 18.35563,-33.92999,0 18.35484,-33.93113,0 18.35432,-33.93197,0 18.35363,-33.933,0 18.35294,-33.93416,0 18.35233,-33.93507,0 18.35163,-33.93626,0 18.35106,-33.93719,0 18.35037,-33.9383,0 18.34986,-33.93915,0 18.34907,-33.94048,0 18.34834,-33.94167,0 18.34773,-33.94281,0 18.34706,-33.94395,0 18.34633,-33.94519,0 18.34568,-33.9464,0 18.34532,-33.94693,0 18.34448,-33.94835,0 18.34253,-33.95166,0 18.34044,-33.95526,0 18.3387,-33.95865,0 18.33534,-33.96529,0 18.33248,-33.97087,0 18.32932,-33.97634,0 18.32833,-33.97787,0 18.32738,-33.97939,0 18.32651,-33.98071,0 18.32605,-33.98137,0 18.32491,-33.98304,0 18.32413,-33.98428,0 18.3234,-33.98547,0 18.32267,-33.98653,0 18.32182,-33.98788,0 18.31886,-33.99252,0 18.31839,-33.99337,0 18.3177,-33.99477,0 18.31741,-33.99603,0 18.31741,-33.99705,0 18.3178,-33.99825,0 18.31819,-33.99893,0 18.31936,-33.99994,0 18.32021,-34.00035,0 18.3215,-34.00049,0 18.32239,-34.0004,0 18.32357,-33.99994,0 18.3243,-33.99948,0 18.32525,-33.9987,0 18.32587,-33.99806,0 18.32645,-33.99743,0 18.32716,-33.9966,0 18.32783,-33.9958,0 18.32834,-33.99514,0 18.32901,-33.99426,0 18.32954,-33.99356,0 18.33006,-33.99286,0 18.33263,-33.98951,0 18.33321,-33.98868,0 18.33383,-33.98776,0 18.33452,-33.98681,0 18.33719,-33.98291,0 18.33979,-33.97894,0 18.34235,-33.97476,0 18.34487,-33.97037,0 18.34728,-33.966,0 18.34975,-33.96158,0 18.35165,-33.95796,0 18.35272,-33.95604,0 18.35318,-33.95515,0 18.35367,-33.95435,0 18.35415,-33.95339,0 18.35478,-33.95236,0 18.35524,-33.95151,0 18.35569,-33.95059,0 18.35604,-33.94994,0 18.35655,-33.94896,0 18.35707,-33.94799,0 18.35747,-33.9472,0 18.3585,-33.94533,0 18.359,-33.9445,0 18.35939,-33.94382,0 18.36028,-33.94208,0 18.36079,-33.9411,0 18.36136,-33.94007,0 18.3618,-33.93915,0 18.36331,-33.93617,0 18.36516,-33.93265,0 18.36662,-33.92995,0 18.36851,-33.92671,0 18.37023,-33.92401,0 18.37071,-33.92326,0 18.37133,-33.92244,0 18.37206,-33.92143,0 18.37267,-33.92056,0 18.37343,-33.91964,0 18.37395,-33.91903,0 18.37469,-33.9181,0 18.37543,-33.91712,0 18.37609,-33.91635,0 18.37676,-33.91544,0 18.37738,-33.9147,0 18.37795,-33.91396,0 18.3787,-33.91298,0 18.37917,-33.91223,0 18.37978,-33.9113,0 18.38036,-33.91051,0 18.38108,-33.90944,0 18.38164,-33.90866,0 18.38231,-33.9077,0 18.38299,-33.90678,0 18.38371,-33.90587,0 18.38436,-33.90506,0 18.38493,-33.90427,0 18.38562,-33.90349,0 18.38629,-33.90276,0 18.38717,-33.90185,0 18.38792,-33.9012,0 18.3886,-33.90064,0 18.38977,-33.89964,0 18.3905,-33.89909,0 18.39169,-33.89822,0 18.39254,-33.89766,0 18.39375,-33.8969,0 18.395,-33.89618,0 18.39599,-33.89552,0 18.39701,-33.89492,0 18.39821,-33.89426,0 18.39924,-33.89365,0 18.40038,-33.89305,0 18.40165,-33.89241,0 18.403,-33.89177,0 18.40423,-33.89117,0 18.40536,-33.89073,0 18.40636,-33.89035,0 18.40776,-33.88989,0 18.40916,-33.88948,0 18.41045,-33.8891,0 18.4116,-33.88882,0 18.41286,-33.88849,0 18.41393,-33.88824,0 18.41537,-33.88798,0 18.41673,-33.8877,0 18.41818,-33.88747,0 18.41942,-33.88728,0 18.42065,-33.88715,0 18.42183,-33.8871,0 18.42362,-33.88701,0 18.42497,-33.88696,0 18.42592,-33.88696,0 18.42721,-33.88696,0 18.42859,-33.88705,0 18.42979,-33.8871,0 18.43108,-33.88724,0 18.43254,-33.88742,0 18.43409,-33.88765,0 18.43506,-33.88779,0 18.43643,-33.88807,0 18.43786,-33.88847,0 18.43929,-33.88896,0 18.44061,-33.88952,0 18.4417,-33.89017,0 18.44279,-33.89108,0 18.44347,-33.89177,0 18.44425,-33.89278,0 18.44473,-33.89361,0 18.44509,-33.89461,0 18.4453,-33.89566,0 18.44524,-33.89655,0 18.44509,-33.89735,0 18.44476,-33.89809,0 18.44421,-33.89897,0 18.44364,-33.89962,0 18.44318,-33.89999,0 18.4421,-33.90064,0 18.44173,-33.90074,0 18.44107,-33.90092,0 18.44055,-33.90097,0 18.4401,-33.90097,0 18.43921,-33.90102,0 18.43781,-33.90102,0 18.43747,-33.90102,0 18.43712,-33.90102,0 18.43612,-33.90102,0 18.4358,-33.90102,0 18.43545,-33.90102,0 18.43299,-33.90102,0 18.43277,-33.90106,0 18.43254,-33.90106,0 18.43214,-33.90106,0 18.43163,-33.90106,0 18.43114,-33.90106,0 18.43054,-33.90102,0 18.43031,-33.90102,0 18.43002,-33.90097,0 18.42974,-33.90097,0 18.4294,-33.90092,0 18.42876,-33.90088,0 18.42822,-33.90079,0 18.42777,-33.90074,0 18.42756,-33.90074,0 18.42751,-33.90036,0 18.42739,-33.89962,0 18.42738,-33.89932,0 18.42739,-33.89911,0 18.42739,-33.89887,0 18.42756,-33.89832,0 18.42762,-33.89808,0 18.42773,-33.89785,0 18.42788,-33.89754,0 18.42805,-33.89717,0 18.42813,-33.89692,0 18.42831,-33.89669,0 18.42854,-33.89618,0 18.42865,-33.89589,0 18.42884,-33.89561,0 18.429,-33.89534,0 18.42916,-33.89506,0 18.42929,-33.89484,0 18.42974,-33.89408,0 18.43014,-33.89343,0 18.43069,-33.89264,0 18.43108,-33.892,0 18.43163,-33.89124,0 18.43208,-33.89063,0 18.4326,-33.88993,0 18.43306,-33.88933,0 18.4336,-33.88861,0 18.43405,-33.88797,0 18.43454,-33.88719,0 18.43483,-33.88654,0 18.435,-33.88589,0 18.435,-33.88522,0 18.43489,-33.8844,0 18.4346,-33.8837,0 18.4341,-33.88303,0 18.43366,-33.88257,0 18.43283,-33.88207,0 18.43197,-33.88165,0 18.43102,-33.88138,0 18.43014,-33.88123,0 18.42939,-33.88114,0 18.42811,-33.8811,0 18.4271,-33.88105,0 18.42615,-33.88106,0 18.42491,-33.8811,0 18.42413,-33.88114,0 18.42278,-33.8812,0 18.42166,-33.88129,0 18.42093,-33.88133,0 18.41984,-33.88142,0 18.41881,-33.88151,0 18.41785,-33.88161,0 18.41679,-33.88174,0 18.41572,-33.88188,0 18.41482,-33.88202,0 18.41366,-33.88221,0 18.41275,-33.88239,0 18.41171,-33.88258,0 18.41063,-33.88277,0 18.40982,-33.88295,0 18.40862,-33.88314,0 18.40748,-33.88337,0 18.40636,-33.88362,0 18.40552,-33.8838,0 18.40445,-33.88408,0 18.40347,-33.88435,0 18.40239,-33.88463,0 18.40143,-33.8849,0 18.40025,-33.88527,0 18.3993,-33.88559,0 18.39844,-33.88589,0 18.39741,-33.88626,0 18.39626,-33.88672,0 18.39518,-33.88719,0 18.39415,-33.8877,0 18.39329,-33.88812,0 18.39223,-33.88866,0 18.39106,-33.88934,0 18.39005,-33.88989,0 18.38894,-33.89059,0 18.38808,-33.89115,0 18.38722,-33.8917,0 18.38614,-33.8925,0 18.38512,-33.89323,0 18.38411,-33.89397,0 18.38327,-33.89461,0 18.3822,-33.89548,0 18.38147,-33.89603,0 18.38052,-33.89685,0 18.37978,-33.89748,0 18.37895,-33.89818,0 18.37794,-33.89905,0 18.37721,-33.89978,0 18.37643,-33.90047,0 18.37561,-33.90134,0 18.37463,-33.90225,0 18.37389,-33.90306,0 18.37303,-33.904,0 18.37212,-33.90502,0 18.37137,-33.90586,0 18.37049,-33.90683,0 18.3697,-33.90775,0 18.36886,-33.90875,0 18.36828,-33.90944,0 18.36754,-33.91037,0 18.36668,-33.9114,0 18.36589,-33.91237,0 18.36516,-33.91333,0 18.36443,-33.9142,0 18.36393,-33.91489,0 18.36303,-33.91603,0 18.36222,-33.91717,0 18.36163,-33.91805,0 18.3609,-33.91908,0 18.36012,-33.92024,0 18.35961,-33.92097,0 18.35888,-33.92212,0 18.35821,-33.92313,0 18.35748,-33.92427,0 18.35686,-33.92523,0 18.35608,-33.92633,0 18.35535,-33.92747,0 18.35472,-33.92839,0 18.35384,-33.92967,0 18.35182,-33.93274,0 18.34902,-33.93709,0 18.34682,-33.94072,0 18.34532,-33.94336,0 18.34392,-33.94583,0 18.34333,-33.94696,0 18.34274,-33.94812,0 18.34208,-33.94952,0 18.34151,-33.95059,0 18.34082,-33.95199,0 18.34016,-33.95338,0 18.33961,-33.95446,0 18.33882,-33.95609,0 18.33708,-33.95975,0 18.33384,-33.96656,0 18.33092,-33.97289,0 18.32823,-33.97908,0 18.32645,-33.98285,0 18.32463,-33.98657,0 18.32351,-33.98872,0 18.32285,-33.98984,0 18.32205,-33.99109,0 18.3213,-33.99226,0 18.32056,-33.99342,0 18.31959,-33.99481,0 18.31896,-33.9957,0 18.31824,-33.99673,0 18.31736,-33.99798,0 18.31673,-33.99887,0 18.316,-33.99989,0 18.31507,-34.00119,0 18.31415,-34.0025,0 18.31331,-34.00365,0 18.31242,-34.00493,0 18.30978,-34.00877,0 18.30763,-34.012,0 18.3054,-34.01502,0 18.30414,-34.01642,0 18.30317,-34.0174,0 18.30231,-34.01828,0 18.30149,-34.01917,0 18.30053,-34.02031,0 18.2998,-34.02127,0 18.29913,-34.02255,0 18.2987,-34.02368,0 18.29846,-34.02475,0 18.2984,-34.02621,0 18.29882,-34.02755,0 18.29952,-34.02864,0 18.30042,-34.02941,0 18.30137,-34.02997,0 18.30272,-34.03029,0 18.30423,-34.03029,0 18.30551,-34.02996,0 18.3067,-34.02937,0 18.30759,-34.02873,0 18.30826,-34.02815,0 18.30894,-34.0275,0 18.30984,-34.02658,0 18.31055,-34.02582,0 18.31141,-34.02489,0 18.31225,-34.02393,0 18.31301,-34.02303,0 18.31365,-34.02232,0 18.31449,-34.02136,0 18.31516,-34.02058,0 18.31581,-34.01977,0 18.3165,-34.01902,0 18.3174,-34.01793,0 18.31808,-34.01715,0 18.31886,-34.01619,0 18.32121,-34.0134,0 18.32428,-34.00995,0 18.32514,-34.00891,0 18.32571,-34.00818,0 18.32648,-34.00713,0 18.3272,-34.00613,0 18.32789,-34.00507,0 18.32856,-34.0041,0 18.32909,-34.00324,0 18.32968,-34.00237,0 18.33024,-34.00136,0 18.33074,-34.00053,0 18.33126,-33.99966,0 18.33192,-33.99861,0 18.33263,-33.99738,0 18.33464,-33.99393,0 18.33607,-33.99123,0 18.33837,-33.98694,0 18.34059,-33.98262,0 18.3427,-33.97815,0 18.34504,-33.97375,0 18.34717,-33.96941,0 18.34924,-33.96483,0 18.35126,-33.96002,0 18.35249,-33.95697,0 18.35381,-33.95376,0 18.35518,-33.95055,0 18.35655,-33.94748,0 18.35793,-33.9446,0 18.35972,-33.94075,0 18.36107,-33.93779,0 18.36256,-33.93458,0 18.36398,-33.93169,0 18.36443,-33.93082,0 18.36496,-33.92988,0 18.36533,-33.92926,0 18.36611,-33.92806,0 18.36667,-33.9272,0 18.36737,-33.9262,0 18.36785,-33.92542,0 18.36857,-33.92439,0 18.36931,-33.9234,0 18.36998,-33.92244,0 18.37057,-33.92168,0 18.37121,-33.92088,0 18.372,-33.91978,0 18.37262,-33.91905,0 18.37334,-33.91809,0 18.37402,-33.91722,0 18.37521,-33.91568,0 18.378,-33.91228,0 18.38029,-33.90962,0 18.38097,-33.90884,0 18.38186,-33.90788,0 18.38242,-33.9073,0 18.38332,-33.90637,0 18.3843,-33.90544,0 18.38505,-33.90469,0 18.38585,-33.90395,0 18.38676,-33.90306,0 18.38764,-33.90221,0 18.38848,-33.90147,0 18.38926,-33.90074,0 18.39016,-33.89996,0 18.39117,-33.89915,0 18.39201,-33.8985,0 18.39294,-33.89776,0 18.3938,-33.89711,0 18.39472,-33.89655,0 18.39582,-33.8958,0 18.39655,-33.89539,0 18.39769,-33.89468,0 18.39885,-33.89401,0 18.39975,-33.89357,0 18.40084,-33.89301,0 18.40176,-33.8925,0 18.40294,-33.89195,0 18.40405,-33.89147,0 18.40496,-33.89105,0 18.4063,-33.89049,0 18.40765,-33.88989,0 18.40879,-33.88947,0 18.40988,-33.88905,0 18.41097,-33.88868,0 18.41236,-33.88824,0 18.41349,-33.88794,0 18.41494,-33.88756,0 18.41611,-33.88728,0 18.41761,-33.887,0 18.41914,-33.88683,0 18.42037,-33.88669,0 18.42161,-33.8866,0 18.42276,-33.88659,0 18.42436,-33.88659,0 18.42575,-33.8866,0 18.42722,-33.88663,0 18.428,-33.88664,0 18.42985,-33.88669,0 18.43105,-33.88677,0 18.43243,-33.88686,0 18.4338,-33.88696,0 18.43511,-33.88715,0 18.43666,-33.88742,0 18.4382,-33.88779,0 18.43941,-33.88817,0 18.4409,-33.88868,0 18.44212,-33.88921,0 18.44336,-33.8898,0 18.4445,-33.8905,0 18.44571,-33.89136,0 18.44649,-33.89204,0 18.44733,-33.89301,0 18.44788,-33.89389,0 18.44829,-33.89484,0 18.44851,-33.89571,0 18.44856,-33.89655,0 18.44834,-33.89772,0 18.44812,-33.89832,0 18.44753,-33.89925,0 18.44683,-33.89987,0 18.44593,-33.90033,0 18.44513,-33.90051,0 18.44403,-33.90051,0 18.44313,-33.90042,0 18.44255,-33.90036,0 18.44204,-33.90032,0 18.4417,-33.90032,0 18.44128,-33.90028,0 18.44095,-33.90027,0 18.44061,-33.90022,0 18.44038,-33.90019,0 18.43982,-33.90015,0 18.43926,-33.9001,0 18.43895,-33.90009,0 18.43838,-33.90004,0 18.43786,-33.90001,0 18.43758,-33.89999,0 18.43472,-33.89999,0 18.43346,-33.90004,0 18.43323,-33.90009,0 18.43283,-33.90009,0 18.43243,-33.90013,0 18.43208,-33.90018,0 18.43186,-33.90024,0 18.43163,-33.90027,0 18.4308,-33.90038,0 18.43041,-33.90042,0 18.43018,-33.90047,0 18.42951,-33.9006,0 18.42922,-33.9006,0 18.42888,-33.90064,0 18.42779,-33.90074,0 18.42756,-33.90074,0 18.42751,-33.90046,0 18.42756,-33.89981,0 18.42773,-33.89929,0 18.42796,-33.89883,0 18.42828,-33.89832,0 18.4285,-33.89804,0 18.42865,-33.8978,0 18.42884,-33.89758,0 18.42911,-33.8972,0 18.42928,-33.89692,0 18.42951,-33.89669,0 18.42979,-33.89636,0 18.43001,-33.89607,0 18.43019,-33.89585,0 18.4306,-33.89538,0 18.43114,-33.89465,0 18.43158,-33.89401,0 18.43198,-33.89355,0 18.43254,-33.89287,0 18.43304,-33.89223,0 18.4336,-33.89154,0 18.43405,-33.89095,0 18.43443,-33.89045,0 18.43494,-33.88975,0 18.43534,-33.88907,0 18.43562,-33.88847,0 18.43575,-33.88789,0 18.4359,-33.88715,0 18.43596,-33.88637,0 18.43597,-33.88579,0 18.43596,-33.88504,0 18.4359,-33.8844,0 18.4358,-33.88361,0 18.43573,-33.88298,0 18.43563,-33.8823,0 18.43551,-33.88147,0 18.4354,-33.88081,0 18.43517,-33.88021,0 18.43478,-33.87959,0 18.4342,-33.87895,0 18.43366,-33.87849,0 18.43311,-33.87811,0 18.43231,-33.87762,0 18.43158,-33.8773,0 18.43065,-33.877,0 18.4299,-33.87685,0 18.42894,-33.87667,0 18.42783,-33.87662,0 18.42693,-33.87658,0 18.42603,-33.87657,0 18.42514,-33.87662,0 18.42424,-33.87672,0 18.42299,-33.87685,0 18.42183,-33.87698,0 18.42081,-33.87713,0 18.41964,-33.8773,0 18.41869,-33.87746,0 18.41755,-33.87765,0 18.41658,-33.87778,0 18.41527,-33.87799,0 18.41417,-33.87825,0 18.41303,-33.87853,0 18.41202,-33.87877,0 18.41124,-33.87895,0 18.41005,-33.87928,0 18.40885,-33.8796,0 18.40787,-33.87991,0 18.40692,-33.88019,0 18.40576,-33.88058,0 18.40457,-33.88092,0 18.4037,-33.88123,0 18.40244,-33.8817,0 18.4012,-33.8822,0 18.40003,-33.88271,0 18.39878,-33.88323,0 18.39784,-33.88362,0 18.39655,-33.88422,0 18.39558,-33.88467,0 18.39426,-33.88528,0 18.39319,-33.88582,0 18.39235,-33.88628,0 18.39123,-33.88686,0 18.39008,-33.88747,0 18.38904,-33.88811,0 18.38808,-33.88868,0 18.38719,-33.8893,0 18.38612,-33.89003,0 18.38528,-33.89068,0 18.38439,-33.89131,0 18.38377,-33.89182,0 18.38264,-33.89268,0 18.38184,-33.89338,0 18.38093,-33.89417,0 18.38013,-33.89487,0 18.37917,-33.89571,0 18.37835,-33.89645,0 18.37738,-33.89735,0 18.37654,-33.89818,0 18.37587,-33.89882,0 18.37514,-33.8996,0 18.37463,-33.90015,0 18.37406,-33.90078,0 18.3732,-33.90167,0 18.37256,-33.90239,0 18.37177,-33.9033,0 18.37132,-33.90385,0 18.37057,-33.90479,0 18.36998,-33.90546,0 18.36926,-33.90632,0 18.36875,-33.90701,0 18.36802,-33.90788,0 18.36731,-33.90884,0 18.36668,-33.90958,0 18.36605,-33.91037,0 18.36533,-33.91132,0 18.36473,-33.91209,0 18.36405,-33.91293,0 18.36269,-33.91466,0 18.36182,-33.91577,0 18.36118,-33.91653,0 18.3605,-33.91745,0 18.35984,-33.91832,0 18.35901,-33.91945,0 18.3585,-33.92015,0 18.35787,-33.92103,0 18.35703,-33.92212,0 18.35638,-33.92303,0 18.35546,-33.9242,0 18.35485,-33.92505,0 18.35406,-33.92615,0 18.35339,-33.92706,0 18.35266,-33.92802,0 18.35193,-33.92908,0 18.35109,-33.93022,0 18.34891,-33.93329,0 18.34625,-33.93686,0 18.34373,-33.94017,0 18.34117,-33.94359,0 18.33938,-33.94601,0 18.3391,-33.94675,0 18.33926,-33.94757,0 18.33977,-33.94803,0 18.34064,-33.94827,0 18.3415,-33.94831,0 18.34235,-33.9483,0 18.34351,-33.94822,0 18.34482,-33.94803,0 18.3462,-33.94785,0 18.34717,-33.94761,0 18.34857,-33.94711,0 18.34958,-33.94666,0 18.35043,-33.94617,0 18.35154,-33.94547,0 18.35255,-33.94478,0 18.35335,-33.94417,0 18.35432,-33.94338,0 18.35535,-33.94244,0 18.35638,-33.94161,0 18.35707,-33.94096,0 18.35804,-33.94012,0 18.35888,-33.93938,0 18.35989,-33.93837,0 18.36079,-33.9375,0 18.36153,-33.93668,0 18.36256,-33.93546,0 18.36319,-33.93453,0 18.3637,-33.93384,0 18.36451,-33.93258,0 18.36514,-33.93155,0 18.36567,-33.93063,0 18.36617,-33.92976,0 18.36679,-33.9288,0 18.36746,-33.92766,0 18.36794,-33.9268,0 18.36863,-33.92574,0 18.3692,-33.9249,0 18.36976,-33.92409,0 18.37057,-33.92294,0 18.37149,-33.92184,0 18.37222,-33.92102,0 18.37309,-33.9201,0 18.37385,-33.91933,0 18.37463,-33.91855,0 18.37564,-33.91754,0 18.37654,-33.91672,0 18.37738,-33.91596,0 18.37818,-33.91521,0 18.3791,-33.91433,0 18.37973,-33.91379,0 18.38081,-33.91275,0 18.38161,-33.91205,0 18.38259,-33.91112,0 18.38362,-33.91019,0 18.38459,-33.90926,0 18.38556,-33.90834,0 18.3864,-33.90747,0 18.38702,-33.90678,0 18.38785,-33.90586,0 18.38848,-33.90506,0 18.38923,-33.90423,0 18.38991,-33.90343,0 18.39083,-33.90246,0 18.39151,-33.90171,0 18.3924,-33.90079,0 18.39296,-33.90019,0 18.39386,-33.89932,0 18.39483,-33.89846,0 18.39586,-33.89757,0 18.39666,-33.89699,0 18.39762,-33.89621,0 18.39861,-33.89552,0 18.39975,-33.89473,0 18.40044,-33.89431,0 18.40164,-33.89352,0 18.40244,-33.89305,0 18.40372,-33.89223,0 18.40468,-33.89168,0 18.40563,-33.89113,0 18.40702,-33.89035,0 18.40811,-33.88975,0 18.40905,-33.8893,0 18.41034,-33.88868,0 18.4118,-33.88811,0 18.41314,-33.88765,0 18.41449,-33.88724,0 18.41537,-33.887,0 18.41679,-33.8866,0 18.41806,-33.88626,0 18.41932,-33.88598,0 18.42071,-33.88568,0 18.422,-33.88545,0 18.42304,-33.88533,0 18.42476,-33.88528,0 18.42581,-33.88527,0 18.42688,-33.88537,0 18.42796,-33.88556,0 18.42934,-33.88584,0 18.43037,-33.88612,0 18.43158,-33.88651,0 18.43243,-33.88682,0 18.43355,-33.88728,0 18.43444,-33.8876,0 18.4354,-33.88803,0 18.43626,-33.8884,0 18.43713,-33.88875,0 18.43821,-33.88919,0 18.43915,-33.88966,0 18.43999,-33.89017,0 18.44055,-33.89059,0 18.44135,-33.89138,0 18.44184,-33.892,0 18.4424,-33.89287,0 18.44279,-33.8936,0 18.44313,-33.89447,0 18.4433,-33.89524,0 18.44324,-33.89584,0 18.44302,-33.89648,0 18.44268,-33.8969,0 18.44221,-33.8972,0 18.44152,-33.89743,0 18.441,-33.89758,0 18.4405,-33.89767,0 18.43982,-33.89777,0 18.43932,-33.89781,0 18.43866,-33.89794,0 18.43809,-33.89813,0 18.43758,-33.89827,0 18.43724,-33.89836,0 18.43663,-33.8985,0 18.4362,-33.89859,0 18.43573,-33.89868,0 18.43529,-33.89878,0 18.43483,-33.89891,0 18.43426,-33.89906,0 18.43394,-33.89914,0 18.43346,-33.8992,0 18.433,-33.89929,0 18.43242,-33.89946,0 18.43192,-33.8996,0 18.4317,-33.89964,0 18.4313,-33.89978,0 18.4308,-33.89987,0 18.43048,-33.89994,0 18.43001,-33.90005,0 18.42962,-33.90013,0 18.42934,-33.90024,0 18.42899,-33.90032,0 18.42865,-33.90041,0 18.42839,-33.90047,0 18.42808,-33.9006,0 18.42785,-33.90064,0 18.42756,-33.90074,0</coordinates>
      </LineString>
    </Placemark>
  </Document>
</kml>
