<?xml version="1.0" encoding="UTF-8"?>
<kml xmlns="http://www.opengis.net/kml/2.2">
  <Document>
    <name>FR24 41e2f3aa</name>
    <Placemark>
      <name>FR24 41e2f3aa</name>
      <Style><LineStyle><color>ff0000ff</color><width>4</width></LineStyle></Style>
      <LineString>
        <tessellate>1</tessellate>
        <coordinates>18.43529,-33.88905,0 18.43601,-33.88728,0 18.43626,-33.8864,0 18.43643,-33.88556,0 18.4364,-33.88449,0 18.43624,-33.88362,0 18.43573,-33.88257,0 18.43494,-33.88151,0 18.43416,-33.88083,0 18.4331,-33.88028,0 18.43203,-33.87987,0 18.43048,-33.87941,0 18.42962,-33.87923,0 18.428,-33.87895,0 18.42688,-33.87877,0 18.42553,-33.87863,0 18.42447,-33.87854,0 18.42323,-33.87845,0 18.42196,-33.8783,0 18.42052,-33.87816,0 18.41908,-33.87804,0 18.41801,-33.87797,0 18.41667,-33.8779,0 18.4156,-33.87793,0 18.41406,-33.87793,0 18.41257,-33.87802,0 18.4112,-33.87816,0 18.41,-33.87827,0 18.40868,-33.87844,0 18.4072,-33.87868,0 18.40599,-33.8789,0 18.4049,-33.87914,0 18.40344,-33.8795,0 18.40199,-33.87988,0 18.40059,-33.88028,0 18.39935,-33.88063,0 18.39804,-33.88105,0 18.39694,-33.88138,0 18.39554,-33.88184,0 18.39426,-33.8823,0 18.39317,-33.88272,0 18.3918,-33.88328,0 18.39077,-33.8837,0 18.38966,-33.88412,0 18.38842,-33.88467,0 18.38739,-33.88514,0 18.38629,-33.88568,0 18.38512,-33.88641,0 18.38416,-33.88696,0 18.3831,-33.88775,0 18.38224,-33.8884,0 18.38119,-33.88925,0 18.37996,-33.89031,0 18.37915,-33.89101,0 18.37818,-33.89189,0 18.37721,-33.89278,0 18.37646,-33.89343,0 18.37549,-33.89436,0 18.37452,-33.89525,0 18.37378,-33.89599,0 18.37297,-33.89678,0 18.37217,-33.89758,0 18.37105,-33.89877,0 18.37023,-33.89957,0 18.36925,-33.90056,0 18.36869,-33.90115,0 18.36765,-33.90218,0 18.36494,-33.90504,0 18.36275,-33.90747,0 18.36124,-33.90921,0 18.36045,-33.91017,0 18.35964,-33.91116,0 18.359,-33.91205,0 18.35832,-33.91292,0 18.3577,-33.91377,0 18.35698,-33.91475,0 18.35619,-33.9158,0 18.35564,-33.9167,0 18.35489,-33.91768,0 18.35421,-33.91866,0 18.35363,-33.91945,0 18.35305,-33.92024,0 18.35221,-33.92148,0 18.35163,-33.92234,0 18.35109,-33.92322,0 18.35053,-33.92409,0 18.34974,-33.92532,0 18.34919,-33.92624,0 18.34857,-33.92725,0 18.34803,-33.9282,0 18.34751,-33.92908,0 18.34677,-33.93039,0 18.34638,-33.93118,0 18.34577,-33.93237,0 18.34532,-33.93338,0 18.34481,-33.93448,0 18.34436,-33.93542,0 18.34402,-33.93635,0 18.34351,-33.93761,0 18.34311,-33.93854,0 18.34259,-33.93966,0 18.34212,-33.94061,0 18.34162,-33.94152,0 18.34093,-33.94263,0 18.34024,-33.9437,0 18.33932,-33.94496,0 18.33887,-33.94561,0 18.33792,-33.94675,0 18.33714,-33.94771,0 18.33635,-33.94859,0 18.33561,-33.94948,0 18.33469,-33.9505,0 18.33395,-33.95129,0 18.3331,-33.95229,0 18.3322,-33.95334,0 18.33138,-33.95436,0 18.33052,-33.95548,0 18.32962,-33.95663,0 18.32897,-33.95758,0 18.32833,-33.95847,0 18.32772,-33.95934,0 18.32703,-33.96032,0 18.32628,-33.9614,0 18.3257,-33.96231,0 18.32417,-33.96493,0 18.32359,-33.96596,0 18.32166,-33.96927,0 18.32105,-33.97037,0 18.31942,-33.97339,0 18.31799,-33.97606,0 18.31578,-33.98026,0 18.31398,-33.9841,0 18.31258,-33.98721,0 18.31118,-33.99023,0 18.31072,-33.99105,0 18.30997,-33.99207,0 18.3095,-33.99275,0 18.30889,-33.99366,0 18.30816,-33.99463,0 18.30743,-33.99564,0 18.30683,-33.99654,0 18.30626,-33.99743,0 18.30568,-33.99831,0 18.305,-33.99943,0 18.30446,-34.00031,0 18.30397,-34.00119,0 18.30345,-34.00223,0 18.30277,-34.00351,0 18.30225,-34.00464,0 18.30173,-34.00571,0 18.30126,-34.00685,0 18.30087,-34.00777,0 18.30048,-34.00869,0 18.30013,-34.00962,0 18.29969,-34.01074,0 18.29924,-34.01193,0 18.29899,-34.01283,0 18.29853,-34.01423,0 18.29823,-34.01518,0 18.29784,-34.01637,0 18.29756,-34.01733,0 18.29727,-34.01828,0 18.29699,-34.01931,0 18.29667,-34.0204,0 18.29636,-34.02135,0 18.29605,-34.02246,0 18.29584,-34.02312,0 18.29544,-34.02424,0 18.2951,-34.02526,0 18.29459,-34.02631,0 18.29418,-34.02689,0 18.29327,-34.02787,0 18.29246,-34.02841,0 18.29151,-34.02882,0 18.2905,-34.0291,0 18.28903,-34.02917,0 18.288,-34.02894,0 18.28708,-34.02855,0 18.2859,-34.02773,0 18.28517,-34.02663,0 18.28489,-34.02571,0 18.28485,-34.0248,0 18.28537,-34.0234,0 18.28601,-34.02251,0 18.28686,-34.02182,0 18.28803,-34.02118,0 18.28909,-34.02075,0 18.29005,-34.0204,0 18.29098,-34.0201,0 18.29207,-34.01976,0 18.29292,-34.01949,0 18.29397,-34.01921,0 18.29527,-34.01879,0 18.29659,-34.01842,0 18.2979,-34.01802,0 18.29919,-34.01765,0 18.30042,-34.0173,0 18.30173,-34.01684,0 18.30288,-34.01646,0 18.30414,-34.01604,0 18.30524,-34.01564,0 18.30637,-34.01511,0 18.30715,-34.01482,0 18.30889,-34.01405,0 18.31001,-34.01353,0 18.31112,-34.01302,0 18.31244,-34.01237,0 18.31335,-34.01186,0 18.31461,-34.01111,0 18.31544,-34.01056,0 18.31628,-34.00987,0 18.31724,-34.00905,0 18.31819,-34.00813,0 18.31907,-34.0072,0 18.31959,-34.0066,0 18.32033,-34.00576,0 18.32119,-34.00478,0 18.32195,-34.00392,0 18.32262,-34.00315,0 18.32348,-34.00217,0 18.32411,-34.00143,0 18.32491,-34.0004,0 18.32548,-33.99971,0 18.32634,-33.99854,0 18.32688,-33.99783,0 18.32754,-33.99691,0 18.32845,-33.99554,0 18.32909,-33.99459,0 18.32934,-33.99426,0 18.3303,-33.9928,0 18.33126,-33.99142,0 18.33198,-33.99051,0 18.33286,-33.98933,0 18.33361,-33.9884,0 18.33416,-33.98772,0 18.33512,-33.98657,0 18.33578,-33.98565,0 18.33761,-33.98318,0 18.33966,-33.98053,0 18.34053,-33.97955,0 18.34128,-33.9787,0 18.34242,-33.97741,0 18.34409,-33.97531,0 18.34521,-33.97375,0 18.34762,-33.96982,0 18.34888,-33.96777,0 18.35003,-33.96577,0 18.35076,-33.9646,0 18.3514,-33.9633,0 18.35367,-33.95869,0 18.35438,-33.95716,0 18.35479,-33.95613,0 18.35529,-33.95502,0 18.35564,-33.95422,0 18.35597,-33.95338,0 18.35632,-33.95259,0 18.3567,-33.95178,0 18.35707,-33.95082,0 18.35752,-33.94971,0 18.35776,-33.94899,0 18.35815,-33.94803,0 18.3585,-33.94701,0 18.35878,-33.94622,0 18.35916,-33.94528,0 18.35956,-33.94437,0 18.35995,-33.94341,0 18.36028,-33.94254,0 18.36062,-33.94167,0 18.3609,-33.94102,0 18.36124,-33.94021,0 18.36174,-33.93915,0 18.36219,-33.93823,0 18.36262,-33.93728,0 18.36292,-33.93668,0 18.36336,-33.9357,0 18.36382,-33.93463,0 18.36426,-33.93361,0 18.36449,-33.93292,0 18.36499,-33.93173,0 18.36533,-33.93086,0 18.36588,-33.9296,0 18.36622,-33.92876,0 18.36662,-33.92784,0 18.36695,-33.92702,0 18.36748,-33.92583,0 18.36774,-33.92519,0 18.36823,-33.9242,0 18.36875,-33.92313,0 18.36926,-33.9221,0 18.36966,-33.92126,0 18.37029,-33.92015,0 18.37103,-33.91898,0 18.37154,-33.91833,0 18.37223,-33.91745,0 18.3728,-33.91675,0 18.37337,-33.9161,0 18.3744,-33.91503,0 18.37497,-33.91443,0 18.37587,-33.91356,0 18.37648,-33.91292,0 18.37709,-33.91228,0 18.37772,-33.91164,0 18.37847,-33.91093,0 18.37933,-33.91019,0 18.3799,-33.90967,0 18.38053,-33.90916,0 18.38139,-33.90846,0 18.38202,-33.90791,0 18.38259,-33.90734,0 18.38349,-33.9066,0 18.3843,-33.90581,0 18.38493,-33.9052,0 18.38556,-33.90459,0 18.38636,-33.90385,0 18.38699,-33.9033,0 18.38768,-33.90265,0 18.38831,-33.90211,0 18.38894,-33.90157,0 18.38971,-33.90088,0 18.39037,-33.90032,0 18.39111,-33.89969,0 18.3919,-33.89909,0 18.39274,-33.89854,0 18.39347,-33.89804,0 18.39436,-33.89749,0 18.39504,-33.89713,0 18.39575,-33.89669,0 18.39672,-33.89616,0 18.39746,-33.89576,0 18.39821,-33.89538,0 18.39907,-33.89488,0 18.39981,-33.8945,0 18.40053,-33.89415,0 18.40141,-33.89371,0 18.40227,-33.89333,0 18.40307,-33.89296,0 18.40376,-33.89264,0 18.40462,-33.89231,0 18.40553,-33.89194,0 18.40647,-33.89159,0 18.40737,-33.89122,0 18.40834,-33.89087,0 18.40925,-33.89054,0 18.41022,-33.89017,0 18.41108,-33.88984,0 18.41206,-33.88952,0 18.41286,-33.88921,0 18.41393,-33.88884,0 18.41477,-33.88857,0 18.41561,-33.88829,0 18.41663,-33.88794,0 18.41749,-33.8877,0 18.41846,-33.88737,0 18.41953,-33.88705,0 18.42054,-33.88678,0 18.42138,-33.88659,0 18.42222,-33.88637,0 18.42327,-33.88607,0 18.42407,-33.88589,0 18.42493,-33.8857,0 18.42603,-33.88545,0 18.42688,-33.88533,0 18.42777,-33.88518,0 18.42872,-33.88509,0 18.42951,-33.88505,0 18.43037,-33.88509,0 18.43097,-33.88518,0 18.43175,-33.88531,0 18.4326,-33.88551,0 18.43323,-33.8857,0 18.43388,-33.88591,0 18.43456,-33.88618,0 18.4354,-33.88654,0 18.43615,-33.88691,0 18.43683,-33.88733,0 18.4374,-33.8877,0 18.43825,-33.88824,0 18.43881,-33.8887,0 18.43937,-33.88921,0 18.43994,-33.88966,0 18.44044,-33.89026,0 18.44094,-33.89085,0 18.44141,-33.89161,0 18.44173,-33.89232,0 18.44195,-33.8931,0 18.4421,-33.89399,0 18.44201,-33.89488,0 18.44181,-33.8958,0 18.44145,-33.89653,0 18.4409,-33.8972,0 18.44033,-33.89772,0 18.43937,-33.89836,0 18.43843,-33.89892,0 18.43775,-33.89928,0 18.43708,-33.89973,0 18.4364,-33.90038,0 18.43596,-33.90083,0 18.43512,-33.90134,0 18.4342,-33.90157,0 18.43317,-33.90153,0 18.43283,-33.90148,0 18.43242,-33.90134,0 18.43209,-33.90125,0 18.4317,-33.90111,0 18.43136,-33.90102,0 18.43088,-33.90083,0 18.43052,-33.9007,0 18.42974,-33.90046,0 18.42876,-33.90032,0 18.42839,-33.90033,0 18.42783,-33.90047,0 18.42762,-33.90055,0 18.42738,-33.9007,0 18.4271,-33.90083,0 18.42705,-33.9006,0 18.42727,-33.90005,0 18.42733,-33.89976,0 18.42749,-33.89941,0 18.42762,-33.89915,0 18.42783,-33.89886,0 18.42808,-33.8985,0 18.42833,-33.89822,0 18.4285,-33.89799,0 18.42895,-33.89749,0 18.42922,-33.89715,0 18.4299,-33.89639,0 18.43014,-33.89608,0 18.43037,-33.8958,0 18.43069,-33.89539,0 18.43108,-33.89493,0 18.43128,-33.89459,0 18.43153,-33.89433,0 18.43186,-33.89383,0 18.4322,-33.89333,0 18.43259,-33.89273,0 18.43293,-33.89227,0 18.43327,-33.89182,0 18.43351,-33.89147,0 18.43371,-33.89117,0 18.43397,-33.89082,0 18.43433,-33.89021,0 18.4345,-33.88994,0 18.43478,-33.88934,0 18.43534,-33.88831,0 18.43569,-33.88756,0 18.43607,-33.88655,0 18.43629,-33.88559,0 18.4364,-33.88463,0 18.4362,-33.88356,0 18.43573,-33.88257,0 18.43512,-33.88174,0 18.4345,-33.8811,0 18.43351,-33.88044,0 18.43277,-33.88007,0 18.43108,-33.8795,0 18.42979,-33.87923,0 18.4285,-33.87904,0 18.42732,-33.87895,0 18.42613,-33.87886,0 18.42486,-33.87881,0 18.42323,-33.87881,0 18.42183,-33.87881,0 18.42043,-33.87886,0 18.41932,-33.87895,0 18.41801,-33.87904,0 18.41692,-33.87914,0 18.4156,-33.87928,0 18.41421,-33.87941,0 18.41314,-33.87955,0 18.41188,-33.87974,0 18.41073,-33.87991,0 18.40956,-33.8801,0 18.40811,-33.8803,0 18.40702,-33.88049,0 18.40569,-33.88078,0 18.4045,-33.88105,0 18.40339,-33.88129,0 18.40239,-33.88156,0 18.40092,-33.88197,0 18.40015,-33.88221,0 18.39901,-33.88258,0 18.39767,-33.88298,0 18.39644,-33.88339,0 18.39506,-33.88384,0 18.3938,-33.88426,0 18.3926,-33.88472,0 18.39128,-33.88528,0 18.39025,-33.8857,0 18.38898,-33.88632,0 18.38768,-33.887,0 18.38674,-33.88756,0 18.38556,-33.88831,0 18.38444,-33.88902,0 18.3835,-33.88966,0 18.38236,-33.89045,0 18.38156,-33.89101,0 18.3807,-33.89166,0 18.37957,-33.8925,0 18.37839,-33.89337,0 18.37738,-33.89413,0 18.37632,-33.89493,0 18.37514,-33.8958,0 18.37395,-33.89673,0 18.37292,-33.89757,0 18.372,-33.89827,0 18.37105,-33.89909,0 18.37,-33.89999,0 18.36914,-33.90079,0 18.3684,-33.90148,0 18.36742,-33.9025,0 18.36668,-33.90325,0 18.36578,-33.90422,0 18.36499,-33.90509,0 18.36415,-33.90605,0 18.36353,-33.90674,0 18.36285,-33.90758,0 18.36219,-33.90834,0 18.3614,-33.9093,0 18.36051,-33.91031,0 18.35984,-33.91109,0 18.35911,-33.91196,0 18.35843,-33.91273,0 18.35782,-33.91351,0 18.35703,-33.91447,0 18.35501,-33.91699,0 18.35358,-33.91908,0 18.35289,-33.9201,0 18.35226,-33.92113,0 18.35157,-33.92225,0 18.35109,-33.92299,0 18.35059,-33.92386,0 18.34986,-33.92504,0 18.34919,-33.92615,0 18.34871,-33.92699,0 18.34797,-33.92825,0 18.34745,-33.92917,0 18.34688,-33.93011,0 18.34633,-33.93118,0 18.34577,-33.93219,0 18.34517,-33.93337,0 18.34471,-33.93444,0 18.3442,-33.93553,0 18.34379,-33.93644,0 18.34328,-33.93784,0 18.34291,-33.93887,0 18.3424,-33.9402,0 18.34202,-33.94124,0 18.34156,-33.94231,0 18.3411,-33.94342,0 18.34036,-33.94492,0 18.33966,-33.94615,0 18.33904,-33.94707,0 18.33837,-33.94803,0 18.33786,-33.94876,0 18.33691,-33.94995,0 18.33607,-33.95105,0 18.33538,-33.95194,0 18.33461,-33.95293,0 18.3336,-33.95416,0 18.33281,-33.9552,0 18.33212,-33.95604,0 18.33138,-33.95702,0 18.33069,-33.95792,0 18.32989,-33.95897,0 18.32912,-33.96002,0 18.32828,-33.96112,0 18.32754,-33.96218,0 18.3252,-33.9654,0 18.32245,-33.96964,0 18.32172,-33.97078,0 18.32121,-33.97169,0 18.32071,-33.97261,0 18.31953,-33.97471,0 18.31879,-33.9761,0 18.31821,-33.97731,0 18.31781,-33.97815,0 18.31522,-33.98383,0 18.3146,-33.98524,0 18.31421,-33.98611,0 18.31359,-33.98763,0 18.31324,-33.98853,0 18.31272,-33.98979,0 18.31226,-33.99096,0 18.3118,-33.99211,0 18.31123,-33.99337,0 18.31066,-33.99449,0 18.31015,-33.99561,0 18.30967,-33.99655,0 18.30928,-33.99738,0 18.30877,-33.9985,0 18.3082,-33.99966,0 18.30786,-34.00059,0 18.30743,-34.00154,0 18.307,-34.00269,0 18.3066,-34.00357,0 18.30614,-34.00488,0 18.30585,-34.00576,0 18.3054,-34.00692,0 18.30505,-34.00785,0 18.30462,-34.00896,0 18.30423,-34.00987,0 18.30378,-34.01093,0 18.30328,-34.01209,0 18.30283,-34.01312,0 18.30193,-34.01523,0 18.30156,-34.01623,0 18.30115,-34.01733,0 18.3007,-34.01848,0 18.30036,-34.01949,0 18.29996,-34.02042,0 18.29962,-34.0214,0 18.29927,-34.02238,0 18.29882,-34.02364,0 18.2984,-34.02493,0 18.29807,-34.02591,0 18.29767,-34.02708,0 18.29733,-34.02796,0 18.29689,-34.0291,0 18.29641,-34.02996,0 18.29578,-34.03076,0 18.29476,-34.03157,0 18.29364,-34.03207,0 18.29229,-34.0322,0 18.29106,-34.03194,0 18.28983,-34.03117,0 18.2891,-34.02988,0 18.28897,-34.02899,0 18.28921,-34.02782,0 18.28971,-34.02699,0 18.29052,-34.02615,0 18.29132,-34.02559,0 18.29664,-34.02331,0 18.2991,-34.02238,0 18.30168,-34.02103,0 18.30265,-34.02037,0 18.30328,-34.0199,0 18.30451,-34.01898,0 18.30513,-34.01848,0 18.30597,-34.01779,0 18.30698,-34.01692,0 18.30774,-34.01623,0 18.31034,-34.01376,0 18.31203,-34.01223,0 18.3127,-34.01157,0 18.31381,-34.01051,0 18.31444,-34.00981,0 18.31553,-34.00864,0 18.31615,-34.00795,0 18.31701,-34.00706,0 18.31774,-34.0063,0 18.31853,-34.00548,0 18.31942,-34.00459,0 18.32015,-34.00378,0 18.32108,-34.00283,0 18.32165,-34.00222,0 18.3225,-34.00122,0 18.32312,-34.00049,0 18.32388,-33.99957,0 18.32457,-33.99868,0 18.32548,-33.99756,0 18.32611,-33.99673,0 18.32665,-33.99591,0 18.32708,-33.99538,0 18.32811,-33.99394,0 18.32869,-33.99319,0 18.32934,-33.99225,0 18.33024,-33.99092,0 18.3308,-33.99016,0 18.33126,-33.98946,0 18.33203,-33.98836,0 18.33366,-33.98602,0 18.33567,-33.98332,0 18.33836,-33.97978,0 18.34319,-33.97375,0 18.34631,-33.96959,0 18.34751,-33.96735,0 18.34863,-33.96529,0 18.34986,-33.96304,0 18.351,-33.96074,0 18.35197,-33.95855,0 18.35249,-33.95746,0 18.35295,-33.95646,0 18.3534,-33.95544,0 18.35381,-33.9546,0 18.35423,-33.95361,0 18.35468,-33.9527,0 18.35513,-33.95169,0 18.35541,-33.9511,0 18.35587,-33.95018,0 18.3563,-33.94926,0 18.35715,-33.94753,0 18.35759,-33.94661,0 18.35793,-33.9458,0 18.35849,-33.9446,0 18.35878,-33.94389,0 18.35916,-33.94286,0 18.35961,-33.94171,0 18.35999,-33.94063,0 18.36027,-33.93979,0 18.36057,-33.93892,0 18.36096,-33.93789,0 18.36129,-33.93704,0 18.3617,-33.93584,0 18.36199,-33.93504,0 18.36227,-33.93425,0 18.36262,-33.93328,0 18.36292,-33.93237,0 18.3633,-33.93142,0 18.36365,-33.93054,0 18.36399,-33.92974,0 18.36439,-33.92876,0 18.36473,-33.92797,0 18.36522,-33.92693,0 18.36559,-33.92606,0 18.36623,-33.92487,0 18.36662,-33.92409,0 18.36725,-33.92294,0 18.36774,-33.92216,0 18.36841,-33.92111,0 18.36897,-33.92024,0 18.36943,-33.91954,0 18.37006,-33.91856,0 18.37069,-33.91768,0 18.37116,-33.91699,0 18.37206,-33.91585,0 18.37262,-33.91516,0 18.37326,-33.91447,0 18.37413,-33.9137,0 18.37475,-33.91312,0 18.37555,-33.91237,0 18.37643,-33.91159,0 18.37716,-33.911,0 18.37801,-33.91023,0 18.37878,-33.90958,0 18.37962,-33.9088,0 18.38035,-33.90816,0 18.38108,-33.90756,0 18.38202,-33.90679,0 18.38265,-33.90628,0 18.38356,-33.90553,0 18.3843,-33.90483,0 18.38505,-33.90423,0 18.38591,-33.90348,0 18.38671,-33.90279,0 18.3873,-33.90225,0 18.38825,-33.90147,0 18.38894,-33.90088,0 18.38971,-33.90028,0 18.39066,-33.89957,0 18.39151,-33.89897,0 18.39257,-33.89827,0 18.39341,-33.89781,0 18.39442,-33.89726,0 18.39532,-33.8968,0 18.39638,-33.89627,0 18.39734,-33.89589,0 18.39806,-33.89557,0 18.39918,-33.8951,0 18.40027,-33.89468,0 18.40124,-33.89436,0 18.40244,-33.89389,0 18.40333,-33.89351,0 18.40434,-33.8931,0 18.40565,-33.89259,0 18.40668,-33.89217,0 18.40776,-33.8918,0 18.40874,-33.89147,0 18.41,-33.8911,0 18.41107,-33.89081,0 18.41257,-33.8904,0 18.41353,-33.89017,0 18.41477,-33.88985,0 18.41583,-33.88962,0 18.41695,-33.88939,0 18.41789,-33.88914,0 18.41914,-33.88884,0 18.41992,-33.88861,0 18.42093,-33.88829,0 18.42211,-33.88792,0 18.42312,-33.8876,0 18.42464,-33.88705,0 18.4257,-33.88669,0 18.42676,-33.8864,0 18.42783,-33.88614,0 18.42928,-33.88584,0 18.43031,-33.8857,0 18.43164,-33.88554,0 18.4327,-33.88554,0 18.43382,-33.88559,0 18.435,-33.88573,0 18.43596,-33.886,0 18.4368,-33.88632,0 18.43764,-33.88678,0 18.43865,-33.88747,0 18.43929,-33.88803,0 18.44004,-33.88877,0 18.44072,-33.88947,0 18.44124,-33.89012,0 18.4419,-33.89095,0 18.44229,-33.89163,0 18.44261,-33.89245,0 18.44284,-33.89315,0 18.44291,-33.89388,0 18.44284,-33.89455,0 18.44257,-33.89543,0 18.44218,-33.89616,0 18.44179,-33.89671,0 18.44107,-33.89738,0 18.44032,-33.89794,0 18.4396,-33.89841,0 18.43909,-33.89873,0 18.43814,-33.89923,0 18.43763,-33.89967,0 18.43691,-33.90033,0 18.43624,-33.90092,0 18.43534,-33.90134,0 18.43437,-33.90144,0 18.43334,-33.90125,0 18.43282,-33.90106,0 18.43248,-33.90097,0 18.43203,-33.90083,0 18.43168,-33.90074,0 18.4314,-33.90064,0 18.43097,-33.90047,0 18.43054,-33.90032,0 18.43031,-33.90022,0 18.43001,-33.90015,0 18.42962,-33.90005,0 18.42912,-33.90001,0 18.42872,-33.90005,0 18.42819,-33.90018,0 18.42791,-33.90027,0 18.42762,-33.90041,0 18.42732,-33.90056,0 18.4271,-33.90078,0 18.42692,-33.90099,0 18.42693,-33.9007,0 18.42766,-33.89937,0 18.42779,-33.89915,0 18.42808,-33.89878,0 18.42836,-33.89841,0 18.42856,-33.89813,0 18.42876,-33.89785,0 18.42889,-33.89763,0 18.42905,-33.89738,0 18.42934,-33.89699,0 18.42957,-33.89678,0 18.42979,-33.89648,0 18.43018,-33.89603,0 18.43042,-33.8958,0 18.43069,-33.89548,0 18.43091,-33.8952,0 18.43122,-33.89487,0 18.43164,-33.89438,0 18.43191,-33.89413,0 18.43225,-33.89371,0 18.43248,-33.89342,0 18.43277,-33.8931,0 18.4334,-33.89236,0 18.43386,-33.89166,0 18.43443,-33.89077,0 18.43478,-33.89012,0 18.43528,-33.88916,0 18.43567,-33.88834,0 18.43601,-33.88747,0 18.43624,-33.88651,0 18.43626,-33.88565,0 18.43618,-33.88472,0 18.43597,-33.88416,0 18.4354,-33.883,0 18.43472,-33.88211,0 18.43422,-33.88156,0 18.43349,-33.88087,0 18.43277,-33.88025,0 18.43175,-33.87955,0 18.4306,-33.8789,0 18.42962,-33.87848,0 18.42856,-33.87808,0 18.42743,-33.87781,0 18.42642,-33.87765,0 18.42531,-33.87753,0 18.42419,-33.87746,0 18.42306,-33.87744,0 18.42183,-33.87749,0 18.42047,-33.87755,0 18.41938,-33.87769,0 18.41824,-33.87781,0 18.41712,-33.87799,0 18.41578,-33.8782,0 18.41443,-33.8784,0 18.41331,-33.87863,0 18.41224,-33.87886,0 18.41103,-33.87909,0 18.40971,-33.87941,0 18.40862,-33.8797,0 18.40725,-33.88007,0 18.40616,-33.88034,0 18.40485,-33.88074,0 18.40372,-33.88106,0 18.4025,-33.88146,0 18.40115,-33.88193,0 18.40004,-33.8823,0 18.39878,-33.88277,0 18.39773,-33.88316,0 18.39643,-33.8837,0 18.3954,-33.88407,0 18.39432,-33.88458,0 18.3934,-33.88496,0 18.39195,-33.88564,0 18.39117,-33.886,0 18.38999,-33.8866,0 18.38905,-33.88705,0 18.38753,-33.88788,0 18.38629,-33.88861,0 18.38534,-33.88921,0 18.38439,-33.88976,0 18.38327,-33.89054,0 18.38226,-33.89127,0 18.38119,-33.89209,0 18.38035,-33.89273,0 18.37927,-33.89357,0 18.37847,-33.89422,0 18.37767,-33.89487,0 18.37688,-33.89548,0 18.37581,-33.89635,0 18.37503,-33.89697,0 18.37406,-33.89776,0 18.37312,-33.89854,0 18.37234,-33.89919,0 18.37133,-33.90001,0 18.37049,-33.90074,0 18.36959,-33.90152,0 18.36869,-33.90234,0 18.36763,-33.90326,0 18.36674,-33.90413,0 18.36571,-33.90511,0 18.36488,-33.90591,0 18.36404,-33.90674,0 18.36342,-33.90739,0 18.3623,-33.90852,0 18.36152,-33.90926,0 18.36061,-33.91023,0 18.35987,-33.91103,0 18.35907,-33.91191,0 18.35815,-33.91293,0 18.35754,-33.9137,0 18.35675,-33.91466,0 18.35608,-33.91548,0 18.35512,-33.91666,0 18.35462,-33.9174,0 18.35375,-33.91852,0 18.35312,-33.9194,0 18.35244,-33.92038,0 18.35175,-33.92131,0 18.35112,-33.92215,0 18.35054,-33.92303,0 18.34974,-33.92411,0 18.34896,-33.92519,0 18.34834,-33.92606,0 18.34762,-33.92711,0 18.34683,-33.9283,0 18.34627,-33.92921,0 18.34568,-33.93016,0 18.34499,-33.93132,0 18.34431,-33.93253,0 18.34368,-33.9337,0 18.34316,-33.93467,0 18.34265,-33.93575,0 18.34213,-33.93695,0 18.34173,-33.93777,0 18.34117,-33.9391,0 18.34078,-33.93988,0 18.34002,-33.9411,0 18.33916,-33.94235,0 18.3383,-33.94357,0 18.33742,-33.94469,0 18.33669,-33.9456,0 18.33585,-33.94666,0 18.33517,-33.94753,0 18.33428,-33.94867,0 18.33366,-33.94949,0 18.33269,-33.95078,0 18.33203,-33.95164,0 18.33102,-33.95311,0 18.33035,-33.95407,0 18.32972,-33.95497,0 18.32869,-33.95637,0 18.32806,-33.9572,0 18.32503,-33.96135,0 18.32458,-33.96199,0 18.32331,-33.96386,0 18.32125,-33.96698,0 18.31897,-33.97055,0 18.31712,-33.97375,0 18.31575,-33.97634,0 18.31511,-33.97755,0 18.31461,-33.97857,0 18.31387,-33.97998,0 18.31335,-33.98104,0 18.31158,-33.98471,0 18.31101,-33.98589,0 18.31038,-33.98714,0 18.30984,-33.98822,0 18.30793,-33.99216,0 18.30614,-33.99577,0 18.305,-33.99808,0 18.30451,-33.99911,0 18.30406,-34.00012,0 18.30345,-34.00127,0 18.30294,-34.00231,0 18.30182,-34.00447,0 18.30128,-34.00548,0 18.30048,-34.00692,0 18.30002,-34.00785,0 18.29945,-34.00897,0 18.29891,-34.01019,0 18.29842,-34.01116,0 18.2979,-34.01218,0 18.2975,-34.01321,0 18.2971,-34.01428,0 18.29678,-34.01532,0 18.29641,-34.01633,0 18.29605,-34.01747,0 18.29567,-34.0187,0 18.29532,-34.01994,0 18.29504,-34.02121,0 18.29482,-34.02219,0 18.29459,-34.02319,0 18.2943,-34.02457,0 18.29414,-34.02553,0 18.29395,-34.02685,0 18.29378,-34.02815,0 18.29367,-34.02917,0 18.29353,-34.0302,0 18.29347,-34.03152,0 18.2935,-34.03252,0 18.29355,-34.03364,0 18.29369,-34.03473,0 18.29395,-34.03611,0 18.29424,-34.03714,0 18.29453,-34.03821,0 18.29498,-34.03944,0 18.29533,-34.04049,0 18.29577,-34.04155,0 18.29641,-34.043,0 18.29681,-34.04398,0 18.29739,-34.04521,0 18.2979,-34.04617,0 18.29851,-34.04736,0 18.29913,-34.04842,0 18.29986,-34.04965,0 18.30053,-34.05077,0 18.30128,-34.05194,0 18.30205,-34.05313,0 18.30272,-34.05418,0 18.30356,-34.05542,0 18.30408,-34.05613,0 18.30488,-34.05724,0 18.30563,-34.05827,0 18.3062,-34.05911,0 18.30711,-34.06027,0 18.30787,-34.06133,0 18.30849,-34.06215,0 18.3095,-34.06343,0 18.3102,-34.06441,0 18.31089,-34.0653,0 18.31186,-34.06656,0 18.31258,-34.0675,0 18.31329,-34.06842,0 18.31404,-34.06939,0 18.3149,-34.07042,0 18.3157,-34.07144,0 18.31668,-34.07268,0 18.31753,-34.07372,0 18.31839,-34.07479,0 18.31919,-34.07577,0 18.31993,-34.07666,0 18.32073,-34.07773,0 18.32234,-34.07977,0 18.32323,-34.08092,0 18.32396,-34.08188,0 18.32468,-34.08285,0 18.32525,-34.08362,0 18.32605,-34.08466,0 18.32668,-34.08559,0 18.32731,-34.08657,0 18.32788,-34.08746,0 18.32846,-34.08829,0 18.32923,-34.08934,0 18.33007,-34.09044,0 18.3308,-34.09131,0 18.33158,-34.09222,0 18.33259,-34.09332,0 18.33332,-34.09415,0 18.33428,-34.0952,0 18.33515,-34.09621,0 18.3359,-34.09703,0 18.33664,-34.09784,0 18.3373,-34.09859,0 18.33824,-34.09947,0 18.33921,-34.10033,0 18.33988,-34.10092,0 18.341,-34.10184,0 18.34179,-34.10249,0 18.34296,-34.10344,0 18.34379,-34.10412,0 18.34459,-34.10477,0 18.34551,-34.10547,0 18.34638,-34.10605,0 18.34739,-34.10669,0 18.34846,-34.10733,0 18.34952,-34.10788,0 18.35049,-34.10841,0 18.35115,-34.10875,0 18.35238,-34.1093,0 18.35352,-34.1098,0 18.35457,-34.11021,0 18.35575,-34.11073,0 18.3569,-34.1112,0 18.35787,-34.11163,0 18.359,-34.11209,0 18.36006,-34.1125,0 18.36119,-34.11297,0 18.36197,-34.11328,0 18.36314,-34.11374,0 18.36432,-34.11424,0 18.36514,-34.1146,0 18.36628,-34.11506,0 18.36718,-34.11539,0 18.36805,-34.11572,0 18.36886,-34.11603,0 18.37,-34.11641,0 18.37088,-34.11681,0 18.37189,-34.11717,0 18.37284,-34.11749,0 18.37351,-34.11772,0 18.37486,-34.11813,0 18.37581,-34.11841,0 18.37681,-34.11874,0 18.37794,-34.11909,0 18.37873,-34.11937,0 18.3799,-34.11969,0 18.38087,-34.12,0 18.38173,-34.12023,0 18.38282,-34.12056,0 18.38396,-34.12083,0 18.38495,-34.12115,0 18.38614,-34.12149,0 18.38696,-34.12175,0 18.38814,-34.12212,0 18.389,-34.12237,0 18.3902,-34.12275,0 18.39134,-34.12316,0 18.39235,-34.12349,0 18.39319,-34.12376,0 18.3942,-34.12414,0 18.3952,-34.12445,0 18.39621,-34.12477,0 18.39728,-34.12509,0 18.39823,-34.12537,0 18.3993,-34.12569,0 18.40027,-34.126,0 18.40137,-34.12633,0 18.40244,-34.12666,0 18.40359,-34.12698,0 18.40462,-34.1273,0 18.40591,-34.12775,0 18.40698,-34.12811,0 18.40782,-34.12842,0 18.40891,-34.1288,0 18.40989,-34.12912,0 18.41074,-34.12945,0 18.41143,-34.12968,0 18.41264,-34.13013,0 18.41366,-34.13052,0 18.41454,-34.13086,0 18.41526,-34.13117,0 18.41618,-34.13154,0 18.41723,-34.13196,0 18.41801,-34.13229,0 18.41903,-34.13274,0 18.42007,-34.13317,0 18.42093,-34.13359,0 18.42201,-34.13406,0 18.42304,-34.13452,0 18.42379,-34.13484,0 18.42486,-34.1353,0 18.42607,-34.13583,0 18.42705,-34.1362,0 18.42794,-34.13654,0 18.42899,-34.1368,0 18.43019,-34.13708,0 18.43114,-34.13727,0 18.43254,-34.13741,0 18.43346,-34.1375,0 18.43461,-34.13759,0 18.43551,-34.13759,0 18.43666,-34.13764,0 18.43786,-34.13764,0 18.43887,-34.13759,0 18.43982,-34.13754,0 18.44072,-34.1375,0 18.44201,-34.13736,0 18.44291,-34.13727,0 18.4438,-34.13708,0 18.44507,-34.1368,0 18.44593,-34.13658,0 18.4469,-34.13629,0 18.44805,-34.13587,0 18.44918,-34.13539,0 18.45011,-34.13499,0 18.45091,-34.13457,0 18.45187,-34.13402,0 18.45268,-34.1335,0 18.45366,-34.1328,0 18.45451,-34.13214,0 18.45526,-34.1315,0 18.45619,-34.13072,0 18.45686,-34.13015,0 18.45766,-34.12935,0 18.45849,-34.12852,0 18.45926,-34.12782,0 18.45984,-34.12726,0 18.46075,-34.12628,0 18.46157,-34.12546,0 18.4623,-34.12473,0 18.4631,-34.12386,0 18.46367,-34.12326,0 18.46449,-34.1223,0 18.46522,-34.12148,0 18.4659,-34.12065,0 18.46659,-34.11986,0 18.4674,-34.11882,0 18.46813,-34.1179,0 18.46875,-34.11717,0 18.46973,-34.11595,0 18.47043,-34.11507,0 18.47122,-34.11413,0 18.47183,-34.11328,0 18.4726,-34.11204,0 18.47305,-34.11111,0 18.47351,-34.11003,0 18.47391,-34.10878,0 18.47424,-34.10742,0 18.47443,-34.1064,0 18.47463,-34.10504,0 18.4748,-34.1039,0 18.47486,-34.1028,0 18.47491,-34.10165,0 18.47486,-34.09996,0 18.47477,-34.09886,0 18.4746,-34.09737,0 18.47443,-34.09602,0 18.47429,-34.09492,0 18.47414,-34.09365,0 18.47396,-34.09232,0 18.4738,-34.09123,0 18.47357,-34.08984,0 18.47345,-34.08885,0 18.47323,-34.08733,0 18.47305,-34.08615,0 18.47295,-34.08508,0 18.47277,-34.08392,0 18.47265,-34.0828,0 18.47248,-34.08136,0 18.47233,-34.08041,0 18.47214,-34.07903,0 18.472,-34.07799,0 18.47174,-34.07661,0 18.47161,-34.07547,0 18.47144,-34.07405,0 18.47132,-34.07291,0 18.47122,-34.07186,0 18.47111,-34.07061,0 18.47099,-34.06953,0 18.47088,-34.06819,0 18.47082,-34.06721,0 18.47071,-34.06595,0 18.4706,-34.06458,0 18.47054,-34.06357,0 18.47048,-34.0621,0 18.47036,-34.06097,0 18.4702,-34.05931,0 18.47008,-34.05827,0 18.46998,-34.05688,0 18.46985,-34.05585,0 18.46976,-34.05446,0 18.46964,-34.05336,0 18.46951,-34.05189,0 18.46939,-34.05077,0 18.46933,-34.04942,0 18.46925,-34.04851,0 18.46919,-34.04718,0 18.4691,-34.04612,0 18.4688,-34.04105,0 18.46858,-34.03633,0 18.46859,-34.03299,0 18.46865,-34.02824,0 18.46869,-34.02452,0 18.46886,-34.01981,0 18.46908,-34.01537,0 18.46933,-34.01009,0 18.46947,-34.00882,0 18.46956,-34.00762,0 18.46973,-34.00645,0 18.46985,-34.00543,0 18.46996,-34.00394,0 18.47008,-34.00283,0 18.47025,-34.00119,0 18.47036,-34.00003,0 18.47048,-33.99857,0 18.47059,-33.99719,0 18.47076,-33.99605,0 18.47094,-33.99459,0 18.47111,-33.99324,0 18.47122,-33.99216,0 18.47144,-33.99055,0 18.47157,-33.98942,0 18.47172,-33.98827,0 18.47197,-33.98681,0 18.47231,-33.98513,0 18.4726,-33.98392,0 18.47284,-33.98291,0 18.47328,-33.98146,0 18.47362,-33.98039,0 18.47403,-33.97908,0 18.47437,-33.97797,0 18.47483,-33.97657,0 18.47517,-33.97545,0 18.47557,-33.97438,0 18.47603,-33.97307,0 18.47648,-33.97188,0 18.47704,-33.97073,0 18.47752,-33.96964,0 18.47811,-33.96844,0 18.47861,-33.96744,0 18.47918,-33.96633,0 18.47986,-33.96479,0 18.48035,-33.96373,0 18.4808,-33.96263,0 18.48119,-33.96176,0 18.48169,-33.96056,0 18.48204,-33.95963,0 18.48238,-33.95869,0 18.48272,-33.95744,0 18.48281,-33.95663,0 18.48284,-33.95553,0 18.48276,-33.95476,0 18.48253,-33.95375,0 18.48215,-33.95264,0 18.48181,-33.95176,0 18.48135,-33.95073,0 18.4808,-33.94963,0 18.48029,-33.94876,0 18.47986,-33.94794,0 18.47923,-33.94678,0 18.47872,-33.94588,0 18.47826,-33.94501,0 18.4776,-33.94386,0 18.47687,-33.94272,0 18.4762,-33.94162,0 18.47564,-33.9407,0 18.47491,-33.93951,0 18.47437,-33.93863,0 18.47357,-33.93737,0 18.473,-33.93644,0 18.47237,-33.93537,0 18.47185,-33.93444,0 18.47127,-33.93347,0 18.47048,-33.9323,0 18.46979,-33.93142,0 18.46908,-33.93045,0 18.46836,-33.92965,0 18.46734,-33.92862,0 18.46653,-33.92783,0 18.46561,-33.92706,0 18.46454,-33.92615,0 18.46355,-33.92527,0 18.46241,-33.92429,0 18.46167,-33.92369,0 18.46062,-33.92276,0 18.45978,-33.92206,0 18.45875,-33.92113,0 18.45778,-33.92024,0 18.4568,-33.9194,0 18.456,-33.9187,0 18.45513,-33.91795,0 18.45395,-33.91695,0 18.45308,-33.91624,0 18.45199,-33.9153,0 18.45098,-33.91447,0 18.44986,-33.91365,0 18.44907,-33.91306,0 18.44795,-33.91223,0 18.44696,-33.91154,0 18.44604,-33.9109,0 18.44501,-33.91009,0 18.44414,-33.90944,0 18.44307,-33.90866,0 18.44233,-33.90809,0 18.44151,-33.90747,0 18.44061,-33.90679,0 18.43966,-33.90605,0 18.43889,-33.90548,0 18.43809,-33.90479,0 18.43718,-33.90409,0 18.43657,-33.90358,0 18.4359,-33.90303,0 18.43512,-33.90241,0 18.43467,-33.90202,0 18.43437,-33.90181,0 18.43386,-33.90153,0 18.43357,-33.90129,0 18.4331,-33.90102,0 18.43277,-33.90088,0 18.43226,-33.90065,0 18.43186,-33.90051,0 18.43157,-33.90041,0 18.43105,-33.90027,0 18.43069,-33.90015,0 18.43046,-33.9001,0 18.43018,-33.90005,0 18.42985,-33.89999,0 18.4294,-33.89992,0 18.42917,-33.89987,0 18.42867,-33.89983,0 18.42822,-33.89992,0 18.42796,-33.90009,0 18.42773,-33.90027,0 18.42745,-33.90051,0 18.42722,-33.90069,0 18.42699,-33.90092,0 18.42693,-33.90056,0 18.42722,-33.8999,0 18.42749,-33.89946,0 18.42783,-33.899,0 18.42811,-33.89868,0 18.42833,-33.89841,0 18.42889,-33.89781,0 18.42922,-33.89748,0 18.42945,-33.8972,0 18.42985,-33.8968,0 18.43001,-33.89658,0 18.43091,-33.89561,0 18.4313,-33.8952,0 18.43153,-33.89488,0 18.4318,-33.89459,0 18.43214,-33.8942,0 18.43243,-33.89384,0 18.4327,-33.89346,0 18.43293,-33.89314,0 18.43357,-33.89227,0 18.4338,-33.89189,0 18.43409,-33.89157,0 18.43433,-33.89117,0 18.43467,-33.89067,0 18.43494,-33.89022,0 18.43523,-33.88985,0 18.43545,-33.88943,0 18.43556,-33.88921,0 18.4358,-33.88882,0 18.43632,-33.88761,0 18.43663,-33.88683,0 18.43683,-33.88579,0 18.43683,-33.885,0 18.43672,-33.88412,0 18.43646,-33.8833,0 18.43596,-33.88239,0 18.43529,-33.88151,0 18.43467,-33.88092,0 18.43374,-33.88021,0 18.43315,-33.87978,0 18.43203,-33.87914,0 18.43111,-33.87867,0 18.43007,-33.87822,0 18.42884,-33.87781,0 18.42756,-33.87751,0 18.42659,-33.87732,0 18.42533,-33.87718,0 18.42402,-33.87708,0 18.42295,-33.87703,0 18.42166,-33.87703,0 18.42052,-33.87709,0 18.41942,-33.87717,0 18.41835,-33.87732,0 18.41701,-33.87749,0 18.41589,-33.87765,0 18.41454,-33.8779,0 18.41349,-33.87807,0 18.41211,-33.87839,0 18.4108,-33.87867,0 18.40925,-33.87904,0 18.40816,-33.87932,0 18.40696,-33.87965,0 18.40563,-33.88005,0 18.40451,-33.88037,0 18.40336,-33.88072,0 18.40233,-33.88109,0 18.4009,-33.88156,0 18.39986,-33.88188,0 18.39879,-33.88225,0 18.39717,-33.8828,0 18.39588,-33.8833,0 18.39466,-33.88374,0 18.3933,-33.88426,0 18.3922,-33.88472,0 18.39111,-33.88522,0 18.3901,-33.88568,0 18.38911,-33.88612,0 18.38768,-33.88686,0 18.38665,-33.88737,0 18.38562,-33.88792,0 18.38416,-33.88875,0 18.38316,-33.88938,0 18.38226,-33.88994,0 18.38104,-33.89073,0 18.38001,-33.89138,0 18.37887,-33.89217,0 18.37783,-33.89291,0 18.37682,-33.89365,0 18.37595,-33.89431,0 18.37491,-33.89507,0 18.374,-33.8958,0 18.37306,-33.89648,0 18.37211,-33.89726,0 18.37105,-33.89809,0 18.37017,-33.89887,0 18.36909,-33.89983,0 18.3683,-33.9006,0 18.36735,-33.90157,0 18.36662,-33.90234,0 18.36589,-33.90312,0 18.36496,-33.90409,0 18.36411,-33.90502,0 18.36342,-33.90581,0 18.36267,-33.90665,0 18.36193,-33.90753,0 18.36124,-33.90843,0 18.3605,-33.9093,0 18.35967,-33.91035,0 18.35901,-33.91116,0 18.35827,-33.91214,0 18.35741,-33.9133,0 18.35698,-33.91397,0 18.35602,-33.91525,0 18.35524,-33.9164,0 18.35468,-33.91731,0 18.35386,-33.91852,0 18.35323,-33.9195,0 18.3526,-33.92057,0 18.35205,-33.92143,0 18.35154,-33.92235,0 18.35104,-33.92326,0 18.35048,-33.92427,0 18.34991,-33.92527,0 18.34929,-33.92634,0 18.34868,-33.92752,0 18.34806,-33.92862,0 18.34756,-33.92958,0 18.34678,-33.93109,0 18.34625,-33.93211,0 18.34568,-33.93309,0 18.34436,-33.93546,0 18.34324,-33.93745,0 18.34263,-33.93851,0 18.34133,-33.94068,0 18.34061,-33.94189,0 18.34005,-33.94286,0 18.33926,-33.94414,0 18.33853,-33.94533,0 18.33773,-33.9465,0 18.33691,-33.94766,0 18.33613,-33.94872,0 18.33544,-33.94962,0 18.33458,-33.95069,0 18.33366,-33.95187,0 18.33299,-33.95274,0 18.33203,-33.95398,0 18.3312,-33.95511,0 18.33052,-33.95599,0 18.32966,-33.95716,0 18.3288,-33.95832,0 18.32737,-33.96037,0 18.3266,-33.96153,0 18.32413,-33.96506,0 18.32176,-33.96828,0 18.31981,-33.97064,0 18.31884,-33.97182,0 18.31763,-33.97325,0 18.31587,-33.97531,0 18.31511,-33.97632,0 18.31415,-33.97759,0 18.31337,-33.9787,0 18.31242,-33.98007,0 18.31118,-33.98204,0 18.31045,-33.98328,0 18.30989,-33.98428,0 18.30922,-33.98557,0 18.30877,-33.98639,0 18.30782,-33.98808,0 18.30729,-33.989,0 18.30671,-33.99016,0 18.3062,-33.99109,0 18.30585,-33.99174,0 18.30511,-33.99324,0 18.30457,-33.9944,0 18.30391,-33.9957,0 18.30339,-33.99683,0 18.30294,-33.9977,0 18.30238,-33.99889,0 18.30193,-33.99976,0 18.30154,-34.00076,0 18.30116,-34.00157,0 18.3007,-34.00264,0 18.30019,-34.00389,0 18.2998,-34.00484,0 18.29945,-34.00576,0 18.29899,-34.00683,0 18.29868,-34.00777,0 18.29824,-34.00888,0 18.29778,-34.01006,0 18.2975,-34.01083,0 18.29711,-34.01193,0 18.29664,-34.01325,0 18.29636,-34.01414,0 18.29607,-34.01507,0 18.29498,-34.01857,0 18.29435,-34.02066,0 18.29414,-34.0215,0 18.2939,-34.02252,0 18.29358,-34.02374,0 18.29336,-34.0247,0 18.29319,-34.02553,0 18.29291,-34.02676,0 18.29268,-34.02773,0 18.29224,-34.03006,0 18.29206,-34.03099,0 18.2919,-34.03217,0 18.29179,-34.03331,0 18.29166,-34.03429,0 18.29161,-34.03509,0 18.29145,-34.03674,0 18.29134,-34.03802,0 18.29132,-34.03895,0 18.29132,-34.04012,0 18.29134,-34.04141,0 18.29138,-34.04235,0 18.29145,-34.04366,0 18.29151,-34.04466,0 18.29156,-34.04576,0 18.29166,-34.04682,0 18.29173,-34.04805,0 18.29178,-34.04933,0 18.2919,-34.05038,0 18.29196,-34.05171,0 18.29207,-34.05313,0 18.29246,-34.05688,0 18.29269,-34.05929,0 18.2928,-34.06032,0 18.29285,-34.0616,0 18.29291,-34.06247,0 18.29296,-34.06393,0 18.29302,-34.06512,0 18.29308,-34.06609,0 18.29315,-34.06711,0 18.29319,-34.06833,0 18.29325,-34.06952,0 18.29325,-34.07053,0 18.29327,-34.07196,0 18.29327,-34.07307,0 18.29325,-34.07423,0 18.29327,-34.07559,0 18.2933,-34.07675,0 18.29332,-34.07805,0 18.29332,-34.07936,0 18.2933,-34.08046,0 18.2933,-34.08147,0 18.29332,-34.08276,0 18.29336,-34.08403,0 18.29336,-34.08531,0 18.2933,-34.08632,0 18.29327,-34.08769,0 18.29321,-34.08895,0 18.29291,-34.093,0 18.29268,-34.09653,0 18.29252,-34.09793,0 18.2924,-34.09891,0 18.29229,-34.09991,0 18.29212,-34.10133,0 18.29207,-34.10216,0 18.29201,-34.10319,0 18.29195,-34.10487,0 18.29201,-34.10585,0 18.29212,-34.10719,0 18.29218,-34.10797,0 18.29235,-34.10934,0 18.29252,-34.11044,0 18.29263,-34.11145,0 18.29287,-34.11278,0 18.29296,-34.11369,0 18.29319,-34.11479,0 18.29341,-34.11607,0 18.29361,-34.11725,0 18.29381,-34.1185,0 18.29401,-34.1199,0 18.29414,-34.12097,0 18.2943,-34.12209,0 18.29441,-34.12307,0 18.29459,-34.12418,0 18.29475,-34.12516,0 18.29493,-34.12637,0 18.2951,-34.12754,0 18.29521,-34.12839,0 18.2955,-34.12959,0 18.29577,-34.13077,0 18.29601,-34.13163,0 18.2963,-34.13256,0 18.29667,-34.13388,0 18.29695,-34.13484,0 18.29734,-34.13599,0 18.29778,-34.13727,0 18.29818,-34.13841,0 18.29865,-34.1396,0 18.29905,-34.14067,0 18.2995,-34.14178,0 18.2998,-34.14258,0 18.30031,-34.14381,0 18.30059,-34.14455,0 18.30105,-34.14574,0 18.30151,-34.14695,0 18.30185,-34.14793,0 18.30219,-34.14886,0 18.30254,-34.14998,0 18.30276,-34.15081,0 18.30311,-34.1521,0 18.3035,-34.15338,0 18.30379,-34.1543,0 18.3042,-34.15552,0 18.30457,-34.15659,0 18.305,-34.15761,0 18.30541,-34.15855,0 18.30591,-34.15947,0 18.30653,-34.16052,0 18.30709,-34.16139,0 18.30769,-34.16236,0 18.30832,-34.16348,0 18.30883,-34.16431,0 18.30946,-34.16539,0 18.30995,-34.1662,0 18.31068,-34.16743,0 18.31123,-34.16841,0 18.31186,-34.1694,0 18.31255,-34.17065,0 18.31309,-34.17151,0 18.31369,-34.17246,0 18.31426,-34.1732,0 18.31488,-34.17412,0 18.3155,-34.1749,0 18.31638,-34.176,0 18.31684,-34.17664,0 18.31776,-34.17781,0 18.31861,-34.17879,0 18.31942,-34.17977,0 18.3201,-34.18062,0 18.32108,-34.18187,0 18.32188,-34.18294,0 18.32267,-34.18401,0 18.32331,-34.18503,0 18.32391,-34.18593,0 18.32469,-34.18712,0 18.32525,-34.18799,0 18.32592,-34.18913,0 18.32643,-34.19,0 18.32703,-34.19113,0 18.32754,-34.19211,0 18.32806,-34.19313,0 18.3285,-34.19408,0 18.32912,-34.19531,0 18.32968,-34.1965,0 18.33012,-34.19746,0 18.33057,-34.19848,0 18.33097,-34.19957,0 18.33149,-34.20086,0 18.33183,-34.20179,0 18.33226,-34.20305,0 18.33265,-34.20424,0 18.33298,-34.20523,0 18.33332,-34.20626,0 18.33366,-34.20735,0 18.33406,-34.20854,0 18.3345,-34.20969,0 18.33481,-34.21059,0 18.33517,-34.21165,0 18.33562,-34.21284,0 18.33691,-34.21632,0 18.33813,-34.21976,0 18.33932,-34.22328,0 18.34044,-34.22658,0 18.34185,-34.23074,0 18.34219,-34.23191,0 18.34308,-34.23491,0 18.3433,-34.23582,0 18.34362,-34.23703,0 18.34448,-34.24001,0 18.34476,-34.24095,0 18.34517,-34.24215,0 18.34549,-34.2431,0 18.34593,-34.24438,0 18.34638,-34.24553,0 18.34678,-34.24663,0 18.34717,-34.24768,0 18.34757,-34.24871,0 18.34814,-34.24997,0 18.34848,-34.25085,0 18.34885,-34.2518,0 18.34935,-34.25294,0 18.3498,-34.254,0 18.35031,-34.25519,0 18.35077,-34.25621,0 18.35135,-34.25733,0 18.35182,-34.2583,0 18.35238,-34.25942,0 18.35289,-34.26044,0 18.3534,-34.26156,0 18.35401,-34.26274,0 18.35445,-34.26366,0 18.35496,-34.26466,0 18.35546,-34.26563,0 18.35598,-34.26678,0 18.35649,-34.26775,0 18.35695,-34.26864,0 18.35737,-34.26947,0 18.35793,-34.2706,0 18.3585,-34.27166,0 18.35905,-34.27281,0 18.35953,-34.27371,0 18.36,-34.2746,0 18.3605,-34.27553,0 18.36107,-34.27665,0 18.36174,-34.27794,0 18.36236,-34.27917,0 18.36286,-34.28018,0 18.36342,-34.28111,0 18.36393,-34.2821,0 18.36462,-34.28321,0 18.36516,-34.28403,0 18.36582,-34.28503,0 18.36662,-34.28618,0 18.36718,-34.28705,0 18.3678,-34.28792,0 18.36864,-34.28902,0 18.36948,-34.2901,0 18.37015,-34.29103,0 18.37074,-34.29173,0 18.37172,-34.29308,0 18.37246,-34.2941,0 18.37309,-34.29494,0 18.37391,-34.29597,0 18.37463,-34.29689,0 18.37547,-34.29794,0 18.37626,-34.29895,0 18.37704,-34.29997,0 18.37788,-34.30096,0 18.37867,-34.30193,0 18.37927,-34.30262,0 18.38013,-34.30365,0 18.38093,-34.30458,0 18.38161,-34.30537,0 18.38254,-34.30637,0 18.38333,-34.30728,0 18.38394,-34.30792,0 18.38489,-34.30898,0 18.38573,-34.30989,0 18.38642,-34.31063,0 18.38713,-34.3114,0 18.38803,-34.31241,0 18.38888,-34.31333,0 18.38968,-34.31417,0 18.39078,-34.31525,0 18.39156,-34.31607,0 18.39246,-34.31694,0 18.39313,-34.31758,0 18.39466,-34.31901,0 18.39548,-34.31987,0 18.39627,-34.3206,0 18.39712,-34.32138,0 18.39806,-34.3222,0 18.39924,-34.32315,0 18.40003,-34.32381,0 18.4009,-34.32455,0 18.40171,-34.32518,0 18.40294,-34.32605,0 18.4037,-34.3266,0 18.40467,-34.32725,0 18.40565,-34.3279,0 18.40651,-34.32846,0 18.40759,-34.32921,0 18.4086,-34.3299,0 18.4096,-34.3306,0 18.41051,-34.33125,0 18.41157,-34.33209,0 18.41257,-34.33288,0 18.41366,-34.33367,0 18.41454,-34.33434,0 18.41583,-34.33525,0 18.41669,-34.33591,0 18.41766,-34.33661,0 18.41858,-34.33727,0 18.41942,-34.33786,0 18.42026,-34.33846,0 18.42127,-34.33916,0 18.42213,-34.33973,0 18.42312,-34.34042,0 18.4239,-34.34097,0 18.42516,-34.34177,0 18.42613,-34.34242,0 18.42704,-34.34299,0 18.42802,-34.34368,0 18.42906,-34.34441,0 18.43008,-34.34508,0 18.431,-34.34573,0 18.43203,-34.34637,0 18.433,-34.34708,0 18.43397,-34.34773,0 18.43489,-34.34838,0 18.43575,-34.34899,0 18.43674,-34.34967,0 18.43741,-34.35017,0 18.43853,-34.35091,0 18.43929,-34.35146,0 18.4401,-34.35205,0 18.44084,-34.35257,0 18.44181,-34.35327,0 18.44274,-34.35393,0 18.4433,-34.35434,0 18.44414,-34.35493,0 18.44509,-34.35562,0 18.44593,-34.3562,0 18.44672,-34.35677,0 18.44767,-34.35741,0 18.44856,-34.35802,0 18.44936,-34.35849,0 18.45008,-34.35892,0 18.45103,-34.35942,0 18.452,-34.35988,0 18.45294,-34.36043,0 18.45372,-34.36079,0 18.45486,-34.36142,0 18.4556,-34.36184,0 18.45646,-34.3623,0 18.45749,-34.36281,0 18.45835,-34.36323,0 18.45938,-34.3637,0 18.46039,-34.36409,0 18.46135,-34.3645,0 18.46224,-34.36481,0 18.46303,-34.36514,0 18.46409,-34.3656,0 18.46498,-34.36593,0 18.46584,-34.36631,0 18.46687,-34.36668,0 18.46779,-34.3671,0 18.46882,-34.36752,0 18.46973,-34.36789,0 18.47065,-34.36826,0 18.47168,-34.36863,0 18.47273,-34.36899,0 18.47362,-34.36922,0 18.47469,-34.36949,0 18.47586,-34.36971,0 18.47712,-34.36984,0 18.47809,-34.36994,0 18.479,-34.37003,0 18.48003,-34.37003,0 18.48108,-34.36995,0 18.48225,-34.36981,0 18.48315,-34.36972,0 18.48422,-34.36958,0 18.48524,-34.36942,0 18.48633,-34.36924,0 18.4873,-34.36908,0 18.48825,-34.3689,0 18.48915,-34.36871,0 18.49027,-34.36844,0 18.49131,-34.36817,0 18.49216,-34.36789,0 18.49302,-34.36756,0 18.49408,-34.36711,0 18.49515,-34.36652,0 18.49588,-34.36602,0 18.49663,-34.36547,0 18.49749,-34.36477,0 18.49834,-34.36391,0 18.49903,-34.36309,0 18.49955,-34.3623,0 18.49997,-34.36157,0 18.50036,-34.36052,0 18.50053,-34.3596,0 18.50058,-34.35878,0 18.50042,-34.35777,0 18.50019,-34.3569,0 18.49972,-34.35574,0 18.49924,-34.35466,0 18.4988,-34.35378,0 18.49829,-34.3526,0 18.49766,-34.35113,0 18.49728,-34.35017,0 18.49683,-34.34903,0 18.4964,-34.34792,0 18.49611,-34.34703,0 18.49566,-34.34578,0 18.49537,-34.34475,0 18.49504,-34.34377,0 18.49475,-34.34299,0 18.4944,-34.34191,0 18.49408,-34.34097,0 18.49375,-34.33987,0 18.49352,-34.33905,0 18.4933,-34.33823,0 18.49302,-34.3374,0 18.49274,-34.33626,0 18.49245,-34.33502,0 18.49223,-34.33401,0 18.49205,-34.33283,0 18.49182,-34.33167,0 18.49159,-34.33074,0 18.49133,-34.32953,0 18.49111,-34.32848,0 18.49094,-34.32742,0 18.49079,-34.32632,0 18.49062,-34.32534,0 18.49045,-34.32394,0 18.49033,-34.32303,0 18.49022,-34.32175,0 18.4901,-34.32097,0 18.48993,-34.31937,0 18.48982,-34.3185,0 18.48971,-34.31754,0 18.4896,-34.31616,0 18.48948,-34.31519,0 18.48942,-34.31389,0 18.48936,-34.31277,0 18.48926,-34.31154,0 18.48921,-34.31058,0 18.48919,-34.30956,0 18.48913,-34.30858,0 18.48904,-34.30733,0 18.48893,-34.30623,0 18.48885,-34.30527,0 18.48873,-34.30402,0 18.48862,-34.30276,0 18.48839,-34.30048,0 18.48822,-34.29722,0 18.48797,-34.29373,0 18.48775,-34.29071,0 18.48764,-34.28894,0 18.48764,-34.28772,0 18.4877,-34.28656,0 18.48776,-34.2854,0 18.48775,-34.28435,0 18.48782,-34.28335,0 18.48782,-34.28242,0 18.48792,-34.28123,0 18.48792,-34.28023,0 18.48799,-34.27925,0 18.48803,-34.27812,0 18.48804,-34.27725,0 18.48803,-34.27602,0 18.48804,-34.27515,0 18.48797,-34.27034,0 18.48799,-34.26743,0 18.48782,-34.26654,0 18.48742,-34.26547,0 18.48713,-34.26462,0 18.48708,-34.26384,0 18.48713,-34.26277,0 18.48713,-34.26151,0 18.48713,-34.26059,0 18.48719,-34.25961,0 18.48719,-34.25844,0 18.48719,-34.25743,0 18.48724,-34.25647,0 18.48724,-34.25505,0 18.48724,-34.25377,0 18.48724,-34.25207,0 18.48724,-34.25089,0 18.4873,-34.24992,0 18.48736,-34.24629,0 18.4873,-34.24525,0 18.48724,-34.24425,0 18.48707,-34.24299,0 18.48696,-34.24196,0 18.48668,-34.24063,0 18.48646,-34.23949,0 18.48621,-34.23861,0 18.48584,-34.2372,0 18.48556,-34.23619,0 18.48518,-34.23507,0 18.48467,-34.23349,0 18.48433,-34.23239,0 18.48388,-34.23125,0 18.48341,-34.23,0 18.48301,-34.22898,0 18.48244,-34.22763,0 18.48192,-34.22639,0 18.48135,-34.2252,0 18.48091,-34.22411,0 18.48024,-34.22264,0 18.4798,-34.22153,0 18.47934,-34.22044,0 18.47895,-34.21943,0 18.47828,-34.21797,0 18.47783,-34.21692,0 18.47581,-34.21225,0 18.47414,-34.20872,0 18.47305,-34.20663,0 18.4725,-34.20566,0 18.47183,-34.20451,0 18.47121,-34.20346,0 18.47059,-34.20249,0 18.46992,-34.20149,0 18.46908,-34.2003,0 18.46836,-34.19928,0 18.46773,-34.19835,0 18.46699,-34.19741,0 18.46628,-34.19641,0 18.46539,-34.19522,0 18.46454,-34.19417,0 18.46361,-34.19294,0 18.4627,-34.19169,0 18.4618,-34.1906,0 18.46098,-34.1895,0 18.46018,-34.18848,0 18.45944,-34.18744,0 18.45871,-34.18648,0 18.45798,-34.18529,0 18.4572,-34.18414,0 18.45663,-34.18322,0 18.45594,-34.18214,0 18.45526,-34.18098,0 18.45463,-34.17968,0 18.45428,-34.17851,0 18.45406,-34.17744,0 18.454,-34.17645,0 18.454,-34.17456,0 18.454,-34.17363,0 18.454,-34.17224,0 18.454,-34.17133,0 18.45412,-34.16977,0 18.45417,-34.16869,0 18.45423,-34.16734,0 18.45428,-34.16634,0 18.4544,-34.16501,0 18.45451,-34.16391,0 18.45462,-34.16295,0 18.45474,-34.16166,0 18.45485,-34.16052,0 18.45496,-34.15929,0 18.45518,-34.15796,0 18.45541,-34.15672,0 18.45572,-34.15542,0 18.456,-34.15445,0 18.4563,-34.15347,0 18.4567,-34.15228,0 18.4572,-34.15096,0 18.45759,-34.14977,0 18.458,-34.14863,0 18.45838,-34.14775,0 18.45869,-34.14681,0 18.45916,-34.14555,0 18.45966,-34.14439,0 18.46011,-34.1434,0 18.46062,-34.1423,0 18.46112,-34.14134,0 18.46168,-34.14034,0 18.46213,-34.13947,0 18.4627,-34.13843,0 18.4632,-34.13754,0 18.46373,-34.13662,0 18.46437,-34.13557,0 18.46487,-34.13466,0 18.46567,-34.1334,0 18.46613,-34.13252,0 18.46684,-34.13127,0 18.46734,-34.13045,0 18.46802,-34.1293,0 18.46842,-34.12856,0 18.46899,-34.1274,0 18.46951,-34.12637,0 18.46996,-34.1254,0 18.47054,-34.12422,0 18.47093,-34.12331,0 18.47145,-34.12223,0 18.47194,-34.12106,0 18.47242,-34.1199,0 18.47282,-34.11897,0 18.47317,-34.11809,0 18.47368,-34.11688,0 18.47407,-34.11571,0 18.47429,-34.1147,0 18.47448,-34.11348,0 18.4746,-34.1125,0 18.47477,-34.11129,0 18.47494,-34.11018,0 18.47511,-34.10896,0 18.47536,-34.10779,0 18.47553,-34.10678,0 18.4758,-34.10538,0 18.47597,-34.10435,0 18.4762,-34.10296,0 18.47631,-34.10184,0 18.47643,-34.10077,0 18.47643,-34.09937,0 18.47649,-34.09798,0 18.47649,-34.09686,0 18.47649,-34.09575,0 18.47648,-34.09337,0 18.47643,-34.09204,0 18.47637,-34.0909,0 18.47626,-34.08971,0 18.47614,-34.08853,0 18.47603,-34.08755,0 18.47591,-34.0862,0 18.47574,-34.08485,0 18.47563,-34.08373,0 18.47542,-34.08238,0 18.47519,-34.08115,0 18.475,-34.07991,0 18.4748,-34.07877,0 18.4726,-34.06343,0 18.47211,-34.05968,0 18.47191,-34.05729,0 18.47177,-34.05629,0 18.47168,-34.05496,0 18.47155,-34.05341,0 18.47151,-34.0524,0 18.47139,-34.05119,0 18.47132,-34.04988,0 18.4711,-34.04617,0 18.47111,-34.04505,0 18.47105,-34.04398,0 18.47099,-34.0426,0 18.47094,-34.04123,0 18.47088,-34.04007,0 18.47088,-34.03912,0 18.47076,-34.03755,0 18.47071,-34.03625,0 18.4706,-34.03477,0 18.47036,-34.03015,0 18.47031,-34.02587,0 18.4702,-34.021,0 18.47015,-34.01994,0 18.47013,-34.01865,0 18.47015,-34.0177,0 18.47015,-34.01646,0 18.47019,-34.01549,0 18.47026,-34.01422,0 18.47026,-34.01317,0 18.47032,-34.01207,0 18.47036,-34.01107,0 18.47037,-34.00996,0 18.47043,-34.00864,0 18.47042,-34.00767,0 18.47042,-34.00641,0 18.47048,-34.00534,0 18.47048,-34.00404,0 18.47059,-34.00022,0 18.47094,-33.99682,0 18.47116,-33.9931,0 18.47127,-33.99197,0 18.47145,-33.99063,0 18.47161,-33.98964,0 18.47183,-33.98836,0 18.47202,-33.98714,0 18.47225,-33.98579,0 18.47248,-33.98467,0 18.47271,-33.98365,0 18.473,-33.98244,0 18.47334,-33.98126,0 18.47362,-33.98026,0 18.47401,-33.97897,0 18.47441,-33.97778,0 18.47477,-33.9768,0 18.47508,-33.97591,0 18.47553,-33.97476,0 18.47581,-33.97394,0 18.4762,-33.97298,0 18.47654,-33.97201,0 18.47694,-33.97108,0 18.47727,-33.97028,0 18.47775,-33.96903,0 18.47809,-33.96814,0 18.4785,-33.96725,0 18.47973,-33.96428,0 18.48046,-33.96254,0 18.48083,-33.96153,0 18.48106,-33.96083,0 18.48141,-33.95953,0 18.48164,-33.95865,0 18.48175,-33.95741,0 18.4817,-33.95659,0 18.48158,-33.95572,0 18.48124,-33.9545,0 18.48091,-33.95361,0 18.48066,-33.95292,0 18.48018,-33.95197,0 18.47973,-33.95119,0 18.47928,-33.95036,0 18.47872,-33.94938,0 18.47833,-33.94858,0 18.47792,-33.9479,0 18.47746,-33.94691,0 18.47706,-33.94613,0 18.47665,-33.94533,0 18.4762,-33.94445,0 18.47581,-33.94377,0 18.47536,-33.94286,0 18.47497,-33.94217,0 18.47454,-33.94138,0 18.47323,-33.93896,0 18.47185,-33.93649,0 18.47042,-33.93411,0 18.46987,-33.93329,0 18.46939,-33.93253,0 18.46886,-33.93182,0 18.46825,-33.931,0 18.46757,-33.93008,0 18.46706,-33.9294,0 18.46653,-33.92871,0 18.4659,-33.92788,0 18.46521,-33.92699,0 18.46465,-33.92628,0 18.46415,-33.92564,0 18.4635,-33.9248,0 18.4631,-33.92429,0 18.46247,-33.92349,0 18.46195,-33.92289,0 18.46127,-33.92206,0 18.46064,-33.92126,0 18.46,-33.92056,0 18.45926,-33.91968,0 18.45882,-33.91919,0 18.458,-33.91833,0 18.45742,-33.91763,0 18.45669,-33.9168,0 18.45612,-33.91615,0 18.45552,-33.91544,0 18.45496,-33.91475,0 18.45446,-33.9141,0 18.45378,-33.91324,0 18.45322,-33.91255,0 18.4526,-33.91168,0 18.45204,-33.91086,0 18.45148,-33.91003,0 18.45085,-33.90911,0 18.45036,-33.90839,0 18.44991,-33.90779,0 18.44931,-33.90693,0 18.44874,-33.90619,0 18.44805,-33.90525,0 18.44742,-33.90451,0 18.44694,-33.90376,0 18.44633,-33.90274,0 18.44593,-33.90179,0 18.44553,-33.90092,0 18.4452,-33.90005,0 18.4449,-33.8992,0 18.44459,-33.89841,0 18.44427,-33.89748,0 18.44397,-33.89658,0 18.44369,-33.89571,0 18.44352,-33.89493,0 18.44324,-33.89389,0 18.44307,-33.89314,0 18.44284,-33.89217,0 18.44268,-33.8914,0 18.44246,-33.89044,0 18.44229,-33.88966,0 18.44201,-33.88857,0 18.44179,-33.88774,0 18.44147,-33.88677,0 18.44107,-33.88579,0 18.44055,-33.88472,0 18.44004,-33.88379,0 18.43964,-33.88309,0 18.43912,-33.88216,0 18.43859,-33.88129,0 18.43815,-33.88053,0 18.43758,-33.87955,0 18.43706,-33.87862,0 18.43672,-33.87797,0 18.43609,-33.87695,0 18.43556,-33.87602,0 18.435,-33.87515,0 18.4345,-33.87433,0 18.43374,-33.87327,0 18.43327,-33.87259,0 18.43259,-33.87167,0 18.43186,-33.87071,0 18.4313,-33.86998,0 18.4306,-33.86903,0 18.42979,-33.86806,0 18.42917,-33.86732,0 18.42859,-33.86666,0 18.42805,-33.86595,0 18.4271,-33.86504,0 18.4262,-33.86449,0 18.42553,-33.86426,0 18.42453,-33.86424,0 18.42384,-33.86438,0 18.42321,-33.8648,0 18.4229,-33.86526,0 18.4227,-33.86591,0 18.42273,-33.8665,0 18.42278,-33.86714,0 18.42293,-33.86787,0 18.42318,-33.8687,0 18.42333,-33.86931,0 18.42351,-33.86975,0 18.4239,-33.87062,0 18.42413,-33.87117,0 18.42447,-33.87197,0 18.42482,-33.87257,0 18.42516,-33.87332,0 18.4255,-33.87415,0 18.42592,-33.87506,0 18.4262,-33.87575,0 18.42643,-33.87634,0 18.4267,-33.87704,0 18.42693,-33.87765,0 18.42728,-33.87844,0 18.42743,-33.87886,0 18.42783,-33.87978,0 18.42808,-33.88039,0 18.42833,-33.88097,0 18.42871,-33.88165,0 18.42906,-33.88234,0 18.4294,-33.88289,0 18.42974,-33.88342,0 18.43013,-33.88399,0 18.43065,-33.88458,0 18.43111,-33.88509,0 18.43163,-33.88551,0 18.43225,-33.88593,0 18.43287,-33.88618,0 18.43366,-33.88646,0 18.43461,-33.88664,0 18.43539,-33.88673,0 18.43615,-33.88686,0 18.43706,-33.887,0 18.43803,-33.88719,0 18.43872,-33.88728,0 18.43971,-33.88747,0 18.44055,-33.88765,0 18.44147,-33.88789,0 18.44215,-33.88812,0 18.44296,-33.88843,0 18.44375,-33.88889,0 18.44433,-33.88929,0 18.44479,-33.88961,0 18.44542,-33.89035,0 18.44582,-33.89087,0 18.44621,-33.89154,0 18.44662,-33.89227,0 18.4469,-33.89287,0 18.44725,-33.89366,0 18.44742,-33.89426,0 18.44761,-33.89502,0 18.44765,-33.89561,0 18.44761,-33.89639,0 18.44745,-33.89703,0 18.44717,-33.89767,0 18.44679,-33.89827,0 18.44616,-33.89887,0 18.44543,-33.89932,0 18.44481,-33.8996,0 18.44398,-33.89981,0 18.4433,-33.89999,0 18.44279,-33.9001,0 18.44193,-33.90022,0 18.44128,-33.90028,0 18.44044,-33.90028,0 18.43977,-33.90033,0 18.43915,-33.90038,0 18.43831,-33.90038,0 18.43769,-33.90038,0 18.43696,-33.90038,0 18.43646,-33.90038,0 18.43573,-33.90038,0 18.43545,-33.90038,0 18.43512,-33.90041,0 18.43489,-33.90041,0 18.4346,-33.90041,0 18.43437,-33.90041,0 18.43409,-33.90041,0 18.43386,-33.90046,0 18.4336,-33.90042,0 18.4334,-33.90046,0 18.4331,-33.90047,0 18.43248,-33.90047,0 18.43226,-33.90047,0 18.43203,-33.90051,0 18.43175,-33.90051,0 18.43136,-33.90047,0 18.43111,-33.90046,0 18.4308,-33.90047,0 18.43031,-33.90041,0 18.43002,-33.90036,0 18.42973,-33.90033,0 18.42928,-33.90027,0 18.42906,-33.90024,0 18.42844,-33.90019,0 18.42811,-33.90019,0 18.42785,-33.90022,0 18.42762,-33.90027,0 18.42739,-33.90036,0 18.42721,-33.9006,0 18.4271,-33.90083,0 18.42688,-33.90097,0 18.42676,-33.90064,0 18.42682,-33.90033,0 18.42705,-33.89994,0 18.4276,-33.89937,0 18.42783,-33.89919,0 18.428,-33.89896,0 18.42822,-33.89873,0 18.42859,-33.89836,0 18.429,-33.89786,0 18.4294,-33.89745,0 18.43002,-33.89669,0 18.43046,-33.89612,0 18.4308,-33.89566,0 18.43108,-33.89534,0 18.43128,-33.89501,0 18.43163,-33.89455,0 18.43208,-33.89399,0 18.43231,-33.89361,0 18.43277,-33.89305,0 18.43306,-33.89268,0 18.43332,-33.89227,0 18.43357,-33.89194,0 18.43377,-33.89159,0 18.43403,-33.89119,0 18.43437,-33.89068,0 18.43495,-33.8898,0 18.43551,-33.88875,0 18.43592,-33.88789,0 18.43632,-33.88705,0 18.43663,-33.886,0 18.43674,-33.88495,0 18.43663,-33.88412,0 18.43629,-33.88326,0 18.4358,-33.88239,0 18.435,-33.88151,0 18.43433,-33.88087,0 18.43346,-33.88025,0 18.43248,-33.87974,0 18.43136,-33.87923,0 18.43037,-33.87886,0 18.42929,-33.87859,0 18.42796,-33.87835,0 18.42699,-33.87822,0 18.4257,-33.87813,0 18.42463,-33.87813,0 18.42327,-33.87816,0 18.42201,-33.87825,0 18.42087,-33.87835,0 18.41931,-33.87849,0 18.41802,-33.87863,0 18.41695,-33.87877,0 18.41543,-33.879,0 18.41421,-33.87918,0 18.41325,-33.87932,0 18.41191,-33.87959,0 18.41057,-33.87983,0 18.40933,-33.88014,0 18.40849,-33.88033,0 18.40714,-33.88069,0 18.40611,-33.881,0 18.40473,-33.88142,0 18.4037,-33.88174,0 18.40238,-33.88225,0 18.40158,-33.88253,0 18.40044,-33.88305,0 18.39935,-33.88353,0 18.39846,-33.88399,0 18.39717,-33.88463,0 18.39627,-33.88509,0 18.39535,-33.88556,0 18.39442,-33.88605,0 18.3933,-33.88664,0 18.39254,-33.88705,0 18.39128,-33.8877,0 18.39037,-33.88821,0 18.38968,-33.88858,0 18.38877,-33.8891,0 18.38797,-33.88957,0 18.38691,-33.89017,0 18.38608,-33.89063,0 18.38413,-33.89185,0 18.38343,-33.89232,0 18.38259,-33.89287,0 18.38142,-33.89365,0 18.38058,-33.89422,0 18.37979,-33.89484,0 18.37889,-33.89552,0 18.37812,-33.89618,0 18.37738,-33.89678,0 18.37632,-33.89772,0 18.37555,-33.89836,0 18.37486,-33.89901,0 18.37423,-33.89967,0 18.37349,-33.90041,0 18.37273,-33.90111,0 18.372,-33.90184,0 18.37114,-33.90269,0 18.37046,-33.90334,0 18.36977,-33.90404,0 18.36914,-33.90474,0 18.3684,-33.90548,0 18.36768,-33.90628,0 18.3669,-33.9072,0 18.36617,-33.90807,0 18.36544,-33.90889,0 18.36491,-33.90958,0 18.36422,-33.91047,0 18.36359,-33.91122,0 18.3632,-33.91182,0 18.36264,-33.9126,0 18.36202,-33.91351,0 18.36146,-33.91429,0 18.36084,-33.91521,0 18.36016,-33.91624,0 18.35958,-33.91708,0 18.35905,-33.91795,0 18.35838,-33.91891,0 18.35764,-33.91996,0 18.35701,-33.92075,0 18.35627,-33.92159,0 18.35552,-33.92249,0 18.35466,-33.92345,0 18.35398,-33.9242,0 18.35316,-33.92514,0 18.35233,-33.92615,0 18.35171,-33.92693,0 18.35081,-33.92802,0 18.35008,-33.92899,0 18.34934,-33.92997,0 18.34866,-33.9309,0 18.34797,-33.93188,0 18.34734,-33.93274,0 18.34666,-33.9337,0 18.34605,-33.93457,0 18.34545,-33.93556,0 18.34488,-33.93639,0 18.34436,-33.93723,0 18.34351,-33.93863,0 18.34302,-33.93938,0 18.34242,-33.9403,0 18.34184,-33.94125,0 18.34139,-33.94203,0 18.34078,-33.94295,0 18.34022,-33.94391,0 18.33982,-33.9445,0 18.33921,-33.94547,0 18.33865,-33.94643,0 18.33807,-33.94738,0 18.33761,-33.94822,0 18.33702,-33.94926,0 18.33647,-33.95022,0 18.33601,-33.95115,0 18.33551,-33.9521,0 18.33504,-33.95306,0 18.3345,-33.95407,0 18.33405,-33.9549,0 18.33366,-33.95562,0 18.33321,-33.95655,0 18.33271,-33.95746,0 18.3322,-33.95833,0 18.33175,-33.95915,0 18.33132,-33.95995,0 18.33091,-33.96071,0 18.32937,-33.96647,0 18.33126,-33.9681,0 18.334,-33.96854,0 18.33708,-33.9678,0 18.3395,-33.96647,0 18.34179,-33.96502,0 18.34408,-33.96344,0 18.34602,-33.96172,0 18.34785,-33.95972,0 18.34963,-33.95753,0 18.35048,-33.95641,0 18.35098,-33.95563,0 18.35203,-33.95427,0 18.35255,-33.95353,0 18.35328,-33.95265,0 18.35384,-33.95187,0 18.35451,-33.95096,0 18.35501,-33.95027,0 18.35552,-33.94962,0 18.35619,-33.94872,0 18.35675,-33.94794,0 18.35735,-33.9471,0 18.35793,-33.94622,0 18.35855,-33.94524,0 18.359,-33.9445,0 18.35939,-33.94377,0 18.35995,-33.94276,0 18.36034,-33.94208,0 18.36079,-33.94133,0 18.36124,-33.94059,0 18.36227,-33.93872,0 18.36273,-33.93784,0 18.36302,-33.93732,0 18.36348,-33.93635,0 18.36393,-33.93537,0 18.36439,-33.93435,0 18.36482,-33.93347,0 18.36531,-33.93248,0 18.36578,-33.93155,0 18.36617,-33.93081,0 18.36662,-33.92988,0 18.36701,-33.92899,0 18.36737,-33.92825,0 18.36782,-33.92732,0 18.36834,-33.92639,0 18.36903,-33.92532,0 18.36954,-33.92457,0 18.37,-33.92387,0 18.37051,-33.92318,0 18.3711,-33.9223,0 18.37166,-33.92152,0 18.3724,-33.92061,0 18.37292,-33.91991,0 18.37351,-33.91914,0 18.37396,-33.91859,0 18.37463,-33.91772,0 18.37519,-33.91708,0 18.37598,-33.91626,0 18.37658,-33.91558,0 18.37727,-33.91484,0 18.37795,-33.9141,0 18.37856,-33.91347,0 18.37923,-33.91273,0 18.37985,-33.91209,0 18.38047,-33.91144,0 18.38102,-33.9109,0 18.38179,-33.91019,0 18.38243,-33.90962,0 18.38299,-33.90907,0 18.38377,-33.90834,0 18.3843,-33.90786,0 18.38505,-33.90721,0 18.38568,-33.90665,0 18.38629,-33.9061,0 18.38691,-33.90555,0 18.38769,-33.90482,0 18.38943,-33.90331,0 18.39055,-33.90239,0 18.39123,-33.90184,0 18.39197,-33.90134,0 18.39263,-33.90083,0 18.39357,-33.90013,0 18.39426,-33.89962,0 18.39535,-33.89887,0 18.39627,-33.89827,0 18.39711,-33.89781,0 18.39812,-33.89722,0 18.39919,-33.89667,0 18.39998,-33.89627,0 18.40061,-33.89599,0 18.40176,-33.89548,0 18.40283,-33.89497,0 18.40395,-33.89452,0 18.40496,-33.89408,0 18.40608,-33.89365,0 18.40673,-33.89333,0 18.40793,-33.89287,0 18.40883,-33.8925,0 18.40989,-33.89204,0 18.41085,-33.89161,0 18.41196,-33.89117,0 18.41286,-33.89077,0 18.41365,-33.89044,0 18.4146,-33.89012,0 18.41566,-33.88971,0 18.41656,-33.88934,0 18.41755,-33.889,0 18.41852,-33.88863,0 18.41931,-33.88834,0 18.42043,-33.88788,0 18.42127,-33.88761,0 18.42224,-33.88724,0 18.4231,-33.88696,0 18.42419,-33.88659,0 18.42486,-33.88637,0 18.4259,-33.88602,0 18.42676,-33.88575,0 18.42773,-33.88551,0 18.42856,-33.88531,0 18.42979,-33.88514,0 18.43057,-33.88509,0 18.43185,-33.88509,0 18.43276,-33.88509,0 18.43382,-33.88518,0 18.43489,-33.88531,0 18.43596,-33.88554,0 18.43666,-33.88579,0 18.43752,-33.88607,0 18.43838,-33.88649,0 18.43932,-33.88705,0 18.44004,-33.88747,0 18.44106,-33.88811,0 18.4417,-33.88854,0 18.44246,-33.88902,0 18.44324,-33.88962,0 18.44398,-33.89012,0 18.44476,-33.89076,0 18.44543,-33.89136,0 18.44599,-33.89195,0 18.44644,-33.8925,0 18.4469,-33.8932,0 18.44722,-33.89383,0 18.44742,-33.89426,0 18.44765,-33.8951,0 18.44767,-33.89575,0 18.44753,-33.89645,0 18.44728,-33.89713,0 18.44661,-33.89795,0 18.44593,-33.89836,0 18.44507,-33.89874,0 18.44398,-33.89901,0 18.44319,-33.89914,0 18.44234,-33.89923,0 18.44158,-33.89939,0 18.44067,-33.89957,0 18.43999,-33.89969,0 18.43906,-33.89981,0 18.43843,-33.8999,0 18.43769,-33.89996,0 18.43689,-33.90009,0 18.43635,-33.90015,0 18.43609,-33.90018,0 18.43584,-33.90019,0 18.43562,-33.90024,0 18.43517,-33.90033,0 18.43472,-33.90036,0 18.43449,-33.90041,0 18.43414,-33.90041,0 18.43363,-33.90046,0 18.4334,-33.90046,0 18.43317,-33.90046,0 18.43282,-33.90047,0 18.43254,-33.90047,0 18.43225,-33.90046,0 18.43192,-33.90047,0 18.4317,-33.90047,0 18.43134,-33.90046,0 18.43114,-33.90042,0 18.43065,-33.90046,0 18.43029,-33.90042,0 18.42923,-33.90042,0 18.429,-33.90042,0 18.42867,-33.90042,0 18.42828,-33.90047,0 18.42796,-33.90055,0 18.42772,-33.9006,0 18.42749,-33.90065,0 18.42727,-33.90079,0 18.42702,-33.90093,0 18.42693,-33.9007,0 18.4271,-33.90027,0 18.42722,-33.90004,0 18.42739,-33.89971,0 18.4276,-33.89937,0 18.42772,-33.89914,0 18.42785,-33.89892,0 18.42811,-33.89859,0 18.42828,-33.89832,0 18.42844,-33.89804,0 18.42861,-33.89777,0 18.42894,-33.89734,0 18.42923,-33.89699,0 18.42945,-33.89667,0 18.42991,-33.89608,0 18.43018,-33.89566,0 18.43042,-33.89538,0 18.43082,-33.89487,0 18.43108,-33.89456,0 18.43142,-33.8941,0 18.43164,-33.89378,0 18.43197,-33.89333,0 18.43225,-33.89296,0 18.43276,-33.89223,0 18.43328,-33.89147,0 18.43386,-33.89063,0 18.43439,-33.88989,0 18.43483,-33.8891,0 18.43528,-33.88834,0 18.43584,-33.88728,0 18.43603,-33.88654,0 18.43609,-33.8856,0 18.4359,-33.88467,0 18.43562,-33.88394,0 18.43506,-33.88295,0 18.4345,-33.8822,0 18.43382,-33.88147,0 18.43294,-33.88076,0 18.43214,-33.88025,0 18.43114,-33.87978,0 18.42985,-33.87936,0 18.42882,-33.87909,0 18.42766,-33.87886,0 18.42625,-33.87867,0 18.42516,-33.87858,0 18.42384,-33.87848,0 18.4225,-33.87845,0 18.42144,-33.87844,0 18.42009,-33.87845,0 18.41846,-33.87848,0 18.41763,-33.87854,0 18.41612,-33.87862,0 18.41471,-33.87872,0 18.41366,-33.87881,0 18.41213,-33.87895,0 18.41079,-33.87914,0 18.40944,-33.87932,0 18.40821,-33.87955,0 18.40692,-33.87978,0 18.40599,-33.88002,0 18.40456,-33.88034,0 18.4033,-33.88067,0 18.40193,-33.88106,0 18.40087,-33.88142,0 18.3997,-33.88179,0 18.39867,-33.88221,0 18.39729,-33.88272,0 18.3961,-33.88326,0 18.39476,-33.8838,0 18.39369,-33.88426,0 18.39254,-33.88482,0 18.39134,-33.88542,0 18.39014,-33.88602,0 18.38905,-33.88663,0 18.38803,-33.88719,0 18.38685,-33.88783,0 18.3859,-33.88843,0 18.38488,-33.8891,0 18.38371,-33.88989,0 18.38276,-33.89059,0 18.38173,-33.89138,0 18.3808,-33.89209,0 18.37978,-33.89296,0 18.37893,-33.89366,0 18.37801,-33.89445,0 18.37704,-33.89529,0 18.37615,-33.89612,0 18.37526,-33.89682,0 18.37452,-33.89749,0 18.3736,-33.89832,0 18.37256,-33.89928,0 18.37177,-33.90001,0 18.37082,-33.90097,0 18.37009,-33.9017,0 18.3692,-33.90265,0 18.36852,-33.9034,0 18.36785,-33.90417,0 18.3672,-33.90488,0 18.36639,-33.9059,0 18.36576,-33.9067,0 18.36494,-33.9077,0 18.36421,-33.90866,0 18.36359,-33.90944,0 18.36297,-33.91026,0 18.36233,-33.91121,0 18.36157,-33.91223,0 18.36073,-33.91335,0 18.36016,-33.91419,0 18.35947,-33.91521,0 18.35894,-33.91594,0 18.3581,-33.91708,0 18.35748,-33.91795,0 18.35678,-33.91894,0 18.35615,-33.91987,0 18.35552,-33.92075,0 18.35473,-33.92194,0 18.35409,-33.92294,0 18.35345,-33.92395,0 18.35277,-33.92505,0 18.3522,-33.92601,0 18.35152,-33.92718,0 18.35087,-33.92812,0 18.35026,-33.92908,0 18.3494,-33.93034,0 18.34874,-33.93127,0 18.34797,-33.93244,0 18.34745,-33.93323,0 18.3466,-33.93449,0 18.34599,-33.93544,0 18.34515,-33.93677,0 18.34454,-33.93774,0 18.34373,-33.93891,0 18.34299,-33.94003,0 18.3423,-33.94091,0 18.34156,-33.94198,0 18.34072,-33.94304,0 18.33988,-33.94409,0 18.33921,-33.94501,0 18.33848,-33.94588,0 18.33781,-33.94675,0 18.33702,-33.9478,0 18.3363,-33.94873,0 18.33545,-33.94981,0 18.33458,-33.95092,0 18.33366,-33.95213,0 18.33286,-33.95329,0 18.33226,-33.95407,0 18.33142,-33.95531,0 18.33063,-33.95641,0 18.33,-33.9573,0 18.32703,-33.96163,0 18.32508,-33.96442,0 18.32005,-33.97215,0 18.31696,-33.97733,0 18.31507,-33.9808,0 18.31348,-33.98383,0 18.31214,-33.98639,0 18.31169,-33.98735,0 18.31118,-33.98831,0 18.31068,-33.98936,0 18.3102,-33.99039,0 18.30963,-33.99156,0 18.30911,-33.99275,0 18.30854,-33.99389,0 18.30748,-33.99619,0 18.30709,-33.99706,0 18.30654,-33.9984,0 18.30614,-33.99934,0 18.30468,-34.00287,0 18.30322,-34.00653,0 18.30182,-34.01019,0 18.30048,-34.01372,0 18.29885,-34.01811,0 18.29801,-34.02045,0 18.29767,-34.0215,0 18.29733,-34.02261,0 18.29699,-34.02396,0 18.29672,-34.02498,0 18.29641,-34.02629,0 18.2961,-34.0274,0 18.29584,-34.02861,0 18.2956,-34.02988,0 18.29556,-34.03099,0 18.29554,-34.03221,0 18.29561,-34.03332,0 18.29584,-34.03471,0 18.29605,-34.03596,0 18.29636,-34.03727,0 18.29664,-34.03835,0 18.29689,-34.03935,0 18.29728,-34.04095,0 18.29756,-34.04201,0 18.29784,-34.04309,0 18.29824,-34.04444,0 18.29865,-34.0457,0 18.29896,-34.04659,0 18.2995,-34.04812,0 18.29997,-34.04942,0 18.30042,-34.05048,0 18.30092,-34.05171,0 18.30133,-34.05259,0 18.30202,-34.05394,0 18.30259,-34.05506,0 18.30322,-34.05629,0 18.30385,-34.05757,0 18.30446,-34.05862,0 18.30496,-34.05959,0 18.30557,-34.0606,0 18.30626,-34.06176,0 18.30683,-34.06274,0 18.30754,-34.06389,0 18.30816,-34.0648,0 18.30888,-34.0659,0 18.30956,-34.06686,0 18.31023,-34.06787,0 18.31073,-34.06856,0 18.31152,-34.06963,0 18.31221,-34.07065,0 18.31295,-34.07167,0 18.31371,-34.07272,0 18.31432,-34.07359,0 18.31488,-34.07442,0 18.31567,-34.07552,0 18.31628,-34.07652,0 18.31701,-34.07754,0 18.31757,-34.07835,0 18.31839,-34.0794,0 18.31914,-34.08032,0 18.31987,-34.08117,0 18.32056,-34.08196,0 18.32153,-34.08308,0 18.32228,-34.08394,0 18.32302,-34.0848,0 18.32388,-34.08587,0 18.32475,-34.08696,0 18.32536,-34.08778,0 18.32592,-34.08856,0 18.32682,-34.08989,0 18.32761,-34.09099,0 18.32833,-34.09204,0 18.32903,-34.0929,0 18.32989,-34.09388,0 18.33063,-34.09463,0 18.3316,-34.09565,0 18.33254,-34.09653,0 18.33332,-34.09723,0 18.33433,-34.09808,0 18.33532,-34.09891,0 18.33641,-34.09978,0 18.33721,-34.1004,0 18.33801,-34.10101,0 18.33921,-34.10184,0 18.34011,-34.10243,0 18.34116,-34.10319,0 18.34208,-34.1038,0 18.34324,-34.10454,0 18.34414,-34.10505,0 18.34511,-34.10561,0 18.3461,-34.10619,0 18.34723,-34.10682,0 18.34837,-34.10738,0 18.34929,-34.10785,0 18.35053,-34.10843,0 18.3514,-34.10883,0 18.35255,-34.10934,0 18.35367,-34.10989,0 18.35513,-34.11053,0 18.35615,-34.11097,0 18.35743,-34.11154,0 18.35838,-34.11195,0 18.35956,-34.11246,0 18.36061,-34.11287,0 18.3618,-34.11337,0 18.36285,-34.11376,0 18.36393,-34.11418,0 18.36485,-34.11455,0 18.36589,-34.11493,0 18.36725,-34.11544,0 18.36817,-34.11581,0 18.36943,-34.11627,0 18.3706,-34.11671,0 18.37155,-34.11708,0 18.37275,-34.11749,0 18.37402,-34.1179,0 18.37536,-34.11827,0 18.37629,-34.11855,0 18.37738,-34.11887,0 18.37867,-34.11923,0 18.38001,-34.11963,0 18.38121,-34.12,0 18.38226,-34.12029,0 18.3835,-34.12065,0 18.38453,-34.12093,0 18.38562,-34.12125,0 18.38676,-34.12153,0 18.38786,-34.12184,0 18.38882,-34.12214,0 18.39014,-34.1226,0 18.39128,-34.12299,0 18.39226,-34.1233,0 18.39352,-34.12376,0 18.39464,-34.12413,0 18.39565,-34.12445,0 18.39678,-34.12479,0 18.39806,-34.12518,0 18.39924,-34.12555,0 18.40021,-34.12591,0 18.40118,-34.12619,0 18.40244,-34.12661,0 18.4035,-34.12697,0 18.4057,-34.12772,0 18.40696,-34.12814,0 18.40804,-34.12848,0 18.40905,-34.12885,0 18.4112,-34.12954,0 18.41223,-34.12991,0 18.41342,-34.13026,0 18.41443,-34.13058,0 18.4156,-34.13099,0 18.41684,-34.13141,0 18.41772,-34.13168,0 18.41891,-34.13205,0 18.4199,-34.13238,0 18.42104,-34.13275,0 18.42201,-34.13308,0 18.42318,-34.13342,0 18.42436,-34.13382,0 18.42527,-34.1341,0 18.42642,-34.13438,0 18.42756,-34.13471,0 18.43082,-34.13568,0 18.43186,-34.13599,0 18.4331,-34.13631,0 18.43403,-34.13652,0 18.43523,-34.13681,0 18.4362,-34.13699,0 18.43736,-34.13722,0 18.43838,-34.13741,0 18.43946,-34.13755,0 18.44044,-34.13764,0 18.44158,-34.13769,0 18.44279,-34.13763,0 18.44375,-34.1375,0 18.44501,-34.13727,0 18.44622,-34.13699,0 18.4473,-34.13662,0 18.44846,-34.13612,0 18.4493,-34.13567,0 18.45028,-34.13513,0 18.45142,-34.13438,0 18.45249,-34.13361,0 18.45328,-34.13292,0 18.45423,-34.1321,0 18.45509,-34.13131,0 18.456,-34.13042,0 18.45681,-34.12962,0 18.45765,-34.1288,0 18.4584,-34.1281,0 18.4591,-34.12747,0 18.46,-34.1266,0 18.46075,-34.12591,0 18.46144,-34.12521,0 18.46208,-34.12454,0 18.46298,-34.12358,0 18.46361,-34.12284,0 18.46421,-34.12216,0 18.46487,-34.1214,0 18.46579,-34.12037,0 18.46656,-34.1196,0 18.46757,-34.11873,0 18.46819,-34.11818,0 18.46933,-34.11707,0 18.47008,-34.11632,0 18.47082,-34.1152,0 18.47139,-34.11404,0 18.47177,-34.11314,0 18.47208,-34.1119,0 18.47231,-34.11092,0 18.47248,-34.10989,0 18.47261,-34.1087,0 18.47282,-34.1072,0 18.47301,-34.10591,0 18.47311,-34.10482,0 18.47322,-34.10342,0 18.47334,-34.1022,0 18.4734,-34.10115,0 18.4734,-34.09993,0 18.47345,-34.09858,0 18.4734,-34.09749,0 18.4734,-34.09621,0 18.47334,-34.09514,0 18.47334,-34.09393,0 18.47328,-34.0929,0 18.47317,-34.09179,0 18.47311,-34.09058,0 18.47306,-34.08957,0 18.47294,-34.08829,0 18.47278,-34.08678,0 18.47261,-34.08536,0 18.4725,-34.0843,0 18.47239,-34.08344,0 18.47222,-34.08202,0 18.47202,-34.08061,0 18.47183,-34.07936,0 18.47162,-34.07833,0 18.47144,-34.07693,0 18.47127,-34.07574,0 18.4711,-34.07474,0 18.47099,-34.07355,0 18.47032,-34.06856,0 18.46992,-34.06512,0 18.46959,-34.06105,0 18.46931,-34.05753,0 18.46891,-34.05299,0 18.46848,-34.04919,0 18.4679,-34.04523,0 18.46779,-34.04416,0 18.46773,-34.04281,0 18.46768,-34.04141,0 18.46762,-34.03995,0 18.46762,-34.03876,0 18.46757,-34.03761,0 18.46756,-34.03634,0 18.46757,-34.03519,0 18.46757,-34.03372,0 18.46757,-34.03262,0 18.46762,-34.03111,0 18.46767,-34.03011,0 18.46774,-34.02873,0 18.46779,-34.0274,0 18.46791,-34.02626,0 18.46796,-34.02517,0 18.46807,-34.02415,0 18.46819,-34.02278,0 18.46824,-34.02177,0 18.46835,-34.02072,0 18.46847,-34.01949,0 18.46858,-34.01834,0 18.46869,-34.01711,0 18.46905,-34.01372,0 18.46925,-34.01138,0 18.46936,-34.00896,0 18.46936,-34.0079,0 18.46936,-34.00662,0 18.46945,-34.00529,0 18.46951,-34.00389,0 18.46956,-34.00296,0 18.46968,-34.00166,0 18.46976,-34.00063,0 18.46992,-33.99925,0 18.47002,-33.99812,0 18.47019,-33.99705,0 18.47036,-33.99598,0 18.47054,-33.99477,0 18.47076,-33.99347,0 18.47093,-33.99234,0 18.47116,-33.99133,0 18.47145,-33.98993,0 18.47179,-33.98867,0 18.47205,-33.98753,0 18.47239,-33.98639,0 18.47271,-33.98513,0 18.47306,-33.98392,0 18.47357,-33.98248,0 18.47385,-33.98149,0 18.47425,-33.98025,0 18.4746,-33.97904,0 18.47488,-33.97797,0 18.47525,-33.97655,0 18.47551,-33.9755,0 18.47586,-33.97417,0 18.4762,-33.97289,0 18.47643,-33.97187,0 18.47693,-33.97018,0 18.47746,-33.96889,0 18.47792,-33.96786,0 18.47833,-33.96689,0 18.47895,-33.96568,0 18.4794,-33.96465,0 18.48007,-33.96332,0 18.48055,-33.96242,0 18.48108,-33.96112,0 18.48152,-33.95995,0 18.48175,-33.95901,0 18.48186,-33.9579,0 18.48181,-33.95665,0 18.48164,-33.95572,0 18.48141,-33.95478,0 18.48106,-33.9539,0 18.48055,-33.95274,0 18.48001,-33.95155,0 18.47968,-33.95087,0 18.47912,-33.94976,0 18.47855,-33.94868,0 18.47794,-33.94757,0 18.47746,-33.94664,0 18.47677,-33.94547,0 18.47643,-33.94482,0 18.4757,-33.94345,0 18.47519,-33.94258,0 18.47458,-33.94153,0 18.47397,-33.9404,0 18.47351,-33.93942,0 18.47301,-33.93842,0 18.47254,-33.93747,0 18.472,-33.93636,0 18.47144,-33.93517,0 18.47094,-33.93416,0 18.47048,-33.93337,0 18.46981,-33.93219,0 18.46931,-33.93127,0 18.46869,-33.93013,0 18.46807,-33.92899,0 18.46756,-33.92806,0 18.46695,-33.92711,0 18.46617,-33.92596,0 18.46556,-33.92517,0 18.46481,-33.92434,0 18.46395,-33.92345,0 18.46325,-33.92281,0 18.46247,-33.92212,0 18.46144,-33.92131,0 18.46034,-33.92047,0 18.45922,-33.91969,0 18.45832,-33.91901,0 18.45748,-33.91841,0 18.45657,-33.91777,0 18.45549,-33.91708,0 18.45457,-33.91644,0 18.45339,-33.91571,0 18.45232,-33.91502,0 18.45143,-33.91447,0 18.45057,-33.91396,0 18.44942,-33.9133,0 18.44822,-33.91251,0 18.44725,-33.91186,0 18.44639,-33.9113,0 18.44548,-33.91063,0 18.44436,-33.90981,0 18.44341,-33.90911,0 18.44257,-33.90848,0 18.44175,-33.90791,0 18.44101,-33.90739,0 18.44027,-33.90688,0 18.43924,-33.90614,0 18.43831,-33.9055,0 18.43798,-33.90525,0 18.43741,-33.90486,0 18.43712,-33.90465,0 18.43668,-33.90436,0 18.43637,-33.90413,0 18.43609,-33.9039,0 18.43557,-33.90348,0 18.43528,-33.90321,0 18.43477,-33.90269,0 18.43449,-33.90241,0 18.43394,-33.90189,0 18.43369,-33.90167,0 18.4334,-33.90148,0 18.4331,-33.9012,0 18.43283,-33.90102,0 18.43237,-33.9007,0 18.43214,-33.90056,0 18.43192,-33.90042,0 18.43168,-33.90036,0 18.43134,-33.90032,0 18.43114,-33.90028,0 18.4308,-33.90038,0 18.43057,-33.90042,0 18.43031,-33.90055,0 18.43008,-33.9006,0 18.42939,-33.90078,0 18.42906,-33.90083,0 18.42878,-33.90088,0 18.42842,-33.90092,0 18.42822,-33.90097,0 18.42802,-33.90102,0 18.42779,-33.90102,0 18.42756,-33.90102,0 18.42728,-33.90106,0 18.42708,-33.90113,0 18.42705,-33.90092,0 18.42715,-33.90056,0 18.42721,-33.90028,0 18.42745,-33.89985,0 18.42777,-33.89937,0 18.42796,-33.89911,0 18.42811,-33.89886,0 18.42844,-33.89845,0 18.42884,-33.8979,0 18.42923,-33.89745,0 18.42957,-33.89699,0 18.42996,-33.89653,0 18.43018,-33.89621,0 18.43042,-33.89594,0 18.43082,-33.89548,0 18.43108,-33.89511,0 18.43147,-33.8947,0 18.43175,-33.89433,0 18.43208,-33.89399,0 18.43231,-33.89369,0 18.43271,-33.8932,0 18.43399,-33.89172,0 18.43426,-33.89138,0 18.4346,-33.89096,0 18.435,-33.89035,0 18.43562,-33.88943,0 18.43603,-33.88868,0 18.43643,-33.88789,0 18.43678,-33.88682,0 18.43691,-33.88582,0 18.43691,-33.88504,0 18.43668,-33.88412,0 18.4364,-33.88358,0 18.43579,-33.88275,0 18.43489,-33.88198,0 18.43409,-33.88146,0 18.43332,-33.8811,0 18.43231,-33.88074,0 18.4314,-33.88049,0 18.43048,-33.88025,0 18.42951,-33.88011,0 18.42822,-33.87996,0 18.42722,-33.87993,0 18.42613,-33.87988,0 18.42491,-33.87991,0 18.42413,-33.87993,0 18.42281,-33.88002,0 18.42178,-33.88007,0 18.42048,-33.88019,0 18.41949,-33.8803,0 18.41819,-33.88042,0 18.41679,-33.8806,0 18.4156,-33.88081,0 18.4146,-33.88092,0 18.4136,-33.88105,0 18.41219,-33.8812,0 18.41112,-33.88133,0 18.40984,-33.88147,0 18.40843,-33.88161,0 18.40748,-33.88174,0 18.40642,-33.88193,0 18.40507,-33.88216,0 18.40378,-33.88243,0 18.40267,-33.88268,0 18.40132,-33.88298,0 18.39998,-33.88333,0 18.39907,-33.88358,0 18.39756,-33.88403,0 18.39633,-33.88445,0 18.39523,-33.88486,0 18.39403,-33.88527,0 18.3933,-33.88554,0 18.39173,-33.88623,0 18.39071,-33.88672,0 18.38974,-33.88719,0 18.38853,-33.88779,0 18.38734,-33.88845,0 18.38619,-33.88905,0 18.38528,-33.88961,0 18.38416,-33.89026,0 18.38304,-33.8909,0 18.38209,-33.89154,0 18.38102,-33.89218,0 18.37996,-33.89287,0 18.37912,-33.89346,0 18.37835,-33.89403,0 18.37738,-33.89473,0 18.37648,-33.89543,0 18.37559,-33.89616,0 18.37486,-33.89673,0 18.37396,-33.89745,0 18.37295,-33.89822,0 18.37222,-33.89886,0 18.37172,-33.89934,0 18.37082,-33.90015,0 18.36987,-33.90102,0 18.36931,-33.90153,0 18.36834,-33.90246,0 18.36763,-33.90317,0 18.36685,-33.90395,0 18.36617,-33.90465,0 18.36544,-33.90541,0 18.36462,-33.90628,0 18.36388,-33.90707,0 18.36308,-33.908,0 18.3623,-33.9088,0 18.36164,-33.90958,0 18.36107,-33.91026,0 18.36016,-33.9114,0 18.35967,-33.912,0 18.35884,-33.91307,0 18.35827,-33.91379,0 18.35747,-33.91475,0 18.35661,-33.91577,0 18.35602,-33.91649,0 18.35518,-33.91745,0 18.35443,-33.91838,0 18.35384,-33.9191,0 18.35289,-33.92024,0 18.35221,-33.92102,0 18.35157,-33.92183,0 18.35072,-33.92285,0 18.35014,-33.92358,0 18.34935,-33.92464,0 18.34874,-33.92546,0 18.34784,-33.9267,0 18.34728,-33.92757,0 18.34671,-33.92834,0 18.34591,-33.92955,0 18.34534,-33.93039,0 18.34471,-33.93137,0 18.34414,-33.93221,0 18.34345,-33.93332,0 18.34291,-33.9342,0 18.34236,-33.93509,0 18.34173,-33.93631,0 18.34116,-33.93737,0 18.3407,-33.93826,0 18.34027,-33.9391,0 18.33966,-33.94048,0 18.33915,-33.94157,0 18.33865,-33.94267,0 18.3382,-33.94359,0 18.33755,-33.94463,0 18.33698,-33.94547,0 18.33624,-33.94643,0 18.33545,-33.94743,0 18.33484,-33.94826,0 18.33416,-33.94908,0 18.33344,-33.95009,0 18.33271,-33.951,0 18.33212,-33.95181,0 18.33115,-33.95306,0 18.33052,-33.95389,0 18.32985,-33.95485,0 18.32914,-33.95585,0 18.32811,-33.9573,0 18.32755,-33.95815,0 18.32588,-33.9607,0 18.32514,-33.96195,0 18.32176,-33.96796,0 18.32038,-33.97069,0 18.31892,-33.97353,0 18.31793,-33.97517,0 18.31741,-33.97601,0 18.31541,-33.97955,0 18.31471,-33.98085,0 18.31421,-33.98178,0 18.31375,-33.98267,0 18.31312,-33.98388,0 18.31253,-33.98497,0 18.31197,-33.98602,0 18.31152,-33.98695,0 18.31096,-33.98808,0 18.3104,-33.98923,0 18.30995,-33.99014,0 18.3094,-33.99128,0 18.30883,-33.99252,0 18.30838,-33.99353,0 18.30782,-33.99486,0 18.30743,-33.99577,0 18.307,-33.99696,0 18.30654,-33.99808,0 18.30608,-33.9993,0 18.30574,-34.00031,0 18.3054,-34.00134,0 18.305,-34.00245,0 18.30457,-34.00351,0 18.3042,-34.00455,0 18.3039,-34.00534,0 18.30339,-34.00636,0 18.30283,-34.00735,0 18.30227,-34.00832,0 18.30179,-34.00916,0 18.30137,-34.01001,0 18.30081,-34.01102,0 18.3003,-34.01209,0 18.29992,-34.01294,0 18.29952,-34.01381,0 18.29907,-34.01486,0 18.29857,-34.01601,0 18.29807,-34.01701,0 18.2975,-34.018,0 18.29704,-34.01889,0 18.29659,-34.01982,0 18.29613,-34.02066,0 18.29566,-34.02173,0 18.29521,-34.02266,0 18.29481,-34.02354,0 18.29458,-34.02428,0 18.2943,-34.02554,0 18.29437,-34.02644,0 18.29453,-34.02726,0 18.29504,-34.02824,0 18.29577,-34.02901,0 18.29664,-34.02964,0 18.29756,-34.03006,0 18.29863,-34.03029,0 18.29958,-34.03033,0 18.30081,-34.03015,0 18.30168,-34.02983,0 18.30272,-34.02937,0 18.30385,-34.02866,0 18.30471,-34.02806,0 18.30552,-34.02736,0 18.30647,-34.02654,0 18.30754,-34.02544,0 18.30837,-34.02452,0 18.30912,-34.02364,0 18.31051,-34.02177,0 18.31124,-34.02077,0 18.31197,-34.01976,0 18.31261,-34.01889,0 18.3132,-34.01807,0 18.31472,-34.01586,0 18.31553,-34.01469,0 18.316,-34.01399,0 18.31668,-34.01308,0 18.31724,-34.0123,0 18.31791,-34.01143,0 18.31861,-34.01046,0 18.31925,-34.0096,0 18.31999,-34.00874,0 18.32056,-34.00799,0 18.32113,-34.00716,0 18.32195,-34.00603,0 18.32262,-34.00511,0 18.32314,-34.00436,0 18.32376,-34.00338,0 18.32441,-34.0025,0 18.32503,-34.00159,0 18.32559,-34.00081,0 18.32626,-33.99985,0 18.32685,-33.99896,0 18.3276,-33.99789,0 18.32839,-33.99673,0 18.33069,-33.9933,0 18.33241,-33.99086,0 18.33395,-33.98872,0 18.33572,-33.98621,0 18.3373,-33.98383,0 18.3387,-33.9816,0 18.34019,-33.97927,0 18.34167,-33.9771,0 18.34313,-33.97513,0 18.34487,-33.97279,0 18.34642,-33.97066,0 18.34791,-33.96842,0 18.3493,-33.96638,0 18.35205,-33.96217,0 18.35323,-33.96,0 18.3544,-33.95778,0 18.35546,-33.95563,0 18.35574,-33.95499,0 18.35621,-33.95399,0 18.35655,-33.9532,0 18.3569,-33.95227,0 18.35726,-33.95142,0 18.35759,-33.95064,0 18.35799,-33.94963,0 18.35833,-33.94864,0 18.35855,-33.94785,0 18.35888,-33.94688,0 18.35911,-33.94606,0 18.35933,-33.94519,0 18.35944,-33.94441,0 18.35967,-33.94345,0 18.35989,-33.94235,0 18.3601,-33.94138,0 18.36034,-33.94034,0 18.36068,-33.93924,0 18.3609,-33.9384,0 18.36119,-33.93756,0 18.36147,-33.93672,0 18.36187,-33.93551,0 18.36216,-33.93449,0 18.3625,-33.93346,0 18.36281,-33.93256,0 18.36314,-33.93173,0 18.36365,-33.93068,0 18.36411,-33.92969,0 18.3646,-33.92876,0 18.36499,-33.92798,0 18.36561,-33.92683,0 18.366,-33.92601,0 18.36651,-33.92514,0 18.36708,-33.92415,0 18.36752,-33.92336,0 18.36811,-33.92248,0 18.3688,-33.92145,0 18.36937,-33.92065,0 18.36983,-33.91991,0 18.37043,-33.91914,0 18.37109,-33.91819,0 18.37183,-33.91713,0 18.37239,-33.91631,0 18.37295,-33.91553,0 18.37362,-33.91461,0 18.37435,-33.91368,0 18.37492,-33.91289,0 18.37559,-33.91209,0 18.37626,-33.91127,0 18.3771,-33.91035,0 18.3779,-33.90944,0 18.37856,-33.90871,0 18.37944,-33.90781,0 18.38036,-33.90688,0 18.38125,-33.90605,0 18.38209,-33.90541,0 18.38338,-33.90459,0 18.38439,-33.90408,0 18.38562,-33.90344,0 18.38657,-33.90289,0 18.38768,-33.90223,0 18.389,-33.90134,0 18.38991,-33.90069,0 18.39094,-33.89999,0 18.39179,-33.89932,0 18.39266,-33.89869,0 18.39347,-33.89813,0 18.39453,-33.89735,0 18.39558,-33.89659,0 18.39677,-33.8958,0 18.39778,-33.89525,0 18.39868,-33.89484,0 18.39975,-33.89438,0 18.40084,-33.89394,0 18.40221,-33.89346,0 18.4033,-33.89305,0 18.40462,-33.89259,0 18.40563,-33.89227,0 18.4067,-33.89191,0 18.40782,-33.89154,0 18.40928,-33.89099,0 18.41034,-33.89063,0 18.4116,-33.89012,0 18.41292,-33.88966,0 18.41421,-33.88925,0 18.41516,-33.88889,0 18.41623,-33.88854,0 18.41735,-33.88815,0 18.41869,-33.8877,0 18.41964,-33.88733,0 18.42093,-33.88691,0 18.42211,-33.88651,0 18.42323,-33.88614,0 18.42419,-33.88579,0 18.42522,-33.88551,0 18.42659,-33.88519,0 18.42794,-33.88486,0 18.42923,-33.88467,0 18.43057,-33.88458,0 18.43163,-33.88463,0 18.43294,-33.88472,0 18.43394,-33.88486,0 18.43506,-33.88514,0 18.43632,-33.88551,0 18.43723,-33.88584,0 18.43821,-33.88621,0 18.43909,-33.8866,0 18.44009,-33.88705,0 18.44078,-33.88742,0 18.44156,-33.88797,0 18.44229,-33.88857,0 18.44278,-33.8891,0 18.44318,-33.88966,0 18.44347,-33.89026,0 18.44363,-33.89099,0 18.44375,-33.89172,0 18.44364,-33.8925,0 18.44347,-33.8932,0 18.44324,-33.89389,0 18.4429,-33.89464,0 18.44246,-33.89529,0 18.44206,-33.89575,0 18.44151,-33.89635,0 18.44101,-33.89682,0 18.44055,-33.89722,0 18.44015,-33.89757,0 18.43958,-33.89804,0 18.43906,-33.89836,0 18.43842,-33.89877,0 18.43781,-33.89901,0 18.43724,-33.89923,0 18.43663,-33.89946,0 18.43609,-33.89962,0 18.43575,-33.89971,0 18.43529,-33.89976,0 18.43478,-33.89987,0 18.43416,-33.89992,0 18.43371,-33.89992,0 18.43332,-33.89987,0 18.43299,-33.89987,0 18.43276,-33.89987,0 18.43248,-33.8999,0 18.4322,-33.8999,0 18.43198,-33.89992,0 18.4317,-33.89996,0 18.43145,-33.89999,0 18.43119,-33.90001,0 18.43097,-33.90005,0 18.43077,-33.90009,0 18.43041,-33.9001,0 18.43013,-33.90015,0 18.42962,-33.90024,0 18.42934,-33.90024,0 18.42889,-33.90047,0 18.42861,-33.9007,0 18.42839,-33.90088,0 18.42813,-33.90092,0 18.42788,-33.90097,0 18.42766,-33.90102,0 18.42745,-33.90106,0 18.42722,-33.90106,0 18.4271,-33.90083,0 18.42749,-33.89973,0 18.42768,-33.89939,0 18.42794,-33.899,0 18.42811,-33.89877,0 18.42856,-33.89818,0 18.42878,-33.8979,0 18.42906,-33.89749,0 18.4294,-33.89708,0 18.42962,-33.89676,0 18.43002,-33.89631,0 18.43025,-33.89599,0 18.43065,-33.89548,0 18.43085,-33.8952,0 18.43125,-33.89474,0 18.43147,-33.89442,0 18.43186,-33.89392,0 18.4322,-33.89346,0 18.43248,-33.89305,0 18.43271,-33.89273,0 18.43311,-33.89212,0 18.4334,-33.8918,0 18.43363,-33.89143,0 18.43443,-33.89031,0 18.43512,-33.88929,0 18.43567,-33.88829,0 18.43609,-33.88747,0 18.43643,-33.88649,0 18.4366,-33.88542,0 18.43657,-33.8844,0 18.43629,-33.88344,0 18.43579,-33.88248,0 18.43529,-33.8816,0 18.43477,-33.88081,0 18.43433,-33.88014,0 18.43374,-33.87932,0 18.433,-33.87844,0 18.4322,-33.87755,0 18.43114,-33.87662,0 18.43035,-33.87607,0 18.42906,-33.87543,0 18.42828,-33.87515,0 18.42699,-33.87483,0 18.42598,-33.87474,0 18.42447,-33.87471,0 18.42333,-33.87481,0 18.42177,-33.87502,0 18.42054,-33.87524,0 18.41953,-33.87552,0 18.41806,-33.87592,0 18.41667,-33.87634,0 18.41555,-33.87667,0 18.41426,-33.87708,0 18.41286,-33.87753,0 18.41183,-33.87788,0 18.41085,-33.8782,0 18.40988,-33.87858,0 18.40862,-33.87909,0 18.40742,-33.87959,0 18.40642,-33.88005,0 18.40542,-33.88049,0 18.4044,-33.88092,0 18.40336,-33.88142,0 18.40215,-33.88202,0 18.40118,-33.88249,0 18.39993,-33.88309,0 18.39919,-33.88348,0 18.39778,-33.88422,0 18.39689,-33.88472,0 18.39577,-33.88531,0 18.39483,-33.88584,0 18.39369,-33.88651,0 18.39268,-33.8871,0 18.39195,-33.88751,0 18.39094,-33.88812,0 18.3898,-33.88882,0 18.38887,-33.88939,0 18.38762,-33.89017,0 18.3868,-33.89072,0 18.38579,-33.89147,0 18.38472,-33.89223,0 18.38396,-33.89282,0 18.38293,-33.89366,0 18.38209,-33.89433,0 18.3813,-33.89497,0 18.38035,-33.89575,0 18.3795,-33.89645,0 18.37839,-33.89745,0 18.37761,-33.89817,0 18.37664,-33.89911,0 18.37601,-33.89976,0 18.37514,-33.9006,0 18.37424,-33.90157,0 18.37346,-33.90239,0 18.3728,-33.90311,0 18.37206,-33.9039,0 18.3712,-33.90488,0 18.37057,-33.90567,0 18.36988,-33.90651,0 18.36931,-33.90725,0 18.36869,-33.90797,0 18.36794,-33.90898,0 18.36714,-33.91,0 18.36634,-33.91098,0 18.36582,-33.91167,0 18.36516,-33.91251,0 18.36432,-33.91347,0 18.36191,-33.91663,0 18.35978,-33.91946,0 18.35855,-33.92131,0 18.35787,-33.92234,0 18.3573,-33.92327,0 18.35653,-33.92441,0 18.35614,-33.92505,0 18.35541,-33.92611,0 18.35479,-33.92711,0 18.35412,-33.92816,0 18.35356,-33.92903,0 18.35294,-33.92995,0 18.35227,-33.93105,0 18.35049,-33.93388,0 18.34874,-33.93658,0 18.34638,-33.94034,0 18.34442,-33.94341,0 18.34257,-33.94647,0 18.34224,-33.94743,0 18.34208,-33.94831,0 18.34218,-33.94931,0 18.34257,-33.95018,0 18.34322,-33.95101,0 18.34402,-33.95162,0 18.3447,-33.95192,0 18.3462,-33.95222,0 18.34717,-33.95222,0 18.3484,-33.95187,0 18.34917,-33.95152,0 18.3502,-33.95078,0 18.35098,-33.95013,0 18.35176,-33.94931,0 18.35266,-33.94822,0 18.35333,-33.94725,0 18.35406,-33.94629,0 18.35466,-33.94543,0 18.35524,-33.9445,0 18.35581,-33.94361,0 18.3563,-33.94286,0 18.35709,-33.94176,0 18.35758,-33.94096,0 18.3581,-33.94017,0 18.35861,-33.93937,0 18.35933,-33.93828,0 18.35981,-33.93747,0 18.36034,-33.93663,0 18.36079,-33.93585,0 18.36124,-33.93507,0 18.36182,-33.93407,0 18.3623,-33.93324,0 18.36285,-33.9323,0 18.36393,-33.93045,0 18.36439,-33.9295,0 18.36482,-33.92871,0 18.36525,-33.92792,0 18.36571,-33.92713,0 18.36617,-33.92643,0 18.36679,-33.9255,0 18.36746,-33.92464,0 18.368,-33.92397,0 18.36851,-33.92327,0 18.36903,-33.92267,0 18.36966,-33.92183,0 18.37034,-33.92094,0 18.37091,-33.92024,0 18.37154,-33.9194,0 18.37206,-33.91875,0 18.37267,-33.91805,0 18.37326,-33.91735,0 18.37419,-33.91635,0 18.37475,-33.91566,0 18.37536,-33.91502,0 18.37615,-33.91411,0 18.37682,-33.91342,0 18.37738,-33.9127,0 18.37828,-33.91173,0 18.37887,-33.91103,0 18.37968,-33.91013,0 18.38024,-33.90944,0 18.38097,-33.90866,0 18.38161,-33.908,0 18.38231,-33.90724,0 18.38299,-33.9066,0 18.38371,-33.90587,0 18.38456,-33.90495,0 18.38551,-33.90404,0 18.38602,-33.90353,0 18.38688,-33.90269,0 18.38774,-33.90195,0 18.38837,-33.90138,0 18.38923,-33.90069,0 18.38997,-33.90009,0 18.39077,-33.89943,0 18.39145,-33.89891,0 18.39246,-33.89818,0 18.39317,-33.89766,0 18.39425,-33.8969,0 18.39506,-33.89636,0 18.39593,-33.89575,0 18.39677,-33.89525,0 18.39784,-33.89465,0 18.39867,-33.89422,0 18.39941,-33.89384,0 18.40038,-33.89338,0 18.40143,-33.89287,0 18.40233,-33.8925,0 18.40316,-33.89214,0 18.40405,-33.8918,0 18.40507,-33.89136,0 18.40574,-33.89108,0 18.40668,-33.89073,0 18.40765,-33.89035,0 18.40862,-33.88993,0 18.40967,-33.88957,0 18.41051,-33.88925,0 18.41129,-33.88893,0 18.41246,-33.88854,0 18.41337,-33.88824,0 18.41417,-33.88798,0 18.41522,-33.88765,0 18.41606,-33.88742,0 18.41712,-33.8871,0 18.41824,-33.88678,0 18.41903,-33.88655,0 18.42015,-33.88628,0 18.42093,-33.88605,0 18.42205,-33.88573,0 18.42299,-33.88547,0 18.4239,-33.88528,0 18.42486,-33.88504,0 18.42602,-33.88482,0 18.42688,-33.88467,0 18.42791,-33.88449,0 18.42884,-33.88435,0 18.42951,-33.88431,0 18.4306,-33.88421,0 18.43145,-33.88421,0 18.43254,-33.8843,0 18.43334,-33.8844,0 18.43431,-33.88463,0 18.43511,-33.88486,0 18.43586,-33.88509,0 18.43663,-33.88536,0 18.4374,-33.88565,0 18.43837,-33.886,0 18.43906,-33.88635,0 18.43975,-33.88668,0 18.44061,-33.8871,0 18.44124,-33.88752,0 18.44173,-33.88783,0 18.44238,-33.8884,0 18.44302,-33.88902,0 18.44341,-33.88953,0 18.44381,-33.89017,0 18.44414,-33.89076,0 18.44439,-33.89128,0 18.4445,-33.89198,0 18.44459,-33.89278,0 18.44461,-33.89338,0 18.44459,-33.89397,0 18.44461,-33.89468,0 18.44456,-33.89534,0 18.44442,-33.89598,0 18.44421,-33.89664,0 18.44397,-33.89722,0 18.44347,-33.89795,0 18.44302,-33.89845,0 18.44233,-33.89901,0 18.4417,-33.89939,0 18.4409,-33.89976,0 18.4401,-33.90001,0 18.43941,-33.90013,0 18.43849,-33.90027,0 18.43781,-33.90032,0 18.43695,-33.90041,0 18.43629,-33.90051,0 18.43545,-33.9006,0 18.43466,-33.90064,0 18.43391,-33.90069,0 18.43355,-33.9007,0 18.4331,-33.90074,0 18.43231,-33.90092,0 18.43203,-33.90102,0 18.43153,-33.90115,0 18.43125,-33.9012,0 18.4306,-33.90129,0 18.43019,-33.90129,0 18.42979,-33.90129,0 18.42939,-33.90125,0 18.42917,-33.9012,0 18.42848,-33.90111,0 18.42825,-33.90106,0 18.42802,-33.90102,0 18.42766,-33.90092,0 18.42738,-33.90097,0 18.42716,-33.90106,0</coordinates>
      </LineString>
    </Placemark>
  </Document>
</kml>
