<?xml version="1.0" encoding="UTF-8"?>
<kml xmlns="http://www.opengis.net/kml/2.2">
  <Document>
    <name>FR24 3f0e8830</name>
    <Placemark>
      <name>FR24 3f0e8830</name>
      <Style><LineStyle><color>ff0000ff</color><width>4</width></LineStyle></Style>
      <LineString>
        <tessellate>1</tessellate>
        <coordinates>18.59533,-33.97727,0 18.59554,-33.9776,0 18.59531,-33.97733,0 18.59459,-33.97601,0 18.59373,-33.97452,0 18.59316,-33.97373,0 18.59268,-33.97316,0 18.59207,-33.97256,0 18.5915,-33.97205,0 18.59089,-33.97165,0 18.59021,-33.97119,0 18.58927,-33.97066,0 18.58847,-33.97024,0 18.58769,-33.96991,0 18.58669,-33.96949,0 18.58601,-33.96926,0 18.58489,-33.9689,0 18.584,-33.96865,0 18.5828,-33.96833,0 18.58183,-33.96805,0 18.58091,-33.96782,0 18.57983,-33.96754,0 18.57883,-33.9673,0 18.57777,-33.96703,0 18.57691,-33.96684,0 18.57571,-33.96651,0 18.57479,-33.96633,0 18.57388,-33.96609,0 18.57279,-33.96582,0 18.57193,-33.96554,0 18.57073,-33.96507,0 18.56981,-33.96474,0 18.56886,-33.96437,0 18.56798,-33.964,0 18.56684,-33.96358,0 18.56561,-33.96313,0 18.56482,-33.96281,0 18.56353,-33.96236,0 18.56264,-33.96204,0 18.56157,-33.96167,0 18.56045,-33.9613,0 18.55944,-33.96094,0 18.55815,-33.96048,0 18.55722,-33.96014,0 18.55642,-33.95986,0 18.55528,-33.95944,0 18.55431,-33.95906,0 18.5531,-33.95865,0 18.55202,-33.95823,0 18.55082,-33.95786,0 18.54974,-33.95746,0 18.54856,-33.95705,0 18.54739,-33.95668,0 18.54638,-33.95631,0 18.54296,-33.95517,0 18.53949,-33.95409,0 18.53601,-33.95302,0 18.53225,-33.95192,0 18.52867,-33.95096,0 18.52732,-33.95064,0 18.52604,-33.95036,0 18.52507,-33.95013,0 18.52369,-33.94985,0 18.52267,-33.94963,0 18.52163,-33.94938,0 18.52071,-33.94917,0 18.51936,-33.94881,0 18.51835,-33.94849,0 18.517,-33.94803,0 18.51589,-33.94762,0 18.51471,-33.94715,0 18.51374,-33.94678,0 18.51252,-33.94624,0 18.51151,-33.94579,0 18.51025,-33.9451,0 18.50927,-33.9446,0 18.50842,-33.94412,0 18.50756,-33.94357,0 18.50647,-33.94296,0 18.50535,-33.94226,0 18.5047,-33.94189,0 18.50349,-33.9411,0 18.5026,-33.94052,0 18.50166,-33.93989,0 18.50058,-33.93915,0 18.49974,-33.93855,0 18.4989,-33.938,0 18.49778,-33.93718,0 18.49711,-33.93672,0 18.49606,-33.93598,0 18.49425,-33.93471,0 18.49257,-33.93351,0 18.49178,-33.93292,0 18.48988,-33.93159,0 18.48707,-33.92955,0 18.48421,-33.92746,0 18.48341,-33.92685,0 18.47951,-33.92413,0 18.47654,-33.92206,0 18.47379,-33.92015,0 18.47008,-33.91754,0 18.46617,-33.91484,0 18.46337,-33.91283,0 18.4614,-33.91136,0 18.46029,-33.91051,0 18.45944,-33.90981,0 18.45866,-33.90916,0 18.45789,-33.90856,0 18.45709,-33.90786,0 18.45606,-33.90702,0 18.45526,-33.90637,0 18.45445,-33.90569,0 18.4535,-33.90491,0 18.45268,-33.90423,0 18.45193,-33.90358,0 18.45114,-33.90297,0 18.44991,-33.90202,0 18.44919,-33.90139,0 18.44666,-33.89937,0 18.44565,-33.89864,0 18.44484,-33.89813,0 18.44386,-33.89763,0 18.44257,-33.89726,0 18.44147,-33.89715,0 18.44033,-33.89722,0 18.43935,-33.89734,0 18.43826,-33.89757,0 18.43746,-33.89776,0 18.43652,-33.89799,0 18.43551,-33.89822,0 18.43454,-33.8985,0 18.43394,-33.89864,0 18.43294,-33.89892,0 18.43243,-33.89901,0 18.43136,-33.89932,0 18.43063,-33.89951,0 18.43008,-33.89967,0 18.42985,-33.89976,0 18.42951,-33.89987,0 18.42922,-33.89994,0 18.42894,-33.89999,0 18.42833,-33.90019,0 18.42802,-33.90032,0 18.42777,-33.90042,0 18.42756,-33.90051,0 18.42745,-33.90027,0 18.42773,-33.89934,0 18.42791,-33.89897,0 18.42802,-33.89874,0 18.42822,-33.89836,0 18.42842,-33.89804,0 18.42856,-33.89781,0 18.42878,-33.89735,0 18.429,-33.89699,0 18.42917,-33.89671,0 18.42934,-33.89644,0 18.42957,-33.89613,0 18.43002,-33.89543,0 18.43035,-33.89493,0 18.431,-33.89399,0 18.43145,-33.89333,0 18.43203,-33.89255,0 18.43248,-33.89195,0 18.43283,-33.89147,0 18.43346,-33.89059,0 18.43394,-33.88989,0 18.43437,-33.88929,0 18.43495,-33.88843,0 18.4354,-33.88775,0 18.43603,-33.88668,0 18.43643,-33.88579,0 18.4366,-33.88496,0 18.4366,-33.88426,0 18.43646,-33.8833,0 18.43629,-33.88266,0 18.43596,-33.88184,0 18.43567,-33.88129,0 18.43523,-33.88049,0 18.43478,-33.87982,0 18.43422,-33.87909,0 18.43355,-33.87849,0 18.43299,-33.87799,0 18.43209,-33.8774,0 18.43142,-33.87698,0 18.43042,-33.87648,0 18.42968,-33.87611,0 18.42867,-33.8757,0 18.42766,-33.87538,0 18.4267,-33.87509,0 18.42602,-33.8749,0 18.42487,-33.87467,0 18.42413,-33.87456,0 18.42304,-33.87439,0 18.422,-33.87428,0 18.42098,-33.87425,0 18.41987,-33.87419,0 18.41904,-33.87415,0 18.4183,-33.87419,0 18.41698,-33.8742,0 18.41583,-33.87425,0 18.41475,-33.87434,0 18.41359,-33.87447,0 18.41264,-33.87456,0 18.41135,-33.87474,0 18.41011,-33.87495,0 18.40894,-33.8752,0 18.4081,-33.87538,0 18.40698,-33.87566,0 18.40576,-33.87592,0 18.40502,-33.87611,0 18.40405,-33.87639,0 18.4029,-33.87672,0 18.40148,-33.87717,0 18.4007,-33.87744,0 18.39969,-33.87781,0 18.39846,-33.87827,0 18.39741,-33.87872,0 18.39644,-33.87914,0 18.39532,-33.87968,0 18.3942,-33.88025,0 18.39323,-33.88072,0 18.3924,-33.88115,0 18.39134,-33.88174,0 18.39031,-33.88235,0 18.38938,-33.88289,0 18.3886,-33.88342,0 18.38739,-33.88416,0 18.3868,-33.88454,0 18.38585,-33.88519,0 18.385,-33.88582,0 18.384,-33.88655,0 18.38304,-33.88728,0 18.38224,-33.88794,0 18.38136,-33.88866,0 18.38063,-33.8893,0 18.37973,-33.89012,0 18.37887,-33.89096,0 18.3783,-33.89147,0 18.37744,-33.89236,0 18.37675,-33.89305,0 18.37606,-33.8938,0 18.37538,-33.8945,0 18.37458,-33.89534,0 18.37395,-33.89608,0 18.37309,-33.89701,0 18.37246,-33.89771,0 18.37161,-33.89868,0 18.37091,-33.89948,0 18.37023,-33.90027,0 18.3696,-33.90102,0 18.36754,-33.90343,0 18.36679,-33.90436,0 18.36622,-33.90506,0 18.3655,-33.90601,0 18.36491,-33.90683,0 18.36421,-33.9077,0 18.3637,-33.90846,0 18.36302,-33.90939,0 18.36247,-33.91026,0 18.3618,-33.91127,0 18.36129,-33.91205,0 18.36073,-33.91287,0 18.36016,-33.91382,0 18.35956,-33.91479,0 18.35907,-33.91568,0 18.3586,-33.91644,0 18.35815,-33.91726,0 18.35758,-33.91829,0 18.35718,-33.91908,0 18.35661,-33.9201,0 18.35615,-33.92099,0 18.35574,-33.9218,0 18.35518,-33.92285,0 18.35478,-33.92364,0 18.35429,-33.92459,0 18.35378,-33.92569,0 18.3534,-33.92657,0 18.35289,-33.9278,0 18.35249,-33.92867,0 18.3521,-33.92958,0 18.35154,-33.93086,0 18.35106,-33.93206,0 18.35064,-33.93292,0 18.35014,-33.9342,0 18.3498,-33.93517,0 18.34929,-33.93635,0 18.34883,-33.93751,0 18.34756,-33.94089,0 18.34625,-33.94403,0 18.34534,-33.94631,0 18.34517,-33.94715,0 18.34517,-33.94845,0 18.34554,-33.94968,0 18.34621,-33.95073,0 18.34734,-33.95171,0 18.34866,-33.95236,0 18.35014,-33.95274,0 18.35169,-33.95283,0 18.35306,-33.95264,0 18.35468,-33.95201,0 18.3558,-33.95132,0 18.35701,-33.95008,0 18.35771,-33.94899,0 18.35832,-33.94743,0 18.35867,-33.94622,0 18.35905,-33.94482,0 18.35941,-33.94352,0 18.35989,-33.9418,0 18.36023,-33.94061,0 18.36067,-33.93928,0 18.36118,-33.93773,0 18.36157,-33.93658,0 18.36197,-33.93553,0 18.36258,-33.93379,0 18.36313,-33.93235,0 18.36365,-33.93095,0 18.36421,-33.92958,0 18.36468,-33.92844,0 18.36514,-33.92727,0 18.36572,-33.92592,0 18.36628,-33.92482,0 18.36695,-33.9234,0 18.36757,-33.92212,0 18.36808,-33.92102,0 18.36869,-33.91988,0 18.36942,-33.91864,0 18.37015,-33.9175,0 18.3708,-33.91642,0 18.37137,-33.91568,0 18.37222,-33.91438,0 18.37306,-33.9131,0 18.37379,-33.91209,0 18.37452,-33.91113,0 18.37531,-33.91008,0 18.37618,-33.90893,0 18.37715,-33.90772,0 18.3779,-33.90674,0 18.37878,-33.90564,0 18.37968,-33.9045,0 18.38041,-33.90362,0 18.38139,-33.90237,0 18.38202,-33.90162,0 18.38305,-33.90036,0 18.38402,-33.8992,0 18.38652,-33.89626,0 18.38736,-33.89534,0 18.38825,-33.89441,0 18.38934,-33.89338,0 18.39055,-33.89236,0 18.39179,-33.89145,0 18.39291,-33.89058,0 18.39415,-33.8898,0 18.395,-33.88924,0 18.39672,-33.88821,0 18.39775,-33.88765,0 18.3993,-33.88686,0 18.4005,-33.88631,0 18.40187,-33.88565,0 18.40316,-33.88513,0 18.40434,-33.88467,0 18.40593,-33.88407,0 18.4072,-33.88362,0 18.40922,-33.88298,0 18.41063,-33.88258,0 18.41196,-33.88225,0 18.41381,-33.88188,0 18.41522,-33.8817,0 18.41695,-33.88161,0 18.41846,-33.8816,0 18.41981,-33.8817,0 18.42138,-33.88193,0 18.42295,-33.88225,0 18.42419,-33.88258,0 18.42567,-33.88314,0 18.42693,-33.8837,0 18.42848,-33.88454,0 18.42968,-33.88522,0 18.43085,-33.88586,0 18.43191,-33.88649,0 18.4334,-33.88733,0 18.43456,-33.88802,0 18.43584,-33.8887,0 18.43712,-33.88947,0 18.43809,-33.89003,0 18.43941,-33.89082,0 18.44049,-33.89147,0 18.44158,-33.89212,0 18.44267,-33.89282,0 18.44391,-33.89378,0 18.44476,-33.8947,0 18.44537,-33.89571,0 18.44564,-33.89655,0 18.44559,-33.89738,0 18.44526,-33.89818,0 18.4447,-33.89882,0 18.44393,-33.89929,0 18.44307,-33.89969,0 18.44201,-33.89992,0 18.44095,-33.90004,0 18.44015,-33.90009,0 18.43918,-33.90013,0 18.43814,-33.9001,0 18.43736,-33.9001,0 18.4364,-33.90005,0 18.43557,-33.89999,0 18.43461,-33.89996,0 18.43409,-33.89994,0 18.43315,-33.89992,0 18.43134,-33.89985,0 18.42991,-33.89981,0 18.42962,-33.89981,0 18.42894,-33.89981,0 18.42819,-33.89999,0 18.42796,-33.90013,0 18.42768,-33.90041,0 18.42745,-33.90055,0 18.42745,-33.90032,0 18.42777,-33.89951,0 18.42783,-33.89928,0 18.42808,-33.89883,0 18.42822,-33.89854,0 18.42842,-33.89822,0 18.42854,-33.89799,0 18.42871,-33.89771,0 18.42895,-33.89735,0 18.42912,-33.89708,0 18.42934,-33.89671,0 18.42968,-33.89626,0 18.42985,-33.89599,0 18.43008,-33.89571,0 18.4306,-33.89492,0 18.43119,-33.89401,0 18.4317,-33.89328,0 18.43214,-33.89259,0 18.43254,-33.89194,0 18.433,-33.89128,0 18.43346,-33.89054,0 18.43382,-33.88985,0 18.43414,-33.88929,0 18.43461,-33.88834,0 18.435,-33.8877,0 18.43534,-33.88705,0 18.43584,-33.88628,0 18.43624,-33.8855,0 18.43643,-33.88486,0 18.4366,-33.88398,0 18.43657,-33.8833,0 18.43624,-33.88229,0 18.4358,-33.88165,0 18.43534,-33.8811,0 18.43478,-33.8806,0 18.43399,-33.88,0 18.43328,-33.8796,0 18.43271,-33.87928,0 18.43186,-33.87886,0 18.43105,-33.87848,0 18.43014,-33.87807,0 18.42906,-33.87767,0 18.42822,-33.8774,0 18.42733,-33.87713,0 18.42619,-33.87685,0 18.42545,-33.87667,0 18.42424,-33.87639,0 18.42339,-33.8762,0 18.42233,-33.87607,0 18.42133,-33.87589,0 18.42026,-33.87579,0 18.41936,-33.8757,0 18.41824,-33.87566,0 18.41735,-33.87561,0 18.41639,-33.87561,0 18.41522,-33.8757,0 18.41417,-33.87579,0 18.41314,-33.87592,0 18.41224,-33.87607,0 18.41137,-33.87625,0 18.41022,-33.87648,0 18.40937,-33.87667,0 18.40816,-33.87695,0 18.40703,-33.87726,0 18.40614,-33.87749,0 18.40501,-33.87781,0 18.40412,-33.87808,0 18.40294,-33.87845,0 18.40199,-33.87877,0 18.40104,-33.87909,0 18.39986,-33.87955,0 18.39912,-33.87988,0 18.39801,-33.88037,0 18.39711,-33.88078,0 18.39643,-33.88114,0 18.39509,-33.88184,0 18.3942,-33.88225,0 18.39334,-33.88272,0 18.39246,-33.88321,0 18.39123,-33.88399,0 18.39025,-33.88463,0 18.38928,-33.88528,0 18.38853,-33.88582,0 18.38745,-33.88659,0 18.38671,-33.88719,0 18.38591,-33.88779,0 18.38516,-33.8884,0 18.38413,-33.88929,0 18.38321,-33.89012,0 18.38247,-33.89082,0 18.38161,-33.89161,0 18.38086,-33.89232,0 18.38001,-33.8932,0 18.37934,-33.89383,0 18.37858,-33.89464,0 18.37783,-33.89548,0 18.37699,-33.8963,0 18.37648,-33.8969,0 18.37553,-33.89786,0 18.37492,-33.89855,0 18.37402,-33.89951,0 18.3734,-33.90024,0 18.37267,-33.90106,0 18.37212,-33.90176,0 18.37133,-33.90266,0 18.3706,-33.90353,0 18.3692,-33.90525,0 18.36863,-33.906,0 18.36754,-33.90739,0 18.36685,-33.90833,0 18.36554,-33.91,0 18.36479,-33.91098,0 18.36426,-33.91168,0 18.36359,-33.91261,0 18.36164,-33.91526,0 18.36107,-33.9161,0 18.35981,-33.91805,0 18.35907,-33.91917,0 18.35855,-33.92001,0 18.35793,-33.92088,0 18.35664,-33.92294,0 18.35604,-33.92397,0 18.35552,-33.92487,0 18.35489,-33.92597,0 18.35426,-33.92713,0 18.35361,-33.92834,0 18.35322,-33.92917,0 18.35261,-33.93036,0 18.35221,-33.93114,0 18.35169,-33.93225,0 18.35126,-33.9332,0 18.35081,-33.9342,0 18.35037,-33.93514,0 18.34986,-33.93631,0 18.34951,-33.93709,0 18.349,-33.93826,0 18.34866,-33.93909,0 18.34823,-33.94029,0 18.34774,-33.94147,0 18.34728,-33.94267,0 18.34683,-33.94382,0 18.34642,-33.94482,0 18.34515,-33.94794,0 18.34362,-33.95152,0 18.34201,-33.95503,0 18.42745,-33.90055,0 18.42743,-33.90028,0 18.42762,-33.89962,0 18.42772,-33.89941,0 18.42783,-33.89919,0 18.42796,-33.89892,0 18.42816,-33.89864,0 18.42828,-33.89836,0 18.42854,-33.89799,0 18.42876,-33.89757,0 18.42895,-33.89731,0 18.42934,-33.89669,0 18.42985,-33.89589,0 18.43031,-33.89524,0 18.4308,-33.89456,0 18.43125,-33.89388,0 18.43168,-33.89329,0 18.43209,-33.89268,0 18.4326,-33.89198,0 18.4331,-33.89127,0 18.43349,-33.89067,0 18.43399,-33.88994,0 18.43437,-33.88933,0 18.43489,-33.88857,0 18.43523,-33.88792,0 18.43569,-33.8871,0 18.43596,-33.88641,0 18.43618,-33.88568,0 18.43632,-33.88482,0 18.43635,-33.88412,0 18.43624,-33.88339,0 18.43607,-33.88252,0 18.4358,-33.88188,0 18.43552,-33.88123,0 18.43506,-33.88046,0 18.43454,-33.8797,0 18.43399,-33.879,0 18.43351,-33.87848,0 18.43294,-33.87797,0 18.4322,-33.87732,0 18.43147,-33.87685,0 18.4308,-33.87639,0 18.4299,-33.87593,0 18.42899,-33.87555,0 18.42825,-33.87523,0 18.42716,-33.8749,0 18.42637,-33.87465,0 18.42499,-33.87434,0 18.42407,-33.8742,0 18.42316,-33.87411,0 18.42213,-33.87406,0 18.42104,-33.87406,0 18.41998,-33.8741,0 18.41891,-33.87419,0 18.41791,-33.87442,0 18.41681,-33.87481,0 18.41583,-33.87518,0 18.41471,-33.87566,0 18.41404,-33.87598,0 18.4128,-33.87662,0 18.412,-33.87709,0 18.41108,-33.87769,0 18.41034,-33.87825,0 18.40965,-33.87881,0 18.40871,-33.8795,0 18.40794,-33.87997,0 18.40696,-33.88044,0 18.40597,-33.88078,0 18.4049,-33.88105,0 18.4037,-33.88123,0 18.40279,-33.88128,0 18.40181,-33.88128,0 18.4007,-33.88129,0 18.39947,-33.88124,0 18.39851,-33.8812,0 18.39769,-33.88118,0 18.39649,-33.88118,0 18.39532,-33.88129,0 18.39415,-33.88142,0 18.39296,-33.88174,0 18.39195,-33.88206,0 18.39088,-33.88253,0 18.38988,-33.88303,0 18.38898,-33.88353,0 18.38814,-33.88408,0 18.38717,-33.88477,0 18.38607,-33.88559,0 18.38528,-33.88626,0 18.38439,-33.88696,0 18.3836,-33.88765,0 18.38282,-33.88829,0 18.38173,-33.88929,0 18.38087,-33.89008,0 18.38018,-33.89073,0 18.37933,-33.89157,0 18.37864,-33.89222,0 18.37767,-33.8932,0 18.37692,-33.89394,0 18.3762,-33.8947,0 18.37532,-33.89557,0 18.37463,-33.89631,0 18.37374,-33.89726,0 18.37309,-33.89799,0 18.37217,-33.89897,0 18.37166,-33.89957,0 18.37082,-33.90051,0 18.37004,-33.90143,0 18.36948,-33.90208,0 18.36869,-33.90303,0 18.368,-33.9039,0 18.36731,-33.90479,0 18.36662,-33.90569,0 18.36595,-33.90651,0 18.36516,-33.90756,0 18.36454,-33.90843,0 18.36388,-33.90944,0 18.36325,-33.91026,0 18.36262,-33.91126,0 18.3621,-33.91205,0 18.36153,-33.91293,0 18.36096,-33.91388,0 18.36044,-33.9147,0 18.36,-33.91548,0 18.35941,-33.91652,0 18.35884,-33.91754,0 18.35832,-33.9185,0 18.35787,-33.9194,0 18.35752,-33.92006,0 18.35701,-33.92117,0 18.35667,-33.92196,0 18.35609,-33.92331,0 18.35564,-33.92439,0 18.35529,-33.92532,0 18.35496,-33.92628,0 18.35462,-33.9272,0 18.35429,-33.92812,0 18.35395,-33.92908,0 18.35352,-33.93044,0 18.35322,-33.93127,0 18.35289,-33.93242,0 18.35249,-33.93356,0 18.3522,-33.93463,0 18.35188,-33.93571,0 18.35154,-33.93672,0 18.35112,-33.9377,0 18.35066,-33.93896,0 18.35026,-33.93989,0 18.34975,-33.94107,0 18.34913,-33.94254,0 18.34871,-33.94342,0 18.34814,-33.94454,0 18.34756,-33.94551,0 18.34706,-33.94643,0 18.34633,-33.94762,0 18.34566,-33.94867,0 18.34504,-33.94977,0 18.34459,-33.95097,0 18.34448,-33.95215,0 18.34482,-33.95367,0 18.34521,-33.95453,0 18.34608,-33.95567,0 18.34627,-33.9559,0 18.3486,-33.95739,0 18.34969,-33.95772,0 18.35037,-33.95781,0 18.35421,-33.95749,0 18.35569,-33.95673,0 18.35672,-33.9559,0 18.35737,-33.95508,0 18.35804,-33.95357,0 18.35838,-33.95259,0 18.35878,-33.95124,0 18.35911,-33.95027,0 18.3595,-33.94881,0 18.35978,-33.94794,0 18.36016,-33.9464,0 18.36044,-33.9451,0 18.36079,-33.94377,0 18.36113,-33.94221,0 18.36129,-33.9413,0 18.36164,-33.93984,0 18.36185,-33.93883,0 18.36216,-33.93751,0 18.36239,-33.93649,0 18.36342,-33.93258,0 18.36438,-33.92894,0 18.36539,-33.92546,0 18.36583,-33.92404,0 18.36628,-33.92271,0 18.36673,-33.92139,0 18.36718,-33.92033,0 18.36768,-33.9191,0 18.36828,-33.91787,0 18.3688,-33.91684,0 18.36937,-33.91573,0 18.37009,-33.91447,0 18.37088,-33.91315,0 18.37144,-33.91214,0 18.37211,-33.91113,0 18.37262,-33.91031,0 18.37334,-33.90907,0 18.37402,-33.90807,0 18.37486,-33.90679,0 18.37549,-33.90581,0 18.37648,-33.90436,0 18.37727,-33.90326,0 18.378,-33.90221,0 18.37875,-33.90115,0 18.37944,-33.90018,0 18.3803,-33.89901,0 18.3811,-33.89808,0 18.38198,-33.89699,0 18.38304,-33.8958,0 18.38394,-33.89488,0 18.38512,-33.89374,0 18.38629,-33.89273,0 18.38751,-33.8917,0 18.3887,-33.89081,0 18.39022,-33.88971,0 18.39117,-33.88902,0 18.39231,-33.88826,0 18.39375,-33.88742,0 18.39512,-33.88668,0 18.39643,-33.88602,0 18.39801,-33.88531,0 18.39941,-33.88477,0 18.40061,-33.8843,0 18.40227,-33.88376,0 18.40353,-33.88337,0 18.40546,-33.8828,0 18.40691,-33.88249,0 18.40851,-33.88211,0 18.41034,-33.88188,0 18.41213,-33.8817,0 18.41381,-33.88161,0 18.416,-33.88161,0 18.41729,-33.88165,0 18.41904,-33.88179,0 18.42054,-33.88197,0 18.42161,-33.88211,0 18.42368,-33.88252,0 18.42558,-33.88307,0 18.4271,-33.88353,0 18.42848,-33.88407,0 18.42973,-33.88454,0 18.43142,-33.88527,0 18.43265,-33.88591,0 18.43399,-33.8866,0 18.43529,-33.88728,0 18.43674,-33.88811,0 18.43814,-33.88889,0 18.43958,-33.8898,0 18.44067,-33.8905,0 18.44175,-33.89133,0 18.44268,-33.89223,0 18.44347,-33.89333,0 18.44386,-33.89433,0 18.44397,-33.89529,0 18.44381,-33.89645,0 18.44347,-33.89726,0 18.44278,-33.89813,0 18.44175,-33.89883,0 18.44072,-33.89928,0 18.43981,-33.89948,0 18.43876,-33.8996,0 18.43792,-33.89962,0 18.43691,-33.89964,0 18.43592,-33.89967,0 18.43517,-33.89969,0 18.42979,-33.89978,0 18.42889,-33.89978,0 18.42805,-33.89992,0 18.42773,-33.90009,0 18.42755,-33.90033,0 18.42738,-33.90056,0 18.4271,-33.90083,0 18.42693,-33.90106,0 18.42693,-33.90079,0 18.42693,-33.90056,0 18.42715,-33.90015,0 18.42733,-33.89985,0 18.42756,-33.89962,0 18.42772,-33.89941,0 18.42785,-33.89915,0 18.42802,-33.89892,0 18.42822,-33.89859,0 18.4285,-33.89822,0 18.42867,-33.8979,0 18.42882,-33.89766,0 18.42906,-33.89731,0 18.4294,-33.8968,0 18.42973,-33.8963,0 18.43025,-33.89557,0 18.43063,-33.89502,0 18.43105,-33.89445,0 18.43153,-33.89378,0 18.43192,-33.89323,0 18.43243,-33.8925,0 18.433,-33.89161,0 18.43346,-33.89096,0 18.4338,-33.89035,0 18.43431,-33.88956,0 18.43472,-33.88889,0 18.43512,-33.88821,0 18.43567,-33.88737,0 18.43601,-33.88669,0 18.43624,-33.886,0 18.43629,-33.88499,0 18.43626,-33.88421,0 18.43607,-33.88353,0 18.43569,-33.88263,0 18.43534,-33.88193,0 18.43478,-33.8811,0 18.43427,-33.88055,0 18.43355,-33.87982,0 18.43293,-33.87927,0 18.4322,-33.87872,0 18.43122,-33.87807,0 18.43042,-33.8776,0 18.42939,-33.87709,0 18.42839,-33.87662,0 18.42749,-33.87625,0 18.42653,-33.87592,0 18.42539,-33.87564,0 18.42407,-33.87534,0 18.4229,-33.87515,0 18.42189,-33.87506,0 18.42076,-33.87497,0 18.41959,-33.87492,0 18.41841,-33.87495,0 18.41732,-33.87499,0 18.41623,-33.87509,0 18.41527,-33.87515,0 18.41365,-33.87534,0 18.41257,-33.87546,0 18.4116,-33.8756,0 18.41034,-33.87575,0 18.40933,-33.87589,0 18.40815,-33.87598,0 18.40691,-33.87611,0 18.40593,-33.8762,0 18.4045,-33.87648,0 18.4035,-33.8768,0 18.40239,-33.87718,0 18.40176,-33.87746,0 18.40064,-33.87799,0 18.39963,-33.87859,0 18.39868,-33.87923,0 18.39795,-33.87973,0 18.39706,-33.88039,0 18.39615,-33.88114,0 18.39506,-33.88202,0 18.39431,-33.88266,0 18.39352,-33.88333,0 18.3928,-33.88394,0 18.39179,-33.88477,0 18.39083,-33.8856,0 18.39025,-33.88617,0 18.38917,-33.8871,0 18.3882,-33.88797,0 18.3873,-33.88879,0 18.38657,-33.88943,0 18.38394,-33.89195,0 18.38097,-33.89484,0 18.37828,-33.89745,0 18.37615,-33.8996,0 18.37334,-33.90262,0 18.37034,-33.90586,0 18.36771,-33.90884,0 18.36542,-33.91149,0 18.36488,-33.91219,0 18.36443,-33.91283,0 18.36393,-33.91351,0 18.42693,-33.90106,0 18.42699,-33.90078,0 18.42704,-33.90042,0 18.42728,-33.8999,0 18.42739,-33.89967,0 18.42755,-33.89941,0 18.42766,-33.89919,0 18.42791,-33.89883,0 18.42822,-33.89832,0 18.4285,-33.89772,0 18.42884,-33.89717,0 18.42912,-33.89658,0 18.42939,-33.89589,0 18.42968,-33.89529,0 18.42997,-33.89459,0 18.43024,-33.89388,0 18.43052,-33.89319,0 18.43082,-33.89245,0 18.43114,-33.89168,0 18.4314,-33.89096,0 18.43164,-33.89017,0 18.43186,-33.88948,0 18.43208,-33.88863,0 18.4322,-33.88788,0 18.43231,-33.8871,0 18.43231,-33.8866,0 18.4322,-33.88564,0 18.43203,-33.88481,0 18.4317,-33.88394,0 18.4313,-33.88312,0 18.43091,-33.88248,0 18.43031,-33.88169,0 18.42957,-33.88086,0 18.42899,-33.8803,0 18.42813,-33.8796,0 18.42727,-33.87904,0 18.42636,-33.87848,0 18.42558,-33.87808,0 18.42447,-33.87758,0 18.42379,-33.87732,0 18.42273,-33.87703,0 18.42161,-33.87676,0 18.42041,-33.87658,0 18.41932,-33.87643,0 18.41829,-33.87639,0 18.41718,-33.87643,0 18.41606,-33.87648,0 18.41509,-33.87662,0 18.41417,-33.87676,0 18.41314,-33.877,0 18.41174,-33.87735,0 18.41085,-33.8776,0 18.40972,-33.87794,0 18.40857,-33.87835,0 18.40748,-33.87872,0 18.40651,-33.87909,0 18.40529,-33.87955,0 18.40451,-33.87991,0 18.40333,-33.88042,0 18.40221,-33.88091,0 18.40143,-33.88129,0 18.40033,-33.88184,0 18.39924,-33.88239,0 18.39818,-33.88293,0 18.39712,-33.88351,0 18.39632,-33.88403,0 18.3954,-33.88458,0 18.39459,-33.88509,0 18.39363,-33.88573,0 18.39274,-33.88632,0 18.39174,-33.88705,0 18.391,-33.88756,0 18.38999,-33.88829,0 18.38904,-33.88902,0 18.38797,-33.8898,0 18.38699,-33.89054,0 18.38635,-33.89104,0 18.38556,-33.89159,0 18.38465,-33.89231,0 18.38383,-33.89296,0 18.38209,-33.89429,0 18.3795,-33.89636,0 18.37783,-33.89781,0 18.3771,-33.89845,0 18.37626,-33.89928,0 18.37555,-33.89999,0 18.37486,-33.90064,0 18.37424,-33.90129,0 18.37349,-33.90204,0 18.37273,-33.90294,0 18.37206,-33.90367,0 18.37137,-33.90455,0 18.37074,-33.90535,0 18.37023,-33.906,0 18.36948,-33.90697,0 18.36897,-33.90767,0 18.36824,-33.90871,0 18.36763,-33.90962,0 18.36714,-33.91047,0 18.36645,-33.91158,0 18.36589,-33.9126,0 18.36527,-33.9137,0 18.36479,-33.91456,0 18.36433,-33.91545,0 18.36376,-33.91653,0 18.36337,-33.9174,0 18.36286,-33.9185,0 18.36233,-33.91964,0 18.36193,-33.92057,0 18.3614,-33.92171,0 18.36107,-33.92244,0 18.36044,-33.92378,0 18.35995,-33.92496,0 18.35944,-33.92606,0 18.35888,-33.92715,0 18.35838,-33.92802,0 18.35776,-33.92899,0 18.35712,-33.93007,0 18.35614,-33.93169,0 18.35563,-33.93279,0 18.3553,-33.93375,0 18.35518,-33.93466,0 18.35518,-33.93551,0 18.35575,-33.93695,0 18.35638,-33.9377,0 18.35695,-33.93807,0 18.35804,-33.93844,0 18.35928,-33.93842,0 18.36006,-33.9381,0 18.36084,-33.93751,0 18.36135,-33.9369,0 18.3618,-33.93617,0 18.3621,-33.93551,0 18.36239,-33.93463,0 18.36269,-33.9337,0 18.36292,-33.93297,0 18.36314,-33.93219,0 18.36342,-33.93114,0 18.36365,-33.9303,0 18.36382,-33.92941,0 18.36393,-33.92857,0 18.36393,-33.92774,0 18.3637,-33.9268,0 18.36337,-33.92596,0 18.36296,-33.92536,0 18.36227,-33.92485,0 18.3614,-33.9245,0 18.36062,-33.92445,0 18.35978,-33.92455,0 18.35884,-33.92494,0 18.35827,-33.92542,0 18.35765,-33.92615,0 18.3572,-33.92706,0 18.3569,-33.92788,0 18.35653,-33.92912,0 18.35632,-33.93002,0 18.35604,-33.93127,0 18.35574,-33.93233,0 18.35552,-33.93338,0 18.35518,-33.93471,0 18.35484,-33.93593,0 18.35445,-33.93713,0 18.35412,-33.93814,0 18.35373,-33.93919,0 18.35329,-33.94026,0 18.35289,-33.94125,0 18.35238,-33.94245,0 18.35192,-33.94357,0 18.35148,-33.94464,0 18.35104,-33.94579,0 18.35066,-33.94678,0 18.3502,-33.94803,0 18.34974,-33.9492,0 18.34929,-33.95045,0 18.34894,-33.95152,0 18.34756,-33.95526,0 18.34633,-33.95879,0 18.34465,-33.96355,0 18.34268,-33.96918,0 18.34072,-33.97495,0 18.33887,-33.98071,0 18.46081,-33.91088,0 18.45692,-33.9077,0 18.45406,-33.90518,0 18.452,-33.9033,0 18.45126,-33.90257,0 18.44997,-33.90143,0 18.44913,-33.9007,0 18.44828,-33.89999,0 18.44728,-33.89914,0 18.44622,-33.89841,0 18.44543,-33.8979,0 18.44431,-33.89731,0 18.44347,-33.89706,0 18.44233,-33.89687,0 18.44151,-33.8969,0 18.44049,-33.89701,0 18.43964,-33.8972,0 18.43878,-33.89738,0 18.43786,-33.89757,0 18.43708,-33.89777,0 18.43607,-33.89804,0 18.43534,-33.89818,0 18.43456,-33.89836,0 18.4338,-33.89855,0 18.43328,-33.89869,0 18.43242,-33.89891,0 18.43174,-33.89906,0 18.43088,-33.89925,0 18.43014,-33.89943,0 18.42871,-33.89976,0 18.42848,-33.89981,0 18.428,-33.89987,0 18.42777,-33.89992,0 18.42733,-33.90009,0 18.4271,-33.90024,0 18.42687,-33.90042,0 18.42682,-33.90064,0 18.42705,-33.90078,0</coordinates>
      </LineString>
    </Placemark>
  </Document>
</kml>
