<?xml version="1.0" encoding="UTF-8"?>
<kml xmlns="http://www.opengis.net/kml/2.2">
  <Document>
    <name>FR24 402e2c12</name>
    <Placemark>
      <name>FR24 402e2c12</name>
      <Style><LineStyle><color>ff0000ff</color><width>4</width></LineStyle></Style>
      <LineString>
        <tessellate>1</tessellate>
        <coordinates>18.4535,-33.89232,0 18.4401,-33.88528,0 18.44999,-33.9064,0 18.44661,-33.91373,0 18.45164,-33.91693,0 18.47132,-33.93975,0 18.47739,-33.94757,0 18.47816,-33.95,0 18.47905,-33.95145,0 18.47964,-33.95251,0 18.48026,-33.95391,0 18.48063,-33.95512,0 18.48123,-33.95669,0 18.48155,-33.95859,0 18.48196,-33.9602,0 18.48225,-33.96127,0 18.48235,-33.96287,0 18.48268,-33.96421,0 18.48339,-33.96601,0 18.48413,-33.96773,0 18.48451,-33.9687,0 18.48457,-33.97009,0 18.48446,-33.97215,0 18.48432,-33.97305,0 18.48322,-33.97467,0 18.48215,-33.97672,0 18.48166,-33.97801,0 18.48116,-33.97932,0 18.48083,-33.98057,0 18.48041,-33.98162,0 18.47964,-33.98267,0 18.47554,-33.98281,0 18.48084,-33.98479,0 18.48081,-33.98526,0 18.47828,-33.98606,0 18.47684,-33.98694,0 18.47593,-33.98786,0 18.47467,-33.98871,0 18.47365,-33.98928,0 18.47252,-33.98994,0 18.47127,-33.99088,0 18.47035,-33.99156,0 18.46937,-33.99228,0 18.46869,-33.99268,0 18.46755,-33.99331,0 18.46653,-33.99395,0 18.46476,-33.99472,0 18.46352,-33.99539,0 18.46274,-33.99571,0 18.46168,-33.99598,0 18.46053,-33.9964,0 18.45932,-33.99678,0 18.45818,-33.99712,0 18.45684,-33.99743,0 18.45551,-33.99789,0 18.45452,-33.99821,0 18.45312,-33.99871,0 18.45216,-33.99903,0 18.45075,-33.99944,0 18.44953,-33.99991,0 18.44852,-34.00027,0 18.44716,-34.0007,0 18.44526,-34.00087,0 18.44443,-34.00108,0 18.44351,-34.00154,0 18.44266,-34.00202,0 18.44129,-34.00261,0 18.43996,-34.00315,0 18.43913,-34.00375,0 18.43799,-34.00461,0 18.43713,-34.00559,0 18.43652,-34.00645,0 18.43545,-34.00756,0 18.43485,-34.00845,0 18.43423,-34.00942,0 18.43354,-34.01031,0 18.43264,-34.0117,0 18.43166,-34.01319,0 18.43093,-34.01461,0 18.43068,-34.01563,0 18.43011,-34.0169,0 18.42974,-34.01837,0 18.42939,-34.01948,0 18.42903,-34.02103,0 18.42881,-34.0221,0 18.42864,-34.02358,0 18.4286,-34.02478,0 18.42842,-34.02612,0 18.42829,-34.02726,0 18.42802,-34.02861,0 18.42786,-34.02993,0 18.42797,-34.0315,0 18.42807,-34.03226,0 18.42793,-34.03391,0 18.42794,-34.03503,0 18.42793,-34.03637,0 18.4276,-34.0377,0 18.42758,-34.03925,0 18.42756,-34.04093,0 18.4274,-34.04208,0 18.42729,-34.04359,0 18.42732,-34.04499,0 18.42792,-34.04644,0 18.428,-34.04766,0 18.42821,-34.04921,0 18.42845,-34.05041,0 18.42864,-34.05159,0 18.42895,-34.05296,0 18.42944,-34.0546,0 18.43007,-34.05623,0 18.43084,-34.05769,0 18.43141,-34.05871,0 18.43212,-34.05983,0 18.43299,-34.06096,0 18.43387,-34.06217,0 18.43458,-34.06329,0 18.43527,-34.06439,0 18.43613,-34.06572,0 18.43713,-34.06723,0 18.43775,-34.0682,0 18.43859,-34.06961,0 18.43981,-34.07124,0 18.44041,-34.07212,0 18.44135,-34.0736,0 18.44205,-34.07476,0 18.44269,-34.07578,0 18.44374,-34.07745,0 18.44448,-34.07883,0 18.44506,-34.07988,0 18.44584,-34.08123,0 18.4464,-34.08228,0 18.44718,-34.08359,0 18.44784,-34.0849,0 18.44874,-34.08655,0 18.44949,-34.08788,0 18.45021,-34.08921,0 18.45102,-34.09066,0 18.45168,-34.09181,0 18.4526,-34.09329,0 18.45315,-34.09422,0 18.45412,-34.09571,0 18.4547,-34.09673,0 18.45545,-34.09803,0 18.45632,-34.09934,0 18.45709,-34.10062,0 18.45781,-34.1019,0 18.45834,-34.10326,0 18.45896,-34.1045,0 18.45958,-34.10591,0 18.46,-34.10772,0 18.46042,-34.1089,0 18.46096,-34.11038,0 18.46129,-34.11148,0 18.4616,-34.11275,0 18.46183,-34.11414,0 18.46206,-34.11557,0 18.46222,-34.11685,0 18.46235,-34.1186,0 18.46232,-34.11957,0 18.46234,-34.12109,0 18.46225,-34.12216,0 18.46209,-34.12339,0 18.46189,-34.12475,0 18.46157,-34.12626,0 18.46129,-34.12759,0 18.46084,-34.12935,0 18.46046,-34.13074,0 18.46004,-34.13214,0 18.45962,-34.13358,0 18.45922,-34.13497,0 18.45883,-34.13636,0 18.45836,-34.13778,0 18.45792,-34.13907,0 18.45742,-34.14061,0 18.457,-34.14182,0 18.45648,-34.14357,0 18.45606,-34.14464,0 18.45557,-34.14613,0 18.45491,-34.14811,0 18.45459,-34.14907,0 18.45403,-34.15068,0 18.45359,-34.15188,0 18.45308,-34.15324,0 18.45244,-34.15502,0 18.45217,-34.15619,0 18.45186,-34.15747,0 18.45166,-34.15884,0 18.45165,-34.16009,0 18.45168,-34.1617,0 18.45179,-34.16269,0 18.45203,-34.16459,0 18.45236,-34.16612,0 18.45287,-34.16755,0 18.45329,-34.1689,0 18.45382,-34.17076,0 18.45417,-34.17194,0 18.45461,-34.17324,0 18.45506,-34.17445,0 18.456,-34.1758,0 18.45686,-34.17708,0 18.45767,-34.17817,0 18.45835,-34.18,0 18.45885,-34.18095,0 18.46015,-34.18222,0 18.46146,-34.18363,0 18.46234,-34.18469,0 18.46308,-34.18631,0 18.46353,-34.18776,0 18.46439,-34.1899,0 18.46507,-34.19153,0 18.46496,-34.19264,0 18.46448,-34.19335,0 18.4638,-34.1942,0 18.45858,-34.19402,0 18.45837,-34.19331,0 18.45672,-34.19304,0 18.45531,-34.19309,0 18.45533,-34.19186,0 18.45486,-34.19104,0 18.45421,-34.19025,0 18.45288,-34.18977,0 18.45222,-34.18967,0 18.45186,-34.18937,0 18.45094,-34.18982,0 18.45048,-34.19003,0 18.44982,-34.19151,0 18.44967,-34.19338,0 18.44993,-34.19473,0 18.45004,-34.19697,0 18.45074,-34.19847,0 18.45156,-34.19945,0 18.45274,-34.20039,0 18.454,-34.20131,0 18.45616,-34.2024,0 18.45741,-34.20379,0 18.45862,-34.20464,0 18.46025,-34.20581,0 18.46182,-34.20654,0 18.46345,-34.20769,0 18.46452,-34.20836,0 18.46569,-34.20961,0 18.46687,-34.21057,0 18.46827,-34.21193,0 18.46913,-34.21291,0 18.47025,-34.2141,0 18.47136,-34.21514,0 18.47226,-34.21637,0 18.47296,-34.21798,0 18.47366,-34.21964,0 18.47447,-34.22101,0 18.47523,-34.22245,0 18.47569,-34.22415,0 18.47599,-34.22613,0 18.47672,-34.22799,0 18.477,-34.22912,0 18.47697,-34.23091,0 18.47693,-34.23246,0 18.47731,-34.23393,0 18.47765,-34.23526,0 18.47811,-34.23668,0 18.47848,-34.23833,0 18.47858,-34.24011,0 18.47848,-34.24141,0 18.47883,-34.24321,0 18.47907,-34.2448,0 18.47937,-34.24615,0 18.47968,-34.24734,0 18.4799,-34.24941,0 18.48001,-34.24972,0 18.48029,-34.25184,0 18.48012,-34.25347,0 18.48023,-34.25573,0 18.48058,-34.25728,0 18.4805,-34.25844,0 18.4803,-34.25986,0 18.48068,-34.26144,0 18.48275,-34.26088,0 18.48021,-34.26476,0 18.47863,-34.26832,0 18.47976,-34.27476,0 18.47725,-34.27938,0 18.48034,-34.27864,0 18.47877,-34.28114,0 18.47574,-34.28588,0 18.4755,-34.28714,0 18.47586,-34.2876,0 18.47508,-34.28967,0 18.47533,-34.2897,0 18.47514,-34.29116,0 18.47544,-34.29182,0 18.47494,-34.29366,0 18.47406,-34.29528,0 18.47339,-34.297,0 18.47298,-34.29812,0 18.4734,-34.29877,0 18.47407,-34.29983,0 18.47431,-34.30187,0 18.47441,-34.30285,0 18.47444,-34.30429,0 18.4743,-34.30675,0 18.47415,-34.30843,0 18.47429,-34.30988,0 18.47282,-34.31445,0 18.47301,-34.31582,0 18.47379,-34.31741,0 18.4741,-34.3188,0 18.47486,-34.31973,0 18.47607,-34.32104,0 18.4774,-34.32275,0 18.47808,-34.32397,0 18.47904,-34.32534,0 18.47968,-34.32634,0 18.48137,-34.32806,0 18.48214,-34.32957,0 18.48383,-34.32979,0 18.48483,-34.3305,0 18.48518,-34.33531,0 18.48567,-34.33658,0 18.48689,-34.33767,0 18.48787,-34.33899,0 18.4941,-34.33658,0 18.49301,-34.34138,0 18.49259,-34.34501,0 18.49552,-34.34317,0 18.49758,-34.34387,0 18.49948,-34.34691,0 18.50171,-34.34701,0 18.50166,-34.34969,0 18.50164,-34.35377,0 18.50691,-34.35649,0 18.50554,-34.36168,0 18.50736,-34.36245,0 18.50787,-34.36435,0 18.51055,-34.36362,0 18.51113,-34.36798,0 18.5099,-34.36985,0 18.51357,-34.36309,0 18.50835,-34.36911,0 18.5051,-34.37183,0 18.50555,-34.36987,0 18.50361,-34.37095,0 18.50187,-34.37149,0 18.49941,-34.37263,0 18.49797,-34.3721,0 18.49695,-34.37241,0 18.49572,-34.37242,0 18.49111,-34.37387,0 18.49019,-34.37386,0 18.48813,-34.37402,0 18.48616,-34.37416,0 18.48489,-34.37415,0 18.48361,-34.37363,0 18.48229,-34.3727,0 18.48106,-34.37172,0 18.48028,-34.37175,0 18.4824,-34.36651,0 18.47598,-34.3721,0 18.47541,-34.37131,0 18.47644,-34.36778,0 18.4743,-34.36808,0 18.47646,-34.36338,0 18.47116,-34.36841,0 18.47193,-34.36598,0 18.47158,-34.36404,0 18.46449,-34.37008,0 18.46767,-34.36158,0 18.46256,-34.36231,0 18.46515,-34.35784,0 18.46401,-34.35774,0 18.4628,-34.35709,0 18.45773,-34.36458,0 18.45844,-34.36561,0 18.45685,-34.3735,0 18.464,-34.37507,0 18.46639,-34.3757,0 18.47038,-34.37301,0 18.46733,-34.38024,0 18.4712,-34.37904,0 18.47788,-34.3738,0 18.47736,-34.37648,0 18.47998,-34.37613,0 18.48402,-34.3737,0 18.48587,-34.37337,0 18.48428,-34.37952,0 18.48867,-34.37679,0 18.48953,-34.37795,0 18.49086,-34.37913,0 18.50102,-34.3769,0 18.5085,-34.37431,0 18.51687,-34.35668,0 18.51065,-34.36066,0 18.50736,-34.35856,0 18.5082,-34.3533,0 18.49815,-34.36331,0 18.495,-34.36724,0 18.49831,-34.35775,0 18.49758,-34.35531,0 18.49909,-34.35205,0 18.49688,-34.35234,0 18.49646,-34.34826,0 18.49778,-34.34448,0 18.49561,-34.34604,0 18.49781,-34.34045,0 18.49396,-34.34103,0 18.49403,-34.33923,0 18.49207,-34.34046,0 18.48672,-34.343,0 18.48788,-34.33585,0 18.48334,-34.34029,0 18.48233,-34.33867,0 18.48256,-34.33541,0 18.48303,-34.33214,0 18.48409,-34.33004,0 18.48352,-34.32718,0 18.48167,-34.32742,0 18.48001,-34.32773,0 18.47885,-34.3269,0 18.47782,-34.32597,0 18.47552,-34.32641,0 18.47422,-34.326,0 18.47207,-34.32641,0 18.47082,-34.32598,0 18.46966,-34.32518,0 18.4691,-34.32367,0 18.46809,-34.32319,0 18.46642,-34.32064,0 18.46623,-34.31901,0 18.46019,-34.32117,0 18.45905,-34.32032,0 18.45951,-34.3187,0 18.45888,-34.31625,0 18.456,-34.31605,0 18.45665,-34.31358,0 18.45209,-34.31452,0 18.452,-34.31312,0 18.45155,-34.31168,0 18.45069,-34.31073,0 18.44976,-34.31017,0 18.44887,-34.30935,0 18.44807,-34.30825,0 18.44719,-34.30738,0 18.44627,-34.30619,0 18.4448,-34.30511,0 18.44427,-34.30428,0 18.44337,-34.30341,0 18.44208,-34.30255,0 18.44149,-34.30177,0 18.44079,-34.30088,0 18.44054,-34.29935,0 18.43964,-34.29858,0 18.44089,-34.29542,0 18.44029,-34.29433,0 18.43919,-34.29285,0 18.43879,-34.29163,0 18.43702,-34.29264,0 18.4362,-34.29202,0 18.43564,-34.29052,0 18.43557,-34.28951,0 18.43496,-34.28877,0 18.43335,-34.28801,0 18.43245,-34.28708,0 18.43114,-34.28666,0 18.4276,-34.28593,0 18.42777,-34.28397,0 18.42703,-34.28165,0 18.42665,-34.27995,0 18.4256,-34.27849,0 18.42584,-34.27722,0 18.42564,-34.2754,0 18.42522,-34.27518,0 18.42363,-34.2749,0 18.42259,-34.27423,0 18.42083,-34.27383,0 18.42037,-34.27293,0 18.42018,-34.27199,0 18.41944,-34.27129,0 18.41839,-34.27021,0 18.41794,-34.26968,0 18.41744,-34.26833,0 18.41677,-34.26741,0 18.41623,-34.26649,0 18.41543,-34.26541,0 18.4147,-34.26496,0 18.41413,-34.26373,0 18.41339,-34.2628,0 18.41264,-34.26171,0 18.41226,-34.26074,0 18.41164,-34.25927,0 18.41131,-34.25719,0 18.40987,-34.25603,0 18.41084,-34.25318,0 18.40788,-34.25385,0 18.40648,-34.25132,0 18.40542,-34.25084,0 18.40501,-34.24961,0 18.40514,-34.24804,0 18.40542,-34.24658,0 18.40495,-34.24508,0 18.40432,-34.24432,0 18.4042,-34.24301,0 18.4031,-34.24184,0 18.40257,-34.24087,0 18.39798,-34.2413,0 18.39953,-34.23925,0 18.40017,-34.23748,0 18.399,-34.23616,0 18.39816,-34.23513,0 18.39754,-34.23395,0 18.39698,-34.23318,0 18.39608,-34.23148,0 18.39568,-34.23088,0 18.39515,-34.22938,0 18.39431,-34.22851,0 18.394,-34.22751,0 18.39313,-34.22627,0 18.39184,-34.22517,0 18.39134,-34.22462,0 18.39055,-34.22365,0 18.38952,-34.22247,0 18.38882,-34.22194,0 18.38745,-34.22087,0 18.38711,-34.22004,0 18.38634,-34.21922,0 18.38562,-34.2187,0 18.38447,-34.21809,0 18.38318,-34.21724,0 18.38184,-34.21651,0 18.38082,-34.21576,0 18.3787,-34.21544,0 18.3775,-34.21484,0 18.37625,-34.21385,0 18.37554,-34.21294,0 18.37411,-34.21188,0 18.373,-34.21174,0 18.37199,-34.21098,0 18.37149,-34.20951,0 18.37097,-34.20877,0 18.36974,-34.20754,0 18.36922,-34.2067,0 18.36726,-34.20621,0 18.36659,-34.20463,0 18.36561,-34.20242,0 18.36409,-34.20049,0 18.3601,-34.19991,0 18.35862,-34.19945,0 18.34338,-34.19056,0 18.3481,-34.18586,0 18.34744,-34.18287,0 18.35123,-34.18018,0 18.35511,-34.17648,0 18.34221,-34.17931,0 18.34753,-34.17451,0 18.34231,-34.17394,0 18.34525,-34.17101,0 18.34659,-34.16992,0 18.33613,-34.17231,0 18.34251,-34.16514,0 18.34094,-34.16303,0 18.3411,-34.16153,0 18.33903,-34.16158,0 18.33958,-34.15897,0 18.34117,-34.15616,0 18.3419,-34.15054,0 18.34383,-34.14479,0 18.34966,-34.14019,0 18.34936,-34.13816,0 18.34959,-34.13708,0 18.34968,-34.13478,0 18.34826,-34.13388,0 18.34819,-34.13282,0 18.34693,-34.13196,0 18.34753,-34.13018,0 18.34742,-34.12942,0 18.34828,-34.128,0 18.35231,-34.1074,0 18.33438,-33.91301,0 18.36901,-33.91534,0 18.3716,-33.91442,0 18.36938,-33.91063,0 18.37355,-33.91063,0 18.37089,-33.90913,0 18.37526,-33.90834,0 18.37337,-33.90634,0 18.3753,-33.90356,0 18.39309,-33.89816,0 18.39497,-33.8967,0 18.39928,-33.89534,0 18.39859,-33.89156,0 18.4023,-33.89103,0 18.40394,-33.88999,0 18.40956,-33.88715,0 18.41953,-33.88414,0 18.42194,-33.88366,0 18.43102,-33.88073,0 18.43096,-33.87998,0 18.43081,-33.87892,0 18.4293,-33.87784,0 18.42989,-33.87675,0 18.43045,-33.87645,0 18.43093,-33.87613,0 18.40049,-33.86995,0 18.40936,-33.87319,0 18.43194,-33.88198,0</coordinates>
      </LineString>
    </Placemark>
  </Document>
</kml>
