<?xml version="1.0" encoding="UTF-8"?>
<kml xmlns="http://www.opengis.net/kml/2.2">
  <Document>
    <name>FR24 3efb2248</name>
    <Placemark>
      <name>FR24 3efb2248</name>
      <Style><LineStyle><color>ff0000ff</color><width>4</width></LineStyle></Style>
      <LineString>
        <tessellate>1</tessellate>
        <coordinates>18.43019,-33.89492,0 18.43163,-33.89324,0 18.43265,-33.89186,0 18.43315,-33.89117,0 18.43349,-33.89053,0 18.43394,-33.8898,0 18.4342,-33.88924,0 18.43461,-33.88838,0 18.43489,-33.88779,0 18.43517,-33.88696,0 18.43539,-33.88628,0 18.4354,-33.88537,0 18.43534,-33.88472,0 18.43512,-33.88412,0 18.43477,-33.88342,0 18.43416,-33.88261,0 18.43357,-33.88207,0 18.43293,-33.8817,0 18.4322,-33.88132,0 18.43119,-33.88097,0 18.43037,-33.88081,0 18.42934,-33.88072,0 18.42871,-33.88072,0 18.4276,-33.88074,0 18.42659,-33.88081,0 18.42573,-33.88086,0 18.42464,-33.88095,0 18.42368,-33.88106,0 18.42278,-33.88115,0 18.42183,-33.88124,0 18.4207,-33.88137,0 18.42001,-33.88146,0 18.41886,-33.88156,0 18.41772,-33.88169,0 18.41675,-33.88179,0 18.41566,-33.88193,0 18.41477,-33.88202,0 18.41359,-33.88216,0 18.41269,-33.88226,0 18.4116,-33.88239,0 18.41056,-33.88252,0 18.4096,-33.88268,0 18.40866,-33.88284,0 18.40748,-33.88307,0 18.40664,-33.88326,0 18.40557,-33.88348,0 18.40445,-33.88374,0 18.40353,-33.88393,0 18.40267,-33.88416,0 18.40176,-33.8844,0 18.4007,-33.88472,0 18.39941,-33.88518,0 18.39844,-33.88556,0 18.39729,-33.88607,0 18.39655,-33.8864,0 18.39571,-33.88683,0 18.39472,-33.88737,0 18.3938,-33.88792,0 18.39296,-33.88843,0 18.39218,-33.88889,0 18.39139,-33.88939,0 18.39067,-33.88985,0 18.38997,-33.89026,0 18.38905,-33.89082,0 18.3882,-33.89138,0 18.38736,-33.892,0 18.3868,-33.89241,0 18.38596,-33.89301,0 18.38499,-33.89371,0 18.38433,-33.89415,0 18.3835,-33.89473,0 18.38276,-33.89525,0 18.3819,-33.8958,0 18.38102,-33.89639,0 18.38024,-33.89692,0 18.37951,-33.89745,0 18.3787,-33.89799,0 18.37788,-33.89859,0 18.37716,-33.89919,0 18.37648,-33.89973,0 18.37561,-33.90046,0 18.37491,-33.90106,0 18.37412,-33.90181,0 18.37343,-33.9025,0 18.37292,-33.90297,0 18.37211,-33.90376,0 18.37149,-33.90437,0 18.37069,-33.9052,0 18.3702,-33.90569,0 18.36925,-33.90665,0 18.36857,-33.90734,0 18.36788,-33.90809,0 18.36712,-33.90889,0 18.36651,-33.90953,0 18.36589,-33.91022,0 18.36516,-33.91104,0 18.36471,-33.91164,0 18.36388,-33.91256,0 18.36331,-33.91328,0 18.36279,-33.91386,0 18.36216,-33.91465,0 18.36159,-33.91535,0 18.3609,-33.91626,0 18.36039,-33.91693,0 18.35981,-33.91763,0 18.35913,-33.91847,0 18.3586,-33.91914,0 18.35776,-33.92006,0 18.35731,-33.92061,0 18.35649,-33.92145,0 18.35587,-33.9221,0 18.35518,-33.9228,0 18.35438,-33.92364,0 18.35358,-33.92448,0 18.35295,-33.92513,0 18.35227,-33.92583,0 18.35152,-33.92671,0 18.35083,-33.92746,0 18.3502,-33.92815,0 18.34951,-33.9289,0 18.34874,-33.92976,0 18.34683,-33.93196,0 18.34414,-33.93514,0 18.34151,-33.93828,0 18.33921,-33.94102,0 18.3373,-33.94345,0 18.33545,-33.94579,0 18.33464,-33.94682,0 18.33281,-33.9492,0 18.33041,-33.95247,0 18.32862,-33.9549,0 18.3264,-33.95813,0 18.3252,-33.95984,0 18.32445,-33.96098,0 18.32379,-33.96194,0 18.32319,-33.96288,0 18.32273,-33.96364,0 18.32188,-33.96507,0 18.32136,-33.966,0 18.32088,-33.96675,0 18.32033,-33.96777,0 18.31987,-33.96861,0 18.31948,-33.96931,0 18.31896,-33.97028,0 18.3185,-33.97108,0 18.31808,-33.97188,0 18.31747,-33.97285,0 18.31701,-33.97362,0 18.31651,-33.97444,0 18.31606,-33.97517,0 18.3155,-33.97604,0 18.31393,-33.97861,0 18.31249,-33.98095,0 18.31083,-33.98374,0 18.3095,-33.98611,0 18.30849,-33.98802,0 18.30793,-33.98909,0 18.30754,-33.98982,0 18.307,-33.99091,0 18.30659,-33.99184,0 18.30625,-33.99257,0 18.30586,-33.99339,0 18.30547,-33.99426,0 18.30517,-33.99496,0 18.30474,-33.99596,0 18.30434,-33.99683,0 18.30391,-33.99775,0 18.3035,-33.99866,0 18.30311,-33.99934,0 18.30271,-34.00022,0 18.3012,-34.00337,0 18.2999,-34.00622,0 18.29874,-34.00877,0 18.29767,-34.01147,0 18.29676,-34.0139,0 18.29644,-34.01486,0 18.29616,-34.01555,0 18.29588,-34.01656,0 18.29561,-34.01735,0 18.29538,-34.01814,0 18.29515,-34.01889,0 18.29498,-34.01968,0 18.29476,-34.02058,0 18.29448,-34.02159,0 18.29431,-34.02246,0 18.29412,-34.02317,0 18.29392,-34.02406,0 18.29372,-34.02494,0 18.2935,-34.02568,0 18.2933,-34.02658,0 18.29313,-34.02713,0 18.29291,-34.02805,0 18.29275,-34.02866,0 18.29257,-34.02951,0 18.29235,-34.03033,0 18.29218,-34.03116,0 18.29201,-34.03194,0 18.29189,-34.03257,0 18.29178,-34.03327,0 18.29162,-34.03413,0 18.29121,-34.03643,0 18.29083,-34.03857,0 18.29044,-34.0416,0 18.29022,-34.04388,0 18.28999,-34.04599,0 18.28983,-34.04765,0 18.2896,-34.0507,0 18.28943,-34.05327,0 18.28926,-34.05528,0 18.28904,-34.05858,0 18.28893,-34.06082,0 18.28875,-34.06325,0 18.28869,-34.06548,0 18.28859,-34.06801,0 18.28859,-34.07025,0 18.28857,-34.07275,0 18.28859,-34.0751,0 18.28871,-34.07748,0 18.28882,-34.07991,0 18.28887,-34.08083,0 18.28886,-34.08155,0 18.28887,-34.08234,0 18.28893,-34.08302,0 18.28897,-34.08401,0 18.28903,-34.08639,0 18.28909,-34.08881,0 18.2892,-34.09142,0 18.28932,-34.09392,0 18.28938,-34.09694,0 18.28938,-34.09799,0 18.28955,-34.1006,0 18.2896,-34.10161,0 18.28977,-34.10362,0 18.28988,-34.10449,0 18.29,-34.10519,0 18.29016,-34.10628,0 18.29027,-34.10696,0 18.29044,-34.10783,0 18.29058,-34.10868,0 18.29075,-34.10957,0 18.29092,-34.1105,0 18.29106,-34.11104,0 18.29126,-34.11194,0 18.2914,-34.11273,0 18.29161,-34.11362,0 18.29178,-34.11441,0 18.29196,-34.11511,0 18.29212,-34.11585,0 18.29235,-34.11667,0 18.29252,-34.11753,0 18.29274,-34.11827,0 18.29292,-34.11902,0 18.29319,-34.11992,0 18.29344,-34.1206,0 18.29367,-34.1214,0 18.29397,-34.12225,0 18.2942,-34.12294,0 18.29447,-34.12358,0 18.2947,-34.12436,0 18.29504,-34.12527,0 18.29533,-34.12605,0 18.29566,-34.12679,0 18.2959,-34.12749,0 18.29633,-34.12848,0 18.29664,-34.12912,0 18.297,-34.12994,0 18.29739,-34.1308,0 18.29773,-34.13159,0 18.2983,-34.13285,0 18.29876,-34.13373,0 18.29916,-34.13452,0 18.29952,-34.13525,0 18.29986,-34.13594,0 18.30036,-34.13695,0 18.30081,-34.13782,0 18.30109,-34.13846,0 18.30231,-34.1409,0 18.30339,-34.14308,0 18.30494,-34.14625,0 18.3062,-34.14853,0 18.30666,-34.14933,0 18.30703,-34.15004,0 18.30746,-34.15072,0 18.30791,-34.15137,0 18.30844,-34.15219,0 18.30888,-34.15292,0 18.3095,-34.15379,0 18.30989,-34.15443,0 18.31032,-34.15505,0 18.3109,-34.15594,0 18.31135,-34.15654,0 18.31191,-34.15736,0 18.31242,-34.15805,0 18.31297,-34.15878,0 18.31348,-34.15952,0 18.31507,-34.16166,0 18.31662,-34.16377,0 18.31836,-34.16602,0 18.31999,-34.16813,0 18.32166,-34.17041,0 18.32222,-34.1712,0 18.32273,-34.17192,0 18.32318,-34.17256,0 18.32359,-34.17321,0 18.32407,-34.17403,0 18.32462,-34.17484,0 18.32503,-34.17558,0 18.32548,-34.17623,0 18.32587,-34.17691,0 18.32634,-34.17763,0 18.32674,-34.17838,0 18.32727,-34.17915,0 18.32772,-34.17989,0 18.32806,-34.18047,0 18.32851,-34.18126,0 18.32897,-34.1821,0 18.32949,-34.18298,0 18.32985,-34.18364,0 18.33035,-34.18461,0 18.33075,-34.1854,0 18.33119,-34.1862,0 18.33158,-34.18689,0 18.332,-34.18778,0 18.33241,-34.18848,0 18.33321,-34.19014,0 18.33366,-34.19099,0 18.33405,-34.19165,0 18.3345,-34.19252,0 18.33613,-34.19554,0 18.33733,-34.19778,0 18.33865,-34.20049,0 18.33977,-34.20296,0 18.34087,-34.20523,0 18.34201,-34.20772,0 18.34333,-34.21064,0 18.34476,-34.21376,0 18.34588,-34.21619,0 18.347,-34.21852,0 18.34734,-34.2192,0 18.3484,-34.22154,0 18.34911,-34.22311,0 18.35008,-34.22539,0 18.35117,-34.22791,0 18.35238,-34.23088,0 18.35384,-34.23418,0 18.35478,-34.23629,0 18.35597,-34.23871,0 18.35759,-34.242,0 18.35905,-34.24498,0 18.36017,-34.2475,0 18.36124,-34.25002,0 18.36233,-34.25244,0 18.36262,-34.25314,0 18.36342,-34.25491,0 18.36376,-34.2556,0 18.36404,-34.25629,0 18.36445,-34.25714,0 18.36491,-34.25798,0 18.36525,-34.25877,0 18.36561,-34.25949,0 18.36606,-34.26031,0 18.36639,-34.261,0 18.36679,-34.26175,0 18.36724,-34.26265,0 18.36765,-34.26352,0 18.36811,-34.26435,0 18.36857,-34.26519,0 18.36892,-34.2659,0 18.36937,-34.26682,0 18.36971,-34.26757,0 18.37004,-34.26823,0 18.3704,-34.26896,0 18.37086,-34.26989,0 18.37133,-34.27075,0 18.37172,-34.27162,0 18.37222,-34.27254,0 18.37262,-34.27336,0 18.37301,-34.27414,0 18.37334,-34.27483,0 18.37385,-34.27579,0 18.37419,-34.27652,0 18.37458,-34.27739,0 18.37514,-34.27849,0 18.37549,-34.27921,0 18.37587,-34.27986,0 18.37629,-34.28074,0 18.37669,-34.28144,0 18.37716,-34.28229,0 18.37761,-34.28307,0 18.37812,-34.28391,0 18.37861,-34.28481,0 18.37904,-34.28554,0 18.37961,-34.28642,0 18.38052,-34.28792,0 18.38104,-34.2887,0 18.38161,-34.28959,0 18.38214,-34.2903,0 18.38259,-34.29099,0 18.38327,-34.29201,0 18.38377,-34.29268,0 18.38444,-34.29364,0 18.385,-34.29433,0 18.38556,-34.29515,0 18.38608,-34.29583,0 18.38652,-34.29648,0 18.38725,-34.29739,0 18.38894,-34.29969,0 18.39055,-34.30174,0 18.39254,-34.30407,0 18.39448,-34.30632,0 18.39518,-34.30714,0 18.39586,-34.30793,0 18.39655,-34.30867,0 18.39734,-34.30952,0 18.39792,-34.31012,0 18.39874,-34.31099,0 18.3993,-34.31156,0 18.39986,-34.31213,0 18.40067,-34.31291,0 18.40126,-34.31346,0 18.40204,-34.31424,0 18.40284,-34.31496,0 18.40405,-34.31607,0 18.40457,-34.31657,0 18.40542,-34.31733,0 18.40593,-34.31775,0 18.40642,-34.31818,0 18.40765,-34.31923,0 18.40905,-34.32042,0 18.40982,-34.32106,0 18.41068,-34.32175,0 18.41157,-34.32248,0 18.41241,-34.32312,0 18.41412,-34.32446,0 18.41505,-34.32518,0 18.41589,-34.32573,0 18.41673,-34.32632,0 18.41746,-34.32683,0 18.41852,-34.32757,0 18.41927,-34.32809,0 18.42015,-34.3287,0 18.42105,-34.3293,0 18.42161,-34.32971,0 18.42258,-34.33037,0 18.42374,-34.33113,0 18.42452,-34.33163,0 18.42514,-34.332,0 18.4262,-34.33273,0 18.429,-34.33452,0 18.43157,-34.33628,0 18.43242,-34.33694,0 18.43328,-34.33758,0 18.43399,-34.33813,0 18.43489,-34.33882,0 18.43551,-34.33928,0 18.43635,-34.33997,0 18.437,-34.34047,0 18.43786,-34.34111,0 18.43865,-34.34175,0 18.43941,-34.34238,0 18.4401,-34.34294,0 18.44078,-34.34349,0 18.44151,-34.34404,0 18.44233,-34.34461,0 18.44301,-34.34512,0 18.4438,-34.34569,0 18.44476,-34.34637,0 18.44547,-34.34689,0 18.44616,-34.3474,0 18.44705,-34.34802,0 18.4479,-34.34862,0 18.44874,-34.34926,0 18.44952,-34.34981,0 18.45028,-34.35043,0 18.4512,-34.35114,0 18.45199,-34.35178,0 18.45274,-34.35239,0 18.4548,-34.35406,0 18.4556,-34.35467,0 18.45625,-34.35521,0 18.45686,-34.35574,0 18.45759,-34.35631,0 18.45827,-34.35681,0 18.45898,-34.35732,0 18.45978,-34.35793,0 18.46052,-34.35844,0 18.46118,-34.35887,0 18.46207,-34.35937,0 18.46275,-34.35979,0 18.46365,-34.3602,0 18.46454,-34.36057,0 18.46544,-34.3609,0 18.46619,-34.36109,0 18.4674,-34.36139,0 18.46819,-34.36156,0 18.46905,-34.36174,0 18.47013,-34.36193,0 18.47105,-34.36207,0 18.47219,-34.36221,0 18.47305,-34.3623,0 18.47401,-34.36244,0 18.47517,-34.36258,0 18.47609,-34.36272,0 18.47712,-34.36286,0 18.47799,-34.36299,0 18.47889,-34.36309,0 18.47973,-34.36322,0 18.48089,-34.36337,0 18.48198,-34.36349,0 18.48278,-34.36361,0 18.48388,-34.36377,0 18.48501,-34.36388,0 18.48612,-34.364,0 18.48713,-34.36409,0 18.48804,-34.36416,0 18.4889,-34.36416,0 18.49005,-34.36416,0 18.49125,-34.36416,0 18.49205,-34.36407,0 18.49342,-34.36388,0 18.49428,-34.3637,0 18.49554,-34.36333,0 18.49632,-34.36299,0 18.49733,-34.36244,0 18.49823,-34.3618,0 18.49886,-34.36128,0 18.49943,-34.36072,0 18.50012,-34.35983,0 18.50058,-34.359,0 18.50092,-34.35825,0 18.50121,-34.35746,0 18.50143,-34.35648,0 18.50154,-34.3558,0 18.50171,-34.35475,0 18.50176,-34.35411,0 18.50189,-34.35313,0 18.50206,-34.35206,0 18.50218,-34.35099,0 18.50229,-34.3502,0 18.50243,-34.34917,0 18.50255,-34.34816,0 18.50269,-34.34713,0 18.50277,-34.34628,0 18.50288,-34.3455,0 18.50299,-34.3445,0 18.50333,-34.34088,0 18.50355,-34.33772,0 18.50378,-34.33397,0 18.50384,-34.33078,0 18.50395,-34.32747,0 18.50406,-34.32399,0 18.50417,-34.32092,0 18.50434,-34.31758,0 18.50451,-34.31447,0 18.50456,-34.31099,0 18.50464,-34.30779,0 18.50464,-34.30467,0 18.50458,-34.3016,0 18.50456,-34.29877,0 18.50447,-34.29568,0 18.5043,-34.2915,0 18.50407,-34.28782,0 18.50389,-34.28448,0 18.50372,-34.28046,0 18.50361,-34.27753,0 18.50361,-34.27409,0 18.50349,-34.27092,0 18.50339,-34.26791,0 18.50327,-34.26485,0 18.50304,-34.26184,0 18.50269,-34.25798,0 18.50229,-34.25463,0 18.50195,-34.25169,0 18.50148,-34.24823,0 18.50098,-34.24397,0 18.50058,-34.24047,0 18.50019,-34.23729,0 18.49972,-34.234,0 18.49929,-34.2307,0 18.49886,-34.2273,0 18.49846,-34.22404,0 18.498,-34.21985,0 18.49771,-34.21548,0 18.49754,-34.21222,0 18.4975,-34.21124,0 18.49737,-34.20686,0 18.49728,-34.2036,0 18.49711,-34.1993,0 18.49697,-34.1963,0 18.49683,-34.19206,0 18.49669,-34.1888,0 18.49649,-34.18524,0 18.49632,-34.18208,0 18.49621,-34.1787,0 18.49604,-34.17517,0 18.49604,-34.17343,0 18.49606,-34.17209,0 18.49611,-34.17111,0 18.4961,-34.16991,0 18.49606,-34.16888,0 18.49604,-34.16785,0 18.496,-34.16692,0 18.49599,-34.16574,0 18.49588,-34.16478,0 18.49583,-34.16357,0 18.49577,-34.16269,0 18.49566,-34.16152,0 18.49554,-34.16003,0 18.49543,-34.15901,0 18.49531,-34.15799,0 18.4952,-34.15704,0 18.49508,-34.15584,0 18.49497,-34.15472,0 18.49457,-34.15119,0 18.49419,-34.1478,0 18.49377,-34.14462,0 18.49331,-34.14127,0 18.49257,-34.13718,0 18.49195,-34.13388,0 18.49111,-34.12962,0 18.49027,-34.12541,0 18.4897,-34.12228,0 18.48913,-34.11921,0 18.48856,-34.11557,0 18.48792,-34.11154,0 18.48747,-34.10841,0 18.48696,-34.10513,0 18.48656,-34.10175,0 18.4861,-34.09723,0 18.48604,-34.09626,0 18.48598,-34.09523,0 18.48598,-34.09425,0 18.48593,-34.09304,0 18.4859,-34.09181,0 18.4859,-34.09081,0 18.48593,-34.08988,0 18.48593,-34.08857,0 18.48598,-34.08778,0 18.48604,-34.08629,0 18.48607,-34.08531,0 18.48616,-34.08424,0 18.48621,-34.08327,0 18.48627,-34.08201,0 18.48635,-34.08064,0 18.4864,-34.07973,0 18.48652,-34.07863,0 18.48661,-34.07754,0 18.48674,-34.0762,0 18.48685,-34.07538,0 18.48742,-34.07079,0 18.48792,-34.06705,0 18.48845,-34.06274,0 18.48879,-34.05981,0 18.48913,-34.05608,0 18.48959,-34.05157,0 18.48993,-34.0481,0 18.49033,-34.04462,0 18.49045,-34.04174,0 18.49051,-34.04044,0 18.49049,-34.03917,0 18.49051,-34.03825,0 18.49051,-34.03704,0 18.49045,-34.03606,0 18.49039,-34.03509,0 18.49033,-34.03386,0 18.49033,-34.0329,0 18.49028,-34.03169,0 18.49022,-34.03075,0 18.49022,-34.02973,0 18.49016,-34.02852,0 18.4901,-34.02763,0 18.49005,-34.02647,0 18.48999,-34.02534,0 18.48993,-34.0242,0 18.48993,-34.02301,0 18.48988,-34.0221,0 18.48965,-34.01743,0 18.48948,-34.0133,0 18.48936,-34.01027,0 18.48919,-34.00632,0 18.48913,-34.00329,0 18.48902,-34.00013,0 18.48893,-33.99715,0 18.48879,-33.99333,0 18.4887,-33.99028,0 18.48862,-33.98751,0 18.48859,-33.98479,0 18.48848,-33.98163,0 18.48831,-33.97838,0 18.4881,-33.97545,0 18.48803,-33.97472,0 18.48797,-33.97375,0 18.48782,-33.97256,0 18.48775,-33.97179,0 18.48764,-33.97078,0 18.48759,-33.96991,0 18.48753,-33.96912,0 18.48741,-33.9684,0 18.48736,-33.96744,0 18.48713,-33.96497,0 18.4868,-33.96172,0 18.48635,-33.95851,0 18.48616,-33.95772,0 18.48604,-33.95697,0 18.48581,-33.95604,0 18.4857,-33.9553,0 18.48556,-33.95453,0 18.48534,-33.9538,0 18.48517,-33.95306,0 18.485,-33.95219,0 18.48478,-33.95152,0 18.48455,-33.95055,0 18.48438,-33.94985,0 18.48421,-33.9491,0 18.48394,-33.94821,0 18.48366,-33.94734,0 18.48343,-33.94661,0 18.48321,-33.94588,0 18.48289,-33.94501,0 18.48259,-33.94405,0 18.48237,-33.94341,0 18.48141,-33.9407,0 18.48135,-33.94049,0 18.47906,-33.93467,0 18.47856,-33.93352,0 18.47822,-33.93256,0 18.47786,-33.93179,0 18.47749,-33.93105,0 18.477,-33.93007,0 18.47654,-33.92927,0 18.47614,-33.92862,0 18.4757,-33.9278,0 18.47534,-33.92718,0 18.47477,-33.92616,0 18.47437,-33.92541,0 18.47401,-33.92468,0 18.47368,-33.924,0 18.47318,-33.92317,0 18.47277,-33.92248,0 18.47231,-33.92183,0 18.47185,-33.92122,0 18.47128,-33.92043,0 18.4706,-33.91965,0 18.47009,-33.91901,0 18.46942,-33.91823,0 18.46876,-33.91759,0 18.4683,-33.91713,0 18.4675,-33.91638,0 18.46687,-33.91582,0 18.46601,-33.91503,0 18.46516,-33.91434,0 18.46432,-33.9136,0 18.46355,-33.91302,0 18.46292,-33.91246,0 18.46208,-33.91182,0 18.46121,-33.91112,0 18.46034,-33.91045,0 18.45961,-33.90985,0 18.45866,-33.90912,0 18.45778,-33.90846,0 18.45703,-33.90795,0 18.45652,-33.90753,0 18.4556,-33.90679,0 18.45496,-33.90623,0 18.45417,-33.90541,0 18.45361,-33.90472,0 18.4532,-33.90418,0 18.45274,-33.90353,0 18.45234,-33.90292,0 18.452,-33.90232,0 18.45154,-33.90161,0 18.45125,-33.90106,0 18.45079,-33.90027,0 18.45028,-33.89952,0 18.44997,-33.89914,0 18.44946,-33.89859,0 18.44873,-33.89808,0 18.44823,-33.89781,0 18.44767,-33.89758,0 18.44685,-33.89743,0 18.4461,-33.89738,0 18.44507,-33.89748,0 18.44431,-33.89763,0 18.44376,-33.89776,0 18.44296,-33.89794,0 18.44229,-33.89809,0 18.44179,-33.89822,0 18.44139,-33.89832,0 18.44117,-33.89841,0 18.44078,-33.8985,0 18.44021,-33.89864,0 18.43971,-33.89877,0 18.43929,-33.89887,0 18.43901,-33.89897,0 18.4387,-33.89905,0 18.43838,-33.89915,0 18.43809,-33.89923,0 18.43741,-33.89941,0 18.43713,-33.89951,0 18.43683,-33.89957,0 18.43652,-33.89969,0 18.43609,-33.89976,0 18.43563,-33.89985,0 18.43506,-33.89994,0 18.43466,-33.90004,0 18.43433,-33.9001,0 18.43377,-33.90019,0 18.4334,-33.90022,0 18.43311,-33.90027,0 18.43283,-33.90032,0 18.43248,-33.90033,0 18.43208,-33.90041,0 18.43181,-33.90042,0 18.43153,-33.90047,0 18.43128,-33.90046,0 18.43102,-33.90051,0 18.43065,-33.90051,0 18.43041,-33.90056,0 18.43007,-33.90056,0 18.42957,-33.9006,0 18.42917,-33.9007,0 18.42888,-33.90069,0 18.42854,-33.90074,0 18.42833,-33.90079,0 18.42811,-33.90079,0 18.42783,-33.90083,0 18.42755,-33.90092,0 18.42733,-33.90097,0 18.4271,-33.9011,0 18.42705,-33.90088,0 18.42704,-33.90038,0 18.4271,-33.90013,0 18.42721,-33.89983,0 18.42728,-33.89962,0 18.42732,-33.89941,0 18.42739,-33.8992,0 18.42751,-33.89897,0 18.42772,-33.89854,0 18.42796,-33.89817,0 18.42813,-33.8978,0 18.42833,-33.89758,0 18.42861,-33.89708,0 18.42882,-33.89673,0 18.429,-33.89648,0 18.42934,-33.89594,0 18.42973,-33.89534,0 18.43013,-33.89479,0 18.43065,-33.89403,0 18.43105,-33.89347,0 18.43145,-33.89282,0 18.43181,-33.89227,0 18.43225,-33.8917,0 18.4326,-33.8911,0 18.4331,-33.89035,0 18.43355,-33.88966,0 18.43391,-33.88905,0 18.43439,-33.88829,0 18.43477,-33.88765,0 18.43517,-33.88686,0 18.4354,-33.88617,0 18.43551,-33.8855,0 18.43552,-33.88467,0 18.43539,-33.88385,0 18.43512,-33.88319,0 18.43483,-33.88272,0 18.43431,-33.88202,0 18.43363,-33.88146,0 18.433,-33.881,0 18.43214,-33.88055,0 18.4314,-33.8803,0 18.43031,-33.88002,0 18.42968,-33.87991,0 18.42878,-33.87978,0 18.42791,-33.8797,0 18.42688,-33.87965,0 18.42581,-33.87959,0 18.42503,-33.87955,0 18.42396,-33.87955,0 18.42321,-33.87955,0 18.42218,-33.8796,0 18.42144,-33.8796,0 18.42035,-33.87965,0 18.41944,-33.8797,0 18.41802,-33.87978,0 18.41701,-33.87987,0 18.41606,-33.87993,0 18.4148,-33.88007,0 18.41393,-33.88019,0 18.41281,-33.88033,0 18.41185,-33.88046,0 18.41068,-33.88065,0 18.40961,-33.88087,0 18.40871,-33.88106,0 18.40765,-33.88137,0 18.40664,-33.88165,0 18.40576,-33.88193,0 18.40473,-33.88229,0 18.40378,-33.88261,0 18.40283,-33.88303,0 18.40193,-33.88342,0 18.40096,-33.88384,0 18.39998,-33.8843,0 18.39895,-33.88486,0 18.39806,-33.88536,0 18.39735,-33.88575,0 18.39655,-33.88626,0 18.39575,-33.88672,0 18.39512,-33.88719,0 18.39426,-33.88775,0 18.39347,-33.88829,0 18.39252,-33.88893,0 18.39186,-33.88942,0 18.39111,-33.88998,0 18.3902,-33.89063,0 18.38963,-33.89105,0 18.38882,-33.89161,0 18.38809,-33.89218,0 18.38722,-33.89278,0 18.38631,-33.89347,0 18.38551,-33.89401,0 18.38482,-33.8945,0 18.38139,-33.89687,0 18.37833,-33.89914,0 18.37761,-33.89969,0 18.37676,-33.90033,0 18.37598,-33.90097,0 18.37514,-33.90166,0 18.37441,-33.90225,0 18.37357,-33.90298,0 18.3729,-33.90363,0 18.37223,-33.90418,0 18.37133,-33.90495,0 18.37065,-33.90555,0 18.36994,-33.90618,0 18.36908,-33.90697,0 18.36847,-33.90756,0 18.36774,-33.9082,0 18.36695,-33.90894,0 18.36617,-33.90967,0 18.36567,-33.91017,0 18.36494,-33.9109,0 18.36426,-33.91159,0 18.36348,-33.91241,0 18.36297,-33.91287,0 18.36219,-33.9137,0 18.36153,-33.91438,0 18.36079,-33.91516,0 18.36017,-33.9158,0 18.35972,-33.91631,0 18.35896,-33.91712,0 18.35838,-33.91772,0 18.35764,-33.91847,0 18.35701,-33.91908,0 18.35449,-33.92178,0 18.35369,-33.92252,0 18.35312,-33.92313,0 18.35255,-33.92373,0 18.35188,-33.92445,0 18.35126,-33.92505,0 18.35053,-33.92587,0 18.34986,-33.92665,0 18.34929,-33.92727,0 18.3486,-33.92806,0 18.34795,-33.92871,0 18.34734,-33.92944,0 18.34665,-33.93016,0 18.34492,-33.93205,0 18.34213,-33.93514,0 18.3403,-33.93728,0 18.33767,-33.94017,0 18.33685,-33.94112,0 18.33629,-33.94176,0 18.33557,-33.94258,0 18.33489,-33.94336,0 18.33326,-33.94524,0 18.33115,-33.94775,0 18.3292,-33.95018,0 18.32743,-33.95246,0 18.32559,-33.9548,0 18.32407,-33.95691,0 18.32222,-33.95952,0 18.32054,-33.9619,0 18.31909,-33.964,0 18.31793,-33.96577,0 18.31524,-33.96996,0 18.31146,-33.97559,0 18.30986,-33.97797,0 18.30849,-33.98035,0 18.30709,-33.98268,0 18.30558,-33.98543,0 18.30524,-33.98607,0 18.30477,-33.987,0 18.30402,-33.98853,0 18.30261,-33.99129,0 18.30221,-33.99188,0 18.30179,-33.99277,0 18.30133,-33.99352,0 18.30019,-33.9957,0 18.29902,-33.99797,0 18.29767,-34.00085,0 18.29733,-34.00161,0 18.29706,-34.00227,0 18.29672,-34.00305,0 18.29647,-34.00371,0 18.29616,-34.00452,0 18.2959,-34.00525,0 18.29566,-34.00594,0 18.29538,-34.00674,0 18.29515,-34.00754,0 18.29493,-34.00827,0 18.2947,-34.00909,0 18.29447,-34.0099,0 18.29431,-34.01079,0 18.29414,-34.01152,0 18.29397,-34.01221,0 18.29361,-34.01405,0 18.29332,-34.01498,0 18.29319,-34.01546,0 18.29296,-34.01628,0 18.29275,-34.01702,0 18.29257,-34.01765,0 18.2924,-34.01848,0 18.29229,-34.01912,0 18.29212,-34.02,0 18.29201,-34.02058,0 18.29189,-34.0214,0 18.29173,-34.02283,0 18.29168,-34.02361,0 18.29155,-34.02466,0 18.29149,-34.0254,0 18.29149,-34.02605,0 18.29144,-34.02685,0 18.29145,-34.02763,0 18.29144,-34.02829,0 18.29144,-34.02894,0 18.29151,-34.02974,0 18.29151,-34.03052,0 18.29155,-34.03117,0 18.29162,-34.03185,0 18.29168,-34.03249,0 18.29173,-34.03313,0 18.29184,-34.03392,0 18.29189,-34.03444,0 18.29201,-34.03527,0 18.29207,-34.03592,0 18.29218,-34.03672,0 18.29235,-34.03751,0 18.29246,-34.03816,0 18.29258,-34.039,0 18.29274,-34.03967,0 18.29285,-34.04027,0 18.29304,-34.04105,0 18.29315,-34.04156,0 18.29332,-34.04235,0 18.29347,-34.04292,0 18.29367,-34.0437,0 18.29384,-34.0443,0 18.29409,-34.04507,0 18.2943,-34.04575,0 18.29458,-34.04659,0 18.29475,-34.04705,0 18.29504,-34.04784,0 18.29526,-34.04846,0 18.29544,-34.04905,0 18.29567,-34.04961,0 18.29594,-34.05034,0 18.29616,-34.05093,0 18.29644,-34.05171,0 18.2967,-34.0525,0 18.29695,-34.05313,0 18.29723,-34.05386,0 18.29756,-34.05464,0 18.2979,-34.05538,0 18.29876,-34.05748,0 18.29967,-34.05962,0 18.3003,-34.06125,0 18.30059,-34.06195,0 18.30137,-34.06403,0 18.30225,-34.06618,0 18.30248,-34.06679,0 18.30283,-34.0675,0 18.30317,-34.06819,0 18.30362,-34.06892,0 18.30395,-34.06956,0 18.3044,-34.07039,0 18.30474,-34.07108,0 18.30505,-34.07167,0 18.30541,-34.07227,0 18.30568,-34.07284,0 18.30608,-34.07344,0 18.30642,-34.07401,0 18.30683,-34.07465,0 18.30723,-34.07521,0 18.30748,-34.0757,0 18.30797,-34.07647,0 18.30832,-34.07698,0 18.30872,-34.07767,0 18.30905,-34.07822,0 18.30952,-34.07894,0 18.30989,-34.07945,0 18.31029,-34.08009,0 18.31066,-34.08057,0 18.31112,-34.08122,0 18.31157,-34.08179,0 18.31197,-34.08234,0 18.31242,-34.08284,0 18.31275,-34.08334,0 18.31309,-34.0838,0 18.31371,-34.08458,0 18.31421,-34.08517,0 18.31454,-34.08554,0 18.31511,-34.08618,0 18.31564,-34.08676,0 18.31615,-34.08727,0 18.31661,-34.08769,0 18.31707,-34.0881,0 18.31758,-34.08857,0 18.31819,-34.08907,0 18.31869,-34.08952,0 18.3193,-34.09002,0 18.31993,-34.09053,0 18.32049,-34.09094,0 18.32125,-34.09155,0 18.32172,-34.0919,0 18.32239,-34.0925,0 18.32295,-34.093,0 18.32348,-34.09346,0 18.32413,-34.09401,0 18.32474,-34.09453,0 18.32536,-34.09511,0 18.32592,-34.09557,0 18.32657,-34.09602,0 18.3271,-34.09644,0 18.32777,-34.09691,0 18.32846,-34.09737,0 18.32914,-34.09784,0 18.32977,-34.0983,0 18.33035,-34.09867,0 18.33115,-34.09914,0 18.33187,-34.09959,0 18.33243,-34.09996,0 18.33321,-34.10044,0 18.33388,-34.10083,0 18.33433,-34.1011,0 18.33506,-34.10156,0 18.3359,-34.10197,0 18.33652,-34.10234,0 18.33727,-34.10277,0 18.33796,-34.1031,0 18.33881,-34.10357,0 18.33956,-34.10394,0 18.34022,-34.10422,0 18.34093,-34.10454,0 18.34173,-34.10492,0 18.34252,-34.10522,0 18.34316,-34.10552,0 18.34381,-34.10582,0 18.34442,-34.10603,0 18.34526,-34.10637,0 18.34605,-34.10669,0 18.34683,-34.10701,0 18.34757,-34.10729,0 18.35019,-34.10829,0 18.35175,-34.10887,0 18.35255,-34.10915,0 18.35322,-34.10939,0 18.35409,-34.10971,0 18.35489,-34.10999,0 18.35564,-34.11027,0 18.35644,-34.11059,0 18.35709,-34.11086,0 18.35776,-34.11113,0 18.35855,-34.11143,0 18.35924,-34.11171,0 18.36006,-34.11209,0 18.36079,-34.11241,0 18.3613,-34.11264,0 18.36219,-34.11301,0 18.36303,-34.11333,0 18.3637,-34.11362,0 18.36432,-34.11392,0 18.36525,-34.11427,0 18.36617,-34.11465,0 18.36684,-34.11488,0 18.36771,-34.1152,0 18.36874,-34.11557,0 18.36925,-34.1158,0 18.37015,-34.11612,0 18.37086,-34.11641,0 18.3716,-34.11665,0 18.37246,-34.11697,0 18.37309,-34.1172,0 18.37395,-34.11753,0 18.37486,-34.1179,0 18.37547,-34.11813,0 18.3779,-34.11902,0 18.38013,-34.1199,0 18.38259,-34.12088,0 18.38585,-34.12212,0 18.38837,-34.12308,0 18.39162,-34.12422,0 18.39504,-34.12541,0 18.3984,-34.12656,0 18.40113,-34.12754,0 18.40372,-34.12848,0 18.40703,-34.12976,0 18.41005,-34.13094,0 18.41331,-34.13219,0 18.41572,-34.13313,0 18.41812,-34.1341,0 18.41898,-34.13443,0 18.4197,-34.1347,0 18.42041,-34.13494,0 18.42138,-34.13527,0 18.42224,-34.13554,0 18.42318,-34.1358,0 18.42402,-34.13606,0 18.42491,-34.13626,0 18.42596,-34.13652,0 18.42682,-34.13667,0 18.42756,-34.13685,0 18.42865,-34.13699,0 18.42968,-34.13718,0 18.43054,-34.13727,0 18.43153,-34.13736,0 18.43237,-34.13741,0 18.4334,-34.13745,0 18.43426,-34.1375,0 18.43517,-34.1375,0 18.43607,-34.1375,0 18.437,-34.13745,0 18.43815,-34.13741,0 18.43904,-34.13731,0 18.44015,-34.13718,0 18.44117,-34.13704,0 18.44221,-34.1368,0 18.4433,-34.13658,0 18.44427,-34.13629,0 18.44553,-34.13583,0 18.44644,-34.13539,0 18.4473,-34.13494,0 18.44829,-34.13443,0 18.44913,-34.13387,0 18.45011,-34.13327,0 18.45108,-34.13261,0 18.45182,-34.1321,0 18.45283,-34.13132,0 18.4536,-34.1307,0 18.4544,-34.1301,0 18.45535,-34.12935,0 18.45591,-34.12885,0 18.45709,-34.12793,0 18.45778,-34.1273,0 18.45858,-34.12666,0 18.4595,-34.12587,0 18.46035,-34.12521,0 18.46161,-34.12419,0 18.46241,-34.12349,0 18.46321,-34.12284,0 18.46398,-34.12212,0 18.46488,-34.12134,0 18.46567,-34.12065,0 18.46645,-34.11996,0 18.46723,-34.11928,0 18.46807,-34.11851,0 18.4688,-34.11777,0 18.46956,-34.11702,0 18.47031,-34.11623,0 18.4711,-34.11534,0 18.47174,-34.11464,0 18.47245,-34.11388,0 18.47328,-34.11287,0 18.47401,-34.112,0 18.47458,-34.11118,0 18.4753,-34.11008,0 18.47581,-34.10916,0 18.47631,-34.10811,0 18.47676,-34.10696,0 18.47706,-34.10612,0 18.47738,-34.10518,0 18.47771,-34.10403,0 18.47792,-34.10305,0 18.47815,-34.10194,0 18.47839,-34.10069,0 18.4785,-34.09973,0 18.47867,-34.0984,0 18.47878,-34.09744,0 18.47889,-34.09639,0 18.47895,-34.09533,0 18.479,-34.09435,0 18.47912,-34.09314,0 18.47918,-34.09225,0 18.47923,-34.09109,0 18.47923,-34.09011,0 18.47935,-34.08885,0 18.4794,-34.08792,0 18.47951,-34.08664,0 18.47958,-34.08574,0 18.47973,-34.08453,0 18.47986,-34.08355,0 18.48007,-34.08266,0 18.48032,-34.08155,0 18.48052,-34.08064,0 18.48072,-34.07954,0 18.48108,-34.07817,0 18.48129,-34.07726,0 18.48153,-34.07616,0 18.48175,-34.0751,0 18.48192,-34.07419,0 18.48221,-34.07298,0 18.48242,-34.07176,0 18.48259,-34.07071,0 18.48278,-34.06972,0 18.48338,-34.06659,0 18.48421,-34.06209,0 18.48495,-34.05789,0 18.48547,-34.05431,0 18.48598,-34.05096,0 18.4865,-34.04672,0 18.48674,-34.04352,0 18.48679,-34.0423,0 18.48685,-34.04128,0 18.48684,-34.04007,0 18.48684,-34.0389,0 18.48685,-34.03784,0 18.48685,-34.03665,0 18.48685,-34.03551,0 18.48684,-34.03425,0 18.48685,-34.0334,0 18.4868,-34.03207,0 18.4868,-34.03107,0 18.48685,-34.02745,0 18.4869,-34.02443,0 18.48701,-34.02098,0 18.48702,-34.01715,0 18.48701,-34.01358,0 18.4869,-34.01069,0 18.4868,-34.00836,0 18.4868,-34.00726,0 18.48674,-34.0063,0 18.48667,-34.00492,0 18.48663,-34.00401,0 18.48656,-34.0018,0 18.48656,-34.00087,0 18.48657,-33.99985,0 18.48657,-33.99889,0 18.48667,-33.99738,0 18.48668,-33.99646,0 18.48674,-33.99532,0 18.4868,-33.99417,0 18.48685,-33.99312,0 18.48684,-33.99221,0 18.4869,-33.99096,0 18.48696,-33.98973,0 18.48701,-33.98881,0 18.48702,-33.98758,0 18.48707,-33.98648,0 18.48707,-33.98532,0 18.48719,-33.9822,0 18.48742,-33.97829,0 18.48752,-33.97522,0 18.48747,-33.97219,0 18.48742,-33.97112,0 18.48741,-33.97023,0 18.48736,-33.96941,0 18.48724,-33.96856,0 18.48719,-33.96771,0 18.48707,-33.96698,0 18.48696,-33.96597,0 18.48679,-33.96498,0 18.48673,-33.96428,0 18.48656,-33.96316,0 18.4864,-33.96231,0 18.48616,-33.96144,0 18.48601,-33.96062,0 18.48576,-33.95981,0 18.48545,-33.95869,0 18.48524,-33.95786,0 18.48495,-33.957,0 18.48472,-33.95622,0 18.48444,-33.95531,0 18.48422,-33.95453,0 18.48387,-33.95348,0 18.4836,-33.95274,0 18.48324,-33.95176,0 18.48307,-33.95115,0 18.4827,-33.95018,0 18.48244,-33.94943,0 18.48204,-33.94845,0 18.48175,-33.94766,0 18.48129,-33.94664,0 18.48097,-33.94583,0 18.48066,-33.94501,0 18.48041,-33.94432,0 18.47998,-33.94338,0 18.47969,-33.94263,0 18.47923,-33.94165,0 18.47889,-33.94091,0 18.4785,-33.93993,0 18.47809,-33.93896,0 18.4774,-33.93737,0 18.47626,-33.93471,0 18.47466,-33.93109,0 18.47431,-33.93034,0 18.47379,-33.9294,0 18.4734,-33.92857,0 18.47288,-33.9276,0 18.47237,-33.92671,0 18.47185,-33.92578,0 18.47139,-33.92504,0 18.47088,-33.92413,0 18.47037,-33.92326,0 18.46979,-33.92238,0 18.46936,-33.92171,0 18.4688,-33.92079,0 18.46824,-33.91988,0 18.46757,-33.91891,0 18.46706,-33.91818,0 18.46662,-33.91763,0 18.46577,-33.91653,0 18.46516,-33.91582,0 18.4646,-33.91512,0 18.4639,-33.91433,0 18.46327,-33.91359,0 18.46247,-33.91264,0 18.46196,-33.912,0 18.46115,-33.91107,0 18.46046,-33.91023,0 18.45995,-33.90953,0 18.45926,-33.90865,0 18.4586,-33.90784,0 18.45783,-33.90702,0 18.45715,-33.90628,0 18.45652,-33.90562,0 18.45594,-33.90502,0 18.45509,-33.90413,0 18.4544,-33.90348,0 18.45367,-33.90285,0 18.45303,-33.90237,0 18.45211,-33.90181,0 18.45137,-33.90144,0 18.45079,-33.90115,0 18.44958,-33.90056,0 18.44885,-33.90019,0 18.44799,-33.89985,0 18.44707,-33.89957,0 18.44616,-33.89941,0 18.44532,-33.89941,0 18.44456,-33.89943,0 18.4437,-33.89957,0 18.44278,-33.89967,0 18.4419,-33.89983,0 18.44123,-33.89996,0 18.44027,-33.90019,0 18.43969,-33.90036,0 18.43921,-33.90047,0 18.43887,-33.90056,0 18.43843,-33.90069,0 18.43769,-33.90083,0 18.4373,-33.90088,0 18.43695,-33.90092,0 18.4364,-33.90097,0 18.43612,-33.90097,0 18.43567,-33.90102,0 18.43523,-33.90102,0 18.43495,-33.90102,0 18.43439,-33.90106,0 18.43414,-33.90106,0 18.43363,-33.90106,0 18.43338,-33.90106,0 18.43315,-33.90102,0 18.43271,-33.90102,0 18.43248,-33.90102,0 18.4322,-33.90102,0 18.43197,-33.90102,0 18.43163,-33.90102,0 18.43136,-33.90102,0 18.43094,-33.90102,0 18.43037,-33.90102,0 18.42991,-33.90102,0 18.42872,-33.90097,0 18.42796,-33.90097,0 18.42755,-33.90097,0 18.42728,-33.90102,0 18.42708,-33.90112,0</coordinates>
      </LineString>
    </Placemark>
  </Document>
</kml>
