<?xml version="1.0" encoding="UTF-8"?>
<kml xmlns="http://www.opengis.net/kml/2.2">
  <Document>
    <name>FR24 40c61ef1</name>
    <Placemark>
      <name>FR24 40c61ef1</name>
      <Style><LineStyle><color>ff0000ff</color><width>4</width></LineStyle></Style>
      <LineString>
        <tessellate>1</tessellate>
        <coordinates>18.57239,-33.96741,0 18.57391,-33.96911,0 18.57479,-33.97,0 18.57571,-33.97096,0 18.5768,-33.97227,0 18.57763,-33.97305,0 18.57847,-33.97404,0 18.57954,-33.97465,0 18.5806,-33.97535,0 18.58294,-33.97745,0 18.58425,-33.97862,0 18.58518,-33.97896,0 18.58629,-33.97995,0 18.58709,-33.98072,0 18.58812,-33.98175,0 18.59219,-33.98538,0 18.59315,-33.98601,0 18.59529,-33.98771,0 18.6082,-33.99456,0 18.61917,-33.99734,0 18.62514,-33.99785,0 18.62925,-33.99869,0 18.63073,-33.99906,0 18.63276,-33.99988,0 18.63387,-34.0003,0 18.63514,-34.00068,0 18.63638,-34.00122,0 18.63776,-34.00174,0 18.63924,-34.0023,0 18.64071,-34.0028,0 18.64307,-34.00371,0 18.64598,-34.00464,0 18.64669,-34.0045,0 18.64826,-34.0047,0 18.65286,-34.00572,0 18.6544,-34.00616,0 18.65779,-34.00681,0 18.65882,-34.0072,0 18.66336,-34.00875,0 18.66768,-34.00941,0 18.66974,-34.00966,0 18.67145,-34.01022,0 18.6725,-34.01065,0 18.67443,-34.01142,0 18.67577,-34.01195,0 18.67747,-34.01256,0 18.67866,-34.01291,0 18.67988,-34.01329,0 18.68302,-34.01434,0 18.68435,-34.01469,0 18.68602,-34.01503,0 18.68721,-34.01547,0 18.68854,-34.01592,0 18.6902,-34.01656,0 18.69145,-34.0169,0 18.69285,-34.0173,0 18.69448,-34.01773,0 18.6962,-34.01803,0 18.6974,-34.01846,0 18.69882,-34.01892,0 18.7005,-34.0195,0 18.70216,-34.0199,0 18.70433,-34.02043,0 18.70597,-34.02081,0 18.70713,-34.02113,0 18.70826,-34.0215,0 18.70988,-34.02204,0 18.71145,-34.02249,0 18.71292,-34.02295,0 18.71694,-34.02411,0 18.71857,-34.0246,0 18.72066,-34.02497,0 18.72205,-34.02534,0 18.72383,-34.02564,0 18.72587,-34.02586,0 18.72719,-34.02603,0 18.72974,-34.0266,0 18.73201,-34.02731,0 18.73306,-34.02752,0 18.73473,-34.02804,0 18.73669,-34.02835,0 18.73834,-34.0287,0 18.74234,-34.0298,0 18.74592,-34.02961,0 18.74578,-34.03067,0 18.74758,-34.03122,0 18.74961,-34.03162,0 18.75388,-34.03234,0 18.75777,-34.03331,0 18.75928,-34.034,0 18.76148,-34.03458,0 18.76258,-34.03478,0 18.76576,-34.03552,0 18.76661,-34.03571,0 18.76841,-34.03618,0 18.77004,-34.03685,0 18.7709,-34.03738,0 18.77313,-34.03805,0 18.77743,-34.03904,0 18.77847,-34.03956,0 18.78076,-34.04022,0 18.7822,-34.04089,0 18.78373,-34.04136,0 18.78691,-34.04295,0 18.80557,-34.04964,0 18.80812,-34.05221,0 18.83272,-34.06815,0 18.83566,-34.07084,0 18.83995,-34.0746,0 18.84406,-34.07814,0 18.84639,-34.08097,0 18.84951,-34.08406,0 18.85064,-34.08543,0 18.85298,-34.08678,0 18.86558,-34.09623,0 18.8859,-34.11123,0 18.9052,-34.126,0 18.90872,-34.12897,0 18.91488,-34.13378,0 18.91381,-34.13456,0 18.91792,-34.13771,0 18.91913,-34.13878,0 18.9205,-34.14019,0 18.92161,-34.14142,0 18.92231,-34.14226,0 18.92286,-34.14312,0 18.92344,-34.14435,0 18.92618,-34.14627,0 18.92651,-34.14674,0 18.92734,-34.1474,0 18.92841,-34.14837,0 18.93045,-34.14994,0 18.93231,-34.15115,0 18.9345,-34.1531,0 18.93509,-34.15387,0 18.93626,-34.15516,0 18.93695,-34.15592,0 18.78932,-34.05178,0 18.78541,-34.05803,0 18.78042,-34.05945,0 18.7694,-34.05753,0 18.76709,-34.05832,0 18.76655,-34.0584,0 18.76475,-34.05903,0 18.76249,-34.05991,0 18.75969,-34.06094,0 18.7581,-34.06152,0 18.7569,-34.06186,0 18.75517,-34.06263,0 18.75344,-34.06349,0 18.75199,-34.06419,0 18.75098,-34.06469,0 18.74548,-34.06628,0 18.74441,-34.06666,0 18.74316,-34.06717,0 18.74131,-34.06792,0 18.73929,-34.06882,0 18.73722,-34.06969,0 18.73563,-34.07043,0 18.73461,-34.07087,0 18.73353,-34.07126,0 18.73222,-34.07212,0 18.72913,-34.07259,0 18.72809,-34.07321,0 18.726,-34.07384,0 18.72427,-34.07429,0 18.72254,-34.07496,0 18.72107,-34.07513,0 18.71806,-34.07535,0 18.7162,-34.07522,0 18.715,-34.07538,0 18.71262,-34.07554,0 18.71143,-34.07561,0 18.71088,-34.07555,0 18.70891,-34.07577,0 18.70699,-34.07591,0 18.70521,-34.07595,0 18.70383,-34.07593,0 18.70225,-34.07587,0 18.7004,-34.07605,0 18.69823,-34.07607,0 18.69567,-34.07618,0 18.69438,-34.07623,0 18.69284,-34.07626,0 18.69133,-34.07611,0 18.69057,-34.07608,0 18.68785,-34.07607,0 18.68605,-34.07623,0 18.68439,-34.07633,0 18.68196,-34.07617,0 18.68022,-34.07609,0 18.67832,-34.07611,0 18.67687,-34.07601,0 18.67553,-34.07602,0 18.67418,-34.07595,0 18.67254,-34.07579,0 18.67039,-34.07621,0 18.66873,-34.07577,0 18.66749,-34.07561,0 18.6656,-34.07567,0 18.66416,-34.07555,0 18.6626,-34.07555,0 18.65954,-34.07564,0 18.6591,-34.07542,0 18.65699,-34.07567,0 18.65386,-34.07582,0 18.65257,-34.07558,0 18.65067,-34.07557,0 18.64878,-34.07553,0 18.64776,-34.07554,0 18.64538,-34.07545,0 18.64397,-34.0754,0 18.64214,-34.07535,0 18.63992,-34.07534,0 18.63898,-34.07536,0 18.63723,-34.07532,0 18.63566,-34.07529,0 18.63383,-34.07544,0 18.63186,-34.0756,0 18.6306,-34.07577,0 18.62892,-34.07594,0 18.62681,-34.07613,0 18.62511,-34.07639,0 18.6234,-34.07656,0 18.62113,-34.07677,0 18.61927,-34.077,0 18.6171,-34.07713,0 18.61505,-34.0773,0 18.61291,-34.07753,0 18.61139,-34.07767,0 18.61003,-34.07782,0 18.60823,-34.078,0 18.60672,-34.07822,0 18.60443,-34.07866,0 18.6033,-34.07886,0 18.60211,-34.07907,0 18.59964,-34.07951,0 18.59814,-34.07954,0 18.59604,-34.07998,0 18.59416,-34.08035,0 18.59232,-34.08067,0 18.59067,-34.08095,0 18.5893,-34.08121,0 18.58801,-34.0814,0 18.58648,-34.08175,0 18.5852,-34.0821,0 18.58346,-34.08236,0 18.58211,-34.08256,0 18.5801,-34.08294,0 18.5787,-34.08342,0 18.57702,-34.0839,0 18.5752,-34.08438,0 18.57281,-34.08504,0 18.57114,-34.08549,0 18.56978,-34.08591,0 18.56779,-34.08645,0 18.56667,-34.08675,0 18.5653,-34.0872,0 18.56387,-34.08762,0 18.56207,-34.08814,0 18.5608,-34.08846,0 18.55932,-34.08881,0 18.55733,-34.0893,0 18.55589,-34.08957,0 18.55423,-34.08989,0 18.55253,-34.09029,0 18.55142,-34.09051,0 18.54929,-34.09092,0 18.54788,-34.09121,0 18.54627,-34.09155,0 18.54463,-34.09181,0 18.54335,-34.09209,0 18.54192,-34.09224,0 18.54017,-34.09236,0 18.53846,-34.09255,0 18.53642,-34.09272,0 18.53523,-34.09278,0 18.53371,-34.09282,0 18.53133,-34.09311,0 18.52953,-34.09338,0 18.528,-34.09357,0 18.52633,-34.09363,0 18.52453,-34.09374,0 18.52247,-34.09383,0 18.52164,-34.09379,0 18.51939,-34.09385,0 18.51757,-34.09379,0 18.51569,-34.09358,0 18.51461,-34.09343,0 18.51278,-34.09315,0 18.51096,-34.09288,0 18.50941,-34.09251,0 18.50785,-34.09217,0 18.50662,-34.0919,0 18.50513,-34.09153,0 18.50341,-34.09112,0 18.50172,-34.09081,0 18.49987,-34.09014,0 18.49891,-34.08969,0 18.49731,-34.08895,0 18.49591,-34.08847,0 18.49475,-34.08779,0 18.49319,-34.08698,0 18.49194,-34.08601,0 18.49115,-34.08513,0 18.48972,-34.08411,0 18.48864,-34.08324,0 18.48755,-34.08222,0 18.48676,-34.08104,0 18.48563,-34.07967,0 18.48469,-34.07804,0 18.48433,-34.0771,0 18.4832,-34.07581,0 18.4825,-34.07456,0 18.4818,-34.07325,0 18.4812,-34.07203,0 18.48088,-34.07051,0 18.48027,-34.06904,0 18.47968,-34.06788,0 18.47871,-34.06651,0 18.47829,-34.06544,0 18.47766,-34.06426,0 18.47704,-34.0631,0 18.47678,-34.06197,0 18.47581,-34.06041,0 18.47488,-34.0591,0 18.47458,-34.05765,0 18.47419,-34.05613,0 18.47376,-34.05466,0 18.47318,-34.05315,0 18.47286,-34.05195,0 18.47274,-34.05058,0 18.47244,-34.04923,0 18.47219,-34.04788,0 18.47191,-34.04657,0 18.47203,-34.04504,0 18.47193,-34.04342,0 18.47194,-34.04203,0 18.47182,-34.04031,0 18.4719,-34.03909,0 18.47238,-34.0377,0 18.4725,-34.03592,0 18.47243,-34.03505,0 18.47234,-34.03355,0 18.47286,-34.03185,0 18.47321,-34.03068,0 18.47347,-34.02937,0 18.47398,-34.02803,0 18.47426,-34.02689,0 18.47475,-34.0253,0 18.47557,-34.02362,0 18.476,-34.02203,0 18.47648,-34.02047,0 18.47683,-34.01905,0 18.47725,-34.01746,0 18.47756,-34.01622,0 18.47811,-34.01464,0 18.4785,-34.01289,0 18.4789,-34.01165,0 18.47928,-34.00994,0 18.47937,-34.00869,0 18.47958,-34.00689,0 18.47954,-34.00557,0 18.47933,-34.00403,0 18.47919,-34.0029,0 18.47898,-34.00142,0 18.47884,-33.99976,0 18.47813,-33.99812,0 18.47787,-33.99625,0 18.47739,-33.9951,0 18.47683,-33.99347,0 18.47602,-33.99186,0 18.47534,-33.99027,0 18.47512,-33.98941,0 18.47428,-33.98794,0 18.47389,-33.98684,0 18.47302,-33.98516,0 18.4726,-33.98384,0 18.47202,-33.98262,0 18.4713,-33.98141,0 18.47071,-33.98031,0 18.46959,-33.97863,0 18.46876,-33.97696,0 18.46844,-33.97566,0 18.46787,-33.97415,0 18.46764,-33.97298,0 18.46726,-33.97163,0 18.46685,-33.97019,0 18.46646,-33.96892,0 18.4659,-33.96754,0 18.46539,-33.96628,0 18.46474,-33.96471,0 18.46404,-33.96296,0 18.46355,-33.96178,0 18.46302,-33.96035,0 18.4627,-33.95926,0 18.46221,-33.95758,0 18.46278,-33.95546,0 18.46123,-33.95372,0 18.46106,-33.95272,0 18.46083,-33.95116,0 18.46043,-33.94986,0 18.46019,-33.94851,0 18.46012,-33.9473,0 18.45711,-33.94433,0 18.45943,-33.94462,0 18.46038,-33.94288,0 18.45744,-33.9399,0 18.45243,-33.93748,0 18.45566,-33.93811,0 18.45531,-33.93193,0 18.45443,-33.93092,0 18.45432,-33.92282,0 18.45488,-33.92097,0 18.45241,-33.91507,0 18.4534,-33.914,0 18.45306,-33.91154,0 18.45601,-33.91079,0 18.46207,-33.90985,0 18.44946,-33.90548,0 18.45501,-33.90598,0 18.45458,-33.90362,0 18.44172,-33.89796,0 18.44103,-33.8976,0 18.43984,-33.89741,0</coordinates>
      </LineString>
    </Placemark>
  </Document>
</kml>
