<?xml version="1.0" encoding="UTF-8"?>
<kml xmlns="http://www.opengis.net/kml/2.2">
  <Document>
    <name>FR24 41a36953</name>
    <Placemark>
      <name>FR24 41a36953</name>
      <Style><LineStyle><color>ff0000ff</color><width>4</width></LineStyle></Style>
      <LineString>
        <tessellate>1</tessellate>
        <coordinates>18.42906,-33.89854,0 18.42828,-33.89859,0 18.42796,-33.89883,0 18.42788,-33.89928,0 18.42813,-33.89948,0 18.42834,-33.89961,0 18.42889,-33.89978,0 18.42962,-33.89994,0 18.43048,-33.90009,0 18.43071,-33.90009,0 18.43158,-33.90015,0 18.43209,-33.90015,0 18.4327,-33.90015,0 18.43334,-33.90004,0 18.4341,-33.89987,0 18.43466,-33.89971,0 18.43528,-33.89951,0 18.43592,-33.8992,0 18.4366,-33.89883,0 18.43712,-33.89841,0 18.43758,-33.89786,0 18.43792,-33.89726,0 18.43815,-33.89669,0 18.43831,-33.89607,0 18.43838,-33.89561,0 18.43848,-33.89488,0 18.43855,-33.89413,0 18.43861,-33.89352,0 18.43859,-33.89246,0 18.43855,-33.8918,0 18.43853,-33.89127,0 18.43843,-33.89059,0 18.43826,-33.88984,0 18.43809,-33.88898,0 18.43786,-33.88831,0 18.43763,-33.8877,0 18.4373,-33.88701,0 18.43689,-33.88626,0 18.43646,-33.88564,0 18.43607,-33.88509,0 18.43552,-33.88454,0 18.43495,-33.88403,0 18.43433,-33.88362,0 18.43374,-33.88319,0 18.43299,-33.8828,0 18.43208,-33.88235,0 18.4313,-33.88211,0 18.43048,-33.88188,0 18.42957,-33.88169,0 18.42872,-33.88161,0 18.42802,-33.88156,0 18.42716,-33.88146,0 18.42607,-33.88142,0 18.42505,-33.88142,0 18.42407,-33.88146,0 18.42304,-33.88151,0 18.42218,-33.8816,0 18.42116,-33.88165,0 18.42032,-33.88174,0 18.41932,-33.88184,0 18.41841,-33.88193,0 18.41755,-33.88202,0 18.41656,-33.88216,0 18.41578,-33.88221,0 18.41471,-33.88234,0 18.41377,-33.88244,0 18.41291,-33.88253,0 18.41202,-33.88261,0 18.41101,-33.88275,0 18.40995,-33.88289,0 18.40911,-33.88298,0 18.40804,-33.88316,0 18.40725,-33.88328,0 18.40636,-33.88344,0 18.40541,-33.88362,0 18.40433,-33.88379,0 18.40372,-33.88394,0 18.40273,-33.88412,0 18.40176,-33.88435,0 18.40084,-33.88458,0 18.4001,-33.88477,0 18.39913,-33.88499,0 18.39832,-33.88523,0 18.39741,-33.88551,0 18.39627,-33.88591,0 18.39535,-33.88621,0 18.3942,-33.88663,0 18.39324,-33.88701,0 18.39226,-33.88742,0 18.39128,-33.88788,0 18.39022,-33.88834,0 18.389,-33.88887,0 18.38785,-33.88942,0 18.38663,-33.89003,0 18.38568,-33.89049,0 18.38461,-33.89104,0 18.38332,-33.89172,0 18.38242,-33.89227,0 18.38133,-33.89296,0 18.38013,-33.89375,0 18.37906,-33.89447,0 18.37811,-33.89516,0 18.3771,-33.89589,0 18.37626,-33.89658,0 18.37519,-33.89745,0 18.3743,-33.89818,0 18.3734,-33.89891,0 18.37252,-33.89971,0 18.37149,-33.90056,0 18.37063,-33.90134,0 18.3696,-33.90223,0 18.3688,-33.90294,0 18.36802,-33.90367,0 18.36712,-33.9045,0 18.36611,-33.90544,0 18.36519,-33.90637,0 18.36433,-33.90721,0 18.36359,-33.908,0 18.36273,-33.90893,0 18.36182,-33.90991,0 18.36113,-33.91068,0 18.36034,-33.91154,0 18.35947,-33.91251,0 18.35873,-33.91344,0 18.35804,-33.91429,0 18.35737,-33.91516,0 18.35675,-33.91603,0 18.35609,-33.91698,0 18.35529,-33.91815,0 18.35473,-33.91901,0 18.35406,-33.92015,0 18.35356,-33.92111,0 18.353,-33.92215,0 18.35249,-33.92331,0 18.35199,-33.92455,0 18.35163,-33.92555,0 18.35109,-33.92702,0 18.35072,-33.92811,0 18.35031,-33.9294,0 18.34997,-33.93053,0 18.34957,-33.93174,0 18.34924,-33.93288,0 18.34894,-33.93402,0 18.34863,-33.93507,0 18.34823,-33.93654,0 18.34801,-33.93736,0 18.34757,-33.93909,0 18.34723,-33.94035,0 18.34682,-33.94175,0 18.34648,-33.94277,0 18.34616,-33.94395,0 18.34566,-33.94556,0 18.34517,-33.94701,0 18.34471,-33.9485,0 18.34431,-33.94972,0 18.34386,-33.95123,0 18.34345,-33.95269,0 18.34299,-33.95409,0 18.34263,-33.95544,0 18.34229,-33.95663,0 18.34202,-33.9579,0 18.34173,-33.95939,0 18.34167,-33.9607,0 18.34196,-33.96304,0 18.34593,-33.96753,0 18.34911,-33.96782,0 18.35186,-33.96661,0 18.35295,-33.96535,0 18.35361,-33.964,0 18.35473,-33.96011,0 18.3553,-33.95728,0 18.35558,-33.95539,0 18.35581,-33.9538,0 18.35591,-33.95284,0 18.35609,-33.95152,0 18.35621,-33.9505,0 18.35627,-33.9498,0 18.3567,-33.94588,0 18.35701,-33.94226,0 18.35748,-33.93874,0 18.35771,-33.93759,0 18.35793,-33.93653,0 18.35815,-33.93553,0 18.35844,-33.93435,0 18.35872,-33.93343,0 18.35918,-33.93197,0 18.35958,-33.93104,0 18.3601,-33.92992,0 18.36056,-33.92895,0 18.36096,-33.92811,0 18.36159,-33.92685,0 18.36208,-33.92592,0 18.36258,-33.92496,0 18.36319,-33.92387,0 18.36382,-33.92276,0 18.36433,-33.92183,0 18.36485,-33.92094,0 18.3655,-33.91978,0 18.36594,-33.91894,0 18.36656,-33.91782,0 18.36707,-33.9169,0 18.36774,-33.9158,0 18.36828,-33.91498,0 18.36886,-33.91415,0 18.3697,-33.9131,0 18.37043,-33.91223,0 18.37121,-33.9115,0 18.37189,-33.91086,0 18.3728,-33.90995,0 18.37372,-33.90911,0 18.37452,-33.90842,0 18.37547,-33.90756,0 18.37629,-33.90688,0 18.37721,-33.90609,0 18.37801,-33.90539,0 18.3791,-33.90446,0 18.38001,-33.90372,0 18.38099,-33.90297,0 18.3819,-33.90227,0 18.38271,-33.90166,0 18.38371,-33.90092,0 18.38456,-33.90033,0 18.38545,-33.89973,0 18.38668,-33.89891,0 18.38758,-33.89832,0 18.38848,-33.8978,0 18.3896,-33.89708,0 18.39066,-33.89641,0 18.39163,-33.89585,0 18.39263,-33.89525,0 18.39375,-33.89461,0 18.39506,-33.89389,0 18.39621,-33.89324,0 18.39741,-33.89268,0 18.39868,-33.89204,0 18.39958,-33.89163,0 18.40078,-33.89105,0 18.40182,-33.89053,0 18.40307,-33.88998,0 18.40434,-33.88943,0 18.40553,-33.88896,0 18.40633,-33.88863,0 18.40742,-33.88824,0 18.40877,-33.88779,0 18.40988,-33.88737,0 18.41135,-33.88696,0 18.41251,-33.88663,0 18.41353,-33.88641,0 18.41497,-33.88607,0 18.41606,-33.88586,0 18.41749,-33.8856,0 18.41852,-33.88545,0 18.42026,-33.88518,0 18.4211,-33.88509,0 18.42264,-33.88496,0 18.42407,-33.88491,0 18.42545,-33.88491,0 18.42693,-33.88509,0 18.42819,-33.88533,0 18.42945,-33.88565,0 18.43097,-33.88623,0 18.43214,-33.88672,0 18.43334,-33.88733,0 18.43461,-33.88815,0 18.43556,-33.88889,0 18.43674,-33.88994,0 18.43758,-33.89105,0 18.43825,-33.89236,0 18.43838,-33.89338,0 18.43837,-33.89433,0 18.43803,-33.89529,0 18.43758,-33.89603,0 18.43685,-33.89667,0 18.43567,-33.89726,0 18.43472,-33.89743,0 18.43343,-33.8974,0 18.43237,-33.89726,0 18.43128,-33.89697,0 18.43002,-33.89655,0 18.42922,-33.89618,0 18.42831,-33.89585,0 18.42728,-33.89552,0 18.42676,-33.89548,0 18.4257,-33.89557,0 18.42522,-33.89585,0 18.42493,-33.89622,0 18.42493,-33.89673,0 18.4251,-33.89711,0 18.42539,-33.89743,0 18.42587,-33.8979,0 18.42615,-33.89818,0 18.42653,-33.89859,0 18.42676,-33.89896,0 18.42693,-33.89929,0 18.4271,-33.89973,0 18.4271,-33.90004,0 18.42699,-33.90028,0 18.42687,-33.9006,0 18.42687,-33.90083,0 18.42708,-33.90098,0 18.42828,-33.90079,0 18.42951,-33.90064,0 18.42997,-33.9006,0 18.43063,-33.90051,0 18.43114,-33.90047,0 18.43197,-33.90036,0 18.43276,-33.90028,0 18.43351,-33.90018,0 18.43433,-33.90005,0 18.43517,-33.89992,0 18.4358,-33.89981,0 18.43655,-33.89967,0 18.43719,-33.89951,0 18.43763,-33.89934,0 18.4382,-33.89905,0 18.43855,-33.89883,0 18.43901,-33.8985,0 18.43935,-33.89804,0 18.43966,-33.89754,0 18.43981,-33.89711,0 18.43994,-33.89662,0 18.43992,-33.89599,0 18.43994,-33.89543,0 18.43988,-33.89484,0 18.43977,-33.89424,0 18.43964,-33.89347,0 18.43946,-33.89273,0 18.43941,-33.89222,0 18.43921,-33.89127,0 18.43901,-33.89045,0 18.43881,-33.88948,0 18.43866,-33.88873,0 18.43855,-33.88798,0 18.43821,-33.88705,0 18.43792,-33.88632,0 18.43758,-33.88565,0 18.43712,-33.88505,0 18.43632,-33.88416,0 18.4358,-33.8837,0 18.43506,-33.88314,0 18.43416,-33.88252,0 18.43327,-33.88202,0 18.43248,-33.88161,0 18.43168,-33.88128,0 18.43063,-33.88092,0 18.42951,-33.88063,0 18.42848,-33.88039,0 18.4276,-33.88023,0 18.42671,-33.8801,0 18.42579,-33.87997,0 18.4248,-33.87987,0 18.42334,-33.87973,0 18.42236,-33.87965,0 18.42138,-33.8796,0 18.42015,-33.87959,0 18.41887,-33.8796,0 18.41755,-33.87965,0 18.41662,-33.87968,0 18.41555,-33.87979,0 18.41423,-33.87993,0 18.41314,-33.88007,0 18.41208,-33.88019,0 18.41112,-33.88033,0 18.40988,-33.88053,0 18.40883,-33.88074,0 18.40782,-33.88091,0 18.40686,-33.8811,0 18.40565,-33.88132,0 18.40462,-33.88156,0 18.40364,-33.88184,0 18.40221,-33.88226,0 18.40078,-33.88268,0 18.40003,-33.88293,0 18.39861,-33.88342,0 18.3975,-33.8838,0 18.39632,-33.8843,0 18.3952,-33.88477,0 18.39408,-33.88531,0 18.39272,-33.88607,0 18.39173,-33.8866,0 18.39044,-33.88737,0 18.38949,-33.88802,0 18.38825,-33.88877,0 18.38711,-33.88956,0 18.38614,-33.89031,0 18.38511,-33.89124,0 18.38433,-33.892,0 18.38333,-33.89296,0 18.38243,-33.89388,0 18.38158,-33.89474,0 18.38053,-33.89576,0 18.3799,-33.89641,0 18.37887,-33.89748,0 18.37788,-33.89854,0 18.37688,-33.89955,0 18.37612,-33.90036,0 18.37532,-33.9012,0 18.37452,-33.90204,0 18.37351,-33.90303,0 18.3725,-33.90408,0 18.37149,-33.90502,0 18.3706,-33.90587,0 18.36981,-33.90656,0 18.36886,-33.90747,0 18.36701,-33.90916,0 18.36599,-33.91014,0 18.36502,-33.91112,0 18.36416,-33.91205,0 18.36336,-33.91302,0 18.36258,-33.91397,0 18.36164,-33.91507,0 18.3609,-33.91608,0 18.36021,-33.91693,0 18.35933,-33.91827,0 18.35866,-33.91937,0 18.35804,-33.92033,0 18.35731,-33.92157,0 18.3567,-33.92258,0 18.35598,-33.92382,0 18.35535,-33.92491,0 18.35461,-33.92629,0 18.35398,-33.92751,0 18.35329,-33.92871,0 18.35272,-33.92974,0 18.35205,-33.931,0 18.35146,-33.93206,0 18.34947,-33.93576,0 18.34751,-33.93951,0 18.34574,-33.94347,0 18.34528,-33.94459,0 18.34481,-33.94574,0 18.34414,-33.94752,0 18.34369,-33.94858,0 18.34313,-33.95009,0 18.34265,-33.95152,0 18.34212,-33.95297,0 18.34156,-33.95448,0 18.34106,-33.9559,0 18.34055,-33.95714,0 18.33999,-33.95865,0 18.33825,-33.96272,0 18.3373,-33.96465,0 18.33674,-33.9657,0 18.33601,-33.96693,0 18.33506,-33.96849,0 18.33441,-33.96954,0 18.33372,-33.97073,0 18.33315,-33.97173,0 18.33223,-33.97331,0 18.33143,-33.97471,0 18.3308,-33.97581,0 18.33,-33.97741,0 18.32909,-33.97908,0 18.32863,-33.97987,0 18.32777,-33.98141,0 18.32542,-33.98552,0 18.32342,-33.98919,0 18.32153,-33.99249,0 18.32102,-33.99347,0 18.32043,-33.99449,0 18.31841,-33.99802,0 18.31651,-34.00131,0 18.31352,-34.00641,0 18.31135,-34.00992,0 18.30894,-34.01363,0 18.307,-34.01656,0 18.3063,-34.0177,0 18.30528,-34.01926,0 18.3046,-34.02037,0 18.30373,-34.02191,0 18.30322,-34.02283,0 18.30242,-34.02438,0 18.30188,-34.02548,0 18.3012,-34.0269,0 18.30059,-34.0281,0 18.30002,-34.02927,0 18.29939,-34.03053,0 18.29885,-34.03171,0 18.29829,-34.03308,0 18.2979,-34.03427,0 18.29762,-34.03574,0 18.29756,-34.03718,0 18.29767,-34.03839,0 18.29795,-34.03963,0 18.29836,-34.04072,0 18.29913,-34.04205,0 18.2999,-34.043,0 18.30082,-34.04379,0 18.30214,-34.04454,0 18.30374,-34.04491,0 18.30485,-34.04498,0 18.30614,-34.04472,0 18.30717,-34.04435,0 18.30832,-34.04361,0 18.30888,-34.04311,0 18.30975,-34.04216,0 18.31055,-34.04114,0 18.31106,-34.0403,0 18.31169,-34.03928,0 18.31226,-34.0382,0 18.31278,-34.03737,0 18.31324,-34.03653,0 18.31382,-34.03537,0 18.31443,-34.03432,0 18.3149,-34.03345,0 18.31539,-34.03258,0 18.31583,-34.0318,0 18.31638,-34.0308,0 18.3169,-34.02992,0 18.31735,-34.02914,0 18.31781,-34.02834,0 18.31931,-34.02548,0 18.31976,-34.02448,0 18.32026,-34.02351,0 18.32067,-34.02261,0 18.32105,-34.02168,0 18.32144,-34.02086,0 18.32193,-34.01977,0 18.32245,-34.01862,0 18.32285,-34.01772,0 18.32402,-34.01514,0 18.32525,-34.01237,0 18.32705,-34.00896,0 18.32833,-34.00639,0 18.32989,-34.00324,0 18.33138,-34.00017,0 18.33309,-33.99673,0 18.33481,-33.99347,0 18.3363,-33.99077,0 18.33841,-33.98681,0 18.33996,-33.98397,0 18.34179,-33.98043,0 18.34333,-33.97746,0 18.34471,-33.97466,0 18.34526,-33.97362,0 18.34562,-33.97275,0 18.34614,-33.97154,0 18.3466,-33.97052,0 18.34688,-33.96973,0 18.34734,-33.96858,0 18.3478,-33.96749,0 18.34826,-33.96633,0 18.3486,-33.9654,0 18.34907,-33.96428,0 18.34947,-33.96327,0 18.3507,-33.96021,0 18.35203,-33.95688,0 18.35323,-33.9539,0 18.35398,-33.9519,0 18.35434,-33.951,0 18.35473,-33.94995,0 18.35507,-33.94908,0 18.35541,-33.94799,0 18.35574,-33.94711,0 18.35614,-33.94606,0 18.35747,-33.94217,0 18.35855,-33.93909,0 18.35958,-33.93588,0 18.3609,-33.93192,0 18.36208,-33.92857,0 18.36247,-33.92752,0 18.3632,-33.92564,0 18.36376,-33.92429,0 18.36422,-33.92318,0 18.36471,-33.92216,0 18.36519,-33.92117,0 18.36582,-33.91991,0 18.36639,-33.91898,0 18.36708,-33.91792,0 18.36788,-33.91684,0 18.36875,-33.9158,0 18.3696,-33.91498,0 18.37034,-33.91414,0 18.37114,-33.91335,0 18.37217,-33.91237,0 18.37312,-33.91145,0 18.37396,-33.91068,0 18.37503,-33.90972,0 18.37604,-33.90884,0 18.37721,-33.90784,0 18.37807,-33.90716,0 18.3791,-33.90628,0 18.38018,-33.90544,0 18.38119,-33.90459,0 18.38214,-33.90381,0 18.38304,-33.90312,0 18.38413,-33.90223,0 18.38505,-33.90148,0 18.38601,-33.9007,0 18.38722,-33.89967,0 18.3882,-33.89887,0 18.38938,-33.89786,0 18.3901,-33.89726,0 18.39128,-33.8963,0 18.39218,-33.89557,0 18.39336,-33.89465,0 18.39432,-33.89389,0 18.39565,-33.89287,0 18.39677,-33.892,0 18.39775,-33.89128,0 18.3989,-33.89045,0 18.40003,-33.88966,0 18.40078,-33.88914,0 18.40204,-33.88835,0 18.40336,-33.88752,0 18.40468,-33.88673,0 18.40599,-33.88593,0 18.40703,-33.88541,0 18.4081,-33.88481,0 18.40965,-33.88403,0 18.41112,-33.88344,0 18.4123,-33.88303,0 18.41331,-33.88271,0 18.41486,-33.88235,0 18.41646,-33.88207,0 18.41763,-33.88197,0 18.41932,-33.88193,0 18.4206,-33.88202,0 18.42189,-33.88216,0 18.4235,-33.88244,0 18.42486,-33.88284,0 18.42643,-33.88339,0 18.42766,-33.88399,0 18.429,-33.88477,0 18.42996,-33.88545,0 18.431,-33.88635,0 18.43186,-33.88715,0 18.43266,-33.88794,0 18.43343,-33.88879,0 18.4341,-33.88953,0 18.43467,-33.8903,0 18.43534,-33.89131,0 18.43562,-33.89204,0 18.43573,-33.89305,0 18.43546,-33.89403,0 18.43506,-33.89459,0 18.43414,-33.89529,0 18.43332,-33.89557,0 18.43214,-33.89576,0 18.43128,-33.89571,0 18.43018,-33.89548,0 18.42928,-33.8952,0 18.42844,-33.89493,0 18.42739,-33.89455,0 18.42648,-33.89426,0 18.42573,-33.89417,0 18.42469,-33.89429,0 18.42402,-33.89461,0 18.42367,-33.89501,0 18.42346,-33.89557,0 18.42367,-33.89622,0 18.42402,-33.89664,0 18.42441,-33.89703,0 18.42487,-33.89743,0 18.42545,-33.8979,0 18.42585,-33.89822,0 18.4263,-33.89864,0 18.42676,-33.89909,0 18.42693,-33.89932,0 18.4271,-33.89969,0 18.4271,-33.90005,0 18.42699,-33.90032,0 18.42687,-33.90056,0 18.42688,-33.90078,0 18.42693,-33.90102,0 18.42721,-33.9012,0 18.42768,-33.90144,0 18.42825,-33.90153,0 18.4285,-33.90157,0 18.42895,-33.90152,0 18.42945,-33.90148,0 18.42974,-33.90144,0 18.43042,-33.90129,0 18.43105,-33.90115,0 18.43163,-33.90102,0 18.43237,-33.90088,0 18.43304,-33.90074,0 18.43366,-33.9006,0 18.43449,-33.90046,0 18.43506,-33.90033,0 18.43575,-33.90018,0 18.43655,-33.89999,0 18.43712,-33.89981,0 18.43781,-33.89946,0 18.43832,-33.89911,0 18.43887,-33.8985,0 18.43926,-33.89804,0 18.43954,-33.89745,0 18.43982,-33.89671,0 18.43999,-33.89612,0 18.44005,-33.89557,0 18.44015,-33.89487,0 18.44015,-33.89394,0 18.44009,-33.89333,0 18.44005,-33.89273,0 18.43994,-33.89191,0 18.43981,-33.8911,0 18.43966,-33.89044,0 18.43943,-33.8898,0 18.43912,-33.88896,0 18.43884,-33.88817,0 18.43848,-33.88747,0 18.43803,-33.88668,0 18.43758,-33.88605,0 18.43712,-33.88542,0 18.43657,-33.88486,0 18.43575,-33.88416,0 18.43489,-33.88367,0 18.4341,-33.88335,0 18.43332,-33.88303,0 18.43237,-33.8828,0 18.4313,-33.88257,0 18.43041,-33.88239,0 18.42934,-33.8822,0 18.42836,-33.88207,0 18.42756,-33.88198,0 18.4262,-33.88184,0 18.42533,-33.88174,0 18.4243,-33.88165,0 18.42304,-33.88156,0 18.42218,-33.88151,0 18.42093,-33.88146,0 18.42001,-33.88142,0 18.4188,-33.88138,0 18.41772,-33.88132,0 18.41679,-33.88133,0 18.41566,-33.88129,0 18.41443,-33.88124,0 18.41314,-33.88123,0 18.412,-33.88123,0 18.41108,-33.88128,0 18.40984,-33.88129,0 18.40866,-33.88129,0 18.40771,-33.88132,0 18.40673,-33.88132,0 18.40542,-33.88142,0 18.40405,-33.88151,0 18.4029,-33.8816,0 18.40187,-33.88174,0 18.40084,-33.88188,0 18.39958,-33.88207,0 18.39812,-33.88234,0 18.39718,-33.88253,0 18.39615,-33.88277,0 18.395,-33.88309,0 18.39386,-33.88344,0 18.39296,-33.88376,0 18.39214,-33.88412,0 18.39106,-33.88467,0 18.39025,-33.88509,0 18.38928,-33.8857,0 18.38837,-33.88626,0 18.38736,-33.88692,0 18.38635,-33.8876,0 18.38562,-33.88815,0 18.38482,-33.88877,0 18.38402,-33.88938,0 18.38304,-33.89021,0 18.38224,-33.89091,0 18.3815,-33.89161,0 18.38074,-33.89236,0 18.3799,-33.89314,0 18.37901,-33.89406,0 18.37833,-33.8947,0 18.37744,-33.89566,0 18.37669,-33.89641,0 18.37604,-33.89713,0 18.37525,-33.8979,0 18.3743,-33.89886,0 18.37368,-33.89955,0 18.37295,-33.90028,0 18.37206,-33.9012,0 18.3712,-33.90208,0 18.3706,-33.90276,0 18.36981,-33.90358,0 18.36891,-33.90451,0 18.36828,-33.9052,0 18.36731,-33.90623,0 18.36662,-33.90702,0 18.36565,-33.90809,0 18.36485,-33.90898,0 18.3641,-33.9099,0 18.36337,-33.91072,0 18.36247,-33.91177,0 18.3617,-33.91265,0 18.36118,-33.91333,0 18.35958,-33.91531,0 18.35867,-33.91647,0 18.35798,-33.9174,0 18.35695,-33.91885,0 18.35627,-33.91982,0 18.35546,-33.92103,0 18.35468,-33.92216,0 18.35401,-33.92322,0 18.35345,-33.92404,0 18.35278,-33.92513,0 18.3521,-33.92624,0 18.35135,-33.92751,0 18.35072,-33.92857,0 18.35014,-33.92967,0 18.34946,-33.93095,0 18.34896,-33.93196,0 18.34818,-33.93356,0 18.34767,-33.93466,0 18.34723,-33.9357,0 18.34665,-33.937,0 18.34621,-33.93805,0 18.34574,-33.93919,0 18.34515,-33.9407,0 18.34481,-33.94167,0 18.34425,-33.94305,0 18.34381,-33.94437,0 18.34328,-33.94585,0 18.34282,-33.9472,0 18.3424,-33.94839,0 18.34196,-33.94977,0 18.34162,-33.95097,0 18.34116,-33.95236,0 18.34076,-33.9539,0 18.34033,-33.95526,0 18.34002,-33.95646,0 18.33966,-33.95796,0 18.34246,-33.96387,0 18.34534,-33.96414,0 18.3479,-33.96291,0 18.3498,-33.96085,0 18.35104,-33.95856,0 18.35209,-33.95613,0 18.35266,-33.95455,0 18.35316,-33.9532,0 18.35356,-33.95206,0 18.35395,-33.95087,0 18.35432,-33.94966,0 18.35462,-33.94867,0 18.35495,-33.94752,0 18.35524,-33.94645,0 18.35552,-33.94547,0 18.35587,-33.94431,0 18.35608,-33.94345,0 18.35638,-33.94231,0 18.35658,-33.94153,0 18.35692,-33.94043,0 18.35724,-33.93919,0 18.35752,-33.93812,0 18.35804,-33.93612,0 18.35832,-33.93517,0 18.35867,-33.93402,0 18.35896,-33.93304,0 18.35918,-33.9323,0 18.35956,-33.93127,0 18.35995,-33.93013,0 18.36027,-33.92923,0 18.36068,-33.92825,0 18.36107,-33.92718,0 18.36142,-33.92634,0 18.36187,-33.92536,0 18.3623,-33.92459,0 18.36281,-33.92354,0 18.3633,-33.92271,0 18.36376,-33.92192,0 18.36422,-33.92113,0 18.36477,-33.92029,0 18.36542,-33.91927,0 18.36595,-33.91855,0 18.36668,-33.91754,0 18.3674,-33.91653,0 18.36828,-33.91545,0 18.36892,-33.91461,0 18.3696,-33.91382,0 18.37051,-33.91279,0 18.37121,-33.912,0 18.37194,-33.91127,0 18.3728,-33.91037,0 18.37357,-33.90962,0 18.37441,-33.9088,0 18.37509,-33.90814,0 18.37626,-33.90706,0 18.37699,-33.90642,0 18.37788,-33.90564,0 18.37873,-33.90495,0 18.37968,-33.90413,0 18.38036,-33.90358,0 18.38116,-33.90297,0 18.38207,-33.90223,0 18.38305,-33.90153,0 18.38383,-33.90092,0 18.38484,-33.90019,0 18.38568,-33.8996,0 18.38654,-33.89897,0 18.38734,-33.89836,0 18.38831,-33.89763,0 18.38911,-33.89706,0 18.39014,-33.89631,0 18.39111,-33.89561,0 18.39191,-33.89501,0 18.39296,-33.89429,0 18.39386,-33.8936,0 18.39476,-33.89291,0 18.39581,-33.89217,0 18.39672,-33.89147,0 18.39781,-33.89068,0 18.39862,-33.89012,0 18.39963,-33.88934,0 18.40061,-33.88863,0 18.40176,-33.88784,0 18.4029,-33.8871,0 18.40382,-33.88649,0 18.40496,-33.88577,0 18.40588,-33.88523,0 18.40709,-33.88458,0 18.40839,-33.88393,0 18.40961,-33.88339,0 18.41096,-33.88289,0 18.41188,-33.88258,0 18.41337,-33.88216,0 18.41454,-33.88197,0 18.41578,-33.88179,0 18.41749,-33.88169,0 18.41875,-33.88174,0 18.42018,-33.88193,0 18.42173,-33.88221,0 18.42295,-33.88252,0 18.4239,-33.8828,0 18.42547,-33.8833,0 18.42671,-33.8838,0 18.42768,-33.88421,0 18.42859,-33.88463,0 18.42973,-33.88522,0 18.43069,-33.88582,0 18.4317,-33.88651,0 18.43243,-33.88705,0 18.43338,-33.88779,0 18.43426,-33.88858,0 18.43483,-33.88921,0 18.43546,-33.88993,0 18.43612,-33.8909,0 18.43657,-33.89163,0 18.43708,-33.8925,0 18.4374,-33.89324,0 18.43752,-33.89394,0 18.43752,-33.89464,0 18.43719,-33.89529,0 18.4366,-33.89589,0 18.43592,-33.89622,0 18.43483,-33.8965,0 18.43409,-33.89659,0 18.43332,-33.89667,0 18.43254,-33.89671,0 18.43163,-33.89669,0 18.43091,-33.89662,0 18.42996,-33.89648,0 18.42928,-33.89641,0 18.4285,-33.8963,0 18.42755,-33.8963,0 18.42704,-33.89648,0 18.42648,-33.89682,0 18.42625,-33.89711,0 18.42598,-33.89763,0 18.42602,-33.89813,0 18.42619,-33.89859,0 18.42636,-33.89887,0 18.42665,-33.8992,0 18.42699,-33.89946,0 18.42728,-33.89962,0 18.42751,-33.89967,0 18.42783,-33.89964,0 18.42805,-33.8996,0 18.42828,-33.8996,0</coordinates>
      </LineString>
    </Placemark>
  </Document>
</kml>
