<?xml version="1.0" encoding="UTF-8"?>
<kml xmlns="http://www.opengis.net/kml/2.2">
  <Document>
    <name>FR24 4187cd44</name>
    <Placemark>
      <name>FR24 4187cd44</name>
      <Style><LineStyle><color>ff0000ff</color><width>4</width></LineStyle></Style>
      <LineString>
        <tessellate>1</tessellate>
        <coordinates>18.43397,-33.89017,0 18.43546,-33.88784,0 18.43569,-33.88742,0 18.43603,-33.88663,0 18.43624,-33.88596,0 18.43643,-33.88509,0 18.43643,-33.88444,0 18.4364,-33.88371,0 18.43632,-33.88305,0 18.43612,-33.88216,0 18.43586,-33.88151,0 18.43557,-33.88058,0 18.43534,-33.87991,0 18.43517,-33.8789,0 18.43517,-33.87817,0 18.43528,-33.87762,0 18.43567,-33.87675,0 18.43612,-33.8763,0 18.437,-33.87583,0 18.43792,-33.8757,0 18.43853,-33.87575,0 18.43952,-33.87597,0 18.44027,-33.8763,0 18.44118,-33.87672,0 18.4421,-33.87718,0 18.44285,-33.87762,0 18.44352,-33.87808,0 18.44408,-33.87849,0 18.44484,-33.87914,0 18.4452,-33.87964,0 18.44542,-33.88039,0 18.4453,-33.88123,0 18.4449,-33.88188,0 18.44419,-33.88248,0 18.4433,-33.8828,0 18.4421,-33.88291,0 18.44089,-33.88284,0 18.43992,-33.88277,0 18.4387,-33.88261,0 18.43769,-33.88248,0 18.43674,-33.88234,0 18.43569,-33.88221,0 18.43449,-33.88198,0 18.43351,-33.88184,0 18.43259,-33.88165,0 18.4313,-33.88142,0 18.43048,-33.88123,0 18.42923,-33.88101,0 18.42788,-33.88074,0 18.4267,-33.88049,0 18.42567,-33.8803,0 18.4248,-33.88019,0 18.42339,-33.87997,0 18.42258,-33.87988,0 18.42105,-33.87973,0 18.41995,-33.8796,0 18.41886,-33.8795,0 18.41751,-33.87946,0 18.41635,-33.87941,0 18.41533,-33.87946,0 18.41404,-33.8795,0 18.41297,-33.87959,0 18.41166,-33.8797,0 18.41045,-33.87983,0 18.4096,-33.87997,0 18.40834,-33.88011,0 18.40703,-33.88033,0 18.4058,-33.88051,0 18.40473,-33.88069,0 18.40367,-33.88087,0 18.40244,-33.88109,0 18.40137,-33.88133,0 18.39993,-33.88165,0 18.39907,-33.88184,0 18.39769,-33.88221,0 18.39638,-33.88261,0 18.39518,-33.883,0 18.39392,-33.88348,0 18.39291,-33.8839,0 18.39197,-33.8843,0 18.391,-33.88477,0 18.38966,-33.88541,0 18.3887,-33.88596,0 18.38785,-33.88649,0 18.38682,-33.88714,0 18.38573,-33.88788,0 18.38489,-33.88843,0 18.38396,-33.8891,0 18.38293,-33.88985,0 18.38181,-33.89072,0 18.38093,-33.89138,0 18.37996,-33.89212,0 18.37912,-33.89287,0 18.37807,-33.89375,0 18.37704,-33.89465,0 18.37624,-33.89538,0 18.37521,-33.89636,0 18.37452,-33.89701,0 18.3736,-33.89804,0 18.3729,-33.89877,0 18.37217,-33.89955,0 18.37126,-33.9006,0 18.37051,-33.90148,0 18.36976,-33.90234,0 18.3692,-33.90303,0 18.36824,-33.90408,0 18.36763,-33.90482,0 18.36691,-33.90567,0 18.36617,-33.90665,0 18.36555,-33.90747,0 18.36471,-33.90852,0 18.36411,-33.90935,0 18.36348,-33.91022,0 18.36285,-33.91098,0 18.36205,-33.91209,0 18.36135,-33.9131,0 18.36068,-33.91402,0 18.35999,-33.91507,0 18.35936,-33.916,0 18.35861,-33.91712,0 18.35799,-33.91795,0 18.3572,-33.9191,0 18.35664,-33.92001,0 18.35625,-33.92075,0 18.35575,-33.92173,0 18.35512,-33.92313,0 18.35468,-33.92404,0 18.35421,-33.92508,0 18.35361,-33.92628,0 18.35305,-33.92729,0 18.35249,-33.92834,0 18.35197,-33.92932,0 18.35135,-33.93039,0 18.3506,-33.93174,0 18.34997,-33.93281,0 18.3494,-33.93388,0 18.34894,-33.93467,0 18.34834,-33.93571,0 18.34767,-33.93681,0 18.34717,-33.93768,0 18.34649,-33.93896,0 18.34597,-33.93989,0 18.34538,-33.94102,0 18.34509,-33.94167,0 18.34453,-33.94308,0 18.34436,-33.94408,0 18.34436,-33.94505,0 18.34465,-33.94592,0 18.34511,-33.94654,0 18.34579,-33.94706,0 18.34678,-33.94739,0 18.34756,-33.94739,0 18.34834,-33.94716,0 18.34919,-33.94661,0 18.34974,-33.94603,0 18.35026,-33.94529,0 18.35059,-33.94478,0 18.351,-33.94394,0 18.35132,-33.94327,0 18.35154,-33.94254,0 18.35169,-33.94189,0 18.35182,-33.94125,0 18.35188,-33.94052,0 18.35193,-33.93983,0 18.35176,-33.93915,0 18.35135,-33.93854,0 18.35059,-33.93819,0 18.34991,-33.93821,0 18.34906,-33.93854,0 18.3486,-33.939,0 18.34812,-33.9397,0 18.34778,-33.94034,0 18.34745,-33.94105,0 18.34705,-33.94194,0 18.34666,-33.94286,0 18.34633,-33.94373,0 18.34599,-33.94469,0 18.34566,-33.9456,0 18.34539,-33.94645,0 18.34505,-33.94738,0 18.3447,-33.94844,0 18.34442,-33.94926,0 18.34403,-33.95036,0 18.34362,-33.95143,0 18.34333,-33.95232,0 18.34299,-33.95334,0 18.34196,-33.95645,0 18.341,-33.9597,0 18.34007,-33.96298,0 18.33977,-33.96437,0 18.33949,-33.96538,0 18.33926,-33.96638,0 18.33904,-33.9674,0 18.3387,-33.9689,0 18.33848,-33.96991,0 18.33825,-33.97115,0 18.33803,-33.97224,0 18.33778,-33.97345,0 18.3375,-33.9748,0 18.3373,-33.97609,0 18.3371,-33.97727,0 18.33693,-33.97843,0 18.33675,-33.97946,0 18.33658,-33.98062,0 18.33635,-33.98188,0 18.33585,-33.98566,0 18.33544,-33.98937,0 18.33504,-33.99305,0 18.33478,-33.99664,0 18.33469,-33.99794,0 18.33452,-34.00148,0 18.33452,-34.0025,0 18.33452,-34.00352,0 18.33458,-34.00455,0 18.33461,-34.00584,0 18.33472,-34.00699,0 18.33478,-34.00781,0 18.33492,-34.00902,0 18.33517,-34.01038,0 18.33545,-34.01143,0 18.33584,-34.01251,0 18.33635,-34.01376,0 18.33681,-34.01479,0 18.33733,-34.01591,0 18.33781,-34.01688,0 18.3383,-34.01781,0 18.33893,-34.01902,0 18.33944,-34.02,0 18.34005,-34.02109,0 18.34083,-34.02246,0 18.34139,-34.02347,0 18.34218,-34.02484,0 18.34276,-34.02591,0 18.34333,-34.02689,0 18.34385,-34.02792,0 18.34448,-34.02908,0 18.34494,-34.03011,0 18.34566,-34.03157,0 18.3461,-34.03258,0 18.3466,-34.03364,0 18.347,-34.03464,0 18.34756,-34.03583,0 18.34795,-34.03679,0 18.34837,-34.03778,0 18.34891,-34.03903,0 18.3493,-34.04022,0 18.34969,-34.04128,0 18.35003,-34.04249,0 18.35032,-34.04361,0 18.35054,-34.04458,0 18.35081,-34.04576,0 18.35109,-34.04723,0 18.35126,-34.04823,0 18.3514,-34.04929,0 18.35152,-34.05026,0 18.35157,-34.05157,0 18.35165,-34.05254,0 18.35169,-34.0538,0 18.35163,-34.05482,0 18.35152,-34.05608,0 18.35135,-34.05729,0 18.35123,-34.05822,0 18.351,-34.05957,0 18.35076,-34.06096,0 18.35059,-34.06201,0 18.35043,-34.06297,0 18.3502,-34.06427,0 18.34997,-34.06548,0 18.3498,-34.06659,0 18.34958,-34.06787,0 18.34941,-34.06902,0 18.34924,-34.0703,0 18.34907,-34.07135,0 18.34894,-34.07261,0 18.34883,-34.07382,0 18.34877,-34.07507,0 18.34879,-34.07652,0 18.34883,-34.07777,0 18.34896,-34.07913,0 18.34917,-34.08047,0 18.34935,-34.0816,0 18.34958,-34.0827,0 18.3498,-34.08383,0 18.35003,-34.08485,0 18.35043,-34.08639,0 18.35072,-34.08746,0 18.35117,-34.08885,0 18.35157,-34.09016,0 18.35193,-34.09126,0 18.35238,-34.09225,0 18.35305,-34.09355,0 18.35375,-34.09476,0 18.35443,-34.09598,0 18.35501,-34.09723,0 18.35535,-34.09844,0 18.35552,-34.0995,0 18.35552,-34.1006,0 18.35535,-34.10193,0 18.35472,-34.10352,0 18.35401,-34.10458,0 18.353,-34.10575,0 18.35197,-34.10696,0 18.35115,-34.1082,0 18.35054,-34.10925,0 18.35019,-34.11017,0 18.34975,-34.11177,0 18.34957,-34.11278,0 18.34941,-34.11411,0 18.34935,-34.11516,0 18.3493,-34.11626,0 18.34934,-34.11702,0 18.34941,-34.11818,0 18.34947,-34.11914,0 18.34963,-34.12019,0 18.3498,-34.12111,0 18.50597,-33.94194,0 18.50916,-33.94455,0 18.5111,-33.94608,0 18.51213,-33.94673,0 18.51348,-33.94748,0 18.51477,-33.94799,0 18.51611,-33.94844,0 18.51762,-33.94881,0 18.519,-33.94915,0 18.52065,-33.94954,0 18.52217,-33.94991,0 18.52358,-33.95018,0 18.52512,-33.95055,0 18.52648,-33.95091,0 18.52821,-33.95134,0 18.52956,-33.95169,0 18.5309,-33.95204,0 18.53256,-33.95255,0 18.53382,-33.95297,0 18.53502,-33.95339,0 18.53635,-33.9538,0 18.53783,-33.95432,0 18.53931,-33.95483,0 18.54089,-33.95535,0 18.5424,-33.95585,0 18.54389,-33.95627,0 18.54498,-33.95665,0 18.54652,-33.95711,0 18.54772,-33.9575,0 18.54896,-33.95787,0 18.55007,-33.95818,0 18.55154,-33.9586,0 18.55293,-33.95902,0 18.55419,-33.95935,0 18.55556,-33.95972,0 18.55675,-33.96002,0 18.56174,-33.96135,0 18.56308,-33.96176,0 18.56443,-33.96213,0 18.56564,-33.96246,0 18.56667,-33.96274,0 18.56807,-33.96309,0 18.5693,-33.96339,0 18.57071,-33.96378,0 18.57193,-33.96405,0 18.57334,-33.96432,0 18.57469,-33.96465,0 18.57611,-33.96489,0 18.57742,-33.96516,0 18.57861,-33.96538,0 18.5796,-33.96558,0 18.58097,-33.96586,0 18.582,-33.96609,0 18.58293,-33.96629,0 18.58416,-33.96657,0 18.58509,-33.96679,0 18.58635,-33.96712,0 18.58709,-33.9674,0 18.58803,-33.96776,0 18.58875,-33.96812,0 18.5896,-33.96867,0 18.59013,-33.96917,0 18.59066,-33.96973,0 18.59121,-33.97042,0 18.59156,-33.97092,0 18.59195,-33.97151,0 18.59236,-33.97215,0 18.59264,-33.97271,0 18.59274,-33.97293,0 18.5929,-33.97321,0 18.59316,-33.97373,0 18.59335,-33.97412,0 18.5935,-33.97438,0 18.59363,-33.97481,0 18.5938,-33.97513,0 18.59396,-33.97554,0 18.59407,-33.97583,0 18.59419,-33.9761,0 18.59431,-33.97636,0 18.59442,-33.97662,0 18.59447,-33.97687,0</coordinates>
      </LineString>
    </Placemark>
  </Document>
</kml>
