<?xml version="1.0" encoding="UTF-8"?>
<kml xmlns="http://www.opengis.net/kml/2.2">
  <Document>
    <name>FR24 4177d6c1</name>
    <Placemark>
      <name>FR24 4177d6c1</name>
      <Style><LineStyle><color>ff0000ff</color><width>4</width></LineStyle></Style>
      <LineString>
        <tessellate>1</tessellate>
        <coordinates>18.43094,-33.89589,0 18.43237,-33.89401,0 18.43431,-33.89133,0 18.43472,-33.89077,0 18.43512,-33.88998,0 18.43545,-33.8893,0 18.43567,-33.88857,0 18.43584,-33.88751,0 18.43584,-33.88664,0 18.43573,-33.88577,0 18.43556,-33.88509,0 18.43529,-33.8844,0 18.43483,-33.88348,0 18.43443,-33.88286,0 18.4338,-33.88198,0 18.43323,-33.88123,0 18.4327,-33.88065,0 18.43181,-33.87973,0 18.43102,-33.87904,0 18.43019,-33.87848,0 18.42934,-33.87794,0 18.42833,-33.87744,0 18.42732,-33.87703,0 18.42619,-33.87667,0 18.42519,-33.87643,0 18.4243,-33.8763,0 18.42304,-33.87611,0 18.42241,-33.87606,0 18.42076,-33.87598,0 18.41998,-33.87598,0 18.41869,-33.87598,0 18.41755,-33.87606,0 18.41629,-33.87616,0 18.41527,-33.87625,0 18.41412,-33.87639,0 18.41331,-33.87653,0 18.41194,-33.87681,0 18.41079,-33.87708,0 18.40967,-33.87735,0 18.40877,-33.87762,0 18.40759,-33.87799,0 18.40662,-33.87839,0 18.40576,-33.87872,0 18.40479,-33.87909,0 18.4041,-33.87941,0 18.40302,-33.87993,0 18.40193,-33.88042,0 18.40096,-33.88086,0 18.40015,-33.88128,0 18.39935,-33.8817,0 18.39838,-33.88226,0 18.39729,-33.88286,0 18.39649,-33.88335,0 18.39565,-33.88385,0 18.39495,-33.8843,0 18.39409,-33.88486,0 18.39308,-33.8855,0 18.3924,-33.886,0 18.39134,-33.88672,0 18.3905,-33.88737,0 18.38966,-33.88797,0 18.38882,-33.88858,0 18.38802,-33.88924,0 18.38705,-33.89008,0 18.38612,-33.89085,0 18.3854,-33.89149,0 18.38448,-33.89231,0 18.38373,-33.89305,0 18.38305,-33.89371,0 18.38213,-33.89459,0 18.38125,-33.89548,0 18.38064,-33.89618,0 18.37984,-33.89706,0 18.37906,-33.8979,0 18.37835,-33.89874,0 18.37766,-33.89955,0 18.37698,-33.90036,0 18.37641,-33.90111,0 18.37576,-33.90193,0 18.37508,-33.90285,0 18.37423,-33.90395,0 18.37368,-33.90472,0 18.37284,-33.90582,0 18.37222,-33.90665,0 18.37161,-33.90747,0 18.37086,-33.90856,0 18.37026,-33.90944,0 18.36964,-33.91031,0 18.36903,-33.9113,0 18.36841,-33.91228,0 18.36782,-33.9133,0 18.36729,-33.91415,0 18.36667,-33.91512,0 18.36605,-33.91629,0 18.36536,-33.91745,0 18.36477,-33.91859,0 18.36426,-33.91956,0 18.3637,-33.92061,0 18.36308,-33.92183,0 18.36256,-33.9228,0 18.3621,-33.92373,0 18.36163,-33.92473,0 18.36107,-33.92587,0 18.35989,-33.92825,0 18.35947,-33.92918,0 18.35804,-33.93233,0 18.3563,-33.93608,0 18.3549,-33.93924,0 18.35345,-33.94249,0 18.35154,-33.9467,0 18.34974,-33.95082,0 18.34837,-33.95399,0 18.34694,-33.95716,0 18.34431,-33.96307,0 18.34213,-33.96786,0 18.33994,-33.97275,0 18.33786,-33.97783,0 18.33607,-33.98286,0 18.33515,-33.98579,0 18.33444,-33.98849,0 18.33378,-33.99105,0 18.33309,-33.99366,0 18.33223,-33.9977,0 18.33136,-34.00232,0 18.33115,-34.00362,0 18.33102,-34.00461,0 18.33097,-34.00557,0 18.33086,-34.00694,0 18.33086,-34.00822,0 18.33086,-34.00916,0 18.33097,-34.01023,0 18.33115,-34.01134,0 18.33136,-34.01234,0 18.3316,-34.01344,0 18.33195,-34.01456,0 18.33223,-34.01577,0 18.33252,-34.0167,0 18.33292,-34.01796,0 18.33327,-34.01903,0 18.33355,-34.01999,0 18.33388,-34.0209,0 18.33439,-34.02232,0 18.33475,-34.0234,0 18.33506,-34.02429,0 18.33549,-34.02559,0 18.33584,-34.02652,0 18.33624,-34.02764,0 18.33742,-34.03065,0 18.3387,-34.03395,0 18.33977,-34.03697,0 18.34011,-34.03821,0 18.34042,-34.03918,0 18.3407,-34.0403,0 18.341,-34.04155,0 18.34117,-34.04251,0 18.34145,-34.04366,0 18.34173,-34.04471,0 18.34213,-34.04556,0 18.34291,-34.0464,0 18.34386,-34.04691,0 18.34488,-34.0471,0 18.34585,-34.04705,0 18.34728,-34.04663,0 18.34851,-34.04585,0 18.34957,-34.04472,0 18.3502,-34.04351,0 18.35053,-34.04205,0 18.35053,-34.04068,0 18.3502,-34.03923,0 18.3498,-34.03807,0 18.34919,-34.03693,0 18.34857,-34.03587,0 18.34768,-34.03462,0 18.34689,-34.03358,0 18.34616,-34.03258,0 18.34521,-34.03143,0 18.34414,-34.03024,0 18.34313,-34.0291,0 18.34242,-34.02834,0 18.34133,-34.02713,0 18.34047,-34.02605,0 18.3396,-34.0248,0 18.33893,-34.02379,0 18.33813,-34.02233,0 18.33767,-34.02126,0 18.33714,-34.0199,0 18.33674,-34.01857,0 18.33652,-34.01747,0 18.33635,-34.01665,0 18.33618,-34.01482,0 18.33612,-34.0127,0 18.33612,-34.01186,0 18.33624,-34.01038,0 18.33635,-34.00909,0 18.33652,-34.00776,0 18.33681,-34.00604,0 18.33704,-34.00488,0 18.33733,-34.00362,0 18.33767,-34.00227,0 18.33797,-34.00104,0 18.33824,-34.00017,0 18.3399,-33.99529,0 18.34106,-33.99257,0 18.34235,-33.98964,0 18.34364,-33.98698,0 18.34633,-33.98167,0 18.349,-33.97657,0 18.35031,-33.9738,0 18.35255,-33.9684,0 18.35363,-33.96558,0 18.35461,-33.9627,0 18.35563,-33.95952,0 18.35658,-33.95668,0 18.35775,-33.9532,0 18.35832,-33.95169,0 18.3589,-33.95041,0 18.35939,-33.94931,0 18.36004,-33.94799,0 18.36056,-33.94696,0 18.36119,-33.9458,0 18.3617,-33.94482,0 18.36239,-33.94357,0 18.36308,-33.94231,0 18.36359,-33.94124,0 18.36415,-33.94002,0 18.3646,-33.93901,0 18.36508,-33.93774,0 18.36548,-33.93677,0 18.36576,-33.93598,0 18.36623,-33.93471,0 18.36674,-33.93346,0 18.36714,-33.93248,0 18.3676,-33.93127,0 18.36817,-33.93002,0 18.36857,-33.92904,0 18.36914,-33.92774,0 18.36953,-33.92693,0 18.37011,-33.92569,0 18.37063,-33.92466,0 18.37127,-33.92345,0 18.37177,-33.92253,0 18.3725,-33.9213,0 18.37292,-33.92061,0 18.37362,-33.91946,0 18.37418,-33.91856,0 18.37492,-33.9174,0 18.3757,-33.91631,0 18.37646,-33.91526,0 18.3771,-33.91443,0 18.37777,-33.91356,0 18.37861,-33.91241,0 18.37938,-33.91154,0 18.38007,-33.91065,0 18.38093,-33.90958,0 18.38161,-33.90884,0 18.38254,-33.90775,0 18.38355,-33.90665,0 18.38453,-33.90562,0 18.38534,-33.90472,0 18.38629,-33.90376,0 18.38708,-33.90294,0 18.38786,-33.90221,0 18.38898,-33.90106,0 18.38971,-33.90033,0 18.39088,-33.89925,0 18.39186,-33.89841,0 18.39274,-33.89767,0 18.39375,-33.8969,0 18.395,-33.89599,0 18.39609,-33.89524,0 18.39712,-33.89459,0 18.39838,-33.89384,0 18.39964,-33.8931,0 18.40073,-33.8925,0 18.40176,-33.89195,0 18.4033,-33.89115,0 18.4044,-33.89067,0 18.40565,-33.89012,0 18.40708,-33.88952,0 18.40827,-33.88907,0 18.40982,-33.88849,0 18.41129,-33.88802,0 18.41286,-33.88747,0 18.41429,-33.88696,0 18.41583,-33.88646,0 18.41703,-33.88607,0 18.41846,-33.8856,0 18.4202,-33.88513,0 18.42121,-33.88481,0 18.4231,-33.88435,0 18.42441,-33.88403,0 18.42579,-33.88379,0 18.42745,-33.88361,0 18.42895,-33.88353,0 18.43019,-33.88356,0 18.43168,-33.88374,0 18.43327,-33.88399,0 18.43483,-33.88435,0 18.43609,-33.88472,0 18.4373,-33.88518,0 18.43838,-33.88565,0 18.43969,-33.88626,0 18.44078,-33.88682,0 18.44181,-33.88742,0 18.44313,-33.88826,0 18.44397,-33.88879,0 18.4452,-33.88966,0 18.44604,-33.89026,0 18.44694,-33.89099,0 18.44782,-33.8918,0 18.44885,-33.89296,0 18.44946,-33.89383,0 18.45014,-33.89488,0 18.45057,-33.89576,0 18.45098,-33.89694,0 18.4512,-33.8979,0 18.45131,-33.89891,0 18.45119,-33.89981,0 18.45086,-33.90097,0 18.45019,-33.90202,0 18.44931,-33.90283,0 18.44851,-33.90331,0 18.44745,-33.90372,0 18.44633,-33.90385,0 18.44524,-33.90381,0 18.44425,-33.90363,0 18.44307,-33.90325,0 18.44244,-33.90297,0 18.44124,-33.90237,0 18.44072,-33.90211,0 18.43977,-33.90166,0 18.43904,-33.90134,0 18.4382,-33.90097,0 18.43724,-33.90056,0 18.4366,-33.90032,0 18.43592,-33.90013,0 18.435,-33.89992,0 18.43427,-33.89978,0 18.43338,-33.89973,0 18.43266,-33.89976,0 18.43157,-33.8999,0 18.43077,-33.90004,0 18.42974,-33.90022,0 18.42951,-33.90024,0 18.42929,-33.90028,0 18.42899,-33.90036,0 18.42822,-33.90056,0 18.42794,-33.90065,0 18.42773,-33.90069,0 18.42751,-33.90069,0 18.42743,-33.90047,0 18.42762,-33.89976,0 18.42772,-33.89951,0 18.42796,-33.89911,0 18.42816,-33.89882,0 18.42828,-33.89859,0 18.4285,-33.89832,0 18.42871,-33.89794,0 18.42882,-33.89771,0 18.429,-33.89745,0 18.42917,-33.89722,0 18.42934,-33.8969,0 18.42951,-33.89667,0 18.42985,-33.89613,0 18.43024,-33.89552,0 18.43065,-33.89496,0 18.43119,-33.89415,0 18.43147,-33.89369,0 18.43203,-33.89291,0 18.43231,-33.89246,0 18.43277,-33.89175,0 18.43327,-33.89095,0 18.43371,-33.8903,0 18.43409,-33.88966,0 18.4345,-33.88893,0 18.43489,-33.88834,0 18.43523,-33.88774,0 18.43552,-33.8871,0 18.43586,-33.88635,0 18.43607,-33.88545,0 18.43615,-33.88477,0 18.43603,-33.88365,0 18.43584,-33.88289,0 18.43545,-33.88206,0 18.435,-33.88137,0 18.43431,-33.88053,0 18.43377,-33.88,0 18.433,-33.87932,0 18.4322,-33.87872,0 18.43151,-33.8783,0 18.43063,-33.87785,0 18.42962,-33.87744,0 18.42865,-33.87713,0 18.42777,-33.87694,0 18.42682,-33.87676,0 18.42558,-33.87657,0 18.42452,-33.87653,0 18.42344,-33.87648,0 18.42241,-33.87648,0 18.4215,-33.87653,0 18.42043,-33.87662,0 18.41955,-33.87672,0 18.41869,-33.87681,0 18.41763,-33.87698,0 18.41675,-33.87713,0 18.41572,-33.87737,0 18.41486,-33.87755,0 18.41383,-33.87783,0 18.41303,-33.87804,0 18.41213,-33.87831,0 18.41129,-33.87859,0 18.4104,-33.8789,0 18.40914,-33.87932,0 18.40834,-33.87965,0 18.40748,-33.87996,0 18.40642,-33.88037,0 18.40557,-33.88074,0 18.40485,-33.88106,0 18.40399,-33.88142,0 18.403,-33.88184,0 18.40181,-33.88239,0 18.40087,-33.8828,0 18.40003,-33.88321,0 18.39896,-33.88371,0 18.39809,-33.88412,0 18.39729,-33.88454,0 18.39649,-33.8849,0 18.39537,-33.8855,0 18.39453,-33.88596,0 18.39347,-33.88651,0 18.39272,-33.88696,0 18.39162,-33.88756,0 18.39067,-33.88811,0 18.38968,-33.88868,0 18.38865,-33.88929,0 18.38774,-33.88989,0 18.3868,-33.89053,0 18.38601,-33.89108,0 18.38523,-33.89168,0 18.38428,-33.89246,0 18.38356,-33.8931,0 18.38276,-33.89384,0 18.38184,-33.89468,0 18.38119,-33.89529,0 18.38053,-33.89594,0 18.37967,-33.89678,0 18.37887,-33.89762,0 18.37807,-33.89841,0 18.37744,-33.89909,0 18.37654,-33.90005,0 18.37595,-33.90074,0 18.37497,-33.90189,0 18.37435,-33.90274,0 18.37362,-33.90367,0 18.37286,-33.90474,0 18.37222,-33.90564,0 18.3716,-33.9066,0 18.37093,-33.90761,0 18.3704,-33.90846,0 18.3697,-33.90958,0 18.36914,-33.91056,0 18.36864,-33.91141,0 18.36794,-33.91265,0 18.3674,-33.91351,0 18.3669,-33.91457,0 18.36622,-33.91582,0 18.36576,-33.91675,0 18.36522,-33.91782,0 18.36473,-33.91885,0 18.36426,-33.91983,0 18.36382,-33.92079,0 18.36336,-33.92183,0 18.36292,-33.92285,0 18.36241,-33.924,0 18.36187,-33.92522,0 18.3614,-33.92647,0 18.3609,-33.92766,0 18.36057,-33.92844,0 18.36004,-33.92978,0 18.35872,-33.93297,0 18.3569,-33.93742,0 18.35546,-33.94075,0 18.35409,-33.94398,0 18.35272,-33.9472,0 18.3514,-33.95041,0 18.35019,-33.95343,0 18.34894,-33.95669,0 18.34768,-33.95976,0 18.34554,-33.96487,0 18.34351,-33.96987,0 18.34151,-33.97462,0 18.33939,-33.97955,0 18.33742,-33.9841,0 18.33555,-33.98872,0 18.33412,-33.99286,0 18.33388,-33.99376,0 18.3336,-33.9949,0 18.33321,-33.99655,0 18.33292,-33.99775,0 18.33276,-33.99861,0 18.33254,-33.99994,0 18.33235,-34.00087,0 18.33226,-34.00186,0 18.33209,-34.00296,0 18.332,-34.00389,0 18.33198,-34.00488,0 18.33195,-34.00585,0 18.33189,-34.00711,0 18.33192,-34.008,0 18.33192,-34.00909,0 18.33198,-34.01006,0 18.33206,-34.0112,0 18.3322,-34.01248,0 18.33235,-34.01344,0 18.33248,-34.0145,0 18.33271,-34.01573,0 18.33292,-34.01688,0 18.33309,-34.01772,0 18.33332,-34.0187,0 18.33366,-34.01994,0 18.33395,-34.02103,0 18.33422,-34.02196,0 18.33456,-34.02315,0 18.33495,-34.02429,0 18.33527,-34.02522,0 18.33562,-34.02631,0 18.33601,-34.02736,0 18.33641,-34.02852,0 18.33681,-34.02941,0 18.33715,-34.03038,0 18.33764,-34.03152,0 18.33809,-34.03262,0 18.33858,-34.03383,0 18.33893,-34.03468,0 18.33939,-34.03583,0 18.33966,-34.03679,0 18.33996,-34.03816,0 18.34013,-34.03923,0 18.34027,-34.04027,0 18.34033,-34.04105,0 18.34042,-34.04226,0 18.34047,-34.04351,0 18.34059,-34.04444,0 18.34099,-34.04551,0 18.34139,-34.04607,0 18.34236,-34.04672,0 18.34352,-34.04691,0 18.34481,-34.04668,0 18.34591,-34.04607,0 18.34682,-34.04514,0 18.34745,-34.04388,0 18.3478,-34.04272,0 18.3479,-34.0415,0 18.34778,-34.04045,0 18.34739,-34.03871,0 18.34688,-34.03737,0 18.34648,-34.03643,0 18.34571,-34.03505,0 18.34509,-34.034,0 18.3442,-34.03258,0 18.34352,-34.03152,0 18.34259,-34.03024,0 18.34184,-34.02919,0 18.34116,-34.02819,0 18.34005,-34.02676,0 18.33898,-34.02525,0 18.33837,-34.02434,0 18.33753,-34.02296,0 18.33697,-34.02191,0 18.33624,-34.0204,0 18.33573,-34.01907,0 18.33532,-34.01791,0 18.33495,-34.01665,0 18.33461,-34.01532,0 18.33428,-34.01331,0 18.33411,-34.01106,0 18.33412,-34.00967,0 18.33422,-34.00827,0 18.33433,-34.00717,0 18.33452,-34.00594,0 18.33475,-34.00469,0 18.335,-34.00351,0 18.33534,-34.00227,0 18.33555,-34.00129,0 18.3359,-34.00012,0 18.33624,-33.99884,0 18.33824,-33.99286,0 18.33927,-33.98997,0 18.34044,-33.98717,0 18.34162,-33.98447,0 18.34402,-33.97904,0 18.34655,-33.97348,0 18.34906,-33.96782,0 18.35143,-33.96245,0 18.35375,-33.95688,0 18.35512,-33.95348,0 18.35686,-33.94908,0 18.35827,-33.94528,0 18.35961,-33.94153,0 18.36113,-33.93759,0 18.36157,-33.93658,0 18.3621,-33.93546,0 18.36264,-33.93443,0 18.36314,-33.93343,0 18.36376,-33.93225,0 18.36432,-33.93123,0 18.36502,-33.93007,0 18.36565,-33.92895,0 18.36611,-33.92812,0 18.36697,-33.9268,0 18.36746,-33.92592,0 18.36805,-33.92499,0 18.36885,-33.92369,0 18.36943,-33.9228,0 18.37017,-33.92164,0 18.3708,-33.92075,0 18.37144,-33.91983,0 18.37217,-33.91878,0 18.37303,-33.91773,0 18.37362,-33.9169,0 18.37469,-33.91566,0 18.37525,-33.91502,0 18.37629,-33.91386,0 18.3771,-33.91306,0 18.37788,-33.91223,0 18.37878,-33.91132,0 18.37978,-33.91032,0 18.38069,-33.90944,0 18.38167,-33.90846,0 18.38254,-33.90765,0 18.38356,-33.9067,0 18.38467,-33.90573,0 18.38562,-33.90486,0 18.38657,-33.90399,0 18.38722,-33.90343,0 18.38837,-33.90248,0 18.3894,-33.90167,0 18.39055,-33.90074,0 18.39139,-33.90015,0 18.39272,-33.89915,0 18.39403,-33.89822,0 18.39526,-33.89731,0 18.39661,-33.89641,0 18.39769,-33.89571,0 18.3989,-33.89492,0 18.39975,-33.89442,0 18.40113,-33.89357,0 18.40227,-33.89291,0 18.40395,-33.892,0 18.40513,-33.89138,0 18.40625,-33.89081,0 18.40793,-33.89003,0 18.40919,-33.88942,0 18.41028,-33.88896,0 18.41148,-33.88845,0 18.4132,-33.88779,0 18.41463,-33.88724,0 18.41595,-33.88678,0 18.41712,-33.88641,0 18.41875,-33.88593,0 18.4203,-33.88547,0 18.42166,-33.88509,0 18.42334,-33.88463,0 18.42469,-33.88431,0 18.4263,-33.88398,0 18.42772,-33.8838,0 18.42906,-33.8838,0 18.43057,-33.8839,0 18.43226,-33.88417,0 18.43377,-33.88454,0 18.43506,-33.88499,0 18.43624,-33.88541,0 18.43781,-33.88614,0 18.43887,-33.88669,0 18.43988,-33.88728,0 18.44112,-33.88803,0 18.44238,-33.88887,0 18.44335,-33.88957,0 18.44427,-33.89035,0 18.44509,-33.89113,0 18.44599,-33.89212,0 18.44656,-33.89291,0 18.44711,-33.89392,0 18.44753,-33.89492,0 18.44784,-33.89584,0 18.44806,-33.8968,0 18.44823,-33.89758,0 18.44833,-33.89822,0 18.44851,-33.89901,0 18.4484,-33.89969,0 18.44793,-33.90041,0 18.4473,-33.90078,0 18.44638,-33.90097,0 18.44526,-33.90083,0 18.44421,-33.90051,0 18.44313,-33.9001,0 18.44212,-33.89969,0 18.44128,-33.89932,0 18.4405,-33.89905,0 18.43918,-33.89869,0 18.43826,-33.8985,0 18.43729,-33.89841,0 18.43629,-33.89845,0 18.43539,-33.89854,0 18.43489,-33.89859,0 18.43399,-33.89873,0 18.43351,-33.89883,0 18.43282,-33.899,0 18.4322,-33.89914,0 18.43158,-33.89928,0 18.43105,-33.89939,0 18.43082,-33.89943,0 18.43048,-33.89948,0 18.43024,-33.89951,0 18.43002,-33.89952,0 18.42974,-33.89962,0 18.42939,-33.89971,0 18.42906,-33.89983,0 18.42882,-33.89994,0 18.42822,-33.90033,0 18.428,-33.90047,0 18.42777,-33.90065,0 18.42756,-33.90074,0 18.42766,-33.90047,0 18.42788,-33.90005,0 18.42808,-33.89971,0 18.42828,-33.89946,0 18.42854,-33.89906,0 18.42882,-33.89864,0 18.429,-33.89841,0 18.42922,-33.89808,0 18.42939,-33.8978,0 18.42968,-33.89735,0 18.42997,-33.89697,0 18.43037,-33.89627,0 18.43082,-33.89552,0 18.43125,-33.89488,0 18.4317,-33.89415,0 18.4322,-33.89343,0 18.43248,-33.89291,0 18.43306,-33.89208,0 18.43338,-33.89154,0 18.43399,-33.89053,0 18.4345,-33.88966,0 18.43495,-33.88884,0 18.43534,-33.88811,0 18.43569,-33.88742,0 18.43607,-33.88637,0 18.43626,-33.88537,0 18.43626,-33.8844,0 18.43615,-33.88361,0 18.43579,-33.88257,0 18.43517,-33.88137,0 18.43454,-33.88049,0 18.43374,-33.87951,0 18.43304,-33.87877,0 18.4322,-33.87797,0 18.4313,-33.87726,0 18.43048,-33.87667,0 18.42979,-33.8762,0 18.42871,-33.8756,0 18.42773,-33.87518,0 18.42648,-33.87471,0 18.4257,-33.87447,0 18.42424,-33.87415,0 18.42312,-33.87396,0 18.4219,-33.87378,0 18.42088,-33.87369,0 18.41944,-33.8736,0 18.41841,-33.87355,0 18.41703,-33.87355,0 18.41572,-33.8736,0 18.41449,-33.87369,0 18.4132,-33.87383,0 18.41208,-33.87396,0 18.41084,-33.8741,0 18.40965,-33.87429,0 18.4086,-33.87451,0 18.40742,-33.87469,0 18.40639,-33.87495,0 18.40502,-33.87523,0 18.40378,-33.87556,0 18.40261,-33.87592,0 18.40164,-33.8762,0 18.4007,-33.87653,0 18.39941,-33.87695,0 18.39844,-33.87732,0 18.39735,-33.87774,0 18.39644,-33.87808,0 18.39523,-33.87862,0 18.39392,-33.87923,0 18.39296,-33.87964,0 18.39191,-33.88021,0 18.39088,-33.88072,0 18.38982,-33.88133,0 18.38911,-33.88174,0 18.38791,-33.88249,0 18.38699,-33.88314,0 18.38612,-33.8838,0 18.38511,-33.88463,0 18.38436,-33.88533,0 18.38356,-33.88602,0 18.38276,-33.88682,0 18.38209,-33.88751,0 18.38119,-33.88843,0 18.38052,-33.88921,0 18.37962,-33.89021,0 18.37901,-33.89095,0 18.37801,-33.89212,0 18.37738,-33.89291,0 18.37646,-33.89399,0 18.37581,-33.89488,0 18.37519,-33.89566,0 18.37441,-33.89676,0 18.37368,-33.89772,0 18.37286,-33.89887,0 18.37228,-33.89969,0 18.37149,-33.90083,0 18.37088,-33.9017,0 18.37017,-33.90283,0 18.36948,-33.9039,0 18.3688,-33.90488,0 18.368,-33.90618,0 18.3674,-33.9071,0 18.36685,-33.908,0 18.36623,-33.90907,0 18.3655,-33.91026,0 18.36496,-33.91121,0 18.36438,-33.91219,0 18.36382,-33.91312,0 18.36199,-33.91642,0 18.36135,-33.91759,0 18.36085,-33.91859,0 18.35872,-33.92267,0 18.3569,-33.9262,0 18.35535,-33.92931,0 18.35369,-33.93248,0 18.3518,-33.93616,0 18.35009,-33.93947,0 18.3484,-33.94295,0 18.34688,-33.94603,0 18.34509,-33.94963,0 18.3433,-33.95329,0 18.34268,-33.95453,0 18.34207,-33.95567,0 18.34151,-33.95682,0 18.341,-33.95778,0 18.33858,-33.96256,0 18.33658,-33.96656,0 18.33412,-33.97173,0 18.33183,-33.97685,0 18.32972,-33.98197,0 18.32727,-33.98895,0 18.32699,-33.98982,0 18.3266,-33.99124,0 18.32632,-33.9922,0 18.326,-33.99337,0 18.32576,-33.9944,0 18.32548,-33.99561,0 18.32525,-33.99677,0 18.32502,-33.9978,0 18.32474,-33.99938,0 18.32458,-34.0004,0 18.32447,-34.00136,0 18.32434,-34.0025,0 18.32428,-34.00376,0 18.32428,-34.00473,0 18.32439,-34.00608,0 18.32457,-34.00725,0 18.3248,-34.00845,0 18.32508,-34.0096,0 18.32536,-34.0107,0 18.32577,-34.01209,0 18.32617,-34.01316,0 18.32654,-34.01408,0 18.32688,-34.01495,0 18.32733,-34.01601,0 18.32777,-34.01693,0 18.32817,-34.01775,0 18.32878,-34.01894,0 18.32934,-34.0199,0 18.32989,-34.0207,0 18.33063,-34.02173,0 18.33126,-34.02256,0 18.33212,-34.02354,0 18.33282,-34.02443,0 18.33355,-34.02525,0 18.33441,-34.02629,0 18.33529,-34.02736,0 18.33601,-34.02823,0 18.33652,-34.02892,0 18.33727,-34.02987,0 18.33803,-34.03102,0 18.3387,-34.03217,0 18.3391,-34.03285,0 18.3396,-34.034,0 18.33994,-34.03473,0 18.34042,-34.03602,0 18.34072,-34.03711,0 18.34105,-34.0383,0 18.34133,-34.03955,0 18.34156,-34.04073,0 18.34167,-34.04156,0 18.34179,-34.0426,0 18.3419,-34.04388,0 18.3419,-34.04521,0 18.34179,-34.04622,0 18.34167,-34.04727,0 18.34145,-34.04836,0 18.34116,-34.04952,0 18.34078,-34.05057,0 18.34039,-34.0518,0 18.33999,-34.05276,0 18.3395,-34.05403,0 18.33921,-34.0551,0 18.33893,-34.05636,0 18.33887,-34.05757,0 18.3391,-34.05859,0 18.33956,-34.05957,0 18.34044,-34.06046,0 18.34162,-34.06102,0 18.34308,-34.06128,0 18.34431,-34.06115,0 18.34549,-34.06082,0 18.34683,-34.06013,0 18.34801,-34.05917,0 18.34871,-34.05832,0 18.3493,-34.05725,0 18.3498,-34.05588,0 18.34997,-34.0545,0 18.35003,-34.05331,0 18.34986,-34.05222,0 18.34957,-34.05073,0 18.34924,-34.04942,0 18.34888,-34.04836,0 18.34854,-34.04724,0 18.34808,-34.04602,0 18.34767,-34.04485,0 18.34723,-34.04361,0 18.34671,-34.04226,0 18.34627,-34.04123,0 18.34579,-34.04012,0 18.34511,-34.03848,0 18.34459,-34.03738,0 18.34397,-34.0361,0 18.34333,-34.03481,0 18.3428,-34.03381,0 18.34202,-34.03243,0 18.34145,-34.03143,0 18.34083,-34.03038,0 18.34027,-34.02937,0 18.33961,-34.02819,0 18.33904,-34.02708,0 18.33841,-34.02578,0 18.33786,-34.02466,0 18.33742,-34.02356,0 18.33693,-34.02224,0 18.33657,-34.02104,0 18.33618,-34.01953,0 18.3359,-34.01839,0 18.33568,-34.01697,0 18.33551,-34.01559,0 18.33544,-34.01414,0 18.33545,-34.0128,0 18.33549,-34.01144,0 18.33561,-34.01032,0 18.33572,-34.00911,0 18.33596,-34.00754,0 18.33613,-34.00658,0 18.33641,-34.0052,0 18.33658,-34.00413,0 18.33697,-34.00259,0 18.33725,-34.0014,0 18.33767,-34.00008,0 18.33809,-33.99875,0 18.33858,-33.99743,0 18.33921,-33.99575,0 18.33967,-33.99459,0 18.34007,-33.99356,0 18.34083,-33.99152,0 18.34127,-33.99039,0 18.34179,-33.98909,0 18.34253,-33.98718,0 18.34291,-33.98621,0 18.34487,-33.98158,0 18.34511,-33.98104,0 18.34591,-33.97941,0 18.3475,-33.97581,0 18.34826,-33.9742,0 18.34894,-33.97275,0 18.34957,-33.9715,0 18.35014,-33.97019,0 18.3507,-33.96909,0 18.3514,-33.96768,0 18.35216,-33.96611,0 18.35295,-33.96447,0 18.35345,-33.96346,0 18.35386,-33.96242,0 18.35466,-33.9607,0 18.35597,-33.95764,0 18.35642,-33.95654,0 18.35701,-33.95506,0 18.35741,-33.95395,0 18.35793,-33.95256,0 18.35843,-33.9511,0 18.35884,-33.94994,0 18.35916,-33.94885,0 18.35947,-33.9478,0 18.35993,-33.94636,0 18.36028,-33.94496,0 18.36067,-33.94366,0 18.36102,-33.94235,0 18.3614,-33.94098,0 18.3618,-33.93951,0 18.3621,-33.9384,0 18.36233,-33.93742,0 18.36258,-33.93608,0 18.36279,-33.93481,0 18.36308,-33.93341,0 18.36337,-33.93228,0 18.36382,-33.93091,0 18.36416,-33.92992,0 18.36471,-33.92867,0 18.36539,-33.92725,0 18.366,-33.92619,0 18.36651,-33.92527,0 18.36718,-33.92427,0 18.36791,-33.92313,0 18.36869,-33.92203,0 18.36931,-33.92111,0 18.37006,-33.92015,0 18.37077,-33.91919,0 18.37166,-33.918,0 18.37257,-33.91689,0 18.3734,-33.91589,0 18.37435,-33.91484,0 18.37508,-33.91402,0 18.37595,-33.91302,0 18.37682,-33.91205,0 18.37761,-33.91116,0 18.37858,-33.91014,0 18.37955,-33.90911,0 18.38058,-33.90805,0 18.38125,-33.90733,0 18.3823,-33.90628,0 18.38322,-33.90535,0 18.38433,-33.90431,0 18.38516,-33.90358,0 18.38636,-33.90241,0 18.38725,-33.90157,0 18.39022,-33.89882,0 18.39134,-33.8978,0 18.39437,-33.89501,0 18.39767,-33.89214,0 18.40055,-33.88975,0 18.40181,-33.88887,0 18.40324,-33.88798,0 18.40462,-33.88737,0 18.40565,-33.88696,0 18.40737,-33.88646,0 18.40888,-33.88609,0 18.41017,-33.88586,0 18.41191,-33.88564,0 18.41348,-33.88545,0 18.41486,-33.88528,0 18.41634,-33.88513,0 18.41761,-33.885,0 18.41927,-33.88486,0 18.42048,-33.88472,0 18.42217,-33.88458,0 18.42356,-33.88449,0 18.42542,-33.8844,0 18.42738,-33.8844,0 18.42859,-33.88444,0 18.42973,-33.88449,0 18.4314,-33.88458,0 18.43248,-33.88472,0 18.43414,-33.885,0 18.43534,-33.88519,0 18.43629,-33.88541,0 18.43786,-33.88573,0 18.43898,-33.88605,0 18.44016,-33.88632,0 18.44162,-33.88683,0 18.44274,-33.88719,0 18.44386,-33.88765,0 18.44509,-33.8882,0 18.44633,-33.88887,0 18.44725,-33.88942,0 18.44823,-33.89026,0 18.4489,-33.89085,0 18.44948,-33.89157,0 18.45019,-33.89264,0 18.45062,-33.89347,0 18.45091,-33.89426,0 18.45109,-33.89516,0 18.45114,-33.89613,0 18.45103,-33.89722,0 18.45086,-33.89786,0 18.45047,-33.89877,0 18.45005,-33.89957,0 18.44942,-33.90041,0 18.44874,-33.90102,0 18.44776,-33.90167,0 18.44702,-33.90204,0 18.44604,-33.90234,0 18.4449,-33.9025,0 18.44403,-33.90253,0 18.44307,-33.90241,0 18.44215,-33.90218,0 18.44123,-33.90189,0 18.44044,-33.90161,0 18.43975,-33.90134,0 18.43838,-33.90088,0 18.43758,-33.9006,0 18.43672,-33.90032,0 18.43603,-33.90009,0 18.4354,-33.89994,0 18.43456,-33.89969,0 18.43377,-33.89955,0 18.43304,-33.89941,0 18.43214,-33.89932,0 18.43147,-33.89932,0 18.43048,-33.89939,0 18.42996,-33.89946,0 18.42962,-33.89957,0 18.4294,-33.89969,0 18.42916,-33.89981,0 18.42895,-33.89992,0 18.42848,-33.90022,0 18.42825,-33.90036,0 18.428,-33.90051,0 18.42777,-33.90065,0 18.42756,-33.90074,0 18.42733,-33.90069,0 18.42665,-33.90024,0 18.42632,-33.89987,0 18.42613,-33.89915,0 18.42613,-33.89887,0 18.4262,-33.89859,0 18.42654,-33.89786,0 18.4267,-33.89753,0 18.42722,-33.89692,0 18.42773,-33.89636,0 18.42839,-33.89561,0 18.42912,-33.89488,0 18.42973,-33.89424,0 18.43042,-33.89352,0 18.43114,-33.89273,0 18.43175,-33.89195,0 18.43231,-33.89128,0 18.43293,-33.89053,0 18.4334,-33.88989,0 18.43403,-33.8891,0 18.4346,-33.88835,0 18.43517,-33.88765,0 18.43567,-33.88696,0 18.43635,-33.88618,0 18.43689,-33.88537,0 18.43736,-33.88449,0 18.43752,-33.8837,0 18.43747,-33.88293,0 18.43712,-33.88198,0 18.43649,-33.88123,0 18.4358,-33.88072,0 18.43472,-33.88019,0 18.43349,-33.87978,0 18.43287,-33.87959,0 18.43153,-33.87927,0 18.43065,-33.87914,0 18.42922,-33.8789,0 18.42796,-33.87872,0 18.42693,-33.87862,0 18.42564,-33.87849,0 18.42447,-33.87836,0 18.42318,-33.87827,0 18.42217,-33.87817,0 18.42081,-33.87807,0 18.41948,-33.87794,0 18.41806,-33.87788,0 18.41698,-33.87778,0 18.41561,-33.87767,0 18.41449,-33.87758,0 18.4132,-33.87749,0 18.41211,-33.87741,0 18.41084,-33.87735,0 18.40845,-33.87718,0 18.40714,-33.87713,0 18.40614,-33.87712,0 18.4049,-33.87708,0 18.4037,-33.87709,0 18.40227,-33.87717,0 18.40084,-33.87723,0 18.39947,-33.8773,0 18.39818,-33.8774,0 18.39724,-33.87751,0 18.3956,-33.87772,0 18.39425,-33.8779,0 18.39336,-33.87808,0 18.39191,-33.87835,0 18.39071,-33.87862,0 18.38928,-33.87895,0 18.38825,-33.87923,0 18.38691,-33.87959,0 18.38551,-33.88005,0 18.3843,-33.88053,0 18.38316,-33.881,0 18.38142,-33.88179,0 18.38035,-33.88239,0 18.37933,-33.88295,0 18.37807,-33.8837,0 18.37698,-33.88444,0 18.37606,-33.88509,0 18.37498,-33.88593,0 18.37391,-33.88683,0 18.37309,-33.88752,0 18.372,-33.88845,0 18.3711,-33.88921,0 18.37,-33.89017,0 18.36925,-33.89085,0 18.36811,-33.89189,0 18.36735,-33.89259,0 18.36639,-33.89357,0 18.36536,-33.89455,0 18.36445,-33.89548,0 18.36382,-33.89612,0 18.36267,-33.89734,0 18.36202,-33.89799,0 18.36119,-33.89897,0 18.3605,-33.89976,0 18.35981,-33.90055,0 18.35913,-33.90134,0 18.35838,-33.90227,0 18.35759,-33.90321,0 18.3569,-33.90409,0 18.35608,-33.90514,0 18.35546,-33.9059,0 18.35472,-33.90693,0 18.35406,-33.90788,0 18.35352,-33.90874,0 18.35294,-33.90962,0 18.35238,-33.91051,0 18.35176,-33.9115,0 18.35126,-33.91232,0 18.35072,-33.9133,0 18.35009,-33.91442,0 18.34963,-33.91526,0 18.34913,-33.91617,0 18.3486,-33.91722,0 18.34808,-33.91819,0 18.34763,-33.91908,0 18.34717,-33.91996,0 18.34666,-33.92097,0 18.34616,-33.92203,0 18.34579,-33.92285,0 18.34538,-33.92381,0 18.34498,-33.92477,0 18.34459,-33.92578,0 18.34425,-33.9267,0 18.34391,-33.9276,0 18.34352,-33.92862,0 18.34322,-33.92946,0 18.34276,-33.93058,0 18.34248,-33.93142,0 18.34212,-33.93228,0 18.34145,-33.93411,0 18.34116,-33.93486,0 18.34078,-33.93604,0 18.34047,-33.93705,0 18.34027,-33.938,0 18.34002,-33.939,0 18.33982,-33.93988,0 18.33961,-33.94091,0 18.33938,-33.94194,0 18.3391,-33.94291,0 18.33887,-33.94373,0 18.33864,-33.94459,0 18.33825,-33.94574,0 18.33797,-33.94656,0 18.33773,-33.94738,0 18.33738,-33.94854,0 18.33719,-33.94922,0 18.33693,-33.95018,0 18.3367,-33.95115,0 18.33646,-33.95201,0 18.33613,-33.95325,0 18.33596,-33.95421,0 18.33572,-33.95511,0 18.33557,-33.95613,0 18.33532,-33.95707,0 18.33506,-33.95819,0 18.33475,-33.95925,0 18.3345,-33.96025,0 18.33416,-33.9614,0 18.33384,-33.96237,0 18.3336,-33.96323,0 18.33332,-33.96428,0 18.33304,-33.96529,0 18.33286,-33.96605,0 18.33263,-33.96684,0 18.33235,-33.96805,0 18.33209,-33.96881,0 18.33181,-33.96991,0 18.33155,-33.9708,0 18.33132,-33.97136,0 18.33092,-33.97266,0 18.33063,-33.97357,0 18.33023,-33.97466,0 18.32979,-33.97577,0 18.32929,-33.97691,0 18.32878,-33.97797,0 18.32828,-33.97893,0 18.32771,-33.98006,0 18.32726,-33.98085,0 18.3266,-33.98195,0 18.32609,-33.98286,0 18.32553,-33.98373,0 18.32486,-33.98488,0 18.3243,-33.98575,0 18.32363,-33.9868,0 18.32278,-33.98813,0 18.32222,-33.98909,0 18.3217,-33.98988,0 18.32102,-33.991,0 18.32033,-33.99207,0 18.31802,-33.99605,0 18.31668,-33.99825,0 18.31606,-33.99911,0 18.31535,-34.00026,0 18.31477,-34.00122,0 18.31421,-34.00208,0 18.31348,-34.00319,0 18.31286,-34.0042,0 18.31219,-34.00529,0 18.31157,-34.00639,0 18.311,-34.00734,0 18.31034,-34.00841,0 18.30963,-34.00953,0 18.30889,-34.01069,0 18.30687,-34.01381,0 18.30437,-34.01767,0 18.30231,-34.02075,0 18.30008,-34.02387,0 18.29945,-34.02475,0 18.29853,-34.02615,0 18.29807,-34.02704,0 18.29756,-34.02795,0 18.29699,-34.02927,0 18.29667,-34.03011,0 18.29627,-34.03139,0 18.29601,-34.03239,0 18.29573,-34.03369,0 18.29556,-34.03471,0 18.29549,-34.03583,0 18.29538,-34.03727,0 18.29533,-34.0382,0 18.29538,-34.03937,0 18.29544,-34.04039,0 18.2956,-34.0416,0 18.29582,-34.04269,0 18.2961,-34.04375,0 18.29644,-34.04485,0 18.29676,-34.04575,0 18.29716,-34.04686,0 18.2975,-34.04779,0 18.29807,-34.04896,0 18.29857,-34.05002,0 18.29913,-34.05107,0 18.29969,-34.05212,0 18.30036,-34.05327,0 18.30092,-34.05409,0 18.30171,-34.05519,0 18.30255,-34.05634,0 18.30328,-34.0573,0 18.30385,-34.05808,0 18.30451,-34.0589,0 18.30535,-34.05995,0 18.30597,-34.06073,0 18.30688,-34.06186,0 18.30763,-34.06269,0 18.30826,-34.06348,0 18.30906,-34.06441,0 18.30986,-34.06544,0 18.3106,-34.06641,0 18.31129,-34.0673,0 18.31203,-34.06833,0 18.31261,-34.06926,0 18.31326,-34.07025,0 18.31393,-34.07135,0 18.31443,-34.07213,0 18.31511,-34.07323,0 18.31575,-34.07424,0 18.31628,-34.07515,0 18.3169,-34.07619,0 18.31746,-34.07703,0 18.31791,-34.0778,0 18.31879,-34.07917,0 18.31931,-34.08005,0 18.32043,-34.08179,0 18.32234,-34.08485,0 18.32306,-34.086,0 18.32374,-34.08701,0 18.3252,-34.08918,0 18.32592,-34.09021,0 18.32677,-34.09131,0 18.32749,-34.09232,0 18.32829,-34.09332,0 18.32912,-34.09433,0 18.32989,-34.09523,0 18.33057,-34.09602,0 18.33153,-34.09708,0 18.33231,-34.09795,0 18.33304,-34.09868,0 18.33411,-34.09973,0 18.33506,-34.1006,0 18.33585,-34.10129,0 18.33663,-34.10197,0 18.33769,-34.10284,0 18.33854,-34.10353,0 18.33961,-34.10435,0 18.34064,-34.1051,0 18.3415,-34.10575,0 18.34263,-34.10651,0 18.34368,-34.10715,0 18.34476,-34.10783,0 18.34593,-34.10847,0 18.34711,-34.10907,0 18.34829,-34.10971,0 18.34919,-34.11012,0 18.35031,-34.11067,0 18.35132,-34.11108,0 18.35255,-34.11163,0 18.35369,-34.11204,0 18.35506,-34.11255,0 18.35619,-34.11287,0 18.35747,-34.11325,0 18.35907,-34.11367,0 18.36021,-34.11395,0 18.3617,-34.11432,0 18.3632,-34.11465,0 18.36479,-34.11502,0 18.36595,-34.11525,0 18.36742,-34.11553,0 18.36858,-34.11571,0 18.36988,-34.1159,0 18.37137,-34.11609,0 18.37315,-34.11618,0 18.37447,-34.11621,0 18.37618,-34.11632,0 18.37755,-34.1165,0 18.37858,-34.11665,0 18.38035,-34.11699,0 18.38173,-34.1173,0 18.38293,-34.11768,0 18.38408,-34.11804,0 18.38573,-34.11868,0 18.38694,-34.11916,0 18.38779,-34.11953,0 18.38921,-34.12015,0 18.39083,-34.12088,0 18.39203,-34.1214,0 18.39334,-34.122,0 18.39466,-34.1226,0 18.3956,-34.12299,0 18.39718,-34.12372,0 18.39846,-34.12422,0 18.39958,-34.12468,0 18.40081,-34.12518,0 18.40193,-34.1256,0 18.40336,-34.12614,0 18.40479,-34.12666,0 18.40593,-34.12703,0 18.40759,-34.12763,0 18.40897,-34.1281,0 18.41011,-34.12847,0 18.41152,-34.12894,0 18.41291,-34.1294,0 18.41449,-34.12985,0 18.41572,-34.13024,0 18.41701,-34.13058,0 18.41824,-34.13094,0 18.41932,-34.13122,0 18.42088,-34.13164,0 18.42264,-34.13215,0 18.42384,-34.13252,0 18.42536,-34.13301,0 18.42671,-34.13347,0 18.42779,-34.13382,0 18.42929,-34.13438,0 18.43065,-34.13485,0 18.43226,-34.13535,0 18.43366,-34.1358,0 18.43489,-34.1362,0 18.43601,-34.13649,0 18.43747,-34.13686,0 18.4387,-34.13708,0 18.44033,-34.13736,0 18.44128,-34.13745,0 18.44296,-34.13754,0 18.44456,-34.13755,0 18.44599,-34.13745,0 18.44753,-34.13727,0 18.44907,-34.13699,0 18.45057,-34.13662,0 18.45176,-34.13626,0 18.45285,-34.13592,0 18.45423,-34.13541,0 18.45572,-34.1348,0 18.45703,-34.1342,0 18.45804,-34.13365,0 18.45926,-34.13298,0 18.46046,-34.13224,0 18.46163,-34.1315,0 18.4628,-34.13072,0 18.46393,-34.12985,0 18.46471,-34.1293,0 18.46584,-34.12842,0 18.46682,-34.12772,0 18.46791,-34.12679,0 18.46888,-34.126,0 18.46959,-34.12532,0 18.47054,-34.12445,0 18.47179,-34.1233,0 18.47282,-34.12233,0 18.47374,-34.12143,0 18.4748,-34.12033,0 18.47563,-34.11939,0 18.47643,-34.11845,0 18.47729,-34.11744,0 18.47826,-34.11627,0 18.47895,-34.11534,0 18.47968,-34.1142,0 18.48046,-34.11282,0 18.48095,-34.11171,0 18.4813,-34.11049,0 18.48152,-34.10934,0 18.48169,-34.10789,0 18.48169,-34.10654,0 18.48175,-34.10513,0 18.48175,-34.10408,0 18.48181,-34.10273,0 18.48186,-34.10161,0 18.48192,-34.10019,0 18.48192,-34.09927,0 18.48198,-34.09789,0 18.48198,-34.09648,0 18.48203,-34.09529,0 18.48198,-34.09421,0 18.48198,-34.09314,0 18.48203,-34.08943,0 18.48215,-34.08788,0 18.4822,-34.08669,0 18.48225,-34.0854,0 18.48221,-34.08397,0 18.4822,-34.08311,0 18.48214,-34.0816,0 18.48209,-34.08014,0 18.48204,-34.07903,0 18.48203,-34.07794,0 18.48209,-34.07647,0 18.48214,-34.07524,0 18.48221,-34.07386,0 18.48227,-34.07247,0 18.48232,-34.07098,0 18.48238,-34.06968,0 18.48238,-34.06842,0 18.48244,-34.06721,0 18.48244,-34.066,0 18.48249,-34.06427,0 18.48249,-34.06306,0 18.48249,-34.06148,0 18.48255,-34.05724,0 18.48259,-34.05331,0 18.48272,-34.04891,0 18.48284,-34.04496,0 18.48293,-34.04073,0 18.48301,-34.03667,0 18.48315,-34.03294,0 18.48321,-34.02786,0 18.48321,-34.02324,0 18.48324,-34.01861,0 18.48326,-34.015,0 18.48343,-34.01079,0 18.48371,-34.00552,0 18.48394,-34.00131,0 18.48404,-33.99728,0 18.48415,-33.99193,0 18.48438,-33.98657,0 18.48461,-33.98241,0 18.48484,-33.97852,0 18.48507,-33.97433,0 18.48517,-33.96767,0 18.48513,-33.96307,0 18.48501,-33.95753,0 18.48478,-33.95316,0 18.48427,-33.94775,0 18.4841,-33.94661,0 18.48387,-33.94533,0 18.48364,-33.94412,0 18.48324,-33.94282,0 18.48284,-33.94138,0 18.48248,-33.94038,0 18.48198,-33.939,0 18.48152,-33.93793,0 18.48106,-33.93672,0 18.48052,-33.93549,0 18.48007,-33.93434,0 18.47952,-33.93318,0 18.47884,-33.93173,0 18.47826,-33.93058,0 18.4776,-33.92944,0 18.47671,-33.92812,0 18.47586,-33.92709,0 18.47506,-33.92625,0 18.47385,-33.92519,0 18.47261,-33.92427,0 18.47155,-33.92349,0 18.47036,-33.92276,0 18.46899,-33.92201,0 18.4675,-33.92117,0 18.46636,-33.92052,0 18.46476,-33.91959,0 18.46359,-33.91887,0 18.46208,-33.91782,0 18.46107,-33.91704,0 18.46006,-33.91615,0 18.45899,-33.91502,0 18.458,-33.91382,0 18.45703,-33.91241,0 18.45642,-33.91127,0 18.45585,-33.91022,0 18.45529,-33.90894,0 18.45485,-33.90775,0 18.4544,-33.90674,0 18.45388,-33.90535,0 18.45348,-33.90427,0 18.45311,-33.90331,0 18.45251,-33.9019,0 18.45199,-33.90056,0 18.4516,-33.89962,0 18.45115,-33.89864,0 18.45058,-33.89745,0 18.45008,-33.89639,0 18.44965,-33.89576,0 18.4489,-33.89484,0 18.44782,-33.89399,0 18.44667,-33.89352,0 18.44576,-33.89342,0 18.44496,-33.89366,0 18.44442,-33.89406,0 18.44398,-33.89459,0 18.44369,-33.89516,0 18.44341,-33.8958,0 18.44319,-33.89644,0 18.44307,-33.89692,0 18.44296,-33.89753,0 18.44285,-33.89804,0 18.44278,-33.89874,0 18.44268,-33.89923,0 18.44257,-33.89983,0 18.4424,-33.90042,0 18.4421,-33.90102,0 18.44158,-33.90148,0 18.44094,-33.90175,0 18.44027,-33.90176,0 18.43958,-33.90162,0 18.43876,-33.90129,0 18.43797,-33.90079,0 18.43729,-33.90036,0 18.43678,-33.89999,0 18.4359,-33.89955,0 18.43517,-33.89937,0 18.43461,-33.89937,0 18.43397,-33.89962,0 18.43343,-33.90005,0 18.433,-33.90046,0 18.43266,-33.90078,0 18.43203,-33.90134,0 18.43157,-33.90153,0 18.43105,-33.90157,0 18.43048,-33.90144,0 18.43019,-33.90134,0 18.42968,-33.90111,0 18.42945,-33.90102,0 18.42889,-33.90088,0 18.42867,-33.90083,0 18.42828,-33.90079,0 18.428,-33.90074,0 18.42777,-33.90074,0 18.42756,-33.90078,0 18.42733,-33.90069,0 18.4267,-33.90027,0 18.42648,-33.8999,0 18.42642,-33.89962,0 18.42642,-33.89925,0 18.42654,-33.89891,0 18.42671,-33.8985,0 18.42688,-33.89827,0 18.42722,-33.89776,0 18.42772,-33.89717,0 18.42819,-33.89664,0 18.42884,-33.89603,0 18.42916,-33.89561,0 18.43002,-33.89459,0 18.43046,-33.89406,0 18.43105,-33.89333,0 18.43163,-33.89268,0 18.43214,-33.89212,0 18.43283,-33.89133,0 18.43328,-33.89082,0 18.43394,-33.89012,0 18.43433,-33.88957,0 18.43489,-33.88889,0 18.43529,-33.88831,0 18.43575,-33.88747,0 18.43609,-33.88682,0 18.43632,-33.88612,0 18.43649,-33.88523,0 18.43646,-33.88445,0 18.43635,-33.8839,0 18.43597,-33.88295,0 18.43551,-33.8822,0 18.43506,-33.88161,0 18.43443,-33.881,0 18.43363,-33.88034,0 18.43287,-33.87987,0 18.43208,-33.87951,0 18.43125,-33.87918,0 18.43024,-33.87886,0 18.42929,-33.87859,0 18.42813,-33.87835,0 18.4271,-33.87813,0 18.42596,-33.87793,0 18.42476,-33.87778,0 18.42356,-33.87765,0 18.42253,-33.87755,0 18.42144,-33.87751,0 18.41981,-33.8774,0 18.41886,-33.87735,0 18.41757,-33.87726,0 18.41617,-33.87721,0 18.41482,-33.87717,0 18.41366,-33.87713,0 18.41247,-33.87708,0 18.41091,-33.87709,0 18.40971,-33.87713,0 18.40839,-33.87718,0 18.40731,-33.87726,0 18.40616,-33.87732,0 18.40485,-33.87746,0 18.40328,-33.87762,0 18.4021,-33.87778,0 18.40118,-33.87788,0 18.39969,-33.87817,0 18.39838,-33.87844,0 18.39729,-33.87872,0 18.39626,-33.879,0 18.39512,-33.87932,0 18.39363,-33.87974,0 18.3926,-33.88007,0 18.39128,-33.88051,0 18.38997,-33.88091,0 18.38871,-33.88137,0 18.38753,-33.88184,0 18.38648,-33.8823,0 18.3854,-33.88275,0 18.38439,-33.88326,0 18.38321,-33.88385,0 18.38196,-33.88449,0 18.3811,-33.885,0 18.37984,-33.88575,0 18.37887,-33.88631,0 18.37761,-33.8871,0 18.37669,-33.8877,0 18.37532,-33.88863,0 18.37452,-33.88924,0 18.37334,-33.89012,0 18.37256,-33.89072,0 18.37166,-33.89149,0 18.37046,-33.8925,0 18.36953,-33.89333,0 18.36869,-33.8941,0 18.36777,-33.89506,0 18.36691,-33.89589,0 18.36617,-33.89658,0 18.36525,-33.89757,0 18.36454,-33.89832,0 18.36388,-33.89906,0 18.36297,-33.90005,0 18.36202,-33.90111,0 18.36113,-33.90216,0 18.3605,-33.90292,0 18.35964,-33.9039,0 18.35896,-33.90474,0 18.35827,-33.90558,0 18.35748,-33.90656,0 18.35672,-33.90763,0 18.35608,-33.90857,0 18.35529,-33.90968,0 18.35472,-33.91061,0 18.35403,-33.91158,0 18.35322,-33.91283,0 18.3526,-33.91382,0 18.35182,-33.91521,0 18.35126,-33.91612,0 18.35054,-33.9174,0 18.34991,-33.91847,0 18.34947,-33.91924,0 18.34883,-33.92033,0 18.34814,-33.92145,0 18.34756,-33.92239,0 18.34682,-33.92341,0 18.34638,-33.92404,0 18.34566,-33.92496,0 18.34505,-33.92574,0 18.34442,-33.92657,0 18.34375,-33.92734,0 18.3433,-33.92793,0 18.34263,-33.92862,0 18.34213,-33.92918,0 18.34117,-33.93013,0 18.34024,-33.93095,0 18.3395,-33.9316,0 18.33848,-33.93233,0 18.33767,-33.93295,0 18.33708,-33.93338,0 18.33601,-33.93416,0 18.33529,-33.93471,0 18.33481,-33.93523,0 18.3345,-33.93585,0 18.33435,-33.93653,0 18.33444,-33.93713,0 18.33478,-33.93782,0 18.33555,-33.93882,0 18.33624,-33.93938,0 18.33708,-33.93997,0 18.33809,-33.94057,0 18.33926,-33.94121,0 18.34013,-33.94161,0 18.3415,-33.94226,0 18.3427,-33.94277,0 18.34396,-33.94328,0 18.34509,-33.94377,0 18.34655,-33.94432,0 18.34791,-33.94477,0 18.34906,-33.94505,0 18.35014,-33.94514,0 18.35188,-33.94501,0 18.3535,-33.94437,0 18.35462,-33.94359,0 18.35541,-33.94286,0 18.35642,-33.94167,0 18.35698,-33.94089,0 18.35781,-33.9397,0 18.35855,-33.93849,0 18.35944,-33.93704,0 18.36006,-33.93604,0 18.36085,-33.93475,0 18.36153,-33.93365,0 18.36216,-33.93258,0 18.3629,-33.93142,0 18.36365,-33.93022,0 18.36432,-33.92921,0 18.36505,-33.92812,0 18.36561,-33.92734,0 18.36628,-33.92639,0 18.36707,-33.92528,0 18.36782,-33.92424,0 18.36875,-33.92303,0 18.3696,-33.92192,0 18.37032,-33.92097,0 18.37099,-33.9201,0 18.37189,-33.91903,0 18.37267,-33.91805,0 18.37355,-33.91693,0 18.3743,-33.91608,0 18.37519,-33.91502,0 18.37609,-33.91393,0 18.37923,-33.9104,0 18.38029,-33.90921,0 18.38119,-33.90829,0 18.38196,-33.90753,0 18.38321,-33.90633,0 18.38402,-33.90553,0 18.38512,-33.90454,0 18.38579,-33.9039,0 18.38694,-33.90292,0 18.38785,-33.90213,0 18.38904,-33.9012,0 18.38982,-33.9006,0 18.39117,-33.89967,0 18.39207,-33.89909,0 18.39369,-33.89809,0 18.39481,-33.8974,0 18.39586,-33.89678,0 18.39718,-33.89608,0 18.39829,-33.89552,0 18.39947,-33.89496,0 18.40084,-33.89436,0 18.40232,-33.89378,0 18.40382,-33.89324,0 18.40496,-33.89282,0 18.4063,-33.89241,0 18.40794,-33.89194,0 18.40939,-33.89159,0 18.41068,-33.89124,0 18.41196,-33.89095,0 18.41343,-33.89063,0 18.41471,-33.89035,0 18.41623,-33.89003,0 18.41774,-33.88971,0 18.41869,-33.88952,0 18.42058,-33.88914,0 18.42155,-33.88896,0 18.42312,-33.88866,0 18.42493,-33.88835,0 18.42636,-33.88812,0 18.42794,-33.88788,0 18.4294,-33.88774,0 18.43071,-33.88765,0 18.4322,-33.88765,0 18.43357,-33.88765,0 18.43477,-33.88775,0 18.43609,-33.88784,0 18.43736,-33.88797,0 18.43853,-33.88815,0 18.43975,-33.88835,0 18.44111,-33.88861,0 18.44227,-33.88891,0 18.4437,-33.88938,0 18.44476,-33.88976,0 18.44593,-33.89031,0 18.44685,-33.89077,0 18.44773,-33.89136,0 18.44851,-33.89203,0 18.44907,-33.89273,0 18.44946,-33.89351,0 18.44975,-33.89424,0 18.44988,-33.89492,0 18.44994,-33.89585,0 18.44986,-33.89667,0 18.44969,-33.89745,0 18.44942,-33.89813,0 18.44902,-33.899,0 18.44862,-33.89964,0 18.44816,-33.90018,0 18.44728,-33.90083,0 18.44644,-33.90115,0 18.44532,-33.90134,0 18.4447,-33.90134,0 18.44375,-33.90129,0 18.44301,-33.9012,0 18.44181,-33.90106,0 18.44106,-33.90097,0 18.44022,-33.90083,0 18.43949,-33.90074,0 18.43849,-33.9006,0 18.43758,-33.90055,0 18.43601,-33.90051,0 18.4354,-33.90055,0 18.43444,-33.9007,0 18.43363,-33.90088,0 18.43321,-33.90097,0 18.43243,-33.90111,0 18.43186,-33.90111,0 18.43128,-33.90102,0 18.43091,-33.90097,0 18.43069,-33.90092,0 18.43037,-33.90083,0 18.42985,-33.9007,0 18.42895,-33.9006,0 18.42836,-33.9006,0 18.42805,-33.90065,0 18.42777,-33.9007,0 18.42756,-33.90074,0 18.42722,-33.90074,0 18.42699,-33.90047,0 18.42699,-33.90024,0 18.42715,-33.89983,0 18.42733,-33.89962,0 18.42749,-33.89941,0 18.42766,-33.89919,0 18.42791,-33.89883,0 18.42813,-33.89859,0 18.42831,-33.89832,0 18.42867,-33.89781,0 18.42922,-33.89715,0 18.42968,-33.8965,0 18.43007,-33.89594,0 18.43042,-33.89538,0 18.43091,-33.89461,0 18.43122,-33.89408,0 18.43168,-33.89338,0 18.43203,-33.89273,0 18.43248,-33.892,0 18.43283,-33.89143,0 18.43328,-33.89068,0 18.4336,-33.89008,0 18.43409,-33.88929,0 18.43443,-33.88868,0 18.43477,-33.88798,0 18.43517,-33.88719,0 18.43545,-33.88651,0 18.43563,-33.8857,0 18.43563,-33.885,0 18.43556,-33.88431,0 18.43523,-33.88356,0 18.43483,-33.88298,0 18.43414,-33.88235,0 18.43346,-33.88193,0 18.43237,-33.88151,0 18.43163,-33.88132,0 18.43074,-33.88115,0 18.42962,-33.881,0 18.42878,-33.88083,0 18.42779,-33.88072,0 18.42716,-33.88067,0 18.4262,-33.8806,0 18.42508,-33.88051,0 18.42424,-33.88044,0 18.42339,-33.88034,0 18.42233,-33.88033,0 18.42127,-33.88025,0 18.42032,-33.88023,0 18.41932,-33.88025,0 18.4183,-33.88023,0 18.41738,-33.88025,0 18.41606,-33.88033,0 18.41503,-33.88044,0 18.41406,-33.88053,0 18.41292,-33.88069,0 18.41146,-33.88087,0 18.41057,-33.88095,0 18.40944,-33.8811,0 18.40832,-33.88129,0 18.40696,-33.88151,0 18.40619,-33.88161,0 18.40485,-33.88188,0 18.4037,-33.88216,0 18.40283,-33.88234,0 18.40171,-33.88261,0 18.40078,-33.88286,0 18.39975,-33.88314,0 18.39862,-33.88348,0 18.39787,-33.8837,0 18.39672,-33.88408,0 18.39565,-33.88445,0 18.39442,-33.8849,0 18.39369,-33.88513,0 18.39246,-33.88554,0 18.39134,-33.88596,0 18.39014,-33.8864,0 18.38932,-33.88669,0 18.38825,-33.88705,0 18.38688,-33.88761,0 18.38579,-33.88806,0 18.38478,-33.88847,0 18.38356,-33.88896,0 18.38259,-33.88938,0 18.38156,-33.88984,0 18.38053,-33.89031,0 18.37945,-33.89085,0 18.37839,-33.8914,0 18.37721,-33.89204,0 18.37641,-33.8925,0 18.37547,-33.89296,0 18.37429,-33.89361,0 18.37343,-33.89413,0 18.37246,-33.89473,0 18.37166,-33.89524,0 18.37063,-33.89599,0 18.3697,-33.89671,0 18.36885,-33.89743,0 18.3683,-33.8979,0 18.36748,-33.89874,0 18.36662,-33.89962,0 18.36576,-33.9006,0 18.36505,-33.90138,0 18.36443,-33.90216,0 18.36376,-33.90292,0 18.36296,-33.904,0 18.36227,-33.90483,0 18.36164,-33.90567,0 18.36101,-33.90656,0 18.36027,-33.90753,0 18.35956,-33.90852,0 18.35877,-33.90962,0 18.35815,-33.91058,0 18.35741,-33.91167,0 18.35684,-33.91256,0 18.35609,-33.91368,0 18.35552,-33.91456,0 18.35485,-33.91566,0 18.35438,-33.91652,0 18.35384,-33.91768,0 18.3534,-33.91866,0 18.35283,-33.92001,0 18.35249,-33.92088,0 18.3521,-33.92207,0 18.35171,-33.92313,0 18.35137,-33.92409,0 18.35104,-33.92509,0 18.3507,-33.92606,0 18.35025,-33.92743,0 18.3498,-33.92867,0 18.34947,-33.92967,0 18.34911,-33.93062,0 18.34871,-33.93188,0 18.34829,-33.93311,0 18.34795,-33.93407,0 18.34762,-33.93517,0 18.34683,-33.93773,0 18.34562,-33.94189,0 18.34465,-33.94537,0 18.34373,-33.94901,0 18.34285,-33.95233,0 18.34151,-33.957,0 18.341,-33.95901,0 18.34117,-33.96194,0 18.34442,-33.9651,0 18.34671,-33.96572,0 18.34797,-33.96577,0 18.34919,-33.9657,0 18.34946,-33.96563,0 18.35421,-33.96354,0 18.35507,-33.96268,0 18.35604,-33.96135,0 18.35644,-33.96032,0 18.35681,-33.95892,0 18.35698,-33.95723,0 18.35701,-33.95599,0 18.35715,-33.95444,0 18.3572,-33.95325,0 18.35724,-33.95227,0 18.35735,-33.95045,0 18.35741,-33.94929,0 18.35747,-33.9478,0 18.35758,-33.94622,0 18.35764,-33.94487,0 18.3577,-33.9437,0 18.35781,-33.94258,0 18.35793,-33.9411,0 18.35815,-33.93961,0 18.35838,-33.93821,0 18.35855,-33.937,0 18.35884,-33.9356,0 18.35911,-33.93452,0 18.3595,-33.93311,0 18.35989,-33.93182,0 18.36016,-33.9309,0 18.36061,-33.9295,0 18.3609,-33.92867,0 18.36129,-33.92757,0 18.36185,-33.92624,0 18.3623,-33.92519,0 18.3629,-33.92392,0 18.36342,-33.92285,0 18.36393,-33.92184,0 18.36454,-33.92065,0 18.3651,-33.9196,0 18.36588,-33.91838,0 18.36684,-33.91695,0 18.3676,-33.91577,0 18.36836,-33.91475,0 18.36892,-33.91393,0 18.36983,-33.9127,0 18.37049,-33.91173,0 18.37143,-33.91051,0 18.37194,-33.9099,0 18.37329,-33.90843,0 18.37423,-33.90767,0 18.37561,-33.90683,0 18.37698,-33.90614,0 18.3779,-33.90572,0 18.37927,-33.90511,0 18.3808,-33.9044,0 18.38202,-33.90367,0 18.38299,-33.90302,0 18.38416,-33.90207,0 18.38522,-33.9012,0 18.38625,-33.90032,0 18.38717,-33.89952,0 18.38802,-33.89874,0 18.38926,-33.89763,0 18.39005,-33.8969,0 18.39123,-33.89589,0 18.3924,-33.89493,0 18.39352,-33.89401,0 18.39455,-33.89324,0 18.39569,-33.89231,0 18.39666,-33.89154,0 18.39762,-33.89076,0 18.39885,-33.88994,0 18.40015,-33.88919,0 18.40143,-33.88866,0 18.40316,-33.88815,0 18.40412,-33.88792,0 18.40559,-33.8877,0 18.40714,-33.88747,0 18.40816,-33.88733,0 18.40984,-33.88705,0 18.4108,-33.88691,0 18.41241,-33.88669,0 18.41409,-33.88646,0 18.41538,-33.88632,0 18.41701,-33.88618,0 18.41852,-33.88607,0 18.4197,-33.88605,0 18.42127,-33.886,0 18.42256,-33.886,0 18.42413,-33.88607,0 18.4255,-33.88621,0 18.42676,-33.88646,0 18.42822,-33.88678,0 18.4294,-33.88715,0 18.4308,-33.8876,0 18.4322,-33.88812,0 18.43369,-33.88877,0 18.43495,-33.88934,0 18.43601,-33.88985,0 18.43713,-33.89044,0 18.4382,-33.89108,0 18.43941,-33.89185,0 18.44032,-33.8925,0 18.44111,-33.8931,0 18.44215,-33.89394,0 18.44285,-33.89456,0 18.44353,-33.89529,0 18.44427,-33.89631,0 18.4447,-33.89717,0 18.44504,-33.89804,0 18.44536,-33.89911,0 18.44548,-33.90001,0 18.44548,-33.90083,0 18.44532,-33.90184,0 18.44481,-33.90276,0 18.44433,-33.90339,0 18.44352,-33.9039,0 18.44267,-33.90423,0 18.44173,-33.90436,0 18.44066,-33.90427,0 18.43958,-33.90395,0 18.4387,-33.90344,0 18.43803,-33.90283,0 18.43758,-33.90218,0 18.43702,-33.90079,0 18.43691,-33.90005,0 18.43672,-33.89925,0 18.43637,-33.89855,0 18.4358,-33.89794,0 18.43523,-33.89771,0 18.4346,-33.89766,0 18.43371,-33.89786,0 18.4331,-33.89818,0 18.43254,-33.89855,0 18.43185,-33.89901,0 18.43117,-33.89948,0 18.43037,-33.89985,0 18.43008,-33.89994,0 18.42928,-33.89999,0 18.42889,-33.89996,0 18.42867,-33.89992,0 18.42836,-33.8999,0 18.42783,-33.89987,0 18.42743,-33.89996,0 18.42715,-33.90015,0 18.42693,-33.90033,0 18.42699,-33.90064,0 18.42722,-33.90069,0 18.42745,-33.90069,0 18.42722,-33.90069,0 18.42693,-33.90019,0 18.42705,-33.89976,0 18.42738,-33.89937,0 18.42768,-33.89906,0 18.42791,-33.89883,0 18.42808,-33.89859,0 18.42842,-33.89822,0 18.42859,-33.89799,0 18.42889,-33.89754,0 18.42928,-33.89701,0 18.42962,-33.89641,0 18.43008,-33.8958,0 18.43057,-33.89502,0 18.43094,-33.89436,0 18.4313,-33.89378,0 18.43163,-33.8932,0 18.43203,-33.89241,0 18.43237,-33.8918,0 18.43259,-33.89127,0 18.433,-33.8905,0 18.4334,-33.88975,0 18.43377,-33.88893,0 18.4341,-33.88829,0 18.43444,-33.88756,0 18.43477,-33.88691,0 18.43506,-33.88612,0 18.43517,-33.88527,0 18.43523,-33.88463,0 18.43511,-33.8838,0 18.43494,-33.88309,0 18.43472,-33.88235,0 18.43426,-33.88146,0 18.43374,-33.88081,0 18.43306,-33.8803,0 18.43237,-33.87988,0 18.43136,-33.8795,0 18.4306,-33.87928,0 18.42974,-33.87914,0 18.42871,-33.879,0 18.42768,-33.87895,0 18.42654,-33.87891,0 18.4259,-33.8789,0 18.42486,-33.87891,0 18.42379,-33.87895,0 18.4229,-33.879,0 18.42178,-33.87904,0 18.42075,-33.87918,0 18.41981,-33.87927,0 18.41852,-33.87946,0 18.41751,-33.87959,0 18.41662,-33.87973,0 18.41566,-33.87987,0 18.41457,-33.88007,0 18.41366,-33.88021,0 18.41275,-33.88042,0 18.41137,-33.88067,0 18.41051,-33.88086,0 18.40942,-33.88109,0 18.40857,-33.88128,0 18.40742,-33.88156,0 18.40639,-33.88184,0 18.40507,-33.88216,0 18.40439,-33.88235,0 18.40339,-33.88266,0 18.4021,-33.883,0 18.40098,-33.88335,0 18.40003,-33.88367,0 18.39919,-33.88394,0 18.39818,-33.88426,0 18.39689,-33.88472,0 18.39569,-33.88514,0 18.39464,-33.8855,0 18.39352,-33.88596,0 18.39231,-33.88644,0 18.39128,-33.88686,0 18.39038,-33.88724,0 18.389,-33.88779,0 18.38808,-33.88821,0 18.38685,-33.88879,0 18.38579,-33.8893,0 18.38489,-33.8898,0 18.38367,-33.89045,0 18.38276,-33.89096,0 18.38186,-33.89145,0 18.38076,-33.89212,0 18.3795,-33.89291,0 18.37864,-33.89347,0 18.37744,-33.89431,0 18.37693,-33.89474,0 18.37581,-33.89557,0 18.37481,-33.89641,0 18.37385,-33.89722,0 18.37303,-33.89799,0 18.37211,-33.89882,0 18.37114,-33.89976,0 18.37032,-33.90056,0 18.36937,-33.90157,0 18.36864,-33.9023,0 18.36777,-33.90325,0 18.36673,-33.9044,0 18.366,-33.90523,0 18.36527,-33.9061,0 18.36432,-33.9072,0 18.3637,-33.90805,0 18.36281,-33.90921,0 18.36208,-33.91017,0 18.36152,-33.91109,0 18.36101,-33.91187,0 18.36028,-33.91306,0 18.35989,-33.91379,0 18.35924,-33.91494,0 18.35872,-33.91594,0 18.35815,-33.91708,0 18.3577,-33.91801,0 18.35712,-33.91917,0 18.3567,-33.92015,0 18.3563,-33.92097,0 18.35591,-33.92203,0 18.35546,-33.92308,0 18.35507,-33.92422,0 18.35473,-33.92519,0 18.35429,-33.92642,0 18.35395,-33.92734,0 18.3535,-33.92857,0 18.35323,-33.92937,0 18.35289,-33.93048,0 18.35255,-33.9315,0 18.35216,-33.93265,0 18.35186,-33.93365,0 18.35154,-33.93466,0 18.35048,-33.9381,0 18.34952,-33.94153,0 18.34857,-33.94514,0 18.34773,-33.94844,0 18.34672,-33.95251,0 18.34571,-33.95677,0 18.34517,-33.95953,0 18.34414,-33.96529,0 18.34308,-33.97119,0 18.34196,-33.97624,0 18.34105,-33.97904,0 18.33979,-33.98183,0 18.33848,-33.98438,0 18.33714,-33.98708,0 18.33578,-33.98965,0 18.33458,-33.99212,0 18.33406,-33.99324,0 18.33243,-33.99651,0 18.3308,-33.99976,0 18.3292,-34.00338,0 18.32884,-34.00433,0 18.3285,-34.00534,0 18.32823,-34.00627,0 18.32794,-34.00731,0 18.32777,-34.00827,0 18.32766,-34.00925,0 18.32766,-34.01018,0 18.32777,-34.01147,0 18.328,-34.01246,0 18.32828,-34.01335,0 18.32873,-34.01445,0 18.32934,-34.01564,0 18.32989,-34.01646,0 18.33057,-34.01758,0 18.33109,-34.01833,0 18.33183,-34.01935,0 18.33258,-34.02033,0 18.33321,-34.02117,0 18.33378,-34.02196,0 18.33441,-34.0228,0 18.33529,-34.02397,0 18.33596,-34.02475,0 18.33675,-34.02573,0 18.33755,-34.02666,0 18.3382,-34.0275,0 18.33882,-34.02827,0 18.33944,-34.02913,0 18.33994,-34.02988,0 18.34047,-34.03071,0 18.34106,-34.03171,0 18.34162,-34.03276,0 18.34207,-34.03358,0 18.34259,-34.03453,0 18.34311,-34.0356,0 18.34352,-34.03638,0 18.34392,-34.03716,0 18.34419,-34.03778,0 18.34454,-34.03862,0 18.34459,-34.03923,0 18.34436,-34.04002,0 18.34396,-34.04049,0 18.34336,-34.04082,0 18.34253,-34.04095,0 18.34151,-34.04082,0 18.3405,-34.04036,0 18.33961,-34.0397,0 18.33876,-34.03876,0 18.33814,-34.03784,0 18.33742,-34.03656,0 18.33691,-34.03546,0 18.3363,-34.03411,0 18.33573,-34.03281,0 18.33515,-34.03136,0 18.33472,-34.03011,0 18.33429,-34.02903,0 18.33378,-34.02755,0 18.33338,-34.02649,0 18.33269,-34.02475,0 18.3322,-34.02361,0 18.33164,-34.02228,0 18.3312,-34.02126,0 18.33057,-34.01986,0 18.33002,-34.01866,0 18.32957,-34.01756,0 18.32901,-34.01619,0 18.32857,-34.01507,0 18.32817,-34.014,0 18.32788,-34.01293,0 18.32749,-34.01157,0 18.32726,-34.01027,0 18.32703,-34.00883,0 18.32693,-34.0074,0 18.32693,-34.00626,0 18.32693,-34.00475,0 18.32699,-34.00337,0 18.32705,-34.00195,0 18.32714,-34.0005,0 18.32721,-33.99916,0 18.32731,-33.99743,0 18.32744,-33.99605,0 18.32754,-33.99496,0 18.32766,-33.99344,0 18.32788,-33.99207,0 18.32817,-33.99088,0 18.32846,-33.98965,0 18.3289,-33.98831,0 18.32945,-33.98685,0 18.32994,-33.98565,0 18.3304,-33.98481,0 18.33136,-33.98305,0 18.33231,-33.98163,0 18.33326,-33.98034,0 18.33506,-33.97801,0 18.33658,-33.9762,0 18.33675,-33.97596,0 18.33813,-33.97433,0 18.33949,-33.97266,0 18.34111,-33.9706,0 18.34246,-33.96881,0 18.34351,-33.9674,0 18.34442,-33.96614,0 18.34509,-33.96519,0 18.34633,-33.96323,0 18.34705,-33.96186,0 18.34762,-33.96071,0 18.34806,-33.95934,0 18.34843,-33.95809,0 18.34866,-33.95655,0 18.34879,-33.95567,0 18.34891,-33.95421,0 18.349,-33.95297,0 18.34913,-33.95128,0 18.34929,-33.9498,0 18.34941,-33.94835,0 18.34957,-33.9471,0 18.34975,-33.94551,0 18.34991,-33.94463,0 18.35025,-33.94308,0 18.35064,-33.94157,0 18.35106,-33.94012,0 18.35148,-33.93869,0 18.35193,-33.93741,0 18.35238,-33.93612,0 18.35289,-33.93467,0 18.3534,-33.93332,0 18.35398,-33.93202,0 18.3544,-33.931,0 18.35496,-33.92967,0 18.35552,-33.92862,0 18.35621,-33.92718,0 18.3569,-33.92592,0 18.35765,-33.92464,0 18.35833,-33.92345,0 18.359,-33.92239,0 18.35961,-33.92139,0 18.3605,-33.9202,0 18.36124,-33.91919,0 18.36187,-33.91829,0 18.36262,-33.9174,0 18.36365,-33.91617,0 18.3646,-33.91507,0 18.36595,-33.91351,0 18.36673,-33.91264,0 18.36771,-33.91158,0 18.36874,-33.91047,0 18.36954,-33.90958,0 18.37046,-33.9087,0 18.37154,-33.90763,0 18.37245,-33.90688,0 18.37357,-33.90591,0 18.37469,-33.905,0 18.37589,-33.90404,0 18.37643,-33.90363,0 18.37778,-33.9025,0 18.37906,-33.90147,0 18.38018,-33.9006,0 18.38114,-33.89992,0 18.38243,-33.89891,0 18.38388,-33.89786,0 18.38506,-33.89699,0 18.38648,-33.89599,0 18.38769,-33.89507,0 18.38882,-33.89422,0 18.39008,-33.89324,0 18.391,-33.89254,0 18.39223,-33.89159,0 18.39347,-33.89063,0 18.39436,-33.88994,0 18.39543,-33.88916,0 18.39649,-33.8884,0 18.39746,-33.8877,0 18.39861,-33.88686,0 18.39991,-33.88596,0 18.40096,-33.88528,0 18.40204,-33.88458,0 18.4035,-33.88376,0 18.40456,-33.88314,0 18.40602,-33.88243,0 18.4072,-33.88188,0 18.40868,-33.88128,0 18.40984,-33.88087,0 18.41152,-33.88033,0 18.41253,-33.8801,0 18.41394,-33.87983,0 18.41555,-33.87965,0 18.41707,-33.87964,0 18.41824,-33.87974,0 18.4197,-33.88,0 18.42115,-33.88039,0 18.42256,-33.88083,0 18.42441,-33.88152,0 18.42556,-33.88202,0 18.42659,-33.88253,0 18.42762,-33.88305,0 18.42833,-33.88348,0 18.42985,-33.8843,0 18.43097,-33.88495,0 18.43197,-33.88556,0 18.43293,-33.88614,0 18.4341,-33.88687,0 18.43512,-33.88752,0 18.43603,-33.88812,0 18.43724,-33.88898,0 18.43814,-33.88957,0 18.43926,-33.8904,0 18.44027,-33.89119,0 18.44095,-33.8917,0 18.4419,-33.8925,0 18.44274,-33.89328,0 18.44358,-33.89413,0 18.44436,-33.89502,0 18.44487,-33.89589,0 18.44513,-33.89673,0 18.44513,-33.89753,0 18.44501,-33.89832,0 18.44476,-33.89919,0 18.44453,-33.90001,0 18.44433,-33.90064,0 18.44408,-33.90138,0 18.44375,-33.90202,0 18.44324,-33.90279,0 18.44279,-33.90317,0 18.44201,-33.90363,0 18.4413,-33.90381,0 18.44032,-33.90385,0 18.43958,-33.90367,0 18.43884,-33.90325,0 18.43837,-33.9028,0 18.43786,-33.90234,0 18.43746,-33.9019,0 18.43689,-33.90129,0 18.43635,-33.90079,0 18.43579,-33.90028,0 18.43534,-33.89983,0 18.43472,-33.89934,0 18.43439,-33.89909,0 18.4336,-33.89864,0 18.4326,-33.8985,0 18.43203,-33.89854,0 18.4313,-33.89873,0 18.43077,-33.89892,0 18.43019,-33.89911,0 18.42979,-33.89925,0 18.42911,-33.89943,0 18.42865,-33.89957,0 18.42842,-33.89962,0 18.428,-33.89973,0 18.42773,-33.89981,0 18.42749,-33.89992,0 18.42721,-33.9001,0 18.42699,-33.90033,0 18.42693,-33.90055,0 18.42716,-33.90074,0 18.42738,-33.9007,0 18.4276,-33.90074,0</coordinates>
      </LineString>
    </Placemark>
  </Document>
</kml>
