<?xml version="1.0" encoding="UTF-8"?>
<kml xmlns="http://www.opengis.net/kml/2.2">
  <Document>
    <name>FR24 412ae1da</name>
    <Placemark>
      <name>FR24 412ae1da</name>
      <Style><LineStyle><color>ff0000ff</color><width>4</width></LineStyle></Style>
      <LineString>
        <tessellate>1</tessellate>
        <coordinates>18.63837,-33.7635,0 18.64428,-33.76558,0 18.69797,-33.77589,0 18.70323,-33.77794,0 18.70356,-33.77929,0 18.70457,-33.77985,0 18.70622,-33.78149,0 18.70721,-33.78297,0 18.7086,-33.78466,0 18.70995,-33.78615,0 18.71338,-33.78903,0 18.71488,-33.79006,0 18.71807,-33.79248,0 18.72111,-33.79381,0 18.75903,-33.80344,0 18.77078,-33.80333,0 18.76964,-33.81936,0 18.77251,-33.81977,0 18.79795,-33.80673,0 18.79927,-33.80737,0 18.80223,-33.80795,0 18.80333,-33.80864,0 18.80578,-33.80844,0 18.80695,-33.80911,0 18.8079,-33.81015,0 18.8091,-33.81068,0 18.81039,-33.81111,0 18.81405,-33.8118,0 18.82058,-33.81326,0 18.82194,-33.8132,0 18.82402,-33.8136,0 18.82543,-33.81395,0 18.82899,-33.81506,0 18.82924,-33.81564,0 18.83099,-33.81597,0 18.83249,-33.81622,0 18.83373,-33.81684,0 18.8323,-33.82923,0 18.86458,-33.8254,0 18.86965,-33.82979,0 18.86377,-33.83472,0 18.87161,-33.83592,0 18.82962,-33.82772,0 18.81677,-33.79913,0 18.723,-33.77702,0 18.71639,-33.77519,0 18.71353,-33.77288,0 18.71166,-33.77196,0 18.71009,-33.77146,0 18.70894,-33.77119,0 18.70721,-33.77079,0 18.70485,-33.7701,0 18.7016,-33.77188,0 18.70015,-33.77379,0 18.69967,-33.77712,0 18.69966,-33.78504,0 18.66799,-33.78939,0 18.65475,-33.77431,0 18.64655,-33.76595,0 18.64422,-33.76512,0 18.64281,-33.76421,0 18.63891,-33.76157,0 18.63649,-33.76085,0 18.63407,-33.75937,0 18.62902,-33.7573,0 18.6281,-33.75735,0 18.6269,-33.75784,0 18.62618,-33.75857,0 18.62149,-33.75608,0 18.61869,-33.75567,0 18.61704,-33.75566,0 18.61821,-33.75807,0 18.61396,-33.75708,0 18.6085,-33.75547,0 18.42218,-33.89722,0 18.46109,-33.93306,0 18.45494,-33.94061,0 18.455,-33.94152,0 18.4612,-33.9457,0 18.46061,-33.94622,0 18.46412,-33.95115,0 18.46586,-33.95189,0 18.46171,-33.95437,0 18.46369,-33.95544,0 18.47267,-33.96098,0 18.47305,-33.96173,0 18.46902,-33.96655,0 18.46634,-33.96864,0 18.46735,-33.97021,0 18.46675,-33.97149,0 18.46431,-33.97353,0 18.46456,-33.97517,0 18.46458,-33.97654,0 18.46461,-33.97791,0 18.46472,-33.97911,0 18.46457,-33.98083,0 18.46468,-33.98196,0 18.46494,-33.98347,0 18.46542,-33.98445,0 18.46552,-33.98631,0 18.46551,-33.98754,0 18.46534,-33.98919,0 18.46516,-33.99076,0 18.46539,-33.99199,0 18.46531,-33.99347,0 18.46526,-33.99469,0 18.46537,-33.99598,0 18.46532,-33.99749,0 18.46535,-33.99877,0 18.46558,-34.00013,0 18.46579,-34.00183,0 18.46609,-34.00298,0 18.46598,-34.0048,0 18.46617,-34.00589,0 18.46642,-34.0074,0 18.46651,-34.009,0 18.4666,-34.01063,0 18.46714,-34.01228,0 18.46746,-34.01347,0 18.46757,-34.01464,0 18.46756,-34.01634,0 18.46726,-34.01795,0 18.46758,-34.01958,0 18.46772,-34.02097,0 18.46765,-34.02263,0 18.46762,-34.02385,0 18.46764,-34.02525,0 18.46776,-34.02635,0 18.46781,-34.02774,0 18.46774,-34.02917,0 18.46754,-34.03075,0 18.46733,-34.03226,0 18.46729,-34.03353,0 18.46736,-34.03495,0 18.46764,-34.03664,0 18.46757,-34.03797,0 18.4674,-34.03922,0 18.46756,-34.04071,0 18.46774,-34.04227,0 18.46787,-34.04391,0 18.46786,-34.04527,0 18.46828,-34.047,0 18.46848,-34.04868,0 18.46849,-34.04993,0 18.46857,-34.05118,0 18.46862,-34.05289,0 18.46867,-34.05412,0 18.46886,-34.05579,0 18.46885,-34.05693,0 18.46876,-34.05846,0 18.46878,-34.05984,0 18.4686,-34.06124,0 18.46863,-34.06285,0 18.4688,-34.06344,0 18.46884,-34.06483,0 18.46907,-34.06618,0 18.46885,-34.06792,0 18.46877,-34.06957,0 18.46921,-34.07128,0 18.46923,-34.07207,0 18.46932,-34.07386,0 18.46929,-34.07509,0 18.46955,-34.07651,0 18.46945,-34.07818,0 18.46947,-34.07936,0 18.46964,-34.08071,0 18.46993,-34.08209,0 18.47005,-34.08324,0 18.47013,-34.08485,0 18.47059,-34.08586,0 18.47101,-34.08701,0 18.4712,-34.08866,0 18.47148,-34.0904,0 18.47156,-34.09184,0 18.47176,-34.09338,0 18.47169,-34.09467,0 18.4713,-34.09613,0 18.47123,-34.09783,0 18.47124,-34.09896,0 18.47131,-34.10056,0 18.47124,-34.10194,0 18.47124,-34.10322,0 18.47147,-34.10471,0 18.47145,-34.10602,0 18.47149,-34.10729,0 18.4715,-34.10838,0 18.47149,-34.10989,0 18.47194,-34.11109,0 18.47166,-34.11211,0 18.47126,-34.11338,0 18.47092,-34.11482,0 18.47037,-34.11638,0 18.46977,-34.1178,0 18.46935,-34.11889,0 18.4687,-34.12027,0 18.46795,-34.12178,0 18.46742,-34.12282,0 18.46683,-34.12397,0 18.46593,-34.12582,0 18.46549,-34.12646,0 18.46484,-34.12769,0 18.46411,-34.12896,0 18.46342,-34.13037,0 18.46238,-34.13206,0 18.46169,-34.13316,0 18.46115,-34.13412,0 18.46032,-34.13547,0 18.45928,-34.13724,0 18.45888,-34.13789,0 18.4581,-34.13927,0 18.45729,-34.14053,0 18.45671,-34.14145,0 18.45588,-34.14283,0 18.45528,-34.14387,0 18.45469,-34.14482,0 18.45405,-34.14605,0 18.45357,-34.14689,0 18.45276,-34.14846,0 18.452,-34.14968,0 18.45144,-34.15065,0 18.45078,-34.15187,0 18.44987,-34.15348,0 18.44936,-34.15453,0 18.44887,-34.15533,0 18.44836,-34.15635,0 18.44765,-34.15761,0 18.44695,-34.15908,0 18.44632,-34.16059,0 18.44585,-34.16166,0 18.44518,-34.16303,0 18.44432,-34.16487,0 18.4438,-34.16587,0 18.44318,-34.16722,0 18.4429,-34.1685,0 18.44258,-34.16985,0 18.44231,-34.17088,0 18.44196,-34.17235,0 18.44123,-34.17396,0 18.4406,-34.175,0 18.43986,-34.17582,0 18.43865,-34.17672,0 18.43716,-34.17768,0 18.43577,-34.17866,0 18.43473,-34.17942,0 18.43391,-34.18022,0 18.4332,-34.18138,0 18.43296,-34.18271,0 18.43251,-34.18472,0 18.43254,-34.18662,0 18.43339,-34.18723,0 18.43577,-34.18716,0 18.43717,-34.18768,0 18.43877,-34.18801,0 18.44018,-34.18839,0 18.44146,-34.18899,0 18.44316,-34.18982,0 18.44456,-34.19044,0 18.44593,-34.19122,0 18.44713,-34.19213,0 18.44815,-34.19305,0 18.44967,-34.19414,0 18.45078,-34.19497,0 18.45208,-34.19624,0 18.4535,-34.19757,0 18.45446,-34.19843,0 18.45576,-34.19962,0 18.45678,-34.20035,0 18.45777,-34.20186,0 18.4581,-34.20458,0 18.45933,-34.2061,0 18.46133,-34.20711,0 18.46195,-34.20807,0 18.46195,-34.20923,0 18.46331,-34.21024,0 18.46433,-34.21136,0 18.46514,-34.2126,0 18.46588,-34.21369,0 18.46702,-34.21508,0 18.46764,-34.21629,0 18.46862,-34.21771,0 18.46938,-34.21902,0 18.47,-34.22049,0 18.47085,-34.22174,0 18.47148,-34.22234,0 18.47258,-34.22385,0 18.47373,-34.22505,0 18.47438,-34.22557,0 18.47511,-34.22706,0 18.47567,-34.22806,0 18.47632,-34.22899,0 18.47703,-34.23008,0 18.47775,-34.23164,0 18.478,-34.23281,0 18.47816,-34.23445,0 18.47847,-34.2356,0 18.47889,-34.23719,0 18.4791,-34.23835,0 18.47922,-34.24002,0 18.47961,-34.24151,0 18.48005,-34.24295,0 18.48052,-34.24364,0 18.48103,-34.24473,0 18.48149,-34.24578,0 18.48219,-34.24723,0 18.48265,-34.24818,0 18.48306,-34.24957,0 18.48337,-34.25136,0 18.48338,-34.25266,0 18.48356,-34.25412,0 18.48365,-34.25568,0 18.48398,-34.25706,0 18.48416,-34.25868,0 18.48455,-34.26006,0 18.48464,-34.26178,0 18.48485,-34.2627,0 18.48521,-34.26368,0 18.48526,-34.26565,0 18.48513,-34.26702,0 18.48497,-34.2688,0 18.48473,-34.27051,0 18.48466,-34.27141,0 18.48462,-34.27327,0 18.48468,-34.27463,0 18.48476,-34.27623,0 18.48488,-34.27745,0 18.48582,-34.27729,0 18.48602,-34.27903,0 18.48635,-34.2803,0 18.48657,-34.28474,0 18.48519,-34.28716,0 18.48416,-34.28996,0 18.48404,-34.29105,0 18.48565,-34.29158,0 18.48785,-34.29074,0 18.48643,-34.2946,0 18.48575,-34.29737,0 18.48689,-34.29799,0 18.48703,-34.2999,0 18.48683,-34.30166,0 18.48675,-34.30375,0 18.48692,-34.30618,0 18.48673,-34.3076,0 18.48698,-34.30894,0 18.48716,-34.31026,0 18.48727,-34.31269,0 18.48706,-34.31364,0 18.48693,-34.31545,0 18.48733,-34.3167,0 18.48738,-34.31892,0 18.48772,-34.31982,0 18.48834,-34.32096,0 18.48901,-34.32187,0 18.48938,-34.32282,0 18.48967,-34.32428,0 18.49079,-34.32528,0 18.49145,-34.32652,0 18.49234,-34.32784,0 18.49404,-34.3264,0 18.49623,-34.32694,0 18.49838,-34.32959,0 18.49896,-34.33223,0 18.49922,-34.33438,0 18.49959,-34.33609,0 18.49838,-34.34157,0 18.49747,-34.34385,0 18.50027,-34.34438,0 18.50094,-34.34715,0 18.5035,-34.3482,0 18.50723,-34.34623,0 18.50344,-34.35682,0 18.51049,-34.35285,0 18.50599,-34.36362,0 18.50747,-34.36083,0 18.49974,-34.36813,0 18.50339,-34.3623,0 18.50343,-34.36087,0 18.4927,-34.36879,0 18.4939,-34.36478,0 18.49056,-34.36692,0 18.49032,-34.36533,0 18.48571,-34.36658,0 18.48579,-34.36491,0 18.48537,-34.36363,0 18.48455,-34.36257,0 18.48432,-34.36032,0 18.48339,-34.35929,0 18.48224,-34.35858,0 18.48175,-34.35513,0 18.46836,-34.36461,0 18.46792,-34.3646,0 18.4656,-34.36379,0 18.46261,-34.36279,0 18.4618,-34.36216,0 18.46164,-34.36171,0 18.46237,-34.35887,0 18.46256,-34.35733,0 18.46255,-34.35604,0 18.4613,-34.35469,0 18.45846,-34.35419,0 18.47119,-34.36162,0 18.47224,-34.36438,0 18.48368,-34.36537,0 18.4882,-34.36845,0 18.50663,-34.35546,0 18.50049,-34.36192,0 18.50326,-34.35817,0 18.49713,-34.36431,0 18.49788,-34.35886,0 18.60038,-33.75427,0 18.61674,-33.76036,0 18.61913,-33.75907,0 18.61999,-33.75725,0 18.6252,-33.75967,0 18.62905,-33.76007,0 18.63224,-33.76204,0 18.63294,-33.76176,0 18.63689,-33.76309,0 18.6392,-33.7637,0 18.64196,-33.76397,0 18.64615,-33.76589,0 18.64825,-33.76837,0 18.66348,-33.78397,0 18.66517,-33.78579,0 18.70072,-33.79747,0 18.70005,-33.77377,0 18.70395,-33.77184,0 18.7067,-33.77423,0 18.7123,-33.77812,0 18.71368,-33.77965,0 18.7615,-33.80479,0 18.76986,-33.80746,0 18.76332,-33.82687,0 18.78619,-33.81528,0 18.79367,-33.82007,0 18.80087,-33.8247,0 18.80244,-33.82578,0 18.80311,-33.82679,0 18.80839,-33.83106,0 18.81179,-33.83373,0 18.81252,-33.8344,0 18.81454,-33.83531,0 18.81682,-33.83762,0 18.81766,-33.83826,0 18.81917,-33.83958,0 18.82062,-33.8404,0 18.83507,-33.85083,0 18.84817,-33.85921,0 18.86602,-33.86987,0 18.92585,-33.87988,0 18.92596,-33.89052,0 18.92673,-33.89427,0 18.93282,-33.90297,0 18.9142,-33.90717,0 18.9216,-33.91256,0 18.92511,-33.91632,0 18.75848,-33.95216,0 18.75425,-33.95352,0 18.7474,-33.95535,0 18.73922,-33.96717,0 18.73708,-33.96774,0 18.73596,-33.968,0 18.73272,-33.96872,0 18.70818,-33.97517,0 18.70319,-33.97608,0 18.69895,-33.97691,0 18.69736,-33.9771,0 18.69659,-33.97713,0 18.69438,-33.9773,0 18.69312,-33.97735,0 18.69063,-33.97736,0 18.68686,-33.97704,0 18.68417,-33.97668,0 18.68258,-33.97648,0 18.6814,-33.97633,0 18.68014,-33.97611,0 18.67657,-33.97556,0 18.67379,-33.97494,0 18.67322,-33.97495,0 18.67147,-33.97489,0 18.67017,-33.97461,0 18.66902,-33.97441,0 18.66788,-33.97417,0 18.6663,-33.97393,0 18.66486,-33.97386,0 18.66315,-33.97365,0 18.66163,-33.97343,0 18.66054,-33.97316,0 18.6593,-33.973,0 18.65782,-33.97268,0 18.65637,-33.97266,0 18.65506,-33.97242,0 18.65339,-33.97221,0 18.65162,-33.97191,0 18.65014,-33.97175,0 18.6489,-33.97163,0 18.64774,-33.97139,0 18.64657,-33.97119,0 18.64515,-33.97103,0 18.64397,-33.97094,0 18.64244,-33.97073,0 18.6412,-33.97057,0 18.63962,-33.97047,0 18.63793,-33.97031,0 18.63691,-33.97023,0 18.63537,-33.97012,0 18.63425,-33.97003,0 18.63315,-33.97,0 18.63168,-33.97005,0 18.63035,-33.97013,0 18.62887,-33.9702,0 18.62757,-33.97022,0 18.62641,-33.97026,0 18.62525,-33.97039,0 18.62421,-33.97047,0 18.6229,-33.97064,0 18.622,-33.97077,0 18.62087,-33.97087,0 18.6198,-33.97095,0 18.619,-33.97105,0 18.61812,-33.97121,0 18.61733,-33.97131,0 18.61668,-33.97134,0 18.6159,-33.97144,0 18.61517,-33.97153,0 18.61449,-33.97171,0 18.6138,-33.97183,0 18.61325,-33.97199,0 18.61296,-33.97202,0 18.61238,-33.97205,0 18.61493,-33.96809,0 18.61562,-33.97324,0 18.6168,-33.97731,0 18.61707,-33.97718,0 18.61304,-33.97583,0 18.61214,-33.97625,0 18.61093,-33.97662,0 18.61073,-33.97705,0 18.60953,-33.97485,0 18.62045,-33.97963,0</coordinates>
      </LineString>
    </Placemark>
  </Document>
</kml>
