<?xml version="1.0" encoding="UTF-8"?>
<kml xmlns="http://www.opengis.net/kml/2.2">
  <Document>
    <name>FR24 3f7c5851</name>
    <Placemark>
      <name>FR24 3f7c5851</name>
      <Style><LineStyle><color>ff0000ff</color><width>4</width></LineStyle></Style>
      <LineString>
        <tessellate>1</tessellate>
        <coordinates>18.42844,-33.8996,0 18.42831,-33.89934,0 18.42839,-33.89882,0 18.42854,-33.89832,0 18.42861,-33.89795,0 18.42882,-33.8972,0 18.42894,-33.89673,0 18.42916,-33.89613,0 18.42939,-33.89548,0 18.42951,-33.89497,0 18.42974,-33.89426,0 18.42985,-33.89388,0 18.43001,-33.89328,0 18.43025,-33.89245,0 18.43046,-33.89177,0 18.4306,-33.89138,0 18.43077,-33.89063,0 18.43091,-33.89008,0 18.43105,-33.88952,0 18.43114,-33.88902,0 18.43117,-33.88831,0 18.43119,-33.8877,0 18.43114,-33.88701,0 18.431,-33.88626,0 18.43074,-33.88568,0 18.43052,-33.88522,0 18.43019,-33.88467,0 18.42985,-33.88408,0 18.42934,-33.88342,0 18.42889,-33.88284,0 18.42828,-33.88225,0 18.42779,-33.88179,0 18.42722,-33.88132,0 18.42648,-33.88083,0 18.42567,-33.88034,0 18.42503,-33.88005,0 18.42424,-33.87973,0 18.42334,-33.87941,0 18.42258,-33.87923,0 18.42155,-33.879,0 18.42052,-33.87881,0 18.41955,-33.87872,0 18.41841,-33.87868,0 18.41721,-33.87872,0 18.416,-33.87886,0 18.41488,-33.879,0 18.41394,-33.87918,0 18.41303,-33.87941,0 18.4116,-33.87979,0 18.41056,-33.8801,0 18.40971,-33.88039,0 18.40845,-33.88086,0 18.40759,-33.8812,0 18.40668,-33.88151,0 18.40524,-33.88206,0 18.4045,-33.88239,0 18.40316,-33.88293,0 18.40204,-33.88344,0 18.40075,-33.88408,0 18.39969,-33.88463,0 18.39855,-33.88523,0 18.39762,-33.88577,0 18.39678,-33.88626,0 18.39563,-33.88696,0 18.39478,-33.88752,0 18.39386,-33.88815,0 18.39291,-33.88879,0 18.39179,-33.88957,0 18.39083,-33.89031,0 18.38994,-33.89099,0 18.38881,-33.89191,0 18.38779,-33.89278,0 18.38688,-33.89357,0 18.38612,-33.89424,0 18.38489,-33.89534,0 18.38413,-33.89603,0 18.38287,-33.89715,0 18.38203,-33.89795,0 18.38133,-33.89859,0 18.38013,-33.89976,0 18.37915,-33.90069,0 18.37835,-33.90148,0 18.37732,-33.9025,0 18.37652,-33.9033,0 18.37559,-33.90422,0 18.3748,-33.90504,0 18.37383,-33.90604,0 18.37306,-33.90688,0 18.37206,-33.90797,0 18.37144,-33.90871,0 18.37032,-33.91003,0 18.36966,-33.91088,0 18.36868,-33.91209,0 18.368,-33.91298,0 18.36725,-33.91391,0 18.36639,-33.91512,0 18.36576,-33.916,0 18.36499,-33.91713,0 18.36415,-33.91841,0 18.36365,-33.91919,0 18.36267,-33.92075,0 18.36205,-33.92178,0 18.3613,-33.92313,0 18.36056,-33.92448,0 18.35987,-33.92578,0 18.35924,-33.92704,0 18.35867,-33.92811,0 18.3581,-33.92926,0 18.35759,-33.93022,0 18.35678,-33.93179,0 18.3563,-33.93283,0 18.35552,-33.9343,0 18.35496,-33.93544,0 18.35451,-33.9364,0 18.35216,-33.9413,0 18.35036,-33.94514,0 18.34851,-33.94894,0 18.34661,-33.95293,0 18.34476,-33.95668,0 18.341,-33.96565,0 18.33842,-33.9722,0 18.33613,-33.9787,0 18.33394,-33.9852,0 18.33183,-33.99221,0 18.33023,-33.99812,0 18.32949,-34.00185,0 18.32914,-34.00399,0 18.32901,-34.00511,0 18.32891,-34.00687,0 18.3289,-34.00836,0 18.32895,-34.01006,0 18.32912,-34.01175,0 18.32945,-34.01331,0 18.32985,-34.01486,0 18.3303,-34.01614,0 18.3308,-34.0173,0 18.33158,-34.01889,0 18.33226,-34.02008,0 18.33321,-34.02172,0 18.33395,-34.02293,0 18.33487,-34.02438,0 18.33551,-34.02539,0 18.33664,-34.02717,0 18.33758,-34.02869,0 18.33837,-34.02988,0 18.33926,-34.03139,0 18.34007,-34.03281,0 18.34076,-34.03406,0 18.34133,-34.03509,0 18.34213,-34.03672,0 18.34293,-34.03844,0 18.34358,-34.04004,0 18.34409,-34.04137,0 18.34465,-34.04283,0 18.34511,-34.04435,0 18.34551,-34.04565,0 18.34602,-34.04742,0 18.34644,-34.04897,0 18.34683,-34.05057,0 18.34717,-34.05217,0 18.34745,-34.05362,0 18.34768,-34.0551,0 18.34785,-34.05603,0 18.34797,-34.05766,0 18.34797,-34.05929,0 18.34791,-34.06134,0 18.34773,-34.06274,0 18.34757,-34.06404,0 18.34734,-34.06577,0 18.34705,-34.06735,0 18.34677,-34.06865,0 18.34638,-34.07043,0 18.34599,-34.07199,0 18.3456,-34.07359,0 18.34522,-34.07494,0 18.34465,-34.07735,0 18.3442,-34.07945,0 18.34397,-34.08073,0 18.34369,-34.08247,0 18.34347,-34.08408,0 18.34333,-34.08546,0 18.34324,-34.08701,0 18.34316,-34.08871,0 18.34328,-34.09048,0 18.34345,-34.09216,0 18.34369,-34.09355,0 18.34408,-34.09528,0 18.34448,-34.09653,0 18.34505,-34.09816,0 18.34571,-34.09959,0 18.34638,-34.10083,0 18.34739,-34.10234,0 18.34831,-34.10347,0 18.34947,-34.10463,0 18.35104,-34.10587,0 18.35203,-34.10659,0 18.35363,-34.10757,0 18.35518,-34.10845,0 18.35653,-34.10921,0 18.35849,-34.11017,0 18.35956,-34.11067,0 18.36153,-34.11153,0 18.36337,-34.11232,0 18.36471,-34.11287,0 18.36611,-34.11348,0 18.3678,-34.11424,0 18.3692,-34.11488,0 18.37093,-34.11575,0 18.37211,-34.1163,0 18.37402,-34.11722,0 18.37561,-34.11795,0 18.37727,-34.11868,0 18.37841,-34.11921,0 18.37985,-34.11978,0 18.38139,-34.12041,0 18.38287,-34.12102,0 18.38428,-34.12152,0 18.38602,-34.12218,0 18.38747,-34.12276,0 18.38943,-34.12349,0 18.39111,-34.12413,0 18.39243,-34.12461,0 18.39392,-34.12514,0 18.3954,-34.12568,0 18.39717,-34.12633,0 18.40003,-34.12729,0 18.40182,-34.12798,0 18.40319,-34.12842,0 18.40496,-34.12907,0 18.40673,-34.12968,0 18.40821,-34.13017,0 18.41011,-34.13084,0 18.41163,-34.13136,0 18.41309,-34.13187,0 18.41497,-34.13247,0 18.4164,-34.13298,0 18.41784,-34.13345,0 18.41967,-34.13406,0 18.42104,-34.13457,0 18.42267,-34.13512,0 18.42442,-34.13568,0 18.42625,-34.13629,0 18.42788,-34.13676,0 18.42928,-34.13708,0 18.43077,-34.13741,0 18.43276,-34.13777,0 18.43422,-34.138,0 18.43563,-34.13815,0 18.43735,-34.13824,0 18.43943,-34.13832,0 18.4409,-34.13829,0 18.44233,-34.1382,0 18.44375,-34.13805,0 18.44537,-34.13782,0 18.44702,-34.1375,0 18.44851,-34.13718,0 18.44958,-34.1369,0 18.45109,-34.13649,0 18.45227,-34.13612,0 18.45339,-34.13571,0 18.45474,-34.13517,0 18.45585,-34.13466,0 18.4572,-34.13401,0 18.45832,-34.13342,0 18.45933,-34.13283,0 18.46041,-34.13219,0 18.46129,-34.13164,0 18.46241,-34.13086,0 18.46355,-34.13005,0 18.46443,-34.1293,0 18.46522,-34.12862,0 18.466,-34.12793,0 18.4667,-34.12717,0 18.46751,-34.12633,0 18.46807,-34.12563,0 18.46888,-34.1247,0 18.46939,-34.12405,0 18.46996,-34.1233,0 18.47059,-34.12251,0 18.47104,-34.1218,0 18.47168,-34.12083,0 18.47222,-34.11996,0 18.47288,-34.11902,0 18.47328,-34.11842,0 18.47385,-34.11745,0 18.47435,-34.11667,0 18.47488,-34.11572,0 18.47534,-34.11492,0 18.47592,-34.11388,0 18.47637,-34.1131,0 18.47694,-34.11227,0 18.47749,-34.11154,0 18.47805,-34.11058,0 18.47856,-34.10962,0 18.47883,-34.10883,0 18.47906,-34.10806,0 18.47929,-34.10706,0 18.47945,-34.10628,0 18.47956,-34.10522,0 18.47963,-34.1044,0 18.47969,-34.10347,0 18.47973,-34.10234,0 18.47975,-34.10138,0 18.47973,-34.10051,0 18.47975,-34.09961,0 18.47973,-34.09868,0 18.47975,-34.09779,0 18.47969,-34.09681,0 18.47968,-34.09602,0 18.47968,-34.09502,0 18.47968,-34.09396,0 18.47963,-34.09309,0 18.47968,-34.09232,0 18.47962,-34.09126,0 18.47963,-34.09039,0 18.47963,-34.08918,0 18.47956,-34.08838,0 18.47958,-34.08755,0 18.47952,-34.08652,0 18.47946,-34.08559,0 18.47935,-34.0848,0 18.47928,-34.08366,0 18.47929,-34.08285,0 18.47929,-34.08201,0 18.4794,-34.08101,0 18.47946,-34.0802,0 18.47956,-34.07936,0 18.47968,-34.07835,0 18.47975,-34.07735,0 18.47985,-34.07657,0 18.47996,-34.07552,0 18.48009,-34.07456,0 18.48015,-34.07377,0 18.48032,-34.0727,0 18.48041,-34.07185,0 18.48049,-34.07098,0 18.48061,-34.07023,0 18.48069,-34.0692,0 18.48083,-34.06828,0 18.48089,-34.06763,0 18.48108,-34.06664,0 18.48119,-34.06558,0 18.48136,-34.06476,0 18.48146,-34.06376,0 18.48164,-34.06279,0 18.48181,-34.0619,0 18.48192,-34.06092,0 18.48203,-34.06013,0 18.48215,-34.05915,0 18.48225,-34.05821,0 18.48231,-34.05757,0 18.48242,-34.05652,0 18.48249,-34.05566,0 18.48255,-34.05487,0 18.48265,-34.05382,0 18.48276,-34.05299,0 18.48289,-34.05185,0 18.48295,-34.05087,0 18.48307,-34.04998,0 18.4831,-34.04924,0 18.48321,-34.04846,0 18.4833,-34.04747,0 18.48338,-34.04654,0 18.48349,-34.04576,0 18.48358,-34.04505,0 18.4837,-34.04412,0 18.48377,-34.04306,0 18.48387,-34.04235,0 18.48398,-34.04142,0 18.4841,-34.04039,0 18.4841,-34.03981,0 18.48421,-34.03876,0 18.48427,-34.03802,0 18.48427,-34.03729,0 18.48433,-34.03629,0 18.48433,-34.0355,0 18.48438,-34.03467,0 18.48438,-34.03391,0 18.48444,-34.0329,0 18.48444,-34.03211,0 18.48466,-34.02965,0 18.48472,-34.02855,0 18.48489,-34.0258,0 18.48495,-34.02503,0 18.485,-34.02415,0 18.48506,-34.02342,0 18.48513,-34.0228,0 18.48517,-34.02182,0 18.48523,-34.02109,0 18.48528,-34.02022,0 18.48534,-34.01949,0 18.48534,-34.01857,0 18.48541,-34.01786,0 18.48545,-34.01692,0 18.48551,-34.01619,0 18.48556,-34.01537,0 18.48564,-34.01446,0 18.48576,-34.01353,0 18.48584,-34.01276,0 18.48593,-34.01186,0 18.48601,-34.01115,0 18.4861,-34.01014,0 18.48616,-34.00948,0 18.48627,-34.00864,0 18.48644,-34.00767,0 18.48656,-34.00683,0 18.48674,-34.00603,0 18.48685,-34.00529,0 18.48719,-34.00259,0 18.48736,-34.00099,0 18.48747,-34.00008,0 18.48752,-33.99939,0 18.48758,-33.99852,0 18.48759,-33.9977,0 18.48764,-33.99715,0 18.4877,-33.99622,0 18.4877,-33.99566,0 18.48776,-33.99463,0 18.48782,-33.99393,0 18.48799,-33.99142,0 18.48808,-33.98891,0 18.48816,-33.98658,0 18.48822,-33.98318,0 18.48816,-33.98016,0 18.48808,-33.97925,0 18.48799,-33.97671,0 18.48787,-33.97522,0 18.4878,-33.9743,0 18.4877,-33.9734,0 18.48758,-33.97179,0 18.48752,-33.97092,0 18.48747,-33.97005,0 18.48742,-33.9694,0 18.48736,-33.96849,0 18.4873,-33.96777,0 18.48719,-33.96693,0 18.48708,-33.96616,0 18.48696,-33.96542,0 18.48684,-33.9647,0 18.48667,-33.96372,0 18.48652,-33.96295,0 18.4864,-33.96236,0 18.48621,-33.9613,0 18.48604,-33.9606,0 18.4859,-33.95993,0 18.48573,-33.95897,0 18.48553,-33.95827,0 18.48536,-33.95725,0 18.48518,-33.95627,0 18.48511,-33.95558,0 18.48506,-33.95467,0 18.48501,-33.95376,0 18.48501,-33.95287,0 18.48495,-33.95224,0 18.4849,-33.9512,0 18.48478,-33.95045,0 18.48466,-33.94963,0 18.48455,-33.94883,0 18.48444,-33.94808,0 18.48433,-33.94733,0 18.48415,-33.94626,0 18.48404,-33.94566,0 18.48388,-33.94473,0 18.48371,-33.94386,0 18.48352,-33.9431,0 18.48338,-33.94235,0 18.48315,-33.94162,0 18.48295,-33.94091,0 18.48272,-33.94012,0 18.48237,-33.9391,0 18.48209,-33.9384,0 18.48175,-33.93747,0 18.48147,-33.93677,0 18.48102,-33.93581,0 18.48069,-33.93507,0 18.48041,-33.93452,0 18.4799,-33.93361,0 18.47952,-33.9329,0 18.479,-33.93205,0 18.47861,-33.93137,0 18.47809,-33.93044,0 18.4776,-33.92967,0 18.47729,-33.92918,0 18.47671,-33.92834,0 18.47614,-33.92751,0 18.47557,-33.92671,0 18.47517,-33.92611,0 18.47454,-33.92527,0 18.47401,-33.92459,0 18.47351,-33.92395,0 18.473,-33.92331,0 18.47228,-33.92253,0 18.47162,-33.92183,0 18.47099,-33.92117,0 18.47043,-33.92056,0 18.46981,-33.91992,0 18.46891,-33.91901,0 18.4683,-33.91838,0 18.46768,-33.91782,0 18.46682,-33.91698,0 18.46611,-33.91631,0 18.46544,-33.91571,0 18.46464,-33.91498,0 18.46393,-33.91425,0 18.46309,-33.91347,0 18.46247,-33.91287,0 18.46185,-33.91219,0 18.4609,-33.91127,0 18.46018,-33.91047,0 18.45943,-33.90972,0 18.45875,-33.90902,0 18.45653,-33.90683,0 18.45457,-33.90479,0 18.45234,-33.9025,0 18.4503,-33.90047,0 18.44846,-33.89859,0 18.44784,-33.89809,0 18.44707,-33.89753,0 18.44656,-33.89724,0 18.44576,-33.89697,0 18.44492,-33.89676,0 18.44404,-33.89678,0 18.44313,-33.89692,0 18.4424,-33.89708,0 18.4417,-33.89724,0 18.44072,-33.89749,0 18.43999,-33.89763,0 18.43918,-33.89776,0 18.43855,-33.8979,0 18.43752,-33.89809,0 18.43691,-33.89818,0 18.43601,-33.89832,0 18.43534,-33.89846,0 18.43461,-33.89859,0 18.43391,-33.89869,0 18.43317,-33.89883,0 18.43265,-33.89891,0 18.43197,-33.89901,0 18.43134,-33.89911,0 18.43085,-33.89923,0 18.43035,-33.89932,0 18.42991,-33.89939,0 18.42923,-33.89946,0 18.42894,-33.89952,0 18.42871,-33.89957,0 18.42848,-33.89957,0</coordinates>
      </LineString>
    </Placemark>
  </Document>
</kml>
