<?xml version="1.0" encoding="UTF-8"?>
<kml xmlns="http://www.opengis.net/kml/2.2">
  <Document>
    <name>FR24 3e8008f6</name>
    <Placemark>
      <name>FR24 3e8008f6</name>
      <Style><LineStyle><color>ff0000ff</color><width>4</width></LineStyle></Style>
      <LineString>
        <tessellate>1</tessellate>
        <coordinates>18.42842,-33.8979,0 18.43025,-33.89524,0 18.4317,-33.89319,0 18.43377,-33.89012,0 18.43472,-33.88858,0 18.43534,-33.88751,0 18.43567,-33.88687,0 18.43618,-33.88582,0 18.43649,-33.885,0 18.43678,-33.88388,0 18.43691,-33.88298,0 18.43691,-33.88211,0 18.4368,-33.88133,0 18.43655,-33.88039,0 18.43626,-33.87965,0 18.43579,-33.87877,0 18.43517,-33.87799,0 18.43461,-33.87735,0 18.43391,-33.87672,0 18.43315,-33.87611,0 18.43237,-33.87556,0 18.43153,-33.87502,0 18.43063,-33.87456,0 18.42985,-33.87415,0 18.42889,-33.87369,0 18.42805,-33.87323,0 18.42716,-33.87281,0 18.42626,-33.87236,0 18.42508,-33.87177,0 18.42424,-33.8714,0 18.42344,-33.87099,0 18.42287,-33.87066,0 18.42161,-33.87001,0 18.42058,-33.86945,0 18.41955,-33.86889,0 18.41863,-33.86847,0 18.41778,-33.86815,0 18.41681,-33.86792,0 18.41555,-33.86774,0 18.41449,-33.86765,0 18.41331,-33.86765,0 18.41194,-33.86764,0 18.41084,-33.86765,0 18.40988,-33.86764,0 18.40883,-33.86769,0 18.40765,-33.86774,0 18.40639,-33.86787,0 18.40546,-33.86797,0 18.4041,-33.86819,0 18.40322,-33.86833,0 18.40199,-33.86861,0 18.4009,-33.86889,0 18.39998,-33.86917,0 18.39902,-33.86952,0 18.39809,-33.86987,0 18.39712,-33.87034,0 18.39616,-33.87076,0 18.39487,-33.87149,0 18.3938,-33.87206,0 18.39283,-33.87267,0 18.3919,-33.87328,0 18.39123,-33.87374,0 18.3901,-33.87456,0 18.38898,-33.87534,0 18.38814,-33.87598,0 18.38702,-33.8768,0 18.38625,-33.87741,0 18.38528,-33.87811,0 18.38433,-33.87881,0 18.38333,-33.8796,0 18.38248,-33.88028,0 18.38136,-33.88124,0 18.38047,-33.88198,0 18.37973,-33.88266,0 18.37889,-33.88339,0 18.37812,-33.88407,0 18.37738,-33.88477,0 18.37664,-33.88547,0 18.37566,-33.8864,0 18.37514,-33.88692,0 18.37424,-33.88779,0 18.37334,-33.8887,0 18.3728,-33.88929,0 18.37223,-33.88984,0 18.37116,-33.89095,0 18.37043,-33.89168,0 18.36992,-33.89227,0 18.36836,-33.89392,0 18.36746,-33.89488,0 18.36679,-33.89566,0 18.36611,-33.89644,0 18.36525,-33.89743,0 18.36454,-33.89827,0 18.36365,-33.89929,0 18.36302,-33.90004,0 18.36222,-33.90111,0 18.36159,-33.90195,0 18.36096,-33.90274,0 18.36021,-33.90376,0 18.35972,-33.9045,0 18.35901,-33.90548,0 18.35844,-33.90632,0 18.35793,-33.9071,0 18.3572,-33.90816,0 18.35667,-33.90902,0 18.35602,-33.90999,0 18.35563,-33.91068,0 18.35489,-33.91186,0 18.35438,-33.91275,0 18.35392,-33.91363,0 18.35345,-33.91447,0 18.35283,-33.91558,0 18.35232,-33.9167,0 18.3518,-33.91768,0 18.3514,-33.91861,0 18.35092,-33.9196,0 18.35042,-33.92075,0 18.35003,-33.92166,0 18.34958,-33.92258,0 18.349,-33.92387,0 18.34854,-33.9249,0 18.34814,-33.92583,0 18.34767,-33.92683,0 18.34723,-33.92778,0 18.34566,-33.93109,0 18.3442,-33.93448,0 18.34291,-33.93755,0 18.34111,-33.9418,0 18.33967,-33.94538,0 18.33847,-33.94859,0 18.33736,-33.95178,0 18.33568,-33.96057,0 18.33704,-33.96316,0 18.3395,-33.96502,0 18.34291,-33.9657,0 18.34644,-33.96483,0 18.3494,-33.96256,0 18.3512,-33.95979,0 18.35197,-33.95809,0 18.35255,-33.95645,0 18.35311,-33.95485,0 18.35369,-33.95325,0 18.35423,-33.95164,0 18.35466,-33.95045,0 18.35518,-33.94906,0 18.35575,-33.94757,0 18.35619,-33.94633,0 18.35672,-33.94501,0 18.35712,-33.94398,0 18.3577,-33.94245,0 18.35922,-33.93832,0 18.36079,-33.93425,0 18.36273,-33.92918,0 18.36471,-33.92432,0 18.36697,-33.91936,0 18.36754,-33.91815,0 18.36811,-33.91708,0 18.3688,-33.91577,0 18.36937,-33.91475,0 18.37015,-33.91351,0 18.37091,-33.91228,0 18.37161,-33.91132,0 18.37234,-33.91032,0 18.37326,-33.90907,0 18.37407,-33.90802,0 18.37509,-33.90683,0 18.37576,-33.90605,0 18.37665,-33.90509,0 18.37778,-33.9039,0 18.37858,-33.90302,0 18.37961,-33.90195,0 18.38047,-33.90111,0 18.38142,-33.90024,0 18.38254,-33.89919,0 18.3835,-33.89841,0 18.3845,-33.89754,0 18.38579,-33.89648,0 18.38688,-33.89566,0 18.38802,-33.89478,0 18.38904,-33.89406,0 18.39014,-33.89329,0 18.39163,-33.89236,0 18.39277,-33.8917,0 18.3942,-33.89104,0 18.39552,-33.89045,0 18.39756,-33.88966,0 18.3993,-33.88902,0 18.40059,-33.88861,0 18.40216,-33.88812,0 18.40328,-33.88783,0 18.40501,-33.88742,0 18.40642,-33.8871,0 18.40827,-33.88669,0 18.40954,-33.88644,0 18.4109,-33.88618,0 18.41257,-33.88593,0 18.41394,-33.88575,0 18.41544,-33.88554,0 18.41707,-33.88536,0 18.41841,-33.88523,0 18.42001,-33.88514,0 18.42138,-33.88504,0 18.42273,-33.88499,0 18.42435,-33.88495,0 18.42564,-33.88495,0 18.42705,-33.88496,0 18.42876,-33.88505,0 18.43001,-33.88518,0 18.43153,-33.88541,0 18.43271,-33.8857,0 18.43414,-33.88607,0 18.43534,-33.88651,0 18.43678,-33.88705,0 18.43786,-33.88765,0 18.43887,-33.88829,0 18.43969,-33.88896,0 18.44038,-33.88971,0 18.44094,-33.89049,0 18.44145,-33.89149,0 18.44175,-33.89254,0 18.44181,-33.89333,0 18.44181,-33.89426,0 18.44167,-33.89488,0 18.44135,-33.89599,0 18.44084,-33.89678,0 18.44022,-33.8974,0 18.43958,-33.8978,0 18.43881,-33.89813,0 18.43821,-33.89832,0 18.43746,-33.8985,0 18.43689,-33.89859,0 18.43603,-33.89874,0 18.43556,-33.89882,0 18.43478,-33.89891,0 18.43422,-33.89896,0 18.43363,-33.89906,0 18.43294,-33.89915,0 18.43231,-33.89925,0 18.43174,-33.89934,0 18.42985,-33.89976,0 18.42876,-33.90009,0 18.42819,-33.90027,0 18.42779,-33.90041,0 18.42753,-33.90053,0 18.42739,-33.90018,0 18.42762,-33.89915,0 18.42779,-33.89874,0 18.42813,-33.89813,0 18.42844,-33.89763,0 18.42882,-33.89701,0 18.42929,-33.89635,0 18.42968,-33.89576,0 18.43025,-33.89492,0 18.43071,-33.89417,0 18.43117,-33.89347,0 18.43175,-33.89259,0 18.43214,-33.892,0 18.43283,-33.89101,0 18.43327,-33.89035,0 18.43391,-33.88938,0 18.43449,-33.88854,0 18.43512,-33.88752,0 18.43562,-33.8866,0 18.43624,-33.8855,0 18.43668,-33.88454,0 18.43723,-33.88337,0 18.43764,-33.88252,0 18.43821,-33.88137,0 18.43853,-33.88065,0 18.43904,-33.87964,0 18.4396,-33.87836,0 18.43988,-33.87776,0 18.44061,-33.87662,0 18.44124,-33.87583,0 18.44223,-33.87488,0 18.44296,-33.87442,0 18.44416,-33.87374,0 18.44519,-33.87336,0 18.4465,-33.87309,0 18.4473,-33.87299,0 18.44845,-33.87304,0 18.44954,-33.87327,0 18.45062,-33.87374,0 18.45148,-33.87434,0 18.45204,-33.87506,0 18.45234,-33.87569,0 18.45243,-33.87657,0 18.45227,-33.8773,0 18.45199,-33.87794,0 18.45131,-33.87872,0 18.45047,-33.87932,0 18.44971,-33.87974,0 18.44862,-33.88014,0 18.44788,-33.88034,0 18.44696,-33.88049,0 18.44559,-33.88067,0 18.44436,-33.88074,0 18.4433,-33.88078,0 18.4421,-33.88072,0 18.44078,-33.88055,0 18.43935,-33.88039,0 18.43831,-33.88023,0 18.43702,-33.88005,0 18.43597,-33.87988,0 18.435,-33.87968,0 18.43369,-33.87946,0 18.43237,-33.87928,0 18.43136,-33.87909,0 18.43024,-33.87886,0 18.42906,-33.87863,0 18.42785,-33.87839,0 18.42676,-33.87817,0 18.42562,-33.87793,0 18.42452,-33.87776,0 18.4231,-33.87746,0 18.42184,-33.87723,0 18.42054,-33.87698,0 18.41942,-33.87675,0 18.41824,-33.87653,0 18.41686,-33.8763,0 18.41566,-33.87607,0 18.41208,-33.87547,0 18.41073,-33.87534,0 18.40965,-33.87523,0 18.40827,-33.87515,0 18.40714,-33.87511,0 18.40576,-33.87513,0 18.40462,-33.87513,0 18.40272,-33.87524,0 18.40153,-33.87532,0 18.40033,-33.87541,0 18.39918,-33.87555,0 18.39764,-33.87569,0 18.39644,-33.87589,0 18.39504,-33.87611,0 18.3938,-33.8763,0 18.39246,-33.87657,0 18.39134,-33.87676,0 18.3902,-33.87704,0 18.38865,-33.87737,0 18.38751,-33.87769,0 18.38619,-33.87811,0 18.38493,-33.87853,0 18.38396,-33.87886,0 18.38282,-33.87932,0 18.38167,-33.87979,0 18.3803,-33.88039,0 18.37934,-33.88083,0 18.37805,-33.88152,0 18.37682,-33.88225,0 18.37576,-33.88289,0 18.37498,-33.88342,0 18.37385,-33.88422,0 18.37284,-33.88499,0 18.37194,-33.8857,0 18.37109,-33.8864,0 18.37023,-33.88719,0 18.36914,-33.88821,0 18.3683,-33.88902,0 18.36752,-33.8898,0 18.36679,-33.8905,0 18.36588,-33.89147,0 18.36502,-33.8924,0 18.36415,-33.89342,0 18.36365,-33.89403,0 18.36269,-33.89516,0 18.36153,-33.89673,0 18.36079,-33.89776,0 18.36028,-33.89841,0 18.35961,-33.89941,0 18.35878,-33.90069,0 18.35815,-33.90166,0 18.3577,-33.90246,0 18.35712,-33.90353,0 18.35678,-33.90418,0 18.35632,-33.90511,0 18.35569,-33.90632,0 18.35518,-33.90729,0 18.35479,-33.90816,0 18.35429,-33.90926,0 18.35386,-33.91028,0 18.35346,-33.91112,0 18.35305,-33.912,0 18.35261,-33.9131,0 18.35221,-33.91393,0 18.35182,-33.91475,0 18.35059,-33.91759,0 18.34911,-33.92122,0 18.3479,-33.92395,0 18.3466,-33.92704,0 18.34534,-33.92988,0 18.34397,-33.93265,0 18.34308,-33.93434,0 18.34242,-33.9356,0 18.3419,-33.93649,0 18.34116,-33.93779,0 18.34067,-33.93878,0 18.33961,-33.94235,0 18.33979,-33.94338,0 18.3403,-33.94431,0 18.34105,-33.9451,0 18.34196,-33.94571,0 18.34265,-33.94598,0 18.34381,-33.94629,0 18.34487,-33.94633,0 18.34585,-33.94626,0 18.34682,-33.94598,0 18.34767,-33.9456,0 18.3486,-33.94492,0 18.3493,-33.94427,0 18.34986,-33.94361,0 18.35048,-33.94272,0 18.351,-33.94198,0 18.35192,-33.94114,0 18.35272,-33.94068,0 18.3539,-33.94038,0 18.3549,-33.94043,0 18.35597,-33.94084,0 18.35661,-33.94147,0 18.35701,-33.94231,0 18.35709,-33.94308,0 18.3569,-33.94394,0 18.35647,-33.94478,0 18.35587,-33.94575,0 18.35535,-33.9465,0 18.35484,-33.94729,0 18.35429,-33.94803,0 18.35363,-33.94896,0 18.35295,-33.95004,0 18.35232,-33.95097,0 18.35169,-33.9519,0 18.35154,-33.9521,0 18.34111,-33.96625,0 18.33747,-33.97046,0 18.33383,-33.97513,0 18.33215,-33.97751,0 18.33063,-33.97969,0 18.32886,-33.98248,0 18.32833,-33.98332,0 18.32766,-33.98458,0 18.32682,-33.98602,0 18.32617,-33.98718,0 18.32554,-33.98821,0 18.3248,-33.98964,0 18.32428,-33.99058,0 18.32291,-33.99295,0 18.3211,-33.99609,0 18.31909,-33.99953,0 18.3165,-34.0038,0 18.3146,-34.00703,0 18.3141,-34.00786,0 18.31348,-34.00909,0 18.31301,-34.00999,0 18.31255,-34.01093,0 18.31197,-34.01212,0 18.31146,-34.01308,0 18.31107,-34.01395,0 18.3106,-34.01488,0 18.31009,-34.01604,0 18.30963,-34.01698,0 18.30917,-34.01805,0 18.30872,-34.01898,0 18.3082,-34.02019,0 18.30774,-34.02117,0 18.30729,-34.02229,0 18.30683,-34.02354,0 18.30636,-34.02466,0 18.30597,-34.02559,0 18.30574,-34.02633,0 18.30528,-34.0275,0 18.305,-34.02843,0 18.30471,-34.0295,0 18.30431,-34.03071,0 18.30406,-34.03171,0 18.30385,-34.03276,0 18.30373,-34.034,0 18.30373,-34.03564,0 18.3039,-34.03693,0 18.30412,-34.03789,0 18.30434,-34.03889,0 18.30465,-34.04012,0 18.30496,-34.04114,0 18.30541,-34.04242,0 18.3058,-34.04343,0 18.30619,-34.04434,0 18.30664,-34.04539,0 18.30723,-34.04663,0 18.30769,-34.04752,0 18.3081,-34.04842,0 18.30872,-34.04956,0 18.30922,-34.05052,0 18.30984,-34.05167,0 18.31051,-34.05276,0 18.31113,-34.05382,0 18.31174,-34.05482,0 18.31249,-34.05599,0 18.31309,-34.05688,0 18.31393,-34.05807,0 18.3146,-34.05904,0 18.31544,-34.06027,0 18.31604,-34.06106,0 18.31678,-34.06209,0 18.31776,-34.0633,0 18.31867,-34.06427,0 18.31953,-34.06525,0 18.32049,-34.06631,0 18.32133,-34.06723,0 18.32206,-34.06805,0 18.32301,-34.06906,0 18.32379,-34.06993,0 18.32475,-34.0708,0 18.32581,-34.07162,0 18.32705,-34.07236,0 18.32817,-34.07279,0 18.32929,-34.07304,0 18.33046,-34.07312,0 18.3317,-34.073,0 18.33263,-34.0727,0 18.33372,-34.07214,0 18.33464,-34.07144,0 18.33521,-34.07056,0 18.33549,-34.06953,0 18.33544,-34.06851,0 18.33512,-34.06755,0 18.33469,-34.06688,0 18.33394,-34.06599,0 18.33321,-34.06535,0 18.33218,-34.06479,0 18.33114,-34.06444,0 18.33024,-34.06425,0 18.32923,-34.06421,0 18.32817,-34.0643,0 18.32705,-34.06458,0 18.32634,-34.06493,0 18.32531,-34.06567,0 18.32474,-34.06628,0 18.32422,-34.06721,0 18.32396,-34.0681,0 18.32385,-34.06915,0 18.32391,-34.07016,0 18.32407,-34.0713,0 18.32435,-34.07254,0 18.32462,-34.07349,0 18.48838,-34.32771,0 18.48848,-34.32258,0 18.48673,-34.31873,0 18.48623,-34.3174,0 18.48584,-34.31639,0 18.48541,-34.31505,0 18.48506,-34.31396,0 18.48478,-34.313,0 18.4845,-34.31184,0 18.48416,-34.31049,0 18.48394,-34.30943,0 18.48366,-34.3082,0 18.48347,-34.30681,0 18.48338,-34.30568,0 18.48332,-34.30463,0 18.4833,-34.30327,0 18.48332,-34.30179,0 18.48338,-34.30074,0 18.48347,-34.29936,0 18.48354,-34.29826,0 18.48364,-34.29689,0 18.48377,-34.29588,0 18.48394,-34.29451,0 18.4841,-34.2935,0 18.48422,-34.2925,0 18.48444,-34.29112,0 18.48455,-34.29025,0 18.48478,-34.28888,0 18.48495,-34.28778,0 18.48518,-34.28642,0 18.48528,-34.2854,0 18.48547,-34.28419,0 18.48567,-34.28293,0 18.48584,-34.2816,0 18.48601,-34.28055,0 18.48616,-34.27953,0 18.48623,-34.2784,0 18.48639,-34.27697,0 18.48656,-34.27585,0 18.48668,-34.27478,0 18.48685,-34.27359,0 18.48719,-34.27018,0 18.48764,-34.26538,0 18.4881,-34.26031,0 18.48831,-34.25697,0 18.48839,-34.25588,0 18.48845,-34.25449,0 18.48845,-34.25341,0 18.48856,-34.24946,0 18.48856,-34.24834,0 18.48856,-34.24694,0 18.48853,-34.24585,0 18.48848,-34.24466,0 18.48842,-34.24365,0 18.48831,-34.24223,0 18.48814,-34.24118,0 18.48799,-34.23991,0 18.48787,-34.2388,0 18.48764,-34.23735,0 18.48752,-34.23619,0 18.4873,-34.23486,0 18.48702,-34.23358,0 18.48668,-34.23239,0 18.48639,-34.23126,0 18.48601,-34.22997,0 18.48567,-34.22873,0 18.4853,-34.22763,0 18.4849,-34.22637,0 18.48455,-34.22535,0 18.48415,-34.22427,0 18.48381,-34.22325,0 18.48332,-34.22191,0 18.48295,-34.22087,0 18.48261,-34.22009,0 18.48215,-34.21888,0 18.48181,-34.21788,0 18.48136,-34.21678,0 18.48085,-34.21568,0 18.48038,-34.21455,0 18.47996,-34.21353,0 18.47935,-34.21227,0 18.47889,-34.21124,0 18.47837,-34.21031,0 18.47788,-34.20927,0 18.47723,-34.20803,0 18.47665,-34.20689,0 18.47609,-34.2058,0 18.47557,-34.20477,0 18.47506,-34.20379,0 18.47448,-34.20272,0 18.47294,-34.19965,0 18.47233,-34.19847,0 18.47191,-34.19741,0 18.47139,-34.19625,0 18.47105,-34.19513,0 18.47071,-34.19425,0 18.47032,-34.19298,0 18.46998,-34.19202,0 18.46956,-34.19099,0 18.46919,-34.19005,0 18.46875,-34.18886,0 18.46836,-34.18768,0 18.46796,-34.18661,0 18.46745,-34.1855,0 18.4669,-34.18442,0 18.4663,-34.18359,0 18.46566,-34.18295,0 18.46494,-34.18236,0 18.46393,-34.18185,0 18.4631,-34.18168,0 18.46213,-34.18163,0 18.46138,-34.18182,0 18.46056,-34.18222,0 18.46006,-34.18272,0 18.45972,-34.18332,0 18.45955,-34.18401,0 18.45961,-34.18461,0 18.45984,-34.18536,0 18.46035,-34.1861,0 18.46112,-34.18671,0 18.46212,-34.18717,0 18.46303,-34.18735,0 18.46421,-34.18735,0 18.46527,-34.18713,0 18.46619,-34.18671,0 18.46699,-34.1862,0 18.46791,-34.18542,0 18.46847,-34.18465,0 18.46903,-34.18369,0 18.46947,-34.18254,0 18.4697,-34.18163,0 18.46991,-34.18052,0 18.47013,-34.17944,0 18.47031,-34.17814,0 18.47043,-34.17696,0 18.4706,-34.17595,0 18.47076,-34.1746,0 18.47093,-34.17348,0 18.47105,-34.17232,0 18.47128,-34.17102,0 18.47144,-34.16963,0 18.47157,-34.1686,0 18.47172,-34.16716,0 18.47191,-34.16599,0 18.47242,-34.16199,0 18.47306,-34.157,0 18.4734,-34.15454,0 18.47346,-34.15315,0 18.4734,-34.15207,0 18.47317,-34.15109,0 18.47278,-34.15022,0 18.47228,-34.14944,0 18.47166,-34.14867,0 18.47099,-34.14793,0 18.47036,-34.14728,0 18.46962,-34.14635,0 18.46928,-34.14574,0 18.46882,-34.14467,0 18.46859,-34.14341,0 18.46853,-34.14244,0 18.46865,-34.14118,0 18.46886,-34.14015,0 18.46908,-34.13882,0 18.46933,-34.13783,0 18.46968,-34.13652,0 18.46998,-34.1353,0 18.47025,-34.1341,0 18.4706,-34.13264,0 18.47082,-34.13154,0 18.47111,-34.13052,0 18.47144,-34.12912,0 18.47174,-34.12805,0 18.47211,-34.12665,0 18.47239,-34.1255,0 18.47265,-34.12451,0 18.47289,-34.12317,0 18.47311,-34.12209,0 18.47329,-34.12097,0 18.47351,-34.11953,0 18.47363,-34.11865,0 18.47391,-34.11716,0 18.47407,-34.11607,0 18.47429,-34.11488,0 18.47448,-34.11357,0 18.4746,-34.11241,0 18.47471,-34.11139,0 18.47483,-34.11022,0 18.47491,-34.10889,0 18.47497,-34.10783,0 18.475,-34.10668,0 18.47506,-34.10543,0 18.47508,-34.10431,0 18.47506,-34.10333,0 18.47506,-34.10207,0 18.47508,-34.10097,0 18.47511,-34.09975,0 18.47508,-34.09845,0 18.47508,-34.09735,0 18.47511,-34.09621,0 18.47506,-34.09486,0 18.47506,-34.09383,0 18.47506,-34.09253,0 18.475,-34.09132,0 18.47497,-34.09012,0 18.47497,-34.08911,0 18.47494,-34.08774,0 18.47488,-34.08634,0 18.4748,-34.08527,0 18.47477,-34.08411,0 18.47477,-34.08299,0 18.47474,-34.0817,0 18.47471,-34.08057,0 18.47466,-34.0794,0 18.47463,-34.07826,0 18.47463,-34.07726,0 18.47458,-34.07579,0 18.47443,-34.07088,0 18.47435,-34.06993,0 18.47424,-34.06856,0 18.47418,-34.06746,0 18.47407,-34.06599,0 18.47401,-34.06485,0 18.47397,-34.06372,0 18.47396,-34.06233,0 18.4739,-34.06123,0 18.4738,-34.05734,0 18.4738,-34.05631,0 18.47385,-34.0524,0 18.47391,-34.05119,0 18.47407,-34.04741,0 18.47431,-34.04253,0 18.47443,-34.03853,0 18.47448,-34.03364,0 18.47458,-34.03024,0 18.4746,-34.02638,0 18.4746,-34.02498,0 18.47458,-34.02383,0 18.47458,-34.02292,0 18.47454,-34.02172,0 18.47454,-34.02024,0 18.47454,-34.01902,0 18.47454,-34.01796,0 18.47452,-34.01678,0 18.47454,-34.01567,0 18.47458,-34.01422,0 18.47458,-34.01308,0 18.47466,-34.01186,0 18.47469,-34.01065,0 18.47477,-34.00939,0 18.47497,-34.00653,0 18.47514,-34.00539,0 18.4753,-34.00401,0 18.47546,-34.00283,0 18.47564,-34.00136,0 18.47581,-34.00026,0 18.47598,-33.99902,0 18.4762,-33.99783,0 18.47643,-33.99635,0 18.4766,-33.99514,0 18.47676,-33.99399,0 18.47689,-33.99291,0 18.4771,-33.99142,0 18.47727,-33.99019,0 18.4778,-33.9863,0 18.47843,-33.98113,0 18.47918,-33.9755,0 18.47973,-33.97183,0 18.48026,-33.96763,0 18.48032,-33.96633,0 18.48032,-33.96512,0 18.48032,-33.96391,0 18.48032,-33.96251,0 18.48038,-33.96125,0 18.48043,-33.95967,0 18.48052,-33.95828,0 18.48061,-33.95702,0 18.48072,-33.95581,0 18.48078,-33.95455,0 18.48089,-33.95343,0 18.48095,-33.95222,0 18.48102,-33.95068,0 18.48108,-33.94949,0 18.48112,-33.94841,0 18.48112,-33.94701,0 18.48106,-33.94547,0 18.48102,-33.94437,0 18.48097,-33.9429,0 18.48083,-33.94175,0 18.48072,-33.94059,0 18.48046,-33.9391,0 18.48009,-33.9377,0 18.47979,-33.93663,0 18.47946,-33.93556,0 18.47895,-33.93416,0 18.47844,-33.93306,0 18.47788,-33.93178,0 18.47732,-33.93063,0 18.47672,-33.92946,0 18.47609,-33.92844,0 18.4753,-33.92706,0 18.4746,-33.92597,0 18.47403,-33.92504,0 18.47312,-33.92372,0 18.47219,-33.92238,0 18.47145,-33.92141,0 18.4706,-33.92029,0 18.46945,-33.91889,0 18.46875,-33.91805,0 18.46785,-33.91693,0 18.46693,-33.91587,0 18.46617,-33.91493,0 18.46527,-33.91386,0 18.46458,-33.91302,0 18.46384,-33.91205,0 18.46303,-33.91104,0 18.46224,-33.91009,0 18.46132,-33.90898,0 18.45838,-33.9055,0 18.45753,-33.90454,0 18.4567,-33.90363,0 18.456,-33.90292,0 18.4552,-33.90223,0 18.4544,-33.90157,0 18.45344,-33.90088,0 18.45257,-33.90032,0 18.45154,-33.89981,0 18.45064,-33.89941,0 18.44982,-33.89911,0 18.44896,-33.89891,0 18.44793,-33.89869,0 18.44705,-33.89854,0 18.44616,-33.89846,0 18.44513,-33.89841,0 18.4441,-33.89836,0 18.4433,-33.89836,0 18.44244,-33.89836,0 18.44179,-33.89841,0 18.4409,-33.89841,0 18.43999,-33.89845,0 18.43909,-33.89854,0 18.43842,-33.89864,0 18.43746,-33.89869,0 18.43672,-33.89878,0 18.43552,-33.89892,0 18.43494,-33.89901,0 18.43416,-33.89909,0 18.43363,-33.89911,0 18.43306,-33.89915,0 18.43254,-33.89919,0 18.43203,-33.89925,0 18.43019,-33.89962,0 18.42929,-33.89987,0 18.42871,-33.90009,0 18.42831,-33.90022,0 18.42759,-33.90049,0 18.42739,-33.90059,0 18.42739,-33.90027,0 18.42732,-33.8996,0 18.42739,-33.89906,0 18.42756,-33.8985,0 18.42785,-33.89799,0 18.42997,-33.89506,0 18.43136,-33.89319,0 18.43288,-33.89119,0 18.43431,-33.88919,0 18.43528,-33.8876,0 18.43596,-33.88646,0 18.43643,-33.88523,0 18.43666,-33.88398,0 18.4366,-33.883,0 18.4364,-33.88225,0 18.43609,-33.88151,0 18.4354,-33.88049,0 18.43483,-33.88,0 18.43399,-33.87936,0 18.43328,-33.879,0 18.43248,-33.87862,0 18.4318,-33.8783,0 18.43085,-33.87794,0 18.43024,-33.87776,0 18.42945,-33.87755,0 18.42861,-33.87735,0 18.42772,-33.87712,0 18.42693,-33.87698,0 18.42596,-33.87681,0 18.42519,-33.87671,0 18.42418,-33.87657,0 18.42356,-33.87648,0 18.42267,-33.87643,0 18.42178,-33.87634,0 18.42075,-33.8763,0 18.42001,-33.8763,0 18.41897,-33.8763,0 18.41796,-33.8763,0 18.41692,-33.8763,0 18.41606,-33.87634,0 18.41509,-33.87634,0 18.41398,-33.87639,0 18.41303,-33.87643,0 18.41217,-33.87648,0 18.41131,-33.87653,0 18.41017,-33.87657,0 18.40925,-33.87667,0 18.40827,-33.87675,0 18.40742,-33.87685,0 18.40645,-33.87695,0 18.40536,-33.87709,0 18.40462,-33.87717,0 18.40333,-33.87735,0 18.40238,-33.87749,0 18.40104,-33.87767,0 18.4001,-33.87783,0 18.39879,-33.87808,0 18.39756,-33.87836,0 18.39661,-33.87859,0 18.39537,-33.87886,0 18.39409,-33.87914,0 18.39302,-33.87941,0 18.39201,-33.87968,0 18.39083,-33.88002,0 18.38968,-33.88039,0 18.38871,-33.88076,0 18.38774,-33.88114,0 18.38654,-33.8816,0 18.38568,-33.88202,0 18.38476,-33.88244,0 18.38377,-33.88298,0 18.38259,-33.88358,0 18.38161,-33.88412,0 18.38081,-33.88463,0 18.37967,-33.88528,0 18.37875,-33.88589,0 18.37784,-33.88649,0 18.37698,-33.88705,0 18.37612,-33.88765,0 18.37514,-33.88838,0 18.3743,-33.88902,0 18.37357,-33.88962,0 18.37252,-33.8904,0 18.37177,-33.89108,0 18.37127,-33.89154,0 18.36998,-33.89273,0 18.36874,-33.89394,0 18.36805,-33.89473,0 18.36746,-33.89539,0 18.36679,-33.89613,0 18.36594,-33.89711,0 18.36539,-33.89781,0 18.36466,-33.89873,0 18.36404,-33.89955,0 18.3633,-33.90055,0 18.36256,-33.90153,0 18.36202,-33.90225,0 18.36152,-33.90308,0 18.36096,-33.90395,0 18.36033,-33.90493,0 18.35976,-33.9059,0 18.35936,-33.90656,0 18.3589,-33.90749,0 18.35844,-33.90828,0 18.35798,-33.90921,0 18.35752,-33.91,0 18.35712,-33.91084,0 18.3567,-33.91173,0 18.35625,-33.91264,0 18.35581,-33.91354,0 18.35535,-33.91452,0 18.35501,-33.91516,0 18.35438,-33.91647,0 18.35398,-33.91731,0 18.353,-33.91936,0 18.35266,-33.9201,0 18.35126,-33.92303,0 18.34951,-33.92685,0 18.34806,-33.92995,0 18.34671,-33.933,0 18.34517,-33.93644,0 18.34386,-33.93947,0 18.34252,-33.94272,0 18.34134,-33.94574,0 18.33982,-33.95004,0 18.3395,-33.95101,0 18.33921,-33.95204,0 18.33881,-33.9532,0 18.33853,-33.95413,0 18.33825,-33.95499,0 18.33807,-33.95548,0 18.33579,-33.96332,0 18.33557,-33.96661,0 18.3363,-33.96894,0 18.33876,-33.97131,0 18.3427,-33.97238,0 18.34599,-33.97197,0 18.3493,-33.9705,0 18.35216,-33.9678,0 18.35381,-33.96507,0 18.35479,-33.96281,0 18.35535,-33.96116,0 18.35546,-33.96085,0 18.3563,-33.95778,0 18.35653,-33.95682,0 18.35684,-33.9552,0 18.35707,-33.95399,0 18.35735,-33.95241,0 18.35758,-33.9512,0 18.35787,-33.94976,0 18.3581,-33.94835,0 18.35838,-33.94702,0 18.35872,-33.94569,0 18.35907,-33.94422,0 18.35941,-33.94277,0 18.35984,-33.9413,0 18.36021,-33.94007,0 18.36061,-33.93877,0 18.36107,-33.93736,0 18.36147,-33.93621,0 18.36193,-33.93491,0 18.36233,-33.93374,0 18.3629,-33.93221,0 18.36325,-33.93127,0 18.3637,-33.93011,0 18.36411,-33.92913,0 18.36479,-33.92741,0 18.36525,-33.92634,0 18.36588,-33.92494,0 18.36639,-33.92377,0 18.36702,-33.92243,0 18.36765,-33.92117,0 18.36819,-33.9201,0 18.36885,-33.91889,0 18.36966,-33.91754,0 18.3704,-33.91633,0 18.37093,-33.91544,0 18.37177,-33.91415,0 18.37273,-33.91278,0 18.37346,-33.91187,0 18.3744,-33.91056,0 18.37521,-33.90953,0 18.37624,-33.90828,0 18.37704,-33.90734,0 18.37801,-33.90623,0 18.37895,-33.90514,0 18.37984,-33.90418,0 18.38087,-33.90302,0 18.38186,-33.90202,0 18.38299,-33.90088,0 18.38416,-33.89973,0 18.38489,-33.89905,0 18.38608,-33.89794,0 18.38696,-33.89713,0 18.3882,-33.89608,0 18.38915,-33.89529,0 18.39027,-33.89442,0 18.39151,-33.89357,0 18.39285,-33.89278,0 18.39432,-33.89198,0 18.39565,-33.8914,0 18.397,-33.89085,0 18.39849,-33.89035,0 18.39987,-33.88993,0 18.40109,-33.88962,0 18.40244,-33.8893,0 18.40416,-33.88891,0 18.4057,-33.88863,0 18.40742,-33.88829,0 18.40862,-33.88812,0 18.41011,-33.88788,0 18.4116,-33.88765,0 18.41337,-33.88737,0 18.41486,-33.88714,0 18.41658,-33.88691,0 18.41796,-33.88669,0 18.41981,-33.88646,0 18.42138,-33.88623,0 18.42267,-33.88609,0 18.42407,-33.88591,0 18.42575,-33.88568,0 18.42728,-33.88556,0 18.42872,-33.8855,0 18.43019,-33.88551,0 18.43185,-33.88565,0 18.43315,-33.88582,0 18.43449,-33.88612,0 18.4358,-33.88644,0 18.43723,-33.88696,0 18.43837,-33.88742,0 18.43969,-33.88812,0 18.44072,-33.88877,0 18.44173,-33.88957,0 18.4425,-33.89035,0 18.44319,-33.89136,0 18.44358,-33.89218,0 18.44376,-33.89296,0 18.44375,-33.89378,0 18.44352,-33.89484,0 18.44313,-33.89557,0 18.44267,-33.89622,0 18.44212,-33.89671,0 18.44147,-33.89715,0 18.44078,-33.89749,0 18.4401,-33.89767,0 18.43932,-33.8979,0 18.43865,-33.89799,0 18.43809,-33.89813,0 18.43736,-33.89822,0 18.43674,-33.89832,0 18.43597,-33.89846,0 18.43534,-33.89855,0 18.43433,-33.89873,0 18.43369,-33.89887,0 18.43311,-33.89901,0 18.4326,-33.89911,0 18.43019,-33.89967,0 18.42871,-33.90009,0 18.42819,-33.90022,0 18.42796,-33.90032,0 18.42752,-33.90052,0 18.33721,-33.966,0 18.33487,-33.97024,0 18.33155,-33.97643,0 18.32951,-33.98085,0 18.3284,-33.9836,0 18.32749,-33.98593,0 18.32654,-33.9884,0 18.32554,-33.991,0 18.32346,-33.99619,0 18.32193,-33.99938,0 18.32108,-34.00101,0 18.32056,-34.00208,0 18.3201,-34.00306,0 18.31959,-34.00418,0 18.31914,-34.00511,0 18.31867,-34.00613,0 18.3183,-34.00703,0 18.31776,-34.00818,0 18.31724,-34.00925,0 18.31662,-34.01056,0 18.31621,-34.01148,0 18.3161,-34.01171,0 18.31539,-34.01312,0 18.31438,-34.01527,0 18.31381,-34.01633,0 18.31337,-34.0172,0 18.31261,-34.0187,0 18.31198,-34.02014,0 18.311,-34.02224,0 18.31066,-34.02317,0 18.31032,-34.02401,0 18.30978,-34.02544,0 18.3094,-34.02638,0 18.30894,-34.02754,0 18.30854,-34.02861,0 18.30821,-34.02946,0 18.30782,-34.03052,0 18.30754,-34.03125,0 18.30726,-34.03221,0 18.30681,-34.03381,0 18.30666,-34.03448,0 18.30643,-34.03574,0 18.30626,-34.03714,0 18.30614,-34.03825,0 18.30608,-34.0397,0 18.30614,-34.0409,0 18.30626,-34.04286,0 18.30637,-34.04384,0 18.30653,-34.04489,0 18.30677,-34.04612,0 18.30709,-34.04736,0 18.30743,-34.04837,0 18.30774,-34.04933,0 18.30814,-34.05026,0 18.30866,-34.05152,0 18.30917,-34.05264,0 18.30978,-34.05382,0 18.31029,-34.05478,0 18.31078,-34.05571,0 18.31129,-34.0567,0 18.31191,-34.05789,0 18.31242,-34.05881,0 18.31295,-34.05981,0 18.31364,-34.06106,0 18.31398,-34.06176,0 18.31466,-34.06297,0 18.31522,-34.06403,0 18.31575,-34.06502,0 18.31639,-34.06609,0 18.3169,-34.067,0 18.31764,-34.06805,0 18.31827,-34.06884,0 18.31903,-34.06956,0 18.3201,-34.07037,0 18.32116,-34.07085,0 18.32217,-34.07112,0 18.32363,-34.07121,0 18.32474,-34.07112,0 18.32604,-34.07066,0 18.32697,-34.0701,0 18.32771,-34.0693,0 18.32829,-34.06818,0 18.32845,-34.06714,0 18.32839,-34.06613,0 18.32805,-34.06499,0 18.32761,-34.06407,0 18.32688,-34.06302,0 18.32604,-34.06206,0 18.32525,-34.06125,0 18.32447,-34.06055,0 18.32302,-34.05929,0 18.32199,-34.0585,0 18.32136,-34.05794,0 18.32027,-34.05706,0 18.31936,-34.05631,0 18.31821,-34.05538,0 18.31707,-34.05446,0 18.31593,-34.05352,0 18.31495,-34.05278,0 18.31404,-34.05199,0 18.31303,-34.05116,0 18.31175,-34.05012,0 18.31085,-34.04933,0 18.31003,-34.04863,0 18.3094,-34.04807,0 18.30591,-34.04398,0 18.30513,-34.04219,0 18.30477,-34.04067,0 18.3046,-34.03932,0 18.30465,-34.03816,0 18.30482,-34.03699,0 18.30519,-34.03555,0 18.30585,-34.03411,0 18.30643,-34.0329,0 18.30723,-34.0315,0 18.30799,-34.0302,0 18.30872,-34.0289,0 18.3094,-34.02773,0 18.31003,-34.02671,0 18.31085,-34.02534,0 18.31169,-34.02397,0 18.31214,-34.02324,0 18.31303,-34.02182,0 18.31393,-34.0204,0 18.31455,-34.0194,0 18.31816,-34.01358,0 18.32172,-34.00786,0 18.32424,-34.00369,0 18.32582,-34.00129,0 18.3264,-34.00045,0 18.33086,-33.99371,0 18.33269,-33.99072,0 18.33441,-33.98798,0 18.33778,-33.98215,0 18.34099,-33.97638,0 18.34425,-33.97032,0 18.34711,-33.96474,0 18.35031,-33.95842,0 18.35215,-33.95469,0 18.35412,-33.95068,0 18.35642,-33.94579,0 18.35821,-33.94194,0 18.35999,-33.93812,0 18.36182,-33.93407,0 18.36348,-33.93039,0 18.36583,-33.92555,0 18.36707,-33.92317,0 18.36777,-33.92192,0 18.3684,-33.9208,0 18.36909,-33.91965,0 18.3697,-33.91859,0 18.37032,-33.9175,0 18.37103,-33.91633,0 18.37161,-33.9153,0 18.3725,-33.91388,0 18.37329,-33.91269,0 18.37396,-33.91164,0 18.37469,-33.91049,0 18.37561,-33.90926,0 18.37635,-33.90823,0 18.37709,-33.90716,0 18.37795,-33.90604,0 18.37893,-33.90488,0 18.3799,-33.90372,0 18.3808,-33.90266,0 18.38173,-33.90171,0 18.38259,-33.90083,0 18.38356,-33.89981,0 18.38459,-33.89887,0 18.38573,-33.89785,0 18.38682,-33.89692,0 18.38803,-33.89594,0 18.38911,-33.89506,0 18.39027,-33.89424,0 18.39151,-33.89342,0 18.39272,-33.89268,0 18.39426,-33.89185,0 18.39552,-33.89124,0 18.39695,-33.89063,0 18.39823,-33.89012,0 18.39991,-33.88962,0 18.40136,-33.88924,0 18.40302,-33.88887,0 18.40434,-33.88857,0 18.40608,-33.8882,0 18.40776,-33.88792,0 18.40916,-33.8877,0 18.41079,-33.88742,0 18.41223,-33.88719,0 18.41398,-33.88696,0 18.41561,-33.88678,0 18.41686,-33.88659,0 18.41864,-33.8864,0 18.41984,-33.88626,0 18.42149,-33.88609,0 18.42293,-33.88598,0 18.42407,-33.88589,0 18.42587,-33.88573,0 18.42756,-33.88565,0 18.42882,-33.8856,0 18.43037,-33.8856,0 18.43168,-33.88565,0 18.43304,-33.88568,0 18.43466,-33.88584,0 18.4359,-33.886,0 18.43706,-33.88617,0 18.4387,-33.8866,0 18.43994,-33.88701,0 18.4409,-33.88747,0 18.44218,-33.88824,0 18.44285,-33.88875,0 18.44375,-33.88962,0 18.44433,-33.8904,0 18.4449,-33.89133,0 18.4453,-33.89227,0 18.44547,-33.89287,0 18.44554,-33.89374,0 18.44548,-33.8947,0 18.44524,-33.89543,0 18.44498,-33.89598,0 18.44456,-33.89659,0 18.44425,-33.89694,0 18.44353,-33.89743,0 18.44274,-33.89777,0 18.44184,-33.89799,0 18.44106,-33.89809,0 18.44032,-33.89817,0 18.43987,-33.89822,0 18.43895,-33.89832,0 18.43825,-33.89841,0 18.4374,-33.8985,0 18.43678,-33.89859,0 18.43597,-33.89874,0 18.43569,-33.89878,0 18.43483,-33.89891,0 18.43439,-33.89896,0 18.43349,-33.89905,0 18.43294,-33.89915,0 18.43231,-33.89925,0 18.43029,-33.8996,0 18.42899,-33.89999,0 18.42871,-33.90009,0 18.42813,-33.90027,0 18.42776,-33.90043,0 18.42755,-33.90053,0</coordinates>
      </LineString>
    </Placemark>
  </Document>
</kml>
