<?xml version="1.0" encoding="UTF-8"?>
<kml xmlns="http://www.opengis.net/kml/2.2">
  <Document>
    <name>FR24 40d88ae4</name>
    <Placemark>
      <name>FR24 40d88ae4</name>
      <Style><LineStyle><color>ff0000ff</color><width>4</width></LineStyle></Style>
      <LineString>
        <tessellate>1</tessellate>
        <coordinates>18.42816,-33.87767,0 18.42499,-33.87737,0 18.42396,-33.87735,0 18.42264,-33.87741,0 18.42155,-33.87751,0 18.42035,-33.87765,0 18.41942,-33.87776,0 18.41841,-33.8779,0 18.41763,-33.87804,0 18.41634,-33.87831,0 18.41526,-33.87853,0 18.41406,-33.87886,0 18.41251,-33.87928,0 18.41157,-33.87959,0 18.41034,-33.87997,0 18.40905,-33.88046,0 18.40805,-33.88086,0 18.40714,-33.88123,0 18.4058,-33.88179,0 18.40485,-33.88221,0 18.40372,-33.88271,0 18.40261,-33.88323,0 18.40153,-33.88374,0 18.40019,-33.8844,0 18.39901,-33.88496,0 18.39809,-33.88547,0 18.39741,-33.88584,0 18.39627,-33.88646,0 18.3952,-33.8871,0 18.39425,-33.8877,0 18.39336,-33.88824,0 18.39235,-33.88889,0 18.39146,-33.88942,0 18.39043,-33.89008,0 18.38932,-33.89085,0 18.38848,-33.8914,0 18.3873,-33.89223,0 18.38646,-33.89282,0 18.38545,-33.89352,0 18.38436,-33.89431,0 18.38356,-33.89492,0 18.38271,-33.89552,0 18.3815,-33.89641,0 18.3807,-33.89701,0 18.37996,-33.89766,0 18.37904,-33.89841,0 18.37816,-33.89914,0 18.37744,-33.89978,0 18.37654,-33.9006,0 18.37584,-33.90125,0 18.37521,-33.9019,0 18.37463,-33.90248,0 18.37389,-33.90325,0 18.37312,-33.90408,0 18.37252,-33.90474,0 18.37183,-33.90558,0 18.37133,-33.90614,0 18.37046,-33.90711,0 18.36994,-33.90781,0 18.36943,-33.90846,0 18.3688,-33.9093,0 18.36808,-33.91031,0 18.36754,-33.91107,0 18.36707,-33.91177,0 18.36645,-33.91269,0 18.36578,-33.91365,0 18.36527,-33.91438,0 18.36462,-33.9154,0 18.36416,-33.91619,0 18.36359,-33.91708,0 18.36297,-33.91814,0 18.36239,-33.91908,0 18.36187,-33.92001,0 18.36146,-33.9207,0 18.36079,-33.92184,0 18.35981,-33.92364,0 18.35815,-33.92661,0 18.35681,-33.92912,0 18.3553,-33.93196,0 18.35154,-33.93942,0 18.34991,-33.94295,0 18.34846,-33.9462,0 18.34717,-33.94917,0 18.34582,-33.95242,0 18.34414,-33.95646,0 18.34212,-33.96107,0 18.34027,-33.96579,0 18.33859,-33.97055,0 18.33704,-33.97531,0 18.33557,-33.97989,0 18.33433,-33.98433,0 18.33366,-33.98657,0 18.33299,-33.98877,0 18.33175,-33.99312,0 18.33132,-33.99519,0 18.33097,-33.99738,0 18.33069,-33.99938,0 18.33046,-34.00129,0 18.3304,-34.00236,0 18.33029,-34.0038,0 18.33018,-34.00452,0 18.33013,-34.00543,0 18.33007,-34.00635,0 18.33,-34.00702,0 18.32994,-34.00804,0 18.32989,-34.00888,0 18.32985,-34.00992,0 18.32983,-34.0106,0 18.32983,-34.0113,0 18.32989,-34.01228,0 18.32994,-34.01302,0 18.33012,-34.01372,0 18.33046,-34.01486,0 18.3308,-34.01564,0 18.33115,-34.01637,0 18.33158,-34.01711,0 18.33215,-34.01807,0 18.33265,-34.01875,0 18.33326,-34.01963,0 18.33384,-34.02037,0 18.33429,-34.02094,0 18.33495,-34.02182,0 18.33549,-34.02247,0 18.33641,-34.02349,0 18.33698,-34.02419,0 18.33758,-34.02484,0 18.33824,-34.02568,0 18.33887,-34.02644,0 18.33956,-34.02731,0 18.3403,-34.02824,0 18.34072,-34.02882,0 18.3415,-34.02992,0 18.34207,-34.0307,0 18.34274,-34.03162,0 18.34336,-34.03249,0 18.34385,-34.03322,0 18.34448,-34.03425,0 18.34498,-34.0351,0 18.34538,-34.03587,0 18.34597,-34.03685,0 18.34642,-34.03778,0 18.34688,-34.03872,0 18.3474,-34.0397,0 18.34784,-34.04059,0 18.34843,-34.04174,0 18.34879,-34.04242,0 18.34935,-34.04352,0 18.34963,-34.04416,0 18.35014,-34.04526,0 18.35064,-34.04636,0 18.35117,-34.04742,0 18.35157,-34.04826,0 18.35197,-34.04919,0 18.35238,-34.04993,0 18.35375,-34.05282,0 18.35518,-34.05561,0 18.35647,-34.05835,0 18.35698,-34.05936,0 18.35752,-34.06036,0 18.35793,-34.0612,0 18.35849,-34.06224,0 18.35901,-34.06311,0 18.35944,-34.06389,0 18.36004,-34.06493,0 18.36056,-34.06572,0 18.36113,-34.06665,0 18.36174,-34.06755,0 18.36245,-34.06856,0 18.36296,-34.06935,0 18.36365,-34.0703,0 18.36454,-34.07158,0 18.3651,-34.07236,0 18.36572,-34.07323,0 18.36657,-34.07442,0 18.36735,-34.07538,0 18.36805,-34.07629,0 18.36868,-34.07708,0 18.36937,-34.0779,0 18.37029,-34.07903,0 18.37099,-34.07982,0 18.372,-34.08096,0 18.3728,-34.08183,0 18.37372,-34.0828,0 18.3744,-34.0835,0 18.37531,-34.0844,0 18.37612,-34.08517,0 18.37704,-34.08609,0 18.37778,-34.08681,0 18.37867,-34.08765,0 18.37951,-34.08847,0 18.38058,-34.08943,0 18.38153,-34.09035,0 18.38236,-34.09113,0 18.38332,-34.09209,0 18.38413,-34.09286,0 18.38484,-34.09351,0 18.38757,-34.09612,0 18.38831,-34.09698,0 18.38898,-34.09781,0 18.38957,-34.09877,0 18.39025,-34.09998,0 18.39088,-34.10114,0 18.3914,-34.10203,0 18.39218,-34.10316,0 18.393,-34.10426,0 18.39386,-34.10524,0 18.3947,-34.10609,0 18.39586,-34.1072,0 18.39689,-34.10803,0 18.39781,-34.10878,0 18.39874,-34.10948,0 18.39993,-34.11041,0 18.4012,-34.11131,0 18.40244,-34.11217,0 18.4037,-34.11301,0 18.40479,-34.11374,0 18.40588,-34.11451,0 18.40686,-34.11516,0 18.40811,-34.11599,0 18.40922,-34.11671,0 18.41057,-34.11753,0 18.41157,-34.11818,0 18.41292,-34.119,0 18.41415,-34.11978,0 18.41533,-34.12047,0 18.41673,-34.12129,0 18.41921,-34.12275,0 18.42222,-34.1245,0 18.42351,-34.12523,0 18.42463,-34.12596,0 18.42558,-34.12651,0 18.42682,-34.12721,0 18.42796,-34.12786,0 18.42906,-34.12852,0 18.43025,-34.12917,0 18.43125,-34.12971,0 18.43231,-34.13019,0 18.43328,-34.13057,0 18.43456,-34.13091,0 18.43597,-34.13108,0 18.43708,-34.13109,0 18.43814,-34.13095,0 18.43912,-34.13075,0 18.44021,-34.13042,0 18.44135,-34.12996,0 18.44257,-34.12944,0 18.44335,-34.12903,0 18.44436,-34.12848,0 18.44564,-34.12777,0 18.44662,-34.12717,0 18.44742,-34.12666,0 18.44845,-34.126,0 18.44907,-34.12555,0 18.44994,-34.12493,0 18.45114,-34.12414,0 18.45211,-34.12344,0 18.45277,-34.12299,0 18.45395,-34.12221,0 18.45503,-34.12144,0 18.45583,-34.12083,0 18.45692,-34.12004,0 18.45793,-34.11928,0 18.45871,-34.11859,0 18.45961,-34.11786,0 18.46058,-34.11702,0 18.46138,-34.11637,0 18.46202,-34.1158,0 18.46298,-34.11492,0 18.46378,-34.11413,0 18.46441,-34.11339,0 18.46516,-34.11246,0 18.46573,-34.11162,0 18.46628,-34.11067,0 18.46673,-34.1098,0 18.46722,-34.10873,0 18.46757,-34.10783,0 18.46796,-34.10673,0 18.46824,-34.10577,0 18.46852,-34.10477,0 18.46875,-34.10385,0 18.46891,-34.10303,0 18.46914,-34.10179,0 18.46933,-34.10077,0 18.46942,-34.10005,0 18.46953,-34.09845,0 18.46962,-34.09751,0 18.46968,-34.09649,0 18.46973,-34.09528,0 18.46979,-34.09402,0 18.46981,-34.09305,0 18.46987,-34.09167,0 18.46985,-34.09062,0 18.46987,-34.08948,0 18.46987,-34.08815,0 18.46991,-34.0869,0 18.46991,-34.08587,0 18.46996,-34.08248,0 18.46998,-34.07913,0 18.46996,-34.0767,0 18.46992,-34.0757,0 18.46992,-34.07451,0 18.46992,-34.07332,0 18.46992,-34.07222,0 18.46991,-34.07126,0 18.46991,-34.07019,0 18.46991,-34.06921,0 18.46985,-34.06781,0 18.46987,-34.06654,0 18.46987,-34.06554,0 18.46992,-34.06421,0 18.46992,-34.0632,0 18.46996,-34.0619,0 18.46998,-34.06064,0 18.46998,-34.05959,0 18.47004,-34.05858,0 18.47004,-34.05734,0 18.47002,-34.05636,0 18.47008,-34.05492,0 18.47015,-34.05043,0 18.47015,-34.0459,0 18.4702,-34.04196,0 18.47048,-34.03738,0 18.47076,-34.03411,0 18.47111,-34.02959,0 18.47149,-34.02612,0 18.472,-34.02155,0 18.47265,-34.01693,0 18.47322,-34.01232,0 18.47368,-34.00855,0 18.4742,-34.00418,0 18.47466,-34.0005,0 18.47511,-33.99654,0 18.4757,-33.99298,0 18.47643,-33.9883,0 18.47677,-33.98621,0 18.477,-33.985,0 18.47729,-33.98378,0 18.47755,-33.9825,0 18.47799,-33.9803,0 18.47828,-33.97897,0 18.47844,-33.97815,0 18.47872,-33.97694,0 18.47895,-33.97569,0 18.47918,-33.97457,0 18.47969,-33.97233,0 18.48041,-33.96895,0 18.48063,-33.9679,0 18.4808,-33.96643,0 18.48089,-33.9654,0 18.48095,-33.96405,0 18.48101,-33.9626,0 18.48101,-33.96149,0 18.48108,-33.96016,0 18.48108,-33.95879,0 18.48101,-33.95744,0 18.48097,-33.95627,0 18.48091,-33.95544,0 18.48074,-33.95389,0 18.48061,-33.95278,0 18.48046,-33.95164,0 18.48029,-33.95041,0 18.48013,-33.94908,0 18.47986,-33.94766,0 18.47956,-33.94638,0 18.47928,-33.94528,0 18.47895,-33.94386,0 18.4786,-33.94282,0 18.47822,-33.94167,0 18.47777,-33.94038,0 18.47729,-33.93905,0 18.47676,-33.93759,0 18.4762,-33.93631,0 18.4758,-33.93528,0 18.47523,-33.93393,0 18.47474,-33.93269,0 18.47424,-33.93164,0 18.47374,-33.93053,0 18.47305,-33.92923,0 18.47254,-33.9282,0 18.47183,-33.92688,0 18.47111,-33.92569,0 18.47036,-33.92448,0 18.46962,-33.92331,0 18.46891,-33.92235,0 18.46824,-33.92143,0 18.46751,-33.92052,0 18.46653,-33.9194,0 18.46561,-33.91832,0 18.46465,-33.91731,0 18.46365,-33.91631,0 18.46287,-33.91549,0 18.4618,-33.91443,0 18.46095,-33.91365,0 18.46001,-33.91275,0 18.45903,-33.91182,0 18.45838,-33.91122,0 18.45726,-33.91026,0 18.45642,-33.90958,0 18.45557,-33.90884,0 18.4544,-33.90797,0 18.45348,-33.90725,0 18.45232,-33.90637,0 18.45137,-33.90572,0 18.4503,-33.905,0 18.44936,-33.90437,0 18.44846,-33.90381,0 18.44725,-33.90316,0 18.44627,-33.90262,0 18.44524,-33.90218,0 18.44393,-33.90153,0 18.44347,-33.90129,0 18.44324,-33.9012,0 18.44255,-33.90088,0 18.44201,-33.9007,0 18.44167,-33.90056,0 18.44095,-33.90032,0 18.44061,-33.90022,0 18.43982,-33.90001,0 18.43929,-33.8999,0 18.43878,-33.89981,0 18.43825,-33.89973,0 18.43769,-33.89964,0 18.43729,-33.89962,0 18.43672,-33.89957,0 18.43607,-33.89955,0 18.43534,-33.89951,0 18.43472,-33.89951,0 18.43427,-33.89951,0 18.4338,-33.89952,0 18.43351,-33.89952,0 18.43287,-33.8996,0 18.43248,-33.8996,0 18.43198,-33.89964,0 18.43157,-33.89967,0 18.43108,-33.89969,0 18.43042,-33.89967,0 18.43007,-33.89969,0 18.42979,-33.89964,0 18.42951,-33.89967,0 18.42916,-33.89962,0 18.42889,-33.89964,0 18.42865,-33.89962,0 18.42822,-33.89964,0 18.42796,-33.89971,0 18.42772,-33.89978,0 18.42732,-33.90001,0 18.42705,-33.90022,0 18.42682,-33.90051,0 18.42689,-33.90073,0 18.42712,-33.90089,0 18.42713,-33.9011,0 18.42703,-33.90082,0 18.42693,-33.90051,0 18.42739,-33.89999,0 18.42772,-33.89983,0 18.42802,-33.89976,0 18.42831,-33.89967,0 18.42894,-33.89952,0 18.42934,-33.89939,0 18.42957,-33.89923,0 18.4299,-33.89896,0 18.43008,-33.89874,0 18.43024,-33.8985,0 18.43057,-33.89795,0 18.43082,-33.89748,0 18.43105,-33.89715,0 18.43117,-33.89692,0 18.43136,-33.89667,0 18.43151,-33.89645,0 18.43174,-33.89618,0 18.43192,-33.89589,0 18.43214,-33.89552,0 18.43231,-33.89529,0 18.43248,-33.89506,0 18.43266,-33.89478,0 18.43277,-33.8945,0 18.433,-33.89413,0 18.43315,-33.89388,0 18.43334,-33.89357,0 18.43351,-33.89329,0 18.43377,-33.89287,0 18.43416,-33.89218,0 18.43433,-33.89182,0 18.4345,-33.89154,0 18.43472,-33.89108,0 18.43489,-33.89076,0 18.43523,-33.89017,0 18.43539,-33.88985,0 18.43563,-33.88942,0 18.43584,-33.88898,0 18.43596,-33.88866,0 18.43618,-33.88815,0 18.43626,-33.88784,0 18.4364,-33.88747,0 18.43657,-33.88692,0 18.43672,-33.88607,0 18.43663,-33.88518,0 18.43649,-33.88463,0 18.43612,-33.8839,0 18.43528,-33.88321,0 18.43437,-33.88277,0 18.43321,-33.88234,0 18.43203,-33.88202,0 18.43097,-33.88179,0 18.43007,-33.88161,0 18.429,-33.88147,0 18.42813,-33.88132,0 18.4271,-33.88124,0 18.42602,-33.88114,0 18.42486,-33.88106,0 18.42407,-33.88105,0 18.4229,-33.88106,0 18.42161,-33.88106,0 18.4207,-33.88114,0 18.41948,-33.88124,0 18.41841,-33.88133,0 18.41761,-33.88142,0 18.41663,-33.88151,0 18.41527,-33.88165,0 18.41404,-33.88184,0 18.41309,-33.88198,0 18.41185,-33.88216,0 18.41108,-33.8823,0 18.40977,-33.88253,0 18.40885,-33.88272,0 18.40765,-33.88298,0 18.40679,-33.88319,0 18.40559,-33.88346,0 18.40445,-33.88376,0 18.40356,-33.88403,0 18.40266,-33.88435,0 18.40182,-33.88463,0 18.40061,-33.88509,0 18.39975,-33.88542,0 18.39896,-33.88573,0 18.39806,-33.88614,0 18.39728,-33.88651,0 18.39626,-33.88696,0 18.39537,-33.88742,0 18.39443,-33.88794,0 18.39369,-33.88831,0 18.39277,-33.88882,0 18.39201,-33.88925,0 18.39106,-33.88985,0 18.39025,-33.89035,0 18.38966,-33.89067,0 18.38877,-33.89128,0 18.38802,-33.8918,0 18.38708,-33.89241,0 18.38619,-33.89305,0 18.38551,-33.89357,0 18.38472,-33.89415,0 18.38385,-33.89482,0 18.38327,-33.89529,0 18.38259,-33.89584,0 18.38167,-33.89664,0 18.38086,-33.89735,0 18.38013,-33.89799,0 18.3795,-33.89859,0 18.37881,-33.8992,0 18.37783,-33.90015,0 18.37709,-33.90088,0 18.37637,-33.9017,0 18.37559,-33.90253,0 18.37498,-33.90316,0 18.37435,-33.9039,0 18.3736,-33.90474,0 18.37297,-33.90548,0 18.3724,-33.90618,0 18.37177,-33.90697,0 18.37127,-33.90765,0 18.37063,-33.90846,0 18.37006,-33.90926,0 18.36937,-33.91017,0 18.3688,-33.9109,0 18.36811,-33.91182,0 18.36746,-33.91273,0 18.36685,-33.91359,0 18.36623,-33.91443,0 18.36565,-33.91531,0 18.3651,-33.91612,0 18.36443,-33.91704,0 18.36382,-33.91795,0 18.36314,-33.91896,0 18.36264,-33.91974,0 18.36208,-33.92061,0 18.36147,-33.92159,0 18.36084,-33.92257,0 18.35916,-33.92537,0 18.35681,-33.92963,0 18.35636,-33.9305,0 18.35569,-33.93178,0 18.35524,-33.93265,0 18.35479,-33.93365,0 18.35426,-33.93481,0 18.35378,-33.93585,0 18.35329,-33.93691,0 18.35289,-33.93787,0 18.35238,-33.93906,0 18.35203,-33.93998,0 18.35154,-33.94125,0 18.35106,-33.9424,0 18.35064,-33.94341,0 18.35037,-33.94422,0 18.34997,-33.94519,0 18.34947,-33.94656,0 18.34906,-33.9478,0 18.34863,-33.94899,0 18.34834,-33.94977,0 18.34795,-33.95114,0 18.34774,-33.95232,0 18.34768,-33.95334,0 18.34791,-33.95455,0 18.34826,-33.95548,0 18.34888,-33.95674,0 18.35238,-33.96057,0 18.35501,-33.96217,0 18.35799,-33.96313,0 18.36135,-33.96304,0 18.36411,-33.96218,0 18.36679,-33.96028,0 18.36847,-33.95796,0 18.36892,-33.95535,0 18.36777,-33.95287,0 18.36555,-33.95155,0 18.36241,-33.95137,0 18.36021,-33.95264,0 18.35924,-33.95464,0 18.35987,-33.9566,0 18.36193,-33.95804,0 18.36456,-33.95818,0 18.36691,-33.95711,0 18.36808,-33.95512,0 18.36788,-33.95287,0 18.36651,-33.95087,0 18.36433,-33.94957,0 18.36267,-33.9479,0 18.36264,-33.94574,0 18.36348,-33.94333,0 18.36445,-33.94105,0 18.36542,-33.93882,0 18.36651,-33.93636,0 18.36752,-33.93384,0 18.36948,-33.9288,0 18.37155,-33.92386,0 18.37383,-33.91885,0 18.37492,-33.91661,0 18.37578,-33.91503,0 18.37664,-33.91363,0 18.37721,-33.9126,0 18.37778,-33.91172,0 18.37844,-33.91081,0 18.37915,-33.90981,0 18.38013,-33.90856,0 18.38097,-33.90752,0 18.38179,-33.90651,0 18.38264,-33.90558,0 18.38338,-33.90477,0 18.38411,-33.90399,0 18.38505,-33.90306,0 18.38579,-33.90232,0 18.38702,-33.90115,0 18.38797,-33.90033,0 18.38888,-33.89962,0 18.38974,-33.89897,0 18.3906,-33.89832,0 18.39184,-33.89745,0 18.39268,-33.8968,0 18.39369,-33.89613,0 18.3946,-33.89552,0 18.39598,-33.89464,0 18.39695,-33.89413,0 18.39775,-33.89375,0 18.3993,-33.8931,0 18.40061,-33.89264,0 18.4017,-33.89227,0 18.40305,-33.89186,0 18.4045,-33.89147,0 18.4057,-33.89115,0 18.40719,-33.89077,0 18.40843,-33.89053,0 18.40961,-33.8903,0 18.41074,-33.89008,0 18.41246,-33.88975,0 18.41389,-33.88952,0 18.41509,-33.88929,0 18.41629,-33.8891,0 18.41778,-33.88882,0 18.41891,-33.88861,0 18.42041,-33.8884,0 18.42155,-33.88821,0 18.4231,-33.88794,0 18.42424,-33.88774,0 18.42575,-33.88747,0 18.42688,-33.88733,0 18.42854,-33.88724,0 18.43007,-33.88733,0 18.43125,-33.88747,0 18.43248,-33.8877,0 18.43377,-33.88802,0 18.43539,-33.88852,0 18.43637,-33.88887,0 18.43764,-33.88934,0 18.43878,-33.88993,0 18.4396,-33.89044,0 18.44044,-33.89108,0 18.44118,-33.8918,0 18.44179,-33.89268,0 18.44198,-33.89352,0 18.44201,-33.89429,0 18.44167,-33.89516,0 18.44128,-33.89561,0 18.44101,-33.89589,0 18.44072,-33.89613,0 18.44038,-33.89635,0 18.43994,-33.89653,0 18.43929,-33.89682,0 18.43884,-33.89697,0 18.43832,-33.89706,0 18.43746,-33.89724,0 18.43695,-33.89734,0 18.4364,-33.89749,0 18.43596,-33.89758,0 18.43575,-33.89762,0 18.43523,-33.89777,0 18.43461,-33.8979,0 18.43416,-33.89804,0 18.43349,-33.89822,0 18.43304,-33.89832,0 18.43266,-33.89841,0 18.43226,-33.89854,0 18.4318,-33.89864,0 18.4314,-33.89874,0 18.4308,-33.89891,0 18.43013,-33.89909,0 18.42968,-33.89925,0 18.42928,-33.89934,0 18.42882,-33.89948,0 18.42859,-33.89957,0 18.42828,-33.89964,0 18.42802,-33.89971,0 18.42766,-33.89983,0 18.42738,-33.89996,0 18.4271,-33.90013,0 18.42687,-33.90042,0 18.42682,-33.90064,0 18.42709,-33.90088,0 18.42712,-33.9011,0</coordinates>
      </LineString>
    </Placemark>
  </Document>
</kml>
