<?xml version="1.0" encoding="UTF-8"?>
<kml xmlns="http://www.opengis.net/kml/2.2">
  <Document>
    <name>FR24 3f6bdc62</name>
    <Placemark>
      <name>FR24 3f6bdc62</name>
      <Style><LineStyle><color>ff0000ff</color><width>4</width></LineStyle></Style>
      <LineString>
        <tessellate>1</tessellate>
        <coordinates>18.43158,-33.88934,0 18.4336,-33.88733,0 18.43416,-33.88651,0 18.43449,-33.88584,0 18.43466,-33.88514,0 18.43461,-33.88445,0 18.43443,-33.88379,0 18.43403,-33.88309,0 18.43349,-33.88248,0 18.43293,-33.88206,0 18.43237,-33.88174,0 18.43163,-33.88142,0 18.43071,-33.88118,0 18.43007,-33.88106,0 18.42916,-33.88095,0 18.42854,-33.88091,0 18.42745,-33.88086,0 18.42671,-33.88083,0 18.42587,-33.88083,0 18.42516,-33.88081,0 18.42441,-33.88078,0 18.42334,-33.88074,0 18.42276,-33.88076,0 18.42178,-33.88076,0 18.42104,-33.88076,0 18.4203,-33.88081,0 18.41953,-33.88083,0 18.41847,-33.88087,0 18.41766,-33.88095,0 18.41673,-33.88101,0 18.41572,-33.8811,0 18.41492,-33.88118,0 18.41415,-33.88124,0 18.41349,-33.88132,0 18.41258,-33.88147,0 18.41157,-33.88161,0 18.41084,-33.88174,0 18.40984,-33.88188,0 18.40914,-33.88202,0 18.40815,-33.88216,0 18.40742,-33.88234,0 18.40645,-33.88249,0 18.40557,-33.88266,0 18.40451,-33.88289,0 18.4037,-33.88309,0 18.40273,-33.88333,0 18.40199,-33.88358,0 18.40113,-33.88384,0 18.40044,-33.88407,0 18.39963,-33.88435,0 18.39907,-33.88463,0 18.39821,-33.885,0 18.39729,-33.88542,0 18.39661,-33.88575,0 18.39569,-33.88617,0 18.39504,-33.88651,0 18.39414,-33.88696,0 18.3933,-33.88742,0 18.39249,-33.88789,0 18.39184,-33.88829,0 18.39106,-33.88877,0 18.39031,-33.88924,0 18.38963,-33.8897,0 18.38893,-33.89017,0 18.38803,-33.89072,0 18.38734,-33.89115,0 18.38646,-33.89168,0 18.38585,-33.89208,0 18.38495,-33.89264,0 18.38428,-33.89305,0 18.38327,-33.89369,0 18.38259,-33.89417,0 18.38175,-33.89474,0 18.38099,-33.89529,0 18.38024,-33.89575,0 18.37967,-33.89622,0 18.37887,-33.89678,0 18.37818,-33.89738,0 18.37744,-33.89804,0 18.37675,-33.89864,0 18.37604,-33.89928,0 18.37543,-33.8999,0 18.3748,-33.90047,0 18.37418,-33.90102,0 18.3736,-33.90162,0 18.37297,-33.90218,0 18.37211,-33.90298,0 18.37166,-33.90344,0 18.37077,-33.90427,0 18.37011,-33.90497,0 18.36953,-33.90555,0 18.36891,-33.90623,0 18.36828,-33.90683,0 18.36752,-33.9077,0 18.36697,-33.90823,0 18.36634,-33.90898,0 18.36567,-33.90976,0 18.36494,-33.91058,0 18.36433,-33.91135,0 18.36382,-33.91209,0 18.36336,-33.91275,0 18.36273,-33.91354,0 18.3621,-33.91438,0 18.36159,-33.91507,0 18.3609,-33.916,0 18.36039,-33.9167,0 18.35993,-33.91731,0 18.35933,-33.91818,0 18.35867,-33.91908,0 18.3581,-33.91987,0 18.35759,-33.92061,0 18.35604,-33.9228,0 18.35443,-33.92513,0 18.35266,-33.92757,0 18.35109,-33.92981,0 18.34906,-33.93286,0 18.34801,-33.93452,0 18.34751,-33.93537,0 18.34717,-33.93607,0 18.34666,-33.93704,0 18.34631,-33.93774,0 18.34593,-33.93851,0 18.34557,-33.93924,0 18.34522,-33.93989,0 18.34471,-33.94096,0 18.34442,-33.94156,0 18.34396,-33.94249,0 18.34364,-33.94327,0 18.3433,-33.94395,0 18.3423,-33.94594,0 18.34093,-33.94859,0 18.34055,-33.94931,0 18.34007,-33.95008,0 18.33954,-33.95096,0 18.33916,-33.95166,0 18.33864,-33.95255,0 18.33824,-33.95325,0 18.33778,-33.95395,0 18.33725,-33.9548,0 18.33681,-33.95557,0 18.335,-33.9586,0 18.33456,-33.95943,0 18.33388,-33.96048,0 18.33338,-33.96135,0 18.33282,-33.96217,0 18.33235,-33.96284,0 18.33181,-33.96364,0 18.32957,-33.96684,0 18.3292,-33.9674,0 18.32833,-33.96863,0 18.32598,-33.97224,0 18.3243,-33.9749,0 18.32056,-33.98113,0 18.31836,-33.98524,0 18.31735,-33.98758,0 18.31678,-33.98895,0 18.31627,-33.9903,0 18.31595,-33.9911,0 18.31558,-33.99207,0 18.31535,-33.99286,0 18.31505,-33.99362,0 18.31466,-33.99477,0 18.31295,-33.99966,0 18.31219,-34.0025,0 18.31197,-34.00323,0 18.31174,-34.00406,0 18.31152,-34.00492,0 18.31062,-34.00813,0 18.31006,-34.01001,0 18.30946,-34.0119,0 18.30826,-34.01553,0 18.30694,-34.01902,0 18.30552,-34.02242,0 18.30412,-34.0258,0 18.30328,-34.028,0 18.30238,-34.03033,0 18.30193,-34.03175,0 18.30182,-34.03235,0 18.30162,-34.03318,0 18.30151,-34.03392,0 18.30139,-34.03453,0 18.30132,-34.03523,0 18.30128,-34.03592,0 18.30126,-34.03661,0 18.30122,-34.03737,0 18.30128,-34.03811,0 18.30168,-34.04109,0 18.30199,-34.04228,0 18.30311,-34.0459,0 18.30397,-34.0477,0 18.30414,-34.04803,0 18.30471,-34.04905,0 18.30517,-34.04993,0 18.30551,-34.0505,0 18.30597,-34.05133,0 18.30647,-34.05217,0 18.307,-34.05301,0 18.30737,-34.05363,0 18.30791,-34.05445,0 18.30844,-34.05528,0 18.30894,-34.05611,0 18.3094,-34.05683,0 18.30967,-34.05734,0 18.3102,-34.05817,0 18.31083,-34.05925,0 18.31129,-34.05995,0 18.31169,-34.06064,0 18.31219,-34.06146,0 18.31275,-34.06238,0 18.31421,-34.06474,0 18.31589,-34.06732,0 18.31638,-34.06809,0 18.31802,-34.07053,0 18.3197,-34.07291,0 18.32148,-34.0754,0 18.32368,-34.07835,0 18.32577,-34.08094,0 18.32731,-34.08276,0 18.32783,-34.08331,0 18.32846,-34.08406,0 18.3292,-34.0848,0 18.32972,-34.08532,0 18.33046,-34.08609,0 18.33136,-34.08701,0 18.33206,-34.08764,0 18.33292,-34.08848,0 18.33344,-34.08897,0 18.33441,-34.08992,0 18.335,-34.09048,0 18.33601,-34.09137,0 18.33685,-34.09213,0 18.33755,-34.09277,0 18.33841,-34.09341,0 18.33915,-34.09406,0 18.34005,-34.0947,0 18.34099,-34.09537,0 18.34173,-34.09593,0 18.34282,-34.09663,0 18.34375,-34.09726,0 18.34481,-34.0979,0 18.34579,-34.09849,0 18.34683,-34.09909,0 18.34778,-34.09959,0 18.34874,-34.1001,0 18.34958,-34.10056,0 18.35064,-34.10106,0 18.35157,-34.10152,0 18.35272,-34.10207,0 18.35375,-34.10254,0 18.35472,-34.103,0 18.35581,-34.10352,0 18.3569,-34.10403,0 18.35782,-34.10445,0 18.35896,-34.10496,0 18.3601,-34.10547,0 18.36101,-34.10591,0 18.36449,-34.10742,0 18.36851,-34.10925,0 18.3704,-34.11008,0 18.37155,-34.11058,0 18.37234,-34.11097,0 18.37346,-34.1114,0 18.37429,-34.11176,0 18.37561,-34.11236,0 18.37646,-34.11274,0 18.37721,-34.11301,0 18.37828,-34.11351,0 18.37917,-34.11388,0 18.38007,-34.11427,0 18.38305,-34.11567,0 18.38607,-34.11703,0 18.38957,-34.1186,0 18.39212,-34.11974,0 18.39317,-34.12018,0 18.39403,-34.12051,0 18.39504,-34.12093,0 18.39603,-34.1213,0 18.39706,-34.12167,0 18.39812,-34.12212,0 18.39924,-34.12253,0 18.40015,-34.12288,0 18.40109,-34.12321,0 18.40199,-34.12354,0 18.40296,-34.12395,0 18.40416,-34.12437,0 18.40619,-34.12509,0 18.40719,-34.12544,0 18.41006,-34.12651,0 18.41303,-34.12756,0 18.41606,-34.12871,0 18.41915,-34.12991,0 18.42183,-34.13086,0 18.42368,-34.13159,0 18.42475,-34.13196,0 18.42751,-34.13303,0 18.42822,-34.13329,0 18.42922,-34.13364,0 18.43042,-34.13406,0 18.43125,-34.13434,0 18.43226,-34.13466,0 18.43294,-34.1349,0 18.43391,-34.13513,0 18.435,-34.13545,0 18.43586,-34.13564,0 18.43691,-34.13589,0 18.43798,-34.1361,0 18.43895,-34.13625,0 18.43966,-34.13635,0 18.44095,-34.13652,0 18.44198,-34.13657,0 18.44319,-34.13658,0 18.44427,-34.13652,0 18.44515,-34.13644,0 18.44627,-34.13629,0 18.44705,-34.13617,0 18.44805,-34.13592,0 18.4489,-34.13562,0 18.44994,-34.13517,0 18.45058,-34.13493,0 18.45154,-34.13443,0 18.45249,-34.13393,0 18.45328,-34.13347,0 18.45406,-34.13301,0 18.45479,-34.1326,0 18.45557,-34.1321,0 18.45619,-34.13173,0 18.45697,-34.13122,0 18.45759,-34.13081,0 18.45821,-34.1304,0 18.45903,-34.12982,0 18.45961,-34.12935,0 18.46017,-34.12894,0 18.46079,-34.12839,0 18.46149,-34.12782,0 18.46201,-34.1274,0 18.4628,-34.12674,0 18.46333,-34.12628,0 18.46393,-34.12578,0 18.46453,-34.12526,0 18.46516,-34.12477,0 18.4659,-34.12409,0 18.46647,-34.12363,0 18.46712,-34.12299,0 18.46762,-34.12248,0 18.46807,-34.12212,0 18.4687,-34.12149,0 18.46933,-34.12088,0 18.46985,-34.12037,0 18.47042,-34.11972,0 18.47082,-34.11921,0 18.47139,-34.1186,0 18.47191,-34.11795,0 18.47242,-34.1173,0 18.47288,-34.11674,0 18.47334,-34.11618,0 18.47385,-34.11548,0 18.47437,-34.11478,0 18.47477,-34.11418,0 18.47519,-34.11356,0 18.47564,-34.11282,0 18.47603,-34.11213,0 18.47637,-34.1115,0 18.47665,-34.11081,0 18.47704,-34.10999,0 18.47732,-34.10925,0 18.47757,-34.10855,0 18.47792,-34.10761,0 18.47811,-34.10692,0 18.47837,-34.10608,0 18.4786,-34.10529,0 18.47872,-34.10472,0 18.47889,-34.10371,0 18.47906,-34.10298,0 18.47923,-34.10198,0 18.47935,-34.10124,0 18.47951,-34.10005,0 18.47956,-34.09927,0 18.47969,-34.09826,0 18.47975,-34.09747,0 18.4798,-34.09668,0 18.4799,-34.09561,0 18.48001,-34.09479,0 18.48009,-34.09374,0 18.48013,-34.09296,0 18.48018,-34.09195,0 18.48021,-34.09085,0 18.48021,-34.09011,0 18.48026,-34.08927,0 18.48032,-34.08829,0 18.48038,-34.08732,0 18.48038,-34.08667,0 18.48046,-34.08568,0 18.48049,-34.0849,0 18.48055,-34.08383,0 18.48057,-34.08298,0 18.48063,-34.08211,0 18.48066,-34.08117,0 18.48069,-34.08028,0 18.48074,-34.07954,0 18.48078,-34.07861,0 18.48085,-34.07767,0 18.48085,-34.07684,0 18.48095,-34.0761,0 18.48097,-34.07542,0 18.48108,-34.07455,0 18.48112,-34.07368,0 18.48124,-34.07298,0 18.4813,-34.07222,0 18.48141,-34.07144,0 18.48158,-34.07056,0 18.4817,-34.06975,0 18.48186,-34.06883,0 18.48198,-34.0681,0 18.48215,-34.06735,0 18.48232,-34.06656,0 18.48253,-34.06567,0 18.48272,-34.06479,0 18.48293,-34.06389,0 18.48312,-34.06316,0 18.48332,-34.06238,0 18.48347,-34.06171,0 18.4837,-34.06078,0 18.48387,-34.06009,0 18.4841,-34.05904,0 18.48421,-34.0585,0 18.48438,-34.05753,0 18.48455,-34.05678,0 18.48472,-34.05574,0 18.48483,-34.05501,0 18.48501,-34.05413,0 18.48511,-34.05322,0 18.4853,-34.05227,0 18.48541,-34.05152,0 18.48551,-34.05075,0 18.48562,-34.04997,0 18.48595,-34.04759,0 18.48618,-34.04572,0 18.48657,-34.04242,0 18.48673,-34.04063,0 18.4868,-34.03981,0 18.48707,-34.03709,0 18.48713,-34.03633,0 18.48719,-34.03537,0 18.4873,-34.03271,0 18.48747,-34.02974,0 18.48764,-34.02652,0 18.48764,-34.02401,0 18.48764,-34.02149,0 18.48759,-34.01865,0 18.48758,-34.01775,0 18.48752,-34.01697,0 18.48753,-34.01614,0 18.48752,-34.01514,0 18.48747,-34.01437,0 18.48747,-34.01325,0 18.48747,-34.01253,0 18.48747,-34.0117,0 18.48742,-34.01069,0 18.48741,-34.00983,0 18.48742,-34.00906,0 18.48747,-34.0079,0 18.48752,-34.00621,0 18.48758,-34.00525,0 18.48764,-34.00459,0 18.48769,-34.00346,0 18.48782,-34.00264,0 18.48786,-34.00172,0 18.48797,-34.00081,0 18.48804,-33.9998,0 18.4881,-33.99896,0 18.4882,-33.99788,0 18.48825,-33.99701,0 18.48845,-33.99407,0 18.48853,-33.99211,0 18.48853,-33.99124,0 18.48859,-33.99042,0 18.48859,-33.98946,0 18.48859,-33.98863,0 18.48862,-33.98746,0 18.48862,-33.98667,0 18.48859,-33.98584,0 18.48856,-33.985,0 18.48856,-33.98407,0 18.48856,-33.98327,0 18.48853,-33.98241,0 18.4885,-33.98146,0 18.48848,-33.98067,0 18.48845,-33.97983,0 18.48839,-33.97885,0 18.48833,-33.97797,0 18.48825,-33.97714,0 18.48822,-33.97606,0 18.48816,-33.97522,0 18.48808,-33.9744,0 18.48803,-33.97343,0 18.48793,-33.97256,0 18.48786,-33.97169,0 18.48769,-33.97073,0 18.48764,-33.96996,0 18.48747,-33.96895,0 18.48736,-33.9681,0 18.48719,-33.96707,0 18.48707,-33.96633,0 18.48685,-33.96529,0 18.48674,-33.96437,0 18.48656,-33.96354,0 18.48635,-33.96263,0 18.48618,-33.96167,0 18.48573,-33.95929,0 18.48558,-33.95846,0 18.48545,-33.95769,0 18.4849,-33.95409,0 18.48478,-33.95343,0 18.48438,-33.95174,0 18.48415,-33.95078,0 18.48399,-33.95023,0 18.48371,-33.94922,0 18.48341,-33.94845,0 18.4831,-33.94757,0 18.48284,-33.94687,0 18.48249,-33.94603,0 18.48214,-33.94514,0 18.48186,-33.9444,0 18.48152,-33.94352,0 18.48119,-33.94281,0 18.48085,-33.94194,0 18.48052,-33.94121,0 18.48015,-33.9403,0 18.4798,-33.93956,0 18.4794,-33.93874,0 18.479,-33.93789,0 18.4786,-33.937,0 18.47822,-33.93631,0 18.47746,-33.93486,0 18.47694,-33.93379,0 18.4766,-33.93304,0 18.4762,-33.9323,0 18.47575,-33.93137,0 18.47534,-33.93058,0 18.47491,-33.92976,0 18.47452,-33.92899,0 18.47413,-33.92825,0 18.47362,-33.92738,0 18.47323,-33.9267,0 18.47256,-33.92564,0 18.47211,-33.92491,0 18.47161,-33.92418,0 18.47116,-33.92354,0 18.47059,-33.92271,0 18.47015,-33.92203,0 18.46942,-33.92102,0 18.46893,-33.92033,0 18.46852,-33.91978,0 18.46802,-33.91908,0 18.46734,-33.91814,0 18.46693,-33.91759,0 18.46634,-33.91676,0 18.46584,-33.91615,0 18.46522,-33.91534,0 18.46464,-33.91452,0 18.46421,-33.91388,0 18.46378,-33.91326,0 18.46331,-33.91255,0 18.46275,-33.91168,0 18.46235,-33.91103,0 18.46184,-33.91014,0 18.4614,-33.90939,0 18.46098,-33.90874,0 18.46045,-33.90793,0 18.46,-33.90724,0 18.45943,-33.90646,0 18.4591,-33.90596,0 18.45852,-33.90511,0 18.45798,-33.90445,0 18.45732,-33.90362,0 18.4567,-33.90289,0 18.45613,-33.90234,0 18.45541,-33.9017,0 18.45474,-33.90125,0 18.45412,-33.90092,0 18.45333,-33.90056,0 18.45266,-33.90033,0 18.45194,-33.90013,0 18.45131,-33.89999,0 18.45051,-33.89985,0 18.44982,-33.89981,0 18.44896,-33.89985,0 18.44829,-33.89987,0 18.44795,-33.89992,0 18.44761,-33.89992,0 18.44739,-33.89996,0 18.44702,-33.89999,0 18.44656,-33.89999,0 18.44627,-33.90001,0 18.44599,-33.90004,0 18.44565,-33.90005,0 18.44532,-33.90005,0 18.44481,-33.9001,0 18.4445,-33.90013,0 18.44416,-33.90013,0 18.4438,-33.90015,0 18.4433,-33.90015,0 18.44251,-33.90015,0 18.44218,-33.90015,0 18.44184,-33.90015,0 18.44151,-33.90015,0 18.44101,-33.90013,0 18.4387,-33.9001,0 18.4366,-33.90004,0 18.43596,-33.90001,0 18.43545,-33.90001,0 18.43489,-33.90001,0 18.43444,-33.9001,0 18.4342,-33.90013,0 18.43394,-33.90019,0 18.43355,-33.90024,0 18.43334,-33.90027,0 18.43311,-33.90027,0 18.43276,-33.90033,0 18.43254,-33.90033,0 18.43231,-33.90032,0 18.43209,-33.90028,0 18.43185,-33.90027,0 18.43157,-33.90022,0 18.43122,-33.90013,0 18.43088,-33.90004,0 18.43052,-33.89992,0 18.43029,-33.89983,0 18.42996,-33.89969,0 18.42968,-33.89964,0 18.42939,-33.89962,0 18.42917,-33.8996,0 18.42889,-33.89955,0 18.42865,-33.89952,0 18.42844,-33.8995,0 18.42777,-33.89937,0 18.42745,-33.89929,0 18.42716,-33.89915,0 18.42693,-33.89906,0 18.42659,-33.89877,0 18.42636,-33.89859,0 18.42596,-33.89799,0 18.42587,-33.89777,0 18.42575,-33.89731,0 18.42575,-33.89708,0 18.42573,-33.89678,0 18.42581,-33.89648,0 18.42592,-33.89621,0 18.42602,-33.89594,0 18.42613,-33.89566,0 18.4263,-33.89529,0 18.42659,-33.89482,0 18.42676,-33.89461,0 18.42699,-33.89431,0 18.42715,-33.89406,0 18.42773,-33.89338,0 18.42833,-33.89278,0 18.42871,-33.8924,0 18.42945,-33.89166,0 18.42991,-33.89119,0 18.4306,-33.89054,0 18.43128,-33.88989,0 18.43192,-33.8893,0 18.43242,-33.88884,0 18.43311,-33.88812,0 18.43363,-33.88737,0 18.43397,-33.88672,0 18.43422,-33.886,0 18.43431,-33.88519,0 18.43422,-33.88449,0 18.43399,-33.8839,0 18.43351,-33.88323,0 18.43304,-33.8828,0 18.43237,-33.88229,0 18.43175,-33.88202,0 18.43114,-33.88174,0 18.43025,-33.88151,0 18.42957,-33.88133,0 18.42871,-33.88118,0 18.42783,-33.88101,0 18.42699,-33.88091,0 18.42626,-33.88083,0 18.42536,-33.88078,0 18.42475,-33.88074,0 18.42385,-33.88065,0 18.42316,-33.88063,0 18.42247,-33.88058,0 18.42144,-33.88051,0 18.42058,-33.88049,0 18.42001,-33.88049,0 18.41904,-33.88044,0 18.4183,-33.88046,0 18.41743,-33.88044,0 18.41675,-33.88049,0 18.41589,-33.88051,0 18.4151,-33.88055,0 18.41421,-33.8806,0 18.41343,-33.88067,0 18.41253,-33.88078,0 18.41163,-33.88087,0 18.41073,-33.88101,0 18.40995,-33.88115,0 18.40908,-33.88128,0 18.40822,-33.88146,0 18.40736,-33.88165,0 18.40668,-33.88179,0 18.4057,-33.88202,0 18.40479,-33.8823,0 18.40422,-33.88249,0 18.40324,-33.88277,0 18.40238,-33.88307,0 18.40153,-33.88337,0 18.40067,-33.88374,0 18.39993,-33.88403,0 18.39918,-33.8844,0 18.39832,-33.88482,0 18.39739,-33.88522,0 18.39655,-33.88568,0 18.39582,-33.88605,0 18.39495,-33.88649,0 18.39409,-33.88696,0 18.3933,-33.88742,0 18.39249,-33.88789,0 18.39179,-33.88824,0 18.39094,-33.88877,0 18.3901,-33.88925,0 18.3894,-33.8897,0 18.3887,-33.89017,0 18.38808,-33.89063,0 18.38722,-33.89119,0 18.38654,-33.8917,0 18.38568,-33.89232,0 18.38511,-33.89273,0 18.38436,-33.89333,0 18.38355,-33.89392,0 18.38287,-33.89442,0 18.3823,-33.89487,0 18.38161,-33.89538,0 18.38074,-33.89607,0 18.38001,-33.89667,0 18.3794,-33.89717,0 18.37867,-33.89781,0 18.37812,-33.89832,0 18.37727,-33.899,0 18.37682,-33.89946,0 18.37601,-33.90013,0 18.37547,-33.9006,0 18.37469,-33.90129,0 18.37395,-33.90199,0 18.37337,-33.9025,0 18.37275,-33.90316,0 18.372,-33.90385,0 18.37144,-33.9044,0 18.36959,-33.90623,0 18.36891,-33.90697,0 18.36841,-33.90752,0 18.36774,-33.90834,0 18.36729,-33.90894,0 18.36679,-33.90949,0 18.36622,-33.91028,0 18.36578,-33.91081,0 18.36533,-33.91145,0 18.36477,-33.91219,0 18.36421,-33.91292,0 18.3637,-33.91363,0 18.3633,-33.91414,0 18.36285,-33.9147,0 18.36227,-33.9154,0 18.36174,-33.91603,0 18.3613,-33.91656,0 18.36068,-33.91722,0 18.36006,-33.91791,0 18.35953,-33.91852,0 18.35905,-33.91905,0 18.35832,-33.91983,0 18.35781,-33.92043,0 18.35715,-33.92111,0 18.35552,-33.92285,0 18.35434,-33.92422,0 18.35384,-33.92509,0 18.35361,-33.92578,0 18.35352,-33.92662,0 18.35375,-33.92746,0 18.35421,-33.9283,0 18.35479,-33.9288,0 18.35552,-33.92931,0 18.35686,-33.92981,0 18.35798,-33.93002,0 18.35916,-33.93004,0 18.36028,-33.9299,0 18.36118,-33.92967,0 18.36227,-33.92923,0 18.3637,-33.92834,0 18.36473,-33.92751,0 18.36539,-33.9267,0 18.36622,-33.92559,0 18.36684,-33.92468,0 18.36757,-33.92358,0 18.36823,-33.92262,0 18.36897,-33.92148,0 18.36966,-33.92043,0 18.37032,-33.91951,0 18.37116,-33.91823,0 18.37183,-33.91736,0 18.37267,-33.91621,0 18.37349,-33.91512,0 18.3743,-33.91402,0 18.37503,-33.9131,0 18.37581,-33.91214,0 18.37637,-33.9115,0 18.37733,-33.91031,0 18.37811,-33.90939,0 18.37878,-33.90857,0 18.37973,-33.90749,0 18.38035,-33.90678,0 18.38125,-33.90587,0 18.38214,-33.90491,0 18.38287,-33.90417,0 18.38385,-33.90325,0 18.38489,-33.90225,0 18.38579,-33.90147,0 18.38671,-33.90064,0 18.38751,-33.89994,0 18.38887,-33.89886,0 18.38985,-33.89808,0 18.39077,-33.89734,0 18.39174,-33.89659,0 18.39274,-33.89584,0 18.39392,-33.89507,0 18.39489,-33.89445,0 18.39593,-33.89378,0 18.39712,-33.8931,0 18.39834,-33.89241,0 18.39958,-33.8918,0 18.40044,-33.89133,0 18.40182,-33.89067,0 18.40256,-33.89031,0 18.40384,-33.88966,0 18.40507,-33.88907,0 18.40619,-33.88857,0 18.4072,-33.88806,0 18.40816,-33.88761,0 18.40948,-33.887,0 18.41051,-33.88655,0 18.41247,-33.88568,0 18.41377,-33.88514,0 18.41497,-33.88467,0 18.41634,-33.88417,0 18.41749,-33.88374,0 18.41891,-33.8833,0 18.42012,-33.88295,0 18.42133,-33.88263,0 18.4227,-33.8823,0 18.4239,-33.88211,0 18.4255,-33.88188,0 18.42659,-33.88179,0 18.42772,-33.88174,0 18.42912,-33.88179,0 18.43063,-33.88197,0 18.4318,-33.88216,0 18.43294,-33.88244,0 18.43399,-33.88271,0 18.43569,-33.88333,0 18.4368,-33.88371,0 18.43775,-33.88412,0 18.43901,-33.88463,0 18.43999,-33.88504,0 18.4409,-33.88542,0 18.44221,-33.88602,0 18.44318,-33.88649,0 18.44403,-33.88687,0 18.44519,-33.88756,0 18.44593,-33.88812,0 18.44655,-33.88866,0 18.44725,-33.88942,0 18.44773,-33.89008,0 18.44806,-33.89076,0 18.44845,-33.89161,0 18.44862,-33.89241,0 18.44868,-33.8931,0 18.44857,-33.8941,0 18.44846,-33.89479,0 18.44822,-33.89548,0 18.44778,-33.89639,0 18.44742,-33.89701,0 18.447,-33.89749,0 18.44639,-33.89813,0 18.44565,-33.89864,0 18.44537,-33.89882,0 18.44492,-33.89905,0 18.44442,-33.89923,0 18.44393,-33.89939,0 18.44364,-33.89943,0 18.44301,-33.89952,0 18.44267,-33.89957,0 18.44198,-33.89962,0 18.44167,-33.8996,0 18.44112,-33.89962,0 18.4409,-33.89957,0 18.44055,-33.89957,0 18.44016,-33.89955,0 18.43994,-33.89955,0 18.43926,-33.89951,0 18.43898,-33.89951,0 18.43865,-33.89951,0 18.43815,-33.89948,0 18.43781,-33.89946,0 18.43752,-33.89948,0 18.43723,-33.89948,0 18.43691,-33.89946,0 18.43646,-33.89946,0 18.43615,-33.89948,0 18.43579,-33.89946,0 18.43552,-33.89948,0 18.43523,-33.89946,0 18.435,-33.89948,0 18.43478,-33.89946,0 18.43449,-33.89948,0 18.4342,-33.89948,0 18.43382,-33.89946,0 18.43351,-33.89948,0 18.43288,-33.89948,0 18.43266,-33.89948,0 18.43242,-33.89951,0 18.4322,-33.89951,0 18.43197,-33.89948,0 18.4317,-33.89946,0 18.43134,-33.89948,0 18.43046,-33.89946,0 18.43025,-33.89948,0 18.42996,-33.89946,0 18.42974,-33.89948,0 18.42951,-33.89951,0 18.42928,-33.89952,0 18.42876,-33.89952,0</coordinates>
      </LineString>
    </Placemark>
  </Document>
</kml>
