<?xml version="1.0" encoding="UTF-8"?>
<kml xmlns="http://www.opengis.net/kml/2.2">
  <Document>
    <name>FR24 3ff15d75</name>
    <Placemark>
      <name>FR24 3ff15d75</name>
      <Style><LineStyle><color>ff0000ff</color><width>4</width></LineStyle></Style>
      <LineString>
        <tessellate>1</tessellate>
        <coordinates>18.43243,-33.89208,0 18.43377,-33.88994,0 18.43534,-33.88742,0 18.43579,-33.88669,0 18.43612,-33.886,0 18.43626,-33.88523,0 18.4362,-33.88463,0 18.43586,-33.88398,0 18.43546,-33.88342,0 18.43489,-33.88286,0 18.43437,-33.88239,0 18.4334,-33.88169,0 18.43259,-33.88129,0 18.43151,-33.88081,0 18.4306,-33.88058,0 18.42945,-33.88033,0 18.42848,-33.88021,0 18.42751,-33.88007,0 18.42607,-33.87988,0 18.42514,-33.87982,0 18.42418,-33.87973,0 18.4229,-33.87968,0 18.42178,-33.87965,0 18.42082,-33.87964,0 18.41964,-33.87964,0 18.41852,-33.87964,0 18.41751,-33.87964,0 18.41651,-33.87964,0 18.41526,-33.8797,0 18.41409,-33.87973,0 18.41309,-33.87978,0 18.4118,-33.87987,0 18.41085,-33.87997,0 18.40954,-33.88011,0 18.40851,-33.8803,0 18.40726,-33.88051,0 18.40619,-33.88074,0 18.40529,-33.88092,0 18.40416,-33.88123,0 18.40283,-33.88156,0 18.4017,-33.88193,0 18.40075,-33.8822,0 18.39947,-33.88268,0 18.39849,-33.883,0 18.39695,-33.88361,0 18.39605,-33.88399,0 18.39489,-33.88449,0 18.39375,-33.885,0 18.3926,-33.88556,0 18.39162,-33.88605,0 18.39067,-33.88651,0 18.38949,-33.88715,0 18.3886,-33.88765,0 18.38741,-33.88838,0 18.38528,-33.8898,0 18.38422,-33.89058,0 18.38327,-33.89127,0 18.38243,-33.89195,0 18.38144,-33.89273,0 18.38069,-33.89337,0 18.37962,-33.89429,0 18.37884,-33.89502,0 18.37805,-33.89575,0 18.37733,-33.89648,0 18.37632,-33.89749,0 18.37578,-33.89808,0 18.37492,-33.89892,0 18.37391,-33.90001,0 18.37326,-33.90074,0 18.37234,-33.90171,0 18.37161,-33.90257,0 18.37093,-33.9034,0 18.37,-33.90451,0 18.36948,-33.9052,0 18.36863,-33.90618,0 18.36788,-33.90721,0 18.36707,-33.90825,0 18.36639,-33.90907,0 18.36576,-33.90995,0 18.36488,-33.91113,0 18.36426,-33.91196,0 18.36376,-33.91265,0 18.36292,-33.91383,0 18.3623,-33.9147,0 18.36113,-33.91642,0 18.3601,-33.91801,0 18.35944,-33.91896,0 18.3589,-33.91982,0 18.3581,-33.92108,0 18.35752,-33.92201,0 18.35675,-33.92317,0 18.35558,-33.92513,0 18.35473,-33.92651,0 18.35417,-33.92752,0 18.35356,-33.92857,0 18.35305,-33.92944,0 18.35243,-33.93058,0 18.35169,-33.93188,0 18.35112,-33.93295,0 18.35059,-33.93393,0 18.34986,-33.93521,0 18.3493,-33.93622,0 18.34874,-33.93723,0 18.34834,-33.93805,0 18.34757,-33.93951,0 18.34705,-33.94054,0 18.34654,-33.94152,0 18.34577,-33.94299,0 18.34515,-33.94418,0 18.34471,-33.94515,0 18.34392,-33.9467,0 18.34339,-33.94775,0 18.34288,-33.94878,0 18.34224,-33.95004,0 18.34173,-33.95114,0 18.34106,-33.95247,0 18.33949,-33.95586,0 18.33613,-33.96327,0 18.33383,-33.96899,0 18.33271,-33.97197,0 18.33241,-33.97294,0 18.33187,-33.97458,0 18.3316,-33.97554,0 18.33119,-33.97719,0 18.33074,-33.97897,0 18.33046,-33.98035,0 18.33024,-33.98158,0 18.32994,-33.98337,0 18.32979,-33.98447,0 18.3296,-33.98579,0 18.32945,-33.98712,0 18.32929,-33.98831,0 18.3292,-33.98919,0 18.32909,-33.99058,0 18.32903,-33.99189,0 18.32895,-33.99303,0 18.3289,-33.99413,0 18.3289,-33.99532,0 18.4276,-33.90074,0 18.42738,-33.90079,0 18.4271,-33.9006,0 18.4271,-33.90032,0 18.42716,-33.90009,0 18.42762,-33.89962,0 18.42783,-33.89946,0 18.428,-33.89923,0 18.42831,-33.89897,0 18.42856,-33.89873,0 18.42878,-33.89854,0 18.42916,-33.89808,0 18.42939,-33.89785,0 18.42968,-33.89763,0 18.43007,-33.89735,0 18.43031,-33.8972,0 18.43085,-33.8969,0 18.43114,-33.89676,0 18.43164,-33.89653,0 18.43208,-33.89641,0 18.43237,-33.89631,0 18.43282,-33.89621,0 18.43363,-33.89603,0 18.43388,-33.89598,0 18.43456,-33.89594,0 18.43477,-33.89589,0 18.43545,-33.89589,0 18.43601,-33.89589,0 18.43643,-33.89594,0 18.43735,-33.89608,0 18.43798,-33.89618,0 18.43848,-33.8963,0 18.43937,-33.89653,0 18.44044,-33.8969,0 18.44156,-33.89735,0 18.44255,-33.8978,0 18.44369,-33.89832,0 18.44453,-33.89873,0 18.44564,-33.89929,0 18.44673,-33.89985,0 18.44756,-33.90028,0 18.44833,-33.90074,0 18.44942,-33.90134,0 18.4503,-33.90184,0 18.45119,-33.90241,0 18.45222,-33.90306,0 18.45322,-33.90367,0 18.45417,-33.90431,0 18.45509,-33.90493,0 18.45602,-33.90564,0 18.4568,-33.90618,0 18.45753,-33.90678,0 18.45838,-33.90747,0 18.45905,-33.90807,0 18.45995,-33.90884,0 18.46062,-33.90944,0 18.46127,-33.91005,0 18.46185,-33.91058,0 18.46264,-33.9113,0 18.4632,-33.91182,0 18.46401,-33.91247,0 18.46464,-33.91302,0 18.46521,-33.91344,0 18.4659,-33.91405,0 18.46673,-33.91466,0 18.46734,-33.91521,0 18.46807,-33.91577,0 18.46876,-33.91629,0 18.46947,-33.91685,0 18.47009,-33.91736,0 18.47082,-33.91801,0 18.47168,-33.9188,0 18.47233,-33.91946,0 18.47289,-33.92006,0 18.47346,-33.92075,0 18.47401,-33.92148,0 18.47448,-33.92215,0 18.47486,-33.92281,0 18.47558,-33.92418,0 18.47592,-33.92487,0 18.47626,-33.92569,0 18.47659,-33.92647,0 18.47693,-33.92706,0 18.47729,-33.92788,0 18.47769,-33.92871,0 18.47805,-33.92949,0 18.47837,-33.9302,0 18.47867,-33.93091,0 18.479,-33.93173,0 18.47929,-33.93248,0 18.47962,-33.93338,0 18.47979,-33.93416,0 18.47986,-33.93481,0 18.47973,-33.93576,0 18.47945,-33.93681,0 18.47923,-33.93741,0 18.47883,-33.9383,0 18.47849,-33.93914,0 18.47815,-33.94012,0 18.47797,-33.94063,0 18.47777,-33.94176,0 18.47771,-33.94276,0 18.47775,-33.9437,0 18.47777,-33.94437,0 18.47792,-33.94543,0 18.47803,-33.94617,0 18.4782,-33.9471,0 18.47832,-33.9478,0 18.47849,-33.94845,0 18.47861,-33.94899,0 18.47878,-33.94957,0 18.479,-33.95032,0 18.47917,-33.951,0 18.4794,-33.95187,0 18.47946,-33.95246,0 18.47968,-33.95338,0 18.47979,-33.95412,0 18.47996,-33.95494,0 18.48013,-33.95572,0 18.48024,-33.95645,0 18.48038,-33.95725,0 18.48055,-33.95804,0 18.48069,-33.95888,0 18.48085,-33.9597,0 18.48095,-33.96046,0 18.48141,-33.96293,0 18.48181,-33.9654,0 18.48225,-33.96803,0 18.4827,-33.97087,0 18.4831,-33.97362,0 18.4833,-33.97531,0 18.48341,-33.97629,0 18.48347,-33.97713,0 18.48349,-33.97797,0 18.48354,-33.97879,0 18.4836,-33.97961,0 18.4836,-33.98039,0 18.48364,-33.98174,0 18.48364,-33.98267,0 18.48366,-33.98346,0 18.4836,-33.98451,0 18.48358,-33.98532,0 18.48354,-33.9863,0 18.48349,-33.98721,0 18.48338,-33.98849,0 18.48332,-33.98918,0 18.48315,-33.99033,0 18.48438,-33.99989,0 18.48438,-34.00269,0 18.4845,-34.00604,0 18.48461,-34.0079,0 18.48473,-34.00902,0 18.48483,-34.00992,0 18.48489,-34.01065,0 18.48495,-34.01143,0 18.485,-34.01253,0 18.48501,-34.0133,0 18.48513,-34.01511,0 18.48517,-34.0161,0 18.48523,-34.01692,0 18.48536,-34.018,0 18.48541,-34.01889,0 18.48551,-34.01976,0 18.48564,-34.02066,0 18.48576,-34.02149,0 18.4859,-34.02237,0 18.48612,-34.02342,0 18.48621,-34.02428,0 18.4864,-34.02516,0 18.48656,-34.0261,0 18.48667,-34.02699,0 18.4868,-34.02805,0 18.48691,-34.02887,0 18.48701,-34.02978,0 18.48713,-34.03098,0 18.48719,-34.03189,0 18.48724,-34.03294,0 18.4873,-34.03381,0 18.48741,-34.03473,0 18.48747,-34.03587,0 18.48747,-34.0369,0 18.48753,-34.03778,0 18.48758,-34.03889,0 18.48764,-34.0397,0 18.4877,-34.04081,0 18.4877,-34.04169,0 18.48775,-34.04279,0 18.4878,-34.04361,0 18.4878,-34.04475,0 18.48792,-34.04869,0 18.48797,-34.05235,0 18.48825,-34.05615,0 18.48839,-34.05892,0 18.48845,-34.05981,0 18.48848,-34.06064,0 18.48853,-34.06192,0 18.4885,-34.06288,0 18.48853,-34.06352,0 18.4885,-34.06446,0 18.4885,-34.06553,0 18.48848,-34.0665,0 18.48842,-34.06952,0 18.48842,-34.07043,0 18.48837,-34.07158,0 18.48833,-34.07452,0 18.48839,-34.07745,0 18.48842,-34.07845,0 18.48845,-34.07931,0 18.48848,-34.08051,0 18.48848,-34.08138,0 18.48853,-34.08234,0 18.48865,-34.08344,0 18.4887,-34.0843,0 18.48881,-34.08554,0 18.4889,-34.08648,0 18.48896,-34.08736,0 18.48913,-34.08844,0 18.48919,-34.08941,0 18.48932,-34.09044,0 18.48936,-34.09155,0 18.48943,-34.0925,0 18.48943,-34.09355,0 18.48949,-34.09465,0 18.48949,-34.09561,0 18.48953,-34.09663,0 18.4896,-34.09772,0 18.48965,-34.09858,0 18.4897,-34.09966,0 18.48971,-34.1006,0 18.48976,-34.1017,0 18.48982,-34.10258,0 18.48982,-34.10352,0 18.48993,-34.1077,0 18.4901,-34.11058,0 18.49039,-34.11367,0 18.49079,-34.11772,0 18.491,-34.11987,0 18.49122,-34.12143,0 18.49148,-34.12265,0 18.49162,-34.12372,0 18.49178,-34.12459,0 18.49195,-34.1256,0 18.49205,-34.12637,0 18.49228,-34.12749,0 18.49239,-34.12814,0 18.49257,-34.12926,0 18.49274,-34.13033,0 18.49285,-34.13126,0 18.49302,-34.1321,0 18.49319,-34.13315,0 18.49335,-34.13429,0 18.49352,-34.13535,0 18.49363,-34.13635,0 18.49377,-34.13731,0 18.49391,-34.13828,0 18.49405,-34.13923,0 18.49414,-34.1402,0 18.49428,-34.14137,0 18.4944,-34.1423,0 18.49453,-34.14326,0 18.49481,-34.14629,0 18.49487,-34.1472,0 18.49491,-34.14858,0 18.49491,-34.14942,0 18.49492,-34.15059,0 18.49497,-34.15156,0 18.49498,-34.15256,0 18.49503,-34.15468,0 18.49503,-34.1557,0 18.49503,-34.15691,0 18.49503,-34.15784,0 18.49504,-34.15906,0 18.49497,-34.16003,0 18.49487,-34.16336,0 18.49468,-34.16748,0 18.49453,-34.17087,0 18.49425,-34.17403,0 18.49388,-34.1773,0 18.49371,-34.17842,0 18.49348,-34.17968,0 18.4933,-34.18085,0 18.49314,-34.18177,0 18.4929,-34.18295,0 18.49268,-34.18405,0 18.49245,-34.18498,0 18.49222,-34.18605,0 18.49201,-34.18726,0 18.49182,-34.18838,0 18.49162,-34.18932,0 18.49136,-34.19057,0 18.49117,-34.19156,0 18.49085,-34.19281,0 18.49061,-34.19385,0 18.49027,-34.19504,0 18.48988,-34.19616,0 18.48949,-34.19714,0 18.48909,-34.1981,0 18.48862,-34.19913,0 18.4882,-34.20007,0 18.4878,-34.20108,0 18.4873,-34.20213,0 18.4869,-34.20304,0 18.48646,-34.20396,0 18.48601,-34.20502,0 18.48547,-34.20607,0 18.48495,-34.20712,0 18.4845,-34.20789,0 18.48398,-34.20882,0 18.48338,-34.20992,0 18.48284,-34.21082,0 18.48232,-34.21185,0 18.48192,-34.21264,0 18.48141,-34.21358,0 18.48095,-34.2145,0 18.48052,-34.21541,0 18.48003,-34.21655,0 18.47952,-34.21771,0 18.47912,-34.21869,0 18.47866,-34.21976,0 18.47828,-34.22076,0 18.47783,-34.222,0 18.47743,-34.22314,0 18.4771,-34.2242,0 18.47671,-34.22548,0 18.47637,-34.22655,0 18.47603,-34.22781,0 18.47564,-34.22919,0 18.4753,-34.23019,0 18.4748,-34.23157,0 18.47441,-34.23253,0 18.47397,-34.23377,0 18.47379,-34.23477,0 18.47397,-34.23591,0 18.47452,-34.23669,0 18.47558,-34.23715,0 18.47665,-34.23711,0 18.47792,-34.23656,0 18.47906,-34.23573,0 18.47985,-34.23491,0 18.48046,-34.23404,0 18.48113,-34.23271,0 18.48141,-34.23177,0 18.48158,-34.23065,0 18.48136,-34.22914,0 18.48089,-34.22823,0 18.48026,-34.22753,0 18.47912,-34.2269,0 18.47828,-34.22685,0 18.47749,-34.22726,0 18.47732,-34.22749,0 18.47717,-34.22772,0 18.477,-34.228,0 18.47687,-34.22832,0 18.47677,-34.2286,0 18.4766,-34.22911,0 18.47654,-34.22953,0 18.47648,-34.22978,0 18.47637,-34.23019,0 18.47631,-34.23042,0 18.47626,-34.2307,0 18.4762,-34.23102,0 18.47614,-34.2314,0 18.47609,-34.23161,0 18.47598,-34.23207,0 18.47591,-34.23233,0 18.47586,-34.23257,0 18.47575,-34.23294,0 18.4757,-34.23317,0 18.47563,-34.23349,0 18.47551,-34.23382,0 18.47542,-34.23422,0 18.47536,-34.23445,0 18.47528,-34.23465,0 18.47514,-34.23486,0 18.475,-34.23507,0 18.47497,-34.23532,0 18.47508,-34.2356,0 18.47523,-34.23587,0 18.47551,-34.23619,0 18.47586,-34.23642,0 18.47614,-34.23661,0 18.47643,-34.2367,0 18.47666,-34.2368,0 18.47715,-34.23683,0 18.47752,-34.23684,0 18.47828,-34.23679,0 18.47878,-34.23661,0 18.47912,-34.23647,0 18.4794,-34.23629,0 18.47973,-34.2361,0 18.48021,-34.23563,0 18.48049,-34.23531,0 18.48102,-34.23441,0 18.48136,-34.23335,0 18.48147,-34.23239,0 18.48152,-34.2313,0 18.48152,-34.23019,0 18.48147,-34.22923,0 18.48146,-34.22851,0 18.48135,-34.2273,0 18.48129,-34.22632,0 18.48124,-34.22535,0 18.48108,-34.22411,0 18.48102,-34.22292,0 18.48089,-34.22186,0 18.4808,-34.22081,0 18.48069,-34.21957,0 18.48055,-34.21841,0 18.48041,-34.21715,0 18.48024,-34.216,0 18.48013,-34.21495,0 18.48001,-34.21358,0 18.47992,-34.21222,0 18.47985,-34.21111,0 18.47975,-34.21012,0 18.47968,-34.20877,0 18.47956,-34.20772,0 18.47946,-34.2064,0 18.47934,-34.20538,0 18.47923,-34.20416,0 18.47912,-34.20304,0 18.479,-34.20198,0 18.47889,-34.20081,0 18.47878,-34.19943,0 18.47866,-34.19844,0 18.47861,-34.19719,0 18.47855,-34.19588,0 18.4785,-34.19476,0 18.47843,-34.19374,0 18.47839,-34.19229,0 18.47833,-34.19133,0 18.47828,-34.18996,0 18.4782,-34.18871,0 18.47809,-34.18755,0 18.47803,-34.18629,0 18.47794,-34.18515,0 18.47783,-34.18369,0 18.47777,-34.18263,0 18.47769,-34.18149,0 18.47757,-34.18014,0 18.47752,-34.17931,0 18.47738,-34.17796,0 18.47727,-34.17673,0 18.47715,-34.17545,0 18.47704,-34.17439,0 18.47689,-34.17307,0 18.47665,-34.17087,0 18.4762,-34.16693,0 18.47586,-34.16315,0 18.47553,-34.15929,0 18.475,-34.15435,0 18.47452,-34.14949,0 18.47401,-34.14455,0 18.47351,-34.13965,0 18.47301,-34.13489,0 18.47265,-34.1314,0 18.47211,-34.12674,0 18.47145,-34.12191,0 18.47082,-34.118,0 18.4702,-34.11461,0 18.46903,-34.10939,0 18.46875,-34.10829,0 18.46841,-34.10719,0 18.46796,-34.1058,0 18.4675,-34.10473,0 18.46716,-34.10384,0 18.46659,-34.10258,0 18.46584,-34.10119,0 18.46505,-34.09991,0 18.46436,-34.099,0 18.46344,-34.09784,0 18.46264,-34.09705,0 18.46174,-34.09616,0 18.46075,-34.09528,0 18.45949,-34.09425,0 18.45843,-34.09332,0 18.45732,-34.09235,0 18.45652,-34.09165,0 18.45549,-34.09085,0 18.45434,-34.08994,0 18.45314,-34.08904,0 18.45217,-34.08839,0 18.45119,-34.08774,0 18.45011,-34.08713,0 18.44902,-34.08659,0 18.44767,-34.08595,0 18.44662,-34.0855,0 18.44519,-34.08494,0 18.44416,-34.08457,0 18.44307,-34.08417,0 18.44179,-34.08376,0 18.44032,-34.08327,0 18.43901,-34.08285,0 18.43792,-34.08247,0 18.43643,-34.08196,0 18.43534,-34.08156,0 18.4336,-34.08092,0 18.43248,-34.08046,0 18.43074,-34.07977,0 18.42968,-34.07927,0 18.42856,-34.07877,0 18.42722,-34.0781,0 18.42613,-34.07759,0 18.42482,-34.07693,0 18.42356,-34.07624,0 18.42264,-34.07573,0 18.42155,-34.07501,0 18.42018,-34.0741,0 18.41931,-34.07346,0 18.4183,-34.07263,0 18.41738,-34.07191,0 18.41652,-34.07116,0 18.41555,-34.07021,0 18.41488,-34.06943,0 18.41406,-34.06828,0 18.41366,-34.06758,0 18.41314,-34.06636,0 18.41269,-34.0653,0 18.4124,-34.06437,0 18.41196,-34.06316,0 18.41154,-34.06199,0 18.41124,-34.061,0 18.41085,-34.05999,0 18.41051,-34.0589,0 18.41022,-34.0579,0 18.40995,-34.0567,0 18.40978,-34.05583,0 18.40956,-34.05482,0 18.40939,-34.05377,0 18.40928,-34.05286,0 18.40911,-34.05199,0 18.40883,-34.0508,0 18.40855,-34.04988,0 18.40821,-34.04897,0 18.40771,-34.04778,0 18.40719,-34.04691,0 18.40647,-34.04604,0 18.40593,-34.04542,0 18.40519,-34.04454,0 18.40467,-34.04384,0 18.40429,-34.04306,0 18.40401,-34.04219,0 18.40393,-34.04146,0 18.40405,-34.04081,0 18.4044,-34.04013,0 18.4049,-34.03972,0 18.40552,-34.03944,0 18.40622,-34.03932,0 18.40696,-34.03941,0 18.40742,-34.03946,0 18.4081,-34.03958,0 18.40877,-34.03967,0 18.40939,-34.03976,0 18.40984,-34.03976,0 18.4104,-34.03983,0 18.41073,-34.03986,0 18.4112,-34.03988,0 18.41148,-34.03988,0 18.41185,-34.0399,0 18.41223,-34.03988,0 18.41251,-34.03988,0 18.41274,-34.03993,0 18.41292,-34.03963,0 18.4124,-34.03811,0 18.41223,-34.03751,0 18.41211,-34.0369,0 18.41196,-34.03615,0 18.41183,-34.03527,0 18.41171,-34.03467,0 18.41166,-34.03406,0 18.4116,-34.03336,0 18.41154,-34.03276,0 18.41163,-34.03198,0 18.41177,-34.03141,0 18.41217,-34.03057,0 18.41263,-34.02996,0 18.41343,-34.02927,0 18.41415,-34.02878,0 18.41488,-34.02832,0 18.4156,-34.02787,0 18.41663,-34.02708,0 18.41723,-34.02667,0 18.41813,-34.02585,0 18.41897,-34.02507,0 18.4197,-34.02434,0 18.42032,-34.02374,0 18.42116,-34.02283,0 18.42196,-34.022,0 18.42267,-34.02118,0 18.42323,-34.02054,0 18.4239,-34.01977,0 18.42463,-34.0188,0 18.42516,-34.01819,0 18.42596,-34.01721,0 18.42659,-34.01642,0 18.42743,-34.01537,0 18.42805,-34.01459,0 18.42859,-34.01386,0 18.42928,-34.01288,0 18.42996,-34.01198,0 18.43054,-34.01111,0 18.43119,-34.01024,0 18.43186,-34.00928,0 18.43386,-34.00655,0 18.4345,-34.00562,0 18.4359,-34.00383,0 18.43678,-34.00269,0 18.43832,-34.00055,0 18.43904,-33.99948,0 18.43969,-33.99854,0 18.44033,-33.99756,0 18.44112,-33.99635,0 18.44173,-33.99536,0 18.44246,-33.99422,0 18.44313,-33.9931,0 18.44369,-33.99207,0 18.44425,-33.99106,0 18.44479,-33.99012,0 18.44543,-33.98886,0 18.44599,-33.98776,0 18.44645,-33.98681,0 18.44702,-33.98546,0 18.44745,-33.98438,0 18.44782,-33.98341,0 18.44829,-33.98213,0 18.44862,-33.98108,0 18.44891,-33.98011,0 18.44935,-33.9787,0 18.44971,-33.97759,0 18.45005,-33.97652,0 18.45039,-33.97527,0 18.4507,-33.97412,0 18.45108,-33.9728,0 18.45131,-33.97169,0 18.45159,-33.9705,0 18.45182,-33.96922,0 18.452,-33.9681,0 18.45222,-33.96698,0 18.45243,-33.96565,0 18.45257,-33.9647,0 18.45274,-33.96339,0 18.45294,-33.96204,0 18.45305,-33.96112,0 18.4532,-33.95976,0 18.45328,-33.95869,0 18.45331,-33.95753,0 18.45337,-33.95613,0 18.45337,-33.95525,0 18.45331,-33.95376,0 18.4532,-33.9525,0 18.45311,-33.95128,0 18.45294,-33.95013,0 18.45268,-33.94868,0 18.45243,-33.94748,0 18.45217,-33.94626,0 18.45193,-33.94519,0 18.45154,-33.94375,0 18.45119,-33.94263,0 18.45075,-33.94125,0 18.45039,-33.94017,0 18.44997,-33.93892,0 18.44948,-33.93751,0 18.44907,-33.93636,0 18.44868,-33.93518,0 18.44828,-33.93411,0 18.44776,-33.93277,0 18.44722,-33.9315,0 18.44683,-33.9304,0 18.44639,-33.92923,0 18.44593,-33.92788,0 18.44548,-33.92638,0 18.44513,-33.92527,0 18.4447,-33.9239,0 18.44436,-33.9229,0 18.44391,-33.92166,0 18.44347,-33.92033,0 18.44307,-33.91917,0 18.44268,-33.91814,0 18.44229,-33.91681,0 18.44195,-33.91566,0 18.44158,-33.91447,0 18.44124,-33.91326,0 18.44078,-33.91158,0 18.44049,-33.91051,0 18.44009,-33.90898,0 18.43987,-33.90786,0 18.43964,-33.90628,0 18.43952,-33.90525,0 18.43949,-33.90404,0 18.43952,-33.90288,0 18.43954,-33.90175,0 18.43958,-33.90069,0 18.43932,-33.89983,0 18.43898,-33.89914,0 18.43848,-33.89864,0 18.43769,-33.89817,0 18.43657,-33.89799,0 18.4358,-33.89808,0 18.43483,-33.89836,0 18.43444,-33.8985,0 18.43403,-33.89864,0 18.43369,-33.89878,0 18.43338,-33.89886,0 18.43283,-33.89906,0 18.43242,-33.89919,0 18.43209,-33.89928,0 18.43157,-33.89939,0 18.43122,-33.89948,0 18.43082,-33.89962,0 18.43048,-33.89967,0 18.43014,-33.89976,0 18.42985,-33.89987,0 18.42889,-33.90015,0 18.42805,-33.90033,0 18.42783,-33.90042,0 18.4276,-33.90047,0 18.42739,-33.90055,0 18.42732,-33.90019,0 18.42739,-33.8999,0 18.42751,-33.89967,0 18.42773,-33.8992,0 18.42783,-33.89896,0 18.42819,-33.89846,0 18.42842,-33.89804,0 18.42859,-33.8978,0 18.42894,-33.89729,0 18.42911,-33.89701,0 18.42934,-33.89659,0 18.42951,-33.89635,0 18.42968,-33.89608,0 18.43013,-33.89529,0 18.43031,-33.89501,0 18.43046,-33.8947,0 18.43077,-33.89422,0 18.43091,-33.89397,0 18.43108,-33.89369,0 18.43151,-33.89291,0 18.43192,-33.89227,0 18.43237,-33.89159,0 18.43277,-33.89091,0 18.43321,-33.89026,0 18.43363,-33.88961,0 18.4342,-33.88868,0 18.43467,-33.88792,0 18.43517,-33.88715,0 18.43557,-33.88644,0 18.43592,-33.8856,0 18.43601,-33.8849,0 18.43592,-33.88426,0 18.43551,-33.88358,0 18.435,-33.88303,0 18.43416,-33.88243,0 18.43328,-33.88202,0 18.43185,-33.88151,0 18.43097,-33.88124,0 18.43001,-33.88101,0 18.42911,-33.88076,0 18.42816,-33.8806,0 18.42704,-33.88042,0 18.42613,-33.88025,0 18.42527,-33.88016,0 18.42396,-33.87996,0 18.42281,-33.87988,0 18.42184,-33.87979,0 18.42081,-33.87974,0 18.41959,-33.87964,0 18.41869,-33.8796,0 18.41735,-33.87955,0 18.41634,-33.8795,0 18.4152,-33.87951,0 18.41412,-33.87955,0 18.41297,-33.87959,0 18.41163,-33.87964,0 18.41062,-33.87973,0 18.40928,-33.87982,0 18.40834,-33.87988,0 18.40708,-33.88002,0 18.40611,-33.88011,0 18.40513,-33.88025,0 18.40405,-33.88039,0 18.403,-33.8806,0 18.40199,-33.88081,0 18.40075,-33.88106,0 18.39963,-33.88133,0 18.39855,-33.88165,0 18.39741,-33.88198,0 18.39649,-33.88234,0 18.39548,-33.88275,0 18.39448,-33.88321,0 18.39369,-33.88367,0 18.39257,-33.88435,0 18.39157,-33.885,0 18.39083,-33.88559,0 18.39014,-33.88612,0 18.38938,-33.88673,0 18.38848,-33.88742,0 18.38764,-33.8882,0 18.38674,-33.88898,0 18.38614,-33.88956,0 18.38528,-33.89031,0 18.38442,-33.8911,0 18.38366,-33.89182,0 18.38293,-33.89246,0 18.38209,-33.89328,0 18.38139,-33.89399,0 18.38076,-33.89464,0 18.37996,-33.89543,0 18.37934,-33.89612,0 18.37841,-33.89706,0 18.37767,-33.8979,0 18.37704,-33.89859,0 18.37643,-33.89928,0 18.37564,-33.90015,0 18.37509,-33.90078,0 18.37452,-33.90148,0 18.37385,-33.90234,0 18.37332,-33.90297,0 18.37252,-33.90395,0 18.372,-33.90463,0 18.37144,-33.90536,0 18.37088,-33.9061,0 18.37026,-33.90692,0 18.36964,-33.90779,0 18.36925,-33.90839,0 18.36863,-33.9093,0 18.36813,-33.90999,0 18.36746,-33.91095,0 18.36691,-33.91172,0 18.36628,-33.91251,0 18.36583,-33.91315,0 18.36516,-33.91406,0 18.36468,-33.91475,0 18.36393,-33.91573,0 18.36256,-33.91768,0 18.36197,-33.9185,0 18.36084,-33.9201,0 18.36017,-33.92107,0 18.35972,-33.92184,0 18.35918,-33.92266,0 18.35873,-33.9235,0 18.35821,-33.9245,0 18.3577,-33.92541,0 18.35718,-33.92643,0 18.35672,-33.92727,0 18.35621,-33.92834,0 18.35574,-33.92926,0 18.35524,-33.93027,0 18.35485,-33.93109,0 18.35438,-33.93211,0 18.35395,-33.93301,0 18.35363,-33.93365,0 18.35306,-33.93491,0 18.35169,-33.93789,0 18.35032,-33.94105,0 18.34896,-33.94427,0 18.34739,-33.94821,0 18.34631,-33.95111,0 18.34593,-33.95242,0 18.34577,-33.95352,0 18.3493,-33.95677,0 18.35014,-33.95654,0 18.35104,-33.95604,0 18.35193,-33.95499,0 18.35249,-33.95399,0 18.35294,-33.95306,0 18.35346,-33.95194,0 18.35403,-33.95087,0 18.3544,-33.95013,0 18.35512,-33.94883,0 18.35569,-33.94775,0 18.35604,-33.94706,0 18.35658,-33.94601,0 18.35718,-33.94487,0 18.35758,-33.94417,0 18.35827,-33.94282,0 18.35877,-33.94185,0 18.35928,-33.9408,0 18.36096,-33.9375,0 18.36236,-33.93452,0 18.36404,-33.93109,0 18.36571,-33.92788,0 18.36752,-33.92441,0 18.36811,-33.92341,0 18.36875,-33.92239,0 18.36931,-33.9215,0 18.37011,-33.92029,0 18.37088,-33.91914,0 18.37155,-33.91814,0 18.37229,-33.91708,0 18.37301,-33.91603,0 18.37379,-33.91493,0 18.37429,-33.91424,0 18.37514,-33.9131,0 18.37587,-33.91209,0 18.37675,-33.91088,0 18.37761,-33.9099,0 18.37828,-33.90898,0 18.37921,-33.90791,0 18.37996,-33.90702,0 18.38099,-33.9059,0 18.38164,-33.90518,0 18.38276,-33.90395,0 18.38355,-33.90317,0 18.38461,-33.90207,0 18.38545,-33.90125,0 18.38642,-33.90041,0 18.38739,-33.89952,0 18.38865,-33.8985,0 18.38966,-33.89777,0 18.39106,-33.89687,0 18.3922,-33.89627,0 18.39347,-33.89571,0 18.39464,-33.89511,0 18.39609,-33.89445,0 18.39769,-33.8938,0 18.39918,-33.89324,0 18.40044,-33.89282,0 18.40176,-33.89241,0 18.40328,-33.89195,0 18.40473,-33.89157,0 18.40605,-33.89119,0 18.40742,-33.89082,0 18.40905,-33.89044,0 18.41034,-33.89008,0 18.41171,-33.88975,0 18.41343,-33.88933,0 18.41475,-33.889,0 18.41629,-33.88858,0 18.41761,-33.88821,0 18.41892,-33.88789,0 18.42052,-33.88752,0 18.42213,-33.88719,0 18.42333,-33.88691,0 18.4251,-33.88659,0 18.42671,-33.88637,0 18.42805,-33.88618,0 18.42929,-33.88609,0 18.43097,-33.886,0 18.43265,-33.88596,0 18.43444,-33.886,0 18.43607,-33.88618,0 18.43752,-33.88651,0 18.43904,-33.88705,0 18.44027,-33.8876,0 18.44175,-33.88849,0 18.44261,-33.88914,0 18.44364,-33.89008,0 18.44464,-33.89122,0 18.44515,-33.89204,0 18.4456,-33.89323,0 18.44564,-33.89455,0 18.44536,-33.89552,0 18.44481,-33.89644,0 18.44381,-33.89734,0 18.44307,-33.89772,0 18.44151,-33.89813,0 18.44009,-33.89827,0 18.43872,-33.89841,0 18.43769,-33.89854,0 18.43719,-33.89859,0 18.4364,-33.89868,0 18.43586,-33.89874,0 18.43552,-33.89883,0 18.435,-33.89891,0 18.43439,-33.899,0 18.43403,-33.89906,0 18.43334,-33.89915,0 18.43225,-33.89939,0 18.43185,-33.89943,0 18.43151,-33.89952,0 18.43119,-33.8996,0 18.43088,-33.89967,0 18.43029,-33.89978,0 18.43001,-33.89987,0 18.42979,-33.89994,0 18.42945,-33.90004,0 18.42917,-33.9001,0 18.42825,-33.90032,0 18.42791,-33.90041,0 18.42762,-33.90046,0</coordinates>
      </LineString>
    </Placemark>
  </Document>
</kml>
