<?xml version="1.0" encoding="UTF-8"?>
<kml xmlns="http://www.opengis.net/kml/2.2">
  <Document>
    <name>FR24 403ee722</name>
    <Placemark>
      <name>FR24 403ee722</name>
      <Style><LineStyle><color>ff0000ff</color><width>4</width></LineStyle></Style>
      <LineString>
        <tessellate>1</tessellate>
        <coordinates>18.46729,-33.92136,0 18.4729,-33.92647,0 18.4755,-33.92957,0 18.48161,-33.93953,0 18.48149,-33.94023,0 18.48224,-33.94197,0 18.48295,-33.94446,0 18.48368,-33.94658,0 18.48385,-33.94741,0 18.48383,-33.94896,0 18.4829,-33.95015,0 18.48294,-33.95116,0 18.48251,-33.95216,0 18.48241,-33.95317,0 18.48262,-33.95513,0 18.48253,-33.95588,0 18.48263,-33.95676,0 18.48242,-33.95798,0 18.48243,-33.95882,0 18.48232,-33.96023,0 18.48203,-33.96089,0 18.48219,-33.9619,0 18.48229,-33.96276,0 18.48234,-33.96354,0 18.48232,-33.96489,0 18.4822,-33.96584,0 18.48213,-33.96686,0 18.4822,-33.96785,0 18.48229,-33.96871,0 18.48192,-33.96991,0 18.48185,-33.97108,0 18.48092,-33.97191,0 18.48078,-33.97289,0 18.48081,-33.97391,0 18.48078,-33.97509,0 18.48084,-33.97596,0 18.48058,-33.97692,0 18.48059,-33.97829,0 18.48029,-33.9793,0 18.48057,-33.98034,0 18.4811,-33.98127,0 18.48121,-33.98227,0 18.4813,-33.98344,0 18.48123,-33.98433,0 18.48122,-33.98547,0 18.4811,-33.98652,0 18.48118,-33.98713,0 18.4814,-33.98814,0 18.48107,-33.98923,0 18.48105,-33.99031,0 18.48096,-33.99146,0 18.48054,-33.99252,0 18.4803,-33.99371,0 18.48046,-33.99454,0 18.48041,-33.99543,0 18.4805,-33.9963,0 18.48067,-33.99744,0 18.48061,-33.9984,0 18.48049,-33.99955,0 18.48006,-34.00069,0 18.47999,-34.00179,0 18.48016,-34.00276,0 18.48025,-34.00351,0 18.48035,-34.00454,0 18.48006,-34.00544,0 18.47967,-34.00651,0 18.47921,-34.00777,0 18.47895,-34.00854,0 18.47895,-34.00935,0 18.479,-34.01003,0 18.47927,-34.0109,0 18.47942,-34.01183,0 18.4795,-34.0125,0 18.47929,-34.01339,0 18.47894,-34.01427,0 18.47895,-34.01512,0 18.47882,-34.01591,0 18.47869,-34.01678,0 18.47854,-34.01756,0 18.47839,-34.01826,0 18.47828,-34.01905,0 18.47822,-34.01996,0 18.47813,-34.02081,0 18.47803,-34.02157,0 18.47776,-34.02212,0 18.47749,-34.02278,0 18.47732,-34.02338,0 18.47688,-34.02425,0 18.47666,-34.02512,0 18.47635,-34.02634,0 18.47601,-34.02724,0 18.47594,-34.02841,0 18.47593,-34.02942,0 18.47586,-34.03016,0 18.47593,-34.03106,0 18.47578,-34.03225,0 18.47611,-34.03319,0 18.47613,-34.03401,0 18.47619,-34.03483,0 18.47612,-34.0357,0 18.47588,-34.03685,0 18.47591,-34.03775,0 18.47609,-34.03881,0 18.47593,-34.03984,0 18.47556,-34.04079,0 18.47507,-34.0419,0 18.47462,-34.04291,0 18.47437,-34.04387,0 18.47426,-34.04452,0 18.47392,-34.04545,0 18.47371,-34.04618,0 18.47348,-34.04707,0 18.47333,-34.04793,0 18.47312,-34.04898,0 18.473,-34.04955,0 18.47289,-34.05026,0 18.47256,-34.05137,0 18.47195,-34.05249,0 18.47182,-34.0536,0 18.47145,-34.05469,0 18.47142,-34.0555,0 18.47128,-34.0564,0 18.471,-34.05738,0 18.47063,-34.05851,0 18.47027,-34.0596,0 18.47003,-34.06046,0 18.46993,-34.06184,0 18.46967,-34.0626,0 18.46971,-34.06356,0 18.46954,-34.06482,0 18.46935,-34.06563,0 18.46893,-34.06697,0 18.4689,-34.06772,0 18.46982,-34.06864,0 18.47012,-34.06943,0 18.47046,-34.07031,0 18.47073,-34.07103,0 18.47086,-34.07191,0 18.47143,-34.07244,0 18.47161,-34.07341,0 18.47175,-34.07432,0 18.47153,-34.07523,0 18.47158,-34.07603,0 18.47156,-34.07702,0 18.47108,-34.07833,0 18.47104,-34.07916,0 18.47092,-34.07989,0 18.47094,-34.08073,0 18.47081,-34.08167,0 18.47072,-34.08234,0 18.47072,-34.08318,0 18.47056,-34.08397,0 18.47038,-34.08474,0 18.47002,-34.08551,0 18.4698,-34.08649,0 18.46969,-34.08751,0 18.4696,-34.08833,0 18.46912,-34.08937,0 18.46905,-34.09024,0 18.46918,-34.09109,0 18.46928,-34.0919,0 18.46958,-34.09265,0 18.46977,-34.09332,0 18.46971,-34.09415,0 18.46968,-34.09507,0 18.46951,-34.09583,0 18.46959,-34.09658,0 18.46962,-34.09743,0 18.46962,-34.09803,0 18.46937,-34.09901,0 18.46938,-34.09988,0 18.46946,-34.10056,0 18.46959,-34.10134,0 18.46974,-34.10212,0 18.46968,-34.10284,0 18.46978,-34.10372,0 18.46988,-34.10448,0 18.46978,-34.10518,0 18.46979,-34.10607,0 18.47021,-34.10688,0 18.47019,-34.10754,0 18.47012,-34.10836,0 18.47011,-34.10938,0 18.47004,-34.11012,0 18.46998,-34.11102,0 18.46993,-34.11182,0 18.4699,-34.11256,0 18.46988,-34.11339,0 18.46979,-34.11426,0 18.46967,-34.11525,0 18.46959,-34.1162,0 18.46946,-34.11697,0 18.46938,-34.11784,0 18.46927,-34.11868,0 18.46915,-34.11954,0 18.46908,-34.12032,0 18.46898,-34.12143,0 18.46893,-34.12213,0 18.46885,-34.12308,0 18.46876,-34.1239,0 18.46867,-34.12495,0 18.46852,-34.12587,0 18.46841,-34.12672,0 18.46829,-34.12772,0 18.46828,-34.12848,0 18.46839,-34.12951,0 18.4684,-34.1303,0 18.46836,-34.13125,0 18.46842,-34.13218,0 18.46845,-34.133,0 18.46846,-34.13406,0 18.46837,-34.13513,0 18.46836,-34.13586,0 18.46832,-34.13667,0 18.46831,-34.13742,0 18.46829,-34.13816,0 18.46829,-34.13912,0 18.46824,-34.14035,0 18.46822,-34.14144,0 18.46818,-34.14217,0 18.46812,-34.14302,0 18.46805,-34.14398,0 18.468,-34.14492,0 18.46802,-34.14574,0 18.468,-34.14664,0 18.46799,-34.14758,0 18.46794,-34.14848,0 18.46801,-34.14937,0 18.46814,-34.15027,0 18.46822,-34.1509,0 18.46831,-34.15152,0 18.46837,-34.15232,0 18.46845,-34.15312,0 18.46852,-34.15397,0 18.46857,-34.15479,0 18.46868,-34.15575,0 18.46882,-34.15659,0 18.4689,-34.1575,0 18.46902,-34.15835,0 18.46908,-34.15918,0 18.46923,-34.16008,0 18.46931,-34.16082,0 18.46941,-34.16169,0 18.46952,-34.16282,0 18.46968,-34.16369,0 18.46973,-34.16469,0 18.46975,-34.16561,0 18.46981,-34.1664,0 18.46989,-34.16719,0 18.46992,-34.16784,0 18.47005,-34.1687,0 18.47007,-34.16941,0 18.47017,-34.17039,0 18.47027,-34.17096,0 18.47035,-34.17187,0 18.47046,-34.17252,0 18.47058,-34.17342,0 18.47066,-34.17426,0 18.47064,-34.17501,0 18.47079,-34.17599,0 18.47089,-34.17682,0 18.47095,-34.1778,0 18.47104,-34.17867,0 18.47107,-34.17972,0 18.47108,-34.18042,0 18.47094,-34.18177,0 18.47076,-34.18266,0 18.47051,-34.18369,0 18.47035,-34.18465,0 18.46962,-34.18591,0 18.4699,-34.18703,0 18.47092,-34.18683,0 18.47142,-34.18717,0 18.47116,-34.18816,0 18.47108,-34.18903,0 18.47147,-34.18953,0 18.47163,-34.19003,0 18.47114,-34.19136,0 18.47137,-34.19162,0 18.47135,-34.19221,0 18.47154,-34.19278,0 18.47122,-34.19378,0 18.47159,-34.19419,0 18.47175,-34.1951,0 18.47171,-34.19591,0 18.47168,-34.19659,0 18.4719,-34.19746,0 18.47202,-34.19812,0 18.47224,-34.19863,0 18.47244,-34.19938,0 18.4725,-34.20012,0 18.47257,-34.20111,0 18.47251,-34.20192,0 18.47248,-34.20268,0 18.47266,-34.20346,0 18.47304,-34.20454,0 18.47335,-34.20513,0 18.47384,-34.20598,0 18.47454,-34.20662,0 18.47488,-34.20708,0 18.47628,-34.20788,0 18.47685,-34.20776,0 18.47818,-34.20784,0 18.47898,-34.20783,0 18.4801,-34.20786,0 18.48132,-34.20809,0 18.48207,-34.20834,0 18.48235,-34.20871,0 18.48244,-34.20922,0 18.48222,-34.20985,0 18.481,-34.21201,0 18.4807,-34.21271,0 18.47832,-34.21542,0 18.47902,-34.2149,0 18.47904,-34.21646,0 18.47904,-34.21688,0 18.4785,-34.21783,0 18.47822,-34.21851,0 18.47738,-34.21967,0 18.47677,-34.22068,0 18.4761,-34.22178,0 18.47508,-34.22304,0 18.47626,-34.22341,0 18.47662,-34.2235,0 18.47688,-34.2239,0 18.4768,-34.22443,0 18.47689,-34.22491,0 18.47672,-34.22558,0 18.47652,-34.2264,0 18.47641,-34.22694,0 18.4763,-34.22737,0 18.47578,-34.22822,0 18.47581,-34.22868,0 18.47573,-34.22922,0 18.47597,-34.2295,0 18.47619,-34.22961,0 18.47604,-34.23002,0 18.47605,-34.23037,0 18.47596,-34.2306,0 18.47611,-34.23087,0 18.47615,-34.2312,0 18.47597,-34.23143,0 18.47576,-34.23177,0 18.47567,-34.23208,0 18.47548,-34.23251,0 18.47544,-34.23287,0 18.47524,-34.23335,0 18.47506,-34.23387,0 18.47489,-34.23436,0 18.47466,-34.23489,0 18.47467,-34.23513,0 18.47456,-34.23539,0 18.47478,-34.2353,0 18.47461,-34.23551,0 18.47406,-34.23609,0 18.47381,-34.23635,0 18.47365,-34.23657,0 18.47313,-34.23664,0 18.47314,-34.23632,0 18.47554,-34.23478,0 18.47618,-34.23733,0 18.47717,-34.23882,0 18.47696,-34.23912,0 18.47777,-34.23907,0 18.4785,-34.2388,0 18.47878,-34.23859,0 18.4792,-34.2384,0 18.48012,-34.23783,0 18.48106,-34.23692,0 18.48215,-34.2358,0 18.48215,-34.23475,0 18.48317,-34.2318,0 18.4816,-34.23134,0 18.48577,-34.22594,0 18.48354,-34.22513,0 18.48392,-34.22273,0 18.48347,-34.221,0 18.48279,-34.2205,0 18.48253,-34.21925,0 18.48297,-34.2169,0 18.48294,-34.21576,0 18.48275,-34.2141,0 18.48145,-34.21195,0 18.4808,-34.21085,0 18.48052,-34.2095,0 18.48049,-34.20811,0 18.4791,-34.20547,0 18.47954,-34.20306,0 18.47782,-34.20087,0 18.47697,-34.19944,0 18.47714,-34.1966,0 18.47557,-34.19685,0 18.47574,-34.19483,0 18.47559,-34.19248,0 18.47509,-34.19189,0 18.47485,-34.19054,0 18.47472,-34.18885,0 18.47453,-34.18773,0 18.47428,-34.18645,0 18.47391,-34.18508,0 18.47372,-34.18367,0 18.47347,-34.18256,0 18.47328,-34.181,0 18.47301,-34.17942,0 18.4727,-34.17842,0 18.47251,-34.17587,0 18.47286,-34.17432,0 18.47277,-34.17315,0 18.47254,-34.17087,0 18.4725,-34.16994,0 18.47227,-34.16738,0 18.472,-34.1654,0 18.47202,-34.16479,0 18.47195,-34.16296,0 18.47185,-34.16075,0 18.47184,-34.15973,0 18.4717,-34.15788,0 18.47161,-34.15607,0 18.47149,-34.15474,0 18.47135,-34.15235,0 18.47124,-34.15025,0 18.47123,-34.14965,0 18.4712,-34.14776,0 18.47118,-34.14581,0 18.47122,-34.14459,0 18.47123,-34.14311,0 18.47127,-34.14202,0 18.47137,-34.13686,0 18.47148,-34.13493,0 18.47148,-34.13322,0 18.4715,-34.13176,0 18.47154,-34.12983,0 18.47158,-34.12781,0 18.47183,-34.12346,0 18.47211,-34.12144,0 18.47242,-34.11958,0 18.47263,-34.1181,0 18.47291,-34.1164,0 18.47303,-34.1151,0 18.473,-34.11382,0 18.47292,-34.11234,0 18.4728,-34.11056,0 18.47262,-34.10858,0 18.47244,-34.10704,0 18.47227,-34.10581,0 18.47201,-34.10408,0 18.47149,-34.10263,0 18.47096,-34.10088,0 18.47034,-34.09948,0 18.46974,-34.09842,0 18.46927,-34.09648,0 18.46873,-34.09533,0 18.46811,-34.0938,0 18.46754,-34.09232,0 18.46651,-34.09106,0 18.46553,-34.08977,0 18.46482,-34.08868,0 18.46363,-34.08735,0 18.46227,-34.08641,0 18.46074,-34.08503,0 18.45935,-34.08451,0 18.45728,-34.08356,0 18.45574,-34.08291,0 18.45393,-34.08203,0 18.45277,-34.08125,0 18.45108,-34.08026,0 18.44964,-34.07958,0 18.4477,-34.07874,0 18.44574,-34.07802,0 18.44438,-34.07738,0 18.44243,-34.07653,0 18.44068,-34.07579,0 18.43804,-34.07454,0 18.4365,-34.07376,0 18.43502,-34.07292,0 18.43322,-34.07182,0 18.43189,-34.07114,0 18.42972,-34.07027,0 18.42834,-34.06991,0 18.4267,-34.06944,0 18.42517,-34.06894,0 18.42349,-34.0678,0 18.422,-34.06659,0 18.42058,-34.06532,0 18.41951,-34.06429,0 18.41825,-34.06301,0 18.41722,-34.06192,0 18.41602,-34.0606,0 18.41471,-34.05909,0 18.41355,-34.05787,0 18.41241,-34.05656,0 18.41112,-34.05512,0 18.41009,-34.05405,0 18.40917,-34.05308,0 18.40773,-34.05151,0 18.40664,-34.05033,0 18.40546,-34.04903,0 18.40407,-34.0477,0 18.40278,-34.04652,0 18.40174,-34.04546,0 18.40097,-34.04416,0 18.39984,-34.04261,0 18.39925,-34.04154,0 18.39845,-34.04041,0 18.39769,-34.03905,0 18.39612,-34.03737,0 18.39579,-34.03668,0 18.39543,-34.03514,0 18.39593,-34.03337,0 18.39553,-34.03313,0 18.39569,-34.03292,0 18.39639,-34.03303,0 18.40008,-34.03354,0 18.40092,-34.03407,0 18.4018,-34.03448,0 18.40271,-34.03504,0 18.40279,-34.0354,0 18.40344,-34.03588,0 18.4038,-34.03632,0 18.40448,-34.03684,0 18.40477,-34.03715,0 18.40547,-34.03748,0 18.40598,-34.03784,0 18.40661,-34.03814,0 18.40682,-34.03854,0 18.40597,-34.03878,0 18.40773,-34.03891,0 18.40796,-34.03906,0 18.40854,-34.03926,0 18.40905,-34.03959,0 18.40975,-34.03979,0 18.41012,-34.03989,0 18.41048,-34.04001,0 18.41106,-34.0401,0 18.41159,-34.04015,0 18.41193,-34.04008,0 18.41017,-34.03984,0 18.41304,-34.03933,0 18.41349,-34.03977,0 18.41415,-34.03971,0 18.41378,-34.03976,0 18.41331,-34.04001,0 18.41272,-34.04017,0 18.40912,-34.03983,0 18.4078,-34.03921,0 18.40514,-34.03856,0 18.4046,-34.0377,0 18.40489,-34.03615,0 18.40453,-34.03548,0 18.40414,-34.03474,0 18.40409,-34.03387,0 18.40454,-34.03268,0 18.40545,-34.03167,0 18.40569,-34.03075,0 18.40591,-34.02974,0 18.4073,-34.02891,0 18.40867,-34.02793,0 18.40997,-34.02694,0 18.41065,-34.02596,0 18.41097,-34.02538,0 18.41169,-34.02454,0 18.41255,-34.02363,0 18.4136,-34.02265,0 18.4148,-34.0215,0 18.41611,-34.02016,0 18.41724,-34.01912,0 18.4179,-34.01844,0 18.41909,-34.0174,0 18.41993,-34.01636,0 18.42079,-34.01522,0 18.42182,-34.01376,0 18.42268,-34.01272,0 18.42355,-34.01176,0 18.4246,-34.01024,0 18.42544,-34.00945,0 18.42611,-34.00818,0 18.42731,-34.00706,0 18.42823,-34.00609,0 18.42939,-34.00499,0 18.43045,-34.00401,0 18.43171,-34.0027,0 18.43271,-34.00189,0 18.43424,-34.00064,0 18.43558,-33.99905,0 18.43658,-33.99756,0 18.43765,-33.99675,0 18.43946,-33.99568,0 18.44042,-33.99472,0 18.44177,-33.99401,0 18.44235,-33.99372,0 18.44423,-33.99228,0 18.44569,-33.99099,0 18.44625,-33.99035,0 18.4477,-33.98906,0 18.44888,-33.98751,0 18.4496,-33.98655,0 18.45065,-33.98515,0 18.4518,-33.98326,0 18.45269,-33.98218,0 18.45366,-33.98095,0 18.45444,-33.9798,0 18.45399,-33.97744,0 18.45735,-33.97703,0 18.45827,-33.97632,0 18.4595,-33.9752,0 18.46082,-33.97389,0 18.46215,-33.9726,0 18.46322,-33.97168,0 18.46438,-33.97068,0 18.46532,-33.96958,0 18.46686,-33.96799,0 18.46799,-33.96643,0 18.46987,-33.96363,0 18.47057,-33.96207,0 18.47098,-33.96081,0 18.46878,-33.95759,0 18.46843,-33.95599,0 18.46787,-33.95388,0 18.46765,-33.95259,0 18.46742,-33.95108,0 18.46717,-33.94928,0 18.46615,-33.94757,0 18.46528,-33.94559,0 18.46489,-33.94478,0 18.46533,-33.94318,0 18.46003,-33.93999,0 18.46573,-33.93844,0 18.46067,-33.93605,0 18.45829,-33.93433,0 18.45746,-33.93315,0 18.45583,-33.93142,0 18.45317,-33.92649,0 18.44984,-33.92505,0 18.44555,-33.92164,0 18.44215,-33.91947,0 18.4405,-33.91702,0 18.44785,-33.91681,0 18.44141,-33.91084,0 18.44067,-33.9094,0 18.44151,-33.90995,0 18.4367,-33.90667,0 18.43339,-33.90537,0 18.43641,-33.90227,0 18.44024,-33.90142,0 18.44001,-33.89873,0 18.43848,-33.89059,0 18.4249,-33.89138,0 18.42704,-33.89389,0</coordinates>
      </LineString>
    </Placemark>
  </Document>
</kml>
