<?xml version="1.0" encoding="UTF-8"?>
<kml xmlns="http://www.opengis.net/kml/2.2">
  <Document>
    <name>FR24 40362076</name>
    <Placemark>
      <name>FR24 40362076</name>
      <Style><LineStyle><color>ff0000ff</color><width>4</width></LineStyle></Style>
      <LineString>
        <tessellate>1</tessellate>
        <coordinates>18.43288,-33.90041,0 18.43506,-33.89962,0 18.43563,-33.8992,0 18.43637,-33.8985,0 18.43685,-33.8979,0 18.43729,-33.89706,0 18.43758,-33.89631,0 18.43786,-33.89525,0 18.43803,-33.89433,0 18.43815,-33.8931,0 18.43809,-33.89218,0 18.43797,-33.89117,0 18.43769,-33.88993,0 18.43735,-33.88882,0 18.43672,-33.8877,0 18.43601,-33.88673,0 18.435,-33.88575,0 18.43431,-33.88519,0 18.43334,-33.88463,0 18.43231,-33.88421,0 18.43105,-33.88388,0 18.42979,-33.88358,0 18.42871,-33.88337,0 18.42755,-33.88321,0 18.42648,-33.88305,0 18.42545,-33.88295,0 18.42441,-33.88284,0 18.42312,-33.88275,0 18.42207,-33.88272,0 18.42088,-33.88266,0 18.41964,-33.88266,0 18.41858,-33.88266,0 18.41743,-33.88268,0 18.41612,-33.88268,0 18.41526,-33.88272,0 18.41387,-33.8828,0 18.41286,-33.88284,0 18.41152,-33.88289,0 18.41023,-33.88298,0 18.40922,-33.88307,0 18.40776,-33.88319,0 18.40685,-33.88328,0 18.4057,-33.88337,0 18.40429,-33.88348,0 18.40324,-33.88361,0 18.40239,-33.88365,0 18.4007,-33.88385,0 18.39958,-33.88398,0 18.39827,-33.88421,0 18.39724,-33.88444,0 18.39592,-33.88477,0 18.39483,-33.88514,0 18.39358,-33.88554,0 18.39237,-33.88602,0 18.39128,-33.88646,0 18.39014,-33.88696,0 18.38898,-33.88747,0 18.38797,-33.88798,0 18.38694,-33.88849,0 18.38585,-33.88911,0 18.38439,-33.88998,0 18.38345,-33.89059,0 18.38231,-33.89136,0 18.38142,-33.892,0 18.38058,-33.89259,0 18.37944,-33.89343,0 18.37844,-33.8942,0 18.37783,-33.8947,0 18.37641,-33.8958,0 18.37564,-33.89644,0 18.37463,-33.89724,0 18.37372,-33.89804,0 18.37286,-33.89878,0 18.37172,-33.89983,0 18.37097,-33.90051,0 18.37006,-33.90139,0 18.36931,-33.90218,0 18.36847,-33.90308,0 18.36752,-33.90422,0 18.36685,-33.90506,0 18.36617,-33.90587,0 18.36539,-33.90683,0 18.3646,-33.90784,0 18.36387,-33.90871,0 18.36308,-33.90977,0 18.36241,-33.91058,0 18.36191,-33.91127,0 18.36107,-33.91237,0 18.36027,-33.91344,0 18.35958,-33.91438,0 18.35759,-33.91708,0 18.35569,-33.91983,0 18.35496,-33.92102,0 18.35438,-33.92196,0 18.35373,-33.92303,0 18.35323,-33.92392,0 18.35249,-33.92514,0 18.35192,-33.92629,0 18.35146,-33.92718,0 18.35094,-33.92825,0 18.35037,-33.92946,0 18.34986,-33.93063,0 18.34952,-33.93146,0 18.34902,-33.93279,0 18.34857,-33.93384,0 18.34808,-33.93509,0 18.34767,-33.93608,0 18.34734,-33.937,0 18.34637,-33.93993,0 18.34588,-33.94148,0 18.34543,-33.94276,0 18.34498,-33.94409,0 18.34453,-33.94537,0 18.34386,-33.94739,0 18.34356,-33.94831,0 18.34319,-33.94958,0 18.34282,-33.95078,0 18.34093,-33.95692,0 18.33921,-33.96339,0 18.33939,-33.96642,0 18.3411,-33.9687,0 18.34253,-33.96949,0 18.34375,-33.96982,0 18.34577,-33.96996,0 18.34661,-33.96991,0 18.34837,-33.96945,0 18.34951,-33.96889,0 18.35042,-33.96822,0 18.35221,-33.96478,0 18.35238,-33.96341,0 18.35249,-33.96231,0 18.35255,-33.96102,0 18.3526,-33.95972,0 18.35277,-33.95792,0 18.35289,-33.95655,0 18.353,-33.9554,0 18.35306,-33.95395,0 18.35318,-33.95301,0 18.35328,-33.95164,0 18.35339,-33.95036,0 18.35352,-33.94929,0 18.35361,-33.94789,0 18.35381,-33.94664,0 18.35395,-33.94542,0 18.35409,-33.94431,0 18.35443,-33.94282,0 18.35466,-33.94175,0 18.35501,-33.94066,0 18.35552,-33.93924,0 18.35587,-33.93826,0 18.35638,-33.937,0 18.35692,-33.93581,0 18.35747,-33.93453,0 18.3581,-33.93328,0 18.35855,-33.93224,0 18.35907,-33.93109,0 18.35961,-33.92995,0 18.36016,-33.9289,0 18.36073,-33.92774,0 18.36129,-33.9267,0 18.36182,-33.92569,0 18.36245,-33.92453,0 18.36296,-33.92359,0 18.36365,-33.92243,0 18.36421,-33.92157,0 18.36494,-33.92043,0 18.36548,-33.91959,0 18.36617,-33.91861,0 18.36701,-33.9174,0 18.36771,-33.91652,0 18.36834,-33.91568,0 18.3692,-33.91461,0 18.37,-33.91359,0 18.37074,-33.9127,0 18.37166,-33.91158,0 18.37246,-33.91065,0 18.37323,-33.90976,0 18.37419,-33.90875,0 18.37503,-33.90788,0 18.37584,-33.90711,0 18.37692,-33.906,0 18.37794,-33.90504,0 18.37881,-33.90413,0 18.37961,-33.9033,0 18.38052,-33.90239,0 18.38158,-33.90138,0 18.38242,-33.9006,0 18.38349,-33.89955,0 18.38444,-33.89873,0 18.38528,-33.89795,0 18.38646,-33.8969,0 18.38739,-33.89608,0 18.38837,-33.89525,0 18.38966,-33.8942,0 18.39067,-33.89337,0 18.39173,-33.8925,0 18.393,-33.89152,0 18.3938,-33.89095,0 18.39504,-33.89008,0 18.39643,-33.88919,0 18.39778,-33.88834,0 18.39872,-33.88779,0 18.40021,-33.887,0 18.40132,-33.88651,0 18.4025,-33.88593,0 18.40389,-33.88531,0 18.40508,-33.88477,0 18.40653,-33.88408,0 18.40782,-33.88351,0 18.40891,-33.88305,0 18.41028,-33.88249,0 18.41183,-33.88193,0 18.4132,-33.88152,0 18.4144,-33.88118,0 18.416,-33.88086,0 18.41757,-33.88065,0 18.41881,-33.88063,0 18.42024,-33.88072,0 18.42138,-33.88087,0 18.42264,-33.88118,0 18.42379,-33.88156,0 18.42491,-33.88193,0 18.42603,-33.88239,0 18.42715,-33.88293,0 18.42825,-33.88342,0 18.42968,-33.88416,0 18.43065,-33.88463,0 18.4318,-33.88528,0 18.43293,-33.886,0 18.43403,-33.88672,0 18.43489,-33.88733,0 18.43557,-33.88789,0 18.43655,-33.88868,0 18.43729,-33.88938,0 18.43786,-33.89003,0 18.43837,-33.89081,0 18.43872,-33.89161,0 18.43889,-33.89254,0 18.43884,-33.89333,0 18.43843,-33.89422,0 18.43798,-33.89473,0 18.43696,-33.89548,0 18.43597,-33.89585,0 18.43511,-33.89598,0 18.43332,-33.89603,0 18.43191,-33.8958,0 18.43048,-33.89534,0 18.42939,-33.89482,0 18.42833,-33.89429,0 18.42728,-33.89375,0 18.42636,-33.89329,0 18.42505,-33.89301,0 18.42379,-33.89347,0 18.42362,-33.89388,0 18.42379,-33.89441,0 18.42413,-33.89496,0 18.42435,-33.89534,0 18.4248,-33.89598,0 18.4251,-33.89645,0 18.42545,-33.89701,0 18.4257,-33.8974,0 18.42602,-33.8979,0 18.4263,-33.89822,0 18.42659,-33.89868,0 18.42682,-33.899,0 18.42699,-33.89925,0 18.42716,-33.89957,0 18.42721,-33.89978,0 18.42715,-33.90001,0 18.42699,-33.90033,0 18.42693,-33.9006,0 18.42705,-33.90083,0 18.4271,-33.90113,0 18.42831,-33.90134,0 18.42951,-33.90138,0 18.42974,-33.90139,0 18.43014,-33.90134,0 18.43041,-33.90134,0 18.43063,-33.90129,0 18.4313,-33.9012,0 18.43181,-33.90111,0 18.43237,-33.90102,0 18.43306,-33.90083,0 18.43366,-33.9007,0 18.4341,-33.9006,0 18.43472,-33.90046,0 18.43506,-33.90041,0 18.43534,-33.90033,0 18.43563,-33.90027,0 18.43584,-33.90034,0 18.43594,-33.90055,0 18.4362,-33.90074,0 18.4368,-33.90079,0 18.4374,-33.90069,0 18.43826,-33.90036,0 18.43893,-33.89978,0 18.43952,-33.89892,0 18.43992,-33.89799,0 18.44015,-33.89669,0 18.44015,-33.89561,0 18.43999,-33.89461,0 18.43975,-33.89329,0 18.43946,-33.89217,0 18.43921,-33.89122,0 18.43881,-33.89021,0 18.4382,-33.88898,0 18.43752,-33.88806,0 18.43685,-33.88719,0 18.43592,-33.88631,0 18.43472,-33.88533,0 18.43369,-33.88472,0 18.43226,-33.88408,0 18.43082,-33.88356,0 18.42968,-33.88316,0 18.42831,-33.88277,0 18.42722,-33.88249,0 18.42579,-33.88221,0 18.42475,-33.88206,0 18.42357,-33.88193,0 18.42233,-33.88184,0 18.42105,-33.88174,0 18.41984,-33.88174,0 18.41829,-33.88169,0 18.41718,-33.88165,0 18.41572,-33.88165,0 18.41426,-33.88165,0 18.41309,-33.88169,0 18.41183,-33.88169,0 18.4104,-33.88174,0 18.40919,-33.88179,0 18.40788,-33.88184,0 18.40662,-33.88193,0 18.40502,-33.88211,0 18.40344,-33.88234,0 18.4016,-33.88261,0 18.39975,-33.88295,0 18.39855,-33.88314,0 18.39735,-33.88342,0 18.39605,-33.88371,0 18.39464,-33.88403,0 18.39346,-33.88435,0 18.39201,-33.88472,0 18.39088,-33.88505,0 18.38949,-33.8855,0 18.38837,-33.88591,0 18.38691,-33.88651,0 18.38591,-33.88696,0 18.38444,-33.88774,0 18.38356,-33.88826,0 18.38243,-33.88902,0 18.38158,-33.88962,0 18.38069,-33.89035,0 18.37962,-33.89122,0 18.37893,-33.89185,0 18.37824,-33.89259,0 18.37749,-33.89352,0 18.37721,-33.89413,0 18.37704,-33.89524,0 18.37721,-33.89594,0 18.37772,-33.89659,0 18.37839,-33.89685,0 18.37915,-33.89682,0 18.37984,-33.89669,0 18.38047,-33.8965,0 18.38127,-33.89622,0 18.38202,-33.89594,0 18.38282,-33.89566,0 18.38343,-33.89548,0 18.38408,-33.89529,0 18.38467,-33.89516,0 18.3854,-33.89502,0 18.3859,-33.89507,0 18.3864,-33.8952,0 18.38682,-33.89552,0 18.38688,-33.89608,0 18.38657,-33.89671,0 18.38601,-33.89722,0 18.38516,-33.8978,0 18.38405,-33.89845,0 18.3831,-33.899,0 18.38192,-33.89964,0 18.38058,-33.90041,0 18.37961,-33.90102,0 18.37867,-33.90161,0 18.37733,-33.90239,0 18.37629,-33.90306,0 18.37532,-33.90367,0 18.37423,-33.90437,0 18.37306,-33.90518,0 18.37211,-33.90582,0 18.37127,-33.90637,0 18.37023,-33.90711,0 18.36937,-33.90775,0 18.36834,-33.90865,0 18.36742,-33.90958,0 18.36684,-33.91031,0 18.36617,-33.91116,0 18.36531,-33.91256,0 18.36466,-33.91356,0 18.36415,-33.91447,0 18.36359,-33.91535,0 18.36296,-33.91624,0 18.36222,-33.91731,0 18.36163,-33.91818,0 18.36084,-33.91931,0 18.36017,-33.92024,0 18.35953,-33.92117,0 18.35878,-33.92225,0 18.35804,-33.92327,0 18.35726,-33.92427,0 18.35664,-33.92514,0 18.35598,-33.92592,0 18.35524,-33.92685,0 18.3544,-33.92793,0 18.35381,-33.92867,0 18.353,-33.92972,0 18.35238,-33.93054,0 18.35182,-33.93132,0 18.35106,-33.93244,0 18.35043,-33.93346,0 18.34991,-33.93421,0 18.3493,-33.93517,0 18.34846,-33.93645,0 18.34791,-33.93732,0 18.34734,-33.93858,0 18.34711,-33.93924,0 18.34694,-33.94098,0 18.34717,-33.94203,0 18.34778,-33.94299,0 18.34854,-33.9437,0 18.34929,-33.94412,0 18.35032,-33.94436,0 18.35109,-33.94432,0 18.35169,-33.94422,0 18.35255,-33.94394,0 18.35322,-33.94373,0 18.35401,-33.94336,0 18.3549,-33.94299,0 18.35564,-33.94268,0 18.35625,-33.9424,0 18.35698,-33.94203,0 18.35787,-33.94161,0 18.35849,-33.94139,0 18.35928,-33.94116,0 18.35987,-33.94101,0 18.36067,-33.94096,0 18.36129,-33.94093,0 18.36199,-33.94101,0 18.36279,-33.94124,0 18.36342,-33.94161,0 18.36411,-33.94226,0 18.36451,-33.94287,0 18.36485,-33.94384,0 18.36496,-33.94477,0 18.36494,-33.94569,0 18.36488,-33.94666,0 18.36471,-33.94785,0 18.36454,-33.94885,0 18.36432,-33.95013,0 18.36404,-33.95142,0 18.36376,-33.95241,0 18.36348,-33.95343,0 18.36313,-33.95455,0 18.36279,-33.95553,0 18.36241,-33.95654,0 18.36191,-33.95787,0 18.36152,-33.95892,0 18.36096,-33.9603,0 18.36056,-33.96153,0 18.36021,-33.96265,0 18.35989,-33.96405,0 18.35967,-33.96506,0 18.3595,-33.96625,0 18.35953,-33.96768,0 18.35981,-33.9688,0 18.36023,-33.96977,0 18.36068,-33.97078,0 18.36129,-33.97211,0 18.36168,-33.97316,0 18.36193,-33.9742,0 18.36208,-33.97522,0 18.36197,-33.97659,0 18.36164,-33.97773,0 18.36118,-33.97879,0 18.36051,-33.98007,0 18.35987,-33.98109,0 18.35901,-33.98239,0 18.35838,-33.98346,0 18.35754,-33.98492,0 18.3569,-33.98597,0 18.3563,-33.98708,0 18.35581,-33.98807,0 18.35518,-33.98933,0 18.35451,-33.99074,0 18.35401,-33.99193,0 18.35361,-33.99298,0 18.35329,-33.99412,0 18.35295,-33.99542,0 18.35266,-33.99654,0 18.35244,-33.9977,0 18.35215,-33.9991,0 18.35188,-34.00031,0 18.35169,-34.00143,0 18.35148,-34.00269,0 18.35132,-34.00406,0 18.35112,-34.00557,0 18.35094,-34.00669,0 18.35081,-34.00795,0 18.35066,-34.00906,0 18.35048,-34.01042,0 18.35036,-34.01157,0 18.3502,-34.01265,0 18.35009,-34.01376,0 18.34997,-34.01509,0 18.34986,-34.01614,0 18.34941,-34.02045,0 18.34935,-34.02155,0 18.3493,-34.02287,0 18.34935,-34.02397,0 18.34947,-34.02512,0 18.34963,-34.02631,0 18.35003,-34.02754,0 18.3506,-34.02871,0 18.35126,-34.02974,0 18.35192,-34.03038,0 18.35294,-34.03116,0 18.35429,-34.0318,0 18.35535,-34.03225,0 18.35638,-34.03276,0 18.35747,-34.03345,0 18.35827,-34.03427,0 18.35884,-34.03522,0 18.35918,-34.03625,0 18.35941,-34.03774,0 18.35941,-34.03909,0 18.35928,-34.04031,0 18.35918,-34.04137,0 18.35901,-34.04286,0 18.3589,-34.04403,0 18.35884,-34.04514,0 18.35867,-34.04659,0 18.35855,-34.04775,0 18.3585,-34.04873,0 18.35832,-34.05025,0 18.35815,-34.05143,0 18.35799,-34.05267,0 18.35787,-34.05366,0 18.35765,-34.05505,0 18.35741,-34.05631,0 18.35724,-34.05738,0 18.35703,-34.05876,0 18.3569,-34.05981,0 18.35681,-34.06123,0 18.35686,-34.06247,0 18.35695,-34.06362,0 18.35707,-34.06469,0 18.3573,-34.06595,0 18.35754,-34.06705,0 18.35782,-34.06805,0 18.35815,-34.06916,0 18.35861,-34.07037,0 18.35901,-34.07144,0 18.35947,-34.07247,0 18.36,-34.07355,0 18.36056,-34.07475,0 18.36118,-34.07597,0 18.36159,-34.07689,0 18.36208,-34.07794,0 18.36258,-34.0789,0 18.36319,-34.08015,0 18.36376,-34.08141,0 18.36433,-34.08261,0 18.36491,-34.08373,0 18.36542,-34.08466,0 18.36611,-34.08578,0 18.36668,-34.08671,0 18.36746,-34.08774,0 18.36802,-34.08838,0 18.36909,-34.0892,0 18.37015,-34.0898,0 18.37116,-34.09016,0 18.37217,-34.09035,0 18.37334,-34.09048,0 18.37475,-34.09076,0 18.37547,-34.09108,0 18.37654,-34.09177,0 18.37738,-34.09273,0 18.37777,-34.09341,0 18.37816,-34.09474,0 18.37847,-34.09593,0 18.37875,-34.09695,0 18.37904,-34.09803,0 18.37934,-34.09895,0 18.37973,-34.10017,0 18.38007,-34.10124,0 18.38052,-34.10243,0 18.38099,-34.1037,0 18.38139,-34.10477,0 18.38173,-34.10585,0 18.38202,-34.10691,0 18.38226,-34.10834,0 18.38231,-34.10944,0 18.38242,-34.11059,0 18.38247,-34.11171,0 18.38248,-34.11273,0 18.38259,-34.11415,0 18.38271,-34.11516,0 18.38299,-34.11641,0 18.38338,-34.11745,0 18.3839,-34.11846,0 18.38465,-34.11963,0 18.38545,-34.12065,0 18.38648,-34.12153,0 18.38768,-34.12242,0 18.38876,-34.12312,0 18.3901,-34.12386,0 18.39128,-34.12436,0 18.3926,-34.12484,0 18.39375,-34.12514,0 18.39504,-34.12546,0 18.39621,-34.12568,0 18.39741,-34.12577,0 18.39918,-34.12582,0 18.40047,-34.12573,0 18.40165,-34.12569,0 18.40294,-34.12573,0 18.40405,-34.12586,0 18.40552,-34.1261,0 18.40668,-34.12637,0 18.40771,-34.1266,0 18.40919,-34.12693,0 18.4104,-34.12717,0 18.41163,-34.12747,0 18.41303,-34.12779,0 18.41423,-34.1281,0 18.41572,-34.12852,0 18.41709,-34.12894,0 18.41819,-34.12926,0 18.41931,-34.12962,0 18.42065,-34.13008,0 18.42167,-34.13038,0 18.4229,-34.13077,0 18.42407,-34.13112,0 18.42542,-34.13159,0 18.42682,-34.1321,0 18.42796,-34.13256,0 18.42928,-34.13303,0 18.43052,-34.13347,0 18.43164,-34.13393,0 18.43271,-34.13429,0 18.43394,-34.1347,0 18.43511,-34.13512,0 18.43652,-34.13557,0 18.43803,-34.13592,0 18.43926,-34.13608,0 18.44078,-34.13617,0 18.44198,-34.13615,0 18.44358,-34.13603,0 18.44492,-34.13594,0 18.44599,-34.13578,0 18.44733,-34.13553,0 18.44856,-34.13531,0 18.44997,-34.13503,0 18.45126,-34.13475,0 18.45249,-34.13452,0 18.45395,-34.1342,0 18.4552,-34.13391,0 18.45612,-34.13373,0 18.45755,-34.1334,0 18.45894,-34.13306,0 18.46034,-34.13255,0 18.46138,-34.1321,0 18.46247,-34.1315,0 18.46365,-34.13072,0 18.46454,-34.12999,0 18.46567,-34.12907,0 18.46662,-34.12816,0 18.46734,-34.12738,0 18.46824,-34.12637,0 18.46908,-34.12523,0 18.46973,-34.12428,0 18.47036,-34.12321,0 18.47099,-34.12204,0 18.47151,-34.12088,0 18.47194,-34.11987,0 18.47245,-34.11859,0 18.47282,-34.11753,0 18.47311,-34.1165,0 18.47323,-34.11497,0 18.47305,-34.11376,0 18.47273,-34.11259,0 18.47228,-34.1114,0 18.47183,-34.11021,0 18.47138,-34.10875,0 18.47122,-34.10771,0 18.47132,-34.10664,0 18.47177,-34.10527,0 18.47233,-34.10445,0 18.47305,-34.10347,0 18.47396,-34.10229,0 18.47471,-34.10119,0 18.47525,-34.10023,0 18.47575,-34.09904,0 18.4762,-34.09784,0 18.47649,-34.09681,0 18.47677,-34.09546,0 18.47682,-34.09419,0 18.47676,-34.09319,0 18.47654,-34.09177,0 18.47626,-34.09081,0 18.4758,-34.0896,0 18.47528,-34.08853,0 18.47454,-34.08727,0 18.47374,-34.08618,0 18.47311,-34.08527,0 18.47219,-34.08397,0 18.47151,-34.08299,0 18.47048,-34.08168,0 18.46992,-34.08092,0 18.46897,-34.07973,0 18.46819,-34.07872,0 18.46734,-34.07767,0 18.46642,-34.07652,0 18.46538,-34.07529,0 18.46443,-34.07419,0 18.46359,-34.07318,0 18.46241,-34.07176,0 18.46167,-34.07088,0 18.46084,-34.06979,0 18.45989,-34.06851,0 18.45916,-34.06741,0 18.45849,-34.06636,0 18.45778,-34.0652,0 18.45709,-34.06403,0 18.45646,-34.06297,0 18.45569,-34.06174,0 18.45509,-34.06069,0 18.4544,-34.05959,0 18.45366,-34.05832,0 18.45283,-34.05698,0 18.4521,-34.05592,0 18.45126,-34.05464,0 18.45042,-34.05368,0 18.44924,-34.05244,0 18.44816,-34.05157,0 18.44725,-34.05073,0 18.44639,-34.04984,0 18.44536,-34.04859,0 18.4447,-34.04755,0 18.44414,-34.04654,0 18.44352,-34.04544,0 18.44278,-34.04416,0 18.44215,-34.04319,0 18.44147,-34.04221,0 18.44078,-34.04128,0 18.43999,-34.03999,0 18.43941,-34.0389,0 18.43887,-34.03761,0 18.43853,-34.03642,0 18.43837,-34.03532,0 18.43826,-34.03397,0 18.43832,-34.03285,0 18.43837,-34.03175,0 18.43861,-34.03034,0 18.43878,-34.02922,0 18.43906,-34.02792,0 18.43932,-34.02686,0 18.43969,-34.02573,0 18.44027,-34.02425,0 18.44072,-34.02319,0 18.44112,-34.02219,0 18.4417,-34.02089,0 18.44218,-34.01958,0 18.44261,-34.01847,0 18.44307,-34.0172,0 18.44347,-34.01604,0 18.44376,-34.01484,0 18.44398,-34.01344,0 18.44408,-34.0123,0 18.44416,-34.01093,0 18.44419,-34.00964,0 18.44421,-34.00832,0 18.44421,-34.00687,0 18.44416,-34.00562,0 18.44414,-34.00415,0 18.44408,-34.00278,0 18.44404,-34.00143,0 18.44398,-34.00017,0 18.44387,-33.99868,0 18.44376,-33.99743,0 18.44364,-33.99584,0 18.44363,-33.99467,0 18.44375,-33.99312,0 18.44393,-33.99198,0 18.44425,-33.99074,0 18.44492,-33.98923,0 18.4456,-33.98804,0 18.44639,-33.987,0 18.44733,-33.98579,0 18.44823,-33.98479,0 18.44941,-33.9836,0 18.45022,-33.98281,0 18.45119,-33.98197,0 18.45249,-33.98099,0 18.4535,-33.98021,0 18.45457,-33.97946,0 18.4556,-33.97876,0 18.45698,-33.97783,0 18.45776,-33.97728,0 18.45898,-33.97657,0 18.46064,-33.97596,0 18.46195,-33.97573,0 18.46327,-33.97578,0 18.46453,-33.97587,0 18.46613,-33.97596,0 18.4671,-33.97587,0 18.4683,-33.97554,0 18.46964,-33.97476,0 18.47048,-33.97394,0 18.47116,-33.97285,0 18.47179,-33.9714,0 18.47242,-33.96996,0 18.47294,-33.96875,0 18.47351,-33.96735,0 18.47429,-33.96579,0 18.4748,-33.96469,0 18.47557,-33.96312,0 18.47626,-33.9619,0 18.47706,-33.96046,0 18.47775,-33.95925,0 18.47844,-33.95801,0 18.47923,-33.95665,0 18.47985,-33.95544,0 18.48055,-33.95399,0 18.48108,-33.95265,0 18.48135,-33.95171,0 18.48181,-33.95,0 18.48214,-33.94835,0 18.48237,-33.94707,0 18.48261,-33.94561,0 18.48276,-33.94427,0 18.48289,-33.94277,0 18.48295,-33.94138,0 18.48298,-33.93988,0 18.48278,-33.93826,0 18.48255,-33.93677,0 18.4822,-33.93507,0 18.48181,-33.93379,0 18.48119,-33.93205,0 18.48066,-33.93076,0 18.48009,-33.9296,0 18.47935,-33.92839,0 18.47837,-33.92694,0 18.47743,-33.92574,0 18.47643,-33.92464,0 18.47519,-33.92336,0 18.47424,-33.92239,0 18.47288,-33.92126,0 18.47191,-33.92043,0 18.4706,-33.91928,0 18.46947,-33.91837,0 18.46836,-33.91745,0 18.46722,-33.91652,0 18.46589,-33.91544,0 18.46493,-33.91465,0 18.46367,-33.91359,0 18.46236,-33.91241,0 18.46101,-33.91127,0 18.45995,-33.91035,0 18.4586,-33.90907,0 18.45726,-33.90776,0 18.45619,-33.90665,0 18.45514,-33.90548,0 18.45412,-33.9044,0 18.45285,-33.90297,0 18.45188,-33.9019,0 18.45053,-33.90042,0 18.44913,-33.89883,0 18.44822,-33.89771,0 18.44722,-33.89658,0 18.44627,-33.89538,0 18.44547,-33.89441,0 18.44421,-33.89291,0 18.4433,-33.89182,0 18.44221,-33.89059,0 18.4409,-33.88929,0 18.43981,-33.88835,0 18.43872,-33.88747,0 18.43746,-33.88654,0 18.4359,-33.88559,0 18.43444,-33.88486,0 18.433,-33.88444,0 18.43168,-33.88421,0 18.43035,-33.88412,0 18.42884,-33.88426,0 18.42779,-33.88458,0 18.42659,-33.88509,0 18.42573,-33.88551,0 18.42516,-33.88593,0 18.42441,-33.88683,0 18.42424,-33.88765,0 18.42447,-33.88829,0 18.42482,-33.88882,0 18.42519,-33.88925,0 18.42579,-33.8898,0 18.42615,-33.89017,0 18.42665,-33.89076,0 18.4271,-33.89128,0</coordinates>
      </LineString>
    </Placemark>
  </Document>
</kml>
