<?xml version="1.0" encoding="UTF-8"?>
<kml xmlns="http://www.opengis.net/kml/2.2">
  <Document>
    <name>FR24 3e8f3b77</name>
    <Placemark>
      <name>FR24 3e8f3b77</name>
      <Style><LineStyle><color>ff0000ff</color><width>4</width></LineStyle></Style>
      <LineString>
        <tessellate>1</tessellate>
        <coordinates>18.4313,-33.89424,0 18.43237,-33.89231,0 18.43338,-33.89058,0 18.43456,-33.88852,0 18.43539,-33.88701,0 18.43579,-33.88628,0 18.43612,-33.88554,0 18.43655,-33.88477,0 18.43696,-33.88403,0 18.4373,-33.88344,0 18.43781,-33.88272,0 18.43826,-33.88221,0 18.43893,-33.88165,0 18.43949,-33.88129,0 18.44027,-33.88092,0 18.44111,-33.88078,0 18.4421,-33.88081,0 18.44279,-33.88097,0 18.44352,-33.88133,0 18.44404,-33.88169,0 18.44444,-33.8823,0 18.44467,-33.88291,0 18.44473,-33.88351,0 18.44461,-33.88416,0 18.44416,-33.88482,0 18.44363,-33.88518,0 18.44296,-33.88545,0 18.44221,-33.88556,0 18.44134,-33.8855,0 18.44061,-33.88527,0 18.43981,-33.88496,0 18.43865,-33.8844,0 18.43786,-33.88403,0 18.43696,-33.88353,0 18.43601,-33.88307,0 18.43523,-33.88271,0 18.43427,-33.88216,0 18.43332,-33.88165,0 18.43243,-33.88118,0 18.43153,-33.88078,0 18.43082,-33.88044,0 18.42974,-33.87993,0 18.42878,-33.87955,0 18.42743,-33.879,0 18.4263,-33.87858,0 18.42539,-33.87825,0 18.42413,-33.87785,0 18.42321,-33.8776,0 18.42196,-33.87723,0 18.42115,-33.87704,0 18.41992,-33.8768,0 18.41898,-33.87658,0 18.41789,-33.87639,0 18.41662,-33.87616,0 18.41566,-33.87602,0 18.41434,-33.87583,0 18.41337,-33.87575,0 18.41228,-33.87564,0 18.41103,-33.87555,0 18.40988,-33.8755,0 18.40888,-33.87552,0 18.40787,-33.87556,0 18.40656,-33.8756,0 18.40553,-33.87569,0 18.40473,-33.87579,0 18.40344,-33.87589,0 18.40221,-33.87607,0 18.40115,-33.87621,0 18.39975,-33.87648,0 18.39849,-33.87672,0 18.3975,-33.87698,0 18.39621,-33.8773,0 18.39478,-33.87769,0 18.39369,-33.87799,0 18.39274,-33.87822,0 18.39139,-33.87863,0 18.39003,-33.87909,0 18.38888,-33.87951,0 18.38758,-33.87996,0 18.38657,-33.88037,0 18.38556,-33.88074,0 18.38425,-33.88128,0 18.38327,-33.88169,0 18.38226,-33.8822,0 18.38108,-33.8828,0 18.38013,-33.88323,0 18.37893,-33.88393,0 18.37783,-33.88454,0 18.37665,-33.88531,0 18.3757,-33.88591,0 18.37481,-33.88659,0 18.37389,-33.88724,0 18.37284,-33.88802,0 18.372,-33.8887,0 18.37103,-33.88947,0 18.37,-33.8904,0 18.36926,-33.8911,0 18.36824,-33.89195,0 18.36729,-33.89287,0 18.36657,-33.89357,0 18.36582,-33.89426,0 18.36477,-33.89529,0 18.36405,-33.89599,0 18.36303,-33.89703,0 18.36225,-33.89781,0 18.36157,-33.89854,0 18.36084,-33.89939,0 18.36004,-33.90022,0 18.35939,-33.90102,0 18.35877,-33.90179,0 18.35815,-33.90257,0 18.35743,-33.90358,0 18.35681,-33.9044,0 18.35604,-33.90553,0 18.35546,-33.90642,0 18.35484,-33.9073,0 18.35423,-33.90829,0 18.35352,-33.90939,0 18.35305,-33.91013,0 18.35238,-33.91116,0 18.35197,-33.91182,0 18.35129,-33.91289,0 18.3507,-33.91383,0 18.35014,-33.9147,0 18.34952,-33.91571,0 18.34877,-33.91689,0 18.34785,-33.91843,0 18.34728,-33.91933,0 18.34682,-33.9202,0 18.34625,-33.92126,0 18.34522,-33.92303,0 18.34476,-33.92381,0 18.34402,-33.92499,0 18.34358,-33.92574,0 18.34285,-33.92674,0 18.3423,-33.92755,0 18.34179,-33.9283,0 18.34127,-33.92941,0 18.34111,-33.93004,0 18.34106,-33.93086,0 18.34122,-33.93151,0 18.34151,-33.93214,0 18.34207,-33.93274,0 18.34276,-33.93318,0 18.34356,-33.93346,0 18.34465,-33.9336,0 18.34554,-33.93356,0 18.34642,-33.93332,0 18.34745,-33.93283,0 18.34823,-33.93228,0 18.34879,-33.93182,0 18.34974,-33.93109,0 18.35053,-33.93063,0 18.35169,-33.9303,0 18.3526,-33.9302,0 18.35375,-33.93034,0 18.35472,-33.93076,0 18.35541,-33.93127,0 18.35619,-33.9321,0 18.35661,-33.93286,0 18.35684,-33.93365,0 18.35692,-33.93471,0 18.47438,-34.0869,0 18.47433,-34.08315,0 18.47407,-34.07871,0 18.4735,-34.07625,0 18.47381,-34.07491,0 18.4741,-34.07368,0 18.47415,-34.07249,0 18.47412,-34.07121,0 18.47367,-34.07021,0 18.47379,-34.06908,0 18.47403,-34.06786,0 18.47427,-34.06666,0 18.47421,-34.06548,0 18.47413,-34.06431,0 18.47413,-34.06327,0 18.47434,-34.0619,0 18.47433,-34.05847,0 18.47432,-34.05503,0 18.47441,-34.05163,0 18.47479,-34.0481,0 18.47476,-34.04372,0 18.47415,-34.04168,0 18.47445,-34.04044,0 18.47465,-34.03924,0 18.47468,-34.03778,0 18.47501,-34.03648,0 18.47515,-34.03541,0 18.47535,-34.03424,0 18.47535,-34.03323,0 18.47533,-34.03204,0 18.47518,-34.0309,0 18.47545,-34.0296,0 18.47557,-34.0284,0 18.47561,-34.02715,0 18.47555,-34.02594,0 18.47552,-34.02489,0 18.47532,-34.0237,0 18.4752,-34.02259,0 18.47559,-34.01879,0 18.47615,-34.01505,0 18.47685,-34.0104,0 18.47684,-34.00687,0 18.47731,-34.00333,0 18.47726,-34.00026,0 18.47768,-33.99587,0 18.47779,-33.99254,0 18.47769,-33.98979,0 18.47847,-33.98471,0 18.47877,-33.98288,0 18.47924,-33.98157,0 18.47935,-33.98044,0 18.47937,-33.97931,0 18.47937,-33.97805,0 18.47937,-33.977,0 18.4795,-33.97594,0 18.47953,-33.97482,0 18.48013,-33.97233,0 18.48081,-33.9714,0 18.48143,-33.97006,0 18.48069,-33.96817,0 18.48083,-33.96712,0 18.48095,-33.96609,0 18.48112,-33.96493,0 18.48125,-33.96382,0 18.48147,-33.96259,0 18.48164,-33.96135,0 18.48181,-33.96007,0 18.48192,-33.95906,0 18.48204,-33.95795,0 18.48209,-33.95669,0 18.48209,-33.95558,0 18.48209,-33.9546,0 18.48203,-33.95325,0 18.48198,-33.95213,0 18.48181,-33.95087,0 18.48169,-33.9498,0 18.48147,-33.94835,0 18.48129,-33.94733,0 18.48108,-33.94597,0 18.48083,-33.94477,0 18.48052,-33.94345,0 18.48026,-33.94235,0 18.48003,-33.94133,0 18.4798,-33.94026,0 18.47952,-33.93924,0 18.47923,-33.93814,0 18.47889,-33.937,0 18.47849,-33.9356,0 18.47811,-33.93443,0 18.47771,-33.93343,0 18.47734,-33.93239,0 18.47682,-33.93118,0 18.4762,-33.9299,0 18.47569,-33.9289,0 18.47491,-33.92752,0 18.47429,-33.92661,0 18.47363,-33.92569,0 18.47284,-33.92468,0 18.47219,-33.92392,0 18.47121,-33.92276,0 18.47054,-33.92196,0 18.46962,-33.92094,0 18.4688,-33.9201,0 18.46802,-33.91928,0 18.46722,-33.91843,0 18.46617,-33.91731,0 18.46544,-33.91653,0 18.46447,-33.91554,0 18.46373,-33.91475,0 18.46292,-33.91396,0 18.46195,-33.91289,0 18.46107,-33.91187,0 18.46034,-33.91109,0 18.45782,-33.90825,0 18.45608,-33.90646,0 18.45531,-33.90567,0 18.45423,-33.90472,0 18.45343,-33.904,0 18.45263,-33.90339,0 18.4516,-33.9026,0 18.45079,-33.90204,0 18.44997,-33.90152,0 18.44896,-33.90097,0 18.44818,-33.9006,0 18.44728,-33.90024,0 18.44616,-33.89987,0 18.44487,-33.8996,0 18.44408,-33.89941,0 18.44268,-33.89928,0 18.44167,-33.89919,0 18.44078,-33.89914,0 18.43992,-33.89911,0 18.43884,-33.89911,0 18.43781,-33.89914,0 18.43672,-33.89915,0 18.43592,-33.89915,0 18.43534,-33.89919,0 18.4346,-33.8992,0 18.43433,-33.89923,0 18.43399,-33.89923,0 18.43346,-33.89929,0 18.4327,-33.89932,0 18.43243,-33.89934,0 18.43203,-33.89934,0 18.43168,-33.89939,0 18.43142,-33.89937,0 18.43117,-33.89943,0 18.43085,-33.89941,0 18.43063,-33.89946,0 18.43035,-33.89951,0 18.42985,-33.89952,0 18.42929,-33.89964,0 18.42867,-33.89969,0 18.42816,-33.89978,0 18.42773,-33.89985,0 18.42743,-33.89996,0 18.42722,-33.90009,0 18.42699,-33.90028,0 18.42682,-33.90051,0 18.42693,-33.90074,0 18.42693,-33.90097,0 18.43074,-33.89529,0 18.43243,-33.89287,0 18.43391,-33.89068,0 18.43483,-33.88924,0 18.43523,-33.8884,0 18.43567,-33.88751,0 18.43601,-33.88683,0 18.43637,-33.88598,0 18.43674,-33.88518,0 18.43702,-33.88449,0 18.43736,-33.88348,0 18.43752,-33.88266,0 18.43764,-33.88197,0 18.43764,-33.8811,0 18.43758,-33.88042,0 18.43741,-33.87955,0 18.43706,-33.87872,0 18.4366,-33.87797,0 18.43607,-33.8773,0 18.43552,-33.87672,0 18.43494,-33.87625,0 18.43414,-33.87569,0 18.43343,-33.87529,0 18.43276,-33.87492,0 18.43192,-33.87456,0 18.43108,-33.87428,0 18.43025,-33.87406,0 18.42962,-33.87396,0 18.42888,-33.87383,0 18.42811,-33.87378,0 18.42727,-33.87373,0 18.4263,-33.87369,0 18.42556,-33.87364,0 18.42452,-33.8736,0 18.42373,-33.87355,0 18.42287,-33.8735,0 18.42211,-33.87346,0 18.42127,-33.87341,0 18.4203,-33.87332,0 18.41914,-33.87332,0 18.41829,-33.87332,0 18.41732,-33.87341,0 18.41634,-33.8735,0 18.41537,-33.87364,0 18.4144,-33.87378,0 18.41314,-33.87401,0 18.41241,-33.87415,0 18.4108,-33.87448,0 18.40961,-33.87474,0 18.40851,-33.87495,0 18.40696,-33.87527,0 18.40553,-33.87555,0 18.40406,-33.87584,0 18.40244,-33.8762,0 18.40101,-33.87658,0 18.39991,-33.87685,0 18.39867,-33.87718,0 18.39728,-33.87753,0 18.39621,-33.87783,0 18.39489,-33.87825,0 18.39347,-33.87872,0 18.39249,-33.87909,0 18.39083,-33.87968,0 18.3894,-33.88021,0 18.38831,-33.88065,0 18.38694,-33.88123,0 18.38551,-33.88179,0 18.38439,-33.88229,0 18.38305,-33.88295,0 18.38198,-33.88344,0 18.38064,-33.88412,0 18.37957,-33.88467,0 18.37811,-33.8855,0 18.3771,-33.88614,0 18.37598,-33.88687,0 18.37486,-33.88761,0 18.37362,-33.88847,0 18.37252,-33.88929,0 18.37154,-33.89003,0 18.37054,-33.89076,0 18.36959,-33.89149,0 18.36845,-33.89245,0 18.3676,-33.8932,0 18.36645,-33.8942,0 18.36583,-33.89479,0 18.36496,-33.89566,0 18.36393,-33.89671,0 18.36325,-33.89749,0 18.36256,-33.89832,0 18.36187,-33.89911,0 18.36107,-33.90018,0 18.36057,-33.90088,0 18.35984,-33.90189,0 18.35916,-33.90289,0 18.35844,-33.904,0 18.3577,-33.90502,0 18.35707,-33.90604,0 18.35644,-33.90702,0 18.35587,-33.90791,0 18.35524,-33.90894,0 18.35466,-33.90991,0 18.35415,-33.91079,0 18.35346,-33.912,0 18.35289,-33.91302,0 18.35238,-33.91397,0 18.35193,-33.91489,0 18.35123,-33.91624,0 18.35083,-33.91698,0 18.35008,-33.91837,0 18.34963,-33.91927,0 18.34917,-33.92015,0 18.34854,-33.92131,0 18.34803,-33.92243,0 18.34757,-33.92336,0 18.347,-33.92457,0 18.34566,-33.92766,0 18.34436,-33.93062,0 18.34259,-33.93481,0 18.34116,-33.93826,0 18.33977,-33.94231,0 18.33954,-33.94327,0 18.3395,-33.94445,0 18.33961,-33.94547,0 18.3399,-33.94631,0 18.34053,-33.94729,0 18.34145,-33.94798,0 18.3423,-33.94845,0 18.34324,-33.94872,0 18.34476,-33.94881,0 18.34588,-33.94858,0 18.34677,-33.94822,0 18.34812,-33.94743,0 18.349,-33.94668,0 18.34997,-33.94579,0 18.35089,-33.94477,0 18.35176,-33.94368,0 18.35249,-33.94267,0 18.353,-33.94198,0 18.35381,-33.94086,0 18.35451,-33.93988,0 18.35524,-33.93872,0 18.35597,-33.9375,0 18.35667,-33.93644,0 18.35741,-33.93523,0 18.35827,-33.93388,0 18.35888,-33.93292,0 18.3597,-33.9316,0 18.36034,-33.9305,0 18.36124,-33.92908,0 18.36193,-33.92802,0 18.36267,-33.92685,0 18.36353,-33.92551,0 18.36433,-33.92429,0 18.36499,-33.92331,0 18.36567,-33.9223,0 18.36656,-33.92097,0 18.36724,-33.91997,0 18.36977,-33.91629,0 18.37206,-33.91317,0 18.37303,-33.91186,0 18.37543,-33.90888,0 18.37626,-33.90793,0 18.37721,-33.90683,0 18.378,-33.90596,0 18.37884,-33.90504,0 18.37979,-33.90399,0 18.38074,-33.90308,0 18.38161,-33.90218,0 18.38265,-33.90111,0 18.3835,-33.90036,0 18.38465,-33.89929,0 18.38556,-33.89855,0 18.38652,-33.89772,0 18.38753,-33.8969,0 18.3887,-33.89598,0 18.38994,-33.89502,0 18.39095,-33.89433,0 18.39223,-33.89342,0 18.3933,-33.89278,0 18.39436,-33.89218,0 18.39548,-33.89163,0 18.39672,-33.89115,0 18.39838,-33.8905,0 18.39969,-33.89008,0 18.40096,-33.8897,0 18.40244,-33.88929,0 18.40389,-33.88898,0 18.40518,-33.88866,0 18.40619,-33.88843,0 18.40787,-33.88806,0 18.40919,-33.88779,0 18.41073,-33.88751,0 18.41202,-33.88733,0 18.41337,-33.8871,0 18.41454,-33.88696,0 18.41618,-33.88672,0 18.4174,-33.88655,0 18.41903,-33.88632,0 18.42024,-33.88621,0 18.42194,-33.88605,0 18.42327,-33.88589,0 18.42464,-33.88579,0 18.42585,-33.8857,0 18.42727,-33.88559,0 18.4285,-33.88554,0 18.42991,-33.88551,0 18.43122,-33.8856,0 18.4327,-33.88577,0 18.43391,-33.88598,0 18.43529,-33.88631,0 18.43657,-33.88673,0 18.43752,-33.88714,0 18.43843,-33.88756,0 18.43952,-33.88817,0 18.44049,-33.88891,0 18.44118,-33.88956,0 18.4419,-33.8904,0 18.44234,-33.89117,0 18.44279,-33.89218,0 18.44301,-33.89301,0 18.44313,-33.8938,0 18.44302,-33.89479,0 18.44279,-33.89552,0 18.4424,-33.8963,0 18.44187,-33.89701,0 18.44128,-33.89749,0 18.44061,-33.89795,0 18.43977,-33.89827,0 18.43918,-33.89846,0 18.4382,-33.89864,0 18.4373,-33.89877,0 18.43695,-33.89883,0 18.43663,-33.89886,0 18.43615,-33.89892,0 18.43563,-33.89897,0 18.43534,-33.899,0 18.43506,-33.89905,0 18.43454,-33.89911,0 18.43431,-33.89911,0 18.43386,-33.89915,0 18.43355,-33.89919,0 18.43277,-33.89925,0 18.43248,-33.89929,0 18.43209,-33.89932,0 18.43158,-33.89937,0 18.43125,-33.89941,0 18.43085,-33.89941,0 18.43054,-33.89943,0 18.43007,-33.89946,0 18.42979,-33.89951,0 18.42916,-33.89952,0 18.42848,-33.89962,0 18.42828,-33.89964,0 18.428,-33.89973,0 18.42777,-33.89978,0 18.42756,-33.89985,0 18.42727,-33.90005,0 18.42705,-33.90018,0 18.42682,-33.90046,0 18.42688,-33.90069,0 18.42693,-33.90092,0 18.42682,-33.90065,0 18.42699,-33.90032,0 18.42721,-33.90001,0 18.42756,-33.89967,0 18.42788,-33.89932,0 18.42805,-33.89905,0 18.42836,-33.89859,0 18.42859,-33.89832,0 18.42878,-33.89809,0 18.42911,-33.89762,0 18.42922,-33.89738,0 18.4294,-33.89708,0 18.42957,-33.89685,0 18.42979,-33.89653,0 18.42997,-33.89627,0 18.43019,-33.89589,0 18.43035,-33.89566,0 18.43054,-33.89534,0 18.43069,-33.89507,0 18.43085,-33.89479,0 18.43097,-33.89452,0 18.43117,-33.89426,0 18.43134,-33.89399,0 18.43174,-33.89324,0 18.43209,-33.89273,0 18.43254,-33.89203,0 18.43287,-33.89145,0 18.43334,-33.89063,0 18.43377,-33.88998,0 18.43414,-33.88933,0 18.4345,-33.88879,0 18.43494,-33.88807,0 18.43534,-33.88737,0 18.43579,-33.8866,0 18.43618,-33.88591,0 18.43668,-33.88495,0 18.43691,-33.88431,0 18.43706,-33.88356,0 18.43713,-33.88289,0 18.43712,-33.88207,0 18.43702,-33.88124,0 18.43691,-33.88065,0 18.43666,-33.87997,0 18.43624,-33.87923,0 18.43592,-33.87867,0 18.43546,-33.87816,0 18.43489,-33.87765,0 18.43426,-33.87718,0 18.43369,-33.8769,0 18.43299,-33.87662,0 18.43226,-33.87643,0 18.43163,-33.8763,0 18.43102,-33.87621,0 18.43008,-33.87611,0 18.42945,-33.87606,0 18.42865,-33.87602,0 18.42796,-33.87597,0 18.42727,-33.87593,0 18.42632,-33.87584,0 18.42553,-33.87584,0 18.4247,-33.87583,0 18.42402,-33.87584,0 18.42304,-33.87583,0 18.4223,-33.87583,0 18.42133,-33.87588,0 18.42054,-33.87593,0 18.41961,-33.87597,0 18.4188,-33.87598,0 18.41796,-33.87602,0 18.41703,-33.87606,0 18.41612,-33.87606,0 18.41515,-33.87611,0 18.41429,-33.87616,0 18.41354,-33.87616,0 18.41234,-33.8762,0 18.41143,-33.87625,0 18.40989,-33.87634,0 18.40855,-33.87639,0 18.40731,-33.87648,0 18.40625,-33.87657,0 18.40496,-33.87667,0 18.40376,-33.87676,0 18.40244,-33.87689,0 18.40141,-33.87704,0 18.40021,-33.87718,0 18.39885,-33.87735,0 18.39784,-33.87749,0 18.39672,-33.87765,0 18.39509,-33.87794,0 18.3942,-33.87816,0 18.39277,-33.87853,0 18.39134,-33.879,0 18.39025,-33.87937,0 18.38923,-33.87979,0 18.3882,-33.88021,0 18.38688,-33.88086,0 18.38591,-33.88142,0 18.38493,-33.88198,0 18.38373,-33.88268,0 18.38282,-33.88328,0 18.38181,-33.88394,0 18.38076,-33.88467,0 18.37961,-33.88547,0 18.3785,-33.88628,0 18.37738,-33.88715,0 18.37646,-33.88784,0 18.37566,-33.88845,0 18.37463,-33.88921,0 18.37366,-33.88998,0 18.3728,-33.89068,0 18.37177,-33.89149,0 18.37099,-33.89214,0 18.37006,-33.89301,0 18.36926,-33.89366,0 18.36823,-33.89464,0 18.3676,-33.89529,0 18.36662,-33.89627,0 18.36589,-33.89703,0 18.36505,-33.8979,0 18.36443,-33.89854,0 18.36353,-33.89955,0 18.36285,-33.90032,0 18.36213,-33.90111,0 18.36142,-33.90195,0 18.36062,-33.90294,0 18.35989,-33.90385,0 18.3593,-33.90465,0 18.35855,-33.90562,0 18.35793,-33.90646,0 18.35737,-33.90729,0 18.35658,-33.90839,0 18.35604,-33.90916,0 18.35535,-33.91022,0 18.35479,-33.91109,0 18.35406,-33.91228,0 18.35358,-33.91307,0 18.353,-33.91402,0 18.35261,-33.91479,0 18.35203,-33.91591,0 18.35165,-33.91672,0 18.35109,-33.91772,0 18.35048,-33.91882,0 18.35003,-33.91965,0 18.34958,-33.92052,0 18.34896,-33.92162,0 18.34854,-33.92252,0 18.34795,-33.92372,0 18.34745,-33.92462,0 18.34694,-33.92564,0 18.34642,-33.92657,0 18.34577,-33.9277,0 18.34515,-33.9288,0 18.34476,-33.92949,0 18.34419,-33.93058,0 18.34362,-33.9316,0 18.34308,-33.93269,0 18.34263,-33.93352,0 18.34208,-33.93458,0 18.34162,-33.93558,0 18.34117,-33.93645,0 18.3407,-33.93747,0 18.34027,-33.93842,0 18.33982,-33.93956,0 18.33938,-33.94061,0 18.33899,-33.94142,0 18.33854,-33.94249,0 18.33818,-33.94333,0 18.33769,-33.94437,0 18.33719,-33.94547,0 18.33675,-33.94636,0 18.33635,-33.9472,0 18.33585,-33.94844,0 18.33555,-33.94934,0 18.33532,-33.95036,0 18.33529,-33.95142,0 18.33534,-33.95251,0 18.33557,-33.95334,0 18.33601,-33.95436,0 18.33647,-33.95511,0 18.33744,-33.95613,0 18.33809,-33.95677,0 18.33882,-33.95737,0 18.33984,-33.95795,0 18.341,-33.95847,0 18.34184,-33.95874,0 18.34316,-33.95893,0 18.34465,-33.95893,0 18.34649,-33.9586,0 18.34784,-33.9581,0 18.349,-33.95734,0 18.35009,-33.95637,0 18.35083,-33.95548,0 18.35163,-33.95436,0 18.35232,-33.9532,0 18.35294,-33.95192,0 18.3535,-33.95091,0 18.35409,-33.94962,0 18.35462,-33.94858,0 18.35518,-33.94734,0 18.35575,-33.94603,0 18.35636,-33.94464,0 18.35686,-33.94336,0 18.35743,-33.94212,0 18.35787,-33.94105,0 18.35843,-33.93979,0 18.35896,-33.93844,0 18.35944,-33.93732,0 18.35984,-33.93626,0 18.36085,-33.93361,0 18.3613,-33.93225,0 18.36256,-33.92857,0 18.36292,-33.92757,0 18.36336,-33.92648,0 18.36387,-33.92519,0 18.36438,-33.924,0 18.36485,-33.92294,0 18.36544,-33.9218,0 18.36594,-33.92085,0 18.36645,-33.91992,0 18.3672,-33.91861,0 18.36782,-33.91759,0 18.36857,-33.91647,0 18.36914,-33.91553,0 18.37004,-33.91434,0 18.37071,-33.91342,0 18.37154,-33.91233,0 18.37229,-33.9114,0 18.37329,-33.91022,0 18.37385,-33.90953,0 18.37469,-33.90851,0 18.37576,-33.90738,0 18.37648,-33.90651,0 18.37732,-33.90562,0 18.37828,-33.90454,0 18.3791,-33.90367,0 18.37973,-33.90294,0 18.38086,-33.90175,0 18.38164,-33.90092,0 18.3822,-33.90033,0 18.3835,-33.89906,0 18.38411,-33.89845,0 18.385,-33.89758,0 18.38612,-33.89653,0 18.38708,-33.89571,0 18.38803,-33.89488,0 18.38893,-33.89415,0 18.39014,-33.89329,0 18.39106,-33.89264,0 18.39237,-33.89185,0 18.39341,-33.89131,0 18.39478,-33.89059,0 18.39621,-33.88984,0 18.39711,-33.88948,0 18.39855,-33.88887,0 18.39997,-33.88829,0 18.40148,-33.8877,0 18.40266,-33.88724,0 18.40412,-33.88673,0 18.40563,-33.88618,0 18.40673,-33.88579,0 18.40839,-33.88519,0 18.40984,-33.88472,0 18.41085,-33.8844,0 18.41206,-33.88398,0 18.41353,-33.88353,0 18.4152,-33.88314,0 18.41646,-33.88286,0 18.41772,-33.88268,0 18.41921,-33.88253,0 18.42076,-33.88248,0 18.422,-33.88248,0 18.42368,-33.88257,0 18.42487,-33.88268,0 18.42637,-33.88284,0 18.42728,-33.883,0 18.42884,-33.8833,0 18.43001,-33.88358,0 18.4314,-33.88393,0 18.43243,-33.88426,0 18.43369,-33.88472,0 18.43478,-33.88513,0 18.43596,-33.88564,0 18.43696,-33.88614,0 18.43803,-33.88673,0 18.43887,-33.88724,0 18.43981,-33.88789,0 18.44049,-33.8884,0 18.44141,-33.88929,0 18.44206,-33.88994,0 18.44257,-33.89063,0 18.44307,-33.89147,0 18.44336,-33.89222,0 18.44358,-33.89301,0 18.44369,-33.89383,0 18.44369,-33.89433,0 18.44341,-33.89543,0 18.44307,-33.89618,0 18.44263,-33.89685,0 18.4421,-33.89738,0 18.44151,-33.89786,0 18.44072,-33.89827,0 18.44004,-33.89855,0 18.43921,-33.89873,0 18.43861,-33.89887,0 18.43763,-33.89906,0 18.43718,-33.89911,0 18.43672,-33.89915,0 18.43624,-33.89923,0 18.43596,-33.89928,0 18.43552,-33.89929,0 18.43517,-33.89937,0 18.43483,-33.89937,0 18.43439,-33.89941,0 18.43409,-33.89943,0 18.43366,-33.89951,0 18.43327,-33.89951,0 18.43294,-33.89952,0 18.4326,-33.89957,0 18.43231,-33.89957,0 18.43158,-33.8996,0 18.4313,-33.89964,0 18.43108,-33.89964,0 18.43057,-33.89969,0 18.43024,-33.89973,0 18.42997,-33.89976,0 18.42968,-33.89976,0 18.42934,-33.89981,0 18.42912,-33.89983,0 18.42876,-33.89985,0 18.4285,-33.89987,0 18.42811,-33.89992,0 18.42785,-33.89994,0 18.4276,-33.89992,0 18.42727,-33.90005,0 18.42705,-33.90022,0 18.42682,-33.90051,0 18.42688,-33.90074,0 18.42693,-33.90097,0 18.43074,-33.89507,0 18.43226,-33.89301,0 18.43377,-33.89095,0 18.43511,-33.88893,0 18.43612,-33.88728,0 18.43652,-33.8866,0 18.43691,-33.88573,0 18.43719,-33.88499,0 18.43735,-33.88412,0 18.43735,-33.88342,0 18.43719,-33.88257,0 18.43696,-33.88193,0 18.43666,-33.88128,0 18.43626,-33.88072,0 18.43562,-33.88005,0 18.43506,-33.87955,0 18.43433,-33.879,0 18.43363,-33.87858,0 18.43293,-33.87817,0 18.43198,-33.87781,0 18.43094,-33.87751,0 18.43013,-33.87726,0 18.42899,-33.877,0 18.42813,-33.87681,0 18.4271,-33.87666,0 18.42619,-33.87653,0 18.42553,-33.87643,0 18.42413,-33.87625,0 18.42312,-33.87616,0 18.42218,-33.87606,0 18.42081,-33.87597,0 18.41976,-33.87589,0 18.41869,-33.87583,0 18.41749,-33.87579,0 18.41675,-33.87579,0 18.4155,-33.87575,0 18.4144,-33.87574,0 18.41331,-33.87575,0 18.4123,-33.87579,0 18.41107,-33.87579,0 18.40984,-33.87589,0 18.40902,-33.87592,0 18.40759,-33.87607,0 18.40658,-33.87616,0 18.40569,-33.87625,0 18.40427,-33.87643,0 18.40307,-33.87662,0 18.40176,-33.87689,0 18.40087,-33.87708,0 18.3997,-33.87732,0 18.39861,-33.8776,0 18.39758,-33.87783,0 18.39627,-33.87817,0 18.39532,-33.87849,0 18.3942,-33.87886,0 18.39308,-33.87927,0 18.39191,-33.87974,0 18.39072,-33.88019,0 18.38982,-33.8806,0 18.38871,-33.88114,0 18.38758,-33.88165,0 18.38648,-33.88226,0 18.38562,-33.88272,0 18.38465,-33.88333,0 18.38362,-33.88398,0 18.38287,-33.88449,0 18.3817,-33.88536,0 18.38097,-33.88591,0 18.38001,-33.88669,0 18.37904,-33.88747,0 18.37816,-33.88815,0 18.37727,-33.88893,0 18.37618,-33.8898,0 18.37547,-33.8904,0 18.3744,-33.89128,0 18.37374,-33.89182,0 18.3728,-33.89264,0 18.37166,-33.89365,0 18.37088,-33.89433,0 18.37009,-33.89502,0 18.36931,-33.8958,0 18.36851,-33.89664,0 18.36765,-33.89753,0 18.36695,-33.89827,0 18.366,-33.89941,0 18.36533,-33.90019,0 18.36454,-33.9012,0 18.36399,-33.90185,0 18.36325,-33.90283,0 18.36256,-33.90367,0 18.3621,-33.90427,0 18.36142,-33.9053,0 18.36085,-33.90605,0 18.36016,-33.90702,0 18.35967,-33.90779,0 18.359,-33.90875,0 18.35849,-33.90958,0 18.35787,-33.91061,0 18.3573,-33.91149,0 18.35686,-33.91228,0 18.35627,-33.91335,0 18.35563,-33.91447,0 18.35513,-33.91534,0 18.35461,-33.91638,0 18.35421,-33.91712,0 18.35356,-33.91823,0 18.35306,-33.91922,0 18.35243,-33.92038,0 18.35186,-33.92141,0 18.35129,-33.92262,0 18.35077,-33.92355,0 18.34929,-33.92667,0 18.34722,-33.93086,0 18.34528,-33.93509,0 18.34336,-33.93924,0 18.34208,-33.94217,0 18.34027,-33.94633,0 18.33898,-33.94963,0 18.3387,-33.95069,0 18.33854,-33.95183,0 18.33858,-33.95278,0 18.33887,-33.95395,0 18.33927,-33.95478,0 18.34022,-33.95586,0 18.34093,-33.95646,0 18.34219,-33.95707,0 18.34347,-33.95741,0 18.34481,-33.9575,0 18.34621,-33.95741,0 18.3475,-33.95709,0 18.34877,-33.9566,0 18.34997,-33.9559,0 18.35077,-33.95525,0 18.3518,-33.95409,0 18.35272,-33.95284,0 18.35311,-33.95215,0 18.35403,-33.95041,0 18.35449,-33.94948,0 18.35496,-33.94839,0 18.35552,-33.94707,0 18.35608,-33.94583,0 18.35649,-33.94477,0 18.35703,-33.9435,0 18.35752,-33.9424,0 18.35804,-33.94121,0 18.35844,-33.94026,0 18.35888,-33.93929,0 18.35941,-33.93798,0 18.36006,-33.93645,0 18.36051,-33.9353,0 18.36096,-33.93402,0 18.36236,-33.93031,0 18.36353,-33.92694,0 18.36398,-33.92583,0 18.36454,-33.9245,0 18.36496,-33.92345,0 18.36539,-33.92249,0 18.36594,-33.92126,0 18.36639,-33.92029,0 18.36701,-33.9191,0 18.36752,-33.91809,0 18.36823,-33.91689,0 18.3688,-33.91589,0 18.36954,-33.9147,0 18.37011,-33.91372,0 18.37077,-33.91273,0 18.3716,-33.91158,0 18.37222,-33.91072,0 18.37295,-33.90976,0 18.37385,-33.90857,0 18.37463,-33.9077,0 18.37542,-33.90669,0 18.37629,-33.90577,0 18.37715,-33.90483,0 18.37822,-33.90381,0 18.37906,-33.90298,0 18.38018,-33.90189,0 18.38102,-33.90111,0 18.38213,-33.90018,0 18.38322,-33.89925,0 18.38413,-33.89855,0 18.38505,-33.8978,0 18.38635,-33.8968,0 18.38747,-33.89598,0 18.38837,-33.89534,0 18.38943,-33.89465,0 18.39048,-33.89403,0 18.39174,-33.89333,0 18.39308,-33.89273,0 18.39408,-33.89227,0 18.3956,-33.89172,0 18.39672,-33.89131,0 18.39787,-33.89096,0 18.3997,-33.8904,0 18.4009,-33.89012,0 18.40233,-33.88975,0 18.40333,-33.88953,0 18.40473,-33.88916,0 18.40619,-33.88884,0 18.40748,-33.88858,0 18.40883,-33.88829,0 18.41,-33.88807,0 18.41163,-33.88779,0 18.41314,-33.88752,0 18.41438,-33.88728,0 18.41583,-33.88705,0 18.41738,-33.88682,0 18.41852,-33.88664,0 18.42001,-33.88644,0 18.42127,-33.88623,0 18.42267,-33.88605,0 18.42424,-33.88591,0 18.42536,-33.88577,0 18.42676,-33.88564,0 18.42796,-33.88556,0 18.42929,-33.8855,0 18.43069,-33.8855,0 18.43192,-33.8855,0 18.43294,-33.88556,0 18.43427,-33.88568,0 18.43552,-33.88589,0 18.43655,-33.88607,0 18.43781,-33.8864,0 18.43878,-33.88672,0 18.43969,-33.88705,0 18.44106,-33.8877,0 18.44167,-33.88806,0 18.44251,-33.88857,0 18.44347,-33.88943,0 18.44414,-33.89017,0 18.44453,-33.89081,0 18.4449,-33.89166,0 18.44501,-33.89245,0 18.44504,-33.89337,0 18.44498,-33.89397,0 18.44473,-33.89473,0 18.44439,-33.89548,0 18.44404,-33.89599,0 18.44352,-33.89644,0 18.44274,-33.89699,0 18.44198,-33.89738,0 18.44139,-33.89758,0 18.44049,-33.89785,0 18.43981,-33.89804,0 18.43895,-33.89822,0 18.43832,-33.89832,0 18.43747,-33.89845,0 18.43668,-33.89859,0 18.43592,-33.89874,0 18.43523,-33.89883,0 18.43461,-33.89891,0 18.43414,-33.89901,0 18.43386,-33.89906,0 18.43357,-33.89906,0 18.43328,-33.89911,0 18.43299,-33.89919,0 18.4327,-33.89923,0 18.43231,-33.89929,0 18.43197,-33.89939,0 18.43174,-33.89943,0 18.43151,-33.89943,0 18.43125,-33.89951,0 18.43088,-33.89957,0 18.43046,-33.89964,0 18.43018,-33.89964,0 18.42985,-33.89971,0 18.42912,-33.89983,0 18.42888,-33.89985,0 18.42813,-33.89994,0 18.42788,-33.89996,0 18.42766,-33.89996,0 18.42743,-33.90005,0 18.42722,-33.90013,0 18.42699,-33.90028,0 18.42693,-33.90064,0 18.42699,-33.90088,0 18.42693,-33.90065,0 18.42693,-33.90041,0 18.4271,-33.90009,0 18.42733,-33.89976,0 18.4276,-33.89941,0 18.42788,-33.89905,0 18.42819,-33.89869,0 18.42856,-33.89822,0 18.42884,-33.89786,0 18.42923,-33.89735,0 18.42945,-33.89708,0 18.42962,-33.89682,0 18.42979,-33.89662,0 18.42997,-33.89636,0 18.43042,-33.89566,0 18.43085,-33.89507,0 18.43128,-33.89445,0 18.43181,-33.89365,0 18.4322,-33.89315,0 18.4327,-33.89241,0 18.43311,-33.89185,0 18.43357,-33.8911,0 18.43405,-33.8903,0 18.43443,-33.8897,0 18.43483,-33.889,0 18.43529,-33.88826,0 18.43592,-33.88714,0 18.43637,-33.88635,0 18.43674,-33.88564,0 18.43702,-33.88495,0 18.43724,-33.88417,0 18.43736,-33.8833,0 18.43735,-33.88249,0 18.43723,-33.88184,0 18.437,-33.88118,0 18.43663,-33.88042,0 18.43612,-33.87964,0 18.43562,-33.87904,0 18.43517,-33.87854,0 18.4345,-33.87799,0 18.43394,-33.87758,0 18.43338,-33.87721,0 18.4327,-33.87694,0 18.43192,-33.87662,0 18.43111,-33.87634,0 18.43018,-33.87616,0 18.42951,-33.87606,0 18.42854,-33.87592,0 18.42779,-33.87588,0 18.42682,-33.87583,0 18.42587,-33.87579,0 18.42508,-33.87575,0 18.42407,-33.87575,0 18.42329,-33.87579,0 18.42258,-33.87579,0 18.42138,-33.87589,0 18.42048,-33.87593,0 18.41955,-33.87602,0 18.41864,-33.87611,0 18.41774,-33.87616,0 18.41656,-33.8763,0 18.41566,-33.87634,0 18.41471,-33.87643,0 18.41342,-33.87657,0 18.41224,-33.87666,0 18.4112,-33.87676,0 18.40989,-33.87689,0 18.40874,-33.87704,0 18.40776,-33.87712,0 18.40679,-33.87723,0 18.40548,-33.87741,0 18.40439,-33.8776,0 18.40313,-33.87778,0 18.40216,-33.87802,0 18.40073,-33.8783,0 18.39941,-33.87863,0 18.39838,-33.8789,0 18.39739,-33.87918,0 18.39616,-33.87959,0 18.39523,-33.87988,0 18.3942,-33.88023,0 18.39289,-33.88076,0 18.39179,-33.88124,0 18.39095,-33.88161,0 18.38994,-33.88211,0 18.38881,-33.88271,0 18.38779,-33.88328,0 18.38705,-33.88365,0 18.38596,-33.88435,0 18.38528,-33.88482,0 18.38425,-33.88556,0 18.38339,-33.88617,0 18.38265,-33.88678,0 18.38164,-33.88751,0 18.38086,-33.8882,0 18.38001,-33.88889,0 18.37898,-33.8897,0 18.37818,-33.8904,0 18.37698,-33.89147,0 18.37606,-33.89231,0 18.37526,-33.89305,0 18.37452,-33.89378,0 18.37374,-33.89456,0 18.37284,-33.89543,0 18.37212,-33.89622,0 18.3712,-33.8972,0 18.37046,-33.89799,0 18.36964,-33.89886,0 18.36869,-33.89987,0 18.36782,-33.90083,0 18.36708,-33.90162,0 18.36622,-33.90265,0 18.3655,-33.90353,0 18.36471,-33.9044,0 18.36416,-33.90511,0 18.36325,-33.90623,0 18.36264,-33.9071,0 18.36193,-33.90795,0 18.3613,-33.90884,0 18.36045,-33.90999,0 18.35995,-33.91063,0 18.35911,-33.91182,0 18.35849,-33.91264,0 18.35787,-33.91347,0 18.35718,-33.91447,0 18.35644,-33.91558,0 18.35587,-33.91656,0 18.35535,-33.91745,0 18.35479,-33.91846,0 18.35421,-33.9194,0 18.35375,-33.92029,0 18.35323,-33.92117,0 18.35266,-33.92229,0 18.35205,-33.92345,0 18.3516,-33.92436,0 18.35104,-33.92546,0 18.35054,-33.92643,0 18.35019,-33.92715,0 18.34958,-33.92834,0 18.34902,-33.92944,0 18.34848,-33.93039,0 18.34803,-33.93132,0 18.34762,-33.93219,0 18.347,-33.93338,0 18.34649,-33.93448,0 18.34599,-33.93549,0 18.34551,-33.93649,0 18.34504,-33.9375,0 18.34448,-33.93878,0 18.34386,-33.94002,0 18.34242,-33.94319,0 18.34093,-33.94631,0 18.34042,-33.94738,0 18.33904,-33.9505,0 18.33876,-33.95146,0 18.33854,-33.95238,0 18.33848,-33.95352,0 18.33864,-33.95455,0 18.33904,-33.95563,0 18.33973,-33.95665,0 18.34039,-33.95737,0 18.3415,-33.95823,0 18.34274,-33.95883,0 18.34403,-33.95924,0 18.34557,-33.95939,0 18.34666,-33.95934,0 18.34826,-33.95893,0 18.34923,-33.95842,0 18.3507,-33.95732,0 18.35146,-33.95646,0 18.35205,-33.95549,0 18.35255,-33.95444,0 18.35294,-33.95338,0 18.3534,-33.95218,0 18.35378,-33.951,0 18.35423,-33.94977,0 18.35457,-33.94876,0 18.35496,-33.94762,0 18.35535,-33.94638,0 18.35581,-33.94505,0 18.35614,-33.94409,0 18.35672,-33.94249,0 18.35712,-33.94124,0 18.35747,-33.9403,0 18.35798,-33.93909,0 18.35849,-33.93768,0 18.35913,-33.93621,0 18.35967,-33.93507,0 18.36017,-33.93398,0 18.36073,-33.93301,0 18.36124,-33.9321,0 18.36191,-33.93086,0 18.36245,-33.92997,0 18.36319,-33.92862,0 18.36376,-33.92761,0 18.36426,-33.92665,0 18.36479,-33.92569,0 18.36536,-33.92471,0 18.36595,-33.92363,0 18.36668,-33.92238,0 18.36742,-33.92113,0 18.36808,-33.9201,0 18.3688,-33.91891,0 18.36942,-33.91795,0 18.3702,-33.91676,0 18.37082,-33.91589,0 18.37172,-33.91461,0 18.37223,-33.91391,0 18.37306,-33.91273,0 18.37391,-33.91168,0 18.37492,-33.91042,0 18.37576,-33.90939,0 18.37669,-33.90828,0 18.37766,-33.90715,0 18.37864,-33.90609,0 18.37933,-33.9053,0 18.38018,-33.90445,0 18.38127,-33.9033,0 18.38209,-33.90253,0 18.38316,-33.90157,0 18.3843,-33.90055,0 18.38522,-33.89981,0 18.38636,-33.89892,0 18.38736,-33.89818,0 18.38853,-33.89735,0 18.3896,-33.89662,0 18.39061,-33.89594,0 18.39207,-33.89511,0 18.39319,-33.89452,0 18.39455,-33.89384,0 18.39565,-33.89333,0 18.39677,-33.89287,0 18.39798,-33.8924,0 18.3993,-33.89195,0 18.40055,-33.89161,0 18.40199,-33.89117,0 18.40322,-33.89085,0 18.40456,-33.8905,0 18.40569,-33.89021,0 18.40719,-33.8898,0 18.40851,-33.88947,0 18.40948,-33.88924,0 18.4112,-33.88887,0 18.41263,-33.88858,0 18.41406,-33.88826,0 18.41527,-33.88802,0 18.41673,-33.88774,0 18.41802,-33.88751,0 18.41932,-33.88724,0 18.42054,-33.88701,0 18.42167,-33.88682,0 18.42293,-33.88659,0 18.42459,-33.88631,0 18.4255,-33.88617,0 18.42699,-33.88596,0 18.42828,-33.88582,0 18.42979,-33.88577,0 18.431,-33.88579,0 18.43225,-33.88589,0 18.43374,-33.88612,0 18.43478,-33.88632,0 18.43607,-33.88669,0 18.43706,-33.88705,0 18.43803,-33.88742,0 18.43924,-33.88803,0 18.44005,-33.88857,0 18.44123,-33.88957,0 18.44193,-33.89035,0 18.4424,-33.89108,0 18.4429,-33.89231,0 18.44307,-33.89328,0 18.44313,-33.89417,0 18.44301,-33.89482,0 18.44284,-33.89552,0 18.44246,-33.89626,0 18.44193,-33.89697,0 18.44141,-33.89743,0 18.44084,-33.89776,0 18.44009,-33.89808,0 18.43943,-33.89827,0 18.43865,-33.89845,0 18.43792,-33.89859,0 18.43719,-33.89868,0 18.43643,-33.89878,0 18.43562,-33.89886,0 18.435,-33.89896,0 18.43433,-33.89905,0 18.43357,-33.89911,0 18.43321,-33.89919,0 18.43299,-33.89919,0 18.43259,-33.89923,0 18.43231,-33.89928,0 18.43209,-33.89932,0 18.43168,-33.89939,0 18.43147,-33.89941,0 18.43122,-33.89943,0 18.431,-33.89948,0 18.43057,-33.89955,0 18.43037,-33.89962,0 18.43013,-33.89964,0 18.4299,-33.89969,0 18.42951,-33.89973,0 18.42928,-33.89976,0 18.42906,-33.89978,0 18.42872,-33.89983,0 18.42842,-33.89985,0 18.42819,-33.89985,0 18.42777,-33.89992,0 18.42756,-33.89994,0 18.42732,-33.90005,0 18.4271,-33.90015,0 18.42687,-33.90038,0 18.42688,-33.9006,0 18.42699,-33.90083,0 18.42687,-33.90102,0 18.42699,-33.90069,0 18.42705,-33.90036,0 18.42715,-33.9001,0 18.42739,-33.89976,0 18.42766,-33.89937,0 18.42783,-33.89909,0 18.42816,-33.89873,0 18.42833,-33.8985,0 18.42854,-33.89822,0 18.42888,-33.89785,0 18.42911,-33.89748,0 18.42934,-33.89722,0 18.42951,-33.89697,0 18.42979,-33.89667,0 18.43019,-33.89613,0 18.4306,-33.89561,0 18.43091,-33.89516,0 18.43142,-33.89452,0 18.43174,-33.89399,0 18.4322,-33.89333,0 18.43266,-33.89264,0 18.43306,-33.89208,0 18.43338,-33.89159,0 18.43388,-33.89067,0 18.43427,-33.89008,0 18.4346,-33.88947,0 18.435,-33.88875,0 18.43534,-33.88806,0 18.43567,-33.88733,0 18.43601,-33.88646,0 18.4364,-33.88554,0 18.43674,-33.88467,0 18.437,-33.88398,0 18.43747,-33.88284,0 18.43781,-33.88202,0 18.43809,-33.88129,0 18.43848,-33.88051,0 18.43901,-33.8796,0 18.43958,-33.87877,0 18.44027,-33.87808,0 18.4413,-33.87741,0 18.4421,-33.87704,0 18.44313,-33.87681,0 18.44404,-33.87676,0 18.44492,-33.87689,0 18.44593,-33.87726,0 18.44662,-33.87769,0 18.44711,-33.87813,0 18.4475,-33.87881,0 18.44765,-33.87946,0 18.44753,-33.88025,0 18.44722,-33.88087,0 18.44661,-33.88152,0 18.44587,-33.88198,0 18.44509,-33.88234,0 18.44425,-33.88252,0 18.44296,-33.88258,0 18.44221,-33.88258,0 18.44089,-33.88248,0 18.43975,-33.88235,0 18.43876,-33.8822,0 18.43775,-33.88207,0 18.43678,-33.88188,0 18.4358,-33.88169,0 18.43443,-33.88146,0 18.43343,-33.88129,0 18.43214,-33.88106,0 18.43091,-33.88083,0 18.42985,-33.88067,0 18.42872,-33.88051,0 18.42772,-33.88033,0 18.42636,-33.88011,0 18.42533,-33.87993,0 18.42407,-33.87974,0 18.42299,-33.8796,0 18.42178,-33.87946,0 18.42047,-33.87932,0 18.41927,-33.87918,0 18.41813,-33.87909,0 18.41695,-33.879,0 18.41555,-33.87886,0 18.4144,-33.87877,0 18.41291,-33.87867,0 18.41177,-33.87858,0 18.41,-33.87848,0 18.40862,-33.87844,0 18.40714,-33.8784,0 18.40597,-33.8784,0 18.40456,-33.87844,0 18.40324,-33.87844,0 18.40204,-33.87849,0 18.40053,-33.87859,0 18.3993,-33.87872,0 18.39801,-33.87886,0 18.39655,-33.87909,0 18.39523,-33.87937,0 18.39415,-33.8796,0 18.39302,-33.87987,0 18.39169,-33.88025,0 18.39043,-33.88067,0 18.38911,-33.88114,0 18.38797,-33.88156,0 18.38685,-33.88197,0 18.38573,-33.88244,0 18.38495,-33.8828,0 18.38383,-33.8833,0 18.38271,-33.8838,0 18.38181,-33.88426,0 18.38063,-33.88486,0 18.3799,-33.88527,0 18.37898,-33.88584,0 18.37794,-33.88651,0 18.37688,-33.88715,0 18.37606,-33.88775,0 18.37526,-33.88835,0 18.37424,-33.88921,0 18.37346,-33.88985,0 18.37245,-33.89076,0 18.37166,-33.89143,0 18.37091,-33.89212,0 18.36998,-33.89305,0 18.36892,-33.89401,0 18.36823,-33.89468,0 18.3674,-33.89552,0 18.36656,-33.89644,0 18.36576,-33.89724,0 18.36516,-33.89795,0 18.36438,-33.89891,0 18.3637,-33.89964,0 18.36309,-33.90038,0 18.36253,-33.90111,0 18.36174,-33.90211,0 18.36113,-33.90288,0 18.3605,-33.90372,0 18.35976,-33.90474,0 18.35924,-33.90539,0 18.35873,-33.90618,0 18.35782,-33.90738,0 18.35724,-33.90823,0 18.35647,-33.9093,0 18.35592,-33.91005,0 18.35406,-33.91269,0 18.35171,-33.91626,0 18.34991,-33.91924,0 18.34952,-33.91992,0 18.34885,-33.92107,0 18.34843,-33.92187,0 18.34795,-33.92276,0 18.34739,-33.92377,0 18.34706,-33.92445,0 18.34648,-33.92555,0 18.34599,-33.92647,0 18.34543,-33.92752,0 18.34494,-33.92844,0 18.34442,-33.92927,0 18.34375,-33.93036,0 18.34333,-33.931,0 18.34252,-33.93224,0 18.34185,-33.93314,0 18.34133,-33.93398,0 18.34087,-33.93481,0 18.34064,-33.9356,0 18.53122,-34.32367,0 18.50916,-34.35759,0 18.50871,-34.35901,0 18.50843,-34.35956,0 18.50796,-34.36025,0 18.50742,-34.36089,0 18.50693,-34.36142,0 18.50624,-34.36198,0 18.50563,-34.3624,0 18.50479,-34.3629,0 18.50389,-34.36328,0 18.50304,-34.36365,0 18.50224,-34.36388,0 18.5012,-34.36418,0 18.50058,-34.36432,0 18.49935,-34.3645,0 18.49862,-34.36464,0 18.49731,-34.36477,0 18.49638,-34.36482,0 18.49571,-34.36482,0 18.49453,-34.36487,0 18.49342,-34.36486,0 18.4924,-34.36482,0 18.49108,-34.36477,0 18.4901,-34.36473,0 18.48885,-34.36463,0 18.48786,-34.3645,0 18.48701,-34.36444,0 18.4859,-34.36432,0 18.4849,-34.36421,0 18.48347,-34.36403,0 18.48255,-34.36393,0 18.48135,-34.36384,0 18.48035,-34.36377,0 18.47929,-34.36365,0 18.47844,-34.36354,0 18.47755,-34.36345,0 18.47631,-34.36327,0 18.47542,-34.36308,0 18.47452,-34.3629,0 18.47345,-34.36253,0 18.47248,-34.36221,0 18.47132,-34.36189,0 18.47048,-34.3618,0 18.46962,-34.36184,0 18.46888,-34.36207,0 18.46835,-34.3624,0 18.46796,-34.3629,0 18.4679,-34.36351,0 18.46807,-34.36395,0 18.46859,-34.36435,0 18.46928,-34.36458,0 18.46998,-34.36473,0 18.47088,-34.36481,0 18.47151,-34.36486,0 18.47256,-34.36491,0 18.47345,-34.36496,0 18.47448,-34.365,0 18.47547,-34.3651,0 18.47631,-34.36514,0 18.47749,-34.36523,0 18.47837,-34.36533,0 18.4794,-34.36538,0 18.48052,-34.36551,0 18.48141,-34.36555,0 18.48238,-34.36565,0 18.48354,-34.36574,0 18.48473,-34.36584,0 18.48598,-34.36598,0 18.48713,-34.36612,0 18.4881,-34.36621,0 18.48926,-34.36633,0 18.49148,-34.36654,0 18.49257,-34.36663,0 18.49358,-34.3667,0 18.49428,-34.36677,0 18.49554,-34.36682,0 18.49672,-34.36684,0 18.49743,-34.36686,0 18.49863,-34.36677,0 18.49972,-34.36663,0 18.50081,-34.36647,0 18.50143,-34.36631,0 18.50246,-34.36598,0 18.50349,-34.36542,0 18.50424,-34.36496,0 18.5049,-34.36436,0 18.50567,-34.36356,0 18.50624,-34.36276,0 18.50669,-34.36203,0 18.50697,-34.36139,0 18.50725,-34.36061,0 18.50753,-34.3596,0 18.50767,-34.35858,0 18.5077,-34.35773,0 18.50767,-34.35695,0 18.50748,-34.3559,0 18.5072,-34.35493,0 18.50686,-34.35388,0 18.50653,-34.3531,0 18.50613,-34.3522,0 18.50546,-34.35091,0 18.50481,-34.34983,0 18.50423,-34.34889,0 18.50361,-34.34802,0 18.50292,-34.34689,0 18.50232,-34.34596,0 18.50143,-34.34466,0 18.50069,-34.34364,0 18.49995,-34.34256,0 18.49909,-34.34135,0 18.49834,-34.34028,0 18.49767,-34.33937,0 18.49703,-34.33838,0 18.49627,-34.33727,0 18.49554,-34.33614,0 18.49492,-34.33511,0 18.49434,-34.33409,0 18.49371,-34.33297,0 18.49324,-34.33205,0 18.49279,-34.33095,0 18.49239,-34.32985,0 18.49216,-34.32878,0 18.49199,-34.32785,0 18.49182,-34.32674,0 18.49167,-34.32573,0 18.4915,-34.32454,0 18.49139,-34.32385,0 18.49117,-34.32262,0 18.49085,-34.32166,0 18.49044,-34.32065,0 18.48993,-34.31987,0 18.48937,-34.31923,0 18.48865,-34.31854,0 18.48792,-34.31795,0 18.48701,-34.31747,0 18.48601,-34.31712,0 18.48495,-34.31691,0 18.48399,-34.3168,0 18.48276,-34.31685,0 18.48186,-34.31696,0 18.48089,-34.31705,0 18.47975,-34.31724,0 18.47884,-34.31735,0 18.4778,-34.31752,0 18.47682,-34.31776,0 18.47597,-34.31817,0 18.47528,-34.31863,0 18.47486,-34.31905,0 18.47454,-34.31961,0 18.47443,-34.32031,0 18.47452,-34.32101,0 18.47483,-34.32171,0 18.4753,-34.32234,0 18.47592,-34.3228,0 18.47654,-34.32303,0 18.47749,-34.32317,0 18.47844,-34.32303,0 18.47912,-34.32269,0 18.47968,-34.32225,0 18.48013,-34.32161,0 18.48035,-34.32092,0 18.48038,-34.32003,0 18.48029,-34.31927,0 18.48007,-34.3185,0 18.47969,-34.31757,0 18.4794,-34.3168,0 18.47895,-34.3157,0 18.4786,-34.31463,0 18.47837,-34.31384,0 18.4782,-34.31273,0 18.47809,-34.31161,0 18.47809,-34.31054,0 18.47816,-34.30952,0 18.47828,-34.30856,0 18.47843,-34.30765,0 18.47878,-34.3063,0 18.479,-34.30532,0 18.4794,-34.30402,0 18.47968,-34.30312,0 18.48001,-34.30202,0 18.48043,-34.30057,0 18.48085,-34.29932,0 18.48119,-34.29817,0 18.48152,-34.29718,0 18.48192,-34.29573,0 18.48225,-34.29465,0 18.48248,-34.29369,0 18.48284,-34.29243,0 18.48312,-34.29126,0 18.48338,-34.29025,0 18.48371,-34.28893,0 18.48394,-34.28783,0 18.48422,-34.28677,0 18.48444,-34.28554,0 18.48473,-34.28419,0 18.48489,-34.28284,0 18.48506,-34.28178,0 18.48524,-34.28041,0 18.48545,-34.27908,0 18.48564,-34.27772,0 18.48576,-34.27641,0 18.48593,-34.27511,0 18.48604,-34.27404,0 18.48616,-34.27283,0 18.48629,-34.27144,0 18.48639,-34.27018,0 18.48646,-34.26892,0 18.48661,-34.26775,0 18.48673,-34.26631,0 18.48713,-34.26279,0 18.4873,-34.26133,0 18.48742,-34.26017,0 18.48753,-34.25905,0 18.48764,-34.25779,0 18.48804,-34.25421,0 18.48842,-34.25066,0 18.4885,-34.24932,0 18.48865,-34.24796,0 18.4887,-34.24654,0 18.48879,-34.24527,0 18.48879,-34.24397,0 18.48879,-34.24266,0 18.48873,-34.24159,0 18.48867,-34.24047,0 18.48856,-34.23908,0 18.48837,-34.23779,0 18.4882,-34.23674,0 18.48799,-34.23536,0 18.4877,-34.23405,0 18.48741,-34.23294,0 18.48713,-34.23189,0 18.48679,-34.23074,0 18.48633,-34.22949,0 18.48581,-34.22809,0 18.48541,-34.22702,0 18.4849,-34.22577,0 18.48438,-34.2246,0 18.48387,-34.22334,0 18.48335,-34.22218,0 18.48281,-34.22108,0 18.48231,-34.21994,0 18.48164,-34.21864,0 18.48112,-34.21757,0 18.48043,-34.21627,0 18.47992,-34.21519,0 18.47923,-34.21394,0 18.47856,-34.21271,0 18.47786,-34.21143,0 18.4771,-34.21019,0 18.47631,-34.20891,0 18.47557,-34.20775,0 18.47471,-34.20644,0 18.47401,-34.20538,0 18.47334,-34.20442,0 18.47233,-34.20296,0 18.47138,-34.20163,0 18.47054,-34.20044,0 18.46981,-34.19943,0 18.46916,-34.19858,0 18.46825,-34.19737,0 18.46751,-34.1965,0 18.46642,-34.19509,0 18.46566,-34.19412,0 18.46477,-34.19307,0 18.46387,-34.19197,0 18.4631,-34.19108,0 18.46224,-34.19005,0 18.46129,-34.18886,0 18.46045,-34.18776,0 18.45967,-34.1868,0 18.45882,-34.18561,0 18.45821,-34.18465,0 18.45748,-34.1835,0 18.45686,-34.18233,0 18.4563,-34.18108,0 18.45597,-34.17989,0 18.45574,-34.17856,0 18.45566,-34.17721,0 18.45572,-34.17586,0 18.45583,-34.17447,0 18.456,-34.17316,0 18.45619,-34.1721,0 18.45646,-34.17088,0 18.45681,-34.16968,0 18.45709,-34.16864,0 18.45748,-34.16734,0 18.45783,-34.16618,0 18.45821,-34.16505,0 18.45849,-34.16423,0 18.45899,-34.16277,0 18.4595,-34.16139,0 18.45978,-34.16057,0 18.46035,-34.1591,0 18.46067,-34.15819,0 18.46118,-34.15686,0 18.46155,-34.15584,0 18.46207,-34.1544,0 18.46264,-34.15302,0 18.46309,-34.15178,0 18.46359,-34.15036,0 18.46395,-34.14933,0 18.46441,-34.14802,0 18.46494,-34.14665,0 18.46613,-34.14323,0 18.46779,-34.13841,0 18.46908,-34.13489,0 18.47065,-34.13075,0 18.472,-34.1272,0 18.4734,-34.12312,0 18.47413,-34.12083,0 18.47448,-34.11935,0 18.47477,-34.11823,0 18.475,-34.11702,0 18.47528,-34.11557,0 18.4754,-34.11446,0 18.47553,-34.11328,0 18.47564,-34.11218,0 18.47575,-34.11104,0 18.47586,-34.10966,0 18.47597,-34.10826,0 18.47603,-34.10715,0 18.47614,-34.1058,0 18.4762,-34.10472,0 18.47626,-34.10371,0 18.47631,-34.10225,0 18.47631,-34.10091,0 18.4762,-34.09979,0 18.47592,-34.09818,0 18.47564,-34.09721,0 18.4753,-34.09612,0 18.47497,-34.09502,0 18.47446,-34.09373,0 18.47396,-34.09254,0 18.4734,-34.09126,0 18.47295,-34.09021,0 18.47245,-34.08893,0 18.47185,-34.08751,0 18.47145,-34.08652,0 18.47088,-34.08508,0 18.47042,-34.08401,0 18.46998,-34.08275,0 18.46951,-34.08159,0 18.4691,-34.08047,0 18.46865,-34.07927,0 18.46687,-34.07428,0 18.46645,-34.07281,0 18.46596,-34.07121,0 18.46567,-34.07014,0 18.46533,-34.06892,0 18.46498,-34.06744,0 18.46465,-34.06609,0 18.46437,-34.06453,0 18.46421,-34.06348,0 18.46395,-34.06199,0 18.46376,-34.06073,0 18.46355,-34.05948,0 18.46342,-34.05817,0 18.46327,-34.05701,0 18.46315,-34.05589,0 18.46304,-34.05441,0 18.46292,-34.05295,0 18.46286,-34.05144,0 18.4628,-34.05029,0 18.46286,-34.04874,0 18.46287,-34.04775,0 18.46292,-34.04631,0 18.46303,-34.04494,0 18.4631,-34.04351,0 18.46315,-34.04239,0 18.46321,-34.04114,0 18.46331,-34.03995,0 18.46337,-34.03857,0 18.46348,-34.03748,0 18.46355,-34.03583,0 18.46361,-34.03467,0 18.4637,-34.03349,0 18.46376,-34.03226,0 18.46401,-34.02801,0 18.46424,-34.02545,0 18.46441,-34.02419,0 18.46454,-34.02278,0 18.46464,-34.0214,0 18.46471,-34.02003,0 18.46476,-34.01884,0 18.46481,-34.01772,0 18.46488,-34.01637,0 18.46494,-34.01527,0 18.46498,-34.01409,0 18.46505,-34.01308,0 18.4651,-34.01167,0 18.46516,-34.01051,0 18.46527,-34.00919,0 18.46544,-34.0079,0 18.46556,-34.00678,0 18.46567,-34.00557,0 18.46583,-34.00424,0 18.46628,-34.00063,0 18.46684,-33.99669,0 18.46706,-33.99518,0 18.46729,-33.99394,0 18.46779,-33.99142,0 18.46796,-33.99058,0 18.46835,-33.98904,0 18.46863,-33.9879,0 18.46893,-33.98681,0 18.46925,-33.98552,0 18.46953,-33.98438,0 18.46992,-33.98291,0 18.47043,-33.98122,0 18.47076,-33.98001,0 18.47116,-33.97897,0 18.47162,-33.97759,0 18.47202,-33.97638,0 18.47237,-33.97536,0 18.47277,-33.9741,0 18.47306,-33.97298,0 18.47328,-33.97192,0 18.47351,-33.97061,0 18.4738,-33.96922,0 18.47414,-33.96814,0 18.47463,-33.96671,0 18.47508,-33.96565,0 18.47558,-33.96442,0 18.47603,-33.96344,0 18.47648,-33.96249,0 18.47704,-33.96117,0 18.47766,-33.95984,0 18.47805,-33.95883,0 18.47855,-33.95758,0 18.47895,-33.95659,0 18.4794,-33.9553,0 18.47969,-33.95422,0 18.48003,-33.95306,0 18.48029,-33.95174,0 18.48052,-33.9505,0 18.48063,-33.9494,0 18.48069,-33.94807,0 18.48074,-33.94707,0 18.4808,-33.94565,0 18.48078,-33.94445,0 18.4808,-33.94341,0 18.48072,-33.94194,0 18.48063,-33.94089,0 18.48046,-33.9397,0 18.48029,-33.93851,0 18.48003,-33.93714,0 18.47975,-33.93616,0 18.47935,-33.93481,0 18.47895,-33.93375,0 18.4785,-33.93269,0 18.47803,-33.9316,0 18.47738,-33.93031,0 18.47687,-33.92935,0 18.47631,-33.92834,0 18.47557,-33.92713,0 18.47488,-33.92597,0 18.47403,-33.92466,0 18.4734,-33.92368,0 18.47294,-33.92289,0 18.47211,-33.92166,0 18.47144,-33.92079,0 18.47071,-33.91974,0 18.46996,-33.9188,0 18.46925,-33.91782,0 18.46858,-33.91695,0 18.46779,-33.91589,0 18.46701,-33.91475,0 18.46636,-33.91386,0 18.46577,-33.91301,0 18.46521,-33.91209,0 18.46458,-33.91121,0 18.46387,-33.91013,0 18.46314,-33.90912,0 18.46252,-33.90823,0 18.4618,-33.90724,0 18.46115,-33.90637,0 18.46017,-33.90514,0 18.45961,-33.90451,0 18.45899,-33.90367,0 18.45823,-33.90274,0 18.45766,-33.90195,0 18.45703,-33.90115,0 18.45636,-33.90019,0 18.45589,-33.89952,0 18.45531,-33.89869,0 18.4548,-33.89804,0 18.45428,-33.8974,0 18.45343,-33.89669,0 18.45274,-33.89636,0 18.45194,-33.89618,0 18.45131,-33.89621,0 18.45085,-33.89636,0 18.45062,-33.89664,0 18.45039,-33.89715,0 18.45045,-33.89762,0 18.45045,-33.89804,0 18.4503,-33.89845,0 18.45003,-33.89886,0 18.44952,-33.89919,0 18.44868,-33.89939,0 18.44782,-33.89948,0 18.4469,-33.89939,0 18.44599,-33.89929,0 18.44548,-33.89923,0 18.44456,-33.89911,0 18.44386,-33.899,0 18.44313,-33.89891,0 18.44223,-33.89886,0 18.44147,-33.89878,0 18.44055,-33.89874,0 18.43994,-33.89873,0 18.43893,-33.89868,0 18.43815,-33.89864,0 18.43736,-33.89864,0 18.43663,-33.89868,0 18.43603,-33.89869,0 18.43517,-33.89878,0 18.43454,-33.89878,0 18.43409,-33.89883,0 18.43382,-33.89886,0 18.43306,-33.89892,0 18.4327,-33.89896,0 18.43248,-33.899,0 18.43209,-33.89905,0 18.43158,-33.89914,0 18.43105,-33.8992,0 18.4308,-33.89928,0 18.43057,-33.89932,0 18.43029,-33.89937,0 18.43008,-33.89943,0 18.42945,-33.89964,0 18.42899,-33.89981,0 18.42861,-33.89996,0 18.42819,-33.90018,0 18.42794,-33.90033,0 18.42773,-33.90046,0 18.42749,-33.90056,0</coordinates>
      </LineString>
    </Placemark>
  </Document>
</kml>
