<?xml version="1.0" encoding="UTF-8"?>
<kml xmlns="http://www.opengis.net/kml/2.2">
  <Document>
    <name>FR24 3e8f7468</name>
    <Placemark>
      <name>FR24 3e8f7468</name>
      <Style><LineStyle><color>ff0000ff</color><width>4</width></LineStyle></Style>
      <LineString>
        <tessellate>1</tessellate>
        <coordinates>18.43381,-33.88187,0 18.41432,-33.86992,0 18.41634,-33.87134,0 18.42174,-33.87228,0 18.41692,-33.87179,0 18.40887,-33.87037,0 18.4122,-33.87082,0 18.41265,-33.87046,0 18.40809,-33.86996,0 18.40398,-33.86884,0 18.42462,-33.87513,0 18.40863,-33.8704,0 18.40347,-33.86937,0 18.39847,-33.86843,0 18.40701,-33.8726,0 18.41106,-33.87326,0 18.41319,-33.87453,0 18.38937,-33.86834,0 18.39846,-33.8719,0 18.39722,-33.87185,0 18.39882,-33.87404,0 18.38327,-33.87043,0 18.38059,-33.87117,0 18.37527,-33.87108,0 18.37568,-33.8717,0 18.39596,-33.87893,0 18.39642,-33.88032,0 18.39689,-33.88103,0 18.39577,-33.88144,0 18.39393,-33.88186,0 18.3878,-33.88219,0 18.38562,-33.88247,0 18.38411,-33.88313,0 18.38343,-33.8837,0 18.38287,-33.88452,0 18.38212,-33.88501,0 18.38101,-33.88693,0 18.38006,-33.88762,0 18.37649,-33.88927,0 18.37346,-33.8913,0 18.37211,-33.89283,0 18.36987,-33.89381,0 18.36872,-33.89461,0 18.36748,-33.89584,0 18.36624,-33.89765,0 18.36022,-33.89987,0 18.35931,-33.90105,0 18.35836,-33.90221,0 18.35772,-33.90337,0 18.3573,-33.90436,0 18.36155,-33.90652,0 18.36154,-33.90767,0 18.34594,-33.90731,0 18.35343,-33.90988,0 18.34593,-33.91005,0 18.35287,-33.91185,0 18.35481,-33.91487,0 18.35397,-33.91675,0 18.32254,-33.91235,0 18.36446,-33.90868,0 18.36087,-33.90542,0 18.35938,-33.90388,0 18.37804,-33.89787,0 18.38559,-33.89168,0 18.39819,-33.88783,0 18.57124,-33.96199,0 18.57612,-33.9615,0 18.57748,-33.96136,0 18.57903,-33.96117,0 18.5808,-33.96078,0 18.58226,-33.96007,0 18.58388,-33.95949,0 18.58659,-33.95878,0 18.58755,-33.95864,0 18.58881,-33.95829,0 18.59011,-33.95795,0 18.59135,-33.95764,0 18.59275,-33.95731,0 18.59391,-33.95696,0 18.59522,-33.95666,0 18.59821,-33.95609,0 18.59893,-33.95602,0 18.6004,-33.95583,0 18.60194,-33.95549,0 18.60369,-33.95527,0 18.60462,-33.95514,0 18.60642,-33.95507,0 18.60752,-33.95493,0 18.60894,-33.95484,0 18.61004,-33.95478,0 18.61121,-33.95477,0 18.61317,-33.95473,0 18.6145,-33.95474,0 18.61587,-33.95468,0 18.61772,-33.95467,0 18.61907,-33.95461,0 18.62064,-33.95465,0 18.62224,-33.95449,0 18.62344,-33.95466,0 18.62473,-33.95466,0 18.62622,-33.95478,0 18.62729,-33.9548,0 18.62847,-33.95485,0 18.62976,-33.95491,0 18.63106,-33.95501,0 18.63231,-33.95502,0 18.6337,-33.95511,0 18.63511,-33.95508,0 18.63684,-33.95511,0 18.63791,-33.95531,0 18.63943,-33.95545,0 18.6405,-33.95555,0 18.64187,-33.95569,0 18.6433,-33.95581,0 18.64448,-33.95591,0 18.64641,-33.95608,0 18.64728,-33.95616,0 18.64967,-33.95638,0 18.65136,-33.95651,0 18.65207,-33.95664,0 18.65381,-33.9567,0 18.65568,-33.95658,0 18.65916,-33.95687,0 18.66129,-33.95688,0 18.66229,-33.95694,0 18.66365,-33.95713,0 18.66486,-33.95732,0 18.66645,-33.95749,0 18.66796,-33.95761,0 18.66933,-33.95769,0 18.67135,-33.95766,0 18.67249,-33.95784,0 18.67434,-33.95789,0 18.67568,-33.95787,0 18.67747,-33.95818,0 18.67825,-33.95827,0 18.68065,-33.95802,0 18.68226,-33.9582,0 18.68405,-33.958,0 18.68555,-33.95811,0 18.68669,-33.95804,0 18.68793,-33.95797,0 18.6896,-33.95802,0 18.69149,-33.95805,0 18.69296,-33.95821,0 18.6945,-33.95831,0 18.69606,-33.95828,0 18.69752,-33.95846,0 18.6989,-33.9585,0 18.70081,-33.95867,0 18.70233,-33.95883,0 18.70519,-33.95859,0 18.7073,-33.95873,0 18.70901,-33.95941,0 18.7136,-33.95932,0 18.71503,-33.95913,0 18.71631,-33.95971,0 18.71805,-33.95995,0 18.7197,-33.95996,0 18.72043,-33.96003,0 18.72248,-33.9601,0 18.72388,-33.96021,0 18.72523,-33.96037,0 18.72691,-33.96513,0 18.73104,-33.96067,0 18.73298,-33.96087,0 18.73502,-33.96118,0 18.73673,-33.96146,0 18.7377,-33.96158,0 18.74008,-33.9613,0 18.74182,-33.96132,0 18.74251,-33.96133,0 18.74451,-33.96131,0 18.7464,-33.96137,0 18.74793,-33.96124,0 18.7499,-33.96088,0 18.75248,-33.96038,0 18.75693,-33.9478,0 18.76129,-33.95766,0 18.76439,-33.95635,0 18.76526,-33.95599,0 18.77555,-33.94118,0 18.8962,-33.93401,0 18.90169,-33.93468,0 18.91864,-33.93335,0 18.92394,-33.93135,0 18.93132,-33.93137,0 18.93135,-33.93031,0 18.93205,-33.92896,0 18.93164,-33.92227,0 18.77494,-33.94736,0 18.77054,-33.97063,0 18.77007,-33.97089,0 18.76615,-33.97531,0 18.76024,-33.97664,0 18.7584,-33.9705,0 18.75666,-33.97021,0 18.75482,-33.96994,0 18.74786,-33.97602,0 18.73813,-33.97559,0 18.73702,-33.9748,0 18.7353,-33.97481,0 18.73401,-33.97456,0 18.73165,-33.97419,0 18.72921,-33.97389,0 18.72779,-33.9737,0 18.72639,-33.97363,0 18.72442,-33.97346,0 18.72254,-33.97318,0 18.72128,-33.97298,0 18.71909,-33.97258,0 18.71827,-33.9725,0 18.71623,-33.97221,0 18.71483,-33.97206,0 18.71297,-33.97182,0 18.71105,-33.9715,0 18.70894,-33.97105,0 18.70764,-33.97092,0 18.70489,-33.97052,0 18.70405,-33.97036,0 18.70209,-33.97007,0 18.70056,-33.96981,0 18.69917,-33.96959,0 18.69707,-33.96914,0 18.69632,-33.96911,0 18.69474,-33.96891,0 18.69337,-33.96865,0 18.69183,-33.96844,0 18.68979,-33.96809,0 18.68809,-33.96786,0 18.68629,-33.96756,0 18.68469,-33.9672,0 18.68324,-33.96691,0 18.68191,-33.96667,0 18.68047,-33.96647,0 18.67881,-33.96616,0 18.67736,-33.96578,0 18.67555,-33.96545,0 18.67367,-33.96503,0 18.67234,-33.96477,0 18.67075,-33.96438,0 18.66932,-33.96414,0 18.66793,-33.96384,0 18.66614,-33.96347,0 18.66459,-33.96291,0 18.66309,-33.96262,0 18.66182,-33.96235,0 18.65873,-33.96172,0 18.65769,-33.9615,0 18.65638,-33.96115,0 18.65504,-33.96081,0 18.65374,-33.96051,0 18.65211,-33.96015,0 18.65074,-33.95988,0 18.64949,-33.95973,0 18.6479,-33.95949,0 18.64626,-33.95916,0 18.64489,-33.95884,0 18.64354,-33.95854,0 18.64219,-33.95825,0 18.64068,-33.95799,0 18.63923,-33.95769,0 18.63776,-33.95764,0 18.63602,-33.95753,0 18.63411,-33.95738,0 18.63258,-33.95715,0 18.63092,-33.95697,0 18.62957,-33.95679,0 18.62767,-33.95661,0 18.62618,-33.95642,0 18.62442,-33.95625,0 18.62273,-33.95607,0 18.62119,-33.95601,0 18.61965,-33.95592,0 18.61808,-33.95588,0 18.61644,-33.95584,0 18.61494,-33.95592,0 18.61294,-33.95598,0 18.61147,-33.95608,0 18.60983,-33.95621,0 18.60833,-33.95642,0 18.60683,-33.95657,0 18.60535,-33.95676,0 18.6032,-33.95702,0 18.60189,-33.95723,0 18.60042,-33.95744,0 18.59887,-33.9576,0 18.59746,-33.95774,0 18.59587,-33.95797,0 18.59416,-33.95825,0 18.5926,-33.9585,0 18.59118,-33.95881,0 18.58988,-33.95906,0 18.58849,-33.95942,0 18.58707,-33.9598,0 18.5857,-33.96022,0 18.58446,-33.96065,0 18.58336,-33.9612,0 18.58205,-33.96179,0 18.58086,-33.96226,0 18.57954,-33.96273,0 18.578,-33.96337,0 18.57679,-33.9639,0 18.57551,-33.9645,0 18.57385,-33.96522,0 18.57282,-33.9656,0 18.57147,-33.96611,0 18.57031,-33.96644,0 18.5692,-33.96684,0 18.5675,-33.96756,0 18.56631,-33.96796,0 18.565,-33.96841,0 18.56334,-33.96889,0 18.56254,-33.96923,0 18.56106,-33.96979,0 18.55965,-33.9702,0 18.55822,-33.97071,0 18.55643,-33.9713,0 18.55518,-33.97167,0 18.55328,-33.97237,0 18.55216,-33.97295,0 18.55073,-33.97344,0 18.5493,-33.97391,0 18.54783,-33.97443,0 18.5465,-33.97491,0 18.54525,-33.97539,0 18.54378,-33.97594,0 18.5424,-33.97632,0 18.54083,-33.97684,0 18.53928,-33.97739,0 18.53818,-33.97765,0 18.53618,-33.97823,0 18.53514,-33.97854,0 18.5334,-33.97908,0 18.53199,-33.97956,0 18.53081,-33.97992,0 18.52951,-33.98038,0 18.52789,-33.98078,0 18.52654,-33.98113,0 18.52515,-33.98145,0 18.5234,-33.98199,0 18.52276,-33.9823,0 18.52133,-33.98284,0 18.52004,-33.98317,0 18.51779,-33.98359,0 18.51574,-33.98447,0 18.51423,-33.98505,0 18.51277,-33.9854,0 18.51092,-33.98567,0 18.5093,-33.98584,0 18.50798,-33.98579,0 18.50613,-33.98576,0 18.50478,-33.98546,0 18.50312,-33.9852,0 18.5018,-33.985,0 18.49897,-33.9841,0 18.49802,-33.9835,0 18.49665,-33.98255,0 18.49569,-33.98178,0 18.49469,-33.98089,0 18.49361,-33.97993,0 18.49279,-33.97897,0 18.49178,-33.97789,0 18.49081,-33.97678,0 18.48991,-33.97579,0 18.48908,-33.97382,0 18.48872,-33.97206,0 18.49062,-33.97058,0 18.48984,-33.96859,0 18.48914,-33.96713,0 18.48787,-33.96658,0 18.48724,-33.96552,0 18.4868,-33.96412,0 18.48617,-33.96301,0 18.48178,-33.95919,0 18.47927,-33.95783,0 18.47974,-33.95566,0 18.48238,-33.95431,0 18.48115,-33.95322,0 18.48137,-33.95173,0 18.4781,-33.94907,0 18.48138,-33.94821,0 18.48377,-33.9471,0 18.47503,-33.9433,0 18.47612,-33.93761,0 18.47541,-33.93616,0 18.4737,-33.93409,0 18.47874,-33.93486,0 18.48085,-33.93391,0 18.47987,-33.93264,0 18.47753,-33.93066,0 18.47715,-33.92997,0 18.46944,-33.92733,0 18.46458,-33.92559,0 18.46438,-33.92427,0 18.46258,-33.92298,0 18.46209,-33.92208,0 18.46134,-33.92044,0 18.46385,-33.91732,0 18.46035,-33.91548,0 18.45201,-33.91162,0 18.4534,-33.90784,0 18.4096,-33.87418,0 18.42774,-33.87463,0 18.43508,-33.87295,0 18.42938,-33.86695,0 18.44371,-33.86889,0 18.44129,-33.86752,0 18.43542,-33.87165,0 18.43236,-33.87347,0 18.4307,-33.87479,0 18.43057,-33.87537,0 18.42975,-33.87654,0 18.42883,-33.87851,0 18.4287,-33.8805,0 18.43891,-33.8885,0 18.45669,-33.90693,0 18.47533,-33.92921,0 18.47967,-33.93324,0 18.48188,-33.93541,0 18.48009,-33.93768,0 18.47885,-33.93828,0 18.47339,-33.94613,0 18.48152,-33.95046,0 18.48146,-33.95184,0 18.48182,-33.95287,0 18.48183,-33.95426,0 18.48125,-33.95523,0 18.48062,-33.95653,0 18.48011,-33.95769,0 18.48014,-33.95847,0 18.47949,-33.95955,0 18.47878,-33.96051,0 18.47835,-33.96154,0 18.4782,-33.96233,0 18.47774,-33.96343,0 18.47737,-33.96457,0 18.47692,-33.96545,0 18.47623,-33.96655,0 18.47532,-33.96796,0 18.4754,-33.96863,0 18.47486,-33.96988,0 18.47385,-33.97118,0 18.47261,-33.97263,0 18.47147,-33.97399,0 18.47024,-33.97535,0 18.46952,-33.97607,0 18.46822,-33.97731,0 18.46731,-33.97843,0 18.46687,-33.97913,0 18.46571,-33.98014,0 18.46461,-33.98121,0 18.4638,-33.98216,0 18.46334,-33.98274,0 18.46228,-33.98384,0 18.46153,-33.98485,0 18.46075,-33.9859,0 18.45986,-33.98714,0 18.45911,-33.98801,0 18.45817,-33.98881,0 18.45638,-33.99022,0 18.45577,-33.99076,0 18.45485,-33.99192,0 18.45442,-33.99252,0 18.45345,-33.99352,0 18.45202,-33.99495,0 18.45121,-33.99602,0 18.45029,-33.99765,0 18.44959,-33.99915,0 18.44914,-34.00036,0 18.44908,-34.00122,0 18.44889,-34.00297,0 18.44861,-34.004,0 18.44885,-34.00479,0 18.44887,-34.00618,0 18.44921,-34.0072,0 18.44973,-34.00877,0 18.45006,-34.01024,0 18.45039,-34.01173,0 18.45072,-34.01271,0 18.45094,-34.01392,0 18.45097,-34.01497,0 18.45087,-34.0163,0 18.45075,-34.01791,0 18.45086,-34.01899,0 18.45091,-34.02009,0 18.45096,-34.02102,0 18.45111,-34.02238,0 18.4513,-34.02393,0 18.45118,-34.02506,0 18.45102,-34.02631,0 18.45094,-34.0278,0 18.45109,-34.02868,0 18.45063,-34.03033,0 18.45042,-34.03116,0 18.45056,-34.03249,0 18.4509,-34.03344,0 18.45116,-34.03476,0 18.45103,-34.03605,0 18.45102,-34.03725,0 18.45096,-34.03852,0 18.45096,-34.04014,0 18.45145,-34.04111,0 18.45194,-34.04239,0 18.45247,-34.04338,0 18.45298,-34.04445,0 18.45334,-34.04565,0 18.45358,-34.0467,0 18.45399,-34.048,0 18.45473,-34.04927,0 18.45522,-34.05018,0 18.4559,-34.05147,0 18.45604,-34.05257,0 18.45649,-34.05383,0 18.45726,-34.05505,0 18.45759,-34.05599,0 18.45776,-34.05722,0 18.45827,-34.05848,0 18.45862,-34.0595,0 18.45918,-34.06092,0 18.45947,-34.06178,0 18.46012,-34.06285,0 18.46043,-34.06388,0 18.46121,-34.06512,0 18.46169,-34.06607,0 18.46233,-34.06723,0 18.46244,-34.06828,0 18.46273,-34.06943,0 18.46311,-34.07064,0 18.46349,-34.07169,0 18.46426,-34.0731,0 18.46453,-34.07386,0 18.46474,-34.07537,0 18.46521,-34.0765,0 18.46576,-34.07747,0 18.46658,-34.07848,0 18.46726,-34.07968,0 18.468,-34.08087,0 18.46847,-34.08146,0 18.46958,-34.08263,0 18.46975,-34.08351,0 18.47057,-34.08465,0 18.47113,-34.08567,0 18.47179,-34.08667,0 18.47232,-34.08782,0 18.47306,-34.08881,0 18.47408,-34.08994,0 18.47465,-34.09071,0 18.47523,-34.09172,0 18.47561,-34.09275,0 18.47617,-34.09417,0 18.47639,-34.09463,0 18.4768,-34.0961,0 18.47705,-34.09694,0 18.47757,-34.09811,0 18.47791,-34.09883,0 18.47813,-34.10022,0 18.47795,-34.10169,0 18.47788,-34.10278,0 18.4782,-34.10396,0 18.47836,-34.10497,0 18.47825,-34.10613,0 18.47825,-34.10703,0 18.47718,-34.10823,0 18.47676,-34.10975,0 18.47644,-34.11043,0 18.47572,-34.11151,0 18.47495,-34.11263,0 18.47439,-34.11367,0 18.47383,-34.11481,0 18.4733,-34.11586,0 18.47272,-34.11692,0 18.47211,-34.11798,0 18.47157,-34.11902,0 18.47097,-34.12011,0 18.47035,-34.12128,0 18.46979,-34.1221,0 18.46916,-34.12301,0 18.46834,-34.12424,0 18.46795,-34.12491,0 18.46709,-34.12607,0 18.46622,-34.12727,0 18.46539,-34.12822,0 18.46447,-34.12933,0 18.46353,-34.1305,0 18.46304,-34.13109,0 18.46149,-34.13283,0 18.45978,-34.13428,0 18.45929,-34.13459,0 18.458,-34.1355,0 18.45681,-34.13613,0 18.4557,-34.13663,0 18.45419,-34.13719,0 18.45294,-34.1376,0 18.45156,-34.13797,0 18.45036,-34.13816,0 18.44898,-34.13834,0 18.4472,-34.13849,0 18.44538,-34.13855,0 18.44404,-34.13858,0 18.44247,-34.13852,0 18.44073,-34.13844,0 18.43906,-34.13833,0 18.43749,-34.13816,0 18.43571,-34.1379,0 18.43418,-34.13765,0 18.43259,-34.13747,0 18.43075,-34.13706,0 18.42953,-34.13676,0 18.42808,-34.13642,0 18.36174,-33.91623,0 18.35936,-33.91447,0 18.36378,-33.91326,0 18.36681,-33.91267,0 18.36445,-33.90882,0 18.36907,-33.90818,0 18.36041,-33.90507,0 18.35959,-33.90392,0 18.37719,-33.8979,0 18.37609,-33.89825,0 18.38273,-33.89545,0</coordinates>
      </LineString>
    </Placemark>
  </Document>
</kml>
